<?xml version="1.0" encoding="UTF-8"?>
<osm version="0.6" generator="Overpass API 0.7.62.5 1bd436f1">
<note>The data included in this document is from www.openstreetmap.org. The data is made available under ODbL.</note>
<meta osm_base="2025-05-18T01:30:06Z" areas="2024-12-31T00:49:33Z"/>

  <node id="21441709" lat="52.5929388" lon="13.3725953" version="7" timestamp="2025-03-22T19:58:12Z" changeset="163962560" uid="44217" user="kjon"/>
  <node id="30432096" lat="52.5848887" lon="13.3746946" version="4" timestamp="2020-07-04T18:53:55Z" changeset="87538678" uid="44217" user="kjon"/>
  <node id="30432098" lat="52.5856919" lon="13.3744928" version="6" timestamp="2020-07-04T18:53:55Z" changeset="87538678" uid="44217" user="kjon"/>
  <node id="30432100" lat="52.5867732" lon="13.3741935" version="5" timestamp="2020-06-28T18:15:20Z" changeset="87257702" uid="44217" user="kjon"/>
  <node id="30432110" lat="52.5783255" lon="13.3763401" version="7" timestamp="2023-12-08T19:51:27Z" changeset="144915839" uid="44217" user="kjon"/>
  <node id="30432131" lat="52.5855281" lon="13.3710548" version="4" timestamp="2020-07-04T18:53:55Z" changeset="87538678" uid="44217" user="kjon"/>
  <node id="30432265" lat="52.5896625" lon="13.3724632" version="4" timestamp="2020-06-28T18:15:20Z" changeset="87257702" uid="44217" user="kjon"/>
  <node id="30432561" lat="52.5900822" lon="13.3650803" version="5" timestamp="2012-08-08T07:50:18Z" changeset="12654139" uid="773846" user="mister-t"/>
  <node id="30432571" lat="52.5930596" lon="13.3710311" version="4" timestamp="2018-12-08T23:03:22Z" changeset="65303110" uid="799014" user="hdy3er"/>
  <node id="30432572" lat="52.5927481" lon="13.3688022" version="4" timestamp="2020-06-28T18:15:20Z" changeset="87257702" uid="44217" user="kjon"/>
  <node id="30432649" lat="52.5933399" lon="13.3728224" version="7" timestamp="2019-01-03T21:53:18Z" changeset="66002897" uid="799014" user="hdy3er"/>
  <node id="223825928" lat="52.5907687" lon="13.3713869" version="7" timestamp="2020-06-28T18:15:20Z" changeset="87257702" uid="44217" user="kjon"/>
  <node id="260040290" lat="52.5899756" lon="13.3477372" version="6" timestamp="2023-06-06T07:18:42Z" changeset="137000762" uid="18208051" user="MappiViewer"/>
  <node id="281414504" lat="52.5884223" lon="13.3732494" version="9" timestamp="2023-12-08T19:51:27Z" changeset="144915839" uid="44217" user="kjon"/>
  <node id="10958980041" lat="52.5813209" lon="13.3638129" version="1" timestamp="2023-06-06T07:18:42Z" changeset="137000762" uid="18208051" user="MappiViewer"/>
  <way id="4045655" version="11" timestamp="2025-03-22T19:58:12Z" changeset="163962560" uid="44217" user="kjon">
    <nd ref="21441709"/>
    <nd ref="12691723602"/>
    <nd ref="12691723601"/>
    <nd ref="12691642800"/>
    <nd ref="21441710"/>
    <nd ref="2167575487"/>
    <nd ref="2167575536"/>
    <nd ref="2167575508"/>
    <nd ref="21441712"/>
    <tag k="highway" v="residential"/>
    <tag k="maxspeed" v="30"/>
    <tag k="maxspeed:type" v="DE:zone30"/>
    <tag k="name" v="Am Wiesengrund"/>
    <tag k="name:etymology:wikidata" v="Q7777019"/>
    <tag k="name:etymology:wikipedia" v="de:Wiese (Grünland)"/>
    <tag k="postal_code" v="13158"/>
    <tag k="surface" v="paving_stones"/>
  </way>
  <way id="4045656" version="29" timestamp="2023-12-15T06:21:47Z" changeset="145137307" uid="10961311" user="StefanHRT">
    <nd ref="30432649"/>
    <nd ref="30432575"/>
    <nd ref="3997497638"/>
    <nd ref="21441709"/>
    <nd ref="561503519"/>
    <nd ref="3997497604"/>
    <nd ref="3997497601"/>
    <nd ref="7475587985"/>
    <nd ref="7475587988"/>
    <nd ref="21441714"/>
    <tag k="cycleway" v="track"/>
    <tag k="highway" v="secondary"/>
    <tag k="lanes" v="2"/>
    <tag k="lit" v="yes"/>
    <tag k="maxspeed" v="50"/>
    <tag k="name" v="Hauptstraße"/>
    <tag k="name:etymology:wikidata" v="Q1006835"/>
    <tag k="name:etymology:wikipedia" v="de:Hauptstraße (allgemein)"/>
    <tag k="sidewalk" v="both"/>
    <tag k="sidewalk:both:surface" v="paving_stones"/>
    <tag k="smoothness" v="good"/>
    <tag k="surface" v="asphalt"/>
  </way>
  <way id="4764860" version="24" timestamp="2024-11-09T12:16:22Z" changeset="158930967" uid="44217" user="kjon">
    <nd ref="30432110"/>
    <nd ref="10127884851"/>
    <nd ref="10127884852"/>
    <nd ref="30432111"/>
    <nd ref="10127884854"/>
    <nd ref="8185157329"/>
    <nd ref="297931085"/>
    <nd ref="7752008591"/>
    <nd ref="2638797039"/>
    <nd ref="30432112"/>
    <nd ref="30432117"/>
    <nd ref="5404355949"/>
    <nd ref="30432122"/>
    <nd ref="5403178951"/>
    <nd ref="7683344150"/>
    <nd ref="5403178952"/>
    <nd ref="1846792488"/>
    <nd ref="533867064"/>
    <nd ref="30432123"/>
    <tag k="cycleway:both" v="no"/>
    <tag k="highway" v="residential"/>
    <tag k="lit" v="yes"/>
    <tag k="maxspeed" v="30"/>
    <tag k="name" v="Waldsteg"/>
    <tag k="name:etymology:wikidata" v="Q2369660"/>
    <tag k="name:etymology:wikipedia" v="de:Volkspark Schönholzer Heide"/>
    <tag k="oneway" v="yes"/>
    <tag k="parking:both" v="no"/>
    <tag k="postal_code" v="13158"/>
    <tag k="sidewalk" v="no"/>
    <tag k="smoothness" v="intermediate"/>
    <tag k="surface" v="asphalt"/>
  </way>
  <way id="4764878" version="21" timestamp="2023-12-15T06:29:44Z" changeset="145137454" uid="10961311" user="StefanHRT">
    <nd ref="30432123"/>
    <nd ref="3228577936"/>
    <nd ref="11407311602"/>
    <nd ref="30432124"/>
    <nd ref="11407311601"/>
    <nd ref="872607085"/>
    <nd ref="872607115"/>
    <tag k="cycleway:both" v="no"/>
    <tag k="foot" v="use_sidepath"/>
    <tag k="highway" v="residential"/>
    <tag k="lanes" v="1"/>
    <tag k="lit" v="yes"/>
    <tag k="maxspeed" v="30"/>
    <tag k="name" v="Niederstraße"/>
    <tag k="name:etymology:wikidata" v="Q104775941"/>
    <tag k="postal_code" v="13158"/>
    <tag k="sidewalk:both" v="separate"/>
    <tag k="smoothness" v="very_bad"/>
    <tag k="surface" v="sett"/>
  </way>
  <way id="4764884" version="18" timestamp="2023-12-09T11:34:19Z" changeset="144931730" uid="44217" user="kjon">
    <nd ref="30432133"/>
    <nd ref="11403884675"/>
    <nd ref="11403884644"/>
    <nd ref="7683344108"/>
    <nd ref="7683344107"/>
    <tag k="highway" v="residential"/>
    <tag k="lit" v="yes"/>
    <tag k="maxspeed" v="30"/>
    <tag k="name" v="Marthastraße"/>
    <tag k="name:etymology:wikidata" v="Q232453"/>
    <tag k="postal_code" v="13158"/>
    <tag k="sidewalk:both" v="separate"/>
    <tag k="sidewalk:both:surface" v="paving_stones"/>
    <tag k="smoothness" v="intermediate"/>
    <tag k="surface" v="asphalt"/>
  </way>
  <way id="4764886" version="22" timestamp="2023-12-15T06:29:44Z" changeset="145137454" uid="10961311" user="StefanHRT">
    <nd ref="872607242"/>
    <nd ref="11407311607"/>
    <nd ref="11407311600"/>
    <nd ref="30432124"/>
    <nd ref="11407311603"/>
    <nd ref="11407311620"/>
    <nd ref="30432127"/>
    <nd ref="11407311618"/>
    <nd ref="11407311629"/>
    <nd ref="30432128"/>
    <nd ref="11407311631"/>
    <nd ref="30432129"/>
    <nd ref="11407311610"/>
    <nd ref="11403884653"/>
    <nd ref="30432130"/>
    <tag k="cycleway:both" v="no"/>
    <tag k="foot" v="use_sidepath"/>
    <tag k="highway" v="residential"/>
    <tag k="lanes" v="1"/>
    <tag k="lit" v="yes"/>
    <tag k="maxspeed" v="30"/>
    <tag k="name" v="Tollerstraße"/>
    <tag k="name:etymology:wikidata" v="Q57266"/>
    <tag k="postal_code" v="13158"/>
    <tag k="sidewalk:both" v="separate"/>
    <tag k="smoothness" v="very_bad"/>
    <tag k="surface" v="unhewn_cobblestone"/>
  </way>
  <way id="4764928" version="21" timestamp="2023-12-15T06:21:47Z" changeset="145137307" uid="10961311" user="StefanHRT">
    <nd ref="30432264"/>
    <nd ref="11401809524"/>
    <nd ref="11401809521"/>
    <nd ref="30432263"/>
    <nd ref="11403884575"/>
    <nd ref="10858247757"/>
    <tag k="foot" v="use_sidepath"/>
    <tag k="highway" v="residential"/>
    <tag k="lit" v="yes"/>
    <tag k="maxspeed" v="30"/>
    <tag k="maxspeed:type" v="DE:zone30"/>
    <tag k="name" v="Beethovenstraße"/>
    <tag k="name:etymology:wikidata" v="Q255"/>
    <tag k="postal_code" v="13158"/>
    <tag k="sidewalk:both" v="separate"/>
    <tag k="smoothness" v="intermediate"/>
    <tag k="surface" v="sett"/>
  </way>
  <way id="4764937" version="11" timestamp="2023-12-08T19:51:27Z" changeset="144915839" uid="44217" user="kjon">
    <nd ref="281414504"/>
    <nd ref="11403884572"/>
    <nd ref="2151142173"/>
    <nd ref="30432270"/>
    <tag k="highway" v="residential"/>
    <tag k="maxspeed" v="30"/>
    <tag k="name" v="Anton-Webern-Weg"/>
    <tag k="name:etymology:wikidata" v="Q190933"/>
    <tag k="postal_code" v="13158"/>
    <tag k="surface" v="asphalt"/>
  </way>
  <way id="4764953" version="13" timestamp="2023-12-08T20:58:00Z" changeset="144917649" uid="44217" user="kjon">
    <nd ref="30432265"/>
    <nd ref="30432290"/>
    <nd ref="11403965288"/>
    <nd ref="30432268"/>
    <tag k="highway" v="residential"/>
    <tag k="maxspeed" v="30"/>
    <tag k="name" v="Strawinskystraße"/>
    <tag k="name:etymology:wikidata" v="Q7314"/>
    <tag k="postal_code" v="13158"/>
    <tag k="sidewalk" v="no"/>
    <tag k="smoothness" v="good"/>
    <tag k="surface" v="asphalt"/>
  </way>
  <way id="4765032" version="25" timestamp="2024-09-29T12:10:03Z" changeset="157249591" uid="44217" user="kjon">
    <nd ref="30432546"/>
    <nd ref="11407453927"/>
    <nd ref="11407453931"/>
    <nd ref="11407453914"/>
    <nd ref="30432542"/>
    <nd ref="11407453912"/>
    <nd ref="12208838060"/>
    <nd ref="30432547"/>
    <nd ref="7661653730"/>
    <nd ref="12208838057"/>
    <nd ref="30432548"/>
    <nd ref="12208838051"/>
    <nd ref="11407453937"/>
    <nd ref="30432549"/>
    <nd ref="11407453939"/>
    <nd ref="6847218854"/>
    <nd ref="11407453887"/>
    <nd ref="30432550"/>
    <nd ref="11407453877"/>
    <nd ref="6877910868"/>
    <nd ref="11169107465"/>
    <tag k="cycleway:both" v="no"/>
    <tag k="foot" v="use_sidepath"/>
    <tag k="highway" v="residential"/>
    <tag k="lit" v="yes"/>
    <tag k="maxspeed" v="30"/>
    <tag k="name" v="Garibaldistraße"/>
    <tag k="name:etymology:wikidata" v="Q539"/>
    <tag k="postal_code" v="13158"/>
    <tag k="sidewalk:both" v="separate"/>
    <tag k="smoothness" v="very_bad"/>
    <tag k="surface" v="sett"/>
  </way>
  <way id="4765039" version="26" timestamp="2024-11-16T14:18:56Z" changeset="159210013" uid="44217" user="kjon">
    <nd ref="30432549"/>
    <nd ref="11407453935"/>
    <nd ref="10836347332"/>
    <nd ref="11407453945"/>
    <nd ref="30432556"/>
    <nd ref="11407311731"/>
    <nd ref="11407453955"/>
    <nd ref="253036017"/>
    <tag k="cycleway" v="no"/>
    <tag k="foot" v="use_sidepath"/>
    <tag k="highway" v="residential"/>
    <tag k="lanes" v="1"/>
    <tag k="lit" v="yes"/>
    <tag k="maxspeed" v="30"/>
    <tag k="name" v="Uhlandstraße"/>
    <tag k="name:etymology:wikidata" v="Q61058"/>
    <tag k="sidewalk:both" v="separate"/>
    <tag k="smoothness" v="bad"/>
    <tag k="surface" v="sett"/>
  </way>
  <way id="4765042" version="13" timestamp="2024-05-06T08:55:40Z" changeset="150953686" uid="19550286" user="MoriGM">
    <nd ref="30432564"/>
    <nd ref="11407311701"/>
    <nd ref="8266930883"/>
    <nd ref="11407311697"/>
    <nd ref="30432563"/>
    <tag k="foot" v="use_sidepath"/>
    <tag k="highway" v="residential"/>
    <tag k="lit" v="yes"/>
    <tag k="maxspeed" v="30"/>
    <tag k="maxspeed:type" v="DE:zone30"/>
    <tag k="name" v="Seegerstraße"/>
    <tag k="name:etymology:wikidata" v="Q104775962"/>
    <tag k="postal_code" v="13158"/>
    <tag k="sidewalk:both" v="separate"/>
    <tag k="surface" v="cobblestone"/>
  </way>
  <way id="4765047" version="27" timestamp="2023-12-15T06:29:44Z" changeset="145137454" uid="10961311" user="StefanHRT">
    <nd ref="253036018"/>
    <nd ref="6880446505"/>
    <nd ref="6880446507"/>
    <nd ref="11407453970"/>
    <nd ref="30432559"/>
    <nd ref="6837483090"/>
    <nd ref="6912214769"/>
    <nd ref="6837483093"/>
    <nd ref="11407311738"/>
    <nd ref="253036017"/>
    <nd ref="11407311736"/>
    <nd ref="11407311703"/>
    <nd ref="30432564"/>
    <nd ref="11407311700"/>
    <nd ref="6888098014"/>
    <nd ref="11407311713"/>
    <nd ref="30432570"/>
    <nd ref="11407311716"/>
    <nd ref="7475558828"/>
    <nd ref="11169096505"/>
    <tag k="cycleway:both" v="no"/>
    <tag k="foot" v="use_sidepath"/>
    <tag k="highway" v="residential"/>
    <tag k="lit" v="yes"/>
    <tag k="maxspeed" v="30"/>
    <tag k="name" v="Schillerstraße"/>
    <tag k="name:etymology:wikidata" v="Q22670"/>
    <tag k="postal_code" v="13158"/>
    <tag k="sidewalk:both" v="separate"/>
    <tag k="smoothness" v="very_bad"/>
    <tag k="surface" v="sett"/>
    <tag k="wikidata" v="Q96306001"/>
  </way>
  <way id="4765050" version="23" timestamp="2023-12-10T15:22:58Z" changeset="144968263" uid="44217" user="kjon">
    <nd ref="30432562"/>
    <nd ref="4518983121"/>
    <nd ref="350480839"/>
    <nd ref="350480836"/>
    <nd ref="872664924"/>
    <nd ref="11407454039"/>
    <nd ref="1020749236"/>
    <nd ref="30432560"/>
    <tag k="cycleway" v="no"/>
    <tag k="highway" v="residential"/>
    <tag k="lanes" v="2"/>
    <tag k="lit" v="yes"/>
    <tag k="maxspeed" v="30"/>
    <tag k="name" v="Lessingstraße"/>
    <tag k="name:etymology:wikidata" v="Q34628"/>
    <tag k="sidewalk:both" v="separate"/>
    <tag k="sidewalk:left:surface" v="asphalt"/>
    <tag k="sidewalk:right:surface" v="paving_stones"/>
    <tag k="smoothness" v="good"/>
    <tag k="surface" v="asphalt"/>
    <tag k="wikidata" v="Q93205449"/>
  </way>
  <way id="4765055" version="18" timestamp="2024-05-08T15:16:16Z" changeset="151061763" uid="6811035" user="SteMue">
    <nd ref="30432545"/>
    <nd ref="11407454080"/>
    <nd ref="30432554"/>
    <nd ref="30432553"/>
    <nd ref="11407453928"/>
    <nd ref="11407453926"/>
    <nd ref="30432546"/>
    <nd ref="11407453896"/>
    <nd ref="1849712278"/>
    <nd ref="350470997"/>
    <tag k="cycleway:both" v="no"/>
    <tag k="foot" v="use_sidepath"/>
    <tag k="highway" v="residential"/>
    <tag k="lit" v="yes"/>
    <tag k="maxspeed" v="30"/>
    <tag k="name" v="Fontanestraße"/>
    <tag k="name:etymology:wikidata" v="Q76632"/>
    <tag k="postal_code" v="13158"/>
    <tag k="sidewalk:both" v="separate"/>
    <tag k="smoothness" v="good"/>
    <tag k="surface" v="concrete"/>
    <tag k="wikidata" v="Q93204942"/>
  </way>
  <way id="4765057" version="8" timestamp="2025-05-07T11:09:35Z" changeset="165933370" uid="22821321" user="MMT_Official">
    <nd ref="30432563"/>
    <nd ref="11407311679"/>
    <nd ref="30432566"/>
    <tag k="highway" v="residential"/>
    <tag k="lit" v="yes"/>
    <tag k="maxspeed" v="30"/>
    <tag k="name" v="Seegerstraße"/>
    <tag k="name:etymology:wikidata" v="Q104775962"/>
    <tag k="postal_code" v="13158"/>
    <tag k="source:width" v="ARCore"/>
    <tag k="surface" v="asphalt"/>
    <tag k="width" v="4.5"/>
  </way>
  <way id="4765061" version="28" timestamp="2023-12-15T06:21:47Z" changeset="145137307" uid="10961311" user="StefanHRT">
    <nd ref="30432545"/>
    <nd ref="11407454078"/>
    <nd ref="3997497619"/>
    <nd ref="1855383309"/>
    <nd ref="5215223231"/>
    <nd ref="30432555"/>
    <nd ref="11407453949"/>
    <nd ref="3997497608"/>
    <nd ref="11407453961"/>
    <nd ref="30432559"/>
    <nd ref="3997497609"/>
    <nd ref="7210661448"/>
    <nd ref="11407454043"/>
    <nd ref="4446015555"/>
    <nd ref="4446015541"/>
    <nd ref="30432560"/>
    <tag k="check_date:cycleway" v="2023-07-16"/>
    <tag k="cycleway:both" v="no"/>
    <tag k="foot" v="use_sidepath"/>
    <tag k="highway" v="tertiary"/>
    <tag k="lanes" v="2"/>
    <tag k="lit" v="yes"/>
    <tag k="maxspeed" v="50"/>
    <tag k="name" v="Fontanestraße"/>
    <tag k="name:etymology:wikidata" v="Q76632"/>
    <tag k="sidewalk:both" v="separate"/>
    <tag k="smoothness" v="good"/>
    <tag k="surface" v="asphalt"/>
    <tag k="wikidata" v="Q93204942"/>
  </way>
  <way id="22965573" version="10" timestamp="2025-04-29T16:32:15Z" changeset="165600480" uid="14271723" user="Pinoro">
    <nd ref="30432571"/>
    <nd ref="872694298"/>
    <tag k="highway" v="residential"/>
    <tag k="lit" v="yes"/>
    <tag k="maxspeed" v="30"/>
    <tag k="name" v="Hielscherstraße"/>
    <tag k="name:etymology:wikidata" v="Q2581982"/>
    <tag k="postal_code" v="13158"/>
    <tag k="smoothness" v="intermediate"/>
    <tag k="surface" v="compacted"/>
  </way>
  <way id="23984630" version="15" timestamp="2024-06-20T10:41:27Z" changeset="152937249" uid="18416863" user="Anton_Klebanovich">
    <nd ref="260040290"/>
    <nd ref="718884118"/>
    <nd ref="718884390"/>
    <nd ref="11993592582"/>
    <nd ref="295185722"/>
    <nd ref="260040298"/>
    <nd ref="11993592586"/>
    <nd ref="295185714"/>
    <nd ref="11961476025"/>
    <nd ref="718884103"/>
    <nd ref="11961476026"/>
    <nd ref="11961476027"/>
    <nd ref="260040308"/>
    <nd ref="11961476028"/>
    <nd ref="305375942"/>
    <nd ref="260040309"/>
    <tag k="highway" v="unclassified"/>
    <tag k="lane_markings" v="no"/>
    <tag k="lit" v="yes"/>
    <tag k="maxspeed:type" v="DE:urban"/>
    <tag k="name" v="Heinz-Brandt-Straße"/>
    <tag k="name:etymology:wikidata" v="Q1513090"/>
    <tag k="sidewalk:both" v="separate"/>
    <tag k="sidewalk:both:surface" v="paving_stones"/>
    <tag k="sidewalk:left:bicycle" v="yes"/>
    <tag k="smoothness" v="good"/>
    <tag k="surface" v="asphalt"/>
  </way>
  <way id="25799716" version="21" timestamp="2023-12-15T06:21:47Z" changeset="145137307" uid="10961311" user="StefanHRT">
    <nd ref="30432261"/>
    <nd ref="11403884607"/>
    <nd ref="7850200901"/>
    <nd ref="11403884583"/>
    <nd ref="965037654"/>
    <nd ref="11403884585"/>
    <nd ref="11403884571"/>
    <nd ref="965037657"/>
    <tag k="foot" v="use_sidepath"/>
    <tag k="highway" v="residential"/>
    <tag k="lit" v="yes"/>
    <tag k="maxspeed" v="30"/>
    <tag k="maxspeed:type" v="DE:zone30"/>
    <tag k="name" v="Mozartstraße"/>
    <tag k="name:etymology:wikidata" v="Q254"/>
    <tag k="postal_code" v="13158"/>
    <tag k="sidewalk:both" v="separate"/>
    <tag k="smoothness" v="good"/>
    <tag k="surface" v="paving_stones"/>
  </way>
  <way id="25957604" version="14" timestamp="2024-05-07T08:46:08Z" changeset="150998209" uid="19550286" user="MoriGM">
    <nd ref="30432098"/>
    <nd ref="11403965298"/>
    <nd ref="561503493"/>
    <nd ref="561503501"/>
    <nd ref="872607285"/>
    <tag k="highway" v="residential"/>
    <tag k="lit" v="yes"/>
    <tag k="maxspeed" v="30"/>
    <tag k="name" v="Schönholzer Weg"/>
    <tag k="name:etymology:wikidata" v="Q821133"/>
    <tag k="postal_code" v="13156"/>
    <tag k="surface" v="asphalt"/>
    <tag k="wikidata" v="Q67152092"/>
  </way>
  <way id="27811428" version="18" timestamp="2024-05-08T15:23:25Z" changeset="151061763" uid="6811035" user="SteMue">
    <nd ref="3897283056"/>
    <nd ref="350468626"/>
    <nd ref="8333889808"/>
    <nd ref="11407454076"/>
    <nd ref="30432545"/>
    <tag k="cycleway:both" v="no"/>
    <tag k="foot" v="use_sidepath"/>
    <tag k="highway" v="residential"/>
    <tag k="lit" v="yes"/>
    <tag k="maxspeed" v="30"/>
    <tag k="maxspeed:type" v="sign"/>
    <tag k="name" v="Hertzstraße"/>
    <tag k="name:etymology:wikidata" v="Q41257"/>
    <tag k="oneway" v="no"/>
    <tag k="postal_code" v="13158"/>
    <tag k="sidewalk:both" v="separate"/>
    <tag k="smoothness" v="good"/>
    <tag k="surface" v="asphalt"/>
    <tag k="wikidata" v="Q93204559"/>
  </way>
  <way id="34428911" version="16" timestamp="2023-12-09T11:31:49Z" changeset="144931730" uid="44217" user="kjon">
    <nd ref="30432100"/>
    <nd ref="7661363467"/>
    <nd ref="1020742510"/>
    <nd ref="8267004617"/>
    <nd ref="281414504"/>
    <nd ref="965037657"/>
    <nd ref="2151142156"/>
    <nd ref="30432266"/>
    <nd ref="30432265"/>
    <nd ref="30432264"/>
    <nd ref="281426264"/>
    <nd ref="1020742008"/>
    <nd ref="7661363366"/>
    <nd ref="7661363367"/>
    <nd ref="587751145"/>
    <tag k="cycleway:both" v="no"/>
    <tag k="highway" v="residential"/>
    <tag k="lit" v="yes"/>
    <tag k="maxspeed" v="30"/>
    <tag k="maxspeed:type" v="DE:zone30"/>
    <tag k="name" v="Schönholzer Weg"/>
    <tag k="name:etymology:wikidata" v="Q821133"/>
    <tag k="postal_code" v="13158"/>
    <tag k="sidewalk:left" v="separate"/>
    <tag k="sidewalk:left:surface" v="paving_stones"/>
    <tag k="sidewalk:right" v="no"/>
    <tag k="smoothness" v="bad"/>
    <tag k="source:maxspeed" v="DE:zone30"/>
    <tag k="surface" v="sett"/>
    <tag k="traffic_sign" v="DE:274.1"/>
    <tag k="wikidata" v="Q67152092"/>
    <tag k="zone:maxspeed" v="DE:30"/>
  </way>
  <way id="34428920" version="28" timestamp="2024-08-01T15:53:02Z" changeset="154700632" uid="4820084" user="mardiz">
    <nd ref="30432115"/>
    <nd ref="7475558832"/>
    <nd ref="7475558825"/>
    <nd ref="3997522045"/>
    <nd ref="7478059522"/>
    <nd ref="11403884608"/>
    <nd ref="30432261"/>
    <nd ref="11403884609"/>
    <nd ref="8838150712"/>
    <nd ref="3983501454"/>
    <nd ref="6862460221"/>
    <nd ref="1020742494"/>
    <nd ref="11403884566"/>
    <tag k="cycleway:both" v="no"/>
    <tag k="foot" v="use_sidepath"/>
    <tag k="highway" v="secondary"/>
    <tag k="lanes" v="2"/>
    <tag k="lit" v="yes"/>
    <tag k="maxspeed" v="50"/>
    <tag k="name" v="Schillerstraße"/>
    <tag k="name:etymology:wikidata" v="Q22670"/>
    <tag k="sidewalk:both" v="separate"/>
    <tag k="smoothness" v="good"/>
    <tag k="surface" v="asphalt"/>
    <tag k="wikidata" v="Q96306001"/>
  </way>
  <way id="34570401" version="23" timestamp="2023-12-15T06:21:47Z" changeset="145137307" uid="10961311" user="StefanHRT">
    <nd ref="9041466246"/>
    <nd ref="7475558827"/>
    <nd ref="7475558830"/>
    <nd ref="30432115"/>
    <tag k="cycleway:both" v="no"/>
    <tag k="foot" v="use_sidepath"/>
    <tag k="highway" v="secondary"/>
    <tag k="lanes" v="2"/>
    <tag k="lit" v="yes"/>
    <tag k="maxspeed" v="50"/>
    <tag k="maxspeed:conditional" v="30 @ (22:00-06:00)"/>
    <tag k="name" v="Hauptstraße"/>
    <tag k="name:etymology:wikidata" v="Q1006835"/>
    <tag k="name:etymology:wikipedia" v="de:Hauptstraße (allgemein)"/>
    <tag k="sidewalk:both" v="separate"/>
    <tag k="smoothness" v="good"/>
    <tag k="surface" v="asphalt"/>
  </way>
  <way id="34570444" version="21" timestamp="2024-05-08T15:16:04Z" changeset="151061763" uid="6811035" user="SteMue">
    <nd ref="30432125"/>
    <nd ref="30432114"/>
    <nd ref="3983515319"/>
    <nd ref="350470937"/>
    <tag k="cycleway:both" v="no"/>
    <tag k="foot" v="use_sidepath"/>
    <tag k="highway" v="secondary"/>
    <tag k="lanes" v="2"/>
    <tag k="lit" v="yes"/>
    <tag k="maxspeed" v="30"/>
    <tag k="name" v="Hauptstraße"/>
    <tag k="name:etymology:wikidata" v="Q1006835"/>
    <tag k="name:etymology:wikipedia" v="de:Hauptstraße (allgemein)"/>
    <tag k="postal_code" v="13158"/>
    <tag k="sidewalk:both" v="separate"/>
    <tag k="smoothness" v="good"/>
    <tag k="surface" v="asphalt"/>
  </way>
  <way id="35149993" version="10" timestamp="2025-05-07T11:09:35Z" changeset="165933370" uid="22821321" user="MMT_Official">
    <nd ref="30432565"/>
    <nd ref="30432566"/>
    <nd ref="30432567"/>
    <nd ref="7842302270"/>
    <nd ref="30432568"/>
    <tag k="highway" v="residential"/>
    <tag k="lit" v="yes"/>
    <tag k="maxspeed" v="30"/>
    <tag k="name" v="Buchhorster Straße"/>
    <tag k="name:etymology:wikidata" v="Q101002732"/>
    <tag k="postal_code" v="13158"/>
    <tag k="sidewalk" v="no"/>
    <tag k="smoothness" v="good"/>
    <tag k="source:width" v="ARCore"/>
    <tag k="surface" v="asphalt"/>
    <tag k="width" v="4.5"/>
  </way>
  <way id="36940417" version="7" timestamp="2021-07-30T17:35:39Z" changeset="108904022" uid="114388" user="ubahnverleih">
    <nd ref="260040309"/>
    <nd ref="260040310"/>
    <tag k="cycleway:both" v="no"/>
    <tag k="highway" v="unclassified"/>
    <tag k="lane_markings" v="no"/>
    <tag k="name" v="Heinz-Brandt-Straße"/>
    <tag k="name:etymology:wikidata" v="Q1513090"/>
    <tag k="name:etymology:wikipedia" v="de:Heinz Brandt (Widerstandskämpfer)"/>
    <tag k="surface" v="asphalt"/>
  </way>
  <way id="40817793" version="20" timestamp="2023-12-15T06:29:44Z" changeset="145137454" uid="10961311" user="StefanHRT">
    <nd ref="30432545"/>
    <nd ref="11407454082"/>
    <nd ref="3997497618"/>
    <nd ref="11407453932"/>
    <nd ref="30432542"/>
    <nd ref="11407453905"/>
    <nd ref="6824668249"/>
    <nd ref="6850871038"/>
    <nd ref="11407453883"/>
    <nd ref="30432540"/>
    <nd ref="11407453874"/>
    <nd ref="3983515320"/>
    <nd ref="11407453871"/>
    <nd ref="30432125"/>
    <tag k="cycleway" v="no"/>
    <tag k="foot" v="use_sidepath"/>
    <tag k="highway" v="tertiary"/>
    <tag k="lanes" v="2"/>
    <tag k="lit" v="yes"/>
    <tag k="maxspeed" v="50"/>
    <tag k="name" v="Hertzstraße"/>
    <tag k="name:etymology:wikidata" v="Q41257"/>
    <tag k="sidewalk:both" v="separate"/>
    <tag k="smoothness" v="good"/>
    <tag k="surface" v="asphalt"/>
    <tag k="wikidata" v="Q93204559"/>
  </way>
  <way id="40817795" version="24" timestamp="2023-12-15T06:21:47Z" changeset="145137307" uid="10961311" user="StefanHRT">
    <nd ref="30432560"/>
    <nd ref="11407454037"/>
    <nd ref="3997497630"/>
    <nd ref="1020742243"/>
    <nd ref="3997497631"/>
    <nd ref="8495746588"/>
    <nd ref="7210661449"/>
    <nd ref="9116477466"/>
    <nd ref="7894290365"/>
    <nd ref="1020742142"/>
    <nd ref="6877910872"/>
    <nd ref="8495746593"/>
    <nd ref="9116477468"/>
    <nd ref="1020742453"/>
    <nd ref="30432561"/>
    <nd ref="11407453991"/>
    <nd ref="3997497632"/>
    <nd ref="3997497633"/>
    <nd ref="11407311696"/>
    <nd ref="30432563"/>
    <nd ref="11407311690"/>
    <nd ref="11407311688"/>
    <nd ref="30432569"/>
    <nd ref="11407311687"/>
    <nd ref="3997497622"/>
    <tag k="cycleway" v="no"/>
    <tag k="foot" v="use_sidepath"/>
    <tag k="highway" v="tertiary"/>
    <tag k="lanes" v="2"/>
    <tag k="lit" v="yes"/>
    <tag k="maxspeed" v="50"/>
    <tag k="name" v="Lessingstraße"/>
    <tag k="name:etymology:wikidata" v="Q34628"/>
    <tag k="sidewalk:both" v="separate"/>
    <tag k="smoothness" v="good"/>
    <tag k="surface" v="asphalt"/>
    <tag k="wikidata" v="Q93205449"/>
  </way>
  <way id="40817796" version="15" timestamp="2023-12-15T06:21:47Z" changeset="145137307" uid="10961311" user="StefanHRT">
    <nd ref="11169091042"/>
    <nd ref="1020742352"/>
    <nd ref="11403884576"/>
    <nd ref="30432263"/>
    <nd ref="11403884577"/>
    <nd ref="965037654"/>
    <nd ref="11403884588"/>
    <nd ref="7661363484"/>
    <nd ref="281414504"/>
    <tag k="foot" v="use_sidepath"/>
    <tag k="highway" v="residential"/>
    <tag k="lit" v="yes"/>
    <tag k="maxspeed" v="30"/>
    <tag k="maxspeed:type" v="DE:zone30"/>
    <tag k="name" v="Lessingstraße"/>
    <tag k="name:etymology:wikidata" v="Q34628"/>
    <tag k="postal_code" v="13158"/>
    <tag k="sidewalk:both" v="separate"/>
    <tag k="smoothness" v="very_bad"/>
    <tag k="surface" v="unhewn_cobblestone"/>
    <tag k="wikidata" v="Q93205449"/>
  </way>
  <way id="40817798" version="17" timestamp="2023-12-15T06:29:44Z" changeset="145137454" uid="10961311" user="StefanHRT">
    <nd ref="11169108701"/>
    <nd ref="6847218850"/>
    <nd ref="11407311623"/>
    <nd ref="11407311616"/>
    <nd ref="30432127"/>
    <tag k="cycleway:both" v="no"/>
    <tag k="foot" v="use_sidepath"/>
    <tag k="highway" v="residential"/>
    <tag k="lit" v="yes"/>
    <tag k="maxspeed" v="30"/>
    <tag k="name" v="Hertzstraße"/>
    <tag k="name:etymology:wikidata" v="Q41257"/>
    <tag k="sidewalk:both" v="separate"/>
    <tag k="smoothness" v="very_bad"/>
    <tag k="surface" v="sett"/>
    <tag k="wikidata" v="Q93204559"/>
  </way>
  <way id="55196265" version="14" timestamp="2024-05-08T15:15:48Z" changeset="151061763" uid="6811035" user="SteMue">
    <nd ref="693843022"/>
    <nd ref="10958980041"/>
    <tag k="cycleway:both" v="no"/>
    <tag k="highway" v="secondary"/>
    <tag k="lane_markings" v="yes"/>
    <tag k="lanes" v="2"/>
    <tag k="lit" v="yes"/>
    <tag k="maxspeed" v="50"/>
    <tag k="name" v="Kopenhagener Straße"/>
    <tag k="name:etymology:wikidata" v="Q1748"/>
    <tag k="sidewalk:both:surface" v="paving_stones"/>
    <tag k="sidewalk:left" v="separate"/>
    <tag k="sidewalk:right" v="yes"/>
    <tag k="smoothness" v="good"/>
    <tag k="surface" v="asphalt"/>
    <tag k="wikidata" v="Q66686135"/>
  </way>
  <way id="57977188" version="8" timestamp="2023-08-02T19:15:44Z" changeset="139361269" uid="12500589" user="tg4567">
    <nd ref="2958575172"/>
    <nd ref="2958575676"/>
    <nd ref="2958575868"/>
    <nd ref="2958576836"/>
    <nd ref="2958575164"/>
    <nd ref="2958575163"/>
    <nd ref="2958549024"/>
    <nd ref="2958549019"/>
    <nd ref="2958549021"/>
    <nd ref="2958575860"/>
    <nd ref="2958577033"/>
    <nd ref="2958576146"/>
    <nd ref="2958575154"/>
    <nd ref="2958575153"/>
    <nd ref="2958575669"/>
    <nd ref="2958575858"/>
    <nd ref="2958569007"/>
    <nd ref="2958575459"/>
    <nd ref="2958569430"/>
    <nd ref="2958575855"/>
    <nd ref="2958576141"/>
    <nd ref="2958554632"/>
    <nd ref="2958570282"/>
    <nd ref="2958569005"/>
    <nd ref="2958570278"/>
    <nd ref="2958570277"/>
    <nd ref="2958569004"/>
    <nd ref="2958575850"/>
    <nd ref="2958576341"/>
    <nd ref="2958569425"/>
    <nd ref="2958576339"/>
    <nd ref="2958569423"/>
    <nd ref="2958569118"/>
    <nd ref="2958575851"/>
    <nd ref="2958570276"/>
    <nd ref="2958576435"/>
    <nd ref="2958569427"/>
    <nd ref="2958569006"/>
    <nd ref="2958575857"/>
    <nd ref="2958576143"/>
    <nd ref="2958570284"/>
    <nd ref="2958575862"/>
    <nd ref="2958576835"/>
    <nd ref="2958576437"/>
    <nd ref="2958575464"/>
    <nd ref="2958575673"/>
    <nd ref="2958549026"/>
    <nd ref="2958575675"/>
    <nd ref="2964523626"/>
    <nd ref="2958576837"/>
    <nd ref="2958569432"/>
    <nd ref="2958575168"/>
    <nd ref="2958575172"/>
    <tag k="addr:city" v="Berlin"/>
    <tag k="addr:country" v="DE"/>
    <tag k="addr:housenumber" v="31"/>
    <tag k="addr:postcode" v="13158"/>
    <tag k="addr:street" v="Hielscherstraße"/>
    <tag k="addr:suburb" v="Wilhelmsruh"/>
    <tag k="amenity" v="place_of_worship"/>
    <tag k="building" v="yes"/>
    <tag k="denomination" v="protestant"/>
    <tag k="heritage" v="4"/>
    <tag k="heritage:operator" v="lda"/>
    <tag k="lda:criteria" v="Baudenkmal"/>
    <tag k="name" v="Lutherkirche"/>
    <tag k="ref:lda" v="09065266"/>
    <tag k="religion" v="christian"/>
    <tag k="source" v="Geoportal Berlin / Hauskoordinaten"/>
    <tag k="start_date" v="1907"/>
    <tag k="wheelchair" v="yes"/>
    <tag k="wikidata" v="Q1877932"/>
    <tag k="wikimedia_commons" v="Category:Lutherkirche Berlin-Wilhelmsruh"/>
  </way>
  <way id="73671301" version="18" timestamp="2024-05-08T15:15:41Z" changeset="151061763" uid="6811035" user="SteMue">
    <nd ref="350470937"/>
    <nd ref="872607067"/>
    <nd ref="6924455389"/>
    <nd ref="8484295568"/>
    <nd ref="5168728025"/>
    <nd ref="290795400"/>
    <nd ref="5882386278"/>
    <nd ref="533867067"/>
    <nd ref="5168728040"/>
    <nd ref="693843022"/>
    <tag k="cycleway:both" v="no"/>
    <tag k="highway" v="secondary"/>
    <tag k="lane_markings" v="yes"/>
    <tag k="lanes" v="2"/>
    <tag k="lit" v="yes"/>
    <tag k="maxspeed" v="50"/>
    <tag k="name" v="Kopenhagener Straße"/>
    <tag k="name:etymology:wikidata" v="Q1748"/>
    <tag k="parking:both" v="lane"/>
    <tag k="parking:both:orientation" v="parallel"/>
    <tag k="postal_code" v="13158"/>
    <tag k="sidewalk:both" v="separate"/>
    <tag k="sidewalk:both:surface" v="paving_stones"/>
    <tag k="smoothness" v="good"/>
    <tag k="surface" v="asphalt"/>
    <tag k="wikidata" v="Q66686135"/>
  </way>
  <way id="73673070" version="18" timestamp="2024-05-08T15:23:34Z" changeset="151061763" uid="6811035" user="SteMue">
    <nd ref="2055981237"/>
    <nd ref="11407454052"/>
    <nd ref="30432555"/>
    <nd ref="11407453951"/>
    <nd ref="5215223237"/>
    <nd ref="350472769"/>
    <nd ref="11407453944"/>
    <nd ref="30432556"/>
    <nd ref="11407453941"/>
    <nd ref="6579778359"/>
    <nd ref="11407311724"/>
    <nd ref="30432557"/>
    <nd ref="11407311726"/>
    <nd ref="8266930882"/>
    <nd ref="11407311641"/>
    <nd ref="21441715"/>
    <tag k="cycleway:both" v="no"/>
    <tag k="foot" v="use_sidepath"/>
    <tag k="highway" v="residential"/>
    <tag k="lit" v="yes"/>
    <tag k="maxspeed" v="30"/>
    <tag k="name" v="Goethestraße"/>
    <tag k="name:etymology:wikidata" v="Q5879"/>
    <tag k="postal_code" v="13158"/>
    <tag k="sidewalk:both" v="separate"/>
    <tag k="smoothness" v="good"/>
    <tag k="surface" v="asphalt"/>
  </way>
  <way id="73682384" version="15" timestamp="2025-02-21T20:04:18Z" changeset="162793804" uid="44217" user="kjon">
    <nd ref="30432569"/>
    <nd ref="11407311686"/>
    <nd ref="6877756904"/>
    <nd ref="6877756906"/>
    <nd ref="7116040623"/>
    <nd ref="11407311706"/>
    <nd ref="30432570"/>
    <tag k="cycleway:both" v="no"/>
    <tag k="highway" v="residential"/>
    <tag k="lit" v="yes"/>
    <tag k="maxspeed" v="30"/>
    <tag k="name" v="Hielscherstraße"/>
    <tag k="name:etymology:wikidata" v="Q2581982"/>
    <tag k="postal_code" v="13158"/>
    <tag k="sidewalk:both" v="separate"/>
    <tag k="sidewalk:both:surface" v="paving_stones"/>
    <tag k="smoothness" v="bad"/>
    <tag k="surface" v="sett"/>
  </way>
  <way id="73682397" version="11" timestamp="2023-07-06T04:55:57Z" changeset="138170827" uid="19550286" user="MoriGM">
    <nd ref="872694292"/>
    <nd ref="7475587989"/>
    <nd ref="21441714"/>
    <tag k="cycleway:left" v="lane"/>
    <tag k="cycleway:left:lane" v="advisory"/>
    <tag k="cycleway:right" v="no"/>
    <tag k="highway" v="residential"/>
    <tag k="lit" v="yes"/>
    <tag k="maxspeed" v="30"/>
    <tag k="maxspeed:type" v="DE:zone30"/>
    <tag k="name" v="Buchhorster Straße"/>
    <tag k="name:etymology:wikidata" v="Q101002732"/>
    <tag k="oneway" v="yes"/>
    <tag k="oneway:bicycle" v="no"/>
    <tag k="postal_code" v="13158"/>
    <tag k="sidewalk" v="both"/>
    <tag k="sidewalk:both:surface" v="compacted"/>
    <tag k="smoothness" v="excellent"/>
    <tag k="surface" v="asphalt"/>
  </way>
  <way id="73682399" version="4" timestamp="2020-07-19T22:00:17Z" changeset="88212818" uid="108133" user="gislars">
    <nd ref="872694298"/>
    <nd ref="7661363624"/>
    <nd ref="30432568"/>
    <tag k="highway" v="residential"/>
    <tag k="maxspeed" v="30"/>
    <tag k="name" v="Hielscherstraße"/>
    <tag k="name:etymology:wikidata" v="Q2581982"/>
    <tag k="postal_code" v="13158"/>
    <tag k="surface" v="asphalt"/>
  </way>
  <way id="82467264" version="19" timestamp="2023-12-15T06:29:44Z" changeset="145137454" uid="10961311" user="StefanHRT">
    <nd ref="30432115"/>
    <nd ref="7475558831"/>
    <nd ref="7475558826"/>
    <nd ref="21441715"/>
    <nd ref="6419849081"/>
    <nd ref="5168728129"/>
    <nd ref="30432113"/>
    <tag k="cycleway" v="no"/>
    <tag k="foot" v="use_sidepath"/>
    <tag k="highway" v="secondary"/>
    <tag k="lanes" v="2"/>
    <tag k="lit" v="yes"/>
    <tag k="maxspeed" v="30"/>
    <tag k="maxspeed:conditional" v="30 @ (07:00-18:00)"/>
    <tag k="name" v="Hauptstraße"/>
    <tag k="name:etymology:wikidata" v="Q1006835"/>
    <tag k="name:etymology:wikipedia" v="de:Hauptstraße (allgemein)"/>
    <tag k="sidewalk:both" v="separate"/>
    <tag k="smoothness" v="good"/>
    <tag k="surface" v="asphalt"/>
  </way>
  <way id="82467265" version="16" timestamp="2023-12-15T06:29:44Z" changeset="145137454" uid="10961311" user="StefanHRT">
    <nd ref="30432113"/>
    <nd ref="1527146354"/>
    <nd ref="3475525359"/>
    <tag k="cycleway" v="no"/>
    <tag k="foot" v="use_sidepath"/>
    <tag k="highway" v="secondary"/>
    <tag k="lanes" v="2"/>
    <tag k="lit" v="yes"/>
    <tag k="maxspeed" v="30"/>
    <tag k="maxspeed:conditional" v="30 @ (07:00-18:00)"/>
    <tag k="name" v="Hauptstraße"/>
    <tag k="name:etymology:wikidata" v="Q1006835"/>
    <tag k="name:etymology:wikipedia" v="de:Hauptstraße (allgemein)"/>
    <tag k="sidewalk:both" v="separate"/>
    <tag k="smoothness" v="good"/>
    <tag k="surface" v="asphalt"/>
  </way>
  <way id="120944950" version="6" timestamp="2021-09-16T15:40:09Z" changeset="111298043" uid="10075100" user="Pankower Früchtchen">
    <nd ref="2964524663"/>
    <nd ref="3719338954"/>
    <nd ref="3719338949"/>
    <nd ref="3719338945"/>
    <nd ref="3719338944"/>
    <nd ref="3719338956"/>
    <nd ref="3719338950"/>
    <nd ref="3719338914"/>
    <nd ref="3719338905"/>
    <nd ref="3719338918"/>
    <nd ref="3719338922"/>
    <nd ref="3719338921"/>
    <nd ref="3719338924"/>
    <nd ref="3719338927"/>
    <nd ref="3719338930"/>
    <nd ref="3719338966"/>
    <nd ref="3719338961"/>
    <nd ref="3719338955"/>
    <nd ref="2964524663"/>
    <tag k="addr:city" v="Berlin"/>
    <tag k="addr:country" v="DE"/>
    <tag k="addr:housenumber" v="49"/>
    <tag k="addr:postcode" v="13158"/>
    <tag k="addr:street" v="Schillerstraße"/>
    <tag k="addr:suburb" v="Wilhelmsruh"/>
    <tag k="building" v="school"/>
    <tag k="heritage" v="4"/>
    <tag k="heritage:operator" v="lda"/>
    <tag k="lda:criteria" v="Baudenkmal"/>
    <tag k="name" v="SchuleEins Filiale Wilhelmsruh"/>
    <tag k="ref:lda" v="09065319"/>
    <tag k="source" v="Geoportal Berlin / Hauskoordinaten"/>
    <tag k="start_date" v="1908"/>
  </way>
  <way id="165626082" version="5" timestamp="2023-04-30T16:29:55Z" changeset="135543089" uid="629906" user="Sisores">
    <nd ref="3268739834"/>
    <nd ref="3268739792"/>
    <nd ref="3268739784"/>
    <nd ref="3268739830"/>
    <nd ref="3268739834"/>
    <tag k="addr:housenumber" v="27"/>
    <tag k="addr:street" v="Edelweißstraße"/>
    <tag k="building" v="apartments"/>
  </way>
  <way id="165626083" version="8" timestamp="2023-12-08T19:51:27Z" changeset="144915839" uid="44217" user="kjon">
    <nd ref="1771653501"/>
    <nd ref="1771653518"/>
    <nd ref="3196786943"/>
    <nd ref="11403884617"/>
    <nd ref="11403884618"/>
    <nd ref="3196786944"/>
    <nd ref="1771653397"/>
    <nd ref="11403884619"/>
    <nd ref="11403884622"/>
    <nd ref="11403884621"/>
    <nd ref="11403884620"/>
    <nd ref="1771653508"/>
    <nd ref="1771653501"/>
    <tag k="addr:city" v="Berlin"/>
    <tag k="addr:country" v="DE"/>
    <tag k="addr:housenumber" v="35"/>
    <tag k="addr:postcode" v="13158"/>
    <tag k="addr:street" v="Edelweißstraße"/>
    <tag k="addr:suburb" v="Wilhelmsruh"/>
    <tag k="building" v="fire_station"/>
  </way>
  <way id="165885550" version="5" timestamp="2023-10-05T07:04:01Z" changeset="142174586" uid="19550286" user="MoriGM">
    <nd ref="30432572"/>
    <nd ref="30432573"/>
    <nd ref="30432567"/>
    <tag k="highway" v="residential"/>
    <tag k="maxspeed" v="30"/>
    <tag k="name" v="Möllersfelder Straße"/>
    <tag k="name:etymology:wikidata" v="Q104215515"/>
    <tag k="postal_code" v="13158"/>
    <tag k="sidewalk" v="no"/>
    <tag k="smoothness" v="intermediate"/>
    <tag k="surface" v="compacted"/>
  </way>
  <way id="165886330" version="11" timestamp="2025-04-29T16:31:17Z" changeset="165600393" uid="14271723" user="Pinoro">
    <nd ref="2958719988"/>
    <nd ref="2958723172"/>
    <nd ref="2958723160"/>
    <nd ref="2958723174"/>
    <nd ref="2958723475"/>
    <nd ref="2958723186"/>
    <nd ref="2958719988"/>
    <tag k="addr:city" v="Berlin"/>
    <tag k="addr:country" v="DE"/>
    <tag k="addr:housenumber" v="30"/>
    <tag k="addr:postcode" v="13158"/>
    <tag k="addr:street" v="Nordgrabenweg"/>
    <tag k="addr:suburb" v="Wilhelmsruh"/>
    <tag k="building" v="detached"/>
    <tag k="building:levels" v="1"/>
    <tag k="roof:levels" v="0"/>
    <tag k="roof:shape" v="gabled"/>
  </way>
  <way id="165886331" version="8" timestamp="2020-10-05T14:54:33Z" changeset="91993448" uid="121042" user="Woschl">
    <nd ref="2958719199"/>
    <nd ref="2958719461"/>
    <nd ref="2958718321"/>
    <nd ref="2958719164"/>
    <nd ref="2958719471"/>
    <nd ref="2958720169"/>
    <nd ref="2958719199"/>
    <tag k="addr:city" v="Berlin"/>
    <tag k="addr:country" v="DE"/>
    <tag k="addr:housenumber" v="20"/>
    <tag k="addr:postcode" v="13158"/>
    <tag k="addr:street" v="Nordgrabenweg"/>
    <tag k="addr:suburb" v="Wilhelmsruh"/>
    <tag k="building" v="yes"/>
  </way>
  <way id="165886332" version="9" timestamp="2024-11-14T13:54:09Z" changeset="159131352" uid="66391" user="geozeisig">
    <nd ref="2958719424"/>
    <nd ref="2958722245"/>
    <nd ref="2958719395"/>
    <nd ref="2958721959"/>
    <nd ref="2958721965"/>
    <nd ref="2958723141"/>
    <nd ref="2958719424"/>
    <tag k="addr:city" v="Berlin"/>
    <tag k="addr:housenumber" v="24"/>
    <tag k="addr:postcode" v="13158"/>
    <tag k="addr:street" v="Nordgrabenweg"/>
    <tag k="addr:suburb" v="Wilhelmsruh"/>
    <tag k="building" v="yes"/>
  </way>
  <way id="165886333" version="9" timestamp="2023-04-30T17:26:12Z" changeset="135542240" uid="629906" user="Sisores">
    <nd ref="2958720160"/>
    <nd ref="2958720150"/>
    <nd ref="2958719657"/>
    <nd ref="2958720149"/>
    <nd ref="2958719946"/>
    <nd ref="2958719180"/>
    <nd ref="2958720160"/>
    <tag k="addr:city" v="Berlin"/>
    <tag k="addr:country" v="DE"/>
    <tag k="addr:housenumber" v="18"/>
    <tag k="addr:postcode" v="13158"/>
    <tag k="addr:street" v="Nordgrabenweg"/>
    <tag k="addr:suburb" v="Wilhelmsruh"/>
    <tag k="building" v="detached"/>
  </way>
  <way id="165886334" version="11" timestamp="2025-04-29T16:32:34Z" changeset="165600393" uid="14271723" user="Pinoro">
    <nd ref="2958723435"/>
    <nd ref="2958720202"/>
    <nd ref="2958719420"/>
    <nd ref="2958719531"/>
    <nd ref="2958719427"/>
    <nd ref="2958723543"/>
    <nd ref="2958723435"/>
    <tag k="addr:city" v="Berlin"/>
    <tag k="addr:country" v="DE"/>
    <tag k="addr:housenumber" v="26"/>
    <tag k="addr:postcode" v="13158"/>
    <tag k="addr:street" v="Nordgrabenweg"/>
    <tag k="addr:suburb" v="Wilhelmsruh"/>
    <tag k="building" v="detached"/>
    <tag k="building:levels" v="1"/>
    <tag k="roof:levels" v="2"/>
    <tag k="roof:shape" v="gambrel"/>
  </way>
  <way id="165886335" version="8" timestamp="2020-10-05T14:54:40Z" changeset="91993448" uid="121042" user="Woschl">
    <nd ref="2958720177"/>
    <nd ref="2958719971"/>
    <nd ref="2958719197"/>
    <nd ref="2958719969"/>
    <nd ref="2958719488"/>
    <nd ref="2958721978"/>
    <nd ref="2958720177"/>
    <tag k="addr:city" v="Berlin"/>
    <tag k="addr:country" v="DE"/>
    <tag k="addr:housenumber" v="22"/>
    <tag k="addr:postcode" v="13158"/>
    <tag k="addr:street" v="Nordgrabenweg"/>
    <tag k="addr:suburb" v="Wilhelmsruh"/>
    <tag k="building" v="yes"/>
  </way>
  <way id="165886336" version="11" timestamp="2023-05-13T15:24:12Z" changeset="136055426" uid="114388" user="ubahnverleih">
    <nd ref="2958723189"/>
    <nd ref="2958723173"/>
    <nd ref="2958723548"/>
    <nd ref="2958721995"/>
    <nd ref="2958723441"/>
    <nd ref="2958722283"/>
    <nd ref="2958723189"/>
    <tag k="addr:city" v="Berlin"/>
    <tag k="addr:country" v="DE"/>
    <tag k="addr:housenumber" v="81"/>
    <tag k="addr:postcode" v="13158"/>
    <tag k="addr:street" v="Hielscherstraße"/>
    <tag k="addr:suburb" v="Wilhelmsruh"/>
    <tag k="building" v="detached"/>
    <tag k="building:levels" v="1"/>
    <tag k="roof:levels" v="1"/>
    <tag k="roof:shape" v="hipped"/>
  </way>
  <way id="167162655" version="11" timestamp="2024-05-06T08:56:19Z" changeset="150953686" uid="19550286" user="MoriGM">
    <nd ref="30432561"/>
    <nd ref="11407453993"/>
    <nd ref="6837564926"/>
    <nd ref="30432565"/>
    <nd ref="7842340131"/>
    <nd ref="7661363556"/>
    <nd ref="30432574"/>
    <nd ref="271613448"/>
    <tag k="cycleway" v="no"/>
    <tag k="highway" v="residential"/>
    <tag k="lanes" v="2"/>
    <tag k="lit" v="yes"/>
    <tag k="maxspeed" v="30"/>
    <tag k="name" v="Uhlandstraße"/>
    <tag k="name:etymology:wikidata" v="Q61058"/>
    <tag k="surface" v="asphalt"/>
  </way>
  <way id="174265404" version="4" timestamp="2023-07-16T14:28:26Z" changeset="138580007" uid="19550286" user="MoriGM">
    <nd ref="3268739500"/>
    <nd ref="3268739503"/>
    <nd ref="3268739501"/>
    <nd ref="3268739505"/>
    <nd ref="3268739508"/>
    <nd ref="3268739511"/>
    <nd ref="3268739510"/>
    <nd ref="3268739514"/>
    <nd ref="3268739512"/>
    <nd ref="3268739509"/>
    <nd ref="3268739506"/>
    <nd ref="3268739498"/>
    <nd ref="3268739497"/>
    <nd ref="3268739487"/>
    <nd ref="3268739485"/>
    <nd ref="3268739479"/>
    <nd ref="3268739481"/>
    <nd ref="3268739469"/>
    <nd ref="3268739470"/>
    <nd ref="3268739466"/>
    <nd ref="3268739467"/>
    <nd ref="3268739462"/>
    <nd ref="3268739459"/>
    <nd ref="2964523186"/>
    <nd ref="3268739442"/>
    <nd ref="3268739445"/>
    <nd ref="3268739452"/>
    <nd ref="6361844168"/>
    <nd ref="3268739500"/>
    <tag k="addr:city" v="Berlin"/>
    <tag k="addr:country" v="DE"/>
    <tag k="addr:housenumber" v="18"/>
    <tag k="addr:postcode" v="13158"/>
    <tag k="addr:street" v="Hertzstraße"/>
    <tag k="addr:suburb" v="Wilhelmsruh"/>
    <tag k="building" v="residential"/>
    <tag k="building:levels" v="2"/>
    <tag k="heritage" v="4"/>
    <tag k="heritage:operator" v="lda"/>
    <tag k="lda:criteria" v="Baudenkmal"/>
    <tag k="ref:lda" v="09065258"/>
    <tag k="roof:levels" v="1"/>
    <tag k="source" v="Geoportal Berlin / Hauskoordinaten"/>
    <tag k="start_date" v="1901"/>
  </way>
  <way id="174724076" version="2" timestamp="2024-11-15T06:57:57Z" changeset="159156965" uid="66391" user="geozeisig">
    <nd ref="1853884247"/>
    <nd ref="1853884262"/>
    <nd ref="1853884241"/>
    <nd ref="2964524895"/>
    <nd ref="1853884247"/>
    <tag k="addr:city" v="Berlin"/>
    <tag k="addr:country" v="DE"/>
    <tag k="addr:housenumber" v="6"/>
    <tag k="addr:inclusion" v="potential"/>
    <tag k="addr:postcode" v="13158"/>
    <tag k="addr:street" v="Edelweißstraße"/>
    <tag k="addr:suburb" v="Wilhelmsruh"/>
    <tag k="building" v="residential"/>
    <tag k="source" v="Geoportal Berlin / Hauskoordinaten"/>
  </way>
  <way id="174724078" version="5" timestamp="2024-11-15T06:57:57Z" changeset="159156965" uid="66391" user="geozeisig">
    <nd ref="3268739427"/>
    <nd ref="3268739394"/>
    <nd ref="3268739390"/>
    <nd ref="3268739424"/>
    <nd ref="3268739427"/>
    <tag k="addr:city" v="Berlin"/>
    <tag k="addr:housenumber" v="7A"/>
    <tag k="addr:postcode" v="13158"/>
    <tag k="addr:street" v="Edelweißstraße"/>
    <tag k="addr:suburb" v="Wilhelmsruh"/>
    <tag k="building" v="house"/>
    <tag k="building:levels" v="2"/>
    <tag k="height" v="10"/>
  </way>
  <way id="174724920" version="22" timestamp="2023-12-15T06:29:44Z" changeset="145137454" uid="10961311" user="StefanHRT">
    <nd ref="30432113"/>
    <nd ref="11401809505"/>
    <nd ref="3983501436"/>
    <nd ref="11403884655"/>
    <nd ref="30432130"/>
    <nd ref="11403884657"/>
    <nd ref="7324977485"/>
    <nd ref="1853888781"/>
    <nd ref="10042679301"/>
    <nd ref="8487938523"/>
    <nd ref="11403884651"/>
    <nd ref="30432131"/>
    <nd ref="11403884649"/>
    <nd ref="6877600607"/>
    <nd ref="1853888782"/>
    <nd ref="3983501453"/>
    <nd ref="11403884646"/>
    <nd ref="7683344107"/>
    <nd ref="11403884559"/>
    <nd ref="30432099"/>
    <tag k="cycleway:right" v="no"/>
    <tag k="foot" v="use_sidepath"/>
    <tag k="highway" v="tertiary"/>
    <tag k="lane_markings" v="no"/>
    <tag k="lit" v="yes"/>
    <tag k="maxspeed" v="50"/>
    <tag k="name" v="Edelweißstraße"/>
    <tag k="name:etymology:wikidata" v="Q1483297"/>
    <tag k="oneway" v="yes"/>
    <tag k="postal_code" v="13156"/>
    <tag k="sidewalk:both" v="separate"/>
    <tag k="smoothness" v="excellent"/>
    <tag k="surface" v="asphalt"/>
    <tag k="wikidata" v="Q93082799"/>
  </way>
  <way id="174747743" version="4" timestamp="2023-06-19T20:02:33Z" changeset="137533577" uid="629906" user="Sisores">
    <nd ref="1854124332"/>
    <nd ref="1854124320"/>
    <nd ref="1854124333"/>
    <nd ref="1854124328"/>
    <nd ref="1854124334"/>
    <nd ref="1854124336"/>
    <nd ref="1854124327"/>
    <nd ref="1854124324"/>
    <nd ref="1854124335"/>
    <nd ref="8517670260"/>
    <nd ref="8517670259"/>
    <nd ref="8517670258"/>
    <nd ref="8517670257"/>
    <nd ref="1854124332"/>
    <tag k="addr:city" v="Berlin"/>
    <tag k="addr:country" v="DE"/>
    <tag k="addr:housenumber" v="63A"/>
    <tag k="addr:postcode" v="13158"/>
    <tag k="addr:street" v="Hertzstraße"/>
    <tag k="addr:suburb" v="Wilhelmsruh"/>
    <tag k="building" v="industrial"/>
    <tag k="check_date:opening_hours" v="2023-06-19"/>
    <tag k="email" v="service@recordsale.de"/>
    <tag k="fax" v="+4930 54906936 9"/>
    <tag k="name" v="recordsale.de"/>
    <tag k="opening_hours:signed" v="no"/>
    <tag k="operator" v="recordsale &amp; musicberlin GmbH"/>
    <tag k="phone" v="+4930 54906936 3"/>
    <tag k="shop" v="music"/>
    <tag k="source" v="Geoportal Berlin / Hauskoordinaten"/>
    <tag k="website" v="https://recordsale.de"/>
  </way>
  <way id="174748480" version="6" timestamp="2024-03-10T15:37:37Z" changeset="148467936" uid="1757456" user="Siegmarer">
    <nd ref="1854129148"/>
    <nd ref="282959017"/>
    <nd ref="1854129139"/>
    <nd ref="1854129132"/>
    <nd ref="1854129140"/>
    <nd ref="1854129141"/>
    <nd ref="1854129146"/>
    <nd ref="1854129144"/>
    <nd ref="282958828"/>
    <nd ref="1854129147"/>
    <nd ref="8517711523"/>
    <nd ref="8517711524"/>
    <nd ref="1854129145"/>
    <nd ref="305375905"/>
    <nd ref="1854129134"/>
    <nd ref="8517711520"/>
    <nd ref="1854129130"/>
    <nd ref="1854129128"/>
    <nd ref="1854129129"/>
    <nd ref="1854129142"/>
    <nd ref="1854129148"/>
    <tag k="building" v="industrial"/>
    <tag k="building:levels" v="3"/>
    <tag k="name" v="GE Power"/>
    <tag k="roof:levels" v="0"/>
  </way>
  <way id="174893664" version="5" timestamp="2024-06-06T20:10:27Z" changeset="152348464" uid="9508237" user="momabebra">
    <nd ref="1855376664"/>
    <nd ref="1855376661"/>
    <nd ref="1855376659"/>
    <nd ref="10690692132"/>
    <nd ref="1855376665"/>
    <nd ref="1855376679"/>
    <nd ref="1855376675"/>
    <nd ref="1855376672"/>
    <nd ref="1855376681"/>
    <nd ref="1855376660"/>
    <nd ref="1855376663"/>
    <nd ref="1855376677"/>
    <nd ref="1855376674"/>
    <nd ref="1855376669"/>
    <nd ref="1855376668"/>
    <nd ref="1855376684"/>
    <nd ref="1855376670"/>
    <nd ref="1855376662"/>
    <nd ref="1855376667"/>
    <nd ref="1855376682"/>
    <nd ref="1855376664"/>
    <tag k="building" v="office"/>
    <tag k="building:levels" v="7"/>
    <tag k="name" v="ABB BüroCenter"/>
  </way>
  <way id="175021988" version="5" timestamp="2021-03-14T13:41:32Z" changeset="100989958" uid="9508237" user="momabebra">
    <nd ref="1856767870"/>
    <nd ref="8517697743"/>
    <nd ref="8517697744"/>
    <nd ref="282955099"/>
    <nd ref="1856767863"/>
    <nd ref="1856767875"/>
    <nd ref="282955098"/>
    <nd ref="282955096"/>
    <nd ref="282955094"/>
    <nd ref="282955092"/>
    <nd ref="282955091"/>
    <nd ref="282955089"/>
    <nd ref="282955088"/>
    <nd ref="282955086"/>
    <nd ref="282955112"/>
    <nd ref="282955111"/>
    <nd ref="282955109"/>
    <nd ref="282955106"/>
    <nd ref="1856767859"/>
    <nd ref="1856767871"/>
    <nd ref="282955105"/>
    <nd ref="282955103"/>
    <nd ref="1856767870"/>
    <tag k="addr:city" v="Berlin"/>
    <tag k="addr:housenumber" v="70"/>
    <tag k="addr:postcode" v="13158"/>
    <tag k="addr:street" v="Hertzstraße"/>
    <tag k="addr:suburb" v="Wilhelmsruh"/>
    <tag k="building" v="industrial"/>
    <tag k="name" v="GE Power"/>
  </way>
  <way id="175631760" version="17" timestamp="2024-08-01T15:53:02Z" changeset="154700632" uid="4820084" user="mardiz">
    <nd ref="30432100"/>
    <nd ref="11403938956"/>
    <nd ref="11403884707"/>
    <nd ref="30432098"/>
    <nd ref="499042184"/>
    <nd ref="30432099"/>
    <tag k="cycleway:left" v="lane"/>
    <tag k="cycleway:right" v="no"/>
    <tag k="highway" v="secondary"/>
    <tag k="lanes" v="2"/>
    <tag k="lit" v="yes"/>
    <tag k="maxspeed" v="50"/>
    <tag k="name" v="Schönholzer Weg"/>
    <tag k="name:etymology:wikidata" v="Q821133"/>
    <tag k="postal_code" v="13156"/>
    <tag k="sidewalk:both" v="separate"/>
    <tag k="sidewalk:both:surface" v="paving_stones"/>
    <tag k="smoothness" v="good"/>
    <tag k="surface" v="asphalt"/>
    <tag k="wikidata" v="Q67152092"/>
  </way>
  <way id="200128494" version="32" timestamp="2025-05-11T17:38:54Z" changeset="166119875" uid="2197770" user="boffie">
    <nd ref="30432096"/>
    <nd ref="11403965309"/>
    <nd ref="30432097"/>
    <nd ref="11403965310"/>
    <nd ref="6768563232"/>
    <nd ref="5583027902"/>
    <nd ref="30432093"/>
    <nd ref="5662745536"/>
    <nd ref="3983501440"/>
    <nd ref="6856529400"/>
    <nd ref="11408408712"/>
    <nd ref="3983501439"/>
    <nd ref="7133121049"/>
    <nd ref="30432094"/>
    <nd ref="3355999344"/>
    <nd ref="11403965348"/>
    <nd ref="30432076"/>
    <nd ref="11403965346"/>
    <nd ref="30432075"/>
    <nd ref="11403884531"/>
    <nd ref="12828858334"/>
    <nd ref="4366965334"/>
    <tag k="cycleway:both" v="lane"/>
    <tag k="cycleway:both:lane" v="advisory"/>
    <tag k="highway" v="secondary"/>
    <tag k="lanes" v="2"/>
    <tag k="lit" v="yes"/>
    <tag k="maxspeed" v="50"/>
    <tag k="name" v="Germanenstraße"/>
    <tag k="name:etymology:wikidata" v="Q22633"/>
    <tag k="name:etymology:wikipedia" v="de:Germanen"/>
    <tag k="parking:both" v="no"/>
    <tag k="postal_code" v="13156"/>
    <tag k="sidewalk:both" v="separate"/>
    <tag k="sidewalk:both:surface" v="paving_stones"/>
    <tag k="smoothness" v="good"/>
    <tag k="surface" v="asphalt"/>
  </way>
  <way id="206005648" version="9" timestamp="2024-08-01T15:53:02Z" changeset="154700632" uid="4820084" user="mardiz">
    <nd ref="30432099"/>
    <nd ref="30432096"/>
    <tag k="cycleway:both" v="lane"/>
    <tag k="highway" v="secondary"/>
    <tag k="lanes" v="2"/>
    <tag k="lit" v="yes"/>
    <tag k="maxspeed" v="50"/>
    <tag k="name" v="Schönholzer Weg"/>
    <tag k="name:etymology:wikidata" v="Q821133"/>
    <tag k="postal_code" v="13156"/>
    <tag k="sidewalk:both" v="separate"/>
    <tag k="sidewalk:both:surface" v="paving_stones"/>
    <tag k="smoothness" v="good"/>
    <tag k="surface" v="asphalt"/>
    <tag k="wikidata" v="Q67152092"/>
  </way>
  <way id="206176660" version="11" timestamp="2023-12-15T06:21:47Z" changeset="145137307" uid="10961311" user="StefanHRT">
    <nd ref="223825928"/>
    <nd ref="7475587987"/>
    <nd ref="7475587991"/>
    <nd ref="21441714"/>
    <tag k="cycleway:left" v="lane"/>
    <tag k="cycleway:left:lane" v="advisory"/>
    <tag k="cycleway:right" v="lane"/>
    <tag k="cycleway:right:lane" v="exclusive"/>
    <tag k="foot" v="use_sidepath"/>
    <tag k="highway" v="tertiary"/>
    <tag k="lanes" v="2"/>
    <tag k="lit" v="yes"/>
    <tag k="maxspeed" v="50"/>
    <tag k="name" v="Kastanienallee"/>
    <tag k="name:etymology:wikidata" v="Q129324"/>
    <tag k="sidewalk:both" v="separate"/>
    <tag k="smoothness" v="excellent"/>
    <tag k="surface" v="asphalt"/>
  </way>
  <way id="207643055" version="2" timestamp="2024-11-24T14:40:07Z" changeset="159536339" uid="10731618" user="CarrollXIV">
    <nd ref="2178964872"/>
    <nd ref="2178964815"/>
    <nd ref="2178964804"/>
    <nd ref="2178964888"/>
    <nd ref="2178964855"/>
    <nd ref="2178964699"/>
    <nd ref="2178964872"/>
    <tag k="addr:city" v="Berlin"/>
    <tag k="addr:housenumber" v="50"/>
    <tag k="addr:postcode" v="13158"/>
    <tag k="addr:street" v="Hielscherstraße"/>
    <tag k="building" v="yes"/>
    <tag k="building:levels" v="1"/>
  </way>
  <way id="223181594" version="14" timestamp="2023-12-09T11:34:26Z" changeset="144931730" uid="44217" user="kjon">
    <nd ref="30432131"/>
    <nd ref="11403884647"/>
    <nd ref="30432132"/>
    <nd ref="11403884664"/>
    <nd ref="30432133"/>
    <nd ref="11403884674"/>
    <nd ref="11403884679"/>
    <nd ref="253034039"/>
    <nd ref="30432135"/>
    <nd ref="7683344084"/>
    <nd ref="11403884681"/>
    <nd ref="2970238006"/>
    <tag k="cycleway:both" v="no"/>
    <tag k="highway" v="residential"/>
    <tag k="lit" v="yes"/>
    <tag k="maxspeed" v="30"/>
    <tag k="name" v="Heegermühler Weg"/>
    <tag k="name:etymology:wikidata" v="Q832403"/>
    <tag k="postal_code" v="13158"/>
    <tag k="sidewalk:both" v="separate"/>
    <tag k="sidewalk:both:surface" v="paving_stones"/>
    <tag k="smoothness" v="good"/>
    <tag k="surface" v="asphalt"/>
  </way>
  <way id="262862690" version="6" timestamp="2017-01-03T13:29:30Z" changeset="44871306" uid="111462" user="Bot45715">
    <nd ref="2685160967"/>
    <nd ref="3898850547"/>
    <nd ref="3898850550"/>
    <nd ref="3897289862"/>
    <nd ref="3897289861"/>
    <nd ref="2685160967"/>
    <tag k="addr:city" v="Berlin"/>
    <tag k="addr:housenumber" v="73"/>
    <tag k="addr:postcode" v="13158"/>
    <tag k="addr:street" v="Hertzstraße"/>
    <tag k="addr:suburb" v="Wilhelmsruh"/>
    <tag k="building" v="service"/>
    <tag k="building:levels" v="2"/>
    <tag k="name" v="Black Box Music"/>
    <tag k="opening_hours" v="Mo-Fr 08:00-23:00, Sa-Su 09:00-18:00"/>
  </way>
  <way id="272532027" version="10" timestamp="2024-05-08T15:23:50Z" changeset="151061763" uid="6811035" user="SteMue">
    <nd ref="30432570"/>
    <nd ref="11407311715"/>
    <nd ref="11407311722"/>
    <nd ref="30432557"/>
    <tag k="cycleway:both" v="no"/>
    <tag k="foot" v="use_sidepath"/>
    <tag k="highway" v="residential"/>
    <tag k="lit" v="yes"/>
    <tag k="maxspeed" v="30"/>
    <tag k="name" v="Hielscherstraße"/>
    <tag k="name:etymology:wikidata" v="Q2581982"/>
    <tag k="postal_code" v="13158"/>
    <tag k="sidewalk:both" v="separate"/>
    <tag k="smoothness" v="bad"/>
    <tag k="surface" v="asphalt"/>
  </way>
  <way id="272532028" version="13" timestamp="2024-05-08T15:16:12Z" changeset="151061763" uid="6811035" user="SteMue">
    <nd ref="30432557"/>
    <nd ref="11407311727"/>
    <nd ref="11407453888"/>
    <nd ref="30432550"/>
    <nd ref="11407453889"/>
    <nd ref="7116460975"/>
    <nd ref="11407453882"/>
    <nd ref="30432540"/>
    <nd ref="11407453880"/>
    <nd ref="350470997"/>
    <tag k="cycleway:both" v="no"/>
    <tag k="foot" v="use_sidepath"/>
    <tag k="highway" v="residential"/>
    <tag k="lit" v="yes"/>
    <tag k="maxspeed" v="30"/>
    <tag k="name" v="Hielscherstraße"/>
    <tag k="name:etymology:wikidata" v="Q2581982"/>
    <tag k="postal_code" v="13158"/>
    <tag k="sidewalk:both" v="separate"/>
    <tag k="smoothness" v="bad"/>
    <tag k="surface" v="asphalt;concrete"/>
  </way>
  <way id="292319472" version="2" timestamp="2019-03-26T07:27:46Z" changeset="68534939" uid="66391" user="geozeisig">
    <nd ref="2958576148"/>
    <nd ref="2958575171"/>
    <nd ref="2958575170"/>
    <nd ref="2958575864"/>
    <nd ref="2964524674"/>
    <nd ref="2958549022"/>
    <nd ref="2958575671"/>
    <nd ref="2958575866"/>
    <nd ref="2958575672"/>
    <nd ref="2958575674"/>
    <nd ref="2958576839"/>
    <nd ref="2958575678"/>
    <nd ref="2958569120"/>
    <nd ref="2958575870"/>
    <nd ref="2958576148"/>
    <tag k="addr:city" v="Berlin"/>
    <tag k="addr:country" v="DE"/>
    <tag k="addr:housenumber" v="5"/>
    <tag k="addr:postcode" v="13158"/>
    <tag k="addr:street" v="Goethestraße"/>
    <tag k="addr:suburb" v="Wilhelmsruh"/>
    <tag k="building" v="yes"/>
    <tag k="heritage" v="4"/>
    <tag k="heritage:operator" v="lda"/>
    <tag k="lda:criteria" v="Baudenkmal"/>
    <tag k="ref:lda" v="09065267"/>
    <tag k="source" v="Geoportal Berlin / Hauskoordinaten"/>
    <tag k="start_date" v="1902"/>
  </way>
  <way id="316724842" version="18" timestamp="2024-11-15T06:57:57Z" changeset="159156965" uid="66391" user="geozeisig">
    <nd ref="3228820348"/>
    <nd ref="3228820349"/>
    <nd ref="5168728029"/>
    <nd ref="5168728026"/>
    <nd ref="5406153108"/>
    <nd ref="5406153109"/>
    <nd ref="5168728027"/>
    <nd ref="5168728028"/>
    <nd ref="3228820352"/>
    <nd ref="3228820351"/>
    <nd ref="5406153111"/>
    <nd ref="5406153110"/>
    <nd ref="3228820348"/>
    <tag k="addr:housenumber" v="77"/>
    <tag k="addr:street" v="Kopenhagener Straße"/>
    <tag k="addr:suburb" v="Wilhelmsruh"/>
    <tag k="brand" v="NORMA"/>
    <tag k="brand:wikidata" v="Q450180"/>
    <tag k="brand:wikipedia" v="de:Norma (Supermarkt)"/>
    <tag k="building" v="retail"/>
    <tag k="building:levels" v="1"/>
    <tag k="check_date:opening_hours" v="2024-01-11"/>
    <tag k="name" v="NORMA"/>
    <tag k="opening_hours" v="Mo-Sa 07:00-21:00"/>
    <tag k="roof:levels" v="0"/>
    <tag k="roof:material" v="roof_tiles"/>
    <tag k="roof:shape" v="skillion"/>
    <tag k="shop" v="supermarket"/>
    <tag k="wheelchair" v="yes"/>
  </way>
  <way id="320364845" version="5" timestamp="2022-08-04T19:18:16Z" changeset="124494360" uid="12146663" user="ya_man">
    <nd ref="3268739875"/>
    <nd ref="3268739868"/>
    <nd ref="3268739878"/>
    <nd ref="3268739865"/>
    <nd ref="3268739871"/>
    <nd ref="3268739886"/>
    <nd ref="3268739889"/>
    <nd ref="3268739920"/>
    <nd ref="3268739894"/>
    <nd ref="3268739883"/>
    <nd ref="3268739882"/>
    <nd ref="3268739870"/>
    <nd ref="3268739872"/>
    <nd ref="3268739867"/>
    <nd ref="3268739873"/>
    <nd ref="3268739866"/>
    <nd ref="3268739875"/>
    <tag k="addr:housenumber" v="1A"/>
    <tag k="addr:street" v="Edelweißstraße"/>
    <tag k="building" v="semidetached_house"/>
    <tag k="building:levels" v="2"/>
    <tag k="roof:levels" v="1"/>
  </way>
  <way id="320364858" version="4" timestamp="2022-07-16T20:07:36Z" changeset="123701203" uid="6737921" user="v1ktor">
    <nd ref="2964525088"/>
    <nd ref="3268737027"/>
    <nd ref="3268737010"/>
    <nd ref="3268737020"/>
    <nd ref="2964525088"/>
    <tag k="addr:city" v="Berlin"/>
    <tag k="addr:housenumber" v="7"/>
    <tag k="addr:inclusion" v="potential"/>
    <tag k="addr:postcode" v="13158"/>
    <tag k="addr:street" v="Niederstraße"/>
    <tag k="addr:suburb" v="Wilhelmsruh"/>
    <tag k="building" v="detached"/>
    <tag k="building:levels" v="2"/>
    <tag k="source" v="Geoportal Berlin / Hauskoordinaten"/>
  </way>
  <way id="320364860" version="5" timestamp="2023-06-19T20:17:58Z" changeset="137532398" uid="114388" user="ubahnverleih">
    <nd ref="3268737023"/>
    <nd ref="3268737019"/>
    <nd ref="3268737001"/>
    <nd ref="3268737009"/>
    <nd ref="3268737023"/>
    <tag k="addr:city" v="Berlin"/>
    <tag k="addr:housenumber" v="7A"/>
    <tag k="addr:postcode" v="13158"/>
    <tag k="addr:street" v="Niederstraße"/>
    <tag k="addr:suburb" v="Wilhelmsruh"/>
    <tag k="building" v="detached"/>
    <tag k="building:levels" v="1"/>
    <tag k="roof:levels" v="1"/>
    <tag k="roof:shape" v="gabled"/>
  </way>
  <way id="320364861" version="5" timestamp="2022-07-16T20:07:22Z" changeset="123701203" uid="6737921" user="v1ktor">
    <nd ref="3268737053"/>
    <nd ref="5403177319"/>
    <nd ref="5403177320"/>
    <nd ref="3268737046"/>
    <nd ref="3268737022"/>
    <nd ref="5403178922"/>
    <nd ref="5403178921"/>
    <nd ref="3268737024"/>
    <nd ref="3268737053"/>
    <tag k="addr:city" v="Berlin"/>
    <tag k="addr:housenumber" v="6A"/>
    <tag k="addr:postcode" v="13158"/>
    <tag k="addr:street" v="Niederstraße"/>
    <tag k="addr:suburb" v="Wilhelmsruh"/>
    <tag k="building" v="detached"/>
    <tag k="building:levels" v="2"/>
  </way>
  <way id="320364862" version="5" timestamp="2022-07-16T20:06:57Z" changeset="123701203" uid="6737921" user="v1ktor">
    <nd ref="3268738892"/>
    <nd ref="5403178927"/>
    <nd ref="5403178928"/>
    <nd ref="3268738874"/>
    <nd ref="5403178932"/>
    <nd ref="5403178930"/>
    <nd ref="5403178929"/>
    <nd ref="3268737049"/>
    <nd ref="3268737060"/>
    <nd ref="3268738892"/>
    <tag k="addr:city" v="Berlin"/>
    <tag k="addr:housenumber" v="5"/>
    <tag k="addr:postcode" v="13158"/>
    <tag k="addr:street" v="Niederstraße"/>
    <tag k="addr:suburb" v="Wilhelmsruh"/>
    <tag k="building" v="detached"/>
    <tag k="building:levels" v="2"/>
  </way>
  <way id="340337649" version="13" timestamp="2023-12-15T06:29:44Z" changeset="145137454" uid="10961311" user="StefanHRT">
    <nd ref="3475525359"/>
    <nd ref="11407311638"/>
    <nd ref="21441716"/>
    <nd ref="11407311637"/>
    <nd ref="1527146337"/>
    <nd ref="30432125"/>
    <tag k="cycleway" v="no"/>
    <tag k="foot" v="use_sidepath"/>
    <tag k="highway" v="secondary"/>
    <tag k="lanes" v="2"/>
    <tag k="lit" v="yes"/>
    <tag k="maxspeed" v="30"/>
    <tag k="name" v="Hauptstraße"/>
    <tag k="name:etymology:wikidata" v="Q1006835"/>
    <tag k="name:etymology:wikipedia" v="de:Hauptstraße (allgemein)"/>
    <tag k="sidewalk:both" v="separate"/>
    <tag k="smoothness" v="good"/>
    <tag k="surface" v="asphalt"/>
  </way>
  <way id="452096921" version="5" timestamp="2023-06-19T20:22:10Z" changeset="137532398" uid="114388" user="ubahnverleih">
    <nd ref="4488993822"/>
    <nd ref="4488993812"/>
    <nd ref="4488993811"/>
    <nd ref="5403117112"/>
    <nd ref="5403117113"/>
    <nd ref="4488993817"/>
    <nd ref="4488993820"/>
    <nd ref="4488993819"/>
    <nd ref="4488993824"/>
    <nd ref="4488993822"/>
    <tag k="addr:city" v="Berlin"/>
    <tag k="addr:housenumber" v="7A"/>
    <tag k="addr:postcode" v="13158"/>
    <tag k="addr:street" v="Marthastraße"/>
    <tag k="addr:suburb" v="Wilhelmsruh"/>
    <tag k="building" v="apartments"/>
    <tag k="building:levels" v="5"/>
    <tag k="roof:levels" v="0"/>
    <tag k="roof:shape" v="flat"/>
  </way>
  <way id="461694889" version="10" timestamp="2023-12-15T06:21:47Z" changeset="145137307" uid="10961311" user="StefanHRT">
    <nd ref="3997497622"/>
    <nd ref="3997497621"/>
    <nd ref="11407311656"/>
    <nd ref="30432116"/>
    <tag k="cycleway" v="no"/>
    <tag k="foot" v="use_sidepath"/>
    <tag k="highway" v="tertiary"/>
    <tag k="lanes" v="2"/>
    <tag k="lit" v="yes"/>
    <tag k="maxspeed" v="50"/>
    <tag k="name" v="Lessingstraße"/>
    <tag k="name:etymology:wikidata" v="Q34628"/>
    <tag k="sidewalk:both" v="separate"/>
    <tag k="smoothness" v="good"/>
    <tag k="surface" v="asphalt"/>
    <tag k="wikidata" v="Q93205449"/>
  </way>
  <way id="560275345" version="3" timestamp="2022-07-16T20:07:10Z" changeset="123701203" uid="6737921" user="v1ktor">
    <nd ref="5403178938"/>
    <nd ref="2964524905"/>
    <nd ref="5403178936"/>
    <nd ref="5403178935"/>
    <nd ref="5403178934"/>
    <nd ref="5403178933"/>
    <nd ref="5403178930"/>
    <nd ref="5403178932"/>
    <nd ref="5403178931"/>
    <nd ref="5403178938"/>
    <tag k="addr:city" v="Berlin"/>
    <tag k="addr:country" v="DE"/>
    <tag k="addr:housenumber" v="6"/>
    <tag k="addr:inclusion" v="potential"/>
    <tag k="addr:postcode" v="13158"/>
    <tag k="addr:street" v="Niederstraße"/>
    <tag k="addr:suburb" v="Wilhelmsruh"/>
    <tag k="building" v="house"/>
    <tag k="building:levels" v="3"/>
    <tag k="source" v="Geoportal Berlin / Hauskoordinaten"/>
  </way>
  <way id="560275346" version="2" timestamp="2021-03-19T16:36:04Z" changeset="101341659" uid="66391" user="geozeisig">
    <nd ref="5403178942"/>
    <nd ref="5403178941"/>
    <nd ref="5403178940"/>
    <nd ref="5403178939"/>
    <nd ref="5403178942"/>
    <tag k="addr:city" v="Berlin"/>
    <tag k="addr:housenumber" v="6A"/>
    <tag k="addr:postcode" v="13158"/>
    <tag k="addr:street" v="Tollerstraße"/>
    <tag k="addr:suburb" v="Wilhelmsruh"/>
    <tag k="building" v="house"/>
  </way>
  <way id="747360608" version="4" timestamp="2022-07-19T14:21:53Z" changeset="123810963" uid="1497225" user="kartonage">
    <nd ref="1849484326"/>
    <nd ref="1849484312"/>
    <nd ref="6992996876"/>
    <nd ref="1849484323"/>
    <nd ref="1849484335"/>
    <nd ref="6992996877"/>
    <nd ref="1849484326"/>
    <tag k="addr:city" v="Berlin"/>
    <tag k="addr:country" v="DE"/>
    <tag k="addr:housenumber" v="21"/>
    <tag k="addr:postcode" v="13158"/>
    <tag k="addr:street" v="Fontanestraße"/>
    <tag k="addr:suburb" v="Wilhelmsruh"/>
    <tag k="building" v="residential"/>
    <tag k="building:levels" v="3"/>
    <tag k="description" v="Gartenhaus"/>
  </way>
  <way id="828363034" version="6" timestamp="2023-12-10T12:22:56Z" changeset="144962907" uid="44217" user="kjon">
    <nd ref="30432568"/>
    <nd ref="5403085771"/>
    <nd ref="11407311665"/>
    <nd ref="872694292"/>
    <tag k="highway" v="residential"/>
    <tag k="lit" v="yes"/>
    <tag k="maxspeed" v="30"/>
    <tag k="name" v="Buchhorster Straße"/>
    <tag k="name:etymology:wikidata" v="Q101002732"/>
    <tag k="oneway" v="yes"/>
    <tag k="postal_code" v="13158"/>
    <tag k="sidewalk" v="no"/>
    <tag k="smoothness" v="intermediate"/>
    <tag k="surface" v="asphalt"/>
  </way>
  <way id="849656411" version="10" timestamp="2024-05-08T15:23:28Z" changeset="151061763" uid="6811035" user="SteMue">
    <nd ref="7927031693"/>
    <nd ref="11407454067"/>
    <nd ref="11407454066"/>
    <nd ref="11407454088"/>
    <nd ref="1855383309"/>
    <tag k="cycleway:both" v="no"/>
    <tag k="foot" v="use_sidepath"/>
    <tag k="highway" v="residential"/>
    <tag k="lit" v="yes"/>
    <tag k="maxspeed" v="30"/>
    <tag k="name" v="Kurze Straße"/>
    <tag k="postal_code" v="13158"/>
    <tag k="sidewalk:both" v="separate"/>
    <tag k="smoothness" v="good"/>
    <tag k="surface" v="asphalt"/>
  </way>
  <way id="903535235" version="3" timestamp="2025-04-28T04:32:50Z" changeset="165530515" uid="22821321" user="MMT_Official">
    <nd ref="8391751917"/>
    <nd ref="8391381216"/>
    <nd ref="8391381215"/>
    <nd ref="8391381214"/>
    <nd ref="8391751917"/>
    <tag k="amenity" v="school"/>
    <tag k="building" v="yes"/>
    <tag k="name" v="Neibau ABB Ausbildungszentrum Berlin"/>
    <tag k="operator" v="ABB Ausbildungszentrum Berlin"/>
  </way>
  <way id="917031491" version="2" timestamp="2024-11-15T06:57:57Z" changeset="159156965" uid="66391" user="geozeisig">
    <nd ref="8517238173"/>
    <nd ref="8517238172"/>
    <nd ref="8517238171"/>
    <nd ref="8517238170"/>
    <nd ref="8517238173"/>
    <tag k="addr:city" v="Berlin"/>
    <tag k="addr:housenumber" v="13A"/>
    <tag k="addr:postcode" v="13158"/>
    <tag k="addr:street" v="Beethovenstraße"/>
    <tag k="addr:suburb" v="Wilhelmsruh"/>
    <tag k="building" v="yes"/>
  </way>
  <way id="918405696" version="3" timestamp="2024-11-15T06:57:57Z" changeset="159156965" uid="66391" user="geozeisig">
    <nd ref="8529673628"/>
    <nd ref="8529673627"/>
    <nd ref="8529673626"/>
    <nd ref="1853899621"/>
    <nd ref="1853899622"/>
    <nd ref="8529673625"/>
    <nd ref="8529673628"/>
    <tag k="addr:city" v="Berlin"/>
    <tag k="addr:housenumber" v="43"/>
    <tag k="addr:postcode" v="13158"/>
    <tag k="addr:street" v="Hertzstraße"/>
    <tag k="addr:suburb" v="Wilhelmsruh"/>
    <tag k="building" v="residential"/>
    <tag k="building:levels" v="5"/>
  </way>
  <way id="974694309" version="9" timestamp="2023-12-15T06:21:47Z" changeset="145137307" uid="10961311" user="StefanHRT">
    <nd ref="7475587986"/>
    <nd ref="1020742080"/>
    <nd ref="11407311667"/>
    <nd ref="11407311669"/>
    <nd ref="11407311674"/>
    <nd ref="11407311677"/>
    <nd ref="11407311658"/>
    <nd ref="30432116"/>
    <tag k="cycleway" v="track"/>
    <tag k="foot" v="use_sidepath"/>
    <tag k="highway" v="secondary"/>
    <tag k="lanes" v="2"/>
    <tag k="lit" v="yes"/>
    <tag k="maxspeed" v="50"/>
    <tag k="maxspeed:conditional" v="30 @ (22:00-06:00)"/>
    <tag k="name" v="Hauptstraße"/>
    <tag k="name:etymology:wikidata" v="Q1006835"/>
    <tag k="name:etymology:wikipedia" v="de:Hauptstraße (allgemein)"/>
    <tag k="sidewalk:both" v="separate"/>
    <tag k="smoothness" v="good"/>
    <tag k="surface" v="asphalt"/>
  </way>
  <way id="977040747" version="9" timestamp="2023-12-15T06:21:47Z" changeset="145137307" uid="10961311" user="StefanHRT">
    <nd ref="30432116"/>
    <nd ref="11407311654"/>
    <nd ref="9041466245"/>
    <tag k="cycleway:left" v="track"/>
    <tag k="cycleway:left:segregated" v="no"/>
    <tag k="cycleway:right" v="no"/>
    <tag k="foot" v="use_sidepath"/>
    <tag k="highway" v="secondary"/>
    <tag k="lanes" v="2"/>
    <tag k="lit" v="yes"/>
    <tag k="maxspeed" v="50"/>
    <tag k="maxspeed:conditional" v="30 @ (22:00-06:00)"/>
    <tag k="name" v="Hauptstraße"/>
    <tag k="name:etymology:wikidata" v="Q1006835"/>
    <tag k="name:etymology:wikipedia" v="de:Hauptstraße (allgemein)"/>
    <tag k="sidewalk:both" v="separate"/>
    <tag k="smoothness" v="good"/>
    <tag k="surface" v="asphalt"/>
  </way>
  <way id="977040748" version="8" timestamp="2023-12-15T06:21:47Z" changeset="145137307" uid="10961311" user="StefanHRT">
    <nd ref="9041466245"/>
    <nd ref="9041466246"/>
    <tag k="cycleway:left" v="track"/>
    <tag k="cycleway:right" v="no"/>
    <tag k="foot" v="use_sidepath"/>
    <tag k="highway" v="secondary"/>
    <tag k="lanes" v="2"/>
    <tag k="lit" v="yes"/>
    <tag k="maxspeed" v="50"/>
    <tag k="maxspeed:conditional" v="30 @ (22:00-06:00)"/>
    <tag k="name" v="Hauptstraße"/>
    <tag k="name:etymology:wikidata" v="Q1006835"/>
    <tag k="name:etymology:wikipedia" v="de:Hauptstraße (allgemein)"/>
    <tag k="sidewalk:both" v="separate"/>
    <tag k="smoothness" v="good"/>
    <tag k="surface" v="asphalt"/>
  </way>
  <way id="1029860705" version="6" timestamp="2023-05-13T15:37:05Z" changeset="136055426" uid="114388" user="ubahnverleih">
    <nd ref="9493823583"/>
    <nd ref="9493823584"/>
    <nd ref="9493823585"/>
    <nd ref="9493823586"/>
    <nd ref="9493823587"/>
    <nd ref="9493823588"/>
    <nd ref="2958554613"/>
    <nd ref="9493823583"/>
    <tag k="addr:housenumber" v="35"/>
    <tag k="addr:street" v="Hauptstraße"/>
    <tag k="building" v="apartments"/>
    <tag k="building:levels" v="5"/>
    <tag k="roof:levels" v="0"/>
    <tag k="roof:shape" v="flat"/>
  </way>
  <way id="1058167403" version="4" timestamp="2024-04-25T08:09:27Z" changeset="150481534" uid="19550286" user="MoriGM">
    <nd ref="30432100"/>
    <nd ref="7661363468"/>
    <nd ref="10206731370"/>
    <nd ref="561503505"/>
    <nd ref="561503507"/>
    <nd ref="30432275"/>
    <nd ref="6927343266"/>
    <nd ref="30432276"/>
    <nd ref="30432277"/>
    <tag k="cycleway:both" v="no"/>
    <tag k="highway" v="residential"/>
    <tag k="lanes" v="2"/>
    <tag k="lit" v="yes"/>
    <tag k="maxspeed" v="30"/>
    <tag k="maxspeed:type" v="DE:zone30"/>
    <tag k="maxweight" v="2.8"/>
    <tag k="name" v="Angerweg"/>
    <tag k="name:etymology:wikidata" v="Q40737141"/>
    <tag k="sidewalk:left" v="separate"/>
    <tag k="smoothness" v="good"/>
    <tag k="source:maxspeed" v="DE:zone30"/>
    <tag k="surface" v="asphalt"/>
    <tag k="traffic_sign" v="DE:274.1"/>
    <tag k="zone:maxspeed" v="DE:30"/>
  </way>
  <way id="1167567445" version="9" timestamp="2024-06-12T14:15:55Z" changeset="152589420" uid="19550286" user="MoriGM">
    <nd ref="10858233276"/>
    <nd ref="7850200902"/>
    <nd ref="11407577580"/>
    <nd ref="11403884593"/>
    <nd ref="7478059522"/>
    <tag k="foot" v="use_sidepath"/>
    <tag k="highway" v="residential"/>
    <tag k="lit" v="yes"/>
    <tag k="maxspeed" v="30"/>
    <tag k="maxspeed:type" v="DE:zone30"/>
    <tag k="name" v="Beethovenstraße"/>
    <tag k="name:etymology:wikidata" v="Q255"/>
    <tag k="postal_code" v="13158"/>
    <tag k="sidewalk:both" v="separate"/>
    <tag k="smoothness" v="intermediate"/>
    <tag k="surface" v="sett"/>
  </way>
  <way id="1167567666" version="9" timestamp="2023-12-15T06:21:47Z" changeset="145137307" uid="10961311" user="StefanHRT">
    <nd ref="10858247757"/>
    <nd ref="10858233276"/>
    <tag k="foot" v="use_sidepath"/>
    <tag k="highway" v="residential"/>
    <tag k="lit" v="yes"/>
    <tag k="maxspeed" v="30"/>
    <tag k="maxspeed:type" v="DE:zone30"/>
    <tag k="name" v="Beethovenstraße"/>
    <tag k="name:etymology:wikidata" v="Q255"/>
    <tag k="postal_code" v="13158"/>
    <tag k="sidewalk:both" v="separate"/>
    <tag k="smoothness" v="bad"/>
    <tag k="surface" v="asphalt"/>
  </way>
  <way id="1179915405" version="5" timestamp="2024-05-08T15:15:54Z" changeset="151061763" uid="6811035" user="SteMue">
    <nd ref="10958980041"/>
    <nd ref="3982589411"/>
    <nd ref="10958980040"/>
    <nd ref="95727266"/>
    <tag k="cycleway:both" v="no"/>
    <tag k="highway" v="secondary"/>
    <tag k="lane_markings" v="yes"/>
    <tag k="lanes" v="2"/>
    <tag k="lit" v="yes"/>
    <tag k="maxspeed" v="50"/>
    <tag k="name" v="Kopenhagener Straße"/>
    <tag k="name:etymology:wikidata" v="Q1748"/>
    <tag k="sidewalk:both:surface" v="paving_stones"/>
    <tag k="sidewalk:left" v="separate"/>
    <tag k="sidewalk:right" v="yes"/>
    <tag k="smoothness" v="good"/>
    <tag k="surface" v="asphalt"/>
    <tag k="wikidata" v="Q66686135"/>
  </way>
  <way id="1205149915" version="6" timestamp="2023-12-15T06:21:47Z" changeset="145137307" uid="10961311" user="StefanHRT">
    <nd ref="30432116"/>
    <nd ref="11401809511"/>
    <nd ref="11169091042"/>
    <tag k="foot" v="use_sidepath"/>
    <tag k="highway" v="residential"/>
    <tag k="lit" v="yes"/>
    <tag k="maxspeed" v="30"/>
    <tag k="maxspeed:type" v="DE:zone30"/>
    <tag k="name" v="Lessingstraße"/>
    <tag k="name:etymology:wikidata" v="Q34628"/>
    <tag k="postal_code" v="13158"/>
    <tag k="sidewalk:both" v="separate"/>
    <tag k="smoothness" v="good"/>
    <tag k="surface" v="asphalt"/>
    <tag k="wikidata" v="Q93205449"/>
  </way>
  <way id="1205150033" version="5" timestamp="2023-12-15T06:29:44Z" changeset="145137454" uid="10961311" user="StefanHRT">
    <nd ref="11169096505"/>
    <nd ref="7475558829"/>
    <nd ref="30432115"/>
    <tag k="cycleway:both" v="no"/>
    <tag k="foot" v="use_sidepath"/>
    <tag k="highway" v="residential"/>
    <tag k="lit" v="yes"/>
    <tag k="maxspeed" v="30"/>
    <tag k="name" v="Schillerstraße"/>
    <tag k="name:etymology:wikidata" v="Q22670"/>
    <tag k="postal_code" v="13158"/>
    <tag k="sidewalk:both" v="separate"/>
    <tag k="smoothness" v="good"/>
    <tag k="surface" v="asphalt"/>
    <tag k="wikidata" v="Q96306001"/>
  </way>
  <way id="1205150302" version="6" timestamp="2023-12-15T06:29:44Z" changeset="145137454" uid="10961311" user="StefanHRT">
    <nd ref="11169107465"/>
    <nd ref="21441716"/>
    <nd ref="11401809501"/>
    <nd ref="11169107466"/>
    <tag k="cycleway:both" v="no"/>
    <tag k="foot" v="use_sidepath"/>
    <tag k="highway" v="residential"/>
    <tag k="lit" v="yes"/>
    <tag k="maxspeed" v="30"/>
    <tag k="name" v="Garibaldistraße"/>
    <tag k="name:etymology:wikidata" v="Q539"/>
    <tag k="postal_code" v="13158"/>
    <tag k="sidewalk:both" v="separate"/>
    <tag k="smoothness" v="good"/>
    <tag k="surface" v="asphalt"/>
  </way>
  <way id="1205150303" version="4" timestamp="2023-12-15T06:29:44Z" changeset="145137454" uid="10961311" user="StefanHRT">
    <nd ref="11169107466"/>
    <nd ref="5407718506"/>
    <nd ref="11407311627"/>
    <nd ref="30432128"/>
    <tag k="cycleway:both" v="no"/>
    <tag k="foot" v="use_sidepath"/>
    <tag k="highway" v="residential"/>
    <tag k="lit" v="yes"/>
    <tag k="maxspeed" v="30"/>
    <tag k="name" v="Garibaldistraße"/>
    <tag k="name:etymology:wikidata" v="Q539"/>
    <tag k="postal_code" v="13158"/>
    <tag k="sidewalk:both" v="separate"/>
    <tag k="smoothness" v="very_bad"/>
    <tag k="surface" v="sett"/>
  </way>
  <way id="1205150373" version="6" timestamp="2023-12-15T06:29:44Z" changeset="145137454" uid="10961311" user="StefanHRT">
    <nd ref="30432125"/>
    <nd ref="11401809497"/>
    <nd ref="11169108701"/>
    <tag k="cycleway:both" v="no"/>
    <tag k="foot" v="use_sidepath"/>
    <tag k="highway" v="residential"/>
    <tag k="lit" v="yes"/>
    <tag k="maxspeed" v="30"/>
    <tag k="name" v="Hertzstraße"/>
    <tag k="name:etymology:wikidata" v="Q41257"/>
    <tag k="sidewalk:both" v="separate"/>
    <tag k="smoothness" v="good"/>
    <tag k="surface" v="asphalt"/>
    <tag k="wikidata" v="Q93204559"/>
  </way>
  <way id="1205150544" version="7" timestamp="2023-12-15T06:29:44Z" changeset="145137454" uid="10961311" user="StefanHRT">
    <nd ref="872607115"/>
    <nd ref="11401809494"/>
    <nd ref="30432114"/>
    <tag k="cycleway:both" v="no"/>
    <tag k="foot" v="use_sidepath"/>
    <tag k="highway" v="residential"/>
    <tag k="lanes" v="1"/>
    <tag k="lit" v="yes"/>
    <tag k="maxspeed" v="30"/>
    <tag k="name" v="Niederstraße"/>
    <tag k="name:etymology:wikidata" v="Q104775941"/>
    <tag k="postal_code" v="13158"/>
    <tag k="sidewalk:both" v="separate"/>
    <tag k="smoothness" v="good"/>
    <tag k="surface" v="asphalt"/>
  </way>
  <way id="1231304511" version="1" timestamp="2023-12-15T06:21:47Z" changeset="145137307" uid="10961311" user="StefanHRT">
    <nd ref="21441714"/>
    <nd ref="7475587990"/>
    <nd ref="7475587986"/>
    <tag k="cycleway" v="track"/>
    <tag k="foot" v="use_sidepath"/>
    <tag k="highway" v="secondary"/>
    <tag k="lanes" v="2"/>
    <tag k="lit" v="yes"/>
    <tag k="maxspeed" v="50"/>
    <tag k="name" v="Hauptstraße"/>
    <tag k="name:etymology:wikidata" v="Q1006835"/>
    <tag k="name:etymology:wikipedia" v="de:Hauptstraße (allgemein)"/>
    <tag k="sidewalk:both" v="separate"/>
    <tag k="smoothness" v="good"/>
    <tag k="surface" v="asphalt"/>
  </way>
  <way id="1305081940" version="1" timestamp="2024-08-01T15:53:02Z" changeset="154700632" uid="4820084" user="mardiz">
    <nd ref="11403884566"/>
    <nd ref="30432100"/>
    <tag k="cycleway:left" v="lane"/>
    <tag k="cycleway:right" v="no"/>
    <tag k="foot" v="use_sidepath"/>
    <tag k="highway" v="secondary"/>
    <tag k="lanes" v="2"/>
    <tag k="lit" v="yes"/>
    <tag k="maxspeed" v="50"/>
    <tag k="name" v="Schillerstraße"/>
    <tag k="name:etymology:wikidata" v="Q22670"/>
    <tag k="sidewalk:both" v="separate"/>
    <tag k="smoothness" v="good"/>
    <tag k="surface" v="asphalt"/>
    <tag k="wikidata" v="Q96306001"/>
  </way>
  <way id="1334157155" version="1" timestamp="2024-11-15T06:57:57Z" changeset="159156965" uid="66391" user="geozeisig">
    <nd ref="12343163817"/>
    <nd ref="12343163816"/>
    <nd ref="12343163815"/>
    <nd ref="12343163814"/>
    <nd ref="12343163817"/>
    <tag k="addr:city" v="Berlin"/>
    <tag k="addr:country" v="DE"/>
    <tag k="addr:housenumber" v="57"/>
    <tag k="addr:inclusion" v="potential"/>
    <tag k="addr:postcode" v="13158"/>
    <tag k="addr:street" v="Fontanestraße"/>
    <tag k="addr:suburb" v="Wilhelmsruh"/>
    <tag k="building" v="yes"/>
    <tag k="source" v="Geoportal Berlin / Hauskoordinaten"/>
  </way>
  <way id="1334157156" version="1" timestamp="2024-11-15T06:57:57Z" changeset="159156965" uid="66391" user="geozeisig">
    <nd ref="12343154323"/>
    <nd ref="12343163832"/>
    <nd ref="12343163831"/>
    <nd ref="12343163828"/>
    <nd ref="12343163833"/>
    <nd ref="12343163829"/>
    <nd ref="12343163830"/>
    <nd ref="12343154322"/>
    <nd ref="12343154323"/>
    <tag k="addr:city" v="Berlin"/>
    <tag k="addr:country" v="DE"/>
    <tag k="addr:housenumber" v="12F"/>
    <tag k="addr:postcode" v="13158"/>
    <tag k="addr:street" v="Tollerstraße"/>
    <tag k="addr:suburb" v="Wilhelmsruh"/>
    <tag k="building" v="yes"/>
    <tag k="source" v="Geoportal Berlin / Hauskoordinaten"/>
  </way>
  <way id="1334157157" version="1" timestamp="2024-11-15T06:57:57Z" changeset="159156965" uid="66391" user="geozeisig">
    <nd ref="12343154327"/>
    <nd ref="12343154324"/>
    <nd ref="12343163823"/>
    <nd ref="12343163824"/>
    <nd ref="12343154325"/>
    <nd ref="12343154326"/>
    <nd ref="12343163822"/>
    <nd ref="12343163825"/>
    <nd ref="12343154327"/>
    <tag k="addr:city" v="Berlin"/>
    <tag k="addr:country" v="DE"/>
    <tag k="addr:housenumber" v="12E"/>
    <tag k="addr:postcode" v="13158"/>
    <tag k="addr:street" v="Tollerstraße"/>
    <tag k="addr:suburb" v="Wilhelmsruh"/>
    <tag k="building" v="yes"/>
    <tag k="source" v="Geoportal Berlin / Hauskoordinaten"/>
  </way>
  <way id="1334157158" version="1" timestamp="2024-11-15T06:57:57Z" changeset="159156965" uid="66391" user="geozeisig">
    <nd ref="12343154333"/>
    <nd ref="12343154330"/>
    <nd ref="12343154329"/>
    <nd ref="12343154328"/>
    <nd ref="12343154331"/>
    <nd ref="12343154332"/>
    <nd ref="12343163826"/>
    <nd ref="12343163827"/>
    <nd ref="12343154333"/>
    <tag k="addr:city" v="Berlin"/>
    <tag k="addr:country" v="DE"/>
    <tag k="addr:housenumber" v="12D"/>
    <tag k="addr:postcode" v="13158"/>
    <tag k="addr:street" v="Tollerstraße"/>
    <tag k="addr:suburb" v="Wilhelmsruh"/>
    <tag k="building" v="yes"/>
    <tag k="source" v="Geoportal Berlin / Hauskoordinaten"/>
  </way>
  <way id="1334157159" version="1" timestamp="2024-11-15T06:57:57Z" changeset="159156965" uid="66391" user="geozeisig">
    <nd ref="12343154337"/>
    <nd ref="12343154334"/>
    <nd ref="12343163818"/>
    <nd ref="12343163820"/>
    <nd ref="12343154335"/>
    <nd ref="12343154336"/>
    <nd ref="12343163819"/>
    <nd ref="12343163821"/>
    <nd ref="12343154337"/>
    <tag k="addr:city" v="Berlin"/>
    <tag k="addr:country" v="DE"/>
    <tag k="addr:housenumber" v="12C"/>
    <tag k="addr:postcode" v="13158"/>
    <tag k="addr:street" v="Tollerstraße"/>
    <tag k="addr:suburb" v="Wilhelmsruh"/>
    <tag k="building" v="yes"/>
    <tag k="source" v="Geoportal Berlin / Hauskoordinaten"/>
  </way>
  <way id="1334157161" version="1" timestamp="2024-11-15T06:57:57Z" changeset="159156965" uid="66391" user="geozeisig">
    <nd ref="1846878000"/>
    <nd ref="1846877993"/>
    <nd ref="12343131976"/>
    <nd ref="2964523085"/>
    <nd ref="1846878000"/>
    <tag k="addr:city" v="Berlin"/>
    <tag k="addr:country" v="DE"/>
    <tag k="addr:housenumber" v="12"/>
    <tag k="addr:postcode" v="13158"/>
    <tag k="addr:street" v="Tollerstraße"/>
    <tag k="addr:suburb" v="Wilhelmsruh"/>
    <tag k="building" v="yes"/>
    <tag k="source" v="Geoportal Berlin / Hauskoordinaten"/>
  </way>
  <way id="1334516025" version="2" timestamp="2025-01-21T22:18:38Z" changeset="161617312" uid="44217" user="kjon">
    <nd ref="253036017"/>
    <nd ref="11407453957"/>
    <nd ref="8484901995"/>
    <nd ref="11407453994"/>
    <nd ref="30432561"/>
    <tag k="cycleway" v="no"/>
    <tag k="foot" v="use_sidepath"/>
    <tag k="highway" v="residential"/>
    <tag k="lanes" v="1"/>
    <tag k="lit" v="yes"/>
    <tag k="maxspeed" v="30"/>
    <tag k="name" v="Uhlandstraße"/>
    <tag k="name:etymology:wikidata" v="Q61058"/>
    <tag k="sidewalk:both" v="separate"/>
    <tag k="smoothness" v="excellent"/>
    <tag k="surface" v="asphalt"/>
  </way>
  <way id="1361784009" version="1" timestamp="2025-02-21T20:04:14Z" changeset="162793804" uid="44217" user="kjon">
    <nd ref="30432568"/>
    <nd ref="7661363623"/>
    <nd ref="7116040616"/>
    <nd ref="11407311682"/>
    <nd ref="30432569"/>
    <tag k="cycleway:both" v="no"/>
    <tag k="highway" v="residential"/>
    <tag k="lit" v="yes"/>
    <tag k="maxspeed" v="30"/>
    <tag k="name" v="Hielscherstraße"/>
    <tag k="name:etymology:wikidata" v="Q2581982"/>
    <tag k="postal_code" v="13158"/>
    <tag k="sidewalk" v="both"/>
    <tag k="sidewalk:both:surface" v="paving_stones"/>
    <tag k="smoothness" v="bad"/>
    <tag k="surface" v="sett"/>
  </way>
  <relation id="17087723" version="4" timestamp="2025-03-22T09:59:27Z" changeset="163939026" uid="449980" user="mahundt">
    <member type="way" ref="1243463883" role="outer"/>
    <member type="way" ref="1243463885" role="inner"/>
    <member type="way" ref="1243463884" role="inner"/>
    <tag k="addr:city" v="Berlin"/>
    <tag k="addr:housenumber" v="85-87"/>
    <tag k="addr:postcode" v="13158"/>
    <tag k="addr:street" v="Kopenhagener Straße"/>
    <tag k="addr:suburb" v="Wilhelmsruh"/>
    <tag k="amenity" v="school"/>
    <tag k="building" v="school"/>
    <tag k="check_date" v="2024-09-06"/>
    <tag k="grades" v="7-12"/>
    <tag k="name" v="Inge-Deutschkron-Gymnasium"/>
    <tag k="operator" v="Senatsverwaltung für Bildung, Jugend und Familie Berlin"/>
    <tag k="operator:type" v="public"/>
    <tag k="ref" v="03Y17"/>
    <tag k="type" v="multipolygon"/>
    <tag k="website" v="https://idg.berlin/"/>
  </relation>

</osm>
