<?xml version="1.0" encoding="UTF-8"?>
<osm version="0.6" generator="Overpass API 0.7.62.5 1bd436f1">
<note>The data included in this document is from www.openstreetmap.org. The data is made available under ODbL.</note>
<meta osm_base="2025-05-18T05:33:47Z" areas="2024-12-31T00:49:33Z"/>

  <node id="691520" lat="50.0229439" lon="14.4400203" version="4" timestamp="2025-04-13T20:27:58Z" changeset="164911671" uid="4018695" user="游뻟릖 Roman Horn칤k"/>
  <node id="1324305" lat="50.0280902" lon="14.4512218" version="3" timestamp="2008-02-04T21:26:28Z" changeset="42932" uid="3516" user="BiIbo">
    <tag k="created_by" v="JOSM"/>
    <tag k="highway" v="traffic_signals"/>
  </node>
  <node id="29940661" lat="50.0228643" lon="14.4404275" version="10" timestamp="2024-08-26T14:42:15Z" changeset="155786490" uid="21837881" user="dvratil">
    <tag k="button_operated" v="yes"/>
    <tag k="crossing:signals" v="yes"/>
    <tag k="highway" v="crossing"/>
    <tag k="tactile_paving" v="yes"/>
    <tag k="traffic_signals:sound" v="yes"/>
    <tag k="traffic_signals:vibration" v="no"/>
  </node>
  <node id="29941036" lat="50.0179440" lon="14.4491387" version="6" timestamp="2020-02-21T19:08:47Z" changeset="81330061" uid="1189910" user="Milancer"/>
  <node id="29941100" lat="50.0189836" lon="14.4527296" version="3" timestamp="2009-01-09T12:14:17Z" changeset="761196" uid="3516" user="BiIbo">
    <tag k="highway" v="traffic_signals"/>
  </node>
  <node id="29941101" lat="50.0182299" lon="14.4497438" version="2" timestamp="2011-09-04T20:04:50Z" changeset="9212070" uid="17615" user="Petr Dlouh칳"/>
  <node id="29941113" lat="50.0179943" lon="14.4493697" version="3" timestamp="2025-01-14T11:02:56Z" changeset="161340634" uid="8971394" user="vojtechzaboril">
    <tag k="crossing:markings" v="yes"/>
    <tag k="crossing:signals" v="no"/>
    <tag k="highway" v="crossing"/>
    <tag k="tactile_paving" v="yes"/>
  </node>
  <node id="29942520" lat="50.0163965" lon="14.4545998" version="3" timestamp="2011-08-31T08:02:40Z" changeset="9173951" uid="17615" user="Petr Dlouh칳"/>
  <node id="29942627" lat="50.0215424" lon="14.4274345" version="6" timestamp="2012-07-27T13:19:36Z" changeset="12511445" uid="684284" user="Kewar"/>
  <node id="29943004" lat="50.0200877" lon="14.4376624" version="3" timestamp="2012-07-13T07:29:40Z" changeset="12203549" uid="684284" user="Kewar"/>
  <node id="30002580" lat="50.0173530" lon="14.4495696" version="4" timestamp="2025-01-14T11:02:56Z" changeset="161340634" uid="8971394" user="vojtechzaboril"/>
  <node id="30011640" lat="50.0245765" lon="14.4424483" version="2" timestamp="2009-07-09T15:08:25Z" changeset="1781283" uid="8612" user="Kubajz"/>
  <node id="30012883" lat="50.0193057" lon="14.4354330" version="2" timestamp="2010-02-10T15:23:41Z" changeset="3840449" uid="3516" user="BiIbo"/>
  <node id="30202715" lat="50.0211432" lon="14.4514995" version="3" timestamp="2009-01-09T12:32:58Z" changeset="761196" uid="3516" user="BiIbo"/>
  <node id="30202732" lat="50.0211219" lon="14.4509882" version="2" timestamp="2009-01-09T12:32:58Z" changeset="761196" uid="3516" user="BiIbo"/>
  <node id="31028179" lat="50.0237637" lon="14.4346859" version="4" timestamp="2012-07-02T05:50:57Z" changeset="12083412" uid="684284" user="Kewar"/>
  <node id="31028318" lat="50.0240094" lon="14.4349069" version="5" timestamp="2025-04-13T20:27:58Z" changeset="164911671" uid="4018695" user="游뻟릖 Roman Horn칤k"/>
  <node id="31029482" lat="50.0203424" lon="14.4369925" version="3" timestamp="2012-07-13T07:29:40Z" changeset="12203549" uid="684284" user="Kewar"/>
  <node id="31029483" lat="50.0188650" lon="14.4347698" version="3" timestamp="2010-02-10T15:23:42Z" changeset="3840449" uid="3516" user="BiIbo"/>
  <node id="31029509" lat="50.0189026" lon="14.4335589" version="2" timestamp="2008-12-01T04:08:00Z" changeset="15885" uid="3516" user="BiIbo"/>
  <node id="31029646" lat="50.0183344" lon="14.4341233" version="2" timestamp="2010-02-10T15:23:41Z" changeset="3840449" uid="3516" user="BiIbo"/>
  <node id="31029698" lat="50.0211926" lon="14.4294858" version="2" timestamp="2012-07-11T12:39:20Z" changeset="12185487" uid="684284" user="Kewar"/>
  <node id="31205556" lat="50.0232518" lon="14.4430346" version="2" timestamp="2009-10-16T15:54:06Z" changeset="2865541" uid="3516" user="BiIbo"/>
  <node id="31205557" lat="50.0240763" lon="14.4453746" version="2" timestamp="2019-08-21T14:12:25Z" changeset="73583285" uid="25867" user="adamos"/>
  <node id="31205583" lat="50.0256309" lon="14.4447332" version="2" timestamp="2012-03-29T19:20:46Z" changeset="11142511" uid="488732" user="montardo"/>
  <node id="31205585" lat="50.0259975" lon="14.4460212" version="2" timestamp="2007-11-16T15:44:47Z" changeset="534363" uid="8612" user="Kubajz"/>
  <node id="31206073" lat="50.0201575" lon="14.4473849" version="3" timestamp="2019-06-25T14:26:54Z" changeset="71601775" uid="25867" user="adamos"/>
  <node id="31206267" lat="50.0274499" lon="14.4487753" version="2" timestamp="2012-03-29T19:20:46Z" changeset="11142511" uid="488732" user="montardo"/>
  <node id="39732401" lat="50.0143625" lon="14.4526791" version="1" timestamp="2007-09-03T13:57:31Z" changeset="310819" uid="8612" user="Kubajz"/>
  <node id="110864573" lat="50.0230730" lon="14.4401324" version="3" timestamp="2025-04-13T20:27:58Z" changeset="164911671" uid="4018695" user="游뻟릖 Roman Horn칤k"/>
  <node id="110864575" lat="50.0230237" lon="14.4402639" version="3" timestamp="2025-04-13T20:27:58Z" changeset="164911671" uid="4018695" user="游뻟릖 Roman Horn칤k"/>
  <node id="124397106" lat="50.0266895" lon="14.4513324" version="3" timestamp="2012-10-07T10:31:45Z" changeset="13395886" uid="718054" user="Piskvor"/>
  <node id="330445002" lat="50.0157956" lon="14.4549849" version="2" timestamp="2025-04-13T20:27:58Z" changeset="164911671" uid="4018695" user="游뻟릖 Roman Horn칤k"/>
  <node id="364586300" lat="50.0155161" lon="14.4514010" version="5" timestamp="2025-01-14T11:02:56Z" changeset="161340634" uid="8971394" user="vojtechzaboril">
    <tag k="crossing" v="zebra"/>
    <tag k="highway" v="crossing"/>
    <tag k="tactile_paving" v="yes"/>
  </node>
  <node id="364586302" lat="50.0154508" lon="14.4514533" version="4" timestamp="2021-01-21T08:33:09Z" changeset="97888066" uid="6588887" user="Martin2035">
    <tag k="crossing" v="zebra"/>
    <tag k="highway" v="crossing"/>
    <tag k="tactile_paving" v="yes"/>
  </node>
  <node id="364586304" lat="50.0142899" lon="14.4523193" version="3" timestamp="2021-08-11T08:59:45Z" changeset="109504306" uid="11928550" user="Robert Knobloch">
    <tag k="crossing" v="uncontrolled"/>
    <tag k="highway" v="crossing"/>
  </node>
  <node id="446260252" lat="50.0228991" lon="14.4401413" version="4" timestamp="2025-04-13T20:27:58Z" changeset="164911671" uid="4018695" user="游뻟릖 Roman Horn칤k">
    <tag k="highway" v="traffic_signals"/>
  </node>
  <node id="446260258" lat="50.0232023" lon="14.4404381" version="2" timestamp="2009-10-21T14:33:01Z" changeset="2911495" uid="3516" user="BiIbo"/>
  <node id="678324474" lat="50.0151409" lon="14.4514168" version="3" timestamp="2016-05-07T10:33:04Z" changeset="39160437" uid="102554" user="Jezevec"/>
  <node id="766149857" lat="50.0153993" lon="14.4512665" version="6" timestamp="2025-01-14T11:02:56Z" changeset="161340634" uid="8971394" user="vojtechzaboril"/>
  <node id="1780194273" lat="50.0245402" lon="14.4357410" version="6" timestamp="2025-04-13T20:27:58Z" changeset="164911671" uid="4018695" user="游뻟릖 Roman Horn칤k">
    <tag k="crossing" v="zebra"/>
    <tag k="crossing:island" v="yes"/>
    <tag k="highway" v="crossing"/>
    <tag k="tactile_paving" v="yes"/>
  </node>
  <node id="2337655010" lat="50.0163037" lon="14.4546638" version="1" timestamp="2013-06-08T22:15:01Z" changeset="16474753" uid="1065709" user="CentrinO"/>
  <node id="2447266346" lat="50.0260426" lon="14.4317212" version="2" timestamp="2025-04-13T20:27:58Z" changeset="164911671" uid="4018695" user="游뻟릖 Roman Horn칤k"/>
  <way id="4705336" version="9" timestamp="2025-01-14T11:02:56Z" changeset="161340634" uid="8971394" user="vojtechzaboril">
    <nd ref="29941101"/>
    <nd ref="944921404"/>
    <nd ref="12500545665"/>
    <nd ref="12500545664"/>
    <nd ref="1423367920"/>
    <nd ref="12500545663"/>
    <nd ref="29941102"/>
    <nd ref="29941103"/>
    <nd ref="12500545673"/>
    <nd ref="29940656"/>
    <tag k="highway" v="tertiary_link"/>
    <tag k="lanes" v="1"/>
    <tag k="maxspeed" v="50"/>
    <tag k="oneway" v="yes"/>
    <tag k="surface" v="asphalt"/>
  </way>
  <way id="4705338" version="8" timestamp="2025-01-14T11:02:56Z" changeset="161340634" uid="8971394" user="vojtechzaboril">
    <nd ref="30002580"/>
    <nd ref="12500545700"/>
    <nd ref="29941111"/>
    <nd ref="1423367896"/>
    <nd ref="1423367899"/>
    <nd ref="12500545669"/>
    <nd ref="29941112"/>
    <nd ref="12500545668"/>
    <nd ref="12500545667"/>
    <nd ref="29941113"/>
    <tag k="highway" v="tertiary_link"/>
    <tag k="lanes" v="1"/>
    <tag k="maxspeed" v="50"/>
    <tag k="oneway" v="yes"/>
    <tag k="surface" v="asphalt"/>
  </way>
  <way id="4705408" version="13" timestamp="2025-01-14T11:02:56Z" changeset="161340634" uid="8971394" user="vojtechzaboril">
    <nd ref="29941100"/>
    <nd ref="103041681"/>
    <nd ref="117477796"/>
    <nd ref="117462148"/>
    <nd ref="1418973880"/>
    <tag k="highway" v="tertiary"/>
    <tag k="lanes" v="2"/>
    <tag k="maxspeed" v="50"/>
    <tag k="name" v="Durychova"/>
    <tag k="oneway" v="yes"/>
    <tag k="surface" v="asphalt"/>
  </way>
  <way id="4705409" version="13" timestamp="2025-01-14T11:02:56Z" changeset="161340634" uid="8971394" user="vojtechzaboril">
    <nd ref="29941113"/>
    <nd ref="1423367922"/>
    <nd ref="117462153"/>
    <nd ref="117477812"/>
    <nd ref="330442443"/>
    <tag k="highway" v="tertiary"/>
    <tag k="lanes" v="2"/>
    <tag k="maxspeed" v="50"/>
    <tag k="name" v="Durychova"/>
    <tag k="oneway" v="yes"/>
    <tag k="surface" v="asphalt"/>
  </way>
  <way id="4705636" version="35" timestamp="2024-08-26T15:36:58Z" changeset="155789073" uid="21837881" user="dvratil">
    <nd ref="1324305"/>
    <nd ref="1696624611"/>
    <nd ref="8304643154"/>
    <nd ref="330444152"/>
    <nd ref="256093782"/>
    <nd ref="1784861894"/>
    <nd ref="124397106"/>
    <nd ref="256093783"/>
    <nd ref="6635605497"/>
    <nd ref="6635605496"/>
    <nd ref="1784861895"/>
    <nd ref="130935963"/>
    <nd ref="31206224"/>
    <nd ref="10106956172"/>
    <nd ref="256093767"/>
    <nd ref="130977532"/>
    <nd ref="2268253276"/>
    <nd ref="30202715"/>
    <nd ref="344525019"/>
    <nd ref="256092983"/>
    <nd ref="29942519"/>
    <nd ref="11882392057"/>
    <nd ref="11882392055"/>
    <nd ref="11882392056"/>
    <nd ref="5652437134"/>
    <tag k="highway" v="tertiary"/>
    <tag k="lanes" v="2"/>
    <tag k="maxspeed" v="50"/>
    <tag k="maxweight" v="6"/>
    <tag k="name" v="맚칰rova"/>
    <tag k="source:maxspeed" v="CZ:urban"/>
    <tag k="surface" v="asphalt"/>
  </way>
  <way id="4712657" version="12" timestamp="2019-02-17T13:06:25Z" changeset="67278963" uid="9448865" user="prasisko">
    <nd ref="29940661"/>
    <nd ref="110864575"/>
    <tag k="highway" v="secondary"/>
    <tag k="lanes" v="2"/>
    <tag k="name" v="Novodvorsk치"/>
    <tag k="oneway" v="yes"/>
    <tag k="surface" v="asphalt"/>
  </way>
  <way id="4735067" version="7" timestamp="2025-03-18T15:41:12Z" changeset="163780653" uid="21837881" user="dvratil">
    <nd ref="30202715"/>
    <nd ref="364576551"/>
    <nd ref="30202732"/>
    <tag k="highway" v="residential"/>
    <tag k="lane_markings" v="no"/>
    <tag k="name" v="V Zahradn칤 캜tvrti"/>
    <tag k="surface" v="asphalt"/>
  </way>
  <way id="4826712" version="15" timestamp="2023-10-25T19:17:02Z" changeset="143131321" uid="18633688" user="Jan Sikora">
    <nd ref="31028179"/>
    <nd ref="31028180"/>
    <nd ref="11289493965"/>
    <nd ref="1764025757"/>
    <nd ref="1809593841"/>
    <nd ref="1809587507"/>
    <nd ref="1802646336"/>
    <nd ref="1809587527"/>
    <nd ref="1802646342"/>
    <nd ref="31028181"/>
    <nd ref="275847972"/>
    <nd ref="1775805220"/>
    <nd ref="31028182"/>
    <nd ref="31204571"/>
    <nd ref="31028183"/>
    <tag k="highway" v="residential"/>
    <tag k="name" v="J칤lovsk치"/>
    <tag k="oneway" v="yes"/>
    <tag k="surface" v="asphalt"/>
  </way>
  <way id="4826733" version="8" timestamp="2019-12-02T12:54:38Z" changeset="77821464" uid="2583731" user="Regent_64">
    <nd ref="31028179"/>
    <nd ref="31028318"/>
    <nd ref="31204589"/>
    <nd ref="1809587516"/>
    <nd ref="1795510900"/>
    <nd ref="279097774"/>
    <nd ref="1780139930"/>
    <nd ref="31028319"/>
    <tag k="highway" v="residential"/>
    <tag k="name" v="J칤lovsk치"/>
    <tag k="surface" v="asphalt"/>
  </way>
  <way id="4826738" version="8" timestamp="2012-07-09T08:44:36Z" changeset="12159179" uid="684284" user="Kewar">
    <nd ref="31028318"/>
    <nd ref="1788330775"/>
    <nd ref="1788330776"/>
    <nd ref="31028377"/>
    <nd ref="1788330759"/>
    <nd ref="279097779"/>
    <nd ref="1818621567"/>
    <nd ref="1788330770"/>
    <nd ref="1788330772"/>
    <nd ref="1788330774"/>
    <nd ref="1788330766"/>
    <nd ref="279097789"/>
    <nd ref="31028378"/>
    <tag k="highway" v="residential"/>
    <tag k="name" v="J칤lovsk치"/>
    <tag k="oneway" v="yes"/>
  </way>
  <way id="4826740" version="7" timestamp="2019-12-02T12:54:29Z" changeset="77821464" uid="2583731" user="Regent_64">
    <nd ref="31028377"/>
    <nd ref="275847979"/>
    <nd ref="1809587522"/>
    <nd ref="31028179"/>
    <tag k="highway" v="residential"/>
    <tag k="name" v="J칤lovsk치"/>
    <tag k="oneway" v="yes"/>
    <tag k="surface" v="asphalt"/>
  </way>
  <way id="4826860" version="9" timestamp="2021-04-07T13:08:02Z" changeset="102485515" uid="6588887" user="Martin2035">
    <nd ref="29942520"/>
    <nd ref="1418973874"/>
    <nd ref="2337655012"/>
    <nd ref="2337655008"/>
    <nd ref="2337655011"/>
    <tag k="highway" v="tertiary"/>
    <tag k="lanes" v="2"/>
    <tag k="maxspeed" v="50"/>
    <tag k="name" v="Ch칳novsk치"/>
    <tag k="oneway" v="yes"/>
    <tag k="surface" v="asphalt"/>
  </way>
  <way id="4826864" version="10" timestamp="2024-08-26T14:04:59Z" changeset="155783954" uid="21837881" user="dvratil">
    <nd ref="766149857"/>
    <nd ref="4171307615"/>
    <nd ref="364586302"/>
    <tag k="highway" v="tertiary"/>
    <tag k="lanes" v="1"/>
    <tag k="maxspeed" v="50"/>
    <tag k="name" v="Ch칳novsk치"/>
    <tag k="oneway" v="yes"/>
    <tag k="surface" v="asphalt"/>
  </way>
  <way id="4826928" version="4" timestamp="2016-08-04T19:04:04Z" changeset="41245194" uid="1189910" user="Milancer">
    <nd ref="31029483"/>
    <nd ref="635000212"/>
    <nd ref="31029505"/>
    <tag k="highway" v="residential"/>
    <tag k="name" v="R콢쬰n칤nsk치"/>
  </way>
  <way id="4844983" version="12" timestamp="2022-12-07T16:45:52Z" changeset="129829144" uid="284094" user="woy_cb">
    <nd ref="446260252"/>
    <nd ref="110864575"/>
    <tag k="highway" v="secondary"/>
    <tag k="lanes" v="2"/>
    <tag k="name" v="Z치les칤"/>
    <tag k="oneway" v="yes"/>
    <tag k="surface" v="asphalt"/>
  </way>
  <way id="4845013" version="6" timestamp="2024-09-03T10:48:27Z" changeset="156136434" uid="1189910" user="Milancer">
    <nd ref="29942999"/>
    <nd ref="1780139936"/>
    <nd ref="635017525"/>
    <nd ref="5798553508"/>
    <tag k="highway" v="residential"/>
    <tag k="name" v="Nad Koupadly"/>
  </way>
  <way id="4845163" version="2" timestamp="2009-10-09T23:46:02Z" changeset="2798918" uid="3516" user="BiIbo">
    <nd ref="30011640"/>
    <nd ref="527667089"/>
    <nd ref="31205567"/>
    <tag k="highway" v="unclassified"/>
  </way>
  <way id="4845164" version="9" timestamp="2024-08-26T15:30:11Z" changeset="155784335" uid="21837881" user="dvratil">
    <nd ref="31205585"/>
    <nd ref="1696624477"/>
    <nd ref="31205584"/>
    <nd ref="1696624460"/>
    <nd ref="31205583"/>
    <tag k="highway" v="residential"/>
    <tag k="lane_markings" v="no"/>
    <tag k="name" v="Z치les칤"/>
    <tag k="oneway" v="no"/>
    <tag k="surface" v="asphalt"/>
  </way>
  <way id="4845167" version="4" timestamp="2025-03-18T15:36:17Z" changeset="163780653" uid="21837881" user="dvratil">
    <nd ref="31205979"/>
    <nd ref="31205989"/>
    <tag k="created_by" v="Potlatch alpha"/>
    <tag k="highway" v="residential"/>
    <tag k="lane_markings" v="no"/>
    <tag k="name" v="Na Borov칠m"/>
    <tag k="surface" v="asphalt"/>
  </way>
  <way id="4845196" version="5" timestamp="2025-03-18T15:36:33Z" changeset="163780619" uid="21837881" user="dvratil">
    <nd ref="31205989"/>
    <nd ref="364576544"/>
    <nd ref="31205998"/>
    <nd ref="31205999"/>
    <nd ref="31206000"/>
    <nd ref="31206001"/>
    <tag k="highway" v="residential"/>
    <tag k="name" v="U dru쬽tva Tempo"/>
    <tag k="surface" v="asphalt"/>
  </way>
  <way id="4845205" version="11" timestamp="2014-05-13T08:56:12Z" changeset="22308548" uid="2025854" user="Gaudl">
    <nd ref="31205626"/>
    <nd ref="31205556"/>
    <tag k="highway" v="residential"/>
    <tag k="name" v="Vzdu코n치"/>
    <tag k="oneway" v="no"/>
  </way>
  <way id="4845214" version="5" timestamp="2009-10-17T16:48:13Z" changeset="2875356" uid="3516" user="BiIbo">
    <nd ref="256093742"/>
    <nd ref="534335922"/>
    <nd ref="256093743"/>
    <nd ref="30202733"/>
    <nd ref="534337406"/>
    <nd ref="534337412"/>
    <nd ref="31205998"/>
    <nd ref="31206108"/>
    <tag k="highway" v="residential"/>
    <tag k="name" v="Slep치 II"/>
  </way>
  <way id="4845227" version="6" timestamp="2025-03-18T15:47:57Z" changeset="163780653" uid="21837881" user="dvratil">
    <nd ref="31206228"/>
    <nd ref="31205774"/>
    <nd ref="31206223"/>
    <nd ref="31206194"/>
    <nd ref="31205982"/>
    <nd ref="31206281"/>
    <nd ref="31206301"/>
    <nd ref="330444151"/>
    <tag k="highway" v="residential"/>
    <tag k="lane_markings" v="no"/>
    <tag k="name" v="Na rovin치ch"/>
    <tag k="surface" v="asphalt"/>
  </way>
  <way id="4845228" version="7" timestamp="2024-08-26T14:36:30Z" changeset="155783954" uid="21837881" user="dvratil">
    <nd ref="31206238"/>
    <nd ref="632885017"/>
    <nd ref="632885013"/>
    <nd ref="31206228"/>
    <tag k="highway" v="residential"/>
    <tag k="name" v="Na rovin치ch"/>
    <tag k="surface" v="asphalt"/>
  </way>
  <way id="4845229" version="8" timestamp="2024-08-26T15:30:00Z" changeset="155784335" uid="21837881" user="dvratil">
    <nd ref="31205557"/>
    <nd ref="31205583"/>
    <tag k="highway" v="residential"/>
    <tag k="lane_markings" v="no"/>
    <tag k="name" v="U Lesa"/>
    <tag k="oneway" v="yes"/>
    <tag k="surface" v="asphalt"/>
  </way>
  <way id="4845230" version="3" timestamp="2010-02-07T20:50:26Z" changeset="3818841" uid="3516" user="BiIbo">
    <nd ref="31205984"/>
    <nd ref="31206261"/>
    <nd ref="274220062"/>
    <nd ref="632828604"/>
    <nd ref="31206262"/>
    <tag k="highway" v="residential"/>
    <tag k="name" v="Mezilesn칤"/>
  </way>
  <way id="4845231" version="7" timestamp="2024-08-26T15:36:32Z" changeset="155789073" uid="21837881" user="dvratil">
    <nd ref="31206267"/>
    <nd ref="1696624555"/>
    <nd ref="31206261"/>
    <nd ref="31206280"/>
    <nd ref="31206281"/>
    <nd ref="533745907"/>
    <nd ref="274220053"/>
    <tag k="highway" v="residential"/>
    <tag k="lane_markings" v="no"/>
    <tag k="name" v="V Pl치ni"/>
    <tag k="sidewalk" v="both"/>
    <tag k="surface" v="asphalt"/>
  </way>
  <way id="4845232" version="7" timestamp="2012-03-29T19:12:39Z" changeset="11142511" uid="488732" user="montardo">
    <nd ref="31205556"/>
    <nd ref="533745840"/>
    <nd ref="632872095"/>
    <nd ref="31205554"/>
    <nd ref="1696624318"/>
    <nd ref="29940660"/>
    <tag k="highway" v="residential"/>
    <tag k="name" v="Na V캩trov캩"/>
    <tag k="oneway" v="yes"/>
  </way>
  <way id="4845233" version="3" timestamp="2025-03-18T15:48:19Z" changeset="163780653" uid="21837881" user="dvratil">
    <nd ref="31206301"/>
    <nd ref="31206303"/>
    <tag k="created_by" v="Potlatch alpha"/>
    <tag k="highway" v="residential"/>
    <tag k="lane_markings" v="no"/>
    <tag k="surface" v="asphalt"/>
  </way>
  <way id="4845234" version="4" timestamp="2008-06-28T08:08:46Z" changeset="324273" uid="8612" user="Kubajz">
    <nd ref="31206195"/>
    <nd ref="256093742"/>
    <nd ref="31205981"/>
    <nd ref="274220055"/>
    <nd ref="31206325"/>
    <tag k="created_by" v="Potlatch 0.8a"/>
    <tag k="highway" v="residential"/>
    <tag k="name" v="Na P콏칤캜ce"/>
  </way>
  <way id="4903438" version="12" timestamp="2024-05-31T13:28:23Z" changeset="152081397" uid="469828" user="Luk치코 Jel칤nek">
    <nd ref="29942627"/>
    <nd ref="1469171295"/>
    <nd ref="557496703"/>
    <nd ref="1801612502"/>
    <nd ref="1802670792"/>
    <nd ref="9360487678"/>
    <nd ref="29942994"/>
    <nd ref="1801612524"/>
    <nd ref="11947867474"/>
    <nd ref="634996698"/>
    <nd ref="1764025813"/>
    <nd ref="1801612518"/>
    <nd ref="31030532"/>
    <nd ref="11947867475"/>
    <nd ref="11947867476"/>
    <nd ref="1801612493"/>
    <nd ref="11947867477"/>
    <nd ref="29942995"/>
    <tag k="highway" v="tertiary"/>
    <tag k="name" v="Filosofsk치"/>
  </way>
  <way id="5458493" version="3" timestamp="2017-08-05T08:45:06Z" changeset="50856305" uid="3516" user="BiIbo">
    <nd ref="39732401"/>
    <nd ref="39732585"/>
    <nd ref="5015998732"/>
    <nd ref="39732586"/>
    <nd ref="5015998730"/>
    <nd ref="39732589"/>
    <nd ref="39732590"/>
    <tag k="highway" v="residential"/>
    <tag k="name" v="Mirotick치"/>
  </way>
  <way id="7980663" version="31" timestamp="2025-04-13T20:27:58Z" changeset="164911671" uid="4018695" user="游뻟릖 Roman Horn칤k">
    <nd ref="2337655010"/>
    <nd ref="103041677"/>
    <nd ref="330445002"/>
    <nd ref="29942522"/>
    <nd ref="12752999725"/>
    <nd ref="29942523"/>
    <nd ref="29942524"/>
    <tag k="highway" v="tertiary"/>
    <tag k="lanes" v="2"/>
    <tag k="name" v="Libu코sk치"/>
    <tag k="surface" v="asphalt"/>
  </way>
  <way id="12835983" version="6" timestamp="2025-03-18T15:39:43Z" changeset="163780653" uid="21837881" user="dvratil">
    <nd ref="31205989"/>
    <nd ref="31205980"/>
    <nd ref="669239350"/>
    <tag k="highway" v="residential"/>
    <tag k="lane_markings" v="no"/>
    <tag k="name" v="Sulick치"/>
    <tag k="surface" v="asphalt"/>
  </way>
  <way id="12836730" version="3" timestamp="2012-03-29T19:12:28Z" changeset="11142511" uid="488732" user="montardo">
    <nd ref="31206195"/>
    <nd ref="1696624077"/>
    <nd ref="117460403"/>
    <nd ref="30202734"/>
    <nd ref="31205999"/>
    <nd ref="31206103"/>
    <tag k="highway" v="residential"/>
    <tag k="name" v="K Nov칠mu dvoru"/>
  </way>
  <way id="12836731" version="9" timestamp="2024-08-26T15:34:18Z" changeset="155784335" uid="21837881" user="dvratil">
    <nd ref="31205585"/>
    <nd ref="117460417"/>
    <tag k="highway" v="residential"/>
    <tag k="lane_markings" v="no"/>
    <tag k="name" v="K Nov칠mu dvoru"/>
    <tag k="surface" v="asphalt"/>
  </way>
  <way id="13531910" version="15" timestamp="2023-11-15T12:55:31Z" changeset="144050681" uid="1744853" user="amunak">
    <nd ref="124397106"/>
    <nd ref="1146094456"/>
    <nd ref="10304774330"/>
    <nd ref="256092760"/>
    <nd ref="1902399512"/>
    <nd ref="1837832965"/>
    <nd ref="1902399514"/>
    <nd ref="130935859"/>
    <nd ref="1837832966"/>
    <nd ref="1837832964"/>
    <nd ref="124397052"/>
    <tag k="highway" v="residential"/>
    <tag k="maxspeed" v="30"/>
    <tag k="maxspeed:type" v="CZ:zone30"/>
    <tag k="maxspeed:zone" v="30"/>
    <tag k="name" v="Ru쬴novsk치"/>
    <tag k="surface" v="asphalt"/>
  </way>
  <way id="13717998" version="9" timestamp="2025-01-14T11:02:56Z" changeset="161340634" uid="8971394" user="vojtechzaboril">
    <nd ref="29941101"/>
    <nd ref="944921437"/>
    <nd ref="29940680"/>
    <tag k="highway" v="tertiary"/>
    <tag k="lanes" v="1"/>
    <tag k="maxspeed" v="50"/>
    <tag k="name" v="Durychova"/>
    <tag k="oneway" v="yes"/>
    <tag k="surface" v="asphalt"/>
  </way>
  <way id="23638920" version="3" timestamp="2008-06-28T08:08:44Z" changeset="324273" uid="8612" user="Kubajz">
    <nd ref="117460349"/>
    <nd ref="117460364"/>
    <nd ref="117460376"/>
    <nd ref="117460391"/>
    <tag k="created_by" v="Potlatch 0.8a"/>
    <tag k="highway" v="residential"/>
    <tag k="name" v="Na P콏칤캜ce"/>
  </way>
  <way id="23799333" version="8" timestamp="2014-08-29T09:57:52Z" changeset="25092507" uid="403828" user="Kamenitxan">
    <nd ref="31206065"/>
    <nd ref="31206066"/>
    <nd ref="31206067"/>
    <nd ref="31206068"/>
    <nd ref="31206069"/>
    <nd ref="31206070"/>
    <nd ref="31206071"/>
    <nd ref="31206072"/>
    <nd ref="31206073"/>
    <nd ref="31205776"/>
    <nd ref="31206065"/>
    <tag k="highway" v="residential"/>
    <tag k="name" v="Slep치 I"/>
  </way>
  <way id="23799363" version="7" timestamp="2021-01-08T23:19:04Z" changeset="97194606" uid="6588887" user="Martin2035">
    <nd ref="632872095"/>
    <nd ref="8304623826"/>
    <nd ref="257892805"/>
    <nd ref="257892806"/>
    <nd ref="257892804"/>
    <nd ref="257892803"/>
    <nd ref="257892802"/>
    <tag k="highway" v="residential"/>
    <tag k="name" v="Dob콏ejovick치"/>
    <tag k="oneway" v="yes"/>
  </way>
  <way id="23799376" version="7" timestamp="2024-08-26T14:29:36Z" changeset="155784335" uid="21837881" user="dvratil">
    <nd ref="31206073"/>
    <nd ref="257892938"/>
    <nd ref="257892939"/>
    <tag k="highway" v="residential"/>
    <tag k="lane_markings" v="no"/>
    <tag k="name" v="Slep치 I"/>
    <tag k="oneway" v="yes"/>
    <tag k="surface" v="asphalt"/>
  </way>
  <way id="25155401" version="2" timestamp="2014-08-29T09:57:52Z" changeset="25092507" uid="403828" user="Kamenitxan">
    <nd ref="30202735"/>
    <nd ref="31205776"/>
    <tag k="highway" v="residential"/>
    <tag k="name" v="Slep치 I"/>
  </way>
  <way id="25155403" version="2" timestamp="2009-01-09T12:57:00Z" changeset="761196" uid="3516" user="BiIbo">
    <nd ref="274220055"/>
    <nd ref="274220056"/>
    <tag k="highway" v="residential"/>
    <tag k="name" v="V Pl치ni"/>
  </way>
  <way id="25319635" version="9" timestamp="2025-04-05T12:08:34Z" changeset="164547810" uid="15312507" user="POI Mapper">
    <nd ref="9442596195"/>
    <nd ref="30013043"/>
    <nd ref="31029461"/>
    <nd ref="30013110"/>
    <nd ref="1823830419"/>
    <nd ref="29943001"/>
    <nd ref="31029482"/>
    <tag k="highway" v="tertiary"/>
    <tag k="name" v="U Koupadel"/>
    <tag k="surface" v="asphalt"/>
  </way>
  <way id="25319648" version="12" timestamp="2023-04-13T19:54:00Z" changeset="134877173" uid="231749" user="Eino81">
    <nd ref="9442596187"/>
    <nd ref="439204656"/>
    <nd ref="30012878"/>
    <nd ref="1818658634"/>
    <nd ref="9780256543"/>
    <nd ref="10809133048"/>
    <nd ref="30012879"/>
    <nd ref="30012880"/>
    <nd ref="1818718646"/>
    <nd ref="30012881"/>
    <nd ref="1823777288"/>
    <nd ref="1823777157"/>
    <nd ref="1823777293"/>
    <nd ref="30012883"/>
    <tag k="highway" v="residential"/>
    <tag k="name" v="Nad Z치ti코칤m"/>
    <tag k="surface" v="asphalt"/>
  </way>
  <way id="26114228" version="3" timestamp="2025-04-13T20:27:58Z" changeset="164911671" uid="4018695" user="游뻟릖 Roman Horn칤k">
    <nd ref="31206069"/>
    <nd ref="31206000"/>
    <nd ref="12752999730"/>
    <nd ref="31206092"/>
    <nd ref="31206331"/>
    <nd ref="31206332"/>
    <nd ref="11882392064"/>
    <nd ref="12752999726"/>
    <nd ref="12752999727"/>
    <nd ref="12752999728"/>
    <nd ref="12752999729"/>
    <nd ref="31206333"/>
    <nd ref="11882392061"/>
    <nd ref="31206334"/>
    <nd ref="11882392062"/>
    <nd ref="11882392063"/>
    <nd ref="12752999736"/>
    <nd ref="12752999735"/>
    <nd ref="12752999731"/>
    <nd ref="12752999732"/>
    <nd ref="12752999733"/>
    <nd ref="12752999734"/>
    <nd ref="12752999730"/>
    <tag k="highway" v="residential"/>
    <tag k="name" v="Slep치 I"/>
  </way>
  <way id="28739127" version="8" timestamp="2024-05-31T13:28:23Z" changeset="152081397" uid="469828" user="Luk치코 Jel칤nek">
    <nd ref="29942995"/>
    <nd ref="11947867478"/>
    <nd ref="1801612490"/>
    <nd ref="11947867481"/>
    <nd ref="11947867482"/>
    <nd ref="29942996"/>
    <nd ref="11947867483"/>
    <nd ref="316000728"/>
    <nd ref="29942997"/>
    <nd ref="1421884302"/>
    <nd ref="635017465"/>
    <nd ref="31030531"/>
    <nd ref="29942999"/>
    <tag k="highway" v="tertiary"/>
    <tag k="lanes" v="2"/>
    <tag k="name" v="Nad Koupadly"/>
    <tag k="surface" v="asphalt"/>
  </way>
  <way id="30017693" version="2" timestamp="2017-08-05T08:45:07Z" changeset="50856305" uid="3516" user="BiIbo">
    <nd ref="330445002"/>
    <nd ref="5015998749"/>
    <nd ref="330445001"/>
    <tag k="highway" v="residential"/>
  </way>
  <way id="31750484" version="6" timestamp="2025-04-12T17:39:23Z" changeset="164866259" uid="3003739" user="r00tcz">
    <nd ref="355320079"/>
    <nd ref="1191232078"/>
    <nd ref="355320217"/>
    <nd ref="355320223"/>
    <nd ref="1191232307"/>
    <nd ref="355320229"/>
    <nd ref="355320236"/>
    <nd ref="355320274"/>
    <nd ref="355320324"/>
    <nd ref="355320332"/>
    <nd ref="355320341"/>
    <nd ref="355320349"/>
    <nd ref="355320359"/>
    <nd ref="355320370"/>
    <nd ref="355320409"/>
    <nd ref="355320631"/>
    <nd ref="355320079"/>
    <tag k="amenity" v="place_of_worship"/>
    <tag k="building" v="civic"/>
    <tag k="building:flats" v="1"/>
    <tag k="building:levels" v="1"/>
    <tag k="building:ruian:type" v="15"/>
    <tag k="check_date" v="2025-04-12"/>
    <tag k="denomination" v="roman_catholic"/>
    <tag k="height" v="9 m"/>
    <tag k="name" v="Panna Marie Kr치lovna m칤ru"/>
    <tag k="official_name" v="Kostel Panny Marie Kr치lovny m칤ru"/>
    <tag k="ref:ruian:building" v="21743428"/>
    <tag k="religion" v="christian"/>
    <tag k="source" v="cuzk:ruian"/>
    <tag k="wikidata" v="Q34661928"/>
    <tag k="wikipedia" v="cs:Kostel Panny Marie Kr치lovny m칤ru (Lhotka)"/>
  </way>
  <way id="49805803" version="3" timestamp="2020-12-06T10:21:05Z" changeset="95360464" uid="12292705" user="blatnickaj">
    <nd ref="632846811"/>
    <nd ref="632846819"/>
    <nd ref="632846801"/>
    <nd ref="632846813"/>
    <nd ref="632846817"/>
    <nd ref="632846804"/>
    <nd ref="632846806"/>
    <nd ref="632846809"/>
    <nd ref="632846811"/>
    <tag k="addr:housenumber" v="8"/>
    <tag k="addr:street" v="V Pl치ni"/>
    <tag k="building" v="civic"/>
    <tag k="building:levels" v="1"/>
    <tag k="building:ruian:type" v="15"/>
    <tag k="name" v="HDC Praha"/>
    <tag k="ref:ruian:building" v="21744939"/>
  </way>
  <way id="49807391" version="3" timestamp="2016-07-14T17:46:28Z" changeset="40745990" uid="1829683" user="Luis36995">
    <nd ref="632872078"/>
    <nd ref="632872085"/>
    <nd ref="632872092"/>
    <nd ref="632872093"/>
    <nd ref="632872094"/>
    <nd ref="632872118"/>
    <nd ref="632872113"/>
    <nd ref="632872087"/>
    <nd ref="632872078"/>
    <tag k="building" v="yes"/>
    <tag k="building:levels" v="2"/>
    <tag k="name" v="Pra쬽k치 plyn치rensk치"/>
    <tag k="source" v="cuzk:km"/>
  </way>
  <way id="57375276" version="2" timestamp="2021-01-08T23:19:04Z" changeset="97194606" uid="6588887" user="Martin2035">
    <nd ref="632872075"/>
    <nd ref="632872076"/>
    <nd ref="632872085"/>
    <nd ref="632872078"/>
    <nd ref="632872079"/>
    <nd ref="632872080"/>
    <nd ref="632872081"/>
    <nd ref="8304623828"/>
    <nd ref="632872082"/>
    <nd ref="8304623832"/>
    <nd ref="632872083"/>
    <nd ref="8304623827"/>
    <nd ref="632872084"/>
    <nd ref="632872075"/>
    <tag k="building" v="yes"/>
    <tag k="building:levels" v="9"/>
    <tag k="name" v="Pra쬽k치 plyn치rensk치"/>
    <tag k="source" v="cuzk:km"/>
  </way>
  <way id="73227608" version="6" timestamp="2024-08-26T14:42:11Z" changeset="155783954" uid="21837881" user="dvratil">
    <nd ref="691520"/>
    <nd ref="446260252"/>
    <tag k="highway" v="secondary"/>
    <tag k="lanes" v="2"/>
    <tag k="name" v="Novodvorsk치"/>
    <tag k="oneway" v="yes"/>
    <tag k="surface" v="asphalt"/>
  </way>
  <way id="73227624" version="7" timestamp="2025-04-13T20:27:58Z" changeset="164911671" uid="4018695" user="游뻟릖 Roman Horn칤k">
    <nd ref="446260258"/>
    <nd ref="31203044"/>
    <tag k="highway" v="secondary"/>
    <tag k="lanes" v="2"/>
    <tag k="lit" v="yes"/>
    <tag k="name" v="Z치les칤"/>
    <tag k="oneway" v="yes"/>
    <tag k="surface" v="asphalt"/>
  </way>
  <way id="79265858" version="11" timestamp="2025-04-13T20:27:58Z" changeset="164911671" uid="4018695" user="游뻟릖 Roman Horn칤k">
    <nd ref="30011640"/>
    <nd ref="9309272592"/>
    <nd ref="778233383"/>
    <nd ref="438109410"/>
    <nd ref="10693228731"/>
    <nd ref="438109414"/>
    <nd ref="12752999741"/>
    <nd ref="12752999740"/>
    <nd ref="691519"/>
    <nd ref="3646165019"/>
    <nd ref="31203044"/>
    <tag k="highway" v="secondary"/>
    <tag k="lanes" v="4"/>
    <tag k="lit" v="yes"/>
    <tag k="name" v="Z치les칤"/>
    <tag k="surface" v="asphalt"/>
  </way>
  <way id="118276634" version="4" timestamp="2024-08-26T15:31:31Z" changeset="155784335" uid="21837881" user="dvratil">
    <nd ref="283621782"/>
    <nd ref="31205557"/>
    <tag k="highway" v="residential"/>
    <tag k="lane_markings" v="no"/>
    <tag k="name" v="Na V캩trov캩"/>
    <tag k="oneway" v="yes"/>
    <tag k="surface" v="asphalt"/>
  </way>
  <way id="118276635" version="1" timestamp="2011-06-19T09:10:19Z" changeset="8481473" uid="8612" user="Kubajz">
    <nd ref="31205556"/>
    <nd ref="257892802"/>
    <nd ref="31205774"/>
    <nd ref="31205775"/>
    <nd ref="533745851"/>
    <nd ref="30202735"/>
    <tag k="highway" v="residential"/>
    <tag k="name" v="Vzdu코n치"/>
  </way>
  <way id="118276636" version="2" timestamp="2012-03-29T19:13:09Z" changeset="11142511" uid="488732" user="montardo">
    <nd ref="31205585"/>
    <nd ref="1696624478"/>
    <nd ref="1696624497"/>
    <nd ref="1696624503"/>
    <nd ref="31205586"/>
    <tag k="highway" v="residential"/>
    <tag k="name" v="Z치les칤"/>
  </way>
  <way id="118276637" version="1" timestamp="2011-06-19T09:10:19Z" changeset="8481473" uid="8612" user="Kubajz">
    <nd ref="31205556"/>
    <nd ref="31205557"/>
    <tag k="highway" v="residential"/>
    <tag k="name" v="Na V캩trov캩"/>
    <tag k="oneway" v="yes"/>
  </way>
  <way id="128746393" version="4" timestamp="2022-01-11T11:20:53Z" changeset="116019966" uid="6588887" user="Martin2035">
    <nd ref="30012883"/>
    <nd ref="7591239864"/>
    <nd ref="29940209"/>
    <tag k="highway" v="residential"/>
    <tag k="motor_vehicle" v="destination"/>
    <tag k="name" v="Nad Z치ti코칤m"/>
  </way>
  <way id="128746396" version="1" timestamp="2011-09-03T12:03:20Z" changeset="9200178" uid="17615" user="Petr Dlouh칳">
    <nd ref="31029646"/>
    <nd ref="31029507"/>
    <nd ref="31029508"/>
    <nd ref="31029509"/>
    <tag k="highway" v="residential"/>
    <tag k="name" v="R콢쬰n칤nsk치"/>
  </way>
  <way id="128746402" version="3" timestamp="2016-08-04T19:04:04Z" changeset="41245194" uid="1189910" user="Milancer">
    <nd ref="31029483"/>
    <nd ref="31029509"/>
    <tag k="highway" v="residential"/>
    <tag k="name" v="Ve Lhotce"/>
  </way>
  <way id="128746403" version="2" timestamp="2023-01-09T19:35:33Z" changeset="131073130" uid="17156674" user="mic8per">
    <nd ref="30012883"/>
    <nd ref="10397409798"/>
    <nd ref="284691972"/>
    <nd ref="31029483"/>
    <tag k="highway" v="residential"/>
    <tag k="name" v="Ve Lhotce"/>
  </way>
  <way id="128923949" version="5" timestamp="2025-01-14T11:02:56Z" changeset="161340634" uid="8971394" user="vojtechzaboril">
    <nd ref="1423367922"/>
    <nd ref="1423367923"/>
    <tag k="highway" v="tertiary_link"/>
    <tag k="lane_markings" v="no"/>
    <tag k="name" v="Durychova"/>
    <tag k="source" v="bing:ortofoto"/>
    <tag k="surface" v="asphalt"/>
  </way>
  <way id="133485657" version="3" timestamp="2025-03-18T15:40:31Z" changeset="163780653" uid="21837881" user="dvratil">
    <nd ref="669239350"/>
    <nd ref="30202732"/>
    <tag k="highway" v="residential"/>
    <tag k="lane_markings" v="no"/>
    <tag k="name" v="Sulick치"/>
    <tag k="surface" v="asphalt"/>
  </way>
  <way id="133485658" version="3" timestamp="2024-08-26T15:33:39Z" changeset="155784335" uid="21837881" user="dvratil">
    <nd ref="30202732"/>
    <nd ref="31205981"/>
    <nd ref="31205982"/>
    <nd ref="31205983"/>
    <nd ref="31205984"/>
    <nd ref="31205586"/>
    <nd ref="1316637344"/>
    <nd ref="31203045"/>
    <tag k="highway" v="residential"/>
    <tag k="lane_markings" v="no"/>
    <tag k="name" v="Sulick치"/>
    <tag k="surface" v="asphalt"/>
  </way>
  <way id="133485659" version="5" timestamp="2020-08-04T07:38:04Z" changeset="88913147" uid="8976801" user="majkaz_imports">
    <nd ref="30202732"/>
    <nd ref="30202733"/>
    <nd ref="30202734"/>
    <nd ref="30202735"/>
    <nd ref="30202736"/>
    <nd ref="1696623873"/>
    <nd ref="29940722"/>
    <tag k="access" v="destination"/>
    <tag k="highway" v="residential"/>
    <tag k="name" v="V Zahradn칤 캜tvrti"/>
    <tag k="surface" v="asphalt"/>
  </way>
  <way id="168546424" version="2" timestamp="2014-08-29T07:15:04Z" changeset="25089465" uid="403828" user="Kamenitxan">
    <nd ref="1797945052"/>
    <nd ref="1797945051"/>
    <nd ref="635017525"/>
    <tag k="highway" v="residential"/>
    <tag k="name" v="Nad Koupadly"/>
  </way>
  <way id="172822807" version="6" timestamp="2024-08-26T14:42:08Z" changeset="155783954" uid="21837881" user="dvratil">
    <nd ref="110864575"/>
    <nd ref="110864573"/>
    <tag k="highway" v="secondary"/>
    <tag k="lanes" v="2"/>
    <tag k="name" v="Novodvorsk치"/>
    <tag k="oneway" v="yes"/>
    <tag k="surface" v="asphalt"/>
  </way>
  <way id="172822884" version="4" timestamp="2024-08-26T14:42:21Z" changeset="155783954" uid="21837881" user="dvratil">
    <nd ref="446260252"/>
    <nd ref="29940661"/>
    <tag k="highway" v="secondary"/>
    <tag k="lanes" v="2"/>
    <tag k="name" v="Novodvorsk치"/>
    <tag k="oneway" v="yes"/>
    <tag k="surface" v="asphalt"/>
  </way>
  <way id="182878222" version="4" timestamp="2025-01-14T11:04:02Z" changeset="161340670" uid="8971394" user="vojtechzaboril">
    <nd ref="110864573"/>
    <nd ref="691520"/>
    <tag k="highway" v="secondary"/>
    <tag k="lanes" v="2"/>
    <tag k="oneway" v="yes"/>
    <tag k="surface" v="asphalt"/>
  </way>
  <way id="224924742" version="4" timestamp="2024-08-26T14:02:46Z" changeset="155783954" uid="21837881" user="dvratil">
    <nd ref="713205379"/>
    <nd ref="364586300"/>
    <tag k="highway" v="tertiary"/>
    <tag k="lanes" v="1"/>
    <tag k="maxspeed" v="50"/>
    <tag k="name" v="Ch칳novsk치"/>
    <tag k="oneway" v="yes"/>
    <tag k="surface" v="asphalt"/>
  </way>
  <way id="236742353" version="6" timestamp="2023-09-05T10:27:21Z" changeset="140843093" uid="11392454" user="Hory1989">
    <nd ref="2447266346"/>
    <nd ref="1421884310"/>
    <nd ref="30011660"/>
    <nd ref="1421884307"/>
    <nd ref="7080242222"/>
    <tag k="cycleway:right" v="lane"/>
    <tag k="highway" v="secondary"/>
    <tag k="lanes" v="1"/>
    <tag k="lit" v="yes"/>
    <tag k="name" v="Novodvorsk치"/>
    <tag k="oneway" v="yes"/>
    <tag k="sidewalk:left" v="no"/>
    <tag k="sidewalk:right" v="separate"/>
    <tag k="surface" v="asphalt"/>
  </way>
  <way id="236742366" version="7" timestamp="2025-04-13T20:27:58Z" changeset="164911671" uid="4018695" user="游뻟릖 Roman Horn칤k">
    <nd ref="1780194255"/>
    <nd ref="446260256"/>
    <nd ref="2671962729"/>
    <nd ref="110864618"/>
    <nd ref="691520"/>
    <tag k="highway" v="secondary"/>
    <tag k="lanes" v="2"/>
    <tag k="lit" v="yes"/>
    <tag k="name" v="Novodvorsk치"/>
    <tag k="oneway" v="yes"/>
    <tag k="surface" v="asphalt"/>
  </way>
  <way id="259088866" version="5" timestamp="2025-01-14T11:02:56Z" changeset="161340634" uid="8971394" user="vojtechzaboril">
    <nd ref="364586300"/>
    <nd ref="12500594642"/>
    <nd ref="4171307619"/>
    <nd ref="12500594641"/>
    <nd ref="766149859"/>
    <tag k="highway" v="tertiary"/>
    <tag k="lanes" v="1"/>
    <tag k="maxspeed" v="50"/>
    <tag k="name" v="Ch칳novsk치"/>
    <tag k="oneway" v="yes"/>
    <tag k="surface" v="asphalt"/>
  </way>
  <way id="259088867" version="4" timestamp="2025-01-14T11:02:56Z" changeset="161340634" uid="8971394" user="vojtechzaboril">
    <nd ref="364586302"/>
    <nd ref="1418973871"/>
    <nd ref="2337655006"/>
    <nd ref="2337655007"/>
    <nd ref="2337655010"/>
    <tag k="highway" v="tertiary"/>
    <tag k="lanes" v="2"/>
    <tag k="maxspeed" v="50"/>
    <tag k="name" v="Ch칳novsk치"/>
    <tag k="oneway" v="yes"/>
    <tag k="surface" v="asphalt"/>
  </way>
  <way id="281511075" version="5" timestamp="2024-08-26T15:29:30Z" changeset="155784335" uid="21837881" user="dvratil">
    <nd ref="31205583"/>
    <nd ref="31205582"/>
    <nd ref="31205581"/>
    <nd ref="31205567"/>
    <tag k="highway" v="residential"/>
    <tag k="lane_markings" v="no"/>
    <tag k="name" v="Z치les칤"/>
    <tag k="oneway" v="yes"/>
    <tag k="surface" v="asphalt"/>
  </way>
  <way id="281511178" version="3" timestamp="2024-08-26T15:26:57Z" changeset="155784335" uid="21837881" user="dvratil">
    <nd ref="31205567"/>
    <nd ref="2280591312"/>
    <nd ref="31205626"/>
    <nd ref="31205579"/>
    <tag k="highway" v="residential"/>
    <tag k="lane_markings" v="no"/>
    <tag k="name" v="Z치les칤"/>
    <tag k="oneway" v="no"/>
    <tag k="surface" v="asphalt"/>
  </way>
  <way id="282875030" version="2" timestamp="2017-08-05T08:50:52Z" changeset="50856305" uid="3516" user="BiIbo">
    <nd ref="39732401"/>
    <nd ref="39732274"/>
    <nd ref="39732277"/>
    <nd ref="39732278"/>
    <nd ref="5016012023"/>
    <nd ref="5016011208"/>
    <nd ref="5016011201"/>
    <nd ref="31997460"/>
    <tag k="highway" v="residential"/>
    <tag k="name" v="캛imelick치"/>
    <tag k="oneway" v="yes"/>
  </way>
  <way id="284797598" version="4" timestamp="2024-08-26T15:36:06Z" changeset="155789073" uid="21837881" user="dvratil">
    <nd ref="283621782"/>
    <nd ref="117460417"/>
    <nd ref="31205983"/>
    <nd ref="31206280"/>
    <nd ref="31206290"/>
    <tag k="highway" v="residential"/>
    <tag k="lane_markings" v="no"/>
    <tag k="name" v="Na V캩trov캩"/>
    <tag k="sidewalk" v="both"/>
    <tag k="surface" v="asphalt"/>
  </way>
  <way id="300782781" version="2" timestamp="2024-08-26T14:35:24Z" changeset="155783954" uid="21837881" user="dvratil">
    <nd ref="31206228"/>
    <nd ref="632885101"/>
    <nd ref="632885106"/>
    <nd ref="632885112"/>
    <nd ref="31206240"/>
    <nd ref="632885109"/>
    <nd ref="31205775"/>
    <tag k="highway" v="residential"/>
    <tag k="name" v="Tou코e켿sk치"/>
    <tag k="surface" v="asphalt"/>
  </way>
  <way id="301800678" version="2" timestamp="2022-12-17T22:08:02Z" changeset="130197035" uid="367303" user="Vaekk">
    <nd ref="31029698"/>
    <nd ref="1821376037"/>
    <nd ref="557496702"/>
    <nd ref="31029699"/>
    <nd ref="29942992"/>
    <tag k="highway" v="residential"/>
    <tag k="name" v="Kl치nova"/>
    <tag k="surface" v="asphalt"/>
  </way>
  <way id="301800679" version="3" timestamp="2022-12-17T22:08:09Z" changeset="130197035" uid="367303" user="Vaekk">
    <nd ref="31029698"/>
    <nd ref="29942995"/>
    <tag k="highway" v="residential"/>
    <tag k="name" v="Na Dlouh칠 mezi"/>
    <tag k="surface" v="asphalt"/>
  </way>
  <way id="335473677" version="5" timestamp="2023-12-07T15:13:36Z" changeset="144870879" uid="4815" user="*Martin*">
    <nd ref="3425762816"/>
    <nd ref="3425762815"/>
    <nd ref="3425762817"/>
    <nd ref="3425762818"/>
    <nd ref="3425762810"/>
    <nd ref="713205387"/>
    <nd ref="3425762809"/>
    <nd ref="3425762816"/>
    <tag k="addr:city" v="Praha"/>
    <tag k="addr:conscriptionnumber" v="1010"/>
    <tag k="addr:housenumber" v="1010/14"/>
    <tag k="addr:postcode" v="14200"/>
    <tag k="addr:street" v="Novodvorsk치"/>
    <tag k="addr:streetnumber" v="14"/>
    <tag k="building" v="office"/>
    <tag k="building:levels" v="1"/>
    <tag k="building:ruian:type" v="19"/>
    <tag k="name" v="A"/>
    <tag k="ref:ruian:building" v="21746133"/>
    <tag k="source" v="cuzk:ruian"/>
  </way>
  <way id="373367661" version="1" timestamp="2015-10-02T07:07:31Z" changeset="34382782" uid="2372901" user="Krist칳na Kohoutov치">
    <nd ref="117460417"/>
    <nd ref="283621784"/>
    <nd ref="31206194"/>
    <nd ref="117460349"/>
    <tag k="highway" v="residential"/>
    <tag k="name" v="K Nov칠mu dvoru"/>
  </way>
  <way id="392261921" version="6" timestamp="2025-01-14T11:04:02Z" changeset="161340670" uid="8971394" user="vojtechzaboril">
    <nd ref="29943004"/>
    <nd ref="4377928708"/>
    <nd ref="29942328"/>
    <nd ref="446260257"/>
    <nd ref="7591256848"/>
    <nd ref="282777488"/>
    <nd ref="446260252"/>
    <tag k="highway" v="tertiary"/>
    <tag k="lanes" v="2"/>
    <tag k="name" v="Mari치nsk치"/>
    <tag k="oneway" v="yes"/>
    <tag k="surface" v="asphalt"/>
  </way>
  <way id="392261927" version="6" timestamp="2025-04-13T20:27:58Z" changeset="164911671" uid="4018695" user="游뻟릖 Roman Horn칤k">
    <nd ref="691520"/>
    <nd ref="282777487"/>
    <nd ref="31028378"/>
    <nd ref="4377928709"/>
    <nd ref="446260253"/>
    <nd ref="29943003"/>
    <tag k="highway" v="tertiary"/>
    <tag k="lanes" v="2"/>
    <tag k="name" v="Mari치nsk치"/>
    <tag k="oneway" v="yes"/>
    <tag k="surface" v="asphalt"/>
  </way>
  <way id="403455941" version="1" timestamp="2016-03-13T12:00:51Z" changeset="37798697" uid="527259" user="Vratislav Filler">
    <nd ref="364586304"/>
    <nd ref="39732401"/>
    <tag k="highway" v="residential"/>
    <tag k="name" v="캛imelick치"/>
  </way>
  <way id="416373318" version="5" timestamp="2025-01-14T11:02:56Z" changeset="161340634" uid="8971394" user="vojtechzaboril">
    <nd ref="678324474"/>
    <nd ref="4171307610"/>
    <nd ref="12500594640"/>
    <nd ref="4171307611"/>
    <nd ref="12500594639"/>
    <nd ref="12500594638"/>
    <nd ref="12500594637"/>
    <nd ref="364586302"/>
    <tag k="highway" v="tertiary_link"/>
    <tag k="lanes" v="1"/>
    <tag k="maxspeed" v="50"/>
    <tag k="oneway" v="yes"/>
    <tag k="surface" v="asphalt"/>
  </way>
  <way id="435696279" version="1" timestamp="2016-08-04T19:03:59Z" changeset="41245194" uid="1189910" user="Milancer">
    <nd ref="31029509"/>
    <nd ref="31029484"/>
    <nd ref="284691168"/>
    <nd ref="31029485"/>
    <tag k="highway" v="residential"/>
    <tag k="name" v="Ve Lhotce"/>
  </way>
  <way id="758155421" version="3" timestamp="2022-12-07T16:45:34Z" changeset="129829090" uid="284094" user="woy_cb">
    <nd ref="1780194273"/>
    <nd ref="279097778"/>
    <nd ref="279097780"/>
    <nd ref="1780194255"/>
    <tag k="cycleway" v="lane"/>
    <tag k="highway" v="secondary"/>
    <tag k="lanes" v="1"/>
    <tag k="lit" v="yes"/>
    <tag k="name" v="Novodvorsk치"/>
    <tag k="oneway" v="yes"/>
    <tag k="surface" v="asphalt"/>
  </way>
  <way id="927174777" version="3" timestamp="2024-08-26T14:02:42Z" changeset="155784335" uid="21837881" user="dvratil">
    <nd ref="2337655011"/>
    <nd ref="713205379"/>
    <tag k="highway" v="tertiary"/>
    <tag k="lanes" v="1"/>
    <tag k="maxspeed" v="50"/>
    <tag k="name" v="Ch칳novsk치"/>
    <tag k="oneway" v="yes"/>
    <tag k="surface" v="asphalt"/>
  </way>
  <way id="1023981661" version="3" timestamp="2025-04-05T12:12:48Z" changeset="164548425" uid="15312507" user="POI Mapper">
    <nd ref="275847974"/>
    <nd ref="29942997"/>
    <nd ref="31029681"/>
    <nd ref="30012877"/>
    <nd ref="9442596188"/>
    <tag k="highway" v="residential"/>
    <tag k="lane_markings" v="no"/>
    <tag k="lanes" v="2"/>
    <tag k="name" v="Nad Z치ti코칤m"/>
    <tag k="surface" v="asphalt"/>
  </way>
  <way id="1023981662" version="1" timestamp="2022-01-23T16:58:47Z" changeset="116507563" uid="10317199" user="adam 12">
    <nd ref="9442596188"/>
    <nd ref="9442596187"/>
    <tag k="bridge" v="yes"/>
    <tag k="highway" v="residential"/>
    <tag k="layer" v="1"/>
    <tag k="name" v="Nad Z치ti코칤m"/>
  </way>
  <way id="1023981669" version="1" timestamp="2022-01-23T16:58:47Z" changeset="116507563" uid="10317199" user="adam 12">
    <nd ref="29942999"/>
    <nd ref="1797945050"/>
    <nd ref="1797945040"/>
    <nd ref="1797945052"/>
    <nd ref="29943000"/>
    <nd ref="9442596196"/>
    <tag k="highway" v="tertiary"/>
    <tag k="name" v="U Koupadel"/>
  </way>
  <way id="1023981670" version="4" timestamp="2025-04-05T12:09:08Z" changeset="164548425" uid="15312507" user="POI Mapper">
    <nd ref="9442596196"/>
    <nd ref="9442596195"/>
    <tag k="highway" v="tertiary"/>
    <tag k="lanes" v="2"/>
    <tag k="name" v="U Koupadel"/>
    <tag k="surface" v="asphalt"/>
  </way>
  <way id="1075481354" version="2" timestamp="2025-01-14T11:02:56Z" changeset="161340634" uid="8971394" user="vojtechzaboril">
    <nd ref="29941036"/>
    <nd ref="29941113"/>
    <tag k="highway" v="tertiary"/>
    <tag k="lanes" v="1"/>
    <tag k="maxspeed" v="50"/>
    <tag k="name" v="Durychova"/>
    <tag k="oneway" v="yes"/>
    <tag k="surface" v="asphalt"/>
  </way>
  <way id="1135527014" version="1" timestamp="2023-01-26T20:50:42Z" changeset="131747632" uid="6588887" user="Martin2035">
    <nd ref="30012877"/>
    <nd ref="31029692"/>
    <nd ref="10584960740"/>
    <tag k="highway" v="residential"/>
    <tag k="name" v="Kl치nova"/>
    <tag k="surface" v="asphalt"/>
  </way>
  <way id="1135542446" version="1" timestamp="2023-01-26T22:08:17Z" changeset="131750004" uid="6588887" user="Martin2035">
    <nd ref="31029482"/>
    <nd ref="7591239862"/>
    <nd ref="30012883"/>
    <tag k="highway" v="residential"/>
    <tag k="name" v="Ve Lhotce"/>
  </way>
  <way id="1135542447" version="1" timestamp="2023-01-26T22:08:17Z" changeset="131750004" uid="6588887" user="Martin2035">
    <nd ref="31029482"/>
    <nd ref="7591239861"/>
    <nd ref="29943002"/>
    <nd ref="446260251"/>
    <nd ref="29943003"/>
    <tag k="highway" v="tertiary"/>
    <tag k="name" v="U Koupadel"/>
  </way>
  <way id="1313003714" version="1" timestamp="2024-09-03T10:48:27Z" changeset="156136434" uid="1189910" user="Milancer">
    <nd ref="5798553508"/>
    <nd ref="12153495456"/>
    <tag k="access" v="private"/>
    <tag k="highway" v="residential"/>
    <tag k="name" v="Nad Koupadly"/>
  </way>
  <way id="1351182703" version="1" timestamp="2025-01-14T11:02:56Z" changeset="161340634" uid="8971394" user="vojtechzaboril">
    <nd ref="1418973880"/>
    <nd ref="1423367923"/>
    <nd ref="29941101"/>
    <tag k="highway" v="tertiary"/>
    <tag k="lanes" v="2"/>
    <tag k="maxspeed" v="50"/>
    <tag k="name" v="Durychova"/>
    <tag k="oneway" v="yes"/>
    <tag k="surface" v="asphalt"/>
    <tag k="turn:lanes" v="through|right"/>
  </way>
  <way id="1377296957" version="1" timestamp="2025-04-13T20:27:58Z" changeset="164911671" uid="4018695" user="游뻟릖 Roman Horn칤k">
    <nd ref="110864575"/>
    <nd ref="1696624332"/>
    <nd ref="446260258"/>
    <tag k="highway" v="secondary"/>
    <tag k="lanes" v="2"/>
    <tag k="lit" v="yes"/>
    <tag k="name" v="Z치les칤"/>
    <tag k="oneway" v="yes"/>
    <tag k="surface" v="asphalt"/>
  </way>

</osm>
