<?xml version="1.0" encoding="UTF-8"?>
<osm version="0.6" generator="Overpass API 0.7.62.5 1bd436f1">
<note>The data included in this document is from www.openstreetmap.org. The data is made available under ODbL.</note>
<meta osm_base="2025-05-18T02:50:12Z" areas="2024-12-31T00:49:33Z"/>

  <node id="21516942" lat="50.1153003" lon="14.2849945" version="7" timestamp="2025-04-08T08:00:49Z" changeset="164666212" uid="8971394" user="vojtechzaboril"/>
  <node id="380446068" lat="50.1194458" lon="14.2904187" version="8" timestamp="2021-01-24T11:46:27Z" changeset="98054017" uid="11276832" user="HaPe-CZ"/>
  <node id="4387236866" lat="50.1156356" lon="14.2856477" version="2" timestamp="2021-01-14T19:39:12Z" changeset="97513467" uid="11276832" user="HaPe-CZ"/>
  <node id="4387236871" lat="50.1159448" lon="14.2857687" version="3" timestamp="2021-01-14T19:39:12Z" changeset="97513467" uid="11276832" user="HaPe-CZ"/>
  <node id="4868588186" lat="50.1145285" lon="14.3110081" version="1" timestamp="2017-05-21T20:56:33Z" changeset="48868319" uid="10353" user="gorn"/>
  <node id="7085762607" lat="50.1158275" lon="14.2859668" version="2" timestamp="2021-01-14T19:39:12Z" changeset="97513467" uid="11276832" user="HaPe-CZ"/>
  <node id="7085762608" lat="50.1158513" lon="14.2861210" version="2" timestamp="2021-01-14T19:39:12Z" changeset="97513467" uid="11276832" user="HaPe-CZ"/>
  <node id="8322191747" lat="50.1162789" lon="14.2849535" version="2" timestamp="2025-04-08T08:00:49Z" changeset="164666212" uid="8971394" user="vojtechzaboril"/>
  <way id="4908263" version="9" timestamp="2021-01-27T15:44:16Z" changeset="98239001" uid="11276832" user="HaPe-CZ">
    <nd ref="32059220"/>
    <nd ref="1994557666"/>
    <nd ref="32059221"/>
    <nd ref="8367818282"/>
    <nd ref="32059222"/>
    <nd ref="8367818281"/>
    <nd ref="8367818280"/>
    <nd ref="8367818279"/>
    <nd ref="32059223"/>
    <nd ref="8367818278"/>
    <nd ref="1233605840"/>
    <nd ref="32059224"/>
    <nd ref="8367818277"/>
    <nd ref="8367818274"/>
    <nd ref="1233605861"/>
    <nd ref="32059225"/>
    <tag k="highway" v="residential"/>
    <tag k="maxspeed" v="30"/>
    <tag k="name" v="Do Roklí"/>
    <tag k="oneway" v="yes"/>
    <tag k="source:maxspeed" v="zone"/>
    <tag k="surface" v="asphalt"/>
  </way>
  <way id="4908268" version="12" timestamp="2024-11-23T13:18:18Z" changeset="159499408" uid="1189910" user="Milancer">
    <nd ref="32059220"/>
    <nd ref="8367818291"/>
    <nd ref="1994557665"/>
    <nd ref="8367818289"/>
    <nd ref="1233605908"/>
    <nd ref="4747911606"/>
    <tag k="highway" v="tertiary"/>
    <tag k="maxspeed" v="30"/>
    <tag k="name" v="K Tuchoměřicům"/>
    <tag k="source:maxspeed" v="zone"/>
    <tag k="surface" v="asphalt"/>
  </way>
  <way id="4921090" version="7" timestamp="2017-05-01T14:05:01Z" changeset="48308515" uid="255936" user="NyanSten">
    <nd ref="32059212"/>
    <nd ref="2558454619"/>
    <tag k="highway" v="residential"/>
    <tag k="maxspeed" v="30"/>
    <tag k="name" v="K Padesátníku"/>
    <tag k="source:maxspeed" v="zone"/>
    <tag k="surface" v="asphalt"/>
  </way>
  <way id="8091802" version="11" timestamp="2025-03-29T08:57:56Z" changeset="164239414" uid="3516" user="BiIbo">
    <nd ref="4868588186"/>
    <nd ref="4733162855"/>
    <nd ref="4733162856"/>
    <tag k="destination:forward" v="Přední Kopanina"/>
    <tag k="highway" v="tertiary"/>
    <tag k="lanes" v="2"/>
    <tag k="maxspeed" v="50"/>
    <tag k="name" v="K Tuchoměřicům"/>
    <tag k="source:maxspeed" v="CZ:urban"/>
    <tag k="surface" v="asphalt"/>
  </way>
  <way id="8094980" version="14" timestamp="2024-04-17T12:31:24Z" changeset="150127329" uid="9291527" user="marekhrabe">
    <nd ref="4387236871"/>
    <nd ref="8322191690"/>
    <nd ref="8322191691"/>
    <nd ref="8322191692"/>
    <nd ref="8322191689"/>
    <nd ref="4387236867"/>
    <nd ref="8322191683"/>
    <nd ref="8322191684"/>
    <nd ref="8322191685"/>
    <nd ref="3781448760"/>
    <tag k="destination" v="letiště"/>
    <tag k="destination:symbol" v="airport"/>
    <tag k="foot" v="no"/>
    <tag k="highway" v="secondary"/>
    <tag k="maxspeed" v="50"/>
    <tag k="oneway" v="yes"/>
    <tag k="source:maxspeed" v="CZ:urban"/>
    <tag k="surface" v="asphalt"/>
  </way>
  <way id="8095029" version="13" timestamp="2025-03-18T10:54:30Z" changeset="163768673" uid="16565042" user="BestestGuy">
    <nd ref="32268780"/>
    <nd ref="1737283048"/>
    <nd ref="60647999"/>
    <nd ref="12648451136"/>
    <nd ref="12648451135"/>
    <nd ref="1737283083"/>
    <nd ref="60647998"/>
    <nd ref="60647997"/>
    <nd ref="1737283115"/>
    <nd ref="60647996"/>
    <tag k="cycleway:left" v="lane"/>
    <tag k="cycleway:left:lane" v="exclusive"/>
    <tag k="cycleway:left:oneway" v="-1"/>
    <tag k="cycleway:right" v="no"/>
    <tag k="highway" v="residential"/>
    <tag k="maxspeed" v="30"/>
    <tag k="name" v="Ke Goniu"/>
    <tag k="oneway" v="yes"/>
    <tag k="oneway:bicycle" v="no"/>
    <tag k="sidewalk" v="left"/>
    <tag k="source:maxspeed" v="zone"/>
    <tag k="surface" v="asphalt"/>
  </way>
  <way id="11730024" version="4" timestamp="2017-05-01T14:05:01Z" changeset="48308515" uid="255936" user="NyanSten">
    <nd ref="32059251"/>
    <nd ref="32059252"/>
    <tag k="bridge" v="yes"/>
    <tag k="highway" v="tertiary"/>
    <tag k="layer" v="1"/>
    <tag k="maxspeed" v="30"/>
    <tag k="name" v="K Tuchoměřicům"/>
    <tag k="source:maxspeed" v="sign"/>
    <tag k="surface" v="asphalt"/>
  </way>
  <way id="11730025" version="9" timestamp="2023-08-09T10:16:48Z" changeset="139651896" uid="54031" user="jeef">
    <nd ref="32059252"/>
    <nd ref="1455835486"/>
    <nd ref="7085762616"/>
    <nd ref="7085762617"/>
    <nd ref="8357065395"/>
    <nd ref="32059253"/>
    <tag k="highway" v="tertiary"/>
    <tag k="lane_markings" v="no"/>
    <tag k="maxspeed" v="30"/>
    <tag k="name" v="K Tuchoměřicům"/>
    <tag k="source:maxspeed" v="sign"/>
    <tag k="surface" v="asphalt"/>
  </way>
  <way id="27625120" version="9" timestamp="2021-01-27T15:44:16Z" changeset="98239001" uid="11276832" user="HaPe-CZ">
    <nd ref="32059217"/>
    <nd ref="4747911608"/>
    <nd ref="8367818296"/>
    <nd ref="4747911609"/>
    <nd ref="8367818297"/>
    <nd ref="8367818299"/>
    <nd ref="8367818298"/>
    <nd ref="2578636996"/>
    <nd ref="8367818303"/>
    <nd ref="8367818302"/>
    <nd ref="8367818301"/>
    <nd ref="8367818300"/>
    <nd ref="303374625"/>
    <nd ref="303374634"/>
    <tag k="highway" v="residential"/>
    <tag k="maxspeed:backward" v="30"/>
    <tag k="maxspeed:forward" v="20"/>
    <tag k="name" v="K Prelátům"/>
    <tag k="priority" v="backward"/>
    <tag k="source:maxspeed:backward" v="zone"/>
    <tag k="source:maxspeed:forward" v="sign"/>
    <tag k="surface" v="asphalt"/>
  </way>
  <way id="27625121" version="6" timestamp="2025-03-09T22:07:22Z" changeset="163419462" uid="11545091" user="VladaC">
    <nd ref="303375395"/>
    <nd ref="11271702467"/>
    <nd ref="303375404"/>
    <nd ref="303375414"/>
    <nd ref="11271702469"/>
    <nd ref="303375427"/>
    <nd ref="392734042"/>
    <nd ref="392734043"/>
    <nd ref="392734045"/>
    <tag k="highway" v="residential"/>
    <tag k="maxspeed" v="50"/>
    <tag k="name" v="Preláta"/>
    <tag k="source:maxspeed" v="CZ:urban"/>
    <tag k="surface" v="asphalt"/>
  </way>
  <way id="27625122" version="7" timestamp="2025-03-09T22:07:22Z" changeset="163419462" uid="11545091" user="VladaC">
    <nd ref="303375395"/>
    <nd ref="11271702466"/>
    <nd ref="303375440"/>
    <nd ref="11271702460"/>
    <nd ref="3151701926"/>
    <nd ref="3151701927"/>
    <nd ref="11271702436"/>
    <nd ref="11271702437"/>
    <nd ref="3151701928"/>
    <nd ref="3151701929"/>
    <nd ref="11271702453"/>
    <tag k="highway" v="residential"/>
    <tag k="maxspeed" v="50"/>
    <tag k="name" v="Preláta"/>
    <tag k="source:maxspeed" v="CZ:urban"/>
    <tag k="surface" v="asphalt"/>
  </way>
  <way id="27625123" version="7" timestamp="2024-04-07T17:50:20Z" changeset="149703954" uid="231749" user="Eino81">
    <nd ref="303375264"/>
    <nd ref="303375460"/>
    <nd ref="303375469"/>
    <nd ref="303375477"/>
    <nd ref="303375481"/>
    <nd ref="303375489"/>
    <nd ref="303375497"/>
    <nd ref="303375503"/>
    <nd ref="303375512"/>
    <nd ref="303375513"/>
    <nd ref="303375514"/>
    <nd ref="303375517"/>
    <nd ref="9651020642"/>
    <nd ref="303375519"/>
    <nd ref="303375520"/>
    <nd ref="11800092761"/>
    <nd ref="303375521"/>
    <nd ref="9650996283"/>
    <nd ref="303375526"/>
    <nd ref="303375535"/>
    <nd ref="303375545"/>
    <nd ref="303375554"/>
    <nd ref="9650996291"/>
    <nd ref="303375562"/>
    <nd ref="303375571"/>
    <tag k="highway" v="residential"/>
    <tag k="maxspeed" v="50"/>
    <tag k="name" v="Preláta"/>
    <tag k="source:maxspeed" v="CZ:urban"/>
    <tag k="surface" v="asphalt"/>
  </way>
  <way id="32825667" version="8" timestamp="2017-05-01T13:53:54Z" changeset="48308203" uid="255936" user="NyanSten">
    <nd ref="303374782"/>
    <nd ref="303374766"/>
    <nd ref="303374751"/>
    <nd ref="4747911101"/>
    <nd ref="4747911103"/>
    <tag k="highway" v="residential"/>
    <tag k="maxspeed" v="30"/>
    <tag k="name" v="K Juliáně"/>
    <tag k="source" v="cuzk:km;uhul:ortofoto"/>
    <tag k="source:maxspeed" v="zone"/>
    <tag k="surface" v="asphalt"/>
  </way>
  <way id="32825668" version="9" timestamp="2024-06-09T13:17:36Z" changeset="152454700" uid="11558305" user="QPSK">
    <nd ref="32059217"/>
    <nd ref="4080984654"/>
    <nd ref="4067246794"/>
    <tag k="highway" v="tertiary"/>
    <tag k="lanes" v="2"/>
    <tag k="maxspeed" v="30"/>
    <tag k="name" v="K Tuchoměřicům"/>
    <tag k="source:maxspeed" v="zone"/>
    <tag k="surface" v="asphalt"/>
  </way>
  <way id="32825670" version="7" timestamp="2017-05-01T19:04:28Z" changeset="48315877" uid="255936" user="NyanSten">
    <nd ref="32059213"/>
    <nd ref="4692586219"/>
    <nd ref="4747911096"/>
    <nd ref="32059212"/>
    <tag k="highway" v="tertiary"/>
    <tag k="maxspeed" v="30"/>
    <tag k="name" v="K Tuchoměřicům"/>
    <tag k="source:maxspeed" v="zone"/>
    <tag k="surface" v="asphalt"/>
  </way>
  <way id="33433603" version="12" timestamp="2025-04-20T13:10:14Z" changeset="165193353" uid="22796831" user="Finreeal">
    <nd ref="380446068"/>
    <nd ref="12770338215"/>
    <nd ref="380446072"/>
    <nd ref="7042341445"/>
    <nd ref="7042341444"/>
    <nd ref="8357065385"/>
    <nd ref="8357065386"/>
    <nd ref="1455835499"/>
    <nd ref="8357065387"/>
    <nd ref="24967649"/>
    <nd ref="78576180"/>
    <nd ref="78576184"/>
    <nd ref="8357065388"/>
    <nd ref="24967651"/>
    <nd ref="7937033937"/>
    <nd ref="78576188"/>
    <nd ref="8357065389"/>
    <nd ref="8357065390"/>
    <nd ref="24967656"/>
    <nd ref="8357065391"/>
    <nd ref="8357065392"/>
    <nd ref="78576191"/>
    <nd ref="8357065393"/>
    <nd ref="78576196"/>
    <nd ref="393455001"/>
    <tag k="highway" v="tertiary"/>
    <tag k="lane_markings" v="no"/>
    <tag k="maxspeed" v="90"/>
    <tag k="ref" v="0071"/>
    <tag k="source:maxspeed" v="CZ:rural"/>
    <tag k="source:ref" v="rsd_cr"/>
    <tag k="surface" v="asphalt"/>
  </way>
  <way id="33433606" version="8" timestamp="2021-01-27T15:44:16Z" changeset="98239001" uid="11276832" user="HaPe-CZ">
    <nd ref="380446145"/>
    <nd ref="8367824130"/>
    <nd ref="8367824126"/>
    <nd ref="8367824129"/>
    <nd ref="8367824127"/>
    <nd ref="380446148"/>
    <nd ref="8367824131"/>
    <nd ref="380446152"/>
    <nd ref="380446155"/>
    <nd ref="676086826"/>
    <nd ref="8367824133"/>
    <nd ref="8367824132"/>
    <nd ref="380446157"/>
    <tag k="highway" v="residential"/>
    <tag k="maxspeed" v="30"/>
    <tag k="name" v="Do Roklí"/>
    <tag k="priority" v="forward"/>
    <tag k="source" v="cuzk:km;uhul:ortofoto"/>
    <tag k="source:maxspeed" v="zone"/>
    <tag k="surface" v="asphalt"/>
  </way>
  <way id="33803482" version="8" timestamp="2025-03-18T10:54:31Z" changeset="163768673" uid="16565042" user="BestestGuy">
    <nd ref="60647996"/>
    <nd ref="12648451134"/>
    <nd ref="387155157"/>
    <nd ref="4828815523"/>
    <tag k="highway" v="residential"/>
    <tag k="maxspeed" v="30"/>
    <tag k="name" v="U Maří Magdaleny"/>
    <tag k="sidewalk" v="both"/>
    <tag k="source" v="cuzk:km;uhul:ortofoto"/>
    <tag k="source:maxspeed" v="zone"/>
    <tag k="surface" v="asphalt"/>
  </way>
  <way id="33803484" version="6" timestamp="2017-05-01T13:51:27Z" changeset="48308141" uid="255936" user="NyanSten">
    <nd ref="387155163"/>
    <nd ref="244510086"/>
    <tag k="highway" v="residential"/>
    <tag k="maxlength" v="6"/>
    <tag k="maxspeed" v="30"/>
    <tag k="name" v="K Juliáně"/>
    <tag k="source:maxspeed" v="zone"/>
    <tag k="surface" v="asphalt"/>
  </way>
  <way id="34047755" version="5" timestamp="2025-03-09T22:07:22Z" changeset="163419462" uid="11545091" user="VladaC">
    <nd ref="303375264"/>
    <nd ref="303375284"/>
    <nd ref="303375289"/>
    <nd ref="303375298"/>
    <nd ref="303375311"/>
    <nd ref="11717143127"/>
    <nd ref="303375326"/>
    <nd ref="303375335"/>
    <tag k="highway" v="residential"/>
    <tag k="maxspeed" v="50"/>
    <tag k="name" v="Preláta"/>
    <tag k="source:maxspeed" v="CZ:urban"/>
    <tag k="surface" v="asphalt"/>
  </way>
  <way id="34047756" version="4" timestamp="2025-03-29T08:59:09Z" changeset="164239414" uid="3516" user="BiIbo">
    <nd ref="4747925095"/>
    <nd ref="32059210"/>
    <nd ref="32059211"/>
    <nd ref="244510085"/>
    <nd ref="32059212"/>
    <tag k="highway" v="tertiary"/>
    <tag k="lanes" v="2"/>
    <tag k="maxspeed" v="30"/>
    <tag k="name" v="K Tuchoměřicům"/>
    <tag k="source:maxspeed" v="zone"/>
    <tag k="surface" v="asphalt"/>
  </way>
  <way id="34245689" version="4" timestamp="2017-05-01T13:53:54Z" changeset="48308203" uid="255936" user="NyanSten">
    <nd ref="4747911104"/>
    <nd ref="4747911102"/>
    <nd ref="693188956"/>
    <nd ref="32059213"/>
    <tag k="highway" v="residential"/>
    <tag k="maxspeed" v="30"/>
    <tag k="name" v="K Juliáně"/>
    <tag k="source" v="cuzk:km;uhul:ortofoto"/>
    <tag k="source:maxspeed" v="zone"/>
    <tag k="surface" v="asphalt"/>
  </way>
  <way id="34245690" version="9" timestamp="2024-05-19T09:51:31Z" changeset="151526425" uid="746938" user="aloxe">
    <nd ref="32059219"/>
    <nd ref="2578636995"/>
    <nd ref="8367818294"/>
    <nd ref="4747911610"/>
    <nd ref="8367818295"/>
    <nd ref="32059217"/>
    <tag k="highway" v="tertiary"/>
    <tag k="lanes" v="2"/>
    <tag k="maxspeed" v="30"/>
    <tag k="name" v="K Tuchoměřicům"/>
    <tag k="source:maxspeed" v="zone"/>
    <tag k="surface" v="asphalt"/>
  </way>
  <way id="37609309" version="7" timestamp="2021-01-27T15:44:16Z" changeset="98239001" uid="11276832" user="HaPe-CZ">
    <nd ref="32059225"/>
    <nd ref="8367818273"/>
    <nd ref="8367818272"/>
    <nd ref="32059226"/>
    <tag k="highway" v="residential"/>
    <tag k="maxspeed" v="30"/>
    <tag k="name" v="Do Roklí"/>
    <tag k="source:maxspeed" v="zone"/>
    <tag k="surface" v="asphalt"/>
  </way>
  <way id="37609310" version="6" timestamp="2017-05-01T13:55:44Z" changeset="48308255" uid="255936" user="NyanSten">
    <nd ref="676087178"/>
    <nd ref="380445958"/>
    <nd ref="380445960"/>
    <nd ref="380445962"/>
    <nd ref="380445964"/>
    <nd ref="380445966"/>
    <nd ref="380445968"/>
    <tag k="highway" v="residential"/>
    <tag k="maxspeed" v="30"/>
    <tag k="name" v="K Lávce"/>
    <tag k="oneway" v="yes"/>
    <tag k="source:maxspeed" v="zone"/>
    <tag k="surface" v="asphalt"/>
    <tag k="width" v="2"/>
  </way>
  <way id="53506821" version="5" timestamp="2017-07-01T17:49:07Z" changeset="49969783" uid="1942179" user="CzechAddress">
    <nd ref="676086895"/>
    <nd ref="676087025"/>
    <nd ref="4534022991"/>
    <nd ref="676086889"/>
    <nd ref="676086891"/>
    <nd ref="676086893"/>
    <nd ref="676086895"/>
    <tag k="addr:conscriptionnumber" v="37"/>
    <tag k="addr:country" v="CZ"/>
    <tag k="addr:housenumber" v="37"/>
    <tag k="addr:place" v="Přední Kopanina"/>
    <tag k="addr:postcode" v="16400"/>
    <tag k="addr:street" v="Ke goniu"/>
    <tag k="building" v="house"/>
    <tag k="building:flats" v="1"/>
    <tag k="building:levels" v="1"/>
    <tag k="building:ruian:type" v="7"/>
    <tag k="ref:ruian:addr" v="22231757"/>
    <tag k="ref:ruian:building" v="21555559"/>
    <tag k="source" v="cuzk:ruian"/>
  </way>
  <way id="53506831" version="5" timestamp="2017-07-01T17:49:07Z" changeset="49969783" uid="1942179" user="CzechAddress">
    <nd ref="676086887"/>
    <nd ref="676086905"/>
    <nd ref="4534022935"/>
    <nd ref="4534022934"/>
    <nd ref="4534022933"/>
    <nd ref="4534022932"/>
    <nd ref="676086907"/>
    <nd ref="676086882"/>
    <nd ref="676086883"/>
    <nd ref="676086885"/>
    <nd ref="676086887"/>
    <tag k="addr:conscriptionnumber" v="94"/>
    <tag k="addr:country" v="CZ"/>
    <tag k="addr:housenumber" v="94"/>
    <tag k="addr:place" v="Přední Kopanina"/>
    <tag k="addr:postcode" v="16400"/>
    <tag k="addr:street" v="Ke goniu"/>
    <tag k="building" v="residential"/>
    <tag k="building:flats" v="1"/>
    <tag k="building:levels" v="1"/>
    <tag k="building:ruian:type" v="3"/>
    <tag k="ref:ruian:addr" v="22232184"/>
    <tag k="ref:ruian:building" v="21556016"/>
    <tag k="source" v="cuzk:ruian"/>
  </way>
  <way id="53506841" version="9" timestamp="2024-11-08T11:16:32Z" changeset="158891184" uid="718054" user="Piskvor">
    <nd ref="4534022990"/>
    <nd ref="4534022989"/>
    <nd ref="4534022988"/>
    <nd ref="4534022987"/>
    <nd ref="676087055"/>
    <nd ref="4534022986"/>
    <nd ref="4534022985"/>
    <nd ref="4534022984"/>
    <nd ref="676087053"/>
    <nd ref="4534022983"/>
    <nd ref="4534022982"/>
    <nd ref="4534022981"/>
    <nd ref="4534022980"/>
    <nd ref="676087051"/>
    <nd ref="4534022979"/>
    <nd ref="4534022978"/>
    <nd ref="4534022977"/>
    <nd ref="4534022976"/>
    <nd ref="676087049"/>
    <nd ref="676087057"/>
    <nd ref="676087022"/>
    <nd ref="676087021"/>
    <nd ref="676087038"/>
    <nd ref="676087036"/>
    <nd ref="676087034"/>
    <nd ref="676087032"/>
    <nd ref="676087046"/>
    <nd ref="676087044"/>
    <nd ref="4534022975"/>
    <nd ref="4534022974"/>
    <nd ref="4534022973"/>
    <nd ref="676087042"/>
    <nd ref="4534022972"/>
    <nd ref="4534022971"/>
    <nd ref="676087040"/>
    <nd ref="4534022970"/>
    <nd ref="4534022990"/>
    <tag k="amenity" v="place_of_worship"/>
    <tag k="building" v="church"/>
    <tag k="building:ruian:type" v="5"/>
    <tag k="check_date" v="2024-05-12"/>
    <tag k="denomination" v="roman_catholic"/>
    <tag k="description" v="rotunda"/>
    <tag k="name" v="svatá Maří Magdalena"/>
    <tag k="ref:ruian:building" v="46863541"/>
    <tag k="religion" v="christian"/>
    <tag k="source" v="cuzk:ruian"/>
    <tag k="wikidata" v="Q12030646"/>
    <tag k="wikipedia" v="cs:Kostel svaté Máří Magdaleny (Přední Kopanina)"/>
  </way>
  <way id="107436617" version="5" timestamp="2024-05-19T09:51:31Z" changeset="151526425" uid="746938" user="aloxe">
    <nd ref="32059219"/>
    <nd ref="8367818292"/>
    <nd ref="244510082"/>
    <nd ref="32059220"/>
    <tag k="highway" v="tertiary"/>
    <tag k="lanes" v="2"/>
    <tag k="maxspeed" v="30"/>
    <tag k="name" v="K Tuchoměřicům"/>
    <tag k="source:maxspeed" v="zone"/>
    <tag k="surface" v="asphalt"/>
  </way>
  <way id="111165171" version="4" timestamp="2024-07-04T11:19:22Z" changeset="153541642" uid="10932047" user="AF HAF KARTOGRAF">
    <nd ref="1267198457"/>
    <nd ref="1267198823"/>
    <nd ref="1267198900"/>
    <nd ref="1267198560"/>
    <nd ref="1267198735"/>
    <nd ref="12033226552"/>
    <nd ref="12033226551"/>
    <nd ref="12033226550"/>
    <nd ref="12033226549"/>
    <nd ref="429600581"/>
    <nd ref="12033226548"/>
    <nd ref="12033226547"/>
    <nd ref="12033226546"/>
    <nd ref="1267197995"/>
    <nd ref="1267198363"/>
    <nd ref="1267198457"/>
    <tag k="amenity" v="restaurant"/>
    <tag k="building" v="hotel"/>
    <tag k="building:levels" v="3"/>
    <tag k="building:ruian:type" v="11"/>
    <tag k="name" v="U Housliček"/>
    <tag k="ref:ruian:building" v="21555281"/>
    <tag k="source" v="cuzk:ruian"/>
  </way>
  <way id="111165202" version="9" timestamp="2025-03-29T09:17:41Z" changeset="164240420" uid="3516" user="BiIbo">
    <nd ref="1267198251"/>
    <nd ref="1267198631"/>
    <nd ref="1267198477"/>
    <nd ref="1267198845"/>
    <nd ref="1267198803"/>
    <nd ref="1267198933"/>
    <nd ref="1267198199"/>
    <nd ref="1267198857"/>
    <nd ref="4534023002"/>
    <nd ref="4534023001"/>
    <nd ref="4534023000"/>
    <nd ref="4534022999"/>
    <nd ref="4534022998"/>
    <nd ref="1267198028"/>
    <nd ref="4534022997"/>
    <nd ref="4534022996"/>
    <nd ref="4534022995"/>
    <nd ref="4534022994"/>
    <nd ref="4534022993"/>
    <nd ref="4534022992"/>
    <nd ref="1267198251"/>
    <tag k="addr:conscriptionnumber" v="123"/>
    <tag k="addr:country" v="CZ"/>
    <tag k="addr:housenumber" v="123"/>
    <tag k="addr:postcode" v="16400"/>
    <tag k="addr:street" v="Ke Goniu"/>
    <tag k="amenity" v="restaurant"/>
    <tag k="building" v="yes"/>
    <tag k="building:levels" v="1"/>
    <tag k="building:ruian:type" v="19"/>
    <tag k="cuisine" v="regional"/>
    <tag k="internet_access" v="wlan"/>
    <tag k="internet_access:fee" v="no"/>
    <tag k="level" v="0"/>
    <tag k="name" v="U Drahušky"/>
    <tag k="opening_hours" v="Mo-Su 11:00-23:00"/>
    <tag k="outdoor_seating" v="yes"/>
    <tag k="payment:coins" v="yes"/>
    <tag k="payment:credit_cards" v="no"/>
    <tag k="payment:cryptocurrencies" v="no"/>
    <tag k="payment:debit_cards" v="no"/>
    <tag k="payment:notes" v="yes"/>
    <tag k="ref:ruian:building" v="21556296"/>
    <tag k="roof:shape" v="gabled"/>
    <tag k="smoking" v="outside"/>
    <tag k="source" v="cuzk:ruian"/>
    <tag k="takeaway" v="no"/>
    <tag k="toilets" v="yes"/>
    <tag k="toilets:access" v="permissive"/>
    <tag k="wheelchair" v="yes"/>
  </way>
  <way id="111165210" version="6" timestamp="2017-12-11T16:02:44Z" changeset="54543867" uid="2169558" user="JandaM">
    <nd ref="1267198129"/>
    <nd ref="1267198029"/>
    <nd ref="1267198859"/>
    <nd ref="1267198945"/>
    <nd ref="1267198129"/>
    <tag k="addr:conscriptionnumber" v="122"/>
    <tag k="addr:country" v="CZ"/>
    <tag k="addr:housenumber" v="122"/>
    <tag k="addr:place" v="Přední Kopanina"/>
    <tag k="addr:postcode" v="16400"/>
    <tag k="addr:street" v="Ke goniu"/>
    <tag k="building" v="residential"/>
    <tag k="building:flats" v="2"/>
    <tag k="building:levels" v="1"/>
    <tag k="building:ruian:type" v="3"/>
    <tag k="ref:ruian:addr" v="22232427"/>
    <tag k="ref:ruian:building" v="21556288"/>
    <tag k="roof:material" v="roof_tiles"/>
    <tag k="roof:shape" v="gabled"/>
    <tag k="source" v="cuzk:ruian"/>
  </way>
  <way id="111165216" version="5" timestamp="2024-03-30T20:01:17Z" changeset="149365661" uid="10932047" user="AF HAF KARTOGRAF">
    <nd ref="1737283126"/>
    <nd ref="1737283127"/>
    <nd ref="1267199106"/>
    <nd ref="4534023025"/>
    <nd ref="4534023024"/>
    <nd ref="4534023023"/>
    <nd ref="4534023022"/>
    <nd ref="1267198703"/>
    <nd ref="1267198205"/>
    <nd ref="1267198107"/>
    <nd ref="1267199039"/>
    <nd ref="4534023021"/>
    <nd ref="1267198634"/>
    <nd ref="1267198148"/>
    <nd ref="1737283126"/>
    <tag k="addr:conscriptionnumber" v="33"/>
    <tag k="addr:country" v="CZ"/>
    <tag k="addr:housenumber" v="33"/>
    <tag k="addr:postcode" v="16400"/>
    <tag k="addr:street" v="K Tuchoměřicům"/>
    <tag k="building" v="residential"/>
    <tag k="building:flats" v="1"/>
    <tag k="building:levels" v="1"/>
    <tag k="building:ruian:type" v="3"/>
    <tag k="ref:ruian:addr" v="22231714"/>
    <tag k="ref:ruian:building" v="21555516"/>
    <tag k="source" v="cuzk:ruian"/>
  </way>
  <way id="249196471" version="5" timestamp="2017-05-01T13:51:27Z" changeset="48308141" uid="255936" user="NyanSten">
    <nd ref="244510085"/>
    <nd ref="244510086"/>
    <tag k="highway" v="residential"/>
    <tag k="maxlength" v="6"/>
    <tag k="maxspeed" v="30"/>
    <tag k="name" v="K Juliáně"/>
    <tag k="source:maxspeed" v="zone"/>
    <tag k="surface" v="asphalt"/>
  </way>
  <way id="249196472" version="4" timestamp="2017-05-01T13:53:54Z" changeset="48308203" uid="255936" user="NyanSten">
    <nd ref="4747911103"/>
    <nd ref="4747911104"/>
    <tag k="highway" v="residential"/>
    <tag k="maxspeed" v="30"/>
    <tag k="name" v="K Juliáně"/>
    <tag k="source" v="cuzk:km;uhul:ortofoto"/>
    <tag k="source:maxspeed" v="zone"/>
    <tag k="surface" v="asphalt"/>
  </way>
  <way id="249196473" version="9" timestamp="2025-03-09T15:40:26Z" changeset="163406040" uid="11545091" user="VladaC">
    <nd ref="303373452"/>
    <nd ref="32268777"/>
    <nd ref="6366124282"/>
    <nd ref="32268778"/>
    <nd ref="6366124284"/>
    <nd ref="32268779"/>
    <nd ref="1737283047"/>
    <nd ref="32268780"/>
    <tag k="highway" v="residential"/>
    <tag k="maxspeed" v="30"/>
    <tag k="name" v="K Padesátníku"/>
    <tag k="source:maxspeed" v="zone"/>
    <tag k="surface" v="asphalt"/>
  </way>
  <way id="309830782" version="6" timestamp="2024-03-17T19:30:43Z" changeset="148787334" uid="3995704" user="David_DS">
    <nd ref="303375298"/>
    <nd ref="3151701933"/>
    <nd ref="3151701934"/>
    <nd ref="9202154634"/>
    <nd ref="3151701935"/>
    <nd ref="3151701936"/>
    <nd ref="11271702387"/>
    <nd ref="3151701937"/>
    <nd ref="3151701938"/>
    <nd ref="3151701939"/>
    <nd ref="11739521311"/>
    <nd ref="3151701940"/>
    <nd ref="3151701941"/>
    <nd ref="3151701942"/>
    <nd ref="3151701943"/>
    <nd ref="3151701944"/>
    <tag k="highway" v="residential"/>
    <tag k="maxspeed" v="50"/>
    <tag k="name" v="Preláta"/>
    <tag k="source:maxspeed" v="CZ:urban"/>
    <tag k="surface" v="asphalt"/>
  </way>
  <way id="374761214" version="15" timestamp="2024-04-17T12:31:24Z" changeset="150127329" uid="9291527" user="marekhrabe">
    <nd ref="7085762607"/>
    <nd ref="3781448773"/>
    <nd ref="3781448766"/>
    <nd ref="7085762608"/>
    <nd ref="3781448767"/>
    <nd ref="7085762609"/>
    <nd ref="3781448768"/>
    <nd ref="7085762610"/>
    <nd ref="21516940"/>
    <nd ref="7085762611"/>
    <nd ref="3781448769"/>
    <nd ref="7085762612"/>
    <nd ref="3781448770"/>
    <tag k="foot" v="no"/>
    <tag k="highway" v="secondary"/>
    <tag k="junction" v="roundabout"/>
    <tag k="lanes" v="1"/>
    <tag k="maxspeed" v="50"/>
    <tag k="source:maxspeed" v="CZ:urban"/>
    <tag k="surface" v="asphalt"/>
  </way>
  <way id="374761217" version="9" timestamp="2025-04-08T08:00:49Z" changeset="164666212" uid="8971394" user="vojtechzaboril">
    <nd ref="4387236866"/>
    <nd ref="8322191701"/>
    <nd ref="8322191702"/>
    <nd ref="7085762622"/>
    <nd ref="4387236868"/>
    <nd ref="8322191703"/>
    <nd ref="4387236869"/>
    <nd ref="8322191704"/>
    <nd ref="7085762624"/>
    <nd ref="8322191705"/>
    <nd ref="7085762623"/>
    <nd ref="8322191706"/>
    <nd ref="4387236872"/>
    <nd ref="4387236873"/>
    <nd ref="1455835485"/>
    <tag k="destination" v="Horoměřice;Nebušice;Přední Kopanina"/>
    <tag k="highway" v="tertiary_link"/>
    <tag k="lanes" v="1"/>
    <tag k="maxspeed" v="90"/>
    <tag k="oneway" v="yes"/>
    <tag k="source:maxspeed" v="CZ:rural"/>
    <tag k="surface" v="asphalt"/>
  </way>
  <way id="404452524" version="5" timestamp="2021-01-27T15:44:16Z" changeset="98239001" uid="11276832" user="HaPe-CZ">
    <nd ref="4067246794"/>
    <nd ref="8367818304"/>
    <nd ref="8367818305"/>
    <nd ref="392733993"/>
    <nd ref="8367818306"/>
    <nd ref="8367818307"/>
    <nd ref="8367818308"/>
    <nd ref="32059216"/>
    <nd ref="8367818309"/>
    <nd ref="8367818310"/>
    <nd ref="32059215"/>
    <nd ref="4692586218"/>
    <nd ref="8367818311"/>
    <nd ref="32059214"/>
    <nd ref="4692586217"/>
    <nd ref="4692586216"/>
    <nd ref="8367818313"/>
    <nd ref="8367818312"/>
    <nd ref="32059213"/>
    <tag k="highway" v="tertiary"/>
    <tag k="maxspeed" v="30"/>
    <tag k="name" v="K Tuchoměřicům"/>
    <tag k="source:maxspeed" v="zone"/>
    <tag k="surface" v="asphalt"/>
  </way>
  <way id="475337214" version="17" timestamp="2025-04-08T08:00:49Z" changeset="164666212" uid="8971394" user="vojtechzaboril">
    <nd ref="8322191747"/>
    <nd ref="8322191755"/>
    <nd ref="8322191756"/>
    <nd ref="8322191715"/>
    <nd ref="8322191714"/>
    <nd ref="8322191713"/>
    <nd ref="3728393832"/>
    <nd ref="8322191712"/>
    <nd ref="3728393833"/>
    <nd ref="7085762628"/>
    <nd ref="4387236870"/>
    <nd ref="8322191711"/>
    <nd ref="8322191710"/>
    <nd ref="3728393834"/>
    <nd ref="8322191709"/>
    <nd ref="8322191708"/>
    <nd ref="8322191707"/>
    <nd ref="8322191682"/>
    <nd ref="8322191687"/>
    <nd ref="3854653600"/>
    <tag k="destination" v="letiště"/>
    <tag k="destination:symbol" v="airport"/>
    <tag k="highway" v="trunk_link"/>
    <tag k="lanes" v="1"/>
    <tag k="maxspeed" v="40"/>
    <tag k="motorroad" v="no"/>
    <tag k="oneway" v="yes"/>
    <tag k="source:maxspeed" v="sign"/>
    <tag k="surface" v="asphalt"/>
  </way>
  <way id="480313950" version="4" timestamp="2025-03-29T08:57:57Z" changeset="164239414" uid="3516" user="BiIbo">
    <nd ref="4733162856"/>
    <nd ref="4747925095"/>
    <tag k="highway" v="tertiary"/>
    <tag k="lanes" v="2"/>
    <tag k="maxspeed" v="50"/>
    <tag k="name" v="K Tuchoměřicům"/>
    <tag k="source:maxspeed" v="CZ:urban"/>
    <tag k="surface" v="asphalt"/>
  </way>
  <way id="481892822" version="3" timestamp="2023-08-09T10:16:24Z" changeset="139651896" uid="54031" user="jeef">
    <nd ref="393455001"/>
    <nd ref="4747911603"/>
    <tag k="highway" v="tertiary"/>
    <tag k="lane_markings" v="no"/>
    <tag k="maxspeed:backward" v="30"/>
    <tag k="maxspeed:forward" v="50"/>
    <tag k="name" v="K Tuchoměřicům"/>
    <tag k="ref" v="0071"/>
    <tag k="source:maxspeed:backward" v="sign"/>
    <tag k="source:maxspeed:forward" v="CZ:urban"/>
    <tag k="source:ref" v="rsd_cr"/>
    <tag k="surface" v="asphalt"/>
  </way>
  <way id="481892823" version="5" timestamp="2023-08-09T10:16:29Z" changeset="139651896" uid="54031" user="jeef">
    <nd ref="4747911603"/>
    <nd ref="1233605900"/>
    <nd ref="78576200"/>
    <nd ref="1233605919"/>
    <nd ref="8357065394"/>
    <nd ref="78576203"/>
    <nd ref="7085762619"/>
    <nd ref="1455835488"/>
    <nd ref="7085762618"/>
    <nd ref="32059253"/>
    <tag k="highway" v="tertiary"/>
    <tag k="lane_markings" v="no"/>
    <tag k="maxspeed" v="30"/>
    <tag k="name" v="K Tuchoměřicům"/>
    <tag k="ref" v="0071"/>
    <tag k="source:maxspeed" v="sign"/>
    <tag k="source:ref" v="rsd_cr"/>
    <tag k="surface" v="asphalt"/>
  </way>
  <way id="481892824" version="5" timestamp="2025-04-19T13:05:49Z" changeset="165153129" uid="22796831" user="Finreeal">
    <nd ref="4747911604"/>
    <nd ref="4747911605"/>
    <nd ref="12768425976"/>
    <nd ref="8367818264"/>
    <nd ref="32059249"/>
    <nd ref="8367818263"/>
    <nd ref="8367818267"/>
    <nd ref="8367818262"/>
    <nd ref="380446157"/>
    <tag k="highway" v="tertiary"/>
    <tag k="maxspeed" v="30"/>
    <tag k="name" v="K Tuchoměřicům"/>
    <tag k="source:maxspeed" v="sign"/>
    <tag k="surface" v="asphalt"/>
  </way>
  <way id="481892825" version="3" timestamp="2021-01-27T15:44:16Z" changeset="98239001" uid="11276832" user="HaPe-CZ">
    <nd ref="4747911606"/>
    <nd ref="8367818288"/>
    <nd ref="8367818287"/>
    <nd ref="8367818286"/>
    <nd ref="3628958678"/>
    <nd ref="8367818285"/>
    <nd ref="8367818283"/>
    <nd ref="8367818284"/>
    <nd ref="429600578"/>
    <nd ref="4747911604"/>
    <tag k="highway" v="tertiary"/>
    <tag k="maxspeed" v="50"/>
    <tag k="name" v="K Tuchoměřicům"/>
    <tag k="source:maxspeed" v="sign"/>
    <tag k="surface" v="asphalt"/>
  </way>
  <way id="481892826" version="2" timestamp="2017-05-01T14:04:00Z" changeset="48308481" uid="255936" user="NyanSten">
    <nd ref="32059226"/>
    <nd ref="4747911607"/>
    <tag k="highway" v="residential"/>
    <tag k="maxspeed" v="30"/>
    <tag k="name" v="Do Roklí"/>
    <tag k="priority" v="backward"/>
    <tag k="source:maxspeed" v="zone"/>
    <tag k="surface" v="asphalt"/>
  </way>
  <way id="481892827" version="4" timestamp="2025-03-09T22:07:22Z" changeset="163419462" uid="11545091" user="VladaC">
    <nd ref="4747911607"/>
    <nd ref="8367818271"/>
    <nd ref="32059228"/>
    <nd ref="1994557663"/>
    <nd ref="8367818270"/>
    <nd ref="32059229"/>
    <nd ref="8367818269"/>
    <nd ref="1233605878"/>
    <nd ref="8367824138"/>
    <nd ref="32059230"/>
    <nd ref="8367824137"/>
    <nd ref="1233605889"/>
    <nd ref="8367824136"/>
    <nd ref="32059232"/>
    <nd ref="32059233"/>
    <nd ref="8367824128"/>
    <nd ref="8367824125"/>
    <nd ref="8367824124"/>
    <nd ref="8367824123"/>
    <nd ref="440846158"/>
    <nd ref="32059234"/>
    <nd ref="32059235"/>
    <nd ref="8367824122"/>
    <tag k="highway" v="residential"/>
    <tag k="maxspeed" v="30"/>
    <tag k="name" v="Do Roklí"/>
    <tag k="source:maxspeed" v="zone"/>
    <tag k="surface" v="asphalt"/>
  </way>
  <way id="481892828" version="3" timestamp="2017-05-01T13:55:44Z" changeset="48308255" uid="255936" user="NyanSten">
    <nd ref="303374634"/>
    <nd ref="4080984662"/>
    <nd ref="303374649"/>
    <nd ref="676087178"/>
    <tag k="highway" v="residential"/>
    <tag k="maxspeed:backward" v="30"/>
    <tag k="maxspeed:forward" v="20"/>
    <tag k="name" v="K Prelátům"/>
    <tag k="source:maxspeed:backward" v="zone"/>
    <tag k="source:maxspeed:forward" v="sign"/>
    <tag k="surface" v="asphalt"/>
  </way>
  <way id="483520434" version="2" timestamp="2017-05-01T13:51:27Z" changeset="48308141" uid="255936" user="NyanSten">
    <nd ref="244510086"/>
    <nd ref="387155164"/>
    <tag k="highway" v="residential"/>
    <tag k="maxlength" v="6"/>
    <tag k="maxspeed" v="30"/>
    <tag k="name" v="K Juliáně"/>
    <tag k="source:maxspeed" v="zone"/>
    <tag k="surface" v="asphalt"/>
  </way>
  <way id="483520436" version="2" timestamp="2017-05-01T13:51:27Z" changeset="48308141" uid="255936" user="NyanSten">
    <nd ref="244510086"/>
    <nd ref="4747911103"/>
    <tag k="highway" v="residential"/>
    <tag k="maxlength" v="6"/>
    <tag k="maxspeed" v="30"/>
    <tag k="name" v="K Juliáně"/>
    <tag k="source:maxspeed" v="zone"/>
    <tag k="surface" v="asphalt"/>
  </way>
  <way id="490694595" version="3" timestamp="2025-03-09T15:40:26Z" changeset="163406040" uid="11545091" user="VladaC">
    <nd ref="693188986"/>
    <nd ref="303374920"/>
    <nd ref="303374932"/>
    <nd ref="303374951"/>
    <nd ref="303374971"/>
    <nd ref="303374986"/>
    <nd ref="1994557682"/>
    <nd ref="303374999"/>
    <nd ref="303375009"/>
    <nd ref="303375025"/>
    <nd ref="303375041"/>
    <nd ref="303375063"/>
    <nd ref="303375081"/>
    <nd ref="303375105"/>
    <nd ref="303375121"/>
    <nd ref="11271702376"/>
    <nd ref="303375144"/>
    <nd ref="303375167"/>
    <nd ref="303375192"/>
    <nd ref="303375217"/>
    <nd ref="303375241"/>
    <nd ref="303375264"/>
    <tag k="highway" v="residential"/>
    <tag k="maxspeed" v="30"/>
    <tag k="name" v="K Prelátům"/>
    <tag k="source:maxspeed" v="zone"/>
    <tag k="surface" v="asphalt"/>
  </way>
  <way id="490695742" version="5" timestamp="2025-03-09T15:40:26Z" changeset="163406040" uid="11545091" user="VladaC">
    <nd ref="4828815523"/>
    <nd ref="387155158"/>
    <nd ref="12647762252"/>
    <nd ref="12647762251"/>
    <nd ref="12647762250"/>
    <nd ref="387155159"/>
    <nd ref="12647762268"/>
    <nd ref="387155160"/>
    <tag k="highway" v="residential"/>
    <tag k="maxspeed" v="30"/>
    <tag k="name" v="U Maří Magdaleny"/>
    <tag k="source" v="cuzk:km;uhul:ortofoto"/>
    <tag k="source:maxspeed" v="zone"/>
    <tag k="surface" v="paving_stones"/>
  </way>
  <way id="590992798" version="2" timestamp="2021-01-27T15:44:16Z" changeset="98239001" uid="11276832" user="HaPe-CZ">
    <nd ref="380446157"/>
    <nd ref="8367818265"/>
    <nd ref="8367818266"/>
    <nd ref="32059250"/>
    <nd ref="8367818268"/>
    <nd ref="32059251"/>
    <tag k="highway" v="tertiary"/>
    <tag k="maxspeed" v="30"/>
    <tag k="name" v="K Tuchoměřicům"/>
    <tag k="source:maxspeed" v="sign"/>
    <tag k="surface" v="asphalt"/>
  </way>
  <way id="590992799" version="3" timestamp="2021-01-27T15:44:16Z" changeset="98239001" uid="11276832" user="HaPe-CZ">
    <nd ref="2558454619"/>
    <nd ref="8367818314"/>
    <nd ref="32268776"/>
    <nd ref="4747925096"/>
    <tag k="highway" v="residential"/>
    <tag k="maxspeed" v="30"/>
    <tag k="name" v="K Padesátníku"/>
    <tag k="source:maxspeed" v="zone"/>
    <tag k="surface" v="asphalt"/>
  </way>
  <way id="596235061" version="1" timestamp="2018-06-10T23:58:10Z" changeset="59724041" uid="1719518" user="itamas80">
    <nd ref="4747925096"/>
    <nd ref="2578636994"/>
    <tag k="highway" v="residential"/>
    <tag k="maxspeed" v="30"/>
    <tag k="name" v="K Padesátníku"/>
    <tag k="source:maxspeed" v="zone"/>
    <tag k="surface" v="asphalt"/>
  </way>
  <way id="625718440" version="8" timestamp="2024-04-17T12:31:24Z" changeset="150127329" uid="9291527" user="marekhrabe">
    <nd ref="4387236871"/>
    <nd ref="3781448764"/>
    <nd ref="3781448765"/>
    <nd ref="3781448758"/>
    <nd ref="3781448771"/>
    <nd ref="3781448772"/>
    <nd ref="7085762607"/>
    <tag k="foot" v="no"/>
    <tag k="highway" v="secondary"/>
    <tag k="junction" v="roundabout"/>
    <tag k="lanes" v="1"/>
    <tag k="maxspeed" v="50"/>
    <tag k="source:maxspeed" v="CZ:urban"/>
    <tag k="surface" v="asphalt"/>
  </way>
  <way id="679903789" version="1" timestamp="2019-03-27T21:04:27Z" changeset="68603900" uid="665336" user="Minimalis">
    <nd ref="6366124284"/>
    <nd ref="6366124283"/>
    <tag k="highway" v="residential"/>
    <tag k="name" v="K Václavu"/>
  </way>
  <way id="895308395" version="4" timestamp="2025-04-08T08:00:49Z" changeset="164666212" uid="8971394" user="vojtechzaboril">
    <nd ref="21516942"/>
    <nd ref="8322191694"/>
    <nd ref="8322191695"/>
    <nd ref="8322191696"/>
    <nd ref="4387236866"/>
    <tag k="foot" v="no"/>
    <tag k="highway" v="secondary"/>
    <tag k="lanes" v="1"/>
    <tag k="oneway" v="yes"/>
  </way>
  <way id="895308397" version="2" timestamp="2022-04-29T19:46:57Z" changeset="120362575" uid="6588887" user="Martin2035">
    <nd ref="7085762608"/>
    <nd ref="8322191790"/>
    <nd ref="8322191789"/>
    <nd ref="1455835485"/>
    <tag k="destination" v="Horoměřice;Nebušice;Přední Kopanina"/>
    <tag k="highway" v="tertiary"/>
    <tag k="lanes" v="1"/>
    <tag k="maxspeed" v="90"/>
    <tag k="oneway" v="yes"/>
    <tag k="ref" v="0071"/>
    <tag k="source" v="cuzk:km;survey"/>
    <tag k="source:maxspeed" v="CZ:rural"/>
    <tag k="surface" v="asphalt"/>
  </way>
  <way id="897442481" version="2" timestamp="2024-04-17T12:31:24Z" changeset="150127329" uid="9291527" user="marekhrabe">
    <nd ref="4387236866"/>
    <nd ref="8322191697"/>
    <nd ref="8322191698"/>
    <nd ref="8322191699"/>
    <nd ref="8322191700"/>
    <nd ref="7085762607"/>
    <tag k="foot" v="no"/>
    <tag k="highway" v="secondary"/>
    <tag k="lanes" v="1"/>
    <tag k="oneway" v="yes"/>
  </way>
  <way id="898080635" version="2" timestamp="2023-04-26T14:47:22Z" changeset="135390692" uid="100163" user="Hlav">
    <nd ref="8346187598"/>
    <nd ref="380446145"/>
    <tag k="highway" v="residential"/>
    <tag k="maxspeed" v="30"/>
    <tag k="name" v="Do Roklí"/>
    <tag k="priority" v="forward"/>
    <tag k="source" v="cuzk:km;uhul:ortofoto"/>
    <tag k="source:maxspeed" v="zone"/>
    <tag k="surface" v="asphalt"/>
  </way>
  <way id="898080636" version="1" timestamp="2021-01-21T19:08:35Z" changeset="97923829" uid="11276832" user="HaPe-CZ">
    <nd ref="32059232"/>
    <nd ref="8346187598"/>
    <tag k="highway" v="residential"/>
    <tag k="maxspeed" v="30"/>
    <tag k="name" v="Do Roklí"/>
    <tag k="priority" v="forward"/>
    <tag k="source" v="cuzk:km;uhul:ortofoto"/>
    <tag k="source:maxspeed" v="zone"/>
    <tag k="surface" v="asphalt"/>
  </way>
  <way id="1365755617" version="1" timestamp="2025-03-09T15:40:26Z" changeset="163406040" uid="11545091" user="VladaC">
    <nd ref="2578636994"/>
    <nd ref="12647762169"/>
    <nd ref="303373452"/>
    <tag k="highway" v="residential"/>
    <tag k="maxspeed" v="30"/>
    <tag k="name" v="K Padesátníku"/>
    <tag k="source:maxspeed" v="zone"/>
    <tag k="surface" v="asphalt"/>
  </way>
  <way id="1365755623" version="1" timestamp="2025-03-09T15:40:26Z" changeset="163406040" uid="11545091" user="VladaC">
    <nd ref="676087178"/>
    <nd ref="303374684"/>
    <nd ref="693188979"/>
    <nd ref="693188985"/>
    <nd ref="693188962"/>
    <nd ref="693188986"/>
    <tag k="highway" v="residential"/>
    <tag k="maxspeed" v="30"/>
    <tag k="name" v="K Prelátům"/>
    <tag k="source:maxspeed" v="zone"/>
    <tag k="surface" v="asphalt"/>
  </way>
  <way id="1365830415" version="1" timestamp="2025-03-09T22:07:22Z" changeset="163419462" uid="11545091" user="VladaC">
    <nd ref="11271702453"/>
    <nd ref="12647762162"/>
    <nd ref="12647762161"/>
    <nd ref="12647762160"/>
    <nd ref="12647762159"/>
    <nd ref="3151701930"/>
    <tag k="highway" v="residential"/>
    <tag k="maxspeed" v="50"/>
    <tag k="name" v="Preláta"/>
    <tag k="source:maxspeed" v="CZ:urban"/>
    <tag k="surface" v="asphalt"/>
  </way>
  <way id="1365830416" version="1" timestamp="2025-03-09T22:07:22Z" changeset="163419462" uid="11545091" user="VladaC">
    <nd ref="303375335"/>
    <nd ref="303375388"/>
    <nd ref="303375395"/>
    <tag k="highway" v="residential"/>
    <tag k="maxspeed" v="50"/>
    <tag k="name" v="Preláta"/>
    <tag k="source:maxspeed" v="CZ:urban"/>
    <tag k="surface" v="asphalt"/>
  </way>
  <way id="1365830420" version="4" timestamp="2025-03-18T10:54:31Z" changeset="163768692" uid="16565042" user="BestestGuy">
    <nd ref="60647996"/>
    <nd ref="32059219"/>
    <tag k="cycleway:left" v="lane"/>
    <tag k="cycleway:left:lane" v="exclusive"/>
    <tag k="cycleway:left:oneway" v="-1"/>
    <tag k="cycleway:right" v="no"/>
    <tag k="highway" v="residential"/>
    <tag k="maxspeed" v="30"/>
    <tag k="name" v="Ke Goniu"/>
    <tag k="oneway" v="yes"/>
    <tag k="oneway:bicycle" v="no"/>
    <tag k="sidewalk" v="right"/>
    <tag k="source:maxspeed" v="zone"/>
    <tag k="surface" v="asphalt"/>
  </way>

</osm>
