<?xml version="1.0" encoding="UTF-8"?>
<osm version="0.6" generator="Overpass API 0.7.62.5 1bd436f1">
<note>The data included in this document is from www.openstreetmap.org. The data is made available under ODbL.</note>
<meta osm_base="2025-05-18T05:32:58Z" areas="2024-12-31T00:49:33Z"/>

  <node id="25450760" lat="50.0568145" lon="14.5749229" version="5" timestamp="2024-05-05T17:33:25Z" changeset="150931466" uid="469828" user="Luk치코 Jel칤nek"/>
  <node id="30582356" lat="50.0565425" lon="14.5468973" version="5" timestamp="2022-09-29T12:56:06Z" changeset="126779742" uid="573826" user="LeoBardonaro"/>
  <node id="34593323" lat="50.0609892" lon="14.5714930" version="1" timestamp="2007-08-15T23:52:53Z" changeset="219413" uid="1066" user="pavel">
    <tag k="created_by" v="JOSM"/>
  </node>
  <node id="36257534" lat="50.0699526" lon="14.5565175" version="4" timestamp="2021-03-11T10:01:46Z" changeset="100832707" uid="11276832" user="HaPe-CZ"/>
  <node id="245560595" lat="50.0530836" lon="14.5463982" version="2" timestamp="2008-02-04T15:54:04Z" changeset="34810" uid="3516" user="BiIbo"/>
  <node id="245561407" lat="50.0543161" lon="14.5458553" version="3" timestamp="2023-12-31T13:00:09Z" changeset="145732209" uid="20160194" user="Milan Tom치nek"/>
  <node id="245561411" lat="50.0532578" lon="14.5425499" version="3" timestamp="2013-01-19T11:17:29Z" changeset="14706020" uid="102554" user="Jezevec"/>
  <node id="861060532" lat="50.0499104" lon="14.5653812" version="1" timestamp="2010-08-15T10:51:44Z" changeset="5497978" uid="3516" user="BiIbo"/>
  <node id="1259612123" lat="50.0670396" lon="14.5473208" version="6" timestamp="2025-03-15T23:36:01Z" changeset="163671013" uid="4018695" user="游뻟릖 Roman Horn칤k">
    <tag k="highway" v="traffic_signals"/>
    <tag k="traffic_signals" v="signal"/>
  </node>
  <node id="2380115893" lat="50.0516842" lon="14.5541850" version="2" timestamp="2019-12-23T12:50:01Z" changeset="78773743" uid="8971394" user="vojtechzaboril"/>
  <node id="3440419501" lat="50.0501876" lon="14.5692659" version="2" timestamp="2017-08-03T19:52:15Z" changeset="50817213" uid="3516" user="BiIbo"/>
  <node id="3492707005" lat="50.0461831" lon="14.5768424" version="4" timestamp="2025-03-16T01:40:34Z" changeset="163672699" uid="4018695" user="游뻟릖 Roman Horn칤k"/>
  <node id="3673385933" lat="50.0669069" lon="14.5510113" version="2" timestamp="2019-12-23T11:24:01Z" changeset="78770120" uid="8971394" user="vojtechzaboril"/>
  <node id="11597537098" lat="50.0547195" lon="14.5376501" version="1" timestamp="2024-02-08T08:25:34Z" changeset="147206231" uid="20160194" user="Milan Tom치nek"/>
  <node id="12669183261" lat="50.0621364" lon="14.5389181" version="1" timestamp="2025-03-16T00:21:43Z" changeset="163671705" uid="4018695" user="游뻟릖 Roman Horn칤k"/>
  <way id="4052033" version="15" timestamp="2024-02-26T18:00:44Z" changeset="147943024" uid="718054" user="Piskvor">
    <nd ref="265746606"/>
    <nd ref="265746611"/>
    <nd ref="1259637704"/>
    <nd ref="11665803338"/>
    <nd ref="1299485532"/>
    <nd ref="265746612"/>
    <nd ref="1299485523"/>
    <nd ref="1831832480"/>
    <nd ref="364046815"/>
    <nd ref="7296264"/>
    <tag k="highway" v="residential"/>
    <tag k="name" v="Ke Dr치ze"/>
    <tag k="surface" v="asphalt"/>
  </way>
  <way id="4053740" version="6" timestamp="2024-02-26T18:00:44Z" changeset="147943024" uid="718054" user="Piskvor">
    <nd ref="10555665822"/>
    <nd ref="10555656452"/>
    <nd ref="11665803306"/>
    <nd ref="355647072"/>
    <nd ref="7296287"/>
    <tag k="highway" v="unclassified"/>
    <tag k="name" v="V Dolin치ch"/>
  </way>
  <way id="4779359" version="11" timestamp="2022-07-12T14:29:48Z" changeset="123523217" uid="25561" user="Gobik">
    <nd ref="30581189"/>
    <nd ref="7656533415"/>
    <nd ref="7656533426"/>
    <nd ref="30581240"/>
    <nd ref="416521962"/>
    <nd ref="7656533436"/>
    <nd ref="30581241"/>
    <nd ref="355297142"/>
    <nd ref="30581242"/>
    <nd ref="416521964"/>
    <nd ref="1259612231"/>
    <nd ref="416521970"/>
    <nd ref="9662442272"/>
    <nd ref="9662442275"/>
    <nd ref="798172281"/>
    <tag k="highway" v="residential"/>
    <tag k="lit" v="yes"/>
    <tag k="name" v="U Kabelovny"/>
  </way>
  <way id="4779596" version="20" timestamp="2025-03-16T01:40:34Z" changeset="163672699" uid="4018695" user="游뻟릖 Roman Horn칤k">
    <nd ref="30582356"/>
    <nd ref="10060882453"/>
    <nd ref="408436326"/>
    <nd ref="3710169730"/>
    <nd ref="10060882483"/>
    <nd ref="10060882484"/>
    <nd ref="10060882485"/>
    <nd ref="10060882486"/>
    <nd ref="10060882508"/>
    <nd ref="30582357"/>
    <nd ref="10060882511"/>
    <nd ref="355618677"/>
    <nd ref="861861441"/>
    <nd ref="5659304601"/>
    <tag k="cycleway:both" v="no"/>
    <tag k="highway" v="tertiary"/>
    <tag k="lanes" v="2"/>
    <tag k="lit" v="yes"/>
    <tag k="maxspeed" v="50"/>
    <tag k="maxspeed:type" v="sign"/>
    <tag k="name" v="Dolnom캩cholupsk치"/>
    <tag k="sidewalk:right" v="separate"/>
    <tag k="smoothness" v="good"/>
    <tag k="surface" v="asphalt"/>
  </way>
  <way id="5084276" version="15" timestamp="2023-02-13T17:39:24Z" changeset="132501687" uid="1552705" user="Pattoks">
    <nd ref="34593323"/>
    <nd ref="34593324"/>
    <nd ref="34593325"/>
    <nd ref="34593326"/>
    <nd ref="34593327"/>
    <tag k="cycleway:both" v="no"/>
    <tag k="highway" v="tertiary"/>
    <tag k="lane_markings" v="no"/>
    <tag k="maxspeed:type" v="CZ:urban"/>
    <tag k="noname" v="yes"/>
    <tag k="smoothness" v="excellent"/>
    <tag k="surface" v="asphalt"/>
  </way>
  <way id="5197771" version="11" timestamp="2021-03-25T11:10:15Z" changeset="101713128" uid="718054" user="Piskvor">
    <nd ref="36257534"/>
    <nd ref="7817503603"/>
    <nd ref="1262195206"/>
    <nd ref="36257552"/>
    <nd ref="36257553"/>
    <nd ref="60724829"/>
    <nd ref="60724828"/>
    <nd ref="7817481082"/>
    <nd ref="1262195139"/>
    <nd ref="60724827"/>
    <tag k="cycleway:left" v="lane"/>
    <tag k="cycleway:right" v="no"/>
    <tag k="highway" v="residential"/>
    <tag k="lit" v="yes"/>
    <tag k="name" v="Nad Horizontem"/>
    <tag k="oneway" v="no"/>
    <tag k="surface" v="asphalt"/>
  </way>
  <way id="5197788" version="22" timestamp="2025-03-16T01:40:34Z" changeset="163672699" uid="4018695" user="游뻟릖 Roman Horn칤k">
    <nd ref="3087360617"/>
    <nd ref="36257795"/>
    <tag k="cycleway:both" v="no"/>
    <tag k="hgv" v="destination"/>
    <tag k="highway" v="tertiary"/>
    <tag k="lanes" v="2"/>
    <tag k="lanes:both_ways" v="1"/>
    <tag k="lit" v="yes"/>
    <tag k="maxspeed:type" v="CZ:urban"/>
    <tag k="name" v="Dolnom캩cholupsk치"/>
    <tag k="sidewalk:left" v="separate"/>
    <tag k="sidewalk:right" v="yes"/>
    <tag k="sidewalk:right:surface" v="paving_stones"/>
    <tag k="smoothness" v="excellent"/>
    <tag k="surface" v="asphalt"/>
  </way>
  <way id="5197794" version="14" timestamp="2025-03-16T01:40:34Z" changeset="163672699" uid="4018695" user="游뻟릖 Roman Horn칤k">
    <nd ref="10164984288"/>
    <nd ref="36257796"/>
    <nd ref="36257797"/>
    <nd ref="12669252745"/>
    <nd ref="12669252746"/>
    <nd ref="36257798"/>
    <nd ref="12364572367"/>
    <nd ref="36257799"/>
    <nd ref="36257800"/>
    <nd ref="36257801"/>
    <nd ref="36257802"/>
    <nd ref="36257803"/>
    <nd ref="12364572366"/>
    <nd ref="36257804"/>
    <nd ref="36257805"/>
    <nd ref="36257806"/>
    <nd ref="12364599424"/>
    <nd ref="355617623"/>
    <nd ref="12364599420"/>
    <nd ref="55495796"/>
    <nd ref="34593323"/>
    <tag k="highway" v="tertiary"/>
    <tag k="lane_markings" v="no"/>
    <tag k="sidewalk" v="no"/>
    <tag k="surface" v="asphalt"/>
  </way>
  <way id="5197800" version="8" timestamp="2025-03-01T13:17:24Z" changeset="163087806" uid="469828" user="Luk치코 Jel칤nek">
    <nd ref="36257790"/>
    <nd ref="363887036"/>
    <nd ref="1259591377"/>
    <nd ref="36257809"/>
    <tag k="highway" v="residential"/>
    <tag k="lane_markings" v="no"/>
    <tag k="name" v="U Zahrady"/>
    <tag k="smoothness" v="good"/>
    <tag k="surface" v="asphalt"/>
  </way>
  <way id="7657923" version="20" timestamp="2025-03-16T00:21:43Z" changeset="163671705" uid="4018695" user="游뻟릖 Roman Horn칤k">
    <nd ref="7080466"/>
    <nd ref="11881770467"/>
    <nd ref="25450757"/>
    <nd ref="11881770464"/>
    <nd ref="11881770465"/>
    <nd ref="299800450"/>
    <nd ref="11881770462"/>
    <nd ref="11881770463"/>
    <nd ref="25450760"/>
    <tag k="cycleway:both" v="no"/>
    <tag k="hgv" v="no"/>
    <tag k="highway" v="tertiary"/>
    <tag k="lane_markings" v="no"/>
    <tag k="lanes" v="2"/>
    <tag k="lit" v="no"/>
    <tag k="maxspeed" v="70"/>
    <tag k="name" v="K Dube캜ku"/>
    <tag k="note" v="Silnice k Doubku"/>
    <tag k="sidewalk" v="no"/>
    <tag k="smoothness" v="excellent"/>
    <tag k="surface" v="asphalt"/>
  </way>
  <way id="7659598" version="17" timestamp="2024-10-20T22:45:34Z" changeset="158148096" uid="1516345" user="theDagger">
    <nd ref="252028"/>
    <nd ref="9101497811"/>
    <nd ref="3440412415"/>
    <nd ref="9101497814"/>
    <nd ref="9272494827"/>
    <nd ref="9103365662"/>
    <tag k="cycleway:both" v="no"/>
    <tag k="highway" v="residential"/>
    <tag k="lane_markings" v="no"/>
    <tag k="lit" v="no"/>
    <tag k="maxspeed:type" v="CZ:urban"/>
    <tag k="name" v="Za K콏칤쬰m"/>
    <tag k="smoothness" v="good"/>
    <tag k="surface" v="asphalt"/>
    <tag k="tracktype" v="grade1"/>
  </way>
  <way id="8104432" version="22" timestamp="2025-03-16T00:21:43Z" changeset="163671705" uid="4018695" user="游뻟릖 Roman Horn칤k">
    <nd ref="7080189"/>
    <nd ref="282982877"/>
    <nd ref="11881808672"/>
    <nd ref="6905108433"/>
    <tag k="cycleway:both" v="no"/>
    <tag k="hgv" v="no"/>
    <tag k="highway" v="tertiary"/>
    <tag k="lanes" v="2"/>
    <tag k="lit" v="yes"/>
    <tag k="maxspeed" v="50"/>
    <tag k="maxweight" v="3.5"/>
    <tag k="name" v="KDube캜ku"/>
    <tag k="parking:both" v="no"/>
    <tag k="sidewalk:both" v="separate"/>
    <tag k="smoothness" v="good"/>
    <tag k="source:maxspeed" v="CZ:urban"/>
    <tag k="surface" v="asphalt"/>
  </way>
  <way id="8921721" version="9" timestamp="2021-11-21T14:01:35Z" changeset="114057312" uid="469828" user="Luk치코 Jel칤nek">
    <nd ref="65354089"/>
    <nd ref="3440419501"/>
    <tag k="cycleway:both" v="no"/>
    <tag k="highway" v="unclassified"/>
    <tag k="lanes" v="2"/>
    <tag k="lanes:backward" v="1"/>
    <tag k="lanes:forward" v="1"/>
    <tag k="lit" v="no"/>
    <tag k="maxspeed" v="50"/>
    <tag k="name" v="Za zast치vkou"/>
    <tag k="ref:ruian:street" v="508292"/>
    <tag k="surface" v="asphalt"/>
    <tag k="turn:lanes:backward" v="left"/>
  </way>
  <way id="22821055" version="13" timestamp="2023-04-05T07:00:02Z" changeset="134524591" uid="469828" user="Luk치코 Jel칤nek">
    <nd ref="245553690"/>
    <nd ref="245553689"/>
    <tag k="bridge" v="yes"/>
    <tag k="bridge:structure" v="beam"/>
    <tag k="cycleway:both" v="no"/>
    <tag k="highway" v="tertiary"/>
    <tag k="lanes" v="2"/>
    <tag k="layer" v="1"/>
    <tag k="lit" v="yes"/>
    <tag k="maxspeed" v="50"/>
    <tag k="maxspeed:type" v="sign"/>
    <tag k="maxweight:signed" v="no"/>
    <tag k="name" v="Dolnom캩cholupsk치"/>
    <tag k="parking:both" v="no"/>
    <tag k="shoulder" v="no"/>
    <tag k="sidewalk:left" v="no"/>
    <tag k="sidewalk:right" v="separate"/>
    <tag k="smoothness" v="good"/>
    <tag k="surface" v="asphalt"/>
  </way>
  <way id="22821056" version="18" timestamp="2023-03-07T07:58:29Z" changeset="133391872" uid="469828" user="Luk치코 Jel칤nek">
    <nd ref="245553689"/>
    <nd ref="10167635479"/>
    <nd ref="366984635"/>
    <nd ref="291686978"/>
    <tag k="cycleway:both" v="no"/>
    <tag k="highway" v="tertiary"/>
    <tag k="lanes" v="2"/>
    <tag k="lit" v="yes"/>
    <tag k="maxspeed:type" v="CZ:urban"/>
    <tag k="name" v="Dolnom캩cholupsk치"/>
    <tag k="parking:both" v="no"/>
    <tag k="sidewalk:left" v="no"/>
    <tag k="sidewalk:right" v="separate"/>
    <tag k="smoothness" v="good"/>
    <tag k="surface" v="asphalt"/>
  </way>
  <way id="22821769" version="16" timestamp="2024-02-20T11:58:53Z" changeset="147689027" uid="20160194" user="Milan Tom치nek">
    <nd ref="245561411"/>
    <nd ref="245561410"/>
    <nd ref="10211707915"/>
    <nd ref="2119029828"/>
    <nd ref="11476001521"/>
    <nd ref="245561408"/>
    <tag k="cycleway:both" v="no"/>
    <tag k="highway" v="residential"/>
    <tag k="lane_markings" v="no"/>
    <tag k="lit" v="yes"/>
    <tag k="maxspeed" v="50"/>
    <tag k="maxspeed:type" v="sign"/>
    <tag k="name" v="Voznick치"/>
    <tag k="parking:left" v="no"/>
    <tag k="parking:right" v="lane"/>
    <tag k="parking:right:orientation" v="parallel"/>
    <tag k="sidewalk:left" v="no"/>
    <tag k="sidewalk:right" v="separate"/>
    <tag k="source:width" v="ARCore"/>
    <tag k="surface" v="asphalt"/>
    <tag k="width" v="7.3"/>
  </way>
  <way id="22821772" version="10" timestamp="2024-02-14T15:01:49Z" changeset="147454925" uid="20160194" user="Milan Tom치nek">
    <nd ref="245560595"/>
    <nd ref="11622940111"/>
    <nd ref="6278100198"/>
    <nd ref="245561408"/>
    <tag k="highway" v="residential"/>
    <tag k="lane_markings" v="no"/>
    <tag k="lit" v="yes"/>
    <tag k="name" v="B캩linsk칠ho"/>
    <tag k="sidewalk:both" v="separate"/>
    <tag k="surface" v="asphalt"/>
  </way>
  <way id="24450775" version="10" timestamp="2023-11-01T07:37:36Z" changeset="143458938" uid="469828" user="Luk치코 Jel칤nek">
    <nd ref="265746609"/>
    <nd ref="1259591387"/>
    <nd ref="299799968"/>
    <nd ref="1259637674"/>
    <nd ref="265746610"/>
    <nd ref="471640205"/>
    <nd ref="265746611"/>
    <tag k="highway" v="residential"/>
    <tag k="lit" v="yes"/>
    <tag k="maxspeed" v="30"/>
    <tag k="name" v="Za Kov치rnou"/>
    <tag k="oneway" v="yes"/>
    <tag k="surface" v="asphalt"/>
  </way>
  <way id="24450780" version="7" timestamp="2024-02-26T18:00:44Z" changeset="147943024" uid="718054" user="Piskvor">
    <nd ref="265746606"/>
    <nd ref="1259637655"/>
    <nd ref="10555684537"/>
    <nd ref="1259637742"/>
    <nd ref="10555684538"/>
    <nd ref="10555684539"/>
    <nd ref="1259637651"/>
    <nd ref="265746607"/>
    <nd ref="11665803326"/>
    <nd ref="265746608"/>
    <nd ref="265746639"/>
    <nd ref="10555684540"/>
    <nd ref="10555651177"/>
    <nd ref="10555651178"/>
    <nd ref="10555651179"/>
    <nd ref="265746640"/>
    <tag k="highway" v="residential"/>
    <tag k="name" v="Za Kov치rnou"/>
    <tag k="surface" v="asphalt"/>
  </way>
  <way id="24450781" version="6" timestamp="2023-10-24T20:59:41Z" changeset="143083670" uid="20160194" user="Milan Tom치nek">
    <nd ref="7296264"/>
    <nd ref="1805101000"/>
    <nd ref="364046822"/>
    <nd ref="265746642"/>
    <nd ref="265746643"/>
    <nd ref="364046820"/>
    <nd ref="265746644"/>
    <nd ref="265746645"/>
    <nd ref="1259637642"/>
    <nd ref="265746646"/>
    <tag k="highway" v="residential"/>
    <tag k="name" v="U P콏ejezdu"/>
    <tag k="surface" v="asphalt"/>
  </way>
  <way id="24450782" version="8" timestamp="2024-03-15T16:57:09Z" changeset="148698725" uid="13965700" user="Katoga">
    <nd ref="11287186453"/>
    <nd ref="265746646"/>
    <nd ref="265746668"/>
    <nd ref="889523833"/>
    <tag k="highway" v="residential"/>
    <tag k="lane_markings" v="no"/>
    <tag k="name" v="Pod Les칤kem"/>
    <tag k="surface" v="asphalt"/>
  </way>
  <way id="27074055" version="23" timestamp="2025-01-01T18:58:13Z" changeset="160881237" uid="1160334" user="honzaa">
    <nd ref="252028"/>
    <nd ref="3440412414"/>
    <nd ref="3440412413"/>
    <tag k="cycleway:both" v="no"/>
    <tag k="highway" v="secondary"/>
    <tag k="lanes" v="3"/>
    <tag k="lanes:backward" v="2"/>
    <tag k="lanes:forward" v="1"/>
    <tag k="lit" v="yes"/>
    <tag k="maxspeed" v="50"/>
    <tag k="name" v="Kutnohorsk치"/>
    <tag k="official_ref" v="333"/>
    <tag k="ref" v="333"/>
    <tag k="sidewalk" v="no"/>
    <tag k="source:maxspeed" v="CZ:urban"/>
    <tag k="source:ref" v="survey"/>
    <tag k="surface" v="asphalt"/>
    <tag k="turn:lanes:backward" v="left|right;through"/>
  </way>
  <way id="30958427" version="11" timestamp="2024-03-19T23:13:37Z" changeset="148886023" uid="469828" user="Luk치코 Jel칤nek">
    <nd ref="55495823"/>
    <nd ref="299799979"/>
    <nd ref="344240143"/>
    <nd ref="1259637685"/>
    <nd ref="11746873528"/>
    <nd ref="344240144"/>
    <nd ref="11746873530"/>
    <nd ref="11746873529"/>
    <nd ref="55495821"/>
    <tag k="cycleway:both" v="no"/>
    <tag k="highway" v="residential"/>
    <tag k="lane_markings" v="no"/>
    <tag k="lit" v="yes"/>
    <tag k="maxspeed:type" v="CZ:urban"/>
    <tag k="name" v="Na N치vsi"/>
    <tag k="sidewalk" v="no"/>
    <tag k="smoothness" v="good"/>
    <tag k="surface" v="paving_stones"/>
  </way>
  <way id="52519114" version="37" timestamp="2025-03-15T23:36:01Z" changeset="163671013" uid="4018695" user="游뻟릖 Roman Horn칤k">
    <nd ref="7080189"/>
    <nd ref="889523834"/>
    <nd ref="903558116"/>
    <nd ref="265746669"/>
    <tag k="cycleway:both" v="no"/>
    <tag k="highway" v="secondary"/>
    <tag k="lanes" v="2"/>
    <tag k="lanes:backward" v="1"/>
    <tag k="lanes:forward" v="1"/>
    <tag k="lit" v="yes"/>
    <tag k="maxspeed" v="50"/>
    <tag k="name" v="Kutnohorsk치"/>
    <tag k="official_ref" v="333"/>
    <tag k="parking:both" v="no"/>
    <tag k="ref" v="333"/>
    <tag k="sidewalk" v="right"/>
    <tag k="sidewalk:right:surface" v="paving_stones"/>
    <tag k="smoothness" v="excellent"/>
    <tag k="source:maxspeed" v="CZ:urban"/>
    <tag k="surface" v="asphalt"/>
  </way>
  <way id="72526776" version="4" timestamp="2022-01-19T15:13:44Z" changeset="116346636" uid="661742" user="nemca">
    <nd ref="3440419497"/>
    <nd ref="2799434357"/>
    <nd ref="2799434371"/>
    <nd ref="2799434377"/>
    <nd ref="2799437110"/>
    <nd ref="2799436562"/>
    <nd ref="2799437366"/>
    <nd ref="2799437371"/>
    <nd ref="2799434358"/>
    <nd ref="3440419493"/>
    <nd ref="3440419497"/>
    <tag k="building" v="yes"/>
    <tag k="building:ruian:type" v="19"/>
    <tag k="name" v="D칠mos trade, a. s."/>
    <tag k="ref:ruian:building" v="22402241"/>
    <tag k="source" v="cuzk:ruian"/>
  </way>
  <way id="75350377" version="8" timestamp="2024-03-15T16:57:08Z" changeset="148698725" uid="13965700" user="Katoga">
    <nd ref="903558116"/>
    <nd ref="1259637645"/>
    <nd ref="889523835"/>
    <nd ref="9681400134"/>
    <nd ref="889523838"/>
    <nd ref="889523837"/>
    <tag k="highway" v="residential"/>
    <tag k="lane_markings" v="no"/>
    <tag k="name" v="Pod Les칤kem"/>
    <tag k="oneway" v="yes"/>
    <tag k="sidewalk" v="right"/>
    <tag k="surface" v="asphalt"/>
  </way>
  <way id="76672740" version="9" timestamp="2023-10-24T20:55:44Z" changeset="143083836" uid="20160194" user="Milan Tom치nek">
    <nd ref="889523833"/>
    <nd ref="9681400137"/>
    <nd ref="1259637781"/>
    <nd ref="889523831"/>
    <tag k="highway" v="residential"/>
    <tag k="lane_markings" v="no"/>
    <tag k="lit" v="yes"/>
    <tag k="maxspeed" v="50"/>
    <tag k="maxspeed:type" v="sign"/>
    <tag k="name" v="Pod Les칤kem"/>
    <tag k="oneway" v="yes"/>
    <tag k="sidewalk" v="right"/>
    <tag k="surface" v="asphalt"/>
  </way>
  <way id="76672742" version="5" timestamp="2024-03-15T16:57:09Z" changeset="148698725" uid="13965700" user="Katoga">
    <nd ref="889523835"/>
    <nd ref="889523831"/>
    <tag k="highway" v="residential"/>
    <tag k="lane_markings" v="no"/>
    <tag k="name" v="Pod Les칤kem"/>
    <tag k="sidewalk" v="no"/>
    <tag k="surface" v="asphalt"/>
  </way>
  <way id="81797312" version="21" timestamp="2025-03-16T01:40:34Z" changeset="163672699" uid="4018695" user="游뻟릖 Roman Horn칤k">
    <nd ref="7296362"/>
    <nd ref="10555681036"/>
    <nd ref="10555681035"/>
    <nd ref="10555681034"/>
    <nd ref="36257783"/>
    <nd ref="10167635478"/>
    <nd ref="36257821"/>
    <nd ref="30582360"/>
    <nd ref="10555681033"/>
    <nd ref="355647079"/>
    <nd ref="36257785"/>
    <nd ref="1259639090"/>
    <nd ref="30582361"/>
    <nd ref="36257786"/>
    <nd ref="330903020"/>
    <nd ref="12495682879"/>
    <nd ref="3087360616"/>
    <tag k="cycleway:both" v="no"/>
    <tag k="highway" v="tertiary"/>
    <tag k="lanes" v="2"/>
    <tag k="lanes:both_ways" v="1"/>
    <tag k="lit" v="yes"/>
    <tag k="maxspeed:type" v="CZ:urban"/>
    <tag k="name" v="Dolnom캩cholupsk치"/>
    <tag k="parking:both" v="no"/>
    <tag k="sidewalk" v="both"/>
    <tag k="sidewalk:both:surface" v="paving_stones"/>
    <tag k="smoothness" v="excellent"/>
    <tag k="surface" v="asphalt"/>
  </way>
  <way id="81797315" version="11" timestamp="2023-03-07T07:58:31Z" changeset="133391872" uid="469828" user="Luk치코 Jel칤nek">
    <nd ref="291686978"/>
    <nd ref="7296362"/>
    <tag k="cycleway:both" v="no"/>
    <tag k="highway" v="tertiary"/>
    <tag k="lanes" v="2"/>
    <tag k="lit" v="yes"/>
    <tag k="maxspeed:type" v="CZ:urban"/>
    <tag k="name" v="Dolnom캩cholupsk치"/>
    <tag k="parking:both" v="no"/>
    <tag k="sidewalk" v="right"/>
    <tag k="sidewalk:right:surface" v="paving_stones"/>
    <tag k="smoothness" v="good"/>
    <tag k="surface" v="asphalt"/>
  </way>
  <way id="81797316" version="18" timestamp="2025-05-03T09:05:02Z" changeset="165749236" uid="1160334" user="honzaa">
    <nd ref="3651298227"/>
    <nd ref="12805824977"/>
    <nd ref="6905108430"/>
    <tag k="cycleway:both" v="no"/>
    <tag k="highway" v="secondary"/>
    <tag k="lanes" v="2"/>
    <tag k="lanes:backward" v="1"/>
    <tag k="lanes:forward" v="1"/>
    <tag k="lit" v="yes"/>
    <tag k="maxspeed" v="50"/>
    <tag k="name" v="Kutnohorsk치"/>
    <tag k="official_ref" v="333"/>
    <tag k="ref" v="333"/>
    <tag k="sidewalk:left" v="separate"/>
    <tag k="smoothness" v="excellent"/>
    <tag k="source:maxspeed" v="CZ:urban"/>
    <tag k="source:ref" v="survey"/>
    <tag k="surface" v="asphalt"/>
  </way>
  <way id="108090738" version="10" timestamp="2022-04-09T14:06:07Z" changeset="119504602" uid="469828" user="Luk치코 Jel칤nek">
    <nd ref="36257792"/>
    <nd ref="363887032"/>
    <nd ref="60724818"/>
    <nd ref="36257809"/>
    <tag k="cycleway:both" v="no"/>
    <tag k="highway" v="residential"/>
    <tag k="lit" v="yes"/>
    <tag k="maxspeed:type" v="CZ:urban"/>
    <tag k="name" v="Ke Slatin치m"/>
    <tag k="sidewalk" v="both"/>
    <tag k="sidewalk:both:surface" v="paving_stones"/>
    <tag k="smoothness" v="excellent"/>
    <tag k="surface" v="asphalt"/>
  </way>
  <way id="110259343" version="7" timestamp="2024-03-15T16:57:09Z" changeset="148698725" uid="13965700" user="Katoga">
    <nd ref="889523837"/>
    <nd ref="9681400135"/>
    <nd ref="9681400136"/>
    <nd ref="11708593539"/>
    <nd ref="889523836"/>
    <nd ref="889523833"/>
    <tag k="highway" v="residential"/>
    <tag k="lane_markings" v="no"/>
    <tag k="name" v="Pod Les칤kem"/>
    <tag k="sidewalk:left" v="no"/>
    <tag k="surface" v="asphalt"/>
  </way>
  <way id="114805117" version="6" timestamp="2022-06-05T11:13:00Z" changeset="121971987" uid="102554" user="Jezevec">
    <nd ref="2799439315"/>
    <nd ref="2799435998"/>
    <nd ref="2799435992"/>
    <nd ref="2799435996"/>
    <nd ref="2799435993"/>
    <nd ref="2799435997"/>
    <nd ref="2799435999"/>
    <nd ref="2799439317"/>
    <nd ref="2799439133"/>
    <nd ref="2799439322"/>
    <nd ref="2799439128"/>
    <nd ref="2799439321"/>
    <nd ref="2799439315"/>
    <tag k="addr:conscriptionnumber" v="49"/>
    <tag k="addr:housenumber" v="49"/>
    <tag k="addr:place" v="Doln칤 M캩cholupy"/>
    <tag k="addr:postcode" v="11101"/>
    <tag k="addr:street" v="U p콏ejezdu"/>
    <tag k="building" v="residential"/>
    <tag k="building:levels" v="1"/>
    <tag k="building:ruian:type" v="19"/>
    <tag k="ref:ruian:addr" v="22548998"/>
    <tag k="ref:ruian:building" v="43404812"/>
    <tag k="roof:levels" v="1"/>
    <tag k="roof:shape" v="gabled"/>
    <tag k="source" v="cuzk:ruian"/>
  </way>
  <way id="116662511" version="26" timestamp="2025-03-15T23:36:01Z" changeset="163671013" uid="4018695" user="游뻟릖 Roman Horn칤k">
    <nd ref="12669129196"/>
    <nd ref="3087352734"/>
    <tag k="cycleway:both" v="no"/>
    <tag k="highway" v="secondary"/>
    <tag k="lanes" v="3"/>
    <tag k="lanes:backward" v="2"/>
    <tag k="lanes:forward" v="1"/>
    <tag k="lit" v="yes"/>
    <tag k="maxspeed" v="50"/>
    <tag k="name" v="Kutnohorsk치"/>
    <tag k="official_ref" v="333"/>
    <tag k="parking:both" v="no"/>
    <tag k="ref" v="333"/>
    <tag k="sidewalk:left" v="separate"/>
    <tag k="sidewalk:right" v="yes"/>
    <tag k="sidewalk:right:surface" v="paving_stones"/>
    <tag k="smoothness" v="excellent"/>
    <tag k="source:maxspeed" v="CZ:urban"/>
    <tag k="source:ref" v="survey"/>
    <tag k="surface" v="asphalt"/>
    <tag k="turn:lanes:backward" v="left|through;right"/>
  </way>
  <way id="132660645" version="5" timestamp="2025-03-01T17:11:29Z" changeset="163096175" uid="469828" user="Luk치코 Jel칤nek">
    <nd ref="7079748666"/>
    <nd ref="12628735120"/>
    <nd ref="777301019"/>
    <nd ref="7820155837"/>
    <nd ref="777324129"/>
    <tag k="highway" v="residential"/>
    <tag k="name" v="Franti코ka Jansy"/>
    <tag k="sidewalk:left" v="separate"/>
    <tag k="source" v="cuzk:km"/>
  </way>
  <way id="132660646" version="5" timestamp="2024-10-20T22:45:35Z" changeset="158148090" uid="1516345" user="theDagger">
    <nd ref="6932414"/>
    <nd ref="777301024"/>
    <tag k="check_date:surface" v="2024-10-20"/>
    <tag k="highway" v="residential"/>
    <tag k="lanes" v="3"/>
    <tag k="lanes:backward" v="2"/>
    <tag k="lanes:forward" v="1"/>
    <tag k="lit" v="yes"/>
    <tag k="maxspeed" v="50"/>
    <tag k="name" v="Kardausova"/>
    <tag k="source" v="cuzk:km"/>
    <tag k="surface" v="asphalt"/>
    <tag k="turn:lanes:backward" v="left|right"/>
  </way>
  <way id="132660647" version="11" timestamp="2025-03-01T13:34:40Z" changeset="163087806" uid="469828" user="Luk치코 Jel칤nek">
    <nd ref="777301013"/>
    <nd ref="7079729523"/>
    <nd ref="2484763997"/>
    <nd ref="7079748661"/>
    <nd ref="7079748662"/>
    <nd ref="7079748663"/>
    <nd ref="7079748664"/>
    <nd ref="7079748665"/>
    <nd ref="2484763996"/>
    <nd ref="3673385950"/>
    <nd ref="6166571908"/>
    <nd ref="8962736966"/>
    <nd ref="777301019"/>
    <tag k="highway" v="residential"/>
    <tag k="lanes" v="2"/>
    <tag k="name" v="Kry코p칤nova"/>
    <tag k="sidewalk:left" v="separate"/>
    <tag k="smoothness" v="good"/>
    <tag k="source" v="cuzk:km"/>
    <tag k="surface" v="asphalt"/>
  </way>
  <way id="135029265" version="11" timestamp="2024-06-08T16:40:54Z" changeset="152423029" uid="20160194" user="Milan Tom치nek">
    <nd ref="11597537098"/>
    <nd ref="8369374538"/>
    <nd ref="8369374539"/>
    <nd ref="1259622338"/>
    <nd ref="8369374540"/>
    <nd ref="245561403"/>
    <nd ref="1259622344"/>
    <nd ref="5130332317"/>
    <nd ref="5130332318"/>
    <nd ref="5130332319"/>
    <nd ref="4534725260"/>
    <nd ref="245561404"/>
    <nd ref="1259622340"/>
    <nd ref="5130332320"/>
    <nd ref="245561405"/>
    <nd ref="245561406"/>
    <nd ref="245561407"/>
    <tag k="highway" v="residential"/>
    <tag k="lanes" v="1"/>
    <tag k="lit" v="yes"/>
    <tag k="name" v="U Hostiva콏sk칠ho n치dra쮂"/>
    <tag k="sidewalk" v="no"/>
    <tag k="source:width" v="ARCore"/>
    <tag k="surface" v="asphalt"/>
    <tag k="width" v="6.6"/>
  </way>
  <way id="149915686" version="7" timestamp="2024-10-05T12:31:29Z" changeset="157498611" uid="4997045" user="Tomas_J">
    <nd ref="1628510409"/>
    <nd ref="1259591385"/>
    <nd ref="8330290656"/>
    <nd ref="243774990"/>
    <nd ref="243774991"/>
    <nd ref="243774992"/>
    <nd ref="1259591345"/>
    <nd ref="2988508388"/>
    <nd ref="6578684506"/>
    <nd ref="243774993"/>
    <nd ref="1628510426"/>
    <nd ref="243774995"/>
    <nd ref="243774996"/>
    <nd ref="243774997"/>
    <nd ref="11260021556"/>
    <nd ref="1628510430"/>
    <nd ref="1628510432"/>
    <nd ref="9654151966"/>
    <nd ref="243775000"/>
    <nd ref="1259591395"/>
    <nd ref="243775001"/>
    <nd ref="1628510445"/>
    <tag k="highway" v="unclassified"/>
    <tag k="surface" v="asphalt"/>
  </way>
  <way id="160945534" version="2" timestamp="2022-01-19T15:13:44Z" changeset="116346636" uid="661742" user="nemca">
    <nd ref="1729118021"/>
    <nd ref="1729118047"/>
    <nd ref="1729118020"/>
    <nd ref="1729118006"/>
    <nd ref="1729118021"/>
    <tag k="building" v="yes"/>
    <tag k="name" v="콎EZIVO, DVE콎E s.r.o."/>
  </way>
  <way id="164816919" version="1" timestamp="2012-05-24T13:03:51Z" changeset="11689566" uid="685648" user="Jamis[CZ]">
    <nd ref="798172288"/>
    <nd ref="30581243"/>
    <tag k="highway" v="residential"/>
    <tag k="name" v="U Kabelovny"/>
  </way>
  <way id="169340926" version="6" timestamp="2024-02-26T18:00:44Z" changeset="147943024" uid="718054" user="Piskvor">
    <nd ref="7296264"/>
    <nd ref="11665803337"/>
    <nd ref="1805100996"/>
    <tag k="highway" v="residential"/>
    <tag k="name" v="Mezi Humny"/>
    <tag k="sidewalk" v="both"/>
    <tag k="surface" v="paving_stones"/>
  </way>
  <way id="172260710" version="3" timestamp="2024-02-26T18:00:44Z" changeset="147943024" uid="718054" user="Piskvor">
    <nd ref="1831832481"/>
    <nd ref="11665803332"/>
    <nd ref="1831832480"/>
    <tag k="highway" v="residential"/>
    <tag k="name" v="Za Stodolou"/>
  </way>
  <way id="229407527" version="5" timestamp="2024-06-03T22:15:55Z" changeset="152218999" uid="20160194" user="Milan Tom치nek">
    <nd ref="2380115893"/>
    <nd ref="2380115897"/>
    <nd ref="7079780596"/>
    <nd ref="7079780595"/>
    <nd ref="7079780594"/>
    <nd ref="7079780593"/>
    <nd ref="7079780592"/>
    <tag k="highway" v="residential"/>
    <tag k="name" v="U Golfu"/>
  </way>
  <way id="240773301" version="10" timestamp="2023-12-23T20:33:26Z" changeset="145449298" uid="20160194" user="Milan Tom치nek">
    <nd ref="3673385933"/>
    <nd ref="6266582278"/>
    <nd ref="7079729551"/>
    <nd ref="7079729548"/>
    <nd ref="7079729545"/>
    <nd ref="2484763998"/>
    <tag k="highway" v="residential"/>
    <tag k="maxspeed" v="30"/>
    <tag k="maxspeed:type" v="CZ:zone30"/>
    <tag k="name" v="Kry코p칤nova"/>
    <tag k="sidewalk:both" v="separate"/>
    <tag k="smoothness" v="excellent"/>
    <tag k="surface" v="asphalt"/>
    <tag k="zone:maxspeed" v="30"/>
  </way>
  <way id="244467373" version="14" timestamp="2025-03-16T00:21:43Z" changeset="163671705" uid="4018695" user="游뻟릖 Roman Horn칤k">
    <nd ref="3087067195"/>
    <nd ref="299799942"/>
    <nd ref="12669183260"/>
    <nd ref="12669183259"/>
    <nd ref="7080466"/>
    <tag k="cycleway:both" v="no"/>
    <tag k="hgv" v="no"/>
    <tag k="highway" v="tertiary"/>
    <tag k="lane_markings" v="no"/>
    <tag k="lanes" v="2"/>
    <tag k="lit" v="no"/>
    <tag k="maxspeed" v="70"/>
    <tag k="maxweight" v="3.5"/>
    <tag k="name" v="K Dube캜ku"/>
    <tag k="sidewalk" v="no"/>
    <tag k="smoothness" v="excellent"/>
    <tag k="source:maxspeed" v="sign"/>
    <tag k="surface" v="asphalt"/>
  </way>
  <way id="244467374" version="10" timestamp="2025-03-08T16:29:39Z" changeset="163371103" uid="718054" user="Piskvor">
    <nd ref="25450760"/>
    <nd ref="3632312085"/>
    <nd ref="297548835"/>
    <nd ref="11881770461"/>
    <nd ref="322977654"/>
    <nd ref="30024852"/>
    <tag k="cycleway:both" v="no"/>
    <tag k="hgv" v="no"/>
    <tag k="highway" v="tertiary"/>
    <tag k="lane_markings" v="no"/>
    <tag k="lanes" v="2"/>
    <tag k="lit" v="no"/>
    <tag k="maxspeed" v="50"/>
    <tag k="name" v="K Dube캜ku"/>
    <tag k="note" v="Silnice k Doubku"/>
    <tag k="parking:both" v="no"/>
    <tag k="sidewalk" v="no"/>
    <tag k="smoothness" v="good"/>
    <tag k="surface" v="asphalt"/>
  </way>
  <way id="259561028" version="6" timestamp="2025-03-01T13:17:55Z" changeset="163087712" uid="469828" user="Luk치코 Jel칤nek">
    <nd ref="2799270439"/>
    <nd ref="2799270606"/>
    <nd ref="2799270615"/>
    <nd ref="2799270627"/>
    <nd ref="2799270621"/>
    <nd ref="2799270540"/>
    <nd ref="2799270642"/>
    <nd ref="2799270685"/>
    <nd ref="2799270635"/>
    <nd ref="2799270619"/>
    <nd ref="2799270602"/>
    <nd ref="2799270404"/>
    <nd ref="2799270439"/>
    <tag k="addr:city" v="Praha"/>
    <tag k="addr:conscriptionnumber" v="436"/>
    <tag k="addr:country" v="CZ"/>
    <tag k="addr:housenumber" v="436/5"/>
    <tag k="addr:place" v="Doln칤 M캩cholupy"/>
    <tag k="addr:postcode" v="11101"/>
    <tag k="addr:street" v="Kutnohorsk치"/>
    <tag k="addr:streetnumber" v="5"/>
    <tag k="addr:suburb" v="Praha-Doln칤 M캩cholupy"/>
    <tag k="building" v="industrial"/>
    <tag k="building:levels" v="1"/>
    <tag k="ref:ruian:addr" v="25559702"/>
    <tag k="ref:ruian:building" v="25083139"/>
    <tag k="source" v="cuzk:ruian"/>
    <tag k="start_date" v="2002-04-03"/>
  </way>
  <way id="259561366" version="8" timestamp="2024-07-15T17:18:28Z" changeset="153982487" uid="469828" user="Luk치코 Jel칤nek">
    <nd ref="3534157462"/>
    <nd ref="3534157467"/>
    <nd ref="2799439725"/>
    <nd ref="2799439721"/>
    <nd ref="2799439724"/>
    <nd ref="3534157468"/>
    <nd ref="2799439718"/>
    <nd ref="3534157464"/>
    <nd ref="3534157462"/>
    <tag k="addr:conscriptionnumber" v="320"/>
    <tag k="addr:housenumber" v="320/72"/>
    <tag k="addr:postcode" v="10900"/>
    <tag k="addr:street" v="Kutnohorsk치"/>
    <tag k="addr:streetnumber" v="72"/>
    <tag k="building" v="detached"/>
    <tag k="building:flats" v="1"/>
    <tag k="building:levels" v="1"/>
    <tag k="building:ruian:type" v="3"/>
    <tag k="email" v="penzionpap@seznam.cz"/>
    <tag k="name" v="Pension P&amp;P"/>
    <tag k="phone" v="+420 608 108 855"/>
    <tag k="ref:ruian:building" v="22401857"/>
    <tag k="roof:shape" v="flat"/>
    <tag k="source" v="cuzk:ruian"/>
    <tag k="tourism" v="guest_house"/>
    <tag k="website" v="http://www.pensionpap.cz"/>
  </way>
  <way id="304175951" version="13" timestamp="2025-03-16T00:21:43Z" changeset="163671705" uid="4018695" user="游뻟릖 Roman Horn칤k">
    <nd ref="6905108433"/>
    <nd ref="3087067195"/>
    <tag k="cycleway:both" v="no"/>
    <tag k="hgv" v="no"/>
    <tag k="highway" v="tertiary"/>
    <tag k="lanes" v="2"/>
    <tag k="lit" v="yes"/>
    <tag k="maxspeed" v="50"/>
    <tag k="name" v="KDube캜ku"/>
    <tag k="parking:both" v="no"/>
    <tag k="sidewalk:left" v="no"/>
    <tag k="sidewalk:right" v="separate"/>
    <tag k="smoothness" v="good"/>
    <tag k="source:maxspeed" v="CZ:urban"/>
    <tag k="surface" v="asphalt"/>
  </way>
  <way id="304208150" version="20" timestamp="2025-03-15T23:36:01Z" changeset="163671013" uid="4018695" user="游뻟릖 Roman Horn칤k">
    <nd ref="3087352734"/>
    <nd ref="363886678"/>
    <nd ref="3087346347"/>
    <nd ref="471640197"/>
    <nd ref="3087346346"/>
    <nd ref="9272567548"/>
    <nd ref="7080181"/>
    <tag k="cycleway:both" v="no"/>
    <tag k="highway" v="secondary"/>
    <tag k="lanes" v="2"/>
    <tag k="lanes:backward" v="1"/>
    <tag k="lanes:forward" v="1"/>
    <tag k="lit" v="yes"/>
    <tag k="maxspeed" v="50"/>
    <tag k="name" v="Kutnohorsk치"/>
    <tag k="official_ref" v="333"/>
    <tag k="parking:both" v="no"/>
    <tag k="ref" v="333"/>
    <tag k="sidewalk:left" v="separate"/>
    <tag k="sidewalk:right" v="yes"/>
    <tag k="sidewalk:right:surface" v="paving_stones"/>
    <tag k="smoothness" v="excellent"/>
    <tag k="source:maxspeed" v="CZ:urban"/>
    <tag k="source:ref" v="survey"/>
    <tag k="surface" v="asphalt"/>
  </way>
  <way id="304208734" version="15" timestamp="2025-01-01T18:58:13Z" changeset="160881237" uid="1160334" user="honzaa">
    <nd ref="3087355823"/>
    <nd ref="3087382005"/>
    <tag k="highway" v="secondary"/>
    <tag k="lanes" v="3"/>
    <tag k="lanes:backward" v="1"/>
    <tag k="lanes:forward" v="2"/>
    <tag k="lit" v="yes"/>
    <tag k="maxspeed" v="50"/>
    <tag k="name" v="Kutnohorsk치"/>
    <tag k="official_ref" v="333"/>
    <tag k="ref" v="333"/>
    <tag k="sidewalk" v="separate"/>
    <tag k="smoothness" v="excellent"/>
    <tag k="source:maxspeed" v="CZ:urban"/>
    <tag k="source:ref" v="survey"/>
    <tag k="surface" v="asphalt"/>
    <tag k="turn:lanes:forward" v="left|right;through"/>
  </way>
  <way id="336947664" version="9" timestamp="2023-01-16T20:43:10Z" changeset="131352760" uid="469828" user="Luk치코 Jel칤nek">
    <nd ref="861060532"/>
    <nd ref="1246294630"/>
    <nd ref="861060503"/>
    <nd ref="65369378"/>
    <nd ref="8275551590"/>
    <nd ref="734759289"/>
    <tag k="cycleway:both" v="no"/>
    <tag k="highway" v="tertiary"/>
    <tag k="lanes" v="2"/>
    <tag k="lanes:backward" v="1"/>
    <tag k="lanes:forward" v="1"/>
    <tag k="lit" v="no"/>
    <tag k="maxspeed" v="50"/>
    <tag k="name" v="K M캩cholup콢m"/>
    <tag k="parking:lane:both" v="no"/>
    <tag k="sidewalk:left" v="separate"/>
    <tag k="sidewalk:right" v="no"/>
    <tag k="smoothness" v="good"/>
    <tag k="surface" v="asphalt"/>
  </way>
  <way id="336947665" version="8" timestamp="2025-01-01T22:51:32Z" changeset="160887989" uid="469828" user="Luk치코 Jel칤nek">
    <nd ref="734759289"/>
    <nd ref="12467710947"/>
    <nd ref="1838244865"/>
    <nd ref="2049722933"/>
    <nd ref="3440406320"/>
    <nd ref="12467710948"/>
    <nd ref="252028"/>
    <tag k="highway" v="tertiary"/>
    <tag k="lanes" v="3"/>
    <tag k="lanes:backward" v="1"/>
    <tag k="lanes:forward" v="2"/>
    <tag k="lit" v="no"/>
    <tag k="maxspeed" v="50"/>
    <tag k="name" v="K M캩cholup콢m"/>
    <tag k="parking:lane:both" v="no"/>
    <tag k="sidewalk" v="left"/>
    <tag k="sidewalk:left:surface" v="paving_stones"/>
    <tag k="smoothness" v="good"/>
    <tag k="surface" v="asphalt"/>
    <tag k="turn:lanes:forward" v="left|right;through"/>
  </way>
  <way id="336947949" version="13" timestamp="2025-03-15T23:36:01Z" changeset="163671013" uid="4018695" user="游뻟릖 Roman Horn칤k">
    <nd ref="3440412413"/>
    <nd ref="65369383"/>
    <nd ref="3440419509"/>
    <tag k="cycleway:both" v="no"/>
    <tag k="highway" v="secondary"/>
    <tag k="lanes" v="2"/>
    <tag k="lit" v="no"/>
    <tag k="maxspeed" v="50"/>
    <tag k="name" v="Kutnohorsk치"/>
    <tag k="official_ref" v="333"/>
    <tag k="ref" v="333"/>
    <tag k="sidewalk" v="no"/>
    <tag k="source:maxspeed" v="CZ:urban"/>
    <tag k="source:ref" v="survey"/>
    <tag k="surface" v="asphalt"/>
  </way>
  <way id="336948796" version="14" timestamp="2025-03-15T23:36:01Z" changeset="163671013" uid="4018695" user="游뻟릖 Roman Horn칤k">
    <nd ref="3440419500"/>
    <nd ref="65369375"/>
    <nd ref="65369368"/>
    <nd ref="471640231"/>
    <nd ref="12467710942"/>
    <nd ref="3440420521"/>
    <tag k="highway" v="secondary"/>
    <tag k="lanes" v="2"/>
    <tag k="maxspeed" v="70"/>
    <tag k="name" v="Kutnohorsk치"/>
    <tag k="official_ref" v="333"/>
    <tag k="ref" v="333"/>
    <tag k="source:ref" v="survey"/>
    <tag k="surface" v="asphalt"/>
  </way>
  <way id="336948797" version="10" timestamp="2025-01-01T18:58:13Z" changeset="160881237" uid="1160334" user="honzaa">
    <nd ref="3440419509"/>
    <nd ref="3440419508"/>
    <tag k="cycleway:both" v="no"/>
    <tag k="highway" v="secondary"/>
    <tag k="lanes" v="3"/>
    <tag k="lanes:backward" v="1"/>
    <tag k="lanes:forward" v="2"/>
    <tag k="lit" v="no"/>
    <tag k="maxspeed" v="50"/>
    <tag k="name" v="Kutnohorsk치"/>
    <tag k="official_ref" v="333"/>
    <tag k="ref" v="333"/>
    <tag k="sidewalk" v="no"/>
    <tag k="source:maxspeed" v="CZ:urban"/>
    <tag k="source:ref" v="survey"/>
    <tag k="surface" v="asphalt"/>
    <tag k="turn:lanes:forward" v="through|right"/>
  </way>
  <way id="336948798" version="7" timestamp="2021-11-21T14:01:52Z" changeset="114057312" uid="469828" user="Luk치코 Jel칤nek">
    <nd ref="3440419501"/>
    <nd ref="3440419502"/>
    <nd ref="3440419503"/>
    <nd ref="3440419504"/>
    <tag k="cycleway:right" v="no"/>
    <tag k="foot" v="yes"/>
    <tag k="highway" v="unclassified"/>
    <tag k="lanes" v="1"/>
    <tag k="maxspeed" v="50"/>
    <tag k="name" v="Za zast치vkou"/>
    <tag k="oneway" v="yes"/>
    <tag k="ref:ruian:street" v="508292"/>
    <tag k="sidewalk" v="no"/>
    <tag k="source:maxspeed" v="CZ:urban"/>
    <tag k="surface" v="asphalt"/>
    <tag k="turn:lanes" v="right"/>
  </way>
  <way id="336948799" version="8" timestamp="2025-01-01T22:51:32Z" changeset="160887989" uid="469828" user="Luk치코 Jel칤nek">
    <nd ref="3440419508"/>
    <nd ref="3440419507"/>
    <nd ref="12467710944"/>
    <nd ref="12467710945"/>
    <nd ref="3440419506"/>
    <nd ref="3440419505"/>
    <nd ref="12467710946"/>
    <nd ref="3440419501"/>
    <tag k="cycleway:right" v="no"/>
    <tag k="foot" v="yes"/>
    <tag k="highway" v="unclassified"/>
    <tag k="lanes" v="1"/>
    <tag k="maxspeed" v="50"/>
    <tag k="name" v="Za zast치vkou"/>
    <tag k="oneway" v="yes"/>
    <tag k="ref:ruian:street" v="508292"/>
    <tag k="sidewalk" v="no"/>
    <tag k="source:maxspeed" v="CZ:urban"/>
    <tag k="surface" v="asphalt"/>
    <tag k="turn:lanes" v="right"/>
  </way>
  <way id="336948800" version="11" timestamp="2025-01-01T18:58:13Z" changeset="160881237" uid="1160334" user="honzaa">
    <nd ref="3440419508"/>
    <nd ref="65354089"/>
    <tag k="cycleway:both" v="no"/>
    <tag k="highway" v="secondary"/>
    <tag k="lanes" v="3"/>
    <tag k="lanes:backward" v="2"/>
    <tag k="lanes:forward" v="1"/>
    <tag k="maxspeed" v="50"/>
    <tag k="name" v="Kutnohorsk치"/>
    <tag k="official_ref" v="333"/>
    <tag k="ref" v="333"/>
    <tag k="sidewalk" v="no"/>
    <tag k="source:maxspeed" v="CZ:urban"/>
    <tag k="source:ref" v="survey"/>
    <tag k="surface" v="asphalt"/>
    <tag k="turn:lanes:backward" v="left|through"/>
  </way>
  <way id="336948801" version="8" timestamp="2023-04-09T18:50:37Z" changeset="134700311" uid="231749" user="Eino81">
    <nd ref="3440419501"/>
    <nd ref="2049722012"/>
    <nd ref="65369340"/>
    <nd ref="65369343"/>
    <nd ref="9272546328"/>
    <nd ref="9272546329"/>
    <nd ref="65369347"/>
    <nd ref="65369352"/>
    <nd ref="244010553"/>
    <nd ref="65369357"/>
    <nd ref="10797436998"/>
    <tag k="cycleway:both" v="no"/>
    <tag k="highway" v="unclassified"/>
    <tag k="lanes" v="2"/>
    <tag k="lanes:backward" v="1"/>
    <tag k="lanes:forward" v="1"/>
    <tag k="lit" v="no"/>
    <tag k="maxspeed" v="50"/>
    <tag k="name" v="Za zast치vkou"/>
    <tag k="ref:ruian:street" v="508292"/>
    <tag k="surface" v="asphalt"/>
  </way>
  <way id="336948802" version="2" timestamp="2015-06-12T21:16:45Z" changeset="31932206" uid="1858155" user="Chenn Zenn">
    <nd ref="3440419444"/>
    <nd ref="3440419445"/>
    <nd ref="3440419447"/>
    <nd ref="3440419449"/>
    <nd ref="3440419448"/>
    <nd ref="65368156"/>
    <nd ref="3440419446"/>
    <nd ref="3440419441"/>
    <nd ref="3440419442"/>
    <nd ref="3440419444"/>
    <tag k="building" v="industrial"/>
    <tag k="building:ruian:type" v="1"/>
    <tag k="name" v="Dama"/>
    <tag k="ref:ruian:building" v="40471730"/>
    <tag k="source" v="cuzk:ruian"/>
  </way>
  <way id="336948966" version="9" timestamp="2025-03-15T23:36:01Z" changeset="163671013" uid="4018695" user="游뻟릖 Roman Horn칤k">
    <nd ref="65354089"/>
    <nd ref="3440419504"/>
    <nd ref="3440419500"/>
    <tag k="highway" v="secondary"/>
    <tag k="lanes" v="3"/>
    <tag k="lanes:backward" v="2"/>
    <tag k="lanes:forward" v="1"/>
    <tag k="maxspeed" v="70"/>
    <tag k="name" v="Kutnohorsk치"/>
    <tag k="official_ref" v="333"/>
    <tag k="ref" v="333"/>
    <tag k="source:ref" v="survey"/>
    <tag k="surface" v="asphalt"/>
    <tag k="turn:lanes:backward" v="left|through"/>
  </way>
  <way id="336948967" version="11" timestamp="2025-01-01T18:58:13Z" changeset="160881237" uid="1160334" user="honzaa">
    <nd ref="3440420521"/>
    <nd ref="861246717"/>
    <nd ref="471640234"/>
    <tag k="highway" v="secondary"/>
    <tag k="lanes" v="2"/>
    <tag k="maxspeed" v="50"/>
    <tag k="name" v="Kutnohorsk치"/>
    <tag k="official_ref" v="333"/>
    <tag k="ref" v="333"/>
    <tag k="source:maxspeed" v="CZ:urban"/>
    <tag k="source:ref" v="survey"/>
    <tag k="surface" v="asphalt"/>
  </way>
  <way id="342239887" version="9" timestamp="2025-01-01T18:58:13Z" changeset="160881237" uid="1160334" user="honzaa">
    <nd ref="3492707006"/>
    <nd ref="3492707005"/>
    <tag k="highway" v="secondary"/>
    <tag k="lanes" v="2"/>
    <tag k="maxspeed:backward" v="50"/>
    <tag k="maxspeed:forward" v="70"/>
    <tag k="name" v="Kutnohorsk치"/>
    <tag k="official_ref" v="333"/>
    <tag k="ref" v="333"/>
    <tag k="source:ref" v="survey"/>
    <tag k="surface" v="asphalt"/>
  </way>
  <way id="342239888" version="9" timestamp="2025-01-01T18:58:13Z" changeset="160881237" uid="1160334" user="honzaa">
    <nd ref="471640234"/>
    <nd ref="3492707006"/>
    <tag k="highway" v="secondary"/>
    <tag k="lanes" v="2"/>
    <tag k="maxspeed" v="50"/>
    <tag k="name" v="Kutnohorsk치"/>
    <tag k="official_ref" v="333"/>
    <tag k="ref" v="333"/>
    <tag k="source:maxspeed" v="CZ:urban"/>
    <tag k="source:ref" v="survey"/>
    <tag k="surface" v="asphalt"/>
  </way>
  <way id="342239889" version="10" timestamp="2025-01-01T18:58:13Z" changeset="160881237" uid="1160334" user="honzaa">
    <nd ref="3492707005"/>
    <nd ref="10716069161"/>
    <nd ref="471640238"/>
    <nd ref="177742910"/>
    <tag k="highway" v="secondary"/>
    <tag k="lanes" v="2"/>
    <tag k="maxspeed" v="70"/>
    <tag k="name" v="Kutnohorsk치"/>
    <tag k="official_ref" v="333"/>
    <tag k="ref" v="333"/>
    <tag k="source:ref" v="survey"/>
    <tag k="surface" v="asphalt"/>
  </way>
  <way id="344738407" version="7" timestamp="2024-04-21T19:15:51Z" changeset="150315773" uid="20160194" user="Milan Tom치nek">
    <nd ref="245561408"/>
    <nd ref="3678896640"/>
    <nd ref="245561407"/>
    <tag k="highway" v="residential"/>
    <tag k="lane_markings" v="no"/>
    <tag k="name" v="B캩linsk칠ho"/>
    <tag k="sidewalk:left" v="no"/>
    <tag k="sidewalk:right" v="separate"/>
    <tag k="surface" v="asphalt"/>
  </way>
  <way id="358155511" version="19" timestamp="2025-03-16T00:21:43Z" changeset="163671705" uid="4018695" user="游뻟릖 Roman Horn칤k">
    <nd ref="55495821"/>
    <nd ref="11881808688"/>
    <nd ref="390340778"/>
    <nd ref="11881808689"/>
    <nd ref="55495823"/>
    <nd ref="11881808685"/>
    <nd ref="282982879"/>
    <nd ref="7080189"/>
    <tag k="cycleway:both" v="no"/>
    <tag k="highway" v="secondary"/>
    <tag k="lanes" v="2"/>
    <tag k="lanes:backward" v="1"/>
    <tag k="lanes:forward" v="1"/>
    <tag k="lit" v="yes"/>
    <tag k="maxspeed" v="50"/>
    <tag k="name" v="Kutnohorsk치"/>
    <tag k="official_ref" v="333"/>
    <tag k="parking:both" v="no"/>
    <tag k="ref" v="333"/>
    <tag k="sidewalk:left" v="separate"/>
    <tag k="sidewalk:right" v="yes"/>
    <tag k="sidewalk:right:surface" v="paving_stones"/>
    <tag k="smoothness" v="excellent"/>
    <tag k="source:maxspeed" v="CZ:urban"/>
    <tag k="source:ref" v="survey"/>
    <tag k="surface" v="asphalt"/>
  </way>
  <way id="358155512" version="12" timestamp="2025-01-01T18:58:13Z" changeset="160881237" uid="1160334" user="honzaa">
    <nd ref="3087382005"/>
    <nd ref="3087360618"/>
    <nd ref="861800123"/>
    <nd ref="30582363"/>
    <tag k="highway" v="secondary"/>
    <tag k="lanes" v="3"/>
    <tag k="lanes:backward" v="1"/>
    <tag k="lanes:forward" v="2"/>
    <tag k="lit" v="yes"/>
    <tag k="maxspeed" v="50"/>
    <tag k="name" v="Kutnohorsk치"/>
    <tag k="official_ref" v="333"/>
    <tag k="ref" v="333"/>
    <tag k="sidewalk" v="separate"/>
    <tag k="smoothness" v="excellent"/>
    <tag k="source:maxspeed" v="CZ:urban"/>
    <tag k="source:ref" v="survey"/>
    <tag k="surface" v="asphalt"/>
    <tag k="turn:lanes:forward" v="left|right;through"/>
  </way>
  <way id="358155513" version="18" timestamp="2025-01-01T18:58:13Z" changeset="160881237" uid="1160334" user="honzaa">
    <nd ref="6905108432"/>
    <nd ref="390340772"/>
    <nd ref="364049134"/>
    <nd ref="265746609"/>
    <nd ref="5656443737"/>
    <nd ref="6905108429"/>
    <tag k="cycleway:both" v="no"/>
    <tag k="highway" v="secondary"/>
    <tag k="lanes" v="2"/>
    <tag k="lanes:backward" v="1"/>
    <tag k="lanes:forward" v="1"/>
    <tag k="lit" v="yes"/>
    <tag k="maxspeed" v="50"/>
    <tag k="name" v="Kutnohorsk치"/>
    <tag k="official_ref" v="333"/>
    <tag k="parking:both" v="no"/>
    <tag k="ref" v="333"/>
    <tag k="sidewalk:left" v="separate"/>
    <tag k="sidewalk:right" v="yes"/>
    <tag k="sidewalk:right:surface" v="paving_stones"/>
    <tag k="smoothness" v="excellent"/>
    <tag k="source:maxspeed" v="CZ:urban"/>
    <tag k="source:ref" v="survey"/>
    <tag k="surface" v="asphalt"/>
  </way>
  <way id="360611662" version="15" timestamp="2025-03-15T23:36:01Z" changeset="163671013" uid="4018695" user="游뻟릖 Roman Horn칤k">
    <nd ref="289532120"/>
    <nd ref="7080192"/>
    <nd ref="10241857175"/>
    <nd ref="36257789"/>
    <nd ref="10241907234"/>
    <nd ref="1035743358"/>
    <nd ref="1259591355"/>
    <nd ref="36257790"/>
    <nd ref="36257791"/>
    <tag k="cycleway:both" v="no"/>
    <tag k="highway" v="secondary"/>
    <tag k="lanes" v="2"/>
    <tag k="lanes:backward" v="1"/>
    <tag k="lanes:forward" v="1"/>
    <tag k="lit" v="yes"/>
    <tag k="maxspeed" v="50"/>
    <tag k="name" v="Kutnohorsk치"/>
    <tag k="official_ref" v="333"/>
    <tag k="ref" v="333"/>
    <tag k="sidewalk:both" v="separate"/>
    <tag k="smoothness" v="excellent"/>
    <tag k="source:maxspeed" v="CZ:urban"/>
    <tag k="source:ref" v="survey"/>
    <tag k="surface" v="asphalt"/>
  </way>
  <way id="360611665" version="12" timestamp="2025-01-01T18:58:13Z" changeset="160881237" uid="1160334" user="honzaa">
    <nd ref="3651297822"/>
    <nd ref="1628510409"/>
    <tag k="cycleway:both" v="no"/>
    <tag k="highway" v="secondary"/>
    <tag k="lanes" v="3"/>
    <tag k="lanes:backward" v="1"/>
    <tag k="lanes:forward" v="2"/>
    <tag k="lit" v="yes"/>
    <tag k="maxspeed" v="50"/>
    <tag k="name" v="Kutnohorsk치"/>
    <tag k="official_ref" v="333"/>
    <tag k="ref" v="333"/>
    <tag k="sidewalk:both" v="separate"/>
    <tag k="smoothness" v="excellent"/>
    <tag k="source:maxspeed" v="CZ:urban"/>
    <tag k="source:ref" v="survey"/>
    <tag k="surface" v="asphalt"/>
    <tag k="turn:lanes:forward" v="left|through"/>
  </way>
  <way id="360783552" version="5" timestamp="2023-12-23T20:36:09Z" changeset="145449298" uid="20160194" user="Milan Tom치nek">
    <nd ref="3653308942"/>
    <nd ref="777301013"/>
    <tag k="highway" v="residential"/>
    <tag k="maxspeed:type" v="CZ:urban"/>
    <tag k="name" v="Kardausova"/>
    <tag k="sidewalk:both" v="separate"/>
    <tag k="smoothness" v="excellent"/>
    <tag k="source" v="cuzk:km"/>
    <tag k="surface" v="asphalt"/>
  </way>
  <way id="360783553" version="14" timestamp="2025-02-28T01:26:21Z" changeset="163033662" uid="469828" user="Luk치코 Jel칤nek">
    <nd ref="3653308944"/>
    <nd ref="3653308941"/>
    <tag k="cycleway:both" v="no"/>
    <tag k="highway" v="secondary"/>
    <tag k="lanes" v="4"/>
    <tag k="lanes:backward" v="3"/>
    <tag k="lanes:forward" v="1"/>
    <tag k="lit" v="yes"/>
    <tag k="maxspeed" v="50"/>
    <tag k="name" v="Kutnohorsk치"/>
    <tag k="official_ref" v="333"/>
    <tag k="ref" v="333"/>
    <tag k="sidewalk" v="no"/>
    <tag k="source:maxspeed" v="CZ:urban"/>
    <tag k="source:ref" v="survey"/>
    <tag k="surface" v="asphalt"/>
    <tag k="turn:lanes:backward" v="left|through|merge_to_left"/>
  </way>
  <way id="360783554" version="12" timestamp="2025-01-01T18:58:13Z" changeset="160881237" uid="1160334" user="honzaa">
    <nd ref="6932414"/>
    <nd ref="3651298228"/>
    <nd ref="3651298227"/>
    <tag k="cycleway:both" v="no"/>
    <tag k="highway" v="secondary"/>
    <tag k="lanes" v="3"/>
    <tag k="lanes:backward" v="2"/>
    <tag k="lanes:forward" v="1"/>
    <tag k="lit" v="yes"/>
    <tag k="maxspeed" v="50"/>
    <tag k="name" v="Kutnohorsk치"/>
    <tag k="official_ref" v="333"/>
    <tag k="ref" v="333"/>
    <tag k="sidewalk:left" v="separate"/>
    <tag k="smoothness" v="excellent"/>
    <tag k="source:maxspeed" v="CZ:urban"/>
    <tag k="source:ref" v="survey"/>
    <tag k="surface" v="asphalt"/>
    <tag k="turn:lanes:backward" v="through|through;right"/>
  </way>
  <way id="360783555" version="16" timestamp="2025-02-28T01:26:21Z" changeset="163033662" uid="469828" user="Luk치코 Jel칤nek">
    <nd ref="3653308941"/>
    <nd ref="3653308939"/>
    <nd ref="3651298229"/>
    <nd ref="6932414"/>
    <tag k="cycleway:both" v="no"/>
    <tag k="highway" v="secondary"/>
    <tag k="lanes" v="4"/>
    <tag k="lanes:backward" v="2"/>
    <tag k="lanes:forward" v="2"/>
    <tag k="lit" v="yes"/>
    <tag k="maxspeed" v="50"/>
    <tag k="name" v="Kutnohorsk치"/>
    <tag k="official_ref" v="333"/>
    <tag k="ref" v="333"/>
    <tag k="shoulder" v="no"/>
    <tag k="sidewalk" v="no"/>
    <tag k="smoothness" v="excellent"/>
    <tag k="source:maxspeed" v="CZ:urban"/>
    <tag k="source:ref" v="survey"/>
    <tag k="surface" v="asphalt"/>
    <tag k="turn:lanes:forward" v="left|through"/>
  </way>
  <way id="360783560" version="14" timestamp="2025-02-28T01:26:21Z" changeset="163033662" uid="469828" user="Luk치코 Jel칤nek">
    <nd ref="3653308945"/>
    <nd ref="3653308944"/>
    <tag k="cycleway:both" v="no"/>
    <tag k="highway" v="secondary"/>
    <tag k="lanes" v="3"/>
    <tag k="lanes:backward" v="2"/>
    <tag k="lanes:forward" v="1"/>
    <tag k="lit" v="yes"/>
    <tag k="maxspeed" v="50"/>
    <tag k="name" v="Kutnohorsk치"/>
    <tag k="official_ref" v="333"/>
    <tag k="ref" v="333"/>
    <tag k="sidewalk" v="no"/>
    <tag k="source:maxspeed" v="CZ:urban"/>
    <tag k="source:ref" v="survey"/>
    <tag k="surface" v="asphalt"/>
    <tag k="turn:lanes:backward" v="through|merge_to_left"/>
  </way>
  <way id="361010169" version="13" timestamp="2025-01-01T18:58:13Z" changeset="160881237" uid="1160334" user="honzaa">
    <nd ref="6905108430"/>
    <nd ref="6905108431"/>
    <tag k="cycleway:both" v="no"/>
    <tag k="highway" v="secondary"/>
    <tag k="lanes" v="2"/>
    <tag k="lanes:backward" v="1"/>
    <tag k="lanes:forward" v="1"/>
    <tag k="lit" v="yes"/>
    <tag k="maxspeed" v="50"/>
    <tag k="name" v="Kutnohorsk치"/>
    <tag k="official_ref" v="333"/>
    <tag k="ref" v="333"/>
    <tag k="sidewalk:left" v="separate"/>
    <tag k="smoothness" v="excellent"/>
    <tag k="source:maxspeed" v="CZ:urban"/>
    <tag k="source:ref" v="survey"/>
    <tag k="surface" v="asphalt"/>
  </way>
  <way id="361010170" version="14" timestamp="2025-01-01T18:58:13Z" changeset="160881237" uid="1160334" user="honzaa">
    <nd ref="6905108431"/>
    <nd ref="178677563"/>
    <nd ref="3651297822"/>
    <tag k="highway" v="secondary"/>
    <tag k="lanes" v="2"/>
    <tag k="lanes:backward" v="1"/>
    <tag k="lanes:forward" v="1"/>
    <tag k="lit" v="yes"/>
    <tag k="maxheight" v="default"/>
    <tag k="maxspeed" v="50"/>
    <tag k="name" v="Kutnohorsk치"/>
    <tag k="official_ref" v="333"/>
    <tag k="ref" v="333"/>
    <tag k="sidewalk:both" v="separate"/>
    <tag k="smoothness" v="excellent"/>
    <tag k="source:maxspeed" v="CZ:urban"/>
    <tag k="source:ref" v="survey"/>
    <tag k="surface" v="asphalt"/>
  </way>
  <way id="363146384" version="11" timestamp="2023-12-23T20:33:42Z" changeset="145449298" uid="20160194" user="Milan Tom치nek">
    <nd ref="3673385933"/>
    <nd ref="7079729533"/>
    <nd ref="3673385936"/>
    <nd ref="7079704680"/>
    <nd ref="3673385937"/>
    <nd ref="6266752567"/>
    <nd ref="7079704678"/>
    <nd ref="5148629947"/>
    <nd ref="6266752571"/>
    <nd ref="10243269139"/>
    <nd ref="7079600434"/>
    <nd ref="6266752569"/>
    <nd ref="5148629948"/>
    <nd ref="6266752573"/>
    <nd ref="7079704682"/>
    <nd ref="7079704684"/>
    <nd ref="3673385934"/>
    <tag k="highway" v="residential"/>
    <tag k="maxspeed" v="30"/>
    <tag k="maxspeed:type" v="CZ:zone30"/>
    <tag k="name" v="Honz칤kova"/>
    <tag k="sidewalk:left" v="separate"/>
    <tag k="smoothness" v="excellent"/>
    <tag k="surface" v="asphalt"/>
    <tag k="zone:maxspeed" v="30"/>
  </way>
  <way id="382768046" version="4" timestamp="2023-12-23T20:32:24Z" changeset="145449298" uid="20160194" user="Milan Tom치nek">
    <nd ref="777301024"/>
    <nd ref="3651298230"/>
    <nd ref="777301016"/>
    <nd ref="7079729525"/>
    <nd ref="777301022"/>
    <nd ref="7079729524"/>
    <nd ref="3653308942"/>
    <tag k="highway" v="residential"/>
    <tag k="lanes" v="3"/>
    <tag k="lanes:backward" v="2"/>
    <tag k="lanes:forward" v="1"/>
    <tag k="lit" v="yes"/>
    <tag k="maxspeed" v="50"/>
    <tag k="name" v="Kardausova"/>
    <tag k="sidewalk:both" v="separate"/>
    <tag k="smoothness" v="excellent"/>
    <tag k="source" v="cuzk:km"/>
    <tag k="surface" v="asphalt"/>
    <tag k="turn:lanes:backward" v="left|right"/>
  </way>
  <way id="593121320" version="1" timestamp="2018-06-02T17:42:43Z" changeset="59490739" uid="1719518" user="itamas80">
    <nd ref="798172281"/>
    <nd ref="798172288"/>
    <tag k="highway" v="residential"/>
    <tag k="name" v="U Kabelovny"/>
  </way>
  <way id="758085111" version="7" timestamp="2025-01-28T17:08:07Z" changeset="161865908" uid="469828" user="Luk치코 Jel칤nek">
    <nd ref="777301013"/>
    <nd ref="10243269140"/>
    <nd ref="36257564"/>
    <nd ref="7079600430"/>
    <tag k="access" v="yes"/>
    <tag k="cycleway:both" v="no"/>
    <tag k="highway" v="residential"/>
    <tag k="lanes" v="2"/>
    <tag k="maxspeed" v="30"/>
    <tag k="name" v="Kardausova"/>
    <tag k="sidewalk:left" v="separate"/>
    <tag k="surface" v="asphalt"/>
  </way>
  <way id="758085117" version="8" timestamp="2023-12-23T20:35:08Z" changeset="145449298" uid="20160194" user="Milan Tom치nek">
    <nd ref="7079600433"/>
    <nd ref="9277543793"/>
    <nd ref="7079753486"/>
    <tag k="highway" v="residential"/>
    <tag k="maxspeed" v="30"/>
    <tag k="maxspeed:type" v="CZ:zone30"/>
    <tag k="sidewalk:both" v="separate"/>
    <tag k="smoothness" v="excellent"/>
    <tag k="surface" v="asphalt"/>
    <tag k="zone:maxspeed" v="30"/>
  </way>
  <way id="758085118" version="11" timestamp="2023-12-23T20:34:56Z" changeset="145449298" uid="20160194" user="Milan Tom치nek">
    <nd ref="3673385934"/>
    <nd ref="9645906367"/>
    <nd ref="7079600433"/>
    <tag k="cycleway:both" v="no"/>
    <tag k="highway" v="residential"/>
    <tag k="maxspeed" v="30"/>
    <tag k="maxspeed:type" v="CZ:zone30"/>
    <tag k="name" v="Honz칤kova"/>
    <tag k="sidewalk:both" v="separate"/>
    <tag k="smoothness" v="excellent"/>
    <tag k="surface" v="asphalt"/>
    <tag k="zone:maxspeed" v="30"/>
  </way>
  <way id="758101373" version="2" timestamp="2024-04-24T12:33:08Z" changeset="150445042" uid="25867" user="adamos">
    <nd ref="7079753486"/>
    <nd ref="7079600430"/>
    <tag k="access" v="no"/>
    <tag k="bus" v="yes"/>
    <tag k="highway" v="residential"/>
    <tag k="surface" v="asphalt"/>
  </way>
  <way id="998887759" version="12" timestamp="2025-01-01T18:58:13Z" changeset="160881237" uid="1160334" user="honzaa">
    <nd ref="2049722014"/>
    <nd ref="3440412416"/>
    <nd ref="9101499108"/>
    <nd ref="252028"/>
    <tag k="cycleway:both" v="no"/>
    <tag k="highway" v="secondary"/>
    <tag k="lanes" v="2"/>
    <tag k="lanes:backward" v="1"/>
    <tag k="lanes:forward" v="1"/>
    <tag k="lit" v="yes"/>
    <tag k="maxspeed" v="50"/>
    <tag k="name" v="Kutnohorsk치"/>
    <tag k="official_ref" v="333"/>
    <tag k="parking:lane:both" v="no"/>
    <tag k="ref" v="333"/>
    <tag k="sidewalk:left" v="no"/>
    <tag k="sidewalk:right" v="separate"/>
    <tag k="smoothness" v="excellent"/>
    <tag k="source:maxspeed" v="CZ:urban"/>
    <tag k="surface" v="asphalt"/>
    <tag k="turn:lanes:backward" v="through"/>
    <tag k="turn:lanes:forward" v="left;through;right"/>
  </way>
  <way id="1001565030" version="4" timestamp="2025-03-16T00:21:43Z" changeset="163671705" uid="4018695" user="游뻟릖 Roman Horn칤k">
    <nd ref="12669183261"/>
    <nd ref="1628510366"/>
    <nd ref="1628510362"/>
    <nd ref="416521928"/>
    <nd ref="30581189"/>
    <tag k="highway" v="tertiary"/>
    <tag k="lit" v="yes"/>
    <tag k="name" v="Ke Kablu"/>
    <tag k="surface" v="asphalt"/>
  </way>
  <way id="1087778608" version="4" timestamp="2023-12-23T20:35:30Z" changeset="145449298" uid="20160194" user="Milan Tom치nek">
    <nd ref="7079600430"/>
    <nd ref="10243269147"/>
    <nd ref="7079600271"/>
    <tag k="access" v="yes"/>
    <tag k="highway" v="residential"/>
    <tag k="lanes" v="2"/>
    <tag k="maxspeed" v="50"/>
    <tag k="name" v="Kardausova"/>
    <tag k="sidewalk:left" v="separate"/>
    <tag k="surface" v="asphalt"/>
  </way>
  <way id="1087778609" version="8" timestamp="2023-12-23T20:35:16Z" changeset="145449298" uid="20160194" user="Milan Tom치nek">
    <nd ref="7079600433"/>
    <nd ref="10243269144"/>
    <nd ref="7079600432"/>
    <nd ref="7079600431"/>
    <tag k="cycleway:both" v="no"/>
    <tag k="highway" v="residential"/>
    <tag k="maxspeed" v="30"/>
    <tag k="maxspeed:type" v="CZ:zone30"/>
    <tag k="name" v="Honz칤kova"/>
    <tag k="sidewalk:right" v="separate"/>
    <tag k="smoothness" v="excellent"/>
    <tag k="surface" v="asphalt"/>
    <tag k="width" v="6"/>
    <tag k="zone:maxspeed" v="30"/>
  </way>
  <way id="1087778610" version="5" timestamp="2025-01-28T17:09:03Z" changeset="161865951" uid="469828" user="Luk치코 Jel칤nek">
    <nd ref="777301013"/>
    <nd ref="3673385941"/>
    <nd ref="7079729534"/>
    <nd ref="7079632618"/>
    <nd ref="3673385933"/>
    <tag k="highway" v="residential"/>
    <tag k="maxspeed" v="30"/>
    <tag k="maxspeed:type" v="CZ:zone30"/>
    <tag k="name" v="Kry코p칤nova"/>
    <tag k="sidewalk:both" v="separate"/>
    <tag k="smoothness" v="excellent"/>
    <tag k="surface" v="asphalt"/>
    <tag k="zone:maxspeed" v="30"/>
  </way>
  <way id="1110969671" version="8" timestamp="2023-02-13T17:39:24Z" changeset="132501687" uid="1552705" user="Pattoks">
    <nd ref="36257795"/>
    <nd ref="10164984288"/>
    <tag k="cycleway:both" v="no"/>
    <tag k="highway" v="tertiary"/>
    <tag k="lane_markings" v="no"/>
    <tag k="maxspeed:type" v="CZ:urban"/>
    <tag k="name" v="Dolnom캩cholupsk치"/>
    <tag k="sidewalk" v="right"/>
    <tag k="sidewalk:right:surface" v="paving_stones"/>
    <tag k="smoothness" v="excellent"/>
    <tag k="surface" v="asphalt"/>
  </way>
  <way id="1132565552" version="9" timestamp="2025-03-15T23:36:01Z" changeset="163671013" uid="4018695" user="游뻟릖 Roman Horn칤k">
    <nd ref="3534156721"/>
    <nd ref="55495827"/>
    <nd ref="9222387921"/>
    <nd ref="9222387922"/>
    <nd ref="55495825"/>
    <nd ref="2049722014"/>
    <tag k="cycleway:both" v="no"/>
    <tag k="highway" v="secondary"/>
    <tag k="lanes" v="2"/>
    <tag k="lanes:backward" v="1"/>
    <tag k="lanes:forward" v="1"/>
    <tag k="lit" v="yes"/>
    <tag k="maxspeed" v="50"/>
    <tag k="name" v="Kutnohorsk치"/>
    <tag k="official_ref" v="333"/>
    <tag k="parking:both" v="no"/>
    <tag k="ref" v="333"/>
    <tag k="sidewalk:left" v="no"/>
    <tag k="sidewalk:right" v="separate"/>
    <tag k="smoothness" v="excellent"/>
    <tag k="source:maxspeed" v="CZ:urban"/>
    <tag k="surface" v="asphalt"/>
  </way>
  <way id="1132565911" version="9" timestamp="2025-03-15T23:36:01Z" changeset="163671013" uid="4018695" user="游뻟릖 Roman Horn칤k">
    <nd ref="265746647"/>
    <nd ref="3534156721"/>
    <tag k="cycleway:both" v="no"/>
    <tag k="highway" v="secondary"/>
    <tag k="lanes" v="2"/>
    <tag k="lanes:backward" v="1"/>
    <tag k="lanes:forward" v="1"/>
    <tag k="lit" v="yes"/>
    <tag k="maxspeed" v="50"/>
    <tag k="name" v="Kutnohorsk치"/>
    <tag k="official_ref" v="333"/>
    <tag k="parking:lane:right:parallel" v="painted_area_only"/>
    <tag k="parking:left" v="no"/>
    <tag k="parking:right" v="yes"/>
    <tag k="parking:right:orientation" v="parallel"/>
    <tag k="ref" v="333"/>
    <tag k="sidewalk:left" v="no"/>
    <tag k="sidewalk:right" v="separate"/>
    <tag k="smoothness" v="excellent"/>
    <tag k="source:maxspeed" v="CZ:urban"/>
    <tag k="surface" v="asphalt"/>
  </way>
  <way id="1132565942" version="10" timestamp="2025-03-15T23:36:01Z" changeset="163671013" uid="4018695" user="游뻟릖 Roman Horn칤k">
    <nd ref="55495833"/>
    <nd ref="265746647"/>
    <tag k="cycleway:both" v="no"/>
    <tag k="highway" v="secondary"/>
    <tag k="lanes" v="2"/>
    <tag k="lanes:backward" v="1"/>
    <tag k="lanes:forward" v="1"/>
    <tag k="lit" v="yes"/>
    <tag k="maxspeed" v="50"/>
    <tag k="name" v="Kutnohorsk치"/>
    <tag k="official_ref" v="333"/>
    <tag k="parking:lane:right:parallel" v="painted_area_only"/>
    <tag k="parking:left" v="no"/>
    <tag k="parking:right" v="yes"/>
    <tag k="parking:right:orientation" v="parallel"/>
    <tag k="ref" v="333"/>
    <tag k="sidewalk" v="right"/>
    <tag k="sidewalk:right:surface" v="paving_stones"/>
    <tag k="smoothness" v="excellent"/>
    <tag k="source:maxspeed" v="CZ:urban"/>
    <tag k="surface" v="asphalt"/>
  </way>
  <way id="1132566058" version="11" timestamp="2025-03-15T23:36:01Z" changeset="163671013" uid="4018695" user="游뻟릖 Roman Horn칤k">
    <nd ref="265746669"/>
    <nd ref="11881808690"/>
    <nd ref="55495833"/>
    <tag k="cycleway:both" v="no"/>
    <tag k="highway" v="secondary"/>
    <tag k="lanes" v="2"/>
    <tag k="lanes:backward" v="1"/>
    <tag k="lanes:forward" v="1"/>
    <tag k="lit" v="yes"/>
    <tag k="maxspeed" v="50"/>
    <tag k="name" v="Kutnohorsk치"/>
    <tag k="official_ref" v="333"/>
    <tag k="parking:lane:right:parallel" v="painted_area_only"/>
    <tag k="parking:left" v="no"/>
    <tag k="parking:right" v="yes"/>
    <tag k="parking:right:orientation" v="parallel"/>
    <tag k="ref" v="333"/>
    <tag k="sidewalk" v="right"/>
    <tag k="sidewalk:right:surface" v="compacted"/>
    <tag k="smoothness" v="excellent"/>
    <tag k="source:maxspeed" v="CZ:urban"/>
    <tag k="surface" v="asphalt"/>
  </way>
  <way id="1160902362" version="1" timestamp="2023-04-09T18:50:37Z" changeset="134700311" uid="231749" user="Eino81">
    <nd ref="10797436998"/>
    <nd ref="10716118718"/>
    <tag k="access" v="private"/>
    <tag k="cycleway:both" v="no"/>
    <tag k="highway" v="unclassified"/>
    <tag k="lanes" v="2"/>
    <tag k="lanes:backward" v="1"/>
    <tag k="lanes:forward" v="1"/>
    <tag k="lit" v="no"/>
    <tag k="maxspeed" v="50"/>
    <tag k="name" v="Za zast치vkou"/>
    <tag k="ref:ruian:street" v="508292"/>
    <tag k="surface" v="asphalt"/>
  </way>
  <way id="1218118748" version="2" timestamp="2024-03-15T16:57:10Z" changeset="148698725" uid="13965700" user="Katoga">
    <nd ref="889523831"/>
    <nd ref="1259637706"/>
    <nd ref="265746669"/>
    <tag k="highway" v="residential"/>
    <tag k="lane_markings" v="no"/>
    <tag k="lit" v="yes"/>
    <tag k="maxspeed" v="50"/>
    <tag k="maxspeed:type" v="sign"/>
    <tag k="name" v="Pod Les칤kem"/>
    <tag k="oneway" v="yes"/>
    <tag k="sidewalk" v="right"/>
    <tag k="surface" v="asphalt"/>
  </way>
  <way id="1264351047" version="1" timestamp="2024-03-19T23:13:37Z" changeset="148886023" uid="469828" user="Luk치코 Jel칤nek">
    <nd ref="11746873530"/>
    <nd ref="11746873531"/>
    <tag k="highway" v="residential"/>
  </way>
  <way id="1367998184" version="1" timestamp="2025-03-15T23:36:01Z" changeset="163671013" uid="4018695" user="游뻟릖 Roman Horn칤k">
    <nd ref="7080181"/>
    <nd ref="6905108432"/>
    <tag k="cycleway:both" v="no"/>
    <tag k="highway" v="secondary"/>
    <tag k="lanes" v="2"/>
    <tag k="lanes:backward" v="1"/>
    <tag k="lanes:forward" v="1"/>
    <tag k="lit" v="yes"/>
    <tag k="maxspeed" v="50"/>
    <tag k="name" v="Kutnohorsk치"/>
    <tag k="official_ref" v="333"/>
    <tag k="parking:both" v="no"/>
    <tag k="ref" v="333"/>
    <tag k="sidewalk:left" v="separate"/>
    <tag k="sidewalk:right" v="yes"/>
    <tag k="sidewalk:right:surface" v="paving_stones"/>
    <tag k="smoothness" v="excellent"/>
    <tag k="source:maxspeed" v="CZ:urban"/>
    <tag k="source:ref" v="survey"/>
    <tag k="surface" v="asphalt"/>
  </way>
  <way id="1367998185" version="1" timestamp="2025-03-15T23:36:01Z" changeset="163671013" uid="4018695" user="游뻟릖 Roman Horn칤k">
    <nd ref="30582363"/>
    <nd ref="3087360615"/>
    <nd ref="12669129196"/>
    <tag k="cycleway:both" v="no"/>
    <tag k="highway" v="secondary"/>
    <tag k="lanes" v="3"/>
    <tag k="lanes:backward" v="2"/>
    <tag k="lanes:forward" v="1"/>
    <tag k="lit" v="yes"/>
    <tag k="maxspeed" v="50"/>
    <tag k="name" v="Kutnohorsk치"/>
    <tag k="official_ref" v="333"/>
    <tag k="parking:both" v="no"/>
    <tag k="ref" v="333"/>
    <tag k="sidewalk:left" v="separate"/>
    <tag k="sidewalk:right" v="yes"/>
    <tag k="sidewalk:right:surface" v="paving_stones"/>
    <tag k="smoothness" v="excellent"/>
    <tag k="source:maxspeed" v="CZ:urban"/>
    <tag k="source:ref" v="survey"/>
    <tag k="surface" v="asphalt"/>
    <tag k="turn:lanes:backward" v="left|through;right"/>
  </way>
  <way id="1367998186" version="1" timestamp="2025-03-15T23:36:01Z" changeset="163671013" uid="4018695" user="游뻟릖 Roman Horn칤k">
    <nd ref="30582363"/>
    <nd ref="363887029"/>
    <nd ref="12495682878"/>
    <nd ref="3087360617"/>
    <tag k="cycleway:both" v="no"/>
    <tag k="hgv" v="destination"/>
    <tag k="highway" v="tertiary"/>
    <tag k="lanes" v="2"/>
    <tag k="lanes:both_ways" v="1"/>
    <tag k="lit" v="yes"/>
    <tag k="maxspeed:type" v="CZ:urban"/>
    <tag k="name" v="Dolnom캩cholupsk치"/>
    <tag k="sidewalk:left" v="separate"/>
    <tag k="sidewalk:right" v="yes"/>
    <tag k="sidewalk:right:surface" v="paving_stones"/>
    <tag k="smoothness" v="excellent"/>
    <tag k="surface" v="asphalt"/>
  </way>
  <way id="1367998187" version="1" timestamp="2025-03-15T23:36:01Z" changeset="163671013" uid="4018695" user="游뻟릖 Roman Horn칤k">
    <nd ref="3087360616"/>
    <nd ref="363887158"/>
    <nd ref="30582363"/>
    <tag k="cycleway:both" v="no"/>
    <tag k="highway" v="tertiary"/>
    <tag k="lanes" v="2"/>
    <tag k="lanes:both_ways" v="1"/>
    <tag k="lit" v="yes"/>
    <tag k="maxspeed:type" v="CZ:urban"/>
    <tag k="name" v="Dolnom캩cholupsk치"/>
    <tag k="parking:both" v="no"/>
    <tag k="sidewalk" v="both"/>
    <tag k="sidewalk:both:surface" v="paving_stones"/>
    <tag k="smoothness" v="excellent"/>
    <tag k="surface" v="asphalt"/>
  </way>
  <way id="1367998188" version="1" timestamp="2025-03-15T23:36:01Z" changeset="163671013" uid="4018695" user="游뻟릖 Roman Horn칤k">
    <nd ref="1259591386"/>
    <nd ref="10241857176"/>
    <nd ref="252031"/>
    <nd ref="10241907233"/>
    <nd ref="3087355823"/>
    <tag k="cycleway:both" v="no"/>
    <tag k="highway" v="secondary"/>
    <tag k="lanes" v="2"/>
    <tag k="lanes:backward" v="1"/>
    <tag k="lanes:forward" v="1"/>
    <tag k="lit" v="yes"/>
    <tag k="maxspeed" v="50"/>
    <tag k="name" v="Kutnohorsk치"/>
    <tag k="official_ref" v="333"/>
    <tag k="ref" v="333"/>
    <tag k="sidewalk:both" v="separate"/>
    <tag k="smoothness" v="excellent"/>
    <tag k="source:maxspeed" v="CZ:urban"/>
    <tag k="source:ref" v="survey"/>
    <tag k="surface" v="asphalt"/>
  </way>
  <way id="1367998189" version="1" timestamp="2025-03-15T23:36:01Z" changeset="163671013" uid="4018695" user="游뻟릖 Roman Horn칤k">
    <nd ref="36257791"/>
    <nd ref="1259591396"/>
    <nd ref="36257792"/>
    <tag k="cycleway:both" v="no"/>
    <tag k="highway" v="secondary"/>
    <tag k="lanes" v="2"/>
    <tag k="lanes:backward" v="1"/>
    <tag k="lanes:forward" v="1"/>
    <tag k="lit" v="yes"/>
    <tag k="maxspeed" v="50"/>
    <tag k="name" v="Kutnohorsk치"/>
    <tag k="official_ref" v="333"/>
    <tag k="ref" v="333"/>
    <tag k="sidewalk:both" v="separate"/>
    <tag k="smoothness" v="excellent"/>
    <tag k="source:maxspeed" v="CZ:urban"/>
    <tag k="source:ref" v="survey"/>
    <tag k="surface" v="asphalt"/>
  </way>
  <way id="1367998190" version="1" timestamp="2025-03-15T23:36:01Z" changeset="163671013" uid="4018695" user="游뻟릖 Roman Horn칤k">
    <nd ref="1628510409"/>
    <nd ref="289532120"/>
    <tag k="cycleway:both" v="no"/>
    <tag k="highway" v="secondary"/>
    <tag k="lanes" v="2"/>
    <tag k="lanes:backward" v="1"/>
    <tag k="lanes:forward" v="1"/>
    <tag k="lit" v="yes"/>
    <tag k="maxspeed" v="50"/>
    <tag k="name" v="Kutnohorsk치"/>
    <tag k="official_ref" v="333"/>
    <tag k="ref" v="333"/>
    <tag k="sidewalk:both" v="separate"/>
    <tag k="smoothness" v="excellent"/>
    <tag k="source:maxspeed" v="CZ:urban"/>
    <tag k="source:ref" v="survey"/>
    <tag k="surface" v="asphalt"/>
  </way>
  <way id="1367998191" version="1" timestamp="2025-03-15T23:36:01Z" changeset="163671013" uid="4018695" user="游뻟릖 Roman Horn칤k">
    <nd ref="36257792"/>
    <nd ref="1259591386"/>
    <tag k="cycleway:both" v="no"/>
    <tag k="highway" v="secondary"/>
    <tag k="lanes" v="2"/>
    <tag k="lanes:backward" v="1"/>
    <tag k="lanes:forward" v="1"/>
    <tag k="lit" v="yes"/>
    <tag k="maxspeed" v="50"/>
    <tag k="name" v="Kutnohorsk치"/>
    <tag k="official_ref" v="333"/>
    <tag k="ref" v="333"/>
    <tag k="sidewalk:both" v="separate"/>
    <tag k="smoothness" v="excellent"/>
    <tag k="source:maxspeed" v="CZ:urban"/>
    <tag k="source:ref" v="survey"/>
    <tag k="surface" v="asphalt"/>
  </way>
  <way id="1367998192" version="1" timestamp="2025-03-15T23:36:01Z" changeset="163671013" uid="4018695" user="游뻟릖 Roman Horn칤k">
    <nd ref="5122082249"/>
    <nd ref="3653308945"/>
    <tag k="cycleway:both" v="no"/>
    <tag k="highway" v="secondary"/>
    <tag k="lanes" v="2"/>
    <tag k="lanes:backward" v="1"/>
    <tag k="lanes:forward" v="1"/>
    <tag k="lit" v="yes"/>
    <tag k="maxspeed" v="50"/>
    <tag k="name" v="Kutnohorsk치"/>
    <tag k="official_ref" v="333"/>
    <tag k="ref" v="333"/>
    <tag k="source:maxspeed" v="CZ:urban"/>
    <tag k="source:ref" v="survey"/>
    <tag k="surface" v="asphalt"/>
  </way>
  <way id="1367998194" version="1" timestamp="2025-03-15T23:36:01Z" changeset="163671013" uid="4018695" user="游뻟릖 Roman Horn칤k">
    <nd ref="1259612123"/>
    <nd ref="7820155880"/>
    <nd ref="5122082249"/>
    <tag k="cycleway:both" v="no"/>
    <tag k="highway" v="secondary"/>
    <tag k="lanes" v="2"/>
    <tag k="lanes:backward" v="1"/>
    <tag k="lanes:forward" v="1"/>
    <tag k="lit" v="yes"/>
    <tag k="maxspeed" v="50"/>
    <tag k="name" v="Kutnohorsk치"/>
    <tag k="official_ref" v="333"/>
    <tag k="ref" v="333"/>
    <tag k="source:maxspeed" v="CZ:urban"/>
    <tag k="source:ref" v="survey"/>
    <tag k="surface" v="asphalt"/>
  </way>
  <way id="1368003067" version="1" timestamp="2025-03-16T00:21:43Z" changeset="163671705" uid="4018695" user="游뻟릖 Roman Horn칤k">
    <nd ref="6905108429"/>
    <nd ref="299799371"/>
    <nd ref="55495818"/>
    <nd ref="299799374"/>
    <nd ref="1259591399"/>
    <nd ref="55495821"/>
    <tag k="cycleway:both" v="no"/>
    <tag k="highway" v="secondary"/>
    <tag k="lanes" v="2"/>
    <tag k="lanes:backward" v="1"/>
    <tag k="lanes:forward" v="1"/>
    <tag k="lit" v="yes"/>
    <tag k="maxspeed" v="50"/>
    <tag k="name" v="Kutnohorsk치"/>
    <tag k="official_ref" v="333"/>
    <tag k="parking:both" v="no"/>
    <tag k="ref" v="333"/>
    <tag k="sidewalk:left" v="separate"/>
    <tag k="sidewalk:right" v="yes"/>
    <tag k="sidewalk:right:surface" v="paving_stones"/>
    <tag k="smoothness" v="excellent"/>
    <tag k="source:maxspeed" v="CZ:urban"/>
    <tag k="source:ref" v="survey"/>
    <tag k="surface" v="asphalt"/>
  </way>
  <way id="1368009341" version="2" timestamp="2025-04-18T19:00:08Z" changeset="165127071" uid="1160334" user="honzaa">
    <nd ref="5659304601"/>
    <nd ref="12766667214"/>
    <nd ref="355618672"/>
    <nd ref="3710169745"/>
    <nd ref="245553690"/>
    <tag k="cycleway:both" v="no"/>
    <tag k="highway" v="tertiary"/>
    <tag k="lanes" v="2"/>
    <tag k="lit" v="yes"/>
    <tag k="maxspeed" v="50"/>
    <tag k="maxspeed:type" v="sign"/>
    <tag k="name" v="Dolnom캩cholupsk치"/>
    <tag k="sidewalk:right" v="separate"/>
    <tag k="smoothness" v="good"/>
    <tag k="surface" v="asphalt"/>
  </way>
  <way id="1378722988" version="2" timestamp="2025-04-20T14:58:28Z" changeset="165198585" uid="474183" user="ratrun">
    <nd ref="245561407"/>
    <nd ref="1690788932"/>
    <nd ref="352781028"/>
    <nd ref="352781030"/>
    <nd ref="352781031"/>
    <nd ref="352781032"/>
    <nd ref="352781033"/>
    <nd ref="9120012314"/>
    <tag k="highway" v="residential"/>
    <tag k="lanes" v="1"/>
    <tag k="name" v="U Hostiva콏sk칠ho n치dra쮂"/>
    <tag k="sidewalk" v="no"/>
    <tag k="surface" v="asphalt"/>
  </way>

</osm>
