<?xml version="1.0" encoding="UTF-8"?>
<osm version="0.6" generator="Overpass API 0.7.62.5 1bd436f1">
<note>The data included in this document is from www.openstreetmap.org. The data is made available under ODbL.</note>
<meta osm_base="2025-03-25T16:18:55Z" areas="2025-02-06T02:17:44Z"/>

  <node id="5480052621" lat="52.1538199" lon="0.0110438" version="6" timestamp="2019-09-05T12:31:41Z" changeset="74131712" uid="3432400" user="GinaroZ">
    <tag k="addr:city" v="Cambridge"/>
    <tag k="addr:housenumber" v="1"/>
    <tag k="addr:postcode" v="CB23 1HB"/>
    <tag k="addr:street" v="Harlton Road"/>
    <tag k="addr:village" v="Little Eversden"/>
    <tag k="name" v="Cambridge Caravans"/>
    <tag k="shop" v="caravan"/>
    <tag k="website" v="https://www.cambridgecaravans.co.uk/"/>
  </node>
  <node id="5561588321" lat="52.1551972" lon="0.0080684" version="4" timestamp="2023-11-10T05:59:36Z" changeset="143848233" uid="9451067" user="b-jazz-bot">
    <tag k="addr:city" v="Cambridge"/>
    <tag k="addr:housenumber" v="33"/>
    <tag k="addr:postcode" v="CB23 1HB"/>
    <tag k="addr:street" v="Harlton Road"/>
    <tag k="addr:village" v="Little Eversden"/>
    <tag k="amenity" v="doctors"/>
    <tag k="name" v="Comberton &amp; Eversden Surgeries"/>
    <tag k="website" v="https://www.combertonandeversdensurgery.nhs.uk/"/>
  </node>
  <way id="4917168" version="7" timestamp="2023-12-29T13:23:37Z" changeset="145661248" uid="242345" user="confusedbuffalo">
    <nd ref="21076393"/>
    <nd ref="3465721421"/>
    <nd ref="5296679299"/>
    <nd ref="3931453627"/>
    <nd ref="32129189"/>
    <nd ref="3931453625"/>
    <nd ref="1827387875"/>
    <nd ref="32129187"/>
    <nd ref="1827387916"/>
    <nd ref="1827387976"/>
    <nd ref="1827387914"/>
    <nd ref="32129191"/>
    <nd ref="1827387913"/>
    <nd ref="1827387920"/>
    <nd ref="1827387955"/>
    <nd ref="32124209"/>
    <nd ref="1827387929"/>
    <nd ref="1827387898"/>
    <nd ref="1827387978"/>
    <nd ref="1827387917"/>
    <nd ref="32129291"/>
    <nd ref="1827387940"/>
    <nd ref="1827387965"/>
    <nd ref="32124151"/>
    <tag k="highway" v="tertiary"/>
    <tag k="lit" v="no"/>
    <tag k="name" v="Comberton Road"/>
    <tag k="source:ref" v="GPS survey"/>
    <tag k="surface" v="asphalt"/>
  </way>
  <way id="8113721" version="11" timestamp="2023-03-29T10:25:34Z" changeset="134256322" uid="742701" user="kerr smith">
    <nd ref="9586012932"/>
    <nd ref="3617886969"/>
    <nd ref="3617886939"/>
    <nd ref="4352942151"/>
    <nd ref="3617886947"/>
    <nd ref="10180903911"/>
    <nd ref="60850830"/>
    <nd ref="8236955403"/>
    <nd ref="60850831"/>
    <nd ref="3617886968"/>
    <nd ref="3617886944"/>
    <nd ref="3617886962"/>
    <nd ref="6569627212"/>
    <nd ref="60850833"/>
    <nd ref="3617886954"/>
    <nd ref="60850834"/>
    <nd ref="60850835"/>
    <nd ref="3617886948"/>
    <nd ref="60850836"/>
    <nd ref="732742521"/>
    <nd ref="3617886958"/>
    <nd ref="3617886940"/>
    <nd ref="60850837"/>
    <nd ref="3617886959"/>
    <nd ref="60850838"/>
    <nd ref="60850839"/>
    <nd ref="3660305313"/>
    <nd ref="60850840"/>
    <nd ref="60850841"/>
    <tag k="highway" v="residential"/>
    <tag k="maxspeed" v="30 mph"/>
    <tag k="name" v="High Street"/>
    <tag k="source:name" v="dictaphone"/>
  </way>
  <way id="8113722" version="3" timestamp="2018-08-25T18:33:19Z" changeset="61991757" uid="5173844" user="ndrw6">
    <nd ref="60850847"/>
    <nd ref="5857142377"/>
    <nd ref="5857142376"/>
    <nd ref="60850852"/>
    <nd ref="60850853"/>
    <nd ref="60850854"/>
    <nd ref="60850855"/>
    <tag k="highway" v="residential"/>
    <tag k="maxspeed" v="30 mph"/>
    <tag k="name" v="Lowfields"/>
    <tag k="source:name" v="dictaphone"/>
  </way>
  <way id="8113723" version="3" timestamp="2024-02-06T11:25:54Z" changeset="147130908" uid="742701" user="kerr smith">
    <nd ref="60850841"/>
    <nd ref="11591442843"/>
    <nd ref="60850856"/>
    <nd ref="11591442842"/>
    <nd ref="60850857"/>
    <nd ref="11591442716"/>
    <nd ref="11591442715"/>
    <nd ref="11591442714"/>
    <nd ref="11591442713"/>
    <nd ref="60850858"/>
    <tag k="highway" v="residential"/>
    <tag k="maxspeed" v="30 mph"/>
    <tag k="name" v="Leete's Lane"/>
    <tag k="source:name" v="dictaphone"/>
  </way>
  <way id="8113724" version="9" timestamp="2024-02-06T11:25:54Z" changeset="147130908" uid="742701" user="kerr smith">
    <nd ref="60850838"/>
    <nd ref="60850859"/>
    <nd ref="4031911614"/>
    <nd ref="11591439309"/>
    <nd ref="11591439312"/>
    <nd ref="4031893799"/>
    <nd ref="4031911623"/>
    <nd ref="1475124434"/>
    <tag k="highway" v="residential"/>
    <tag k="maxspeed" v="30 mph"/>
    <tag k="name" v="Church Lane"/>
    <tag k="source:name" v="dictaphone"/>
  </way>
  <way id="8113725" version="3" timestamp="2021-03-17T12:42:42Z" changeset="101189983" uid="10455643" user="kotamadh">
    <nd ref="60850834"/>
    <nd ref="60850862"/>
    <nd ref="60850863"/>
    <nd ref="60850864"/>
    <nd ref="60850865"/>
    <nd ref="8528386417"/>
    <nd ref="60850867"/>
    <nd ref="8528386427"/>
    <nd ref="60850868"/>
    <nd ref="60850869"/>
    <nd ref="60850870"/>
    <nd ref="60850871"/>
    <tag k="highway" v="residential"/>
    <tag k="maxspeed" v="30 mph"/>
    <tag k="name" v="Finch's Field"/>
    <tag k="source:name" v="dictaphone"/>
  </way>
  <way id="8113726" version="2" timestamp="2022-03-17T17:29:24Z" changeset="118604536" uid="5173844" user="ndrw6">
    <nd ref="60850864"/>
    <nd ref="9586012882"/>
    <nd ref="9586012876"/>
    <nd ref="60850872"/>
    <tag k="highway" v="residential"/>
    <tag k="name" v="Finch's Field"/>
    <tag k="source:name" v="dictaphone"/>
  </way>
  <way id="8113727" version="3" timestamp="2018-08-25T18:33:19Z" changeset="61991757" uid="5173844" user="ndrw6">
    <nd ref="60850831"/>
    <nd ref="5857143834"/>
    <nd ref="5857143833"/>
    <nd ref="60850874"/>
    <nd ref="60850875"/>
    <tag k="highway" v="residential"/>
    <tag k="maxspeed" v="30 mph"/>
    <tag k="name" v="Wheeler's Way"/>
    <tag k="source:name" v="dictaphone"/>
  </way>
  <way id="8113728" version="4" timestamp="2020-12-17T09:28:10Z" changeset="95992921" uid="1287673" user="sloerunner">
    <nd ref="60850874"/>
    <nd ref="8236955405"/>
    <nd ref="60850876"/>
    <nd ref="5857143832"/>
    <nd ref="60850877"/>
    <nd ref="60850878"/>
    <tag k="highway" v="residential"/>
    <tag k="maxspeed" v="30 mph"/>
    <tag k="name" v="Wheeler's Close"/>
    <tag k="source:name" v="dictaphone"/>
  </way>
  <way id="8113730" version="4" timestamp="2017-12-21T03:25:49Z" changeset="54802718" uid="5173844" user="ndrw6">
    <nd ref="5276276"/>
    <nd ref="60850892"/>
    <nd ref="60850893"/>
    <nd ref="60850894"/>
    <nd ref="60850895"/>
    <nd ref="60850896"/>
    <nd ref="731820033"/>
    <nd ref="60850897"/>
    <nd ref="60850898"/>
    <nd ref="5296734790"/>
    <nd ref="5296734788"/>
    <nd ref="5296734785"/>
    <nd ref="5296734781"/>
    <nd ref="60850899"/>
    <tag k="highway" v="residential"/>
    <tag k="maxspeed" v="30 mph"/>
    <tag k="name" v="Buck's Lane"/>
    <tag k="source:name" v="dictaphone"/>
  </way>
  <way id="8113872" version="4" timestamp="2021-03-30T11:08:43Z" changeset="101979808" uid="12558789" user="Tim457">
    <nd ref="5276266"/>
    <nd ref="6029985793"/>
    <nd ref="60851361"/>
    <tag k="cycleway:both" v="no"/>
    <tag k="highway" v="tertiary"/>
    <tag k="name" v="Harlton Road"/>
    <tag k="source:name" v="dictaphone"/>
    <tag k="surface" v="asphalt"/>
  </way>
  <way id="8113906" version="7" timestamp="2023-12-31T14:26:26Z" changeset="145735455" uid="742701" user="kerr smith">
    <nd ref="60851463"/>
    <nd ref="32124149"/>
    <tag k="bridge" v="yes"/>
    <tag k="bridge:name" v="Fox's Bridge"/>
    <tag k="cycleway:both" v="no"/>
    <tag k="highway" v="tertiary"/>
    <tag k="layer" v="1"/>
    <tag k="name" v="Royston Lane"/>
    <tag k="source" v="GPS survey"/>
    <tag k="surface" v="asphalt"/>
  </way>
  <way id="8113907" version="6" timestamp="2021-03-30T11:10:29Z" changeset="101980016" uid="12558789" user="Tim457">
    <nd ref="32124151"/>
    <nd ref="32129542"/>
    <tag k="bridge" v="yes"/>
    <tag k="cycleway:both" v="no"/>
    <tag k="highway" v="tertiary"/>
    <tag k="layer" v="1"/>
    <tag k="name" v="Comberton Road"/>
    <tag k="source:ref" v="GPS survey"/>
    <tag k="surface" v="asphalt"/>
  </way>
  <way id="8113908" version="9" timestamp="2023-04-07T14:13:42Z" changeset="134618351" uid="742701" user="kerr smith">
    <nd ref="32129542"/>
    <nd ref="1827387946"/>
    <nd ref="1827387951"/>
    <nd ref="1827387925"/>
    <nd ref="1827387908"/>
    <nd ref="8680320830"/>
    <nd ref="1827387864"/>
    <nd ref="739592789"/>
    <nd ref="8680320842"/>
    <nd ref="3931453624"/>
    <nd ref="60851463"/>
    <tag k="highway" v="tertiary"/>
    <tag k="lanes" v="2"/>
    <tag k="name" v="Royston Lane"/>
    <tag k="source" v="GPS survey"/>
    <tag k="surface" v="asphalt"/>
  </way>
  <way id="8113912" version="5" timestamp="2021-04-28T20:54:18Z" changeset="103801152" uid="742701" user="kerr smith">
    <nd ref="60850841"/>
    <nd ref="60850842"/>
    <nd ref="60850843"/>
    <nd ref="60850844"/>
    <nd ref="60850845"/>
    <nd ref="60850846"/>
    <nd ref="5857142378"/>
    <nd ref="60850847"/>
    <nd ref="8677665922"/>
    <nd ref="5857142379"/>
    <nd ref="60850848"/>
    <nd ref="60850850"/>
    <nd ref="60850851"/>
    <tag k="highway" v="residential"/>
    <tag k="maxspeed" v="30 mph"/>
    <tag k="name" v="Lowfields"/>
    <tag k="source:name" v="dictaphone"/>
  </way>
  <way id="8113914" version="13" timestamp="2022-03-17T17:29:24Z" changeset="118604536" uid="5173844" user="ndrw6">
    <nd ref="60851361"/>
    <nd ref="5563113074"/>
    <nd ref="5276267"/>
    <nd ref="5563113087"/>
    <nd ref="60850827"/>
    <nd ref="2279758399"/>
    <nd ref="60850828"/>
    <nd ref="5296734990"/>
    <nd ref="5276269"/>
    <nd ref="2699907544"/>
    <nd ref="5276270"/>
    <nd ref="9586012932"/>
    <nd ref="3617886949"/>
    <nd ref="2701252572"/>
    <nd ref="5296735354"/>
    <nd ref="5276272"/>
    <nd ref="4352942155"/>
    <nd ref="25695411"/>
    <nd ref="6580245250"/>
    <nd ref="25695412"/>
    <nd ref="9586012772"/>
    <nd ref="5276275"/>
    <nd ref="260378245"/>
    <tag k="abutters" v="residential"/>
    <tag k="highway" v="tertiary"/>
    <tag k="maxspeed" v="30 mph"/>
    <tag k="name" v="Harlton Road"/>
    <tag k="source:name" v="dictaphone"/>
  </way>
  <way id="254937939" version="3" timestamp="2017-05-08T12:23:52Z" changeset="48500556" uid="493595" user="Yorvik Prestigitator">
    <nd ref="260378245"/>
    <nd ref="60850887"/>
    <nd ref="5276276"/>
    <nd ref="4841599462"/>
    <nd ref="5276277"/>
    <nd ref="2701252568"/>
    <nd ref="2701252578"/>
    <nd ref="60850888"/>
    <tag k="abutters" v="residential"/>
    <tag k="highway" v="tertiary"/>
    <tag k="maxspeed" v="30 mph"/>
    <tag k="name" v="Harlton Road"/>
    <tag k="source:name" v="dictaphone"/>
  </way>
  <way id="264300938" version="1" timestamp="2014-03-03T13:45:44Z" changeset="20888753" uid="2020" user="comsomol">
    <nd ref="2699907543"/>
    <nd ref="2699907545"/>
    <tag k="highway" v="residential"/>
    <tag k="name" v="Low Close"/>
    <tag k="source" v="Bing"/>
  </way>
  <way id="264300939" version="1" timestamp="2014-03-03T13:45:45Z" changeset="20888753" uid="2020" user="comsomol">
    <nd ref="2699907544"/>
    <nd ref="2699907543"/>
    <nd ref="2699907546"/>
    <tag k="highway" v="residential"/>
    <tag k="name" v="Low Close"/>
    <tag k="source" v="Bing"/>
    <tag k="source:name" v="local knowledge"/>
  </way>
  <way id="356330852" version="1" timestamp="2015-06-25T16:36:57Z" changeset="32209014" uid="607399" user="ehm1806">
    <nd ref="3617886937"/>
    <nd ref="3617886945"/>
    <nd ref="3617886942"/>
    <nd ref="3617886973"/>
    <nd ref="3617886937"/>
    <tag k="addr:housename" v="Church Barn"/>
    <tag k="addr:housenumber" v="15"/>
    <tag k="addr:postcode" v="CB23 1HQ"/>
    <tag k="addr:street" v="Church Lane"/>
    <tag k="building" v="residential"/>
  </way>
  <way id="548260648" version="3" timestamp="2019-02-04T10:44:24Z" changeset="66899076" uid="5173844" user="ndrw6">
    <nd ref="5296696985"/>
    <nd ref="5296696986"/>
    <nd ref="5296696987"/>
    <nd ref="5296696988"/>
    <nd ref="5296696985"/>
    <tag k="addr:city" v="Cambridge"/>
    <tag k="addr:housenumber" v="1"/>
    <tag k="addr:postcode" v="CB23 1HB"/>
    <tag k="addr:street" v="Harlton Road"/>
    <tag k="addr:village" v="Little Eversden"/>
    <tag k="building" v="commercial"/>
  </way>
  <way id="548264898" version="2" timestamp="2021-06-10T19:26:19Z" changeset="106174418" uid="10633286" user="Moorit">
    <nd ref="5296734760"/>
    <nd ref="5296734761"/>
    <nd ref="5296734762"/>
    <nd ref="5296734763"/>
    <nd ref="5296734764"/>
    <nd ref="5296734765"/>
    <nd ref="5296734766"/>
    <nd ref="5296734767"/>
    <nd ref="5296734760"/>
    <tag k="addr:housenumber" v="2"/>
    <tag k="addr:street" v="Buck's Lane"/>
    <tag k="building" v="yes"/>
  </way>
  <way id="548264912" version="3" timestamp="2019-02-04T10:44:25Z" changeset="66899076" uid="5173844" user="ndrw6">
    <nd ref="5296734814"/>
    <nd ref="5296734815"/>
    <nd ref="5296734816"/>
    <nd ref="5296734817"/>
    <nd ref="5296734814"/>
    <tag k="addr:city" v="Cambridge"/>
    <tag k="addr:housenumber" v="1"/>
    <tag k="addr:postcode" v="CB23 1AA"/>
    <tag k="addr:street" v="Low Close"/>
    <tag k="addr:village" v="Little Eversden"/>
    <tag k="building" v="house"/>
  </way>
  <way id="548264913" version="4" timestamp="2019-02-04T10:44:25Z" changeset="66899076" uid="5173844" user="ndrw6">
    <nd ref="5296734818"/>
    <nd ref="5296734819"/>
    <nd ref="5296734820"/>
    <nd ref="5296734921"/>
    <nd ref="5296734818"/>
    <tag k="addr:city" v="Cambridge"/>
    <tag k="addr:housenumber" v="2"/>
    <tag k="addr:postcode" v="CB23 1AA"/>
    <tag k="addr:street" v="Low Close"/>
    <tag k="addr:village" v="Little Eversden"/>
    <tag k="building" v="house"/>
  </way>
  <way id="548264917" version="4" timestamp="2019-02-04T10:44:25Z" changeset="66899076" uid="5173844" user="ndrw6">
    <nd ref="5296734936"/>
    <nd ref="5296734937"/>
    <nd ref="5296734938"/>
    <nd ref="5296734939"/>
    <nd ref="5296734940"/>
    <nd ref="5296734941"/>
    <nd ref="5296734942"/>
    <nd ref="5296734943"/>
    <nd ref="5296734944"/>
    <nd ref="5296734945"/>
    <nd ref="5296734936"/>
    <tag k="addr:city" v="Cambridge"/>
    <tag k="addr:housenumber" v="47"/>
    <tag k="addr:postcode" v="CB23 1HB"/>
    <tag k="addr:street" v="Harlton Road"/>
    <tag k="addr:village" v="Little Eversden"/>
    <tag k="building" v="house"/>
  </way>
  <way id="548264918" version="4" timestamp="2019-02-04T10:44:25Z" changeset="66899076" uid="5173844" user="ndrw6">
    <nd ref="5296734946"/>
    <nd ref="5296734947"/>
    <nd ref="5296734948"/>
    <nd ref="5296734949"/>
    <nd ref="5296734946"/>
    <tag k="addr:city" v="Cambridge"/>
    <tag k="addr:housenumber" v="45"/>
    <tag k="addr:postcode" v="CB23 1HB"/>
    <tag k="addr:street" v="Harlton Road"/>
    <tag k="addr:village" v="Little Eversden"/>
    <tag k="building" v="house"/>
  </way>
  <way id="548264919" version="4" timestamp="2019-02-04T10:44:25Z" changeset="66899076" uid="5173844" user="ndrw6">
    <nd ref="5296734950"/>
    <nd ref="5296734951"/>
    <nd ref="5296734952"/>
    <nd ref="5296734953"/>
    <nd ref="5296734950"/>
    <tag k="addr:city" v="Cambridge"/>
    <tag k="addr:housenumber" v="43"/>
    <tag k="addr:postcode" v="CB23 1HB"/>
    <tag k="addr:street" v="Harlton Road"/>
    <tag k="addr:village" v="Little Eversden"/>
    <tag k="building" v="house"/>
  </way>
  <way id="548264921" version="4" timestamp="2019-02-04T10:44:26Z" changeset="66899076" uid="5173844" user="ndrw6">
    <nd ref="5296734962"/>
    <nd ref="5296734963"/>
    <nd ref="5296734964"/>
    <nd ref="5296734965"/>
    <nd ref="5296734966"/>
    <nd ref="5296734967"/>
    <nd ref="5296734968"/>
    <nd ref="5296734969"/>
    <nd ref="5296734962"/>
    <tag k="addr:city" v="Cambridge"/>
    <tag k="addr:housenumber" v="41"/>
    <tag k="addr:postcode" v="CB23 1HB"/>
    <tag k="addr:street" v="Harlton Road"/>
    <tag k="addr:village" v="Little Eversden"/>
    <tag k="building" v="house"/>
  </way>
  <way id="548264922" version="4" timestamp="2019-02-04T10:44:26Z" changeset="66899076" uid="5173844" user="ndrw6">
    <nd ref="5296734970"/>
    <nd ref="5296734971"/>
    <nd ref="5296734972"/>
    <nd ref="5296734973"/>
    <nd ref="5296734974"/>
    <nd ref="5296734975"/>
    <nd ref="5296734970"/>
    <tag k="addr:city" v="Cambridge"/>
    <tag k="addr:housenumber" v="39"/>
    <tag k="addr:postcode" v="CB23 1HB"/>
    <tag k="addr:street" v="Harlton Road"/>
    <tag k="addr:village" v="Little Eversden"/>
    <tag k="building" v="house"/>
  </way>
  <way id="548264923" version="3" timestamp="2019-02-04T10:44:26Z" changeset="66899076" uid="5173844" user="ndrw6">
    <nd ref="5296734976"/>
    <nd ref="5296734977"/>
    <nd ref="5296734978"/>
    <nd ref="5296734979"/>
    <nd ref="5296734980"/>
    <nd ref="5563113423"/>
    <nd ref="5296734981"/>
    <nd ref="5563113424"/>
    <nd ref="5296734976"/>
    <tag k="addr:city" v="Cambridge"/>
    <tag k="addr:housenumber" v="52"/>
    <tag k="addr:postcode" v="CB23 1HB"/>
    <tag k="addr:street" v="Harlton Road"/>
    <tag k="addr:village" v="Little Eversden"/>
    <tag k="building" v="house"/>
  </way>
  <way id="548264924" version="4" timestamp="2019-02-04T10:44:26Z" changeset="66899076" uid="5173844" user="ndrw6">
    <nd ref="5296734982"/>
    <nd ref="5296734983"/>
    <nd ref="5296734984"/>
    <nd ref="5296734985"/>
    <nd ref="5296734982"/>
    <tag k="addr:city" v="Cambridge"/>
    <tag k="addr:housenumber" v="50"/>
    <tag k="addr:postcode" v="CB23 1HB"/>
    <tag k="addr:street" v="Harlton Road"/>
    <tag k="addr:village" v="Little Eversden"/>
    <tag k="building" v="house"/>
  </way>
  <way id="548264925" version="4" timestamp="2019-02-04T10:44:26Z" changeset="66899076" uid="5173844" user="ndrw6">
    <nd ref="5296734986"/>
    <nd ref="5296734987"/>
    <nd ref="5296734988"/>
    <nd ref="5296734989"/>
    <nd ref="5296734986"/>
    <tag k="addr:city" v="Cambridge"/>
    <tag k="addr:housenumber" v="48"/>
    <tag k="addr:postcode" v="CB23 1HB"/>
    <tag k="addr:street" v="Harlton Road"/>
    <tag k="addr:village" v="Little Eversden"/>
    <tag k="building" v="house"/>
  </way>
  <way id="548264928" version="4" timestamp="2019-02-04T10:44:26Z" changeset="66899076" uid="5173844" user="ndrw6">
    <nd ref="5296734999"/>
    <nd ref="5296735000"/>
    <nd ref="5296735001"/>
    <nd ref="5296735002"/>
    <nd ref="5296734999"/>
    <tag k="addr:city" v="Cambridge"/>
    <tag k="addr:housenumber" v="46"/>
    <tag k="addr:postcode" v="CB23 1HB"/>
    <tag k="addr:street" v="Harlton Road"/>
    <tag k="addr:village" v="Little Eversden"/>
    <tag k="building" v="house"/>
  </way>
  <way id="548264929" version="4" timestamp="2019-02-04T10:44:26Z" changeset="66899076" uid="5173844" user="ndrw6">
    <nd ref="5296735003"/>
    <nd ref="5296735004"/>
    <nd ref="5296735005"/>
    <nd ref="5296735006"/>
    <nd ref="5296735003"/>
    <tag k="addr:city" v="Cambridge"/>
    <tag k="addr:housenumber" v="42"/>
    <tag k="addr:postcode" v="CB23 1HB"/>
    <tag k="addr:street" v="Harlton Road"/>
    <tag k="addr:village" v="Little Eversden"/>
    <tag k="building" v="house"/>
  </way>
  <way id="548264930" version="4" timestamp="2019-02-04T10:44:26Z" changeset="66899076" uid="5173844" user="ndrw6">
    <nd ref="5296735007"/>
    <nd ref="5296735008"/>
    <nd ref="5296735009"/>
    <nd ref="5296735010"/>
    <nd ref="5296735007"/>
    <tag k="addr:city" v="Cambridge"/>
    <tag k="addr:housenumber" v="36"/>
    <tag k="addr:postcode" v="CB23 1HB"/>
    <tag k="addr:street" v="Harlton Road"/>
    <tag k="addr:village" v="Little Eversden"/>
    <tag k="building" v="house"/>
  </way>
  <way id="548264931" version="4" timestamp="2019-02-04T10:44:27Z" changeset="66899076" uid="5173844" user="ndrw6">
    <nd ref="5296735011"/>
    <nd ref="5296735012"/>
    <nd ref="5296735013"/>
    <nd ref="5296735014"/>
    <nd ref="5296735011"/>
    <tag k="addr:city" v="Cambridge"/>
    <tag k="addr:housenumber" v="32"/>
    <tag k="addr:postcode" v="CB23 1HB"/>
    <tag k="addr:street" v="Harlton Road"/>
    <tag k="addr:village" v="Little Eversden"/>
    <tag k="building" v="house"/>
  </way>
  <way id="548264932" version="4" timestamp="2019-02-04T10:44:27Z" changeset="66899076" uid="5173844" user="ndrw6">
    <nd ref="5296735015"/>
    <nd ref="5296735016"/>
    <nd ref="5296735017"/>
    <nd ref="5296735018"/>
    <nd ref="5296735015"/>
    <tag k="addr:city" v="Cambridge"/>
    <tag k="addr:housenumber" v="28"/>
    <tag k="addr:postcode" v="CB23 1HB"/>
    <tag k="addr:street" v="Harlton Road"/>
    <tag k="addr:village" v="Little Eversden"/>
    <tag k="building" v="house"/>
  </way>
  <way id="548264934" version="4" timestamp="2019-02-04T10:44:27Z" changeset="66899076" uid="5173844" user="ndrw6">
    <nd ref="5296735123"/>
    <nd ref="5296735124"/>
    <nd ref="5296735125"/>
    <nd ref="5296735126"/>
    <nd ref="5296735123"/>
    <tag k="addr:city" v="Cambridge"/>
    <tag k="addr:housenumber" v="22"/>
    <tag k="addr:postcode" v="CB23 1HB"/>
    <tag k="addr:street" v="Harlton Road"/>
    <tag k="addr:village" v="Little Eversden"/>
    <tag k="building" v="house"/>
  </way>
  <way id="548264935" version="3" timestamp="2019-02-04T10:44:27Z" changeset="66899076" uid="5173844" user="ndrw6">
    <nd ref="5296735127"/>
    <nd ref="5563113442"/>
    <nd ref="5296735128"/>
    <nd ref="5296735129"/>
    <nd ref="5296735130"/>
    <nd ref="5563113441"/>
    <nd ref="5296735127"/>
    <tag k="addr:city" v="Cambridge"/>
    <tag k="addr:housenumber" v="20"/>
    <tag k="addr:postcode" v="CB23 1HB"/>
    <tag k="addr:street" v="Harlton Road"/>
    <tag k="addr:village" v="Little Eversden"/>
    <tag k="building" v="house"/>
  </way>
  <way id="548264936" version="3" timestamp="2019-02-04T10:44:27Z" changeset="66899076" uid="5173844" user="ndrw6">
    <nd ref="5296735131"/>
    <nd ref="5296735132"/>
    <nd ref="5296735133"/>
    <nd ref="5296735134"/>
    <nd ref="5296735131"/>
    <tag k="addr:city" v="Cambridge"/>
    <tag k="addr:housenumber" v="16"/>
    <tag k="addr:postcode" v="CB23 1HB"/>
    <tag k="addr:street" v="Harlton Road"/>
    <tag k="addr:village" v="Little Eversden"/>
    <tag k="building" v="house"/>
  </way>
  <way id="548264937" version="4" timestamp="2019-02-04T10:44:27Z" changeset="66899076" uid="5173844" user="ndrw6">
    <nd ref="5296735135"/>
    <nd ref="5296735136"/>
    <nd ref="5296735137"/>
    <nd ref="5296735138"/>
    <nd ref="5296735135"/>
    <tag k="addr:city" v="Cambridge"/>
    <tag k="addr:housenumber" v="14"/>
    <tag k="addr:postcode" v="CB23 1HB"/>
    <tag k="addr:street" v="Harlton Road"/>
    <tag k="addr:village" v="Little Eversden"/>
    <tag k="building" v="house"/>
  </way>
  <way id="548264938" version="4" timestamp="2019-02-04T10:44:27Z" changeset="66899076" uid="5173844" user="ndrw6">
    <nd ref="5296735139"/>
    <nd ref="5296735140"/>
    <nd ref="5296735141"/>
    <nd ref="5296735142"/>
    <nd ref="5296735143"/>
    <nd ref="5296735144"/>
    <nd ref="5296735139"/>
    <tag k="addr:city" v="Cambridge"/>
    <tag k="addr:housenumber" v="12"/>
    <tag k="addr:postcode" v="CB23 1HB"/>
    <tag k="addr:street" v="Harlton Road"/>
    <tag k="addr:village" v="Little Eversden"/>
    <tag k="building" v="house"/>
  </way>
  <way id="548264939" version="4" timestamp="2019-02-04T10:44:27Z" changeset="66899076" uid="5173844" user="ndrw6">
    <nd ref="5296735145"/>
    <nd ref="5296735146"/>
    <nd ref="5296735147"/>
    <nd ref="5296735148"/>
    <nd ref="5296735149"/>
    <nd ref="5296735150"/>
    <nd ref="5296735145"/>
    <tag k="addr:city" v="Cambridge"/>
    <tag k="addr:housenumber" v="10"/>
    <tag k="addr:postcode" v="CB23 1HB"/>
    <tag k="addr:street" v="Harlton Road"/>
    <tag k="addr:village" v="Little Eversden"/>
    <tag k="building" v="house"/>
  </way>
  <way id="548264942" version="4" timestamp="2019-02-04T10:44:28Z" changeset="66899076" uid="5173844" user="ndrw6">
    <nd ref="5296735159"/>
    <nd ref="5296735160"/>
    <nd ref="5296735161"/>
    <nd ref="5296735162"/>
    <nd ref="5296735159"/>
    <tag k="addr:city" v="Cambridge"/>
    <tag k="addr:housenumber" v="8"/>
    <tag k="addr:postcode" v="CB23 1HB"/>
    <tag k="addr:street" v="Harlton Road"/>
    <tag k="addr:village" v="Little Eversden"/>
    <tag k="building" v="house"/>
  </way>
  <way id="548264943" version="4" timestamp="2019-02-04T10:44:28Z" changeset="66899076" uid="5173844" user="ndrw6">
    <nd ref="5296735163"/>
    <nd ref="5296735164"/>
    <nd ref="5296735165"/>
    <nd ref="5296735166"/>
    <nd ref="5296735163"/>
    <tag k="addr:city" v="Cambridge"/>
    <tag k="addr:housenumber" v="6"/>
    <tag k="addr:postcode" v="CB23 1HB"/>
    <tag k="addr:street" v="Harlton Road"/>
    <tag k="addr:village" v="Little Eversden"/>
    <tag k="building" v="house"/>
  </way>
  <way id="548264944" version="4" timestamp="2019-02-04T10:44:28Z" changeset="66899076" uid="5173844" user="ndrw6">
    <nd ref="5296735167"/>
    <nd ref="5296735168"/>
    <nd ref="5296735169"/>
    <nd ref="5296735170"/>
    <nd ref="5296735167"/>
    <tag k="addr:city" v="Cambridge"/>
    <tag k="addr:housenumber" v="4"/>
    <tag k="addr:postcode" v="CB23 1HB"/>
    <tag k="addr:street" v="Harlton Road"/>
    <tag k="addr:village" v="Little Eversden"/>
    <tag k="building" v="house"/>
  </way>
  <way id="548264945" version="4" timestamp="2019-02-04T10:44:28Z" changeset="66899076" uid="5173844" user="ndrw6">
    <nd ref="5296735171"/>
    <nd ref="5296735172"/>
    <nd ref="5296735173"/>
    <nd ref="5296735174"/>
    <nd ref="5296735175"/>
    <nd ref="5296735176"/>
    <nd ref="5296735177"/>
    <nd ref="5296735178"/>
    <nd ref="5296735171"/>
    <tag k="addr:city" v="Cambridge"/>
    <tag k="addr:housenumber" v="2"/>
    <tag k="addr:postcode" v="CB23 1HB"/>
    <tag k="addr:street" v="Harlton Road"/>
    <tag k="addr:village" v="Little Eversden"/>
    <tag k="building" v="house"/>
  </way>
  <way id="548264946" version="4" timestamp="2019-02-04T10:44:28Z" changeset="66899076" uid="5173844" user="ndrw6">
    <nd ref="5296735179"/>
    <nd ref="5296735180"/>
    <nd ref="5296735181"/>
    <nd ref="5296735182"/>
    <nd ref="5296735179"/>
    <tag k="addr:city" v="Cambridge"/>
    <tag k="addr:housenumber" v="3"/>
    <tag k="addr:postcode" v="CB23 1HB"/>
    <tag k="addr:street" v="Harlton Road"/>
    <tag k="addr:village" v="Little Eversden"/>
    <tag k="building" v="house"/>
  </way>
  <way id="548264947" version="4" timestamp="2019-02-04T10:44:28Z" changeset="66899076" uid="5173844" user="ndrw6">
    <nd ref="5296735183"/>
    <nd ref="5296735184"/>
    <nd ref="5296735185"/>
    <nd ref="5296735186"/>
    <nd ref="5296735183"/>
    <tag k="addr:city" v="Cambridge"/>
    <tag k="addr:housenumber" v="5"/>
    <tag k="addr:postcode" v="CB23 1HB"/>
    <tag k="addr:street" v="Harlton Road"/>
    <tag k="addr:village" v="Little Eversden"/>
    <tag k="building" v="house"/>
  </way>
  <way id="548264948" version="3" timestamp="2019-02-04T10:44:28Z" changeset="66899076" uid="5173844" user="ndrw6">
    <nd ref="5296735187"/>
    <nd ref="5296735188"/>
    <nd ref="5296735189"/>
    <nd ref="5296735190"/>
    <nd ref="5296735187"/>
    <tag k="addr:city" v="Cambridge"/>
    <tag k="addr:housenumber" v="9"/>
    <tag k="addr:postcode" v="CB23 1HB"/>
    <tag k="addr:street" v="Harlton Road"/>
    <tag k="addr:village" v="Little Eversden"/>
    <tag k="building" v="house"/>
  </way>
  <way id="548264949" version="4" timestamp="2019-02-04T10:44:28Z" changeset="66899076" uid="5173844" user="ndrw6">
    <nd ref="5296735191"/>
    <nd ref="5296735192"/>
    <nd ref="5296735193"/>
    <nd ref="5296735194"/>
    <nd ref="5296735191"/>
    <tag k="addr:city" v="Cambridge"/>
    <tag k="addr:housenumber" v="11"/>
    <tag k="addr:postcode" v="CB23 1HB"/>
    <tag k="addr:street" v="Harlton Road"/>
    <tag k="addr:village" v="Little Eversden"/>
    <tag k="building" v="house"/>
  </way>
  <way id="548264950" version="4" timestamp="2019-02-04T10:44:29Z" changeset="66899076" uid="5173844" user="ndrw6">
    <nd ref="5296735195"/>
    <nd ref="5296735196"/>
    <nd ref="5296735197"/>
    <nd ref="5296735198"/>
    <nd ref="5296735195"/>
    <tag k="addr:city" v="Cambridge"/>
    <tag k="addr:housenumber" v="15"/>
    <tag k="addr:postcode" v="CB23 1HB"/>
    <tag k="addr:street" v="Harlton Road"/>
    <tag k="addr:village" v="Little Eversden"/>
    <tag k="building" v="house"/>
  </way>
  <way id="548264951" version="4" timestamp="2019-02-04T10:44:29Z" changeset="66899076" uid="5173844" user="ndrw6">
    <nd ref="5296735199"/>
    <nd ref="5296735200"/>
    <nd ref="5296735201"/>
    <nd ref="5296735202"/>
    <nd ref="5296735199"/>
    <tag k="addr:city" v="Cambridge"/>
    <tag k="addr:housenumber" v="17"/>
    <tag k="addr:postcode" v="CB23 1HB"/>
    <tag k="addr:street" v="Harlton Road"/>
    <tag k="addr:village" v="Little Eversden"/>
    <tag k="building" v="house"/>
  </way>
  <way id="548264952" version="4" timestamp="2019-02-04T10:44:29Z" changeset="66899076" uid="5173844" user="ndrw6">
    <nd ref="5296735203"/>
    <nd ref="5296735204"/>
    <nd ref="5296735205"/>
    <nd ref="5296735206"/>
    <nd ref="5296735203"/>
    <tag k="addr:city" v="Cambridge"/>
    <tag k="addr:housenumber" v="19"/>
    <tag k="addr:postcode" v="CB23 1HB"/>
    <tag k="addr:street" v="Harlton Road"/>
    <tag k="addr:village" v="Little Eversden"/>
    <tag k="building" v="house"/>
  </way>
  <way id="548264953" version="4" timestamp="2019-02-04T10:44:29Z" changeset="66899076" uid="5173844" user="ndrw6">
    <nd ref="5296735207"/>
    <nd ref="5296735208"/>
    <nd ref="5296735209"/>
    <nd ref="5296735210"/>
    <nd ref="5296735207"/>
    <tag k="addr:city" v="Cambridge"/>
    <tag k="addr:housenumber" v="21"/>
    <tag k="addr:postcode" v="CB23 1HB"/>
    <tag k="addr:street" v="Harlton Road"/>
    <tag k="addr:village" v="Little Eversden"/>
    <tag k="building" v="house"/>
  </way>
  <way id="548264954" version="4" timestamp="2019-02-04T10:44:29Z" changeset="66899076" uid="5173844" user="ndrw6">
    <nd ref="5296735211"/>
    <nd ref="5296735212"/>
    <nd ref="5296735213"/>
    <nd ref="5296735214"/>
    <nd ref="5296735211"/>
    <tag k="addr:city" v="Cambridge"/>
    <tag k="addr:housenumber" v="23"/>
    <tag k="addr:postcode" v="CB23 1HB"/>
    <tag k="addr:street" v="Harlton Road"/>
    <tag k="addr:village" v="Little Eversden"/>
    <tag k="building" v="house"/>
  </way>
  <way id="548264955" version="4" timestamp="2019-02-04T10:44:29Z" changeset="66899076" uid="5173844" user="ndrw6">
    <nd ref="5296735215"/>
    <nd ref="5296735216"/>
    <nd ref="5296735217"/>
    <nd ref="5296735218"/>
    <nd ref="5296735215"/>
    <tag k="addr:city" v="Cambridge"/>
    <tag k="addr:housenumber" v="25"/>
    <tag k="addr:postcode" v="CB23 1HB"/>
    <tag k="addr:street" v="Harlton Road"/>
    <tag k="addr:village" v="Little Eversden"/>
    <tag k="building" v="house"/>
  </way>
  <way id="548264956" version="4" timestamp="2019-02-04T10:44:29Z" changeset="66899076" uid="5173844" user="ndrw6">
    <nd ref="5296735219"/>
    <nd ref="5296735220"/>
    <nd ref="5296735321"/>
    <nd ref="5296735322"/>
    <nd ref="5296735219"/>
    <tag k="addr:city" v="Cambridge"/>
    <tag k="addr:housenumber" v="29"/>
    <tag k="addr:postcode" v="CB23 1HB"/>
    <tag k="addr:street" v="Harlton Road"/>
    <tag k="addr:village" v="Little Eversden"/>
    <tag k="building" v="house"/>
  </way>
  <way id="548264957" version="4" timestamp="2019-02-04T10:44:29Z" changeset="66899076" uid="5173844" user="ndrw6">
    <nd ref="5296735323"/>
    <nd ref="5296735324"/>
    <nd ref="5296735325"/>
    <nd ref="5296735326"/>
    <nd ref="5296735327"/>
    <nd ref="5296735328"/>
    <nd ref="5296735323"/>
    <tag k="addr:city" v="Cambridge"/>
    <tag k="addr:housenumber" v="31"/>
    <tag k="addr:postcode" v="CB23 1HB"/>
    <tag k="addr:street" v="Harlton Road"/>
    <tag k="addr:village" v="Little Eversden"/>
    <tag k="building" v="house"/>
  </way>
  <way id="548264958" version="4" timestamp="2019-02-04T10:44:30Z" changeset="66899076" uid="5173844" user="ndrw6">
    <nd ref="5296735329"/>
    <nd ref="5296735330"/>
    <nd ref="5296735331"/>
    <nd ref="5563113084"/>
    <nd ref="5563113086"/>
    <nd ref="5563113085"/>
    <nd ref="5563113083"/>
    <nd ref="5296735332"/>
    <nd ref="5296735329"/>
    <tag k="addr:city" v="Cambridge"/>
    <tag k="addr:housenumber" v="33"/>
    <tag k="addr:postcode" v="CB23 1HB"/>
    <tag k="addr:street" v="Harlton Road"/>
    <tag k="addr:village" v="Little Eversden"/>
    <tag k="building" v="commercial"/>
  </way>
  <way id="548264959" version="4" timestamp="2019-02-04T10:44:30Z" changeset="66899076" uid="5173844" user="ndrw6">
    <nd ref="5296735333"/>
    <nd ref="5296735334"/>
    <nd ref="5296735335"/>
    <nd ref="5296735336"/>
    <nd ref="5296735333"/>
    <tag k="addr:city" v="Cambridge"/>
    <tag k="addr:housenumber" v="35"/>
    <tag k="addr:postcode" v="CB23 1HB"/>
    <tag k="addr:street" v="Harlton Road"/>
    <tag k="addr:village" v="Little Eversden"/>
    <tag k="building" v="house"/>
  </way>
  <way id="548264960" version="4" timestamp="2019-02-04T10:44:30Z" changeset="66899076" uid="5173844" user="ndrw6">
    <nd ref="5296735337"/>
    <nd ref="5296735338"/>
    <nd ref="5296735339"/>
    <nd ref="5296735340"/>
    <nd ref="5296735337"/>
    <tag k="addr:city" v="Cambridge"/>
    <tag k="addr:housenumber" v="37"/>
    <tag k="addr:postcode" v="CB23 1HB"/>
    <tag k="addr:street" v="Harlton Road"/>
    <tag k="addr:village" v="Little Eversden"/>
    <tag k="building" v="house"/>
  </way>
  <way id="548264973" version="3" timestamp="2023-05-17T11:35:06Z" changeset="136208793" uid="1428841" user="BarnabasBaggs">
    <nd ref="5296735405"/>
    <nd ref="9586012758"/>
    <nd ref="9586012757"/>
    <nd ref="5296735408"/>
    <nd ref="5296735405"/>
    <tag k="addr:housenumber" v="2"/>
    <tag k="addr:street" v="Wheeler's Close"/>
    <tag k="building" v="yes"/>
  </way>
  <way id="548264976" version="3" timestamp="2025-02-06T19:02:08Z" changeset="162219510" uid="10633286" user="Moorit">
    <nd ref="5296735420"/>
    <nd ref="9586012794"/>
    <nd ref="9586012793"/>
    <nd ref="5296735419"/>
    <nd ref="5296735420"/>
    <tag k="addr:city" v="Cambridge"/>
    <tag k="addr:housenumber" v="21"/>
    <tag k="addr:postcode" v="CB23 1HF"/>
    <tag k="addr:street" v="High Street"/>
    <tag k="building" v="yes"/>
  </way>
  <way id="548264979" version="3" timestamp="2023-05-17T11:35:06Z" changeset="136208793" uid="1428841" user="BarnabasBaggs">
    <nd ref="5296735435"/>
    <nd ref="9586012921"/>
    <nd ref="9586012920"/>
    <nd ref="5296735438"/>
    <nd ref="5296735435"/>
    <tag k="addr:housenumber" v="7"/>
    <tag k="addr:street" v="Wheeler's Close"/>
    <tag k="building" v="yes"/>
  </way>
  <way id="548264980" version="5" timestamp="2023-05-17T11:35:06Z" changeset="136208793" uid="1428841" user="BarnabasBaggs">
    <nd ref="5296735441"/>
    <nd ref="5296735442"/>
    <nd ref="5296735443"/>
    <nd ref="5296735447"/>
    <nd ref="5296735448"/>
    <nd ref="5296735449"/>
    <nd ref="5296735441"/>
    <tag k="addr:city" v="Cambridge"/>
    <tag k="addr:housenumber" v="4"/>
    <tag k="addr:postcode" v="CB23 1YU"/>
    <tag k="addr:street" v="Wheeler's Close"/>
    <tag k="addr:village" v="Little Eversden"/>
    <tag k="building" v="yes"/>
  </way>
  <way id="548264984" version="3" timestamp="2023-05-17T11:35:06Z" changeset="136208793" uid="1428841" user="BarnabasBaggs">
    <nd ref="5296735466"/>
    <nd ref="9586012770"/>
    <nd ref="9586012769"/>
    <nd ref="5296735465"/>
    <nd ref="5296735466"/>
    <tag k="addr:housenumber" v="7"/>
    <tag k="addr:street" v="Wheeler's Way"/>
    <tag k="building" v="yes"/>
  </way>
  <way id="581409155" version="2" timestamp="2019-02-04T10:44:49Z" changeset="66899076" uid="5173844" user="ndrw6">
    <nd ref="5563113070"/>
    <nd ref="5563113071"/>
    <nd ref="5563113072"/>
    <nd ref="5563113073"/>
    <nd ref="5563113070"/>
    <tag k="addr:city" v="Cambridge"/>
    <tag k="addr:housenumber" v="25A"/>
    <tag k="addr:postcode" v="CB23 1HB"/>
    <tag k="addr:street" v="Harlton Road"/>
    <tag k="addr:village" v="Little Eversden"/>
    <tag k="building" v="house"/>
  </way>
  <way id="581409158" version="2" timestamp="2019-02-04T10:44:49Z" changeset="66899076" uid="5173844" user="ndrw6">
    <nd ref="5563113081"/>
    <nd ref="5563113082"/>
    <nd ref="5296735216"/>
    <nd ref="5296735215"/>
    <nd ref="5563113081"/>
    <tag k="addr:city" v="Cambridge"/>
    <tag k="addr:housenumber" v="27"/>
    <tag k="addr:postcode" v="CB23 1HB"/>
    <tag k="addr:street" v="Harlton Road"/>
    <tag k="addr:village" v="Little Eversden"/>
    <tag k="building" v="house"/>
  </way>
  <way id="581409162" version="2" timestamp="2019-02-04T10:44:50Z" changeset="66899076" uid="5173844" user="ndrw6">
    <nd ref="5296734921"/>
    <nd ref="5296734820"/>
    <nd ref="5563113097"/>
    <nd ref="5563113098"/>
    <nd ref="5296734921"/>
    <tag k="addr:city" v="Cambridge"/>
    <tag k="addr:housenumber" v="3"/>
    <tag k="addr:postcode" v="CB23 1AA"/>
    <tag k="addr:street" v="Low Close"/>
    <tag k="addr:village" v="Little Eversden"/>
    <tag k="building" v="house"/>
  </way>
  <way id="581409163" version="2" timestamp="2019-02-04T10:44:50Z" changeset="66899076" uid="5173844" user="ndrw6">
    <nd ref="5563113099"/>
    <nd ref="5563113100"/>
    <nd ref="5563113101"/>
    <nd ref="5563113102"/>
    <nd ref="5563113099"/>
    <tag k="addr:city" v="Cambridge"/>
    <tag k="addr:housenumber" v="5"/>
    <tag k="addr:postcode" v="CB23 1AA"/>
    <tag k="addr:street" v="Low Close"/>
    <tag k="addr:village" v="Little Eversden"/>
    <tag k="building" v="house"/>
  </way>
  <way id="581409164" version="2" timestamp="2019-02-04T10:44:50Z" changeset="66899076" uid="5173844" user="ndrw6">
    <nd ref="5563113103"/>
    <nd ref="5563113104"/>
    <nd ref="5563113100"/>
    <nd ref="5563113099"/>
    <nd ref="5563113103"/>
    <tag k="addr:city" v="Cambridge"/>
    <tag k="addr:housenumber" v="4"/>
    <tag k="addr:postcode" v="CB23 1AA"/>
    <tag k="addr:street" v="Low Close"/>
    <tag k="addr:village" v="Little Eversden"/>
    <tag k="building" v="house"/>
  </way>
  <way id="581409165" version="2" timestamp="2019-02-04T10:44:50Z" changeset="66899076" uid="5173844" user="ndrw6">
    <nd ref="5563113105"/>
    <nd ref="5563113106"/>
    <nd ref="5563113107"/>
    <nd ref="5563113108"/>
    <nd ref="5563113105"/>
    <tag k="addr:city" v="Cambridge"/>
    <tag k="addr:housenumber" v="7"/>
    <tag k="addr:postcode" v="CB23 1AA"/>
    <tag k="addr:street" v="Low Close"/>
    <tag k="addr:village" v="Little Eversden"/>
    <tag k="building" v="house"/>
  </way>
  <way id="581409166" version="2" timestamp="2019-02-04T10:44:50Z" changeset="66899076" uid="5173844" user="ndrw6">
    <nd ref="5563113109"/>
    <nd ref="5563113110"/>
    <nd ref="5563113106"/>
    <nd ref="5563113105"/>
    <nd ref="5563113109"/>
    <tag k="addr:city" v="Cambridge"/>
    <tag k="addr:housenumber" v="6"/>
    <tag k="addr:postcode" v="CB23 1AA"/>
    <tag k="addr:street" v="Low Close"/>
    <tag k="addr:village" v="Little Eversden"/>
    <tag k="building" v="house"/>
  </way>
  <way id="581409167" version="2" timestamp="2019-02-04T10:44:50Z" changeset="66899076" uid="5173844" user="ndrw6">
    <nd ref="5563113111"/>
    <nd ref="5563113112"/>
    <nd ref="5563113120"/>
    <nd ref="5563113119"/>
    <nd ref="5563113118"/>
    <nd ref="5563113113"/>
    <nd ref="5563113111"/>
    <tag k="addr:city" v="Cambridge"/>
    <tag k="addr:housenumber" v="9"/>
    <tag k="addr:postcode" v="CB23 1AA"/>
    <tag k="addr:street" v="Low Close"/>
    <tag k="addr:village" v="Little Eversden"/>
    <tag k="building" v="house"/>
  </way>
  <way id="581409168" version="2" timestamp="2019-02-04T10:44:50Z" changeset="66899076" uid="5173844" user="ndrw6">
    <nd ref="5563113114"/>
    <nd ref="5563113116"/>
    <nd ref="5563113117"/>
    <nd ref="5563113115"/>
    <nd ref="5563113112"/>
    <nd ref="5563113111"/>
    <nd ref="5563113114"/>
    <tag k="addr:city" v="Cambridge"/>
    <tag k="addr:housenumber" v="8"/>
    <tag k="addr:postcode" v="CB23 1AA"/>
    <tag k="addr:street" v="Low Close"/>
    <tag k="addr:village" v="Little Eversden"/>
    <tag k="building" v="house"/>
  </way>
  <way id="581409169" version="2" timestamp="2019-02-04T10:44:50Z" changeset="66899076" uid="5173844" user="ndrw6">
    <nd ref="5563113119"/>
    <nd ref="5563113120"/>
    <nd ref="5563113421"/>
    <nd ref="5563113422"/>
    <nd ref="5563113119"/>
    <tag k="addr:city" v="Cambridge"/>
    <tag k="addr:housenumber" v="10"/>
    <tag k="addr:postcode" v="CB23 1AA"/>
    <tag k="addr:street" v="Low Close"/>
    <tag k="addr:village" v="Little Eversden"/>
    <tag k="building" v="house"/>
  </way>
  <way id="581409170" version="2" timestamp="2019-02-04T10:44:50Z" changeset="66899076" uid="5173844" user="ndrw6">
    <nd ref="5296735002"/>
    <nd ref="5296735001"/>
    <nd ref="5563113425"/>
    <nd ref="5563113426"/>
    <nd ref="5296735002"/>
    <tag k="addr:city" v="Cambridge"/>
    <tag k="addr:housenumber" v="44"/>
    <tag k="addr:postcode" v="CB23 1HB"/>
    <tag k="addr:street" v="Harlton Road"/>
    <tag k="addr:village" v="Little Eversden"/>
    <tag k="building" v="house"/>
  </way>
  <way id="581409171" version="2" timestamp="2019-02-04T10:44:51Z" changeset="66899076" uid="5173844" user="ndrw6">
    <nd ref="5296735006"/>
    <nd ref="5296735005"/>
    <nd ref="5563113427"/>
    <nd ref="5563113428"/>
    <nd ref="5296735006"/>
    <tag k="addr:city" v="Cambridge"/>
    <tag k="addr:housenumber" v="40"/>
    <tag k="addr:postcode" v="CB23 1HB"/>
    <tag k="addr:street" v="Harlton Road"/>
    <tag k="addr:village" v="Little Eversden"/>
    <tag k="building" v="house"/>
  </way>
  <way id="581409172" version="2" timestamp="2019-02-04T10:44:51Z" changeset="66899076" uid="5173844" user="ndrw6">
    <nd ref="5563113429"/>
    <nd ref="5563113430"/>
    <nd ref="5296735008"/>
    <nd ref="5296735007"/>
    <nd ref="5563113429"/>
    <tag k="addr:city" v="Cambridge"/>
    <tag k="addr:housenumber" v="38"/>
    <tag k="addr:postcode" v="CB23 1HB"/>
    <tag k="addr:street" v="Harlton Road"/>
    <tag k="addr:village" v="Little Eversden"/>
    <tag k="building" v="house"/>
  </way>
  <way id="581409173" version="2" timestamp="2019-02-04T10:44:51Z" changeset="66899076" uid="5173844" user="ndrw6">
    <nd ref="5563113431"/>
    <nd ref="5563113432"/>
    <nd ref="5296735012"/>
    <nd ref="5296735011"/>
    <nd ref="5563113431"/>
    <tag k="addr:city" v="Cambridge"/>
    <tag k="addr:housenumber" v="34"/>
    <tag k="addr:postcode" v="CB23 1HB"/>
    <tag k="addr:street" v="Harlton Road"/>
    <tag k="addr:village" v="Little Eversden"/>
    <tag k="building" v="house"/>
  </way>
  <way id="581409174" version="2" timestamp="2019-02-04T10:44:51Z" changeset="66899076" uid="5173844" user="ndrw6">
    <nd ref="5563113433"/>
    <nd ref="5563113434"/>
    <nd ref="5296735016"/>
    <nd ref="5296735015"/>
    <nd ref="5563113433"/>
    <tag k="addr:city" v="Cambridge"/>
    <tag k="addr:housenumber" v="30"/>
    <tag k="addr:postcode" v="CB23 1HB"/>
    <tag k="addr:street" v="Harlton Road"/>
    <tag k="addr:village" v="Little Eversden"/>
    <tag k="building" v="house"/>
  </way>
  <way id="581409175" version="2" timestamp="2019-02-04T10:44:51Z" changeset="66899076" uid="5173844" user="ndrw6">
    <nd ref="5563113435"/>
    <nd ref="5563113436"/>
    <nd ref="5563113437"/>
    <nd ref="5563113438"/>
    <nd ref="5563113435"/>
    <tag k="addr:city" v="Cambridge"/>
    <tag k="addr:housenumber" v="24"/>
    <tag k="addr:postcode" v="CB23 1HB"/>
    <tag k="addr:street" v="Harlton Road"/>
    <tag k="addr:village" v="Little Eversden"/>
    <tag k="building" v="house"/>
  </way>
  <way id="581409176" version="2" timestamp="2019-02-04T10:44:51Z" changeset="66899076" uid="5173844" user="ndrw6">
    <nd ref="5563113439"/>
    <nd ref="5563113440"/>
    <nd ref="5563113436"/>
    <nd ref="5563113435"/>
    <nd ref="5563113439"/>
    <tag k="addr:city" v="Cambridge"/>
    <tag k="addr:housenumber" v="26"/>
    <tag k="addr:postcode" v="CB23 1HB"/>
    <tag k="addr:street" v="Harlton Road"/>
    <tag k="addr:village" v="Little Eversden"/>
    <tag k="building" v="house"/>
  </way>
  <way id="619866758" version="2" timestamp="2024-10-28T19:11:03Z" changeset="158470084" uid="10633286" user="Moorit">
    <nd ref="5857142411"/>
    <nd ref="5857142407"/>
    <nd ref="5857142406"/>
    <nd ref="5857142408"/>
    <nd ref="5857142409"/>
    <nd ref="5857142410"/>
    <nd ref="5857142411"/>
    <tag k="addr:housenumber" v="9"/>
    <tag k="addr:street" v="Lowfields"/>
    <tag k="building" v="yes"/>
  </way>
  <way id="619866760" version="2" timestamp="2021-05-10T19:02:01Z" changeset="104470535" uid="10633286" user="Moorit">
    <nd ref="5857142435"/>
    <nd ref="5857142432"/>
    <nd ref="5857142431"/>
    <nd ref="5857142430"/>
    <nd ref="5857142433"/>
    <nd ref="5857142434"/>
    <nd ref="5857142429"/>
    <nd ref="5857142427"/>
    <nd ref="5857142426"/>
    <nd ref="5857142428"/>
    <nd ref="5857142435"/>
    <tag k="addr:housenumber" v="24"/>
    <tag k="addr:street" v="Lowfields"/>
    <tag k="building" v="yes"/>
  </way>
  <way id="619866781" version="2" timestamp="2021-05-10T19:04:20Z" changeset="104470610" uid="10633286" user="Moorit">
    <nd ref="5857142655"/>
    <nd ref="5857142652"/>
    <nd ref="5857142653"/>
    <nd ref="5857142654"/>
    <nd ref="5857142655"/>
    <tag k="addr:housenumber" v="2"/>
    <tag k="addr:street" v="Lowfields"/>
    <tag k="building" v="yes"/>
  </way>
  <way id="619866782" version="2" timestamp="2025-02-09T20:21:26Z" changeset="162327672" uid="10633286" user="Moorit">
    <nd ref="5857142665"/>
    <nd ref="5857142662"/>
    <nd ref="5857142661"/>
    <nd ref="5857142660"/>
    <nd ref="5857142657"/>
    <nd ref="5857142656"/>
    <nd ref="5857142663"/>
    <nd ref="5857142658"/>
    <nd ref="5857142659"/>
    <nd ref="5857142664"/>
    <nd ref="5857142665"/>
    <tag k="addr:housenumber" v="18"/>
    <tag k="addr:street" v="Leete's Lane"/>
    <tag k="building" v="yes"/>
  </way>
  <way id="619866833" version="3" timestamp="2024-04-11T18:46:16Z" changeset="149878523" uid="10633286" user="Moorit">
    <nd ref="9586012862"/>
    <nd ref="5857143710"/>
    <nd ref="5857143711"/>
    <nd ref="5857143714"/>
    <nd ref="5857143717"/>
    <nd ref="9586012863"/>
    <nd ref="9586012862"/>
    <tag k="addr:housenumber" v="11"/>
    <tag k="addr:street" v="Finch's Field"/>
    <tag k="building" v="yes"/>
  </way>
  <way id="619866834" version="3" timestamp="2024-04-11T18:46:16Z" changeset="149878523" uid="10633286" user="Moorit">
    <nd ref="9586012864"/>
    <nd ref="5857143723"/>
    <nd ref="5857143722"/>
    <nd ref="5857143726"/>
    <nd ref="5857143729"/>
    <nd ref="9586012865"/>
    <nd ref="9586012864"/>
    <tag k="addr:housenumber" v="9"/>
    <tag k="addr:street" v="Finch's Field"/>
    <tag k="building" v="yes"/>
  </way>
  <way id="619866835" version="3" timestamp="2024-04-11T18:46:16Z" changeset="149878523" uid="10633286" user="Moorit">
    <nd ref="9586012873"/>
    <nd ref="5857143719"/>
    <nd ref="5857143718"/>
    <nd ref="5857143730"/>
    <nd ref="5857143733"/>
    <nd ref="9586012872"/>
    <nd ref="9586012873"/>
    <tag k="addr:housenumber" v="7"/>
    <tag k="addr:street" v="Finch's Field"/>
    <tag k="building" v="yes"/>
  </way>
  <way id="619866836" version="3" timestamp="2024-04-11T18:46:16Z" changeset="149878523" uid="10633286" user="Moorit">
    <nd ref="9586012870"/>
    <nd ref="5857143735"/>
    <nd ref="5857143734"/>
    <nd ref="5857143741"/>
    <nd ref="5857143738"/>
    <nd ref="5857143736"/>
    <nd ref="5857143737"/>
    <nd ref="9586012871"/>
    <nd ref="9586012870"/>
    <tag k="addr:housenumber" v="6"/>
    <tag k="addr:street" v="Finch's Field"/>
    <tag k="building" v="yes"/>
  </way>
  <way id="619866837" version="3" timestamp="2024-04-11T18:46:16Z" changeset="149878523" uid="10633286" user="Moorit">
    <nd ref="9586012868"/>
    <nd ref="5857143743"/>
    <nd ref="5857143742"/>
    <nd ref="5857143745"/>
    <nd ref="5857143744"/>
    <nd ref="9586012869"/>
    <nd ref="9586012868"/>
    <tag k="addr:housenumber" v="3"/>
    <tag k="addr:street" v="Finch's Field"/>
    <tag k="building" v="yes"/>
  </way>
  <way id="619866856" version="3" timestamp="2022-03-17T17:29:24Z" changeset="118604536" uid="5173844" user="ndrw6">
    <nd ref="9586012822"/>
    <nd ref="5857143850"/>
    <nd ref="5857143849"/>
    <nd ref="9586012821"/>
    <nd ref="9586012822"/>
    <tag k="addr:housenumber" v="17"/>
    <tag k="addr:street" v="Wheeler's Way"/>
    <tag k="building" v="yes"/>
  </way>
  <way id="619866857" version="3" timestamp="2023-05-17T11:35:06Z" changeset="136208793" uid="1428841" user="BarnabasBaggs">
    <nd ref="5857143851"/>
    <nd ref="9586012820"/>
    <nd ref="9586012819"/>
    <nd ref="5857143852"/>
    <nd ref="5857143851"/>
    <tag k="addr:housenumber" v="16"/>
    <tag k="addr:street" v="Wheeler's Way"/>
    <tag k="building" v="yes"/>
  </way>
  <way id="619866858" version="4" timestamp="2023-05-17T11:35:06Z" changeset="136208793" uid="1428841" user="BarnabasBaggs">
    <nd ref="5857143857"/>
    <nd ref="9586012851"/>
    <nd ref="9586012850"/>
    <nd ref="5857143856"/>
    <nd ref="5857143857"/>
    <tag k="addr:housenumber" v="14b"/>
    <tag k="addr:street" v="Wheeler's Way"/>
    <tag k="building" v="yes"/>
  </way>
  <way id="619866859" version="3" timestamp="2022-03-17T17:29:24Z" changeset="118604536" uid="5173844" user="ndrw6">
    <nd ref="5857143861"/>
    <nd ref="9586012764"/>
    <nd ref="9586012763"/>
    <nd ref="5857143860"/>
    <nd ref="5857143861"/>
    <tag k="addr:housenumber" v="14"/>
    <tag k="addr:street" v="Wheeler's Way"/>
    <tag k="building" v="yes"/>
  </way>
  <way id="619866864" version="5" timestamp="2023-03-30T08:37:26Z" changeset="134293651" uid="1428841" user="BarnabasBaggs">
    <nd ref="5857143886"/>
    <nd ref="9586012818"/>
    <nd ref="9586012817"/>
    <nd ref="5857143883"/>
    <nd ref="5857143886"/>
    <tag k="addr:city" v="Cambridge"/>
    <tag k="addr:housenumber" v="6"/>
    <tag k="addr:postcode" v="CB23 1HF"/>
    <tag k="addr:street" v="Wheeler's Way"/>
    <tag k="addr:village" v="Little Eversden"/>
    <tag k="building" v="yes"/>
  </way>
  <way id="762915760" version="1" timestamp="2020-01-13T17:02:16Z" changeset="79525609" uid="10633286" user="Moorit">
    <nd ref="5857143878"/>
    <nd ref="7128905765"/>
    <nd ref="7128905766"/>
    <nd ref="5857143877"/>
    <nd ref="5857143878"/>
    <tag k="addr:housenumber" v="2"/>
    <tag k="addr:street" v="Wheelers Way"/>
    <tag k="building" v="yes"/>
  </way>
  <way id="972269578" version="8" timestamp="2024-10-06T21:24:59Z" changeset="157558368" uid="20475686" user="Dan200">
    <nd ref="8998692563"/>
    <nd ref="3465721422"/>
    <nd ref="3465721418"/>
    <nd ref="21076393"/>
    <nd ref="3465721428"/>
    <nd ref="8998692558"/>
    <nd ref="3465721417"/>
    <nd ref="10770513864"/>
    <nd ref="639154978"/>
    <nd ref="21076394"/>
    <nd ref="1475247539"/>
    <nd ref="8998692550"/>
    <nd ref="1475247534"/>
    <nd ref="1475247532"/>
    <nd ref="1475247536"/>
    <nd ref="1475247540"/>
    <nd ref="1475137933"/>
    <nd ref="1475247537"/>
    <nd ref="12230431615"/>
    <nd ref="5276266"/>
    <tag k="alt_name" v="Cambridge Road"/>
    <tag k="highway" v="primary"/>
    <tag k="lanes" v="2"/>
    <tag k="lit" v="no"/>
    <tag k="maxspeed" v="50 mph"/>
    <tag k="maxspeed:type" v="sign"/>
    <tag k="name" v="Cambridge Road"/>
    <tag k="ref" v="A603"/>
    <tag k="smoothness" v="good"/>
    <tag k="surface" v="asphalt"/>
  </way>
  <way id="1041206442" version="2" timestamp="2023-05-17T11:35:06Z" changeset="136208793" uid="1428841" user="BarnabasBaggs">
    <nd ref="9586012758"/>
    <nd ref="5296735406"/>
    <nd ref="5296735407"/>
    <nd ref="9586012757"/>
    <nd ref="9586012758"/>
    <tag k="addr:housenumber" v="1"/>
    <tag k="addr:street" v="Wheeler's Close"/>
    <tag k="building" v="yes"/>
  </way>
  <way id="1041206443" version="1" timestamp="2022-03-17T17:29:24Z" changeset="118604536" uid="5173844" user="ndrw6">
    <nd ref="9586012760"/>
    <nd ref="5857143862"/>
    <nd ref="5857143859"/>
    <nd ref="9586012759"/>
    <nd ref="9586012760"/>
    <tag k="addr:housenumber" v="11"/>
    <tag k="addr:street" v="Wheeler's Way"/>
    <tag k="building" v="yes"/>
  </way>
  <way id="1041206444" version="1" timestamp="2022-03-17T17:29:24Z" changeset="118604536" uid="5173844" user="ndrw6">
    <nd ref="9586012762"/>
    <nd ref="9586012760"/>
    <nd ref="9586012759"/>
    <nd ref="9586012761"/>
    <nd ref="9586012762"/>
    <tag k="addr:housenumber" v="12"/>
    <tag k="addr:street" v="Wheeler's Way"/>
    <tag k="building" v="yes"/>
  </way>
  <way id="1041206445" version="1" timestamp="2022-03-17T17:29:24Z" changeset="118604536" uid="5173844" user="ndrw6">
    <nd ref="9586012764"/>
    <nd ref="9586012762"/>
    <nd ref="9586012761"/>
    <nd ref="9586012763"/>
    <nd ref="9586012764"/>
    <tag k="addr:housenumber" v="13"/>
    <tag k="addr:street" v="Wheeler's Way"/>
    <tag k="building" v="yes"/>
  </way>
  <way id="1041206446" version="2" timestamp="2023-05-17T11:35:06Z" changeset="136208793" uid="1428841" user="BarnabasBaggs">
    <nd ref="9586012766"/>
    <nd ref="5296735463"/>
    <nd ref="5296735464"/>
    <nd ref="9586012765"/>
    <nd ref="9586012766"/>
    <tag k="addr:housenumber" v="10"/>
    <tag k="addr:street" v="Wheeler's Way"/>
    <tag k="building" v="yes"/>
  </way>
  <way id="1041206447" version="2" timestamp="2023-05-17T11:35:06Z" changeset="136208793" uid="1428841" user="BarnabasBaggs">
    <nd ref="9586012768"/>
    <nd ref="9586012766"/>
    <nd ref="9586012765"/>
    <nd ref="9586012767"/>
    <nd ref="9586012768"/>
    <tag k="addr:housenumber" v="9"/>
    <tag k="addr:street" v="Wheeler's Way"/>
    <tag k="building" v="yes"/>
  </way>
  <way id="1041206448" version="2" timestamp="2023-05-17T11:35:06Z" changeset="136208793" uid="1428841" user="BarnabasBaggs">
    <nd ref="9586012770"/>
    <nd ref="9586012768"/>
    <nd ref="9586012767"/>
    <nd ref="9586012769"/>
    <nd ref="9586012770"/>
    <tag k="addr:housenumber" v="8"/>
    <tag k="addr:street" v="Wheeler's Way"/>
    <tag k="building" v="yes"/>
  </way>
  <way id="1041206459" version="2" timestamp="2025-02-06T19:02:08Z" changeset="162219510" uid="10633286" user="Moorit">
    <nd ref="9586012792"/>
    <nd ref="5296735417"/>
    <nd ref="5296735418"/>
    <nd ref="9586012791"/>
    <nd ref="9586012792"/>
    <tag k="addr:city" v="Cambridge"/>
    <tag k="addr:housenumber" v="17"/>
    <tag k="addr:postcode" v="CB23 1HF"/>
    <tag k="addr:street" v="High Street"/>
    <tag k="building" v="yes"/>
  </way>
  <way id="1041206460" version="2" timestamp="2025-02-06T19:02:08Z" changeset="162219510" uid="10633286" user="Moorit">
    <nd ref="9586012794"/>
    <nd ref="9586012792"/>
    <nd ref="9586012791"/>
    <nd ref="9586012793"/>
    <nd ref="9586012794"/>
    <tag k="addr:city" v="Cambridge"/>
    <tag k="addr:housenumber" v="19"/>
    <tag k="addr:postcode" v="CB23 1HF"/>
    <tag k="addr:street" v="High Street"/>
    <tag k="building" v="yes"/>
  </way>
  <way id="1041206461" version="1" timestamp="2022-03-17T17:29:24Z" changeset="118604536" uid="5173844" user="ndrw6">
    <nd ref="60850877"/>
    <nd ref="9586012795"/>
    <tag k="highway" v="residential"/>
    <tag k="maxspeed" v="30 mph"/>
    <tag k="name" v="Wheeler's Close"/>
    <tag k="source:name" v="dictaphone"/>
  </way>
  <way id="1041206468" version="2" timestamp="2023-03-30T08:37:26Z" changeset="134293651" uid="1428841" user="BarnabasBaggs">
    <nd ref="9586012818"/>
    <nd ref="5857143885"/>
    <nd ref="5857143884"/>
    <nd ref="9586012817"/>
    <nd ref="9586012818"/>
    <tag k="addr:city" v="Cambridge"/>
    <tag k="addr:housenumber" v="5"/>
    <tag k="addr:postcode" v="CB23 1HF"/>
    <tag k="addr:street" v="Wheeler's Way"/>
    <tag k="addr:village" v="Little Eversden"/>
    <tag k="building" v="yes"/>
  </way>
  <way id="1041206469" version="2" timestamp="2023-05-17T11:35:06Z" changeset="136208793" uid="1428841" user="BarnabasBaggs">
    <nd ref="9586012820"/>
    <nd ref="5857143854"/>
    <nd ref="5857143853"/>
    <nd ref="9586012819"/>
    <nd ref="9586012820"/>
    <tag k="addr:housenumber" v="15"/>
    <tag k="addr:street" v="Wheeler's Way"/>
    <tag k="building" v="yes"/>
  </way>
  <way id="1041206470" version="1" timestamp="2022-03-17T17:29:24Z" changeset="118604536" uid="5173844" user="ndrw6">
    <nd ref="9586012821"/>
    <nd ref="5857143848"/>
    <nd ref="5857143847"/>
    <nd ref="9586012822"/>
    <nd ref="9586012821"/>
    <tag k="addr:housenumber" v="18"/>
    <tag k="addr:street" v="Wheeler's Way"/>
    <tag k="building" v="yes"/>
  </way>
  <way id="1041206479" version="2" timestamp="2023-05-17T11:35:06Z" changeset="136208793" uid="1428841" user="BarnabasBaggs">
    <nd ref="9586012851"/>
    <nd ref="5857143858"/>
    <nd ref="5857143855"/>
    <nd ref="9586012850"/>
    <nd ref="9586012851"/>
    <tag k="addr:housenumber" v="14a"/>
    <tag k="addr:street" v="Wheeler's Way"/>
    <tag k="building" v="yes"/>
  </way>
  <way id="1041206481" version="2" timestamp="2024-04-11T18:46:16Z" changeset="149878523" uid="10633286" user="Moorit">
    <nd ref="9586012863"/>
    <nd ref="5857143716"/>
    <nd ref="5857143715"/>
    <nd ref="5857143713"/>
    <nd ref="5857143712"/>
    <nd ref="9586012862"/>
    <nd ref="9586012863"/>
    <tag k="addr:housenumber" v="12"/>
    <tag k="addr:street" v="Finch's Field"/>
    <tag k="building" v="yes"/>
  </way>
  <way id="1041206482" version="2" timestamp="2024-04-11T18:46:16Z" changeset="149878523" uid="10633286" user="Moorit">
    <nd ref="9586012865"/>
    <nd ref="5857143728"/>
    <nd ref="5857143727"/>
    <nd ref="5857143724"/>
    <nd ref="5857143725"/>
    <nd ref="9586012864"/>
    <nd ref="9586012865"/>
    <tag k="addr:housenumber" v="10"/>
    <tag k="addr:street" v="Finch's Field"/>
    <tag k="building" v="yes"/>
  </way>
  <way id="1041206484" version="2" timestamp="2024-04-11T18:46:16Z" changeset="149878523" uid="10633286" user="Moorit">
    <nd ref="9586012869"/>
    <nd ref="5857143747"/>
    <nd ref="5857143746"/>
    <nd ref="9586012868"/>
    <nd ref="9586012869"/>
    <tag k="addr:housenumber" v="4"/>
    <tag k="addr:street" v="Finch's Field"/>
    <tag k="building" v="yes"/>
  </way>
  <way id="1041206485" version="2" timestamp="2024-04-11T18:46:16Z" changeset="149878523" uid="10633286" user="Moorit">
    <nd ref="9586012871"/>
    <nd ref="5857143739"/>
    <nd ref="5857143740"/>
    <nd ref="9586012870"/>
    <nd ref="9586012871"/>
    <tag k="addr:housenumber" v="5"/>
    <tag k="addr:street" v="Finch's Field"/>
    <tag k="building" v="yes"/>
  </way>
  <way id="1041206486" version="2" timestamp="2024-04-11T18:46:16Z" changeset="149878523" uid="10633286" user="Moorit">
    <nd ref="9586012872"/>
    <nd ref="5857143732"/>
    <nd ref="5857143731"/>
    <nd ref="5857143720"/>
    <nd ref="5857143721"/>
    <nd ref="9586012873"/>
    <nd ref="9586012872"/>
    <tag k="addr:housenumber" v="8"/>
    <tag k="addr:street" v="Finch's Field"/>
    <tag k="building" v="yes"/>
  </way>
  <way id="1041206500" version="2" timestamp="2023-05-17T11:35:06Z" changeset="136208793" uid="1428841" user="BarnabasBaggs">
    <nd ref="9586012921"/>
    <nd ref="5296735436"/>
    <nd ref="5296735437"/>
    <nd ref="9586012920"/>
    <nd ref="9586012921"/>
    <tag k="addr:housenumber" v="6"/>
    <tag k="addr:street" v="Wheeler's Close"/>
    <tag k="building" v="yes"/>
  </way>
  <way id="1041206501" version="2" timestamp="2023-05-17T11:35:06Z" changeset="136208793" uid="1428841" user="BarnabasBaggs">
    <nd ref="5296735449"/>
    <nd ref="5296735450"/>
    <nd ref="5296735439"/>
    <nd ref="5296735440"/>
    <nd ref="5296735441"/>
    <nd ref="5296735449"/>
    <tag k="addr:city" v="Cambridge"/>
    <tag k="addr:housenumber" v="5"/>
    <tag k="addr:postcode" v="CB23 1YU"/>
    <tag k="addr:street" v="Wheeler's Close"/>
    <tag k="addr:village" v="Little Eversden"/>
    <tag k="building" v="yes"/>
  </way>
  <way id="1041206502" version="2" timestamp="2023-05-17T11:35:06Z" changeset="136208793" uid="1428841" user="BarnabasBaggs">
    <nd ref="5296735443"/>
    <nd ref="5296735444"/>
    <nd ref="5296735445"/>
    <nd ref="5296735446"/>
    <nd ref="5296735447"/>
    <nd ref="5296735443"/>
    <tag k="addr:city" v="Cambridge"/>
    <tag k="addr:housenumber" v="3"/>
    <tag k="addr:postcode" v="CB23 1YU"/>
    <tag k="addr:street" v="Wheeler's Close"/>
    <tag k="addr:village" v="Little Eversden"/>
    <tag k="building" v="yes"/>
  </way>
  <way id="1151072585" version="1" timestamp="2023-03-03T21:55:19Z" changeset="133271581" uid="1287673" user="sloerunner">
    <nd ref="10707865142"/>
    <nd ref="10707865141"/>
    <nd ref="10707865140"/>
    <nd ref="10707865139"/>
    <nd ref="10707865142"/>
    <tag k="addr:city" v="Cambridge"/>
    <tag k="addr:housenumber" v="16a"/>
    <tag k="addr:postcode" v="CB23 1HB"/>
    <tag k="addr:street" v="Harlton Road"/>
    <tag k="addr:village" v="Little Eversden"/>
    <tag k="building" v="house"/>
  </way>

</osm>
