<?xml version="1.0" encoding="UTF-8"?>
<osm version="0.6" generator="Overpass API 0.7.62.5 1bd436f1">
<note>The data included in this document is from www.openstreetmap.org. The data is made available under ODbL.</note>
<meta osm_base="2025-05-18T03:40:19Z" areas="2024-12-31T00:49:33Z"/>

  <node id="21436367" lat="53.8984863" lon="-1.5697946" version="2" timestamp="2012-12-01T10:33:30Z" changeset="14109308" uid="308" user="MichaelCollinson"/>
  <node id="27470971" lat="53.8964842" lon="-1.5595182" version="3" timestamp="2018-06-21T18:17:05Z" changeset="60051959" uid="3316592" user="Arthtoach"/>
  <node id="60629423" lat="53.8885188" lon="-1.5613599" version="3" timestamp="2018-05-07T06:15:55Z" changeset="58746810" uid="3316592" user="Arthtoach"/>
  <node id="245495132" lat="53.8618674" lon="-1.5275047" version="8" timestamp="2012-11-04T16:54:17Z" changeset="13749673" uid="106831" user="sc71">
    <tag k="highway" v="traffic_signals"/>
  </node>
  <node id="248018315" lat="53.8563544" lon="-1.5007780" version="4" timestamp="2019-03-02T14:41:27Z" changeset="67715146" uid="3316592" user="Arthtoach"/>
  <node id="365413703" lat="53.8549992" lon="-1.4850281" version="3" timestamp="2012-02-23T22:15:46Z" changeset="10773400" uid="1295" user="robert"/>
  <node id="691592231" lat="53.8535703" lon="-1.5235319" version="2" timestamp="2010-12-19T22:22:50Z" changeset="6711435" uid="2330" user="LeedsTracker"/>
  <node id="691592555" lat="53.8537963" lon="-1.5235701" version="3" timestamp="2016-02-03T01:51:33Z" changeset="36969648" uid="493595" user="Yorvik Prestigitator"/>
  <node id="765232205" lat="53.8999112" lon="-1.5012139" version="1" timestamp="2010-06-05T17:14:04Z" changeset="4910497" uid="308" user="MichaelCollinson"/>
  <node id="935630493" lat="53.8663880" lon="-1.4740904" version="2" timestamp="2012-02-01T09:54:03Z" changeset="10557142" uid="308" user="MichaelCollinson"/>
  <node id="935630503" lat="53.8738534" lon="-1.4863770" version="2" timestamp="2017-11-22T01:02:10Z" changeset="53989317" uid="493595" user="Yorvik Prestigitator"/>
  <node id="935630591" lat="53.8785545" lon="-1.4734502" version="2" timestamp="2019-05-12T08:18:38Z" changeset="70153979" uid="3316592" user="Arthtoach"/>
  <node id="935672032" lat="53.8599263" lon="-1.4704921" version="1" timestamp="2010-10-02T20:46:46Z" changeset="5939669" uid="135339" user="mplusplus"/>
  <node id="1643337858" lat="53.8567526" lon="-1.5037314" version="4" timestamp="2019-01-19T08:54:59Z" changeset="66448166" uid="3316592" user="Arthtoach"/>
  <node id="1647770295" lat="53.8564209" lon="-1.4991444" version="4" timestamp="2019-03-02T14:41:27Z" changeset="67715146" uid="3316592" user="Arthtoach"/>
  <node id="2167859103" lat="53.8596554" lon="-1.5289343" version="1" timestamp="2013-02-22T22:19:38Z" changeset="15128484" uid="464727" user="CompactDstrxion"/>
  <node id="2723201898" lat="53.9094827" lon="-1.5260280" version="1" timestamp="2014-03-17T11:49:31Z" changeset="21153398" uid="493595" user="Yorvik Prestigitator"/>
  <node id="6312647137" lat="53.8564462" lon="-1.5004183" version="1" timestamp="2019-03-02T14:41:26Z" changeset="67715146" uid="3316592" user="Arthtoach"/>
  <node id="6422728288" lat="53.8642108" lon="-1.4817082" version="2" timestamp="2019-05-12T15:03:45Z" changeset="70162853" uid="3316592" user="Arthtoach"/>
  <node id="9490847384" lat="53.8566757" lon="-1.5007499" version="1" timestamp="2022-02-08T20:57:28Z" changeset="117176984" uid="4543415" user="The_JF"/>
  <way id="4045462" version="21" timestamp="2019-09-19T13:43:08Z" changeset="74674529" uid="10310438" user="Beetec">
    <nd ref="21436375"/>
    <nd ref="495969134"/>
    <nd ref="21436376"/>
    <tag k="highway" v="primary"/>
    <tag k="lanes" v="2"/>
    <tag k="maxspeed" v="60 mph"/>
    <tag k="name" v="Otley Road"/>
    <tag k="ref" v="A659"/>
  </way>
  <way id="4315055" version="26" timestamp="2021-07-14T16:21:01Z" changeset="107991459" uid="4543415" user="The_JF">
    <nd ref="3978125442"/>
    <nd ref="8920017552"/>
    <nd ref="3165111052"/>
    <nd ref="8920017553"/>
    <nd ref="3978126505"/>
    <nd ref="3978126511"/>
    <nd ref="21436396"/>
    <nd ref="373372258"/>
    <nd ref="21436395"/>
    <tag k="bicycle" v="yes"/>
    <tag k="foot" v="yes"/>
    <tag k="highway" v="trunk"/>
    <tag k="lanes" v="2"/>
    <tag k="maxspeed" v="30 mph"/>
    <tag k="name" v="Harrogate Road"/>
    <tag k="oneway" v="no"/>
    <tag k="ref" v="A61"/>
    <tag k="sidewalk" v="both"/>
    <tag k="surface" v="asphalt"/>
  </way>
  <way id="4478644" version="9" timestamp="2024-06-14T22:35:45Z" changeset="152700850" uid="1778799" user="SomeoneElse_Revert">
    <nd ref="21436395"/>
    <nd ref="3165111056"/>
    <nd ref="765230409"/>
    <nd ref="27481468"/>
    <nd ref="6203748011"/>
    <nd ref="27456688"/>
    <nd ref="8146700709"/>
    <tag k="highway" v="residential"/>
    <tag k="name" v="Church Lane"/>
    <tag k="source" v="survey"/>
    <tag k="source_ref" v="GPS"/>
  </way>
  <way id="4478645" version="3" timestamp="2024-06-14T22:35:13Z" changeset="152700850" uid="1778799" user="SomeoneElse_Revert">
    <nd ref="27456690"/>
    <nd ref="27456691"/>
    <nd ref="27457035"/>
    <nd ref="27456693"/>
    <nd ref="27456692"/>
    <tag k="abutters" v="residential"/>
    <tag k="created_by" v="JOSM"/>
    <tag k="highway" v="residential"/>
    <tag k="name" v="The Square"/>
    <tag k="source" v="survey"/>
    <tag k="source_ref" v="GPS"/>
  </way>
  <way id="4483531" version="20" timestamp="2023-12-18T18:49:27Z" changeset="145262625" uid="16898063" user="benjo384">
    <nd ref="3978126715"/>
    <nd ref="1581075555"/>
    <nd ref="4141801323"/>
    <nd ref="26261614"/>
    <nd ref="4141801334"/>
    <nd ref="11429550372"/>
    <nd ref="248091713"/>
    <nd ref="3370797563"/>
    <nd ref="1969630027"/>
    <tag k="alt_name" v="The Avenue"/>
    <tag k="bicycle" v="yes"/>
    <tag k="cycleway" v="no"/>
    <tag k="foot" v="yes"/>
    <tag k="highway" v="primary"/>
    <tag k="lanes" v="2"/>
    <tag k="maxspeed" v="30 mph"/>
    <tag k="name" v="Harewood Avenue"/>
    <tag k="oneway" v="no"/>
    <tag k="ref" v="A659"/>
    <tag k="sidewalk" v="both"/>
    <tag k="source" v="survey"/>
    <tag k="surface" v="asphalt"/>
  </way>
  <way id="4483588" version="5" timestamp="2024-06-14T22:35:39Z" changeset="152700850" uid="1778799" user="SomeoneElse_Revert">
    <nd ref="2466478360"/>
    <nd ref="27481469"/>
    <nd ref="27481468"/>
    <tag k="abutters" v="residential"/>
    <tag k="highway" v="residential"/>
    <tag k="name" v="Castlewood Close"/>
  </way>
  <way id="4483668" version="25" timestamp="2019-01-12T18:26:39Z" changeset="66257093" uid="3316592" user="Arthtoach">
    <nd ref="6203898058"/>
    <nd ref="27481582"/>
    <nd ref="3792575881"/>
    <nd ref="765232485"/>
    <nd ref="4141801332"/>
    <nd ref="27481583"/>
    <nd ref="2167859106"/>
    <tag k="bicycle" v="yes"/>
    <tag k="foot" v="yes"/>
    <tag k="highway" v="trunk"/>
    <tag k="lanes" v="2"/>
    <tag k="maxspeed" v="30 mph"/>
    <tag k="name" v="Harrogate Road"/>
    <tag k="oneway" v="no"/>
    <tag k="ref" v="A61"/>
    <tag k="source" v="OS_OpenData_StreetView;Bing;local_knowledge;npe"/>
    <tag k="surface" v="asphalt"/>
  </way>
  <way id="4483669" version="11" timestamp="2022-10-21T17:03:51Z" changeset="127894647" uid="17400648" user="KyeF">
    <nd ref="27481590"/>
    <nd ref="27481601"/>
    <nd ref="1050395499"/>
    <nd ref="27481602"/>
    <nd ref="6593526724"/>
    <nd ref="27481603"/>
    <nd ref="6311292070"/>
    <nd ref="1050395435"/>
    <nd ref="373375384"/>
    <tag k="highway" v="unclassified"/>
    <tag k="name" v="Wike Lane"/>
    <tag k="oneway" v="no"/>
    <tag k="source" v="OS_OpenData_StreetView;Bing;npe"/>
    <tag k="surface" v="asphalt"/>
  </way>
  <way id="8093031" version="5" timestamp="2023-12-19T21:08:09Z" changeset="145307068" uid="16898063" user="benjo384">
    <nd ref="27470971"/>
    <nd ref="60631221"/>
    <nd ref="60631222"/>
    <nd ref="60631223"/>
    <nd ref="27470972"/>
    <tag k="bicycle" v="yes"/>
    <tag k="foot" v="yes"/>
    <tag k="highway" v="unclassified"/>
    <tag k="lanes" v="2"/>
    <tag k="name" v="High Weardley Lane"/>
    <tag k="oneway" v="no"/>
    <tag k="surface" v="asphalt"/>
  </way>
  <way id="23005305" version="10" timestamp="2022-02-08T20:57:28Z" changeset="117176984" uid="4543415" user="The_JF">
    <nd ref="248018316"/>
    <nd ref="9490847372"/>
    <nd ref="6311318719"/>
    <nd ref="691581712"/>
    <nd ref="9490847376"/>
    <nd ref="6220421328"/>
    <nd ref="6220421329"/>
    <nd ref="6220421330"/>
    <nd ref="691581176"/>
    <nd ref="6220421333"/>
    <nd ref="6220421332"/>
    <nd ref="6220421331"/>
    <nd ref="248018344"/>
    <tag k="highway" v="unclassified"/>
    <tag k="maxspeed" v="40 mph"/>
    <tag k="name" v="Wigton Lane"/>
    <tag k="source" v="local_knowledge"/>
    <tag k="source_ref" v="npe"/>
    <tag k="surface" v="asphalt"/>
  </way>
  <way id="32501358" version="10" timestamp="2023-06-14T22:33:29Z" changeset="137347154" uid="4543415" user="The_JF">
    <nd ref="365413703"/>
    <nd ref="1644970646"/>
    <nd ref="9983616731"/>
    <nd ref="365413701"/>
    <nd ref="9983616732"/>
    <nd ref="9983616738"/>
    <nd ref="9983616755"/>
    <nd ref="1997034998"/>
    <nd ref="6388011889"/>
    <nd ref="365413699"/>
    <nd ref="6388011890"/>
    <nd ref="6388011891"/>
    <nd ref="1997035000"/>
    <nd ref="365413696"/>
    <nd ref="6388011892"/>
    <nd ref="1997034997"/>
    <nd ref="365413687"/>
    <nd ref="1997034991"/>
    <nd ref="6388011893"/>
    <nd ref="365413690"/>
    <nd ref="6388011894"/>
    <nd ref="1649372895"/>
    <nd ref="6591215356"/>
    <nd ref="1649372898"/>
    <nd ref="6388011895"/>
    <nd ref="6388011896"/>
    <nd ref="365413692"/>
    <nd ref="1997034994"/>
    <nd ref="6388011897"/>
    <nd ref="1997034993"/>
    <nd ref="248018304"/>
    <tag k="highway" v="residential"/>
    <tag k="maxspeed" v="20 mph"/>
    <tag k="name" v="Holywell Lane"/>
    <tag k="surface" v="asphalt"/>
  </way>
  <way id="33085143" version="8" timestamp="2020-08-13T17:10:26Z" changeset="89368373" uid="308" user="MichaelCollinson">
    <nd ref="373372258"/>
    <nd ref="7810591091"/>
    <nd ref="1652877069"/>
    <nd ref="4899739513"/>
    <tag k="bicycle" v="permissive"/>
    <tag k="designation" v="public_footpath;permissive_bridleway"/>
    <tag k="foot" v="yes"/>
    <tag k="highway" v="unclassified"/>
    <tag k="horse" v="permissive"/>
    <tag k="name" v="Malt Kiln Lane"/>
    <tag k="prow_ref" v="Harewood FP 14"/>
    <tag k="source" v="survey"/>
    <tag k="source:designation" v="survey"/>
    <tag k="source:name" v="OS_OpenData_Locator"/>
    <tag k="source_ref" v="GPS"/>
    <tag k="surface" v="asphalt"/>
  </way>
  <way id="39429076" version="10" timestamp="2018-07-19T18:47:09Z" changeset="60881120" uid="3316592" user="Arthtoach">
    <nd ref="21436367"/>
    <nd ref="2043554512"/>
    <nd ref="3370797558"/>
    <nd ref="1116969051"/>
    <nd ref="3370797557"/>
    <nd ref="21436368"/>
    <nd ref="1116969026"/>
    <nd ref="21436369"/>
    <nd ref="21436370"/>
    <nd ref="1116969021"/>
    <nd ref="718539955"/>
    <nd ref="1116969706"/>
    <nd ref="21436371"/>
    <nd ref="1116969933"/>
    <nd ref="21436372"/>
    <nd ref="2042327149"/>
    <nd ref="21436373"/>
    <nd ref="5771465517"/>
    <nd ref="718539962"/>
    <nd ref="3370797578"/>
    <nd ref="21436374"/>
    <nd ref="3370797576"/>
    <nd ref="21436375"/>
    <tag k="bicycle" v="yes"/>
    <tag k="foot" v="yes"/>
    <tag k="highway" v="primary"/>
    <tag k="lanes" v="2"/>
    <tag k="maxspeed" v="60 mph"/>
    <tag k="name" v="Arthington Lane"/>
    <tag k="oneway" v="no"/>
    <tag k="ref" v="A659"/>
    <tag k="source" v="GPS"/>
    <tag k="surface" v="asphalt"/>
  </way>
  <way id="40135391" version="11" timestamp="2025-01-28T21:41:22Z" changeset="161874751" uid="12858708" user="imfelixyeung">
    <nd ref="248018346"/>
    <nd ref="1997293960"/>
    <nd ref="1997293958"/>
    <nd ref="3985390495"/>
    <nd ref="6220421327"/>
    <nd ref="248018345"/>
    <nd ref="691585322"/>
    <nd ref="248018344"/>
    <tag k="highway" v="unclassified"/>
    <tag k="maxspeed" v="40 mph"/>
    <tag k="name" v="Wigton Lane"/>
    <tag k="source" v="local_knowledge"/>
    <tag k="source_ref" v="npe"/>
    <tag k="surface" v="asphalt"/>
  </way>
  <way id="40135396" version="8" timestamp="2025-01-28T21:41:22Z" changeset="161874751" uid="12858708" user="imfelixyeung">
    <nd ref="248018349"/>
    <nd ref="1997294045"/>
    <nd ref="1673598551"/>
    <nd ref="248018347"/>
    <nd ref="1673598531"/>
    <nd ref="1673598527"/>
    <nd ref="3985390539"/>
    <nd ref="5284244460"/>
    <nd ref="248018346"/>
    <tag k="highway" v="unclassified"/>
    <tag k="maxspeed" v="40 mph"/>
    <tag k="name" v="Wigton Lane"/>
    <tag k="source" v="local_knowledge"/>
    <tag k="source_ref" v="npe"/>
    <tag k="surface" v="asphalt"/>
  </way>
  <way id="40135424" version="23" timestamp="2024-06-17T20:17:25Z" changeset="152818627" uid="20112387" user="Anton Khorev (repair)">
    <nd ref="248018316"/>
    <nd ref="1659093034"/>
    <nd ref="9490847359"/>
    <nd ref="9490847338"/>
    <nd ref="9490847335"/>
    <nd ref="9490847348"/>
    <nd ref="9490847349"/>
    <nd ref="9490847384"/>
    <tag k="cycleway:both" v="no"/>
    <tag k="highway" v="tertiary"/>
    <tag k="lanes" v="2"/>
    <tag k="maxspeed" v="30 mph"/>
    <tag k="name" v="Wike Ridge Lane"/>
    <tag k="source" v="survey and npe"/>
    <tag k="surface" v="asphalt"/>
  </way>
  <way id="40135437" version="24" timestamp="2024-06-17T20:17:28Z" changeset="152818627" uid="20112387" user="Anton Khorev (repair)">
    <nd ref="6312647137"/>
    <nd ref="1659091737"/>
    <nd ref="6311321973"/>
    <nd ref="1647770295"/>
    <nd ref="1659092024"/>
    <nd ref="1659092318"/>
    <nd ref="1997293924"/>
    <nd ref="7530528155"/>
    <nd ref="1997293923"/>
    <nd ref="6312647139"/>
    <nd ref="6312647140"/>
    <nd ref="3181473271"/>
    <nd ref="6388011898"/>
    <nd ref="248018304"/>
    <tag k="highway" v="tertiary"/>
    <tag k="lanes" v="2"/>
    <tag k="name" v="Shadwell Lane"/>
    <tag k="postal_code" v="LS17"/>
    <tag k="source" v="local_knowledge"/>
    <tag k="source_ref" v="npe"/>
    <tag k="surface" v="asphalt"/>
  </way>
  <way id="40793401" version="6" timestamp="2023-12-18T18:49:27Z" changeset="145262625" uid="16898063" user="benjo384">
    <nd ref="495969128"/>
    <nd ref="11429542438"/>
    <nd ref="4141809838"/>
    <nd ref="495969140"/>
    <tag k="highway" v="primary"/>
    <tag k="lanes" v="2"/>
    <tag k="maxspeed" v="60 mph"/>
  </way>
  <way id="41877773" version="16" timestamp="2024-06-17T20:17:25Z" changeset="152818627" uid="20112387" user="Anton Khorev (repair)">
    <nd ref="27470972"/>
    <nd ref="1103127630"/>
    <nd ref="27470973"/>
    <nd ref="1054616062"/>
    <nd ref="27470974"/>
    <nd ref="5771484885"/>
    <nd ref="495969121"/>
    <nd ref="27457026"/>
    <nd ref="495969123"/>
    <nd ref="1116970057"/>
    <nd ref="27457003"/>
    <nd ref="495969124"/>
    <nd ref="495969125"/>
    <nd ref="27457027"/>
    <nd ref="27457028"/>
    <nd ref="1116970038"/>
    <nd ref="27457029"/>
    <nd ref="27457030"/>
    <nd ref="1116969064"/>
    <nd ref="27457031"/>
    <nd ref="27457032"/>
    <nd ref="1116969146"/>
    <nd ref="27457033"/>
    <nd ref="27457034"/>
    <nd ref="21436375"/>
    <tag k="bicycle" v="yes"/>
    <tag k="foot" v="yes"/>
    <tag k="highway" v="tertiary"/>
    <tag k="lanes" v="2"/>
    <tag k="name" v="Weardley Lane"/>
    <tag k="oneway" v="no"/>
    <tag k="source" v="survey"/>
    <tag k="surface" v="asphalt"/>
  </way>
  <way id="42719782" version="6" timestamp="2015-06-11T07:55:50Z" changeset="31890046" uid="2629998" user="barb-andmike">
    <nd ref="27470971"/>
    <nd ref="1103127236"/>
    <nd ref="534248726"/>
    <nd ref="534248727"/>
    <nd ref="534248728"/>
    <nd ref="534248729"/>
    <nd ref="718538986"/>
    <nd ref="534249084"/>
    <tag k="bicycle" v="yes"/>
    <tag k="foot" v="yes"/>
    <tag k="highway" v="unclassified"/>
    <tag k="name" v="Bedlam Lane"/>
    <tag k="oneway" v="no"/>
    <tag k="source" v="os_25k_firstseries"/>
    <tag k="surface" v="asphalt"/>
  </way>
  <way id="53629384" version="8" timestamp="2024-10-01T16:47:44Z" changeset="157348484" uid="111135" user="Pete Owens">
    <nd ref="677349608"/>
    <nd ref="4698118018"/>
    <tag k="bicycle" v="yes"/>
    <tag k="highway" v="trunk"/>
    <tag k="lanes" v="1"/>
    <tag k="maxspeed" v="30 mph"/>
    <tag k="name" v="Harrogate Road"/>
    <tag k="oneway" v="yes"/>
    <tag k="ref" v="A61"/>
    <tag k="source" v="OS_OpenData_StreetView;Bing;local_knowledge"/>
  </way>
  <way id="53629413" version="14" timestamp="2024-10-01T16:47:44Z" changeset="157348484" uid="111135" user="Pete Owens">
    <nd ref="677351533"/>
    <nd ref="2496360642"/>
    <nd ref="677349616"/>
    <nd ref="677351539"/>
    <nd ref="2496360636"/>
    <nd ref="677351542"/>
    <nd ref="677351545"/>
    <nd ref="677351548"/>
    <nd ref="677351552"/>
    <nd ref="677351554"/>
    <nd ref="677351557"/>
    <nd ref="677351563"/>
    <nd ref="677349608"/>
    <nd ref="2496360639"/>
    <nd ref="4698118019"/>
    <nd ref="677351573"/>
    <nd ref="677351576"/>
    <nd ref="1756851240"/>
    <nd ref="677351579"/>
    <nd ref="4698118026"/>
    <nd ref="677351582"/>
    <nd ref="677351533"/>
    <tag k="bicycle" v="yes"/>
    <tag k="highway" v="trunk"/>
    <tag k="junction" v="roundabout"/>
    <tag k="lanes" v="2"/>
    <tag k="maxspeed" v="30 mph"/>
    <tag k="ref" v="A61"/>
    <tag k="surface" v="asphalt"/>
  </way>
  <way id="53629417" version="3" timestamp="2017-02-21T22:07:31Z" changeset="46288646" uid="1802093" user="Paul Berry">
    <nd ref="1997294082"/>
    <nd ref="677351582"/>
    <tag k="highway" v="residential"/>
    <tag k="name" v="Harrogate Road"/>
    <tag k="oneway" v="yes"/>
  </way>
  <way id="53868516" version="8" timestamp="2025-01-28T21:41:22Z" changeset="161874751" uid="12858708" user="imfelixyeung">
    <nd ref="248018349"/>
    <nd ref="1050180626"/>
    <nd ref="1050180538"/>
    <nd ref="1674021878"/>
    <nd ref="1050180603"/>
    <nd ref="248018350"/>
    <tag k="highway" v="unclassified"/>
    <tag k="lanes" v="2"/>
    <tag k="maxspeed" v="40 mph"/>
    <tag k="name" v="Wigton Lane"/>
    <tag k="source" v="local_knowledge"/>
    <tag k="source_ref" v="npe"/>
    <tag k="surface" v="asphalt"/>
  </way>
  <way id="54968663" version="11" timestamp="2022-02-08T20:57:28Z" changeset="117176984" uid="4543415" user="The_JF">
    <nd ref="248018344"/>
    <nd ref="691585062"/>
    <nd ref="6220538169"/>
    <nd ref="6220538167"/>
    <nd ref="691581698"/>
    <tag k="highway" v="residential"/>
    <tag k="maxspeed" v="20 mph"/>
    <tag k="name" v="Plantation Gardens"/>
    <tag k="source" v="OS7"/>
  </way>
  <way id="54968674" version="8" timestamp="2022-02-08T20:57:28Z" changeset="117176984" uid="4543415" user="The_JF">
    <nd ref="691581698"/>
    <nd ref="6220538168"/>
    <nd ref="6220538170"/>
    <nd ref="1643351964"/>
    <nd ref="1643351953"/>
    <nd ref="691582543"/>
    <nd ref="691582549"/>
    <nd ref="691584561"/>
    <nd ref="691582551"/>
    <tag k="highway" v="residential"/>
    <tag k="maxspeed" v="20 mph"/>
    <tag k="name" v="High Ash Avenue"/>
    <tag k="source" v="OS7"/>
    <tag k="surface" v="asphalt"/>
  </way>
  <way id="54968803" version="11" timestamp="2025-04-20T16:31:34Z" changeset="165201060" uid="2160231" user="rtwbike">
    <nd ref="691582551"/>
    <nd ref="1050180608"/>
    <nd ref="691583526"/>
    <nd ref="1050180521"/>
    <nd ref="3985390533"/>
    <nd ref="6108895928"/>
    <nd ref="691583529"/>
    <nd ref="6504639541"/>
    <nd ref="691583530"/>
    <nd ref="3985390490"/>
    <nd ref="691583532"/>
    <nd ref="691592573"/>
    <nd ref="691583534"/>
    <nd ref="691586730"/>
    <nd ref="691583536"/>
    <nd ref="1050180588"/>
    <nd ref="691583547"/>
    <nd ref="1050180503"/>
    <nd ref="691583552"/>
    <nd ref="691583557"/>
    <nd ref="1670869664"/>
    <nd ref="1050180576"/>
    <nd ref="691583562"/>
    <nd ref="691583565"/>
    <nd ref="5845862739"/>
    <nd ref="691583569"/>
    <nd ref="1050180533"/>
    <nd ref="691582563"/>
    <nd ref="1050180449"/>
    <nd ref="248018349"/>
    <tag k="highway" v="residential"/>
    <tag k="lane_markings" v="no"/>
    <tag k="name" v="High Ash Drive"/>
    <tag k="source" v="OS7"/>
    <tag k="surface" v="asphalt"/>
  </way>
  <way id="54968853" version="4" timestamp="2016-02-03T01:42:03Z" changeset="36969596" uid="493595" user="Yorvik Prestigitator">
    <nd ref="691583555"/>
    <nd ref="1050180467"/>
    <nd ref="691584101"/>
    <nd ref="1050180554"/>
    <nd ref="691584103"/>
    <nd ref="1050180560"/>
    <nd ref="691584106"/>
    <nd ref="1050180462"/>
    <nd ref="691584107"/>
    <nd ref="1050180578"/>
    <nd ref="691584108"/>
    <nd ref="691586594"/>
    <nd ref="691584111"/>
    <nd ref="1050180627"/>
    <nd ref="691584113"/>
    <nd ref="691584115"/>
    <nd ref="3985390557"/>
    <nd ref="1050180540"/>
    <nd ref="691584117"/>
    <nd ref="691582556"/>
    <tag k="highway" v="residential"/>
    <tag k="name" v="High Ash Crescent"/>
    <tag k="source" v="OS7"/>
  </way>
  <way id="54968870" version="2" timestamp="2010-12-19T22:22:53Z" changeset="6711435" uid="2330" user="LeedsTracker">
    <nd ref="691584103"/>
    <nd ref="1050180484"/>
    <nd ref="691584410"/>
    <nd ref="691584413"/>
    <nd ref="691584115"/>
    <tag k="highway" v="residential"/>
    <tag k="name" v="High Ash Mount"/>
    <tag k="source" v="OS7"/>
  </way>
  <way id="54968887" version="4" timestamp="2022-02-08T20:57:28Z" changeset="117176984" uid="4543415" user="The_JF">
    <nd ref="691584561"/>
    <nd ref="691585021"/>
    <nd ref="3985390556"/>
    <nd ref="691585024"/>
    <nd ref="3985390465"/>
    <nd ref="3985390500"/>
    <nd ref="3985390564"/>
    <nd ref="691585026"/>
    <nd ref="3985390521"/>
    <nd ref="691585028"/>
    <nd ref="691585032"/>
    <nd ref="6220503498"/>
    <nd ref="6220503500"/>
    <nd ref="6220503499"/>
    <nd ref="691585035"/>
    <nd ref="691582543"/>
    <tag k="highway" v="residential"/>
    <tag k="maxspeed" v="20 mph"/>
    <tag k="name" v="Barfield Crescent"/>
    <tag k="source" v="OS7"/>
  </way>
  <way id="54968904" version="4" timestamp="2022-02-08T20:57:28Z" changeset="117176984" uid="4543415" user="The_JF">
    <nd ref="691585062"/>
    <nd ref="1643348641"/>
    <nd ref="691585280"/>
    <nd ref="6220482711"/>
    <nd ref="6220482710"/>
    <nd ref="691585281"/>
    <nd ref="691585282"/>
    <tag k="highway" v="residential"/>
    <tag k="maxspeed" v="20 mph"/>
    <tag k="name" v="Plantation Avenue"/>
    <tag k="source" v="OS7"/>
  </way>
  <way id="54968915" version="7" timestamp="2022-02-08T20:57:28Z" changeset="117176984" uid="4543415" user="The_JF">
    <nd ref="691585322"/>
    <nd ref="691585719"/>
    <nd ref="1997293961"/>
    <nd ref="6220392471"/>
    <nd ref="1997293962"/>
    <nd ref="6220392470"/>
    <nd ref="691585722"/>
    <nd ref="6220392469"/>
    <nd ref="8407079026"/>
    <nd ref="691585724"/>
    <nd ref="1673598554"/>
    <nd ref="691585729"/>
    <nd ref="1997293986"/>
    <nd ref="691585733"/>
    <nd ref="691585736"/>
    <nd ref="1997293999"/>
    <nd ref="6205382190"/>
    <nd ref="6205382188"/>
    <nd ref="6205382189"/>
    <nd ref="691585739"/>
    <nd ref="6205382187"/>
    <nd ref="6205382186"/>
    <nd ref="1997294016"/>
    <nd ref="691585742"/>
    <nd ref="9490847394"/>
    <tag k="highway" v="residential"/>
    <tag k="maxspeed" v="20 mph"/>
    <tag k="name" v="Wigton Chase"/>
    <tag k="source" v="OS7"/>
  </way>
  <way id="54968943" version="5" timestamp="2022-02-08T20:57:28Z" changeset="117176984" uid="4543415" user="The_JF">
    <nd ref="691586506"/>
    <nd ref="1997294024"/>
    <nd ref="691586507"/>
    <nd ref="6215723685"/>
    <nd ref="6215723686"/>
    <nd ref="6215723687"/>
    <nd ref="1673598559"/>
    <tag k="highway" v="residential"/>
    <tag k="maxspeed" v="20 mph"/>
    <tag k="name" v="Wike Ridge Close"/>
    <tag k="source" v="OS7"/>
    <tag k="source:name" v="OS_OpenData_Locator"/>
  </way>
  <way id="54968947" version="1" timestamp="2010-04-10T15:41:59Z" changeset="4383641" uid="45820" user="Paper">
    <nd ref="691586594"/>
    <nd ref="691586730"/>
    <tag k="highway" v="residential"/>
    <tag k="source" v="OS7"/>
  </way>
  <way id="54969238" version="5" timestamp="2016-02-03T01:51:35Z" changeset="36969648" uid="493595" user="Yorvik Prestigitator">
    <nd ref="691592231"/>
    <nd ref="1050180550"/>
    <nd ref="691592555"/>
    <nd ref="691592557"/>
    <nd ref="691592560"/>
    <nd ref="691593507"/>
    <nd ref="691592562"/>
    <nd ref="691592573"/>
    <tag k="highway" v="residential"/>
    <tag k="name" v="Linton Road"/>
    <tag k="source" v="OS7"/>
  </way>
  <way id="54969247" version="5" timestamp="2018-08-21T09:59:26Z" changeset="61849800" uid="3316592" user="Arthtoach">
    <nd ref="691592555"/>
    <nd ref="691593262"/>
    <nd ref="691593880"/>
    <nd ref="691593269"/>
    <nd ref="691593278"/>
    <nd ref="1997293830"/>
    <nd ref="5845921665"/>
    <nd ref="1997293833"/>
    <nd ref="5845921664"/>
    <nd ref="5845921663"/>
    <nd ref="1050180573"/>
    <nd ref="691593286"/>
    <nd ref="691593297"/>
    <nd ref="691593302"/>
    <nd ref="691593307"/>
    <nd ref="691593310"/>
    <nd ref="691583536"/>
    <tag k="highway" v="residential"/>
    <tag k="name" v="Linton Rise"/>
    <tag k="source" v="OS7"/>
  </way>
  <way id="61215723" version="14" timestamp="2024-09-03T15:47:13Z" changeset="156148554" uid="8772934" user="mapperich">
    <nd ref="1103127324"/>
    <nd ref="12153931004"/>
    <nd ref="12153931009"/>
    <nd ref="2466472393"/>
    <nd ref="2466472589"/>
    <nd ref="12153931010"/>
    <nd ref="12153931007"/>
    <nd ref="1103127341"/>
    <nd ref="765215260"/>
    <nd ref="12153931006"/>
    <nd ref="12153931011"/>
    <nd ref="12153931008"/>
    <nd ref="12153931005"/>
    <nd ref="765215264"/>
    <nd ref="2466472511"/>
    <nd ref="1103127324"/>
    <tag k="access" v="customers"/>
    <tag k="building" v="palace"/>
    <tag k="building:levels" v="2"/>
    <tag k="castle_type" v="palace"/>
    <tag k="description" v="Family seat of the Lascelles family."/>
    <tag k="historic" v="castle"/>
    <tag k="is_in:attraction" v="Harewood House &amp; Gardens"/>
    <tag k="name" v="Harewood House"/>
    <tag k="source" v="local_knowledge;Bing"/>
    <tag k="website" v="https://www.harewood.org/"/>
    <tag k="wikidata" v="Q1585312"/>
    <tag k="wikimedia_commons" v="Category:Harewood House"/>
    <tag k="wikipedia" v="en:Harewood House"/>
  </way>
  <way id="61215953" version="5" timestamp="2020-05-26T08:37:49Z" changeset="85756236" uid="308" user="MichaelCollinson">
    <nd ref="765227714"/>
    <nd ref="765227717"/>
    <nd ref="765227720"/>
    <nd ref="765227723"/>
    <nd ref="765229124"/>
    <nd ref="1985025801"/>
    <nd ref="765227727"/>
    <nd ref="765227730"/>
    <tag k="highway" v="residential"/>
    <tag k="name" v="Bondgate"/>
    <tag k="source" v="OS OpenData StreetView;survey"/>
    <tag k="surface" v="asphalt"/>
  </way>
  <way id="61216031" version="3" timestamp="2021-07-14T16:21:01Z" changeset="107991459" uid="4543415" user="The_JF">
    <nd ref="765229115"/>
    <nd ref="765229118"/>
    <nd ref="8920017560"/>
    <nd ref="765229121"/>
    <nd ref="765229124"/>
    <tag k="highway" v="residential"/>
    <tag k="name" v="Bondgate"/>
    <tag k="source" v="Bing"/>
  </way>
  <way id="61216222" version="2" timestamp="2019-01-12T16:58:18Z" changeset="66255086" uid="3316592" user="Arthtoach">
    <nd ref="27456688"/>
    <nd ref="765230383"/>
    <nd ref="765230386"/>
    <nd ref="765230389"/>
    <nd ref="765230391"/>
    <nd ref="765230394"/>
    <nd ref="765230397"/>
    <nd ref="765230399"/>
    <nd ref="765230403"/>
    <nd ref="765230404"/>
    <nd ref="765230405"/>
    <nd ref="765230409"/>
    <tag k="highway" v="residential"/>
    <tag k="name" v="Harewood Mews"/>
    <tag k="source" v="OS OpenData StreetView"/>
  </way>
  <way id="61216928" version="4" timestamp="2019-01-12T16:51:33Z" changeset="66254953" uid="3316592" user="Arthtoach">
    <nd ref="765234932"/>
    <nd ref="6203728741"/>
    <nd ref="765234930"/>
    <nd ref="765235536"/>
    <nd ref="6203728751"/>
    <nd ref="6203728752"/>
    <nd ref="765235541"/>
    <nd ref="6203728742"/>
    <nd ref="6203728753"/>
    <nd ref="765234912"/>
    <nd ref="6203728754"/>
    <nd ref="6203728744"/>
    <nd ref="6203728745"/>
    <nd ref="765234916"/>
    <nd ref="6203728743"/>
    <nd ref="765234919"/>
    <nd ref="6203728746"/>
    <nd ref="6203728747"/>
    <nd ref="765234921"/>
    <nd ref="6203728748"/>
    <nd ref="6203728749"/>
    <nd ref="765234924"/>
    <nd ref="6203728750"/>
    <nd ref="765234927"/>
    <nd ref="6203728741"/>
    <tag k="highway" v="residential"/>
    <tag k="name" v="Spring Gardens"/>
    <tag k="source" v="OS OpenData StreetView"/>
    <tag k="source:name" v="OS_Opendata_Locator"/>
  </way>
  <way id="65289068" version="18" timestamp="2024-06-17T20:17:25Z" changeset="152818627" uid="20112387" user="Anton Khorev (repair)">
    <nd ref="27481612"/>
    <nd ref="945000604"/>
    <nd ref="248018342"/>
    <nd ref="2060088634"/>
    <nd ref="1589580926"/>
    <nd ref="248018341"/>
    <nd ref="1934461041"/>
    <tag k="highway" v="tertiary"/>
    <tag k="lanes" v="2"/>
    <tag k="maxspeed" v="30 mph"/>
    <tag k="name" v="Wike Ridge Lane"/>
    <tag k="source" v="survey and npe"/>
  </way>
  <way id="65289089" version="8" timestamp="2021-02-03T06:57:53Z" changeset="98624401" uid="10455643" user="kotamadh">
    <nd ref="798171683"/>
    <nd ref="2060088474"/>
    <nd ref="27481608"/>
    <nd ref="2060088551"/>
    <nd ref="2060088510"/>
    <nd ref="27481609"/>
    <nd ref="2060088637"/>
    <nd ref="2060088476"/>
    <nd ref="8389534181"/>
    <nd ref="27481610"/>
    <nd ref="6387444614"/>
    <nd ref="2060088613"/>
    <nd ref="2060088498"/>
    <nd ref="27481611"/>
    <nd ref="2060088481"/>
    <nd ref="2060088441"/>
    <nd ref="798171953"/>
    <nd ref="8272792260"/>
    <nd ref="1589584592"/>
    <nd ref="1589584321"/>
    <nd ref="1589583697"/>
    <nd ref="798172338"/>
    <nd ref="1589582684"/>
    <nd ref="27481612"/>
    <tag k="highway" v="unclassified"/>
    <tag k="name" v="Forge Lane"/>
    <tag k="source" v="historical"/>
    <tag k="source_ref" v="npe"/>
  </way>
  <way id="65289093" version="2" timestamp="2017-11-22T01:02:14Z" changeset="53989317" uid="493595" user="Yorvik Prestigitator">
    <nd ref="798172128"/>
    <nd ref="5242004099"/>
    <nd ref="798172338"/>
    <tag k="highway" v="unclassified"/>
  </way>
  <way id="65289100" version="18" timestamp="2024-06-17T20:17:25Z" changeset="152818627" uid="20112387" user="Anton Khorev (repair)">
    <nd ref="935630591"/>
    <nd ref="6467591855"/>
    <nd ref="935630537"/>
    <nd ref="6467591856"/>
    <nd ref="6467591857"/>
    <nd ref="935630470"/>
    <nd ref="6467591858"/>
    <nd ref="367293028"/>
    <nd ref="6467591859"/>
    <nd ref="6467591860"/>
    <nd ref="2013624214"/>
    <nd ref="6467591861"/>
    <nd ref="6467591862"/>
    <nd ref="935630627"/>
    <tag k="highway" v="tertiary"/>
    <tag k="lanes" v="2"/>
    <tag k="maxspeed" v="40 mph"/>
    <tag k="name" v="Backstone Gill Lane"/>
    <tag k="source" v="survey and npe"/>
    <tag k="surface" v="asphalt"/>
  </way>
  <way id="80195736" version="5" timestamp="2019-05-12T15:03:45Z" changeset="70162853" uid="3316592" user="Arthtoach">
    <nd ref="935630503"/>
    <nd ref="935630657"/>
    <nd ref="935630585"/>
    <nd ref="935630520"/>
    <nd ref="935630662"/>
    <nd ref="935630588"/>
    <nd ref="935630533"/>
    <nd ref="935630466"/>
    <nd ref="2014433448"/>
    <nd ref="2014433256"/>
    <nd ref="935630586"/>
    <nd ref="935630530"/>
    <nd ref="935630464"/>
    <nd ref="935630616"/>
    <nd ref="935630557"/>
    <nd ref="935630497"/>
    <nd ref="935630652"/>
    <tag k="highway" v="unclassified"/>
    <tag k="lanes" v="2"/>
    <tag k="name" v="Coal Road"/>
    <tag k="source" v="OS OpenData StreetView"/>
  </way>
  <way id="90524059" version="13" timestamp="2024-10-01T16:47:44Z" changeset="157348484" uid="111135" user="Pete Owens">
    <nd ref="245495132"/>
    <nd ref="1050180494"/>
    <nd ref="2496393499"/>
    <nd ref="1050180619"/>
    <nd ref="7575101686"/>
    <nd ref="1050180513"/>
    <nd ref="6548792930"/>
    <nd ref="1050180522"/>
    <nd ref="4698118025"/>
    <nd ref="1050180610"/>
    <nd ref="6884781720"/>
    <nd ref="1050180545"/>
    <nd ref="1050180630"/>
    <nd ref="1997294021"/>
    <nd ref="1050180563"/>
    <nd ref="1050180464"/>
    <tag k="bicycle" v="yes"/>
    <tag k="highway" v="trunk"/>
    <tag k="lanes" v="2"/>
    <tag k="maxspeed" v="30 mph"/>
    <tag k="maxspeed:type" v="sign"/>
    <tag k="name" v="Harrogate Road"/>
    <tag k="oneway" v="yes"/>
    <tag k="ref" v="A61"/>
  </way>
  <way id="95070727" version="9" timestamp="2024-06-14T22:35:24Z" changeset="152700850" uid="1778799" user="SomeoneElse_Revert">
    <nd ref="1103089061"/>
    <nd ref="1103088738"/>
    <nd ref="1103088695"/>
    <nd ref="1103089056"/>
    <nd ref="1103089005"/>
    <nd ref="1103089129"/>
    <nd ref="1103089061"/>
    <tag k="accessibility" v="Accessible to walls by publicily-accessible footpath. Inner access dangerous and forbidden."/>
    <tag k="building" v="ruins"/>
    <tag k="castle_type" v="defensive"/>
    <tag k="description" v="C14th castle build by by Sir William De Aldeburgh and occupied until about 1600."/>
    <tag k="historic" v="castle"/>
    <tag k="name" v="Harewood Castle"/>
    <tag k="ruins" v="yes"/>
    <tag k="visibility" v="Roof-level fairly complete outer structure. Need to get close as now surrounded by tall trees."/>
    <tag k="wikidata" v="Q5656954"/>
    <tag k="wikipedia" v="en:Harewood Castle"/>
  </way>
  <way id="95071668" version="4" timestamp="2022-06-17T09:38:17Z" changeset="122500167" uid="4611642" user="miroslavuzice87">
    <nd ref="1103096867"/>
    <nd ref="1103096737"/>
    <nd ref="1103096830"/>
    <nd ref="1103096802"/>
    <nd ref="1103096792"/>
    <nd ref="1103096872"/>
    <nd ref="1103096826"/>
    <nd ref="1103096869"/>
    <nd ref="1103096867"/>
    <tag k="building" v="church"/>
    <tag k="name" v="All Saints"/>
    <tag k="source" v="Bing"/>
    <tag k="wikidata" v="Q4729322"/>
    <tag k="wikipedia" v="en:All Saints' Church, Harewood"/>
  </way>
  <way id="95077691" version="5" timestamp="2021-08-12T23:12:54Z" changeset="109597237" uid="242345" user="confusedbuffalo">
    <nd ref="1103127232"/>
    <nd ref="1103127196"/>
    <nd ref="1103127211"/>
    <nd ref="1103127414"/>
    <nd ref="1103127291"/>
    <nd ref="1103127349"/>
    <nd ref="1103127547"/>
    <nd ref="1103127426"/>
    <nd ref="1103127232"/>
    <tag k="addr:city" v="Harewood"/>
    <tag k="addr:housenumber" v="14"/>
    <tag k="addr:street" v="East Yard"/>
    <tag k="building" v="commercial"/>
    <tag k="smoking" v="no"/>
    <tag k="source" v="Bing;local knowledge"/>
  </way>
  <way id="95077708" version="4" timestamp="2020-12-30T10:17:33Z" changeset="96658596" uid="11734152" user="baggg">
    <nd ref="1103127630"/>
    <nd ref="1103127479"/>
    <nd ref="1103127510"/>
    <nd ref="1103127209"/>
    <nd ref="7283892627"/>
    <nd ref="8273553281"/>
    <nd ref="7283892643"/>
    <nd ref="1103127517"/>
    <nd ref="1103127295"/>
    <tag k="access" v="unknown"/>
    <tag k="highway" v="unclassified"/>
    <tag k="source" v="Bing"/>
  </way>
  <way id="112690985" version="4" timestamp="2014-02-05T14:46:49Z" changeset="20394042" uid="1920316" user="MarkAntonyRay">
    <nd ref="1280351322"/>
    <nd ref="1280351260"/>
    <nd ref="1280351331"/>
    <nd ref="1280351326"/>
    <nd ref="1280351298"/>
    <nd ref="1280351322"/>
    <tag k="building" v="yes"/>
    <tag k="name" v="The Barn"/>
  </way>
  <way id="112690991" version="3" timestamp="2014-02-05T14:46:50Z" changeset="20394042" uid="1920316" user="MarkAntonyRay">
    <nd ref="1280351258"/>
    <nd ref="2068663586"/>
    <nd ref="1280351279"/>
    <nd ref="1280351266"/>
    <nd ref="1280351261"/>
    <nd ref="1280351258"/>
    <tag k="addr:housename" v="YTV Locations Building"/>
    <tag k="building" v="yes"/>
    <tag k="name" v="The Sweet Factory"/>
  </way>
  <way id="145565200" version="3" timestamp="2012-10-24T22:11:18Z" changeset="13621998" uid="106831" user="sc71">
    <nd ref="1589583697"/>
    <nd ref="1589583281"/>
    <nd ref="1589582601"/>
    <nd ref="1589582438"/>
    <nd ref="1589581987"/>
    <nd ref="1589581893"/>
    <nd ref="1589581769"/>
    <nd ref="1589581704"/>
    <nd ref="1589893125"/>
    <nd ref="1589581653"/>
    <nd ref="1589581463"/>
    <nd ref="1589581437"/>
    <nd ref="1589581413"/>
    <nd ref="1589581414"/>
    <nd ref="1589581443"/>
    <nd ref="1589581455"/>
    <nd ref="1589581513"/>
    <nd ref="1589581613"/>
    <nd ref="1589581630"/>
    <nd ref="1589581657"/>
    <nd ref="1589581691"/>
    <nd ref="1589581718"/>
    <nd ref="1589581755"/>
    <nd ref="1589581810"/>
    <nd ref="1589581856"/>
    <nd ref="1589581933"/>
    <nd ref="1589581955"/>
    <nd ref="1589581965"/>
    <nd ref="1589581967"/>
    <nd ref="1589581980"/>
    <nd ref="1589581985"/>
    <nd ref="1589582017"/>
    <nd ref="1589582051"/>
    <nd ref="1589582046"/>
    <nd ref="1589581994"/>
    <nd ref="1589581982"/>
    <tag k="highway" v="unclassified"/>
    <tag k="name" v="School Lane"/>
    <tag k="source:name" v="OS_Opendata_Locator"/>
  </way>
  <way id="145565558" version="5" timestamp="2019-08-12T16:48:38Z" changeset="73276568" uid="592" user="JonS">
    <nd ref="1589582470"/>
    <nd ref="1589582498"/>
    <nd ref="1589582325"/>
    <nd ref="1589581912"/>
    <nd ref="1589581847"/>
    <nd ref="1589581838"/>
    <nd ref="1589582470"/>
    <tag k="addr:city" v="Leeds"/>
    <tag k="addr:housename" v="Leeds Golf Centre"/>
    <tag k="addr:postcode" v="LS17 9JW"/>
    <tag k="addr:street" v="Wike Ridge Lane"/>
    <tag k="addr:suburb" v="Alwoodley"/>
    <tag k="building" v="yes"/>
    <tag k="fhrs:id" v="1151372"/>
    <tag k="name" v="Wike Ridge Inn"/>
  </way>
  <way id="148303545" version="7" timestamp="2020-12-31T09:17:49Z" changeset="96718902" uid="11734030" user="uchodip">
    <nd ref="935630493"/>
    <nd ref="935630652"/>
    <nd ref="1614128664"/>
    <nd ref="1614128665"/>
    <nd ref="6422728299"/>
    <nd ref="248045315"/>
    <nd ref="1614128616"/>
    <nd ref="8273881680"/>
    <nd ref="8273881682"/>
    <nd ref="1614128641"/>
    <nd ref="8273881681"/>
    <nd ref="8273881683"/>
    <nd ref="3182311068"/>
    <nd ref="6422728294"/>
    <nd ref="3182311032"/>
    <nd ref="8273881678"/>
    <nd ref="8273881679"/>
    <nd ref="8273881654"/>
    <nd ref="6387465744"/>
    <nd ref="1614128632"/>
    <nd ref="1614128611"/>
    <nd ref="1614128600"/>
    <nd ref="1614128606"/>
    <nd ref="8277413281"/>
    <nd ref="1614128621"/>
    <nd ref="1614128623"/>
    <nd ref="6387465711"/>
    <nd ref="1614128668"/>
    <nd ref="6387465712"/>
    <nd ref="6387465713"/>
    <nd ref="1614128658"/>
    <nd ref="1614128608"/>
    <tag k="highway" v="unclassified"/>
    <tag k="lanes" v="2"/>
    <tag k="name" v="Tarn Lane"/>
    <tag k="source" v="OS_OpenData_StreetView"/>
  </way>
  <way id="150157741" version="6" timestamp="2024-10-01T16:47:44Z" changeset="157348484" uid="111135" user="Pete Owens">
    <nd ref="677349616"/>
    <nd ref="1630853052"/>
    <tag k="bicycle" v="yes"/>
    <tag k="highway" v="trunk"/>
    <tag k="lanes" v="1"/>
    <tag k="maxspeed" v="30 mph"/>
    <tag k="name" v="Harrogate Road"/>
    <tag k="oneway" v="yes"/>
    <tag k="ref" v="A61"/>
    <tag k="source" v="OS_OpenData_StreetView;Bing;local_knowledge;npe"/>
  </way>
  <way id="150157742" version="7" timestamp="2024-10-01T16:47:44Z" changeset="157348484" uid="111135" user="Pete Owens">
    <nd ref="1630853052"/>
    <nd ref="2751179833"/>
    <nd ref="677351542"/>
    <tag k="bicycle" v="yes"/>
    <tag k="highway" v="trunk"/>
    <tag k="lanes" v="1"/>
    <tag k="maxspeed" v="30 mph"/>
    <tag k="name" v="Harrogate Road"/>
    <tag k="oneway" v="yes"/>
    <tag k="ref" v="A61"/>
    <tag k="source" v="OS_OpenData_StreetView;Bing;local_knowledge;npe"/>
  </way>
  <way id="151521258" version="5" timestamp="2022-02-08T20:57:28Z" changeset="117176984" uid="4543415" user="The_JF">
    <nd ref="1643337858"/>
    <nd ref="6312651918"/>
    <nd ref="1643337861"/>
    <tag k="highway" v="residential"/>
    <tag k="maxspeed" v="20 mph"/>
    <tag k="name" v="Longwood Way"/>
    <tag k="oneway" v="no"/>
  </way>
  <way id="151521478" version="4" timestamp="2022-02-08T20:57:28Z" changeset="117176984" uid="4543415" user="The_JF">
    <nd ref="1643340994"/>
    <nd ref="1643340995"/>
    <tag k="highway" v="residential"/>
    <tag k="maxspeed" v="20 mph"/>
    <tag k="name" v="Newby Garth"/>
    <tag k="oneway" v="no"/>
  </way>
  <way id="151521559" version="5" timestamp="2022-02-08T20:57:28Z" changeset="117176984" uid="4543415" user="The_JF">
    <nd ref="1643342162"/>
    <nd ref="1643342159"/>
    <nd ref="6220471770"/>
    <nd ref="6220471772"/>
    <nd ref="6220471771"/>
    <nd ref="1643342160"/>
    <nd ref="1643342161"/>
    <tag k="highway" v="residential"/>
    <tag k="maxspeed" v="20 mph"/>
    <tag k="name" v="Silverdale Avenue"/>
    <tag k="oneway" v="no"/>
  </way>
  <way id="151522305" version="4" timestamp="2022-02-08T20:57:28Z" changeset="117176984" uid="4543415" user="The_JF">
    <nd ref="1643348641"/>
    <nd ref="1643348646"/>
    <tag k="highway" v="residential"/>
    <tag k="maxspeed" v="20 mph"/>
    <tag k="name" v="Overdale Avenue"/>
    <tag k="oneway" v="no"/>
  </way>
  <way id="151522306" version="3" timestamp="2022-02-08T20:57:28Z" changeset="117176984" uid="4543415" user="The_JF">
    <nd ref="1643348643"/>
    <nd ref="1643348638"/>
    <tag k="highway" v="residential"/>
    <tag k="maxspeed" v="20 mph"/>
    <tag k="name" v="Raygill Close"/>
    <tag k="oneway" v="no"/>
  </way>
  <way id="151522446" version="4" timestamp="2022-02-08T20:57:28Z" changeset="117176984" uid="4543415" user="The_JF">
    <nd ref="1643349561"/>
    <nd ref="1643349555"/>
    <tag k="highway" v="residential"/>
    <tag k="maxspeed" v="20 mph"/>
    <tag k="name" v="Carlton Garth"/>
    <tag k="oneway" v="no"/>
  </way>
  <way id="151522845" version="3" timestamp="2022-02-08T20:57:28Z" changeset="117176984" uid="4543415" user="The_JF">
    <nd ref="1643351971"/>
    <nd ref="1643351953"/>
    <tag k="highway" v="residential"/>
    <tag k="maxspeed" v="20 mph"/>
    <tag k="name" v="Barfield Mount"/>
    <tag k="oneway" v="no"/>
  </way>
  <way id="151522846" version="3" timestamp="2022-02-08T20:57:28Z" changeset="117176984" uid="4543415" user="The_JF">
    <nd ref="1643351956"/>
    <nd ref="1643351964"/>
    <tag k="highway" v="residential"/>
    <tag k="maxspeed" v="20 mph"/>
    <tag k="name" v="Barfield Grove"/>
    <tag k="oneway" v="no"/>
  </way>
  <way id="151939144" version="7" timestamp="2019-03-02T16:45:15Z" changeset="67718102" uid="3316592" user="Arthtoach">
    <nd ref="1647770295"/>
    <nd ref="1647779390"/>
    <nd ref="6312771253"/>
    <nd ref="6312771252"/>
    <nd ref="1647770297"/>
    <nd ref="1647782496"/>
    <nd ref="1647784076"/>
    <nd ref="1647770289"/>
    <nd ref="6312779115"/>
    <nd ref="1647770309"/>
    <nd ref="1647770293"/>
    <tag k="highway" v="residential"/>
    <tag k="name" v="Shadwell Park Avenue"/>
    <tag k="oneway" v="no"/>
  </way>
  <way id="153195280" version="1" timestamp="2012-03-04T15:00:46Z" changeset="10869327" uid="592021" user="Resiak">
    <nd ref="1659092022"/>
    <nd ref="1659092024"/>
    <tag k="highway" v="residential"/>
    <tag k="name" v="Harrogate View"/>
    <tag k="oneway" v="no"/>
  </way>
  <way id="153195353" version="2" timestamp="2012-11-04T14:35:43Z" changeset="13747607" uid="106831" user="sc71">
    <nd ref="1659092315"/>
    <nd ref="1659092314"/>
    <nd ref="1659092316"/>
    <nd ref="1659092318"/>
    <tag k="highway" v="residential"/>
    <tag k="name" v="Emville Avenue"/>
    <tag k="oneway" v="no"/>
  </way>
  <way id="153195380" version="1" timestamp="2012-03-04T15:02:20Z" changeset="10869327" uid="592021" user="Resiak">
    <nd ref="1659093032"/>
    <nd ref="1659093034"/>
    <tag k="highway" v="residential"/>
    <tag k="name" v="Brandon Court"/>
  </way>
  <way id="154342914" version="5" timestamp="2020-12-31T08:05:45Z" changeset="96714358" uid="10252551" user="amanura">
    <nd ref="1668891651"/>
    <nd ref="2496375574"/>
    <nd ref="2496375594"/>
    <nd ref="2496375586"/>
    <nd ref="1668891653"/>
    <nd ref="2496375565"/>
    <nd ref="1668891644"/>
    <nd ref="2496375561"/>
    <nd ref="2496375559"/>
    <nd ref="2496375571"/>
    <nd ref="6205162347"/>
    <nd ref="1668891655"/>
    <nd ref="1668891643"/>
    <nd ref="2496375579"/>
    <nd ref="2496375556"/>
    <nd ref="1668891645"/>
    <nd ref="2496375564"/>
    <nd ref="8277286776"/>
    <nd ref="2496375598"/>
    <nd ref="1668891652"/>
    <nd ref="8277286775"/>
    <nd ref="2496375585"/>
    <nd ref="2496375557"/>
    <nd ref="2496375581"/>
    <nd ref="1668891646"/>
    <nd ref="1668891648"/>
    <nd ref="1668891649"/>
    <nd ref="2496375554"/>
    <nd ref="1668891650"/>
    <nd ref="2496375548"/>
    <nd ref="1668891654"/>
    <nd ref="2496375569"/>
    <nd ref="798171683"/>
    <tag k="highway" v="unclassified"/>
    <tag k="lanes" v="1"/>
    <tag k="lit" v="no"/>
    <tag k="name" v="Fortshot Lane"/>
    <tag k="oneway" v="no"/>
    <tag k="source" v="survey"/>
    <tag k="surface" v="asphalt"/>
  </way>
  <way id="154552041" version="11" timestamp="2023-04-26T14:20:24Z" changeset="135389488" uid="308" user="MichaelCollinson">
    <nd ref="248018346"/>
    <nd ref="1673598544"/>
    <nd ref="1670864511"/>
    <nd ref="1997294043"/>
    <nd ref="9410991496"/>
    <nd ref="9877710348"/>
    <nd ref="9410344993"/>
    <nd ref="1670864515"/>
    <nd ref="8077891492"/>
    <nd ref="1670864502"/>
    <nd ref="1670864508"/>
    <nd ref="1670864495"/>
    <nd ref="5397103889"/>
    <nd ref="1670864497"/>
    <nd ref="1756851230"/>
    <nd ref="3461459961"/>
    <nd ref="1670864506"/>
    <nd ref="7979668410"/>
    <nd ref="1670864503"/>
    <nd ref="9606403826"/>
    <tag k="fixme" v="last part is gravel"/>
    <tag k="highway" v="unclassified"/>
    <tag k="lanes" v="1"/>
    <tag k="lit" v="no"/>
    <tag k="name" v="Manor House Lane"/>
    <tag k="surface" v="asphalt"/>
  </way>
  <way id="154900917" version="3" timestamp="2022-02-08T20:57:28Z" changeset="117176984" uid="4543415" user="The_JF">
    <nd ref="9490847391"/>
    <nd ref="6205382264"/>
    <nd ref="6205382265"/>
    <nd ref="6205382266"/>
    <nd ref="1673598546"/>
    <nd ref="6205382267"/>
    <nd ref="1673598577"/>
    <nd ref="1673598554"/>
    <tag k="highway" v="residential"/>
    <tag k="maxspeed" v="20 mph"/>
  </way>
  <way id="154900918" version="3" timestamp="2018-11-30T19:36:34Z" changeset="65055774" uid="3316592" user="Arthtoach">
    <nd ref="6106960704"/>
    <nd ref="6106960705"/>
    <nd ref="6106960706"/>
    <nd ref="6106960707"/>
    <nd ref="6106960708"/>
    <nd ref="1673598549"/>
    <nd ref="6106949000"/>
    <nd ref="1673598574"/>
    <nd ref="6106949001"/>
    <nd ref="6106949002"/>
    <nd ref="6106949003"/>
    <nd ref="1673598582"/>
    <nd ref="6106949004"/>
    <nd ref="6106949005"/>
    <nd ref="6106949006"/>
    <nd ref="1673598583"/>
    <nd ref="6106949007"/>
    <nd ref="6106949008"/>
    <nd ref="6106949009"/>
    <nd ref="1673598571"/>
    <tag k="highway" v="residential"/>
    <tag k="name" v="Wigton Park Close"/>
  </way>
  <way id="154900919" version="3" timestamp="2022-02-08T20:57:28Z" changeset="117176984" uid="4543415" user="The_JF">
    <nd ref="1997293963"/>
    <nd ref="1673598539"/>
    <nd ref="1673598528"/>
    <nd ref="9490847377"/>
    <nd ref="1997293966"/>
    <nd ref="1673598552"/>
    <nd ref="691586549"/>
    <tag k="highway" v="residential"/>
    <tag k="maxspeed" v="20 mph"/>
    <tag k="name" v="Wike Ridge Grove"/>
    <tag k="source:name" v="OS_OpenData_Locator"/>
  </way>
  <way id="154900920" version="1" timestamp="2012-03-13T17:15:28Z" changeset="10969050" uid="592021" user="Resiak">
    <nd ref="1673598550"/>
    <nd ref="1673598540"/>
    <nd ref="1673598555"/>
    <nd ref="1673598547"/>
    <tag k="highway" v="residential"/>
    <tag k="name" v="Wigton Green"/>
  </way>
  <way id="154900921" version="2" timestamp="2016-02-03T01:42:02Z" changeset="36969596" uid="493595" user="Yorvik Prestigitator">
    <nd ref="1673598538"/>
    <nd ref="1673598531"/>
    <tag k="highway" v="residential"/>
    <tag k="name" v="West Dene"/>
  </way>
  <way id="154900922" version="2" timestamp="2018-11-30T19:28:59Z" changeset="65055598" uid="3316592" user="Arthtoach">
    <nd ref="1673598553"/>
    <nd ref="6106949012"/>
    <nd ref="1673598567"/>
    <nd ref="6106949011"/>
    <nd ref="1673598557"/>
    <nd ref="6106949010"/>
    <nd ref="1673598571"/>
    <nd ref="1673598565"/>
    <nd ref="1673598527"/>
    <tag k="highway" v="residential"/>
    <tag k="name" v="Wigton Park Close"/>
  </way>
  <way id="154900924" version="3" timestamp="2022-02-08T20:57:28Z" changeset="117176984" uid="4543415" user="The_JF">
    <nd ref="1997293975"/>
    <nd ref="1997293983"/>
    <nd ref="1673598533"/>
    <nd ref="1673598545"/>
    <nd ref="691586511"/>
    <tag k="highway" v="residential"/>
    <tag k="maxspeed" v="20 mph"/>
    <tag k="name" v="Wike Ridge View"/>
    <tag k="source" v="bing"/>
    <tag k="source:name" v="OS_OpenData_Locator"/>
  </way>
  <way id="154900925" version="4" timestamp="2022-02-08T20:57:28Z" changeset="117176984" uid="4543415" user="The_JF">
    <nd ref="1673598548"/>
    <nd ref="6219294580"/>
    <nd ref="6219294581"/>
    <nd ref="6219294582"/>
    <nd ref="1673598579"/>
    <nd ref="1673598560"/>
    <nd ref="6219294583"/>
    <nd ref="6219294584"/>
    <nd ref="1997293979"/>
    <nd ref="1673598558"/>
    <nd ref="6219294985"/>
    <nd ref="691586532"/>
    <tag k="highway" v="residential"/>
    <tag k="maxspeed" v="20 mph"/>
    <tag k="name" v="Wike Ridge Mews"/>
    <tag k="source:name" v="OS_OpenData_Locator"/>
  </way>
  <way id="154900926" version="2" timestamp="2022-02-08T20:57:28Z" changeset="117176984" uid="4543415" user="The_JF">
    <nd ref="1673598585"/>
    <nd ref="1673598526"/>
    <nd ref="691585736"/>
    <tag k="highway" v="residential"/>
    <tag k="maxspeed" v="20 mph"/>
  </way>
  <way id="154900927" version="1" timestamp="2012-03-13T17:15:29Z" changeset="10969050" uid="592021" user="Resiak">
    <nd ref="1673598542"/>
    <nd ref="1673598537"/>
    <nd ref="1673598544"/>
    <tag k="highway" v="residential"/>
  </way>
  <way id="154900928" version="4" timestamp="2022-02-08T20:57:28Z" changeset="117176984" uid="4543415" user="The_JF">
    <nd ref="1673598584"/>
    <nd ref="1673598543"/>
    <nd ref="1997293971"/>
    <nd ref="1673598586"/>
    <nd ref="1997293977"/>
    <nd ref="1673598580"/>
    <tag k="highway" v="residential"/>
    <tag k="maxspeed" v="20 mph"/>
    <tag k="name" v="Wike Ridge Mount"/>
    <tag k="source" v="bing"/>
    <tag k="source:name" v="OS_OpenData_Locator"/>
  </way>
  <way id="154900930" version="5" timestamp="2018-11-30T19:23:13Z" changeset="65055469" uid="3316592" user="Arthtoach">
    <nd ref="1673598587"/>
    <nd ref="5284269951"/>
    <nd ref="5284269943"/>
    <nd ref="1673598535"/>
    <nd ref="5284269953"/>
    <nd ref="6106944768"/>
    <nd ref="6106944769"/>
    <nd ref="1673598547"/>
    <tag k="highway" v="residential"/>
    <tag k="maxspeed" v="30 mph"/>
    <tag k="name" v="Wigton Green"/>
  </way>
  <way id="154900931" version="3" timestamp="2022-02-08T20:57:28Z" changeset="117176984" uid="4543415" user="The_JF">
    <nd ref="1997294032"/>
    <nd ref="1997294033"/>
    <nd ref="1673598532"/>
    <nd ref="1673598561"/>
    <nd ref="1673598559"/>
    <tag k="highway" v="residential"/>
    <tag k="maxspeed" v="20 mph"/>
    <tag k="name" v="Wike Ridge Fold"/>
    <tag k="source:name" v="OS_OpenData_Locator"/>
  </way>
  <way id="154950134" version="2" timestamp="2013-10-14T17:13:14Z" changeset="18354047" uid="893729" user="hook2k">
    <nd ref="2496375550"/>
    <nd ref="1674021879"/>
    <nd ref="1674021877"/>
    <nd ref="1674021878"/>
    <tag k="highway" v="residential"/>
    <tag k="name" v="Alwoodley Gates"/>
  </way>
  <way id="183088591" version="10" timestamp="2024-06-17T14:08:58Z" changeset="152805446" uid="145231" user="woodpeck_repair">
    <nd ref="1934461041"/>
    <nd ref="1589580561"/>
    <nd ref="1589580504"/>
    <nd ref="1589580388"/>
    <nd ref="1589580234"/>
    <nd ref="248018340"/>
    <nd ref="1589580039"/>
    <nd ref="1589579947"/>
    <nd ref="1589579733"/>
    <nd ref="248018330"/>
    <nd ref="1589579255"/>
    <nd ref="1589579035"/>
    <nd ref="248018322"/>
    <tag k="highway" v="tertiary"/>
    <tag k="lanes" v="2"/>
    <tag k="maxspeed" v="30 mph"/>
    <tag k="name" v="Wike Ridge Lane"/>
    <tag k="source" v="survey and npe"/>
  </way>
  <way id="183088593" version="11" timestamp="2024-06-17T14:09:00Z" changeset="152805446" uid="145231" user="woodpeck_repair">
    <nd ref="798172529"/>
    <nd ref="2060088520"/>
    <nd ref="935630503"/>
    <nd ref="798172531"/>
    <nd ref="798172128"/>
    <nd ref="27481612"/>
    <tag k="highway" v="tertiary"/>
    <tag k="lanes" v="2"/>
    <tag k="maxspeed" v="30 mph"/>
    <tag k="name" v="Backstone Gill Lane"/>
    <tag k="source" v="survey and npe"/>
  </way>
  <way id="183088595" version="15" timestamp="2024-06-17T14:09:00Z" changeset="152805446" uid="145231" user="woodpeck_repair">
    <nd ref="1934461042"/>
    <nd ref="1997294031"/>
    <nd ref="691586552"/>
    <nd ref="6205382496"/>
    <nd ref="6220395741"/>
    <nd ref="1997293952"/>
    <nd ref="248018316"/>
    <tag k="highway" v="tertiary"/>
    <tag k="lanes" v="2"/>
    <tag k="maxspeed" v="30 mph"/>
    <tag k="name" v="Wike Ridge Lane"/>
    <tag k="source" v="survey and npe"/>
    <tag k="surface" v="asphalt"/>
  </way>
  <way id="186137621" version="3" timestamp="2021-07-14T16:21:01Z" changeset="107991459" uid="4543415" user="The_JF">
    <nd ref="1968353746"/>
    <nd ref="2751159364"/>
    <nd ref="1968353745"/>
    <nd ref="2751159401"/>
    <nd ref="1968353803"/>
    <nd ref="2751159379"/>
    <nd ref="1968353869"/>
    <nd ref="2751159423"/>
    <nd ref="1968353914"/>
    <nd ref="1968353711"/>
    <nd ref="2751159412"/>
    <nd ref="1968353932"/>
    <nd ref="2751159373"/>
    <nd ref="1968353913"/>
    <nd ref="2751159427"/>
    <nd ref="1968353811"/>
    <nd ref="1968353862"/>
    <nd ref="2751159396"/>
    <nd ref="1968353834"/>
    <nd ref="1968353724"/>
    <nd ref="2751159381"/>
    <nd ref="1968353789"/>
    <nd ref="2751159375"/>
    <nd ref="1968353788"/>
    <nd ref="1968353925"/>
    <nd ref="2751159413"/>
    <nd ref="1968353908"/>
    <nd ref="2751159356"/>
    <nd ref="1968353774"/>
    <nd ref="2751159432"/>
    <nd ref="1968353804"/>
    <nd ref="2751159400"/>
    <nd ref="1968353837"/>
    <nd ref="1968353987"/>
    <nd ref="2751159419"/>
    <nd ref="1968353794"/>
    <nd ref="2751159405"/>
    <nd ref="1968353990"/>
    <nd ref="2751159407"/>
    <nd ref="1968353935"/>
    <nd ref="2751159414"/>
    <nd ref="1968353748"/>
    <nd ref="1968353996"/>
    <nd ref="2751159357"/>
    <nd ref="1968353940"/>
    <nd ref="1968353838"/>
    <nd ref="1968353812"/>
    <nd ref="2751159428"/>
    <nd ref="1968353813"/>
    <nd ref="2751159383"/>
    <nd ref="1968353847"/>
    <nd ref="1968353901"/>
    <nd ref="1968353976"/>
    <nd ref="2751159378"/>
    <nd ref="1968353974"/>
    <nd ref="2751159395"/>
    <nd ref="1968353746"/>
    <tag k="building" v="no"/>
    <tag k="name" v="Yorkshire Planetarium"/>
  </way>
  <way id="186282259" version="15" timestamp="2024-01-21T11:29:34Z" changeset="146508894" uid="242345" user="confusedbuffalo">
    <nd ref="1103089047"/>
    <nd ref="26154869"/>
    <nd ref="2723201896"/>
    <nd ref="1103088789"/>
    <nd ref="495969131"/>
    <nd ref="765222658"/>
    <nd ref="26154870"/>
    <nd ref="1103089058"/>
    <nd ref="26154871"/>
    <nd ref="2723201898"/>
    <tag k="bicycle" v="yes"/>
    <tag k="highway" v="trunk"/>
    <tag k="lanes" v="2"/>
    <tag k="maxspeed" v="60 mph"/>
    <tag k="name" v="Harrogate Road"/>
    <tag k="oneway" v="no"/>
    <tag k="ref" v="A61"/>
    <tag k="surface" v="asphalt"/>
  </way>
  <way id="186282352" version="6" timestamp="2019-06-16T17:22:18Z" changeset="71305971" uid="84681" user="SK53">
    <nd ref="1969630027"/>
    <nd ref="26261615"/>
    <nd ref="26261616"/>
    <nd ref="765232205"/>
    <tag k="alt_name" v="The Avenue"/>
    <tag k="bicycle" v="yes"/>
    <tag k="cycleway" v="no"/>
    <tag k="foot" v="yes"/>
    <tag k="highway" v="primary"/>
    <tag k="lanes" v="2"/>
    <tag k="maxspeed" v="60 mph"/>
    <tag k="name" v="Harewood Avenue"/>
    <tag k="oneway" v="no"/>
    <tag k="ref" v="A659"/>
    <tag k="sidewalk" v="left"/>
    <tag k="source" v="survey"/>
    <tag k="surface" v="asphalt"/>
    <tag k="verge" v="both"/>
  </way>
  <way id="187864336" version="1" timestamp="2012-10-26T21:29:42Z" changeset="13643773" uid="106831" user="sc71">
    <nd ref="765227720"/>
    <nd ref="1985025806"/>
    <nd ref="1985025810"/>
    <nd ref="1985025816"/>
    <nd ref="1985025818"/>
    <nd ref="1985025821"/>
    <nd ref="1985025822"/>
    <tag k="highway" v="residential"/>
    <tag k="name" v="Harewood Gate"/>
  </way>
  <way id="189058474" version="5" timestamp="2020-05-25T21:31:56Z" changeset="85733667" uid="4543415" user="The_JF">
    <nd ref="935672032"/>
    <nd ref="935672002"/>
    <nd ref="7557260806"/>
    <nd ref="6564543122"/>
    <nd ref="7557260802"/>
    <nd ref="935672079"/>
    <nd ref="935672060"/>
    <nd ref="6468207174"/>
    <nd ref="935672022"/>
    <nd ref="6468207172"/>
    <nd ref="935671984"/>
    <nd ref="935672057"/>
    <nd ref="6468203442"/>
    <nd ref="935672021"/>
    <tag k="highway" v="unclassified"/>
    <tag k="source" v="OS OpenData StreetView"/>
  </way>
  <way id="189081620" version="1" timestamp="2012-11-04T16:53:58Z" changeset="13749673" uid="106831" user="sc71">
    <nd ref="1997293988"/>
    <nd ref="1997293978"/>
    <tag k="highway" v="residential"/>
    <tag k="name" v="Brookside"/>
    <tag k="source" v="bing"/>
    <tag k="source:name" v="OS_OpenData_Locator"/>
  </way>
  <way id="189081621" version="1" timestamp="2012-11-04T16:53:58Z" changeset="13749673" uid="106831" user="sc71">
    <nd ref="1997294021"/>
    <nd ref="1997293990"/>
    <nd ref="1997293988"/>
    <nd ref="1997293992"/>
    <tag k="highway" v="residential"/>
    <tag k="name" v="Brookside"/>
    <tag k="source" v="bing"/>
    <tag k="source:name" v="OS_OpenData_Locator"/>
  </way>
  <way id="189081625" version="1" timestamp="2012-11-04T16:53:59Z" changeset="13749673" uid="106831" user="sc71">
    <nd ref="1997294085"/>
    <nd ref="1997294083"/>
    <tag k="highway" v="residential"/>
    <tag k="name" v="Harrogate Road"/>
  </way>
  <way id="189081631" version="1" timestamp="2012-11-04T16:53:59Z" changeset="13749673" uid="106831" user="sc71">
    <nd ref="1997294077"/>
    <nd ref="1997294076"/>
    <nd ref="1997294074"/>
    <nd ref="1997294071"/>
    <nd ref="1997294069"/>
    <nd ref="1997294066"/>
    <nd ref="1997294067"/>
    <nd ref="1050180542"/>
    <tag k="highway" v="residential"/>
    <tag k="name" v="Keplestone Mews"/>
    <tag k="source" v="bing"/>
    <tag k="source:name" v="OS_OpenData_Locator"/>
  </way>
  <way id="189081643" version="3" timestamp="2021-01-13T08:39:23Z" changeset="97424490" uid="10457692" user="pravallg">
    <nd ref="1997294051"/>
    <nd ref="1997294053"/>
    <nd ref="1997294055"/>
    <nd ref="1997294058"/>
    <nd ref="1997294060"/>
    <nd ref="8318005912"/>
    <nd ref="1997294062"/>
    <nd ref="1997294063"/>
    <nd ref="1997294064"/>
    <tag k="highway" v="residential"/>
    <tag k="name" v="Sovereign Court"/>
    <tag k="source" v="bing"/>
    <tag k="source:name" v="OS_OpenData_Locator"/>
  </way>
  <way id="189081653" version="2" timestamp="2018-08-21T06:49:47Z" changeset="61844325" uid="3316592" user="Arthtoach">
    <nd ref="1997294061"/>
    <nd ref="1997294059"/>
    <nd ref="1997294057"/>
    <nd ref="1997294056"/>
    <nd ref="1997294054"/>
    <nd ref="1997294052"/>
    <nd ref="1997294050"/>
    <tag k="highway" v="residential"/>
    <tag k="name" v="Wigton Gate"/>
    <tag k="source" v="bing"/>
    <tag k="source:name" v="OS_OpenData_Locator"/>
  </way>
  <way id="189081654" version="3" timestamp="2017-12-08T15:53:25Z" changeset="54462442" uid="3316592" user="Arthtoach">
    <nd ref="1997294075"/>
    <nd ref="5272094924"/>
    <nd ref="5272094923"/>
    <nd ref="1997294073"/>
    <nd ref="5272094922"/>
    <nd ref="2751179829"/>
    <nd ref="2751179849"/>
    <nd ref="2751179841"/>
    <nd ref="5272094921"/>
    <nd ref="2751179840"/>
    <nd ref="5272089220"/>
    <nd ref="5272089219"/>
    <nd ref="1997294078"/>
    <nd ref="1997294075"/>
    <nd ref="1997294072"/>
    <tag k="highway" v="residential"/>
    <tag k="name" v="Wigton Grove"/>
    <tag k="source" v="bing"/>
    <tag k="source:name" v="OS_OpenData_Locator"/>
  </way>
  <way id="189081656" version="2" timestamp="2022-02-08T20:57:28Z" changeset="117176984" uid="4543415" user="The_JF">
    <nd ref="1997294019"/>
    <nd ref="1997294009"/>
    <tag k="highway" v="residential"/>
    <tag k="maxspeed" v="20 mph"/>
    <tag k="name" v="Wike Ridge Avenue"/>
    <tag k="source" v="bing"/>
    <tag k="source:name" v="OS_OpenData_Locator"/>
  </way>
  <way id="189081657" version="4" timestamp="2022-02-08T20:57:28Z" changeset="117176984" uid="4543415" user="The_JF">
    <nd ref="1673598559"/>
    <nd ref="691586509"/>
    <nd ref="1997294000"/>
    <nd ref="6215723688"/>
    <nd ref="691586511"/>
    <nd ref="6215723689"/>
    <nd ref="1997293989"/>
    <nd ref="691586512"/>
    <nd ref="6215723690"/>
    <nd ref="691586517"/>
    <nd ref="6215723691"/>
    <nd ref="691586518"/>
    <nd ref="6215723692"/>
    <nd ref="1997293982"/>
    <nd ref="6215723693"/>
    <nd ref="691586520"/>
    <nd ref="1997293980"/>
    <nd ref="6215723694"/>
    <nd ref="691586523"/>
    <nd ref="1997293993"/>
    <nd ref="6215723695"/>
    <nd ref="691586525"/>
    <nd ref="1997294001"/>
    <nd ref="1997294006"/>
    <nd ref="6215723696"/>
    <nd ref="1997294013"/>
    <nd ref="691586526"/>
    <nd ref="6215723697"/>
    <nd ref="6215723698"/>
    <nd ref="691586528"/>
    <nd ref="1997294010"/>
    <nd ref="691586530"/>
    <nd ref="6215723699"/>
    <nd ref="691586532"/>
    <nd ref="6215723701"/>
    <nd ref="6215723700"/>
    <nd ref="1997294003"/>
    <nd ref="6215723702"/>
    <nd ref="691586533"/>
    <nd ref="1997294022"/>
    <nd ref="1997294028"/>
    <nd ref="6215723703"/>
    <nd ref="6215723704"/>
    <nd ref="691586536"/>
    <nd ref="6215723705"/>
    <nd ref="691586537"/>
    <nd ref="1997294014"/>
    <nd ref="691586538"/>
    <nd ref="6219306342"/>
    <nd ref="691586540"/>
    <nd ref="1997294015"/>
    <nd ref="691586541"/>
    <nd ref="6219306344"/>
    <nd ref="6219306343"/>
    <nd ref="1997294018"/>
    <nd ref="1997294009"/>
    <nd ref="691586543"/>
    <nd ref="691586545"/>
    <nd ref="6219306341"/>
    <nd ref="1673598580"/>
    <nd ref="6219306340"/>
    <nd ref="691586548"/>
    <nd ref="6219306339"/>
    <nd ref="691586549"/>
    <nd ref="1997293997"/>
    <nd ref="6219306338"/>
    <nd ref="1997293998"/>
    <nd ref="691586550"/>
    <nd ref="691586552"/>
    <tag k="highway" v="residential"/>
    <tag k="maxspeed" v="20 mph"/>
    <tag k="name" v="Wike Ridge Avenue"/>
    <tag k="source" v="OS7"/>
  </way>
  <way id="189081659" version="2" timestamp="2022-02-08T20:57:28Z" changeset="117176984" uid="4543415" user="The_JF">
    <nd ref="1997294035"/>
    <nd ref="1997294036"/>
    <tag k="highway" v="residential"/>
    <tag k="maxspeed" v="20 mph"/>
    <tag k="name" v="Wike Ridge Court"/>
    <tag k="source" v="bing"/>
    <tag k="source:name" v="OS_OpenData_Locator"/>
  </way>
  <way id="189081660" version="2" timestamp="2022-02-08T20:57:28Z" changeset="117176984" uid="4543415" user="The_JF">
    <nd ref="1997294040"/>
    <nd ref="1997294035"/>
    <nd ref="691586526"/>
    <tag k="highway" v="residential"/>
    <tag k="maxspeed" v="20 mph"/>
    <tag k="name" v="Wike Ridge Court"/>
    <tag k="source" v="bing"/>
    <tag k="source:name" v="OS_OpenData_Locator"/>
  </way>
  <way id="189081661" version="2" timestamp="2022-02-08T20:57:28Z" changeset="117176984" uid="4543415" user="The_JF">
    <nd ref="1673598539"/>
    <nd ref="1997293965"/>
    <tag k="highway" v="residential"/>
    <tag k="maxspeed" v="20 mph"/>
    <tag k="name" v="Wike Ridge Grove"/>
    <tag k="source:name" v="OS_OpenData_Locator"/>
  </way>
  <way id="189081662" version="3" timestamp="2022-02-08T20:57:28Z" changeset="117176984" uid="4543415" user="The_JF">
    <nd ref="1997293970"/>
    <nd ref="1673598584"/>
    <nd ref="1997293976"/>
    <tag k="highway" v="residential"/>
    <tag k="maxspeed" v="20 mph"/>
    <tag k="name" v="Wike Ridge Mount"/>
    <tag k="source" v="bing"/>
    <tag k="source:name" v="OS_OpenData_Locator"/>
  </way>
  <way id="189350975" version="5" timestamp="2021-06-13T20:56:32Z" changeset="106297478" uid="978739" user="jcowgill">
    <nd ref="1999920200"/>
    <nd ref="1999920258"/>
    <nd ref="1999920250"/>
    <nd ref="1999920213"/>
    <nd ref="1999920222"/>
    <nd ref="1999920244"/>
    <nd ref="1999920270"/>
    <nd ref="1999920274"/>
    <nd ref="7705455650"/>
    <nd ref="1999920200"/>
    <tag k="building" v="detached"/>
    <tag k="name" v="Carr House"/>
    <tag k="wikidata" v="Q26556576"/>
  </way>
  <way id="190726090" version="4" timestamp="2024-06-14T22:35:36Z" changeset="152700850" uid="1778799" user="SomeoneElse_Revert">
    <nd ref="2013624245"/>
    <nd ref="2013624206"/>
    <nd ref="2013624168"/>
    <nd ref="2013624185"/>
    <nd ref="2013624245"/>
    <tag k="amenity" v="scout_hut"/>
    <tag k="building" v="yes"/>
    <tag k="name" v="Wike Scout Hut"/>
  </way>
  <way id="190835622" version="2" timestamp="2018-11-08T17:12:34Z" changeset="64299823" uid="592" user="JonS">
    <nd ref="2014433471"/>
    <nd ref="2014433263"/>
    <nd ref="2014433430"/>
    <nd ref="2014433428"/>
    <nd ref="2014433334"/>
    <nd ref="2014433324"/>
    <nd ref="2014433471"/>
    <tag k="addr:city" v="Leeds"/>
    <tag k="addr:postcode" v="LS17 9NH"/>
    <tag k="addr:street" v="Coal Road"/>
    <tag k="addr:suburb" v="Wike"/>
    <tag k="building" v="yes"/>
    <tag k="name" v="Moor Allerton Golf Club"/>
  </way>
  <way id="206746286" version="4" timestamp="2024-10-01T16:47:44Z" changeset="157348484" uid="111135" user="Pete Owens">
    <nd ref="2167859101"/>
    <nd ref="691588339"/>
    <nd ref="1050180520"/>
    <nd ref="245495134"/>
    <nd ref="1050180501"/>
    <nd ref="1050180607"/>
    <nd ref="1050180591"/>
    <nd ref="245495133"/>
    <nd ref="5845583098"/>
    <tag k="bicycle" v="yes"/>
    <tag k="highway" v="trunk"/>
    <tag k="lanes" v="2"/>
    <tag k="maxspeed" v="30 mph"/>
    <tag k="name" v="Harrogate Road"/>
    <tag k="ref" v="A61"/>
    <tag k="source" v="OS_OpenData_StreetView;Bing;local_knowledge;npe"/>
  </way>
  <way id="206746288" version="7" timestamp="2021-03-13T20:39:50Z" changeset="100968720" uid="2800603" user="skifans">
    <nd ref="2167859106"/>
    <nd ref="1050180483"/>
    <nd ref="1050180585"/>
    <nd ref="27481584"/>
    <nd ref="4141801330"/>
    <nd ref="27481585"/>
    <nd ref="1050180466"/>
    <nd ref="4141801335"/>
    <nd ref="1050180575"/>
    <nd ref="4141801338"/>
    <nd ref="4141801339"/>
    <nd ref="27481586"/>
    <nd ref="4141801326"/>
    <nd ref="1050180448"/>
    <nd ref="4141801337"/>
    <nd ref="27481587"/>
    <nd ref="4141801340"/>
    <nd ref="1050180552"/>
    <nd ref="27481588"/>
    <nd ref="1050180617"/>
    <nd ref="1050180594"/>
    <nd ref="1050180531"/>
    <nd ref="27481589"/>
    <nd ref="248091438"/>
    <nd ref="27481590"/>
    <nd ref="1050180512"/>
    <nd ref="248091439"/>
    <nd ref="1989007747"/>
    <nd ref="27481591"/>
    <nd ref="6205162356"/>
    <nd ref="27481592"/>
    <nd ref="1050180493"/>
    <nd ref="1050180561"/>
    <nd ref="27481593"/>
    <nd ref="1050180476"/>
    <nd ref="1050180463"/>
    <nd ref="1050180541"/>
    <nd ref="27481594"/>
    <nd ref="1668891651"/>
    <nd ref="1050180631"/>
    <nd ref="27481595"/>
    <nd ref="1997740596"/>
    <nd ref="1050180611"/>
    <nd ref="1668893165"/>
    <nd ref="1050180547"/>
    <nd ref="27481596"/>
    <nd ref="1050180523"/>
    <nd ref="27481597"/>
    <nd ref="1050180593"/>
    <nd ref="27481598"/>
    <nd ref="1997740554"/>
    <nd ref="1050180510"/>
    <nd ref="8515196005"/>
    <nd ref="6106902417"/>
    <nd ref="27481599"/>
    <nd ref="1050180559"/>
    <nd ref="1050180491"/>
    <nd ref="677349578"/>
    <nd ref="6106902418"/>
    <nd ref="1050180469"/>
    <nd ref="245495135"/>
    <nd ref="1050180539"/>
    <nd ref="6106901738"/>
    <nd ref="1997740527"/>
    <nd ref="1997740526"/>
    <nd ref="2167859101"/>
    <tag k="bicycle" v="yes"/>
    <tag k="foot" v="yes"/>
    <tag k="highway" v="trunk"/>
    <tag k="lanes" v="2"/>
    <tag k="maxspeed" v="60 mph"/>
    <tag k="name" v="Harrogate Road"/>
    <tag k="oneway" v="no"/>
    <tag k="ref" v="A61"/>
    <tag k="source" v="OS_OpenData_StreetView;Bing;local_knowledge;npe"/>
    <tag k="surface" v="asphalt"/>
  </way>
  <way id="206746289" version="5" timestamp="2024-10-01T16:47:44Z" changeset="157348484" uid="111135" user="Pete Owens">
    <nd ref="2167859103"/>
    <nd ref="1050154683"/>
    <nd ref="245495130"/>
    <nd ref="4698118020"/>
    <nd ref="1050154681"/>
    <nd ref="245495131"/>
    <nd ref="5845582466"/>
    <tag k="bicycle" v="yes"/>
    <tag k="highway" v="trunk"/>
    <tag k="lanes" v="2"/>
    <tag k="maxspeed" v="30 mph"/>
    <tag k="name" v="Harrogate Road"/>
    <tag k="oneway" v="yes"/>
    <tag k="ref" v="A61"/>
    <tag k="source" v="historical"/>
    <tag k="source_ref" v="npe"/>
  </way>
  <way id="207341467" version="8" timestamp="2024-06-17T14:09:02Z" changeset="152805446" uid="145231" user="woodpeck_repair">
    <nd ref="935630627"/>
    <nd ref="367293026"/>
    <nd ref="2014466678"/>
    <nd ref="798172529"/>
    <tag k="highway" v="tertiary"/>
    <tag k="lanes" v="2"/>
    <tag k="maxspeed" v="30 mph"/>
    <tag k="name" v="Backstone Gill Lane"/>
    <tag k="source" v="survey and npe"/>
  </way>
  <way id="207341469" version="9" timestamp="2024-06-17T14:09:02Z" changeset="152805446" uid="145231" user="woodpeck_repair">
    <nd ref="248018322"/>
    <nd ref="1589578248"/>
    <nd ref="248018321"/>
    <nd ref="1589577504"/>
    <nd ref="248018320"/>
    <nd ref="6311299739"/>
    <nd ref="6311299740"/>
    <nd ref="6311299741"/>
    <nd ref="6311299742"/>
    <nd ref="6311299743"/>
    <nd ref="6311299744"/>
    <nd ref="6311305331"/>
    <nd ref="248018319"/>
    <nd ref="6311305332"/>
    <nd ref="6311305333"/>
    <nd ref="6311305334"/>
    <nd ref="248018317"/>
    <nd ref="1614128608"/>
    <nd ref="1934461042"/>
    <tag k="highway" v="tertiary"/>
    <tag k="lanes" v="2"/>
    <tag k="maxspeed" v="40 mph"/>
    <tag k="name" v="Wike Ridge Lane"/>
    <tag k="source" v="survey and npe"/>
  </way>
  <way id="238847823" version="2" timestamp="2021-07-14T16:21:01Z" changeset="107991459" uid="4543415" user="The_JF">
    <nd ref="2466472543"/>
    <nd ref="2466472643"/>
    <nd ref="2466472461"/>
    <nd ref="2466472501"/>
    <nd ref="2466472510"/>
    <nd ref="2466472595"/>
    <nd ref="2466472464"/>
    <nd ref="2466472604"/>
    <nd ref="2466472570"/>
    <nd ref="2466472543"/>
    <tag k="building" v="yes"/>
    <tag k="name" v="Home Farm"/>
    <tag k="source" v="Bing"/>
  </way>
  <way id="238847826" version="2" timestamp="2019-09-19T11:54:33Z" changeset="74668838" uid="10310438" user="Beetec">
    <nd ref="2466472432"/>
    <nd ref="2466472682"/>
    <nd ref="2466472280"/>
    <nd ref="2466472662"/>
    <nd ref="2466472432"/>
    <tag k="addr:city" v="Harewood"/>
    <tag k="addr:housenumber" v="Unit 1a"/>
    <tag k="addr:street" v="Harewood Yard"/>
    <tag k="building" v="commercial"/>
    <tag k="name" v="1a"/>
    <tag k="smoking" v="outside"/>
    <tag k="source" v="Bing;local knowledge"/>
  </way>
  <way id="238847840" version="4" timestamp="2021-08-12T23:14:02Z" changeset="109597255" uid="242345" user="confusedbuffalo">
    <nd ref="2466472656"/>
    <nd ref="2466472481"/>
    <nd ref="2466472504"/>
    <nd ref="2466472493"/>
    <nd ref="2466472656"/>
    <tag k="addr:city" v="Harewood"/>
    <tag k="addr:housename" v="The Granary"/>
    <tag k="addr:housenumber" v="10"/>
    <tag k="addr:street" v="Harewood Yard"/>
    <tag k="building" v="commercial"/>
    <tag k="source" v="local knowledge"/>
  </way>
  <way id="238847844" version="2" timestamp="2021-07-14T16:21:01Z" changeset="107991459" uid="4543415" user="The_JF">
    <nd ref="2466472566"/>
    <nd ref="2466472588"/>
    <nd ref="2466472571"/>
    <nd ref="2466472527"/>
    <nd ref="2466472566"/>
    <tag k="building" v="yes"/>
    <tag k="name" v="Kennels Cottage"/>
    <tag k="source" v="Bing"/>
  </way>
  <way id="238847851" version="2" timestamp="2019-09-19T11:54:33Z" changeset="74668838" uid="10310438" user="Beetec">
    <nd ref="2466472430"/>
    <nd ref="2466472456"/>
    <nd ref="2466472641"/>
    <nd ref="2466472675"/>
    <nd ref="2466472546"/>
    <nd ref="2466472430"/>
    <tag k="addr:city" v="Harewood"/>
    <tag k="addr:housenumber" v="Unit 6b"/>
    <tag k="addr:street" v="Harewood Yard"/>
    <tag k="building" v="commercial"/>
    <tag k="name" v="6b"/>
    <tag k="smoking" v="outside"/>
    <tag k="source" v="Bing;local knowledge"/>
  </way>
  <way id="238847852" version="6" timestamp="2024-06-14T22:35:13Z" changeset="152700850" uid="1778799" user="SomeoneElse_Revert">
    <nd ref="2466472557"/>
    <nd ref="2466472376"/>
    <nd ref="2466472380"/>
    <nd ref="2466472569"/>
    <nd ref="2466472544"/>
    <nd ref="2466472538"/>
    <nd ref="2466472548"/>
    <nd ref="2466472306"/>
    <nd ref="2466472359"/>
    <nd ref="2466472385"/>
    <nd ref="2466472635"/>
    <nd ref="2466472557"/>
    <tag k="addr:housename" v="Terrace Cottage"/>
    <tag k="addr:street" v="No street"/>
    <tag k="building" v="yes"/>
    <tag k="name" v="Second Hand Bookshop"/>
    <tag k="shop" v="books"/>
    <tag k="source" v="Bing"/>
  </way>
  <way id="238847859" version="2" timestamp="2019-09-19T23:09:25Z" changeset="74698113" uid="10310438" user="Beetec">
    <nd ref="2466472554"/>
    <nd ref="2466472655"/>
    <nd ref="2466472440"/>
    <nd ref="2466472631"/>
    <nd ref="2466472550"/>
    <nd ref="2466472531"/>
    <nd ref="2466472601"/>
    <nd ref="2466472665"/>
    <nd ref="2466472554"/>
    <tag k="addr:city" v="Harewood"/>
    <tag k="addr:housenumber" v="Unit 13"/>
    <tag k="addr:street" v="Harewood Yard"/>
    <tag k="building" v="commercial"/>
    <tag k="name" v="13"/>
    <tag k="source" v="Bing;local knowledge"/>
  </way>
  <way id="238847860" version="3" timestamp="2021-07-14T16:21:01Z" changeset="107991459" uid="4543415" user="The_JF">
    <nd ref="2466472282"/>
    <nd ref="2466472593"/>
    <nd ref="2466472581"/>
    <nd ref="2466472666"/>
    <nd ref="2466472579"/>
    <nd ref="2466472607"/>
    <nd ref="2466472282"/>
    <tag k="addr:city" v="Harewood"/>
    <tag k="addr:housename" v="Stanks Cottages"/>
    <tag k="addr:housenumber" v="Unit 12"/>
    <tag k="addr:street" v="Harewood Yard"/>
    <tag k="building" v="commercial"/>
    <tag k="name" v="12"/>
    <tag k="source" v="Bing;local knowledge"/>
  </way>
  <way id="238848459" version="3" timestamp="2020-05-26T08:37:49Z" changeset="85756236" uid="308" user="MichaelCollinson">
    <nd ref="6203748013"/>
    <nd ref="2466478358"/>
    <nd ref="27456689"/>
    <nd ref="6203748012"/>
    <nd ref="6203748013"/>
    <tag k="building" v="leisure"/>
    <tag k="name" v="Harewood Sports &amp; Social Club"/>
    <tag k="roof:shape" v="gabled"/>
    <tag k="source" v="survey;Bing"/>
  </way>
  <way id="238848460" version="7" timestamp="2024-07-14T00:38:34Z" changeset="153913686" uid="493595" user="Yorvik Prestigitator">
    <nd ref="2466478371"/>
    <nd ref="2466478367"/>
    <nd ref="2466478363"/>
    <nd ref="2466478365"/>
    <nd ref="2466478373"/>
    <nd ref="2466478369"/>
    <nd ref="6203748014"/>
    <nd ref="6203748015"/>
    <nd ref="6203748013"/>
    <nd ref="6203748012"/>
    <nd ref="2466478371"/>
    <tag k="amenity" v="community_centre"/>
    <tag k="building" v="leisure"/>
    <tag k="community_centre" v="village_hall"/>
    <tag k="name" v="Harewood Village Hall"/>
    <tag k="source" v="Bing"/>
  </way>
  <way id="242090111" version="2" timestamp="2015-10-23T21:51:20Z" changeset="34830664" uid="493595" user="Yorvik Prestigitator">
    <nd ref="1674021879"/>
    <nd ref="2496375583"/>
    <nd ref="2496375591"/>
    <nd ref="2496375588"/>
    <nd ref="2496375578"/>
    <tag k="highway" v="residential"/>
    <tag k="name" v="Alwoodley Gates"/>
  </way>
  <way id="242092633" version="3" timestamp="2018-08-21T06:49:48Z" changeset="61844325" uid="3316592" user="Arthtoach">
    <nd ref="2496393512"/>
    <nd ref="2496393501"/>
    <nd ref="5845582471"/>
    <nd ref="2496393475"/>
    <nd ref="2496393485"/>
    <nd ref="2496393499"/>
    <tag k="highway" v="unclassified"/>
    <tag k="lanes" v="1"/>
    <tag k="name" v="Wigton Lane"/>
    <tag k="oneway" v="yes"/>
    <tag k="turn:lanes" v="left"/>
  </way>
  <way id="260108960" version="1" timestamp="2014-02-05T13:55:32Z" changeset="20393064" uid="1920316" user="MarkAntonyRay">
    <nd ref="2655968106"/>
    <nd ref="2655968108"/>
    <nd ref="2655968110"/>
    <nd ref="2655968112"/>
    <nd ref="2655968106"/>
    <tag k="building" v="yes"/>
    <tag k="building:levels" v="2"/>
    <tag k="name" v="The Woolpack"/>
  </way>
  <way id="260108961" version="2" timestamp="2014-02-06T21:18:10Z" changeset="20419962" uid="1920316" user="MarkAntonyRay">
    <nd ref="2655968110"/>
    <nd ref="2655968114"/>
    <nd ref="2655968116"/>
    <nd ref="2655968117"/>
    <nd ref="2655968119"/>
    <nd ref="2658175606"/>
    <nd ref="2655968121"/>
    <nd ref="2655968122"/>
    <nd ref="2655968112"/>
    <nd ref="2655968110"/>
    <tag k="building" v="yes"/>
    <tag k="building:levels" v="2"/>
    <tag k="name" v="The Grange B&amp;B"/>
  </way>
  <way id="260108962" version="3" timestamp="2016-09-16T16:53:52Z" changeset="42207248" uid="4445529" user="khbritish">
    <nd ref="2655968123"/>
    <nd ref="2655968124"/>
    <nd ref="2658175578"/>
    <nd ref="4404495173"/>
    <nd ref="2658175573"/>
    <nd ref="2655968125"/>
    <nd ref="2655968126"/>
    <nd ref="2655968127"/>
    <nd ref="2655968129"/>
    <nd ref="2655968123"/>
    <tag k="building" v="yes"/>
    <tag k="building:levels" v="2"/>
    <tag k="name" v="Mulberry Cottage"/>
  </way>
  <way id="260108964" version="1" timestamp="2014-02-05T13:55:32Z" changeset="20393064" uid="1920316" user="MarkAntonyRay">
    <nd ref="2655968137"/>
    <nd ref="2655968139"/>
    <nd ref="2655968141"/>
    <nd ref="2655968142"/>
    <nd ref="2655968137"/>
    <tag k="building" v="yes"/>
    <tag k="building:levels" v="2"/>
    <tag k="name" v="Smithy Cottage"/>
  </way>
  <way id="260108965" version="1" timestamp="2014-02-05T13:55:32Z" changeset="20393064" uid="1920316" user="MarkAntonyRay">
    <nd ref="2655968141"/>
    <nd ref="2655968139"/>
    <nd ref="2655968144"/>
    <nd ref="2655968146"/>
    <nd ref="2655968147"/>
    <nd ref="2655968149"/>
    <nd ref="2655968151"/>
    <nd ref="2655968141"/>
    <tag k="building" v="yes"/>
    <tag k="building:levels" v="1"/>
    <tag k="name" v="Veterinarian Surgery"/>
  </way>
  <way id="260108966" version="1" timestamp="2014-02-05T13:55:32Z" changeset="20393064" uid="1920316" user="MarkAntonyRay">
    <nd ref="2655968153"/>
    <nd ref="2655968154"/>
    <nd ref="2655968156"/>
    <nd ref="2655968157"/>
    <nd ref="2655968159"/>
    <nd ref="2655968160"/>
    <nd ref="2655968153"/>
    <tag k="building" v="yes"/>
    <tag k="building:levels" v="2"/>
    <tag k="name" v="Mill Brook Cottage"/>
  </way>
  <way id="260108967" version="2" timestamp="2014-02-06T21:18:10Z" changeset="20419962" uid="1920316" user="MarkAntonyRay">
    <nd ref="2655968161"/>
    <nd ref="2655968162"/>
    <nd ref="2658175618"/>
    <nd ref="2655968163"/>
    <nd ref="2655968164"/>
    <nd ref="2658175653"/>
    <nd ref="2655968161"/>
    <tag k="building" v="yes"/>
    <tag k="building:levels" v="2"/>
    <tag k="name" v="Pear Tree Cottage"/>
  </way>
  <way id="260109662" version="1" timestamp="2014-02-05T14:00:29Z" changeset="20393151" uid="1920316" user="MarkAntonyRay">
    <nd ref="2655978197"/>
    <nd ref="2655978200"/>
    <nd ref="2655978203"/>
    <nd ref="2655978205"/>
    <nd ref="2655978207"/>
    <nd ref="2655978210"/>
    <nd ref="2655978213"/>
    <nd ref="2655978217"/>
    <nd ref="2655978230"/>
    <nd ref="2655978232"/>
    <nd ref="2655978235"/>
    <nd ref="2655978197"/>
    <tag k="building" v="yes"/>
    <tag k="building:levels" v="1"/>
    <tag k="name" v="Village Hall"/>
  </way>
  <way id="260118558" version="1" timestamp="2014-02-05T14:46:47Z" changeset="20394042" uid="1920316" user="MarkAntonyRay">
    <nd ref="2656045563"/>
    <nd ref="2656045570"/>
    <nd ref="2656045651"/>
    <nd ref="2656045652"/>
    <nd ref="2656045653"/>
    <nd ref="2656045563"/>
    <tag k="building" v="yes"/>
    <tag k="name" v="Cricket Pavilion"/>
  </way>
  <way id="260118559" version="1" timestamp="2014-02-05T14:46:47Z" changeset="20394042" uid="1920316" user="MarkAntonyRay">
    <nd ref="2656045654"/>
    <nd ref="2656045655"/>
    <nd ref="2656045656"/>
    <nd ref="2656045657"/>
    <nd ref="2656045654"/>
    <tag k="building" v="yes"/>
    <tag k="name" v="Tall Trees Cottage"/>
  </way>
  <way id="260118560" version="1" timestamp="2014-02-05T14:46:47Z" changeset="20394042" uid="1920316" user="MarkAntonyRay">
    <nd ref="2656045658"/>
    <nd ref="2656045659"/>
    <nd ref="2656045660"/>
    <nd ref="2656045661"/>
    <nd ref="2656045662"/>
    <nd ref="2656045663"/>
    <nd ref="2656045658"/>
    <tag k="building" v="yes"/>
    <tag k="building:levels" v="2"/>
    <tag k="name" v="The Mill"/>
  </way>
  <way id="260118561" version="2" timestamp="2014-02-06T21:18:11Z" changeset="20419962" uid="1920316" user="MarkAntonyRay">
    <nd ref="2656045664"/>
    <nd ref="2656045665"/>
    <nd ref="2658175770"/>
    <nd ref="2656045666"/>
    <nd ref="2656045667"/>
    <nd ref="2656045668"/>
    <nd ref="2656045669"/>
    <nd ref="2656045670"/>
    <nd ref="2656045671"/>
    <nd ref="2656045672"/>
    <nd ref="2656045673"/>
    <nd ref="2656045674"/>
    <nd ref="2656045675"/>
    <nd ref="2656045664"/>
    <tag k="building" v="yes"/>
    <tag k="name" v="St. Mary's Church"/>
  </way>
  <way id="260118562" version="1" timestamp="2014-02-05T14:46:47Z" changeset="20394042" uid="1920316" user="MarkAntonyRay">
    <nd ref="2656045676"/>
    <nd ref="2656045677"/>
    <nd ref="2656045678"/>
    <nd ref="2656045679"/>
    <nd ref="2656045680"/>
    <nd ref="2656045676"/>
    <tag k="building" v="yes"/>
    <tag k="name" v="Village Shop"/>
  </way>
  <way id="260118563" version="2" timestamp="2014-02-06T21:18:11Z" changeset="20419962" uid="1920316" user="MarkAntonyRay">
    <nd ref="2656045680"/>
    <nd ref="2658175718"/>
    <nd ref="2656045681"/>
    <nd ref="2658175758"/>
    <nd ref="2656045682"/>
    <nd ref="2656045683"/>
    <nd ref="2656045684"/>
    <nd ref="2656045679"/>
    <nd ref="2656045680"/>
    <tag k="building" v="yes"/>
    <tag k="name" v="Farrer's Cottage"/>
  </way>
  <way id="260118564" version="1" timestamp="2014-02-05T14:46:47Z" changeset="20394042" uid="1920316" user="MarkAntonyRay">
    <nd ref="2656045685"/>
    <nd ref="2656045686"/>
    <nd ref="2656045687"/>
    <nd ref="2656045688"/>
    <nd ref="2656045689"/>
    <nd ref="2656045690"/>
    <nd ref="2656045691"/>
    <nd ref="2656045692"/>
    <nd ref="2656045685"/>
    <tag k="building" v="yes"/>
    <tag k="name" v="The Garage"/>
  </way>
  <way id="260118566" version="2" timestamp="2014-02-06T21:18:10Z" changeset="20419962" uid="1920316" user="MarkAntonyRay">
    <nd ref="2656045697"/>
    <nd ref="2656045698"/>
    <nd ref="2656045699"/>
    <nd ref="2656045700"/>
    <nd ref="2658175645"/>
    <nd ref="2656045697"/>
    <tag k="building" v="yes"/>
    <tag k="name" v="Dale Head"/>
  </way>
  <way id="260118567" version="2" timestamp="2014-02-06T21:18:10Z" changeset="20419962" uid="1920316" user="MarkAntonyRay">
    <nd ref="2656045699"/>
    <nd ref="2658175683"/>
    <nd ref="2656045701"/>
    <nd ref="2656045702"/>
    <nd ref="2658175637"/>
    <nd ref="2656045703"/>
    <nd ref="2656045699"/>
    <tag k="building" v="yes"/>
    <tag k="name" v="Tug Ghyll"/>
  </way>
  <way id="260118568" version="2" timestamp="2014-02-06T21:18:10Z" changeset="20419962" uid="1920316" user="MarkAntonyRay">
    <nd ref="2655968164"/>
    <nd ref="2658175675"/>
    <nd ref="2656045701"/>
    <nd ref="2656045702"/>
    <nd ref="2658175628"/>
    <nd ref="2655968163"/>
    <nd ref="2655968164"/>
    <tag k="building" v="yes"/>
    <tag k="building:levels" v="2"/>
    <tag k="name" v="Woodbine Cottage"/>
  </way>
  <way id="260118569" version="2" timestamp="2014-02-06T21:18:11Z" changeset="20419962" uid="1920316" user="MarkAntonyRay">
    <nd ref="2656045707"/>
    <nd ref="2656045715"/>
    <nd ref="2658175961"/>
    <nd ref="2656045708"/>
    <nd ref="2658175894"/>
    <nd ref="2656045709"/>
    <nd ref="2656045710"/>
    <nd ref="2656045711"/>
    <nd ref="2656045712"/>
    <nd ref="2656045713"/>
    <nd ref="2656045714"/>
    <nd ref="989035910"/>
    <nd ref="2656045707"/>
    <tag k="building" v="yes"/>
    <tag k="building:levels" v="2"/>
    <tag k="name" v="Caf Hope"/>
  </way>
  <way id="260118570" version="2" timestamp="2014-02-06T21:18:12Z" changeset="20419962" uid="1920316" user="MarkAntonyRay">
    <nd ref="2656045707"/>
    <nd ref="2656045715"/>
    <nd ref="2658175953"/>
    <nd ref="2656045716"/>
    <nd ref="2656045717"/>
    <nd ref="2658175903"/>
    <nd ref="2656045707"/>
    <tag k="building" v="yes"/>
    <tag k="building:levels" v="2"/>
    <tag k="name" v="Keepers Cottage"/>
  </way>
  <way id="260118571" version="2" timestamp="2014-02-06T21:18:12Z" changeset="20419962" uid="1920316" user="MarkAntonyRay">
    <nd ref="2656045717"/>
    <nd ref="2656045716"/>
    <nd ref="2658175972"/>
    <nd ref="2656045718"/>
    <nd ref="2656045719"/>
    <nd ref="2658175914"/>
    <nd ref="2656045717"/>
    <tag k="building" v="yes"/>
    <tag k="building:levels" v="2"/>
    <tag k="name" v="Victoria Cottage"/>
  </way>
  <way id="260118572" version="2" timestamp="2014-02-06T21:18:12Z" changeset="20419962" uid="1920316" user="MarkAntonyRay">
    <nd ref="2656045719"/>
    <nd ref="2656045718"/>
    <nd ref="2658175984"/>
    <nd ref="2656045720"/>
    <nd ref="2656045721"/>
    <nd ref="2658175924"/>
    <nd ref="2656045719"/>
    <tag k="building" v="yes"/>
    <tag k="building:levels" v="2"/>
    <tag k="name" v="Connelton View"/>
  </way>
  <way id="260118573" version="2" timestamp="2014-02-06T21:18:12Z" changeset="20419962" uid="1920316" user="MarkAntonyRay">
    <nd ref="2656045721"/>
    <nd ref="2656045720"/>
    <nd ref="2658175993"/>
    <nd ref="2656045722"/>
    <nd ref="2656045736"/>
    <nd ref="2656045723"/>
    <nd ref="2658175934"/>
    <nd ref="2656045721"/>
    <tag k="building" v="yes"/>
    <tag k="building:levels" v="2"/>
    <tag k="name" v="Dale View"/>
  </way>
  <way id="260118576" version="2" timestamp="2014-02-06T21:18:12Z" changeset="20419962" uid="1920316" user="MarkAntonyRay">
    <nd ref="2656045732"/>
    <nd ref="2656045737"/>
    <nd ref="2656045733"/>
    <nd ref="2658175941"/>
    <nd ref="2656045734"/>
    <nd ref="2656045735"/>
    <nd ref="2658176007"/>
    <nd ref="2656045732"/>
    <tag k="building" v="yes"/>
    <tag k="building:levels" v="2"/>
    <tag k="name" v="Jacob's Fold"/>
  </way>
  <way id="260118579" version="3" timestamp="2021-07-14T16:21:01Z" changeset="107991459" uid="4543415" user="The_JF">
    <nd ref="2656045738"/>
    <nd ref="2656045735"/>
    <nd ref="2656045734"/>
    <nd ref="2656045739"/>
    <nd ref="2658175949"/>
    <nd ref="2656045740"/>
    <nd ref="2656045741"/>
    <nd ref="2658176018"/>
    <nd ref="2656045738"/>
    <tag k="building" v="yes"/>
    <tag k="name" v="Annie's Cottage"/>
  </way>
  <way id="260348907" version="1" timestamp="2014-02-06T20:58:19Z" changeset="20419638" uid="1920316" user="MarkAntonyRay">
    <nd ref="2658148972"/>
    <nd ref="2658148973"/>
    <nd ref="2658148974"/>
    <nd ref="2658148975"/>
    <nd ref="2658148972"/>
    <tag k="building" v="yes"/>
    <tag k="name" v="Greenhouse"/>
  </way>
  <way id="260348908" version="1" timestamp="2014-02-06T20:58:19Z" changeset="20419638" uid="1920316" user="MarkAntonyRay">
    <nd ref="2658148975"/>
    <nd ref="2658148976"/>
    <nd ref="2658148977"/>
    <nd ref="2658148974"/>
    <nd ref="2658148975"/>
    <tag k="building" v="yes"/>
    <tag k="name" v="Greenhouse"/>
  </way>
  <way id="260348910" version="1" timestamp="2014-02-06T20:58:19Z" changeset="20419638" uid="1920316" user="MarkAntonyRay">
    <nd ref="2658148982"/>
    <nd ref="2658148983"/>
    <nd ref="2658148984"/>
    <nd ref="2658148985"/>
    <nd ref="2658148986"/>
    <nd ref="2658148987"/>
    <nd ref="2658148988"/>
    <nd ref="2658148989"/>
    <nd ref="2658148982"/>
    <tag k="building" v="yes"/>
    <tag k="name" v="Wishing Well Cottage Barn"/>
  </way>
  <way id="260348911" version="1" timestamp="2014-02-06T20:58:19Z" changeset="20419638" uid="1920316" user="MarkAntonyRay">
    <nd ref="2658148990"/>
    <nd ref="2658148991"/>
    <nd ref="2658148992"/>
    <nd ref="2658148993"/>
    <nd ref="2658148990"/>
    <tag k="building" v="yes"/>
    <tag k="name" v="Wishing Well Cottage"/>
  </way>
  <way id="260348912" version="1" timestamp="2014-02-06T20:58:19Z" changeset="20419638" uid="1920316" user="MarkAntonyRay">
    <nd ref="2658148994"/>
    <nd ref="2658148995"/>
    <nd ref="2658148996"/>
    <nd ref="2658148997"/>
    <nd ref="2658148994"/>
    <tag k="building" v="yes"/>
    <tag k="name" v="Stub Farm House"/>
  </way>
  <way id="266811207" version="8" timestamp="2021-06-13T20:56:41Z" changeset="106297483" uid="978739" user="jcowgill">
    <nd ref="2723201898"/>
    <nd ref="26154872"/>
    <tag k="bicycle" v="yes"/>
    <tag k="bridge" v="yes"/>
    <tag k="foot" v="yes"/>
    <tag k="heritage" v="yes"/>
    <tag k="highway" v="trunk"/>
    <tag k="lanes" v="2"/>
    <tag k="layer" v="1"/>
    <tag k="maxspeed" v="60 mph"/>
    <tag k="maxweight:signed" v="no"/>
    <tag k="name" v="Harewood Bridge"/>
    <tag k="narrow" v="yes"/>
    <tag k="oneway" v="no"/>
    <tag k="ref" v="A61"/>
    <tag k="surface" v="asphalt"/>
    <tag k="wikidata" v="Q17536526"/>
  </way>
  <way id="338975188" version="2" timestamp="2015-05-04T20:24:01Z" changeset="30790654" uid="2800422" user="Paul A Day">
    <nd ref="3461582098"/>
    <nd ref="3461582099"/>
    <nd ref="3461582100"/>
    <nd ref="3461582101"/>
    <nd ref="3461582102"/>
    <nd ref="3461582103"/>
    <nd ref="3461582104"/>
    <nd ref="3461582105"/>
    <nd ref="3461582098"/>
    <tag k="building" v="house"/>
    <tag k="name" v="Woodside Cottage"/>
  </way>
  <way id="352234943" version="1" timestamp="2015-06-08T08:22:18Z" changeset="31807470" uid="2629998" user="barb-andmike">
    <nd ref="373375384"/>
    <nd ref="27481604"/>
    <nd ref="1050395615"/>
    <nd ref="1050395566"/>
    <nd ref="1050395709"/>
    <nd ref="27481605"/>
    <nd ref="27481606"/>
    <nd ref="1050395526"/>
    <nd ref="27481607"/>
    <nd ref="945000418"/>
    <nd ref="798171683"/>
    <tag k="highway" v="unclassified"/>
    <tag k="name" v="Wike Lane"/>
    <tag k="source" v="OS_OpenData_StreetView;Bing;npe"/>
  </way>
  <way id="352951754" version="5" timestamp="2024-10-01T16:47:44Z" changeset="157348484" uid="111135" user="Pete Owens">
    <nd ref="21436395"/>
    <nd ref="6203728701"/>
    <nd ref="765234932"/>
    <nd ref="21436394"/>
    <nd ref="765227730"/>
    <nd ref="21436393"/>
    <nd ref="3165111054"/>
    <nd ref="3165111047"/>
    <nd ref="21436392"/>
    <nd ref="1969628847"/>
    <tag k="bicycle" v="yes"/>
    <tag k="highway" v="trunk"/>
    <tag k="lanes" v="2"/>
    <tag k="maxspeed" v="30 mph"/>
    <tag k="name" v="Harrogate Road"/>
    <tag k="oneway" v="no"/>
    <tag k="ref" v="A61"/>
    <tag k="sidewalk" v="both"/>
    <tag k="surface" v="asphalt"/>
  </way>
  <way id="352951755" version="6" timestamp="2024-10-01T16:47:44Z" changeset="157348484" uid="111135" user="Pete Owens">
    <nd ref="1969628847"/>
    <nd ref="1652877011"/>
    <tag k="bicycle" v="yes"/>
    <tag k="highway" v="trunk"/>
    <tag k="lanes" v="2"/>
    <tag k="maxspeed" v="60 mph"/>
    <tag k="name" v="Harrogate Road"/>
    <tag k="ref" v="A61"/>
    <tag k="shoulder" v="no"/>
    <tag k="surface" v="asphalt"/>
  </way>
  <way id="352951757" version="11" timestamp="2024-06-17T14:09:02Z" changeset="152805446" uid="145231" user="woodpeck_repair">
    <nd ref="967766273"/>
    <nd ref="60631238"/>
    <nd ref="60631237"/>
    <nd ref="60631236"/>
    <nd ref="495969119"/>
    <nd ref="27470972"/>
    <tag k="bicycle" v="yes"/>
    <tag k="foot" v="yes"/>
    <tag k="highway" v="tertiary"/>
    <tag k="lanes" v="2"/>
    <tag k="name" v="Eccup Lane"/>
    <tag k="oneway" v="no"/>
    <tag k="source" v="survey"/>
    <tag k="surface" v="asphalt"/>
  </way>
  <way id="352951762" version="10" timestamp="2024-06-17T14:08:58Z" changeset="152805446" uid="145231" user="woodpeck_repair">
    <nd ref="60629423"/>
    <nd ref="5601300814"/>
    <nd ref="60631243"/>
    <nd ref="60631241"/>
    <nd ref="60631239"/>
    <nd ref="967766273"/>
    <tag k="bicycle" v="yes"/>
    <tag k="foot" v="yes"/>
    <tag k="highway" v="tertiary"/>
    <tag k="lanes" v="2"/>
    <tag k="name" v="Eccup Lane"/>
    <tag k="oneway" v="no"/>
    <tag k="source" v="survey"/>
    <tag k="surface" v="asphalt"/>
  </way>
  <way id="437440216" version="5" timestamp="2024-10-01T16:47:44Z" changeset="157348484" uid="111135" user="Pete Owens">
    <nd ref="1652877011"/>
    <nd ref="21436391"/>
    <nd ref="21436390"/>
    <nd ref="1103089171"/>
    <nd ref="21436389"/>
    <nd ref="1103088791"/>
    <nd ref="21436388"/>
    <nd ref="1103088883"/>
    <nd ref="1103089153"/>
    <nd ref="21436387"/>
    <nd ref="1103088758"/>
    <nd ref="3165111050"/>
    <nd ref="3165111049"/>
    <nd ref="3370797575"/>
    <nd ref="21436386"/>
    <nd ref="21436385"/>
    <nd ref="8920017592"/>
    <tag k="bicycle" v="yes"/>
    <tag k="highway" v="trunk"/>
    <tag k="lanes" v="2"/>
    <tag k="lit" v="no"/>
    <tag k="maxspeed" v="60 mph"/>
    <tag k="name" v="Harrogate Road"/>
    <tag k="ref" v="A61"/>
    <tag k="shoulder" v="no"/>
    <tag k="source" v="survey"/>
    <tag k="surface" v="asphalt"/>
  </way>
  <way id="467317560" version="3" timestamp="2025-03-27T23:33:04Z" changeset="164186957" uid="8857" user="philipcullen">
    <nd ref="4619660767"/>
    <nd ref="4619660768"/>
    <nd ref="4619660769"/>
    <nd ref="4619660770"/>
    <nd ref="4619660771"/>
    <nd ref="4619660772"/>
    <nd ref="4619660773"/>
    <nd ref="4619660774"/>
    <nd ref="4619660775"/>
    <nd ref="4619660776"/>
    <nd ref="4619660777"/>
    <nd ref="4619660767"/>
    <tag k="amenity" v="place_of_worship"/>
    <tag k="building" v="yes"/>
    <tag k="denomination" v="united_reformed"/>
    <tag k="name" v="Wigton Moor United Reformed Church"/>
    <tag k="ref:GB:uprn" v="72333029"/>
    <tag k="religion" v="christian"/>
  </way>
  <way id="476167786" version="3" timestamp="2024-10-01T16:47:44Z" changeset="157348484" uid="111135" user="Pete Owens">
    <nd ref="4698118018"/>
    <nd ref="4698118027"/>
    <nd ref="677351573"/>
    <tag k="bicycle" v="yes"/>
    <tag k="highway" v="trunk"/>
    <tag k="lanes" v="2"/>
    <tag k="maxspeed" v="30 mph"/>
    <tag k="name" v="Harrogate Road"/>
    <tag k="oneway" v="yes"/>
    <tag k="ref" v="A61"/>
    <tag k="turn:lanes" v="left;through|right"/>
  </way>
  <way id="476167787" version="4" timestamp="2024-10-01T16:47:44Z" changeset="157348484" uid="111135" user="Pete Owens">
    <nd ref="4698118018"/>
    <nd ref="1997294077"/>
    <nd ref="1997294072"/>
    <nd ref="1050180542"/>
    <nd ref="5272095030"/>
    <nd ref="5845582475"/>
    <tag k="bicycle" v="yes"/>
    <tag k="highway" v="trunk"/>
    <tag k="lanes" v="2"/>
    <tag k="maxspeed" v="30 mph"/>
    <tag k="name" v="Harrogate Road"/>
    <tag k="ref" v="A61"/>
    <tag k="source" v="OS_OpenData_StreetView;Bing;local_knowledge"/>
  </way>
  <way id="476167788" version="3" timestamp="2024-10-01T16:47:44Z" changeset="157348484" uid="111135" user="Pete Owens">
    <nd ref="4698118025"/>
    <nd ref="4698118024"/>
    <nd ref="4698118023"/>
    <nd ref="4698118022"/>
    <nd ref="4698118021"/>
    <nd ref="4698118020"/>
    <tag k="bicycle" v="yes"/>
    <tag k="highway" v="trunk_link"/>
    <tag k="lanes" v="1"/>
    <tag k="name" v="Harrogate Road"/>
    <tag k="oneway" v="yes"/>
    <tag k="ref" v="A61"/>
    <tag k="sou" v="bing"/>
  </way>
  <way id="476167789" version="1" timestamp="2017-02-21T22:07:25Z" changeset="46288646" uid="1802093" user="Paul Berry">
    <nd ref="1756851240"/>
    <nd ref="1997294082"/>
    <tag k="highway" v="residential"/>
    <tag k="name" v="Harrogate Road"/>
    <tag k="oneway" v="yes"/>
  </way>
  <way id="476167790" version="1" timestamp="2017-02-21T22:07:25Z" changeset="46288646" uid="1802093" user="Paul Berry">
    <nd ref="1997294082"/>
    <nd ref="1997294083"/>
    <nd ref="677352412"/>
    <tag k="highway" v="residential"/>
    <tag k="name" v="Harrogate Road"/>
  </way>
  <way id="498583412" version="1" timestamp="2017-06-06T13:52:55Z" changeset="49306173" uid="705850" user="Cebderby">
    <nd ref="4899739513"/>
    <nd ref="4899739511"/>
    <nd ref="4899739503"/>
    <nd ref="4899739506"/>
    <nd ref="4899739512"/>
    <nd ref="4899739508"/>
    <nd ref="4899739505"/>
    <nd ref="4899739509"/>
    <tag k="highway" v="residential"/>
    <tag k="name" v="Harewood Villas"/>
    <tag k="source" v="DigitalGlobe imagery"/>
    <tag k="source:name" v="OS_OpenData_Locator"/>
  </way>
  <way id="544650156" version="5" timestamp="2022-02-08T20:57:28Z" changeset="117176984" uid="4543415" user="The_JF">
    <nd ref="691581698"/>
    <nd ref="6220538172"/>
    <nd ref="6220538171"/>
    <nd ref="3985390534"/>
    <nd ref="3985390524"/>
    <nd ref="3985390479"/>
    <nd ref="691581702"/>
    <nd ref="1643349555"/>
    <nd ref="1643348646"/>
    <nd ref="1643348638"/>
    <nd ref="1643342161"/>
    <nd ref="1643337858"/>
    <nd ref="1643340995"/>
    <nd ref="691581709"/>
    <nd ref="6220482713"/>
    <nd ref="6220482714"/>
    <nd ref="6220482712"/>
    <nd ref="691581711"/>
    <nd ref="9490847374"/>
    <nd ref="691581712"/>
    <tag k="direction" v="backward"/>
    <tag k="highway" v="residential"/>
    <tag k="maxspeed" v="20 mph"/>
    <tag k="name" v="Plantation Gardens"/>
    <tag k="source" v="OS7"/>
  </way>
  <way id="544650157" version="2" timestamp="2025-04-20T16:40:39Z" changeset="165201060" uid="2160231" user="rtwbike">
    <nd ref="691582551"/>
    <nd ref="691582556"/>
    <nd ref="691582560"/>
    <nd ref="691583555"/>
    <nd ref="691582563"/>
    <tag k="highway" v="residential"/>
    <tag k="lane_markings" v="no"/>
    <tag k="name" v="High Ash Avenue"/>
    <tag k="source" v="OS7"/>
    <tag k="surface" v="asphalt"/>
  </way>
  <way id="546853923" version="5" timestamp="2025-03-29T01:37:19Z" changeset="164232318" uid="8857" user="philipcullen">
    <nd ref="6106944762"/>
    <nd ref="6106944765"/>
    <nd ref="6106944764"/>
    <nd ref="6106944763"/>
    <nd ref="6106944767"/>
    <nd ref="5284230624"/>
    <nd ref="5284230623"/>
    <nd ref="5284230622"/>
    <nd ref="5284230628"/>
    <nd ref="6106944766"/>
    <nd ref="6106944762"/>
    <tag k="addr:housenumber" v="5"/>
    <tag k="addr:street" v="Wigton Green"/>
    <tag k="building" v="house"/>
    <tag k="ref:GB:uprn" v="72412873"/>
  </way>
  <way id="546855208" version="4" timestamp="2025-03-29T01:37:19Z" changeset="164232318" uid="8857" user="philipcullen">
    <nd ref="6106944757"/>
    <nd ref="6106944756"/>
    <nd ref="6106944755"/>
    <nd ref="5284242856"/>
    <nd ref="5284242855"/>
    <nd ref="5284242854"/>
    <nd ref="6106944757"/>
    <tag k="addr:housenumber" v="7"/>
    <tag k="addr:street" v="Wigton Green"/>
    <tag k="building" v="house"/>
    <tag k="ref:GB:uprn" v="72412875"/>
  </way>
  <way id="546855214" version="4" timestamp="2025-03-29T01:37:19Z" changeset="164232318" uid="8857" user="philipcullen">
    <nd ref="5284242896"/>
    <nd ref="6106944781"/>
    <nd ref="5284242898"/>
    <nd ref="6106944779"/>
    <nd ref="6106944780"/>
    <nd ref="5284242895"/>
    <nd ref="5284242896"/>
    <tag k="addr:housenumber" v="3"/>
    <tag k="addr:street" v="Wigton Green"/>
    <tag k="building" v="house"/>
    <tag k="ref:GB:uprn" v="72412871"/>
  </way>
  <way id="546855215" version="4" timestamp="2025-03-29T01:37:19Z" changeset="164232318" uid="8857" user="philipcullen">
    <nd ref="6106944784"/>
    <nd ref="6106944887"/>
    <nd ref="6106944886"/>
    <nd ref="6106944885"/>
    <nd ref="5284242900"/>
    <nd ref="6106944890"/>
    <nd ref="5284242910"/>
    <nd ref="6106944888"/>
    <nd ref="6106944889"/>
    <nd ref="5284242907"/>
    <nd ref="5284242906"/>
    <nd ref="5284242905"/>
    <nd ref="6106944784"/>
    <tag k="addr:housenumber" v="1"/>
    <tag k="addr:street" v="Wigton Green"/>
    <tag k="building" v="house"/>
    <tag k="ref:GB:uprn" v="72412869"/>
  </way>
  <way id="559572169" version="1" timestamp="2018-02-07T23:30:39Z" changeset="56164230" uid="7238333" user="JacobUK">
    <nd ref="1673598582"/>
    <nd ref="5397103756"/>
    <tag k="highway" v="residential"/>
    <tag k="name" v="Wigton Park Close"/>
  </way>
  <way id="559572202" version="2" timestamp="2019-01-13T11:01:19Z" changeset="66270782" uid="3316592" user="Arthtoach">
    <nd ref="5397103889"/>
    <nd ref="6205190138"/>
    <nd ref="5397103890"/>
    <nd ref="6205190137"/>
    <tag k="highway" v="residential"/>
  </way>
  <way id="596538515" version="2" timestamp="2025-03-29T01:39:20Z" changeset="164232318" uid="8857" user="philipcullen">
    <nd ref="5682384171"/>
    <nd ref="5682384170"/>
    <nd ref="5682384169"/>
    <nd ref="5682384168"/>
    <nd ref="5682384171"/>
    <tag k="addr:city" v="Leeds"/>
    <tag k="addr:postcode" v="LS17 8EZ"/>
    <tag k="addr:street" v="Holywell Lane"/>
    <tag k="addr:suburb" v="Shadwell"/>
    <tag k="building" v="yes"/>
    <tag k="fhrs:id" v="319849"/>
    <tag k="name" v="Brandon Golf Course"/>
    <tag k="ref:GB:uprn" v="72552595"/>
  </way>
  <way id="618447969" version="3" timestamp="2023-12-18T18:49:27Z" changeset="145262625" uid="16898063" user="benjo384">
    <nd ref="495969140"/>
    <nd ref="10875624066"/>
    <nd ref="11429542435"/>
    <nd ref="4141809840"/>
    <nd ref="21436381"/>
    <tag k="highway" v="primary"/>
    <tag k="lanes" v="2"/>
    <tag k="maxspeed" v="60 mph"/>
    <tag k="name" v="Otley Road"/>
    <tag k="ref" v="A659"/>
  </way>
  <way id="618447970" version="4" timestamp="2024-01-21T11:30:08Z" changeset="146508909" uid="242345" user="confusedbuffalo">
    <nd ref="495969128"/>
    <nd ref="1103088626"/>
    <nd ref="1103089047"/>
    <tag k="bicycle" v="yes"/>
    <tag k="highway" v="trunk"/>
    <tag k="lanes" v="3"/>
    <tag k="lanes:backward" v="2"/>
    <tag k="lanes:forward" v="1"/>
    <tag k="maxspeed" v="60 mph"/>
    <tag k="name" v="Harrogate Road"/>
    <tag k="oneway" v="no"/>
    <tag k="ref" v="A61"/>
    <tag k="surface" v="asphalt"/>
    <tag k="turn:lanes:backward" v="through|right"/>
  </way>
  <way id="618447971" version="4" timestamp="2024-01-21T11:29:34Z" changeset="146508894" uid="242345" user="confusedbuffalo">
    <nd ref="21436381"/>
    <nd ref="11429542437"/>
    <nd ref="11429542436"/>
    <nd ref="1103089016"/>
    <nd ref="495969128"/>
    <tag k="bicycle" v="yes"/>
    <tag k="highway" v="trunk"/>
    <tag k="lanes" v="2"/>
    <tag k="maxspeed" v="60 mph"/>
    <tag k="name" v="Harrogate Road"/>
    <tag k="oneway" v="no"/>
    <tag k="ref" v="A61"/>
    <tag k="surface" v="asphalt"/>
  </way>
  <way id="618451644" version="2" timestamp="2024-10-01T16:47:44Z" changeset="157348484" uid="111135" user="Pete Owens">
    <nd ref="5845582466"/>
    <nd ref="1050180507"/>
    <nd ref="5845582470"/>
    <tag k="bicycle" v="yes"/>
    <tag k="highway" v="trunk"/>
    <tag k="lanes" v="2"/>
    <tag k="maxspeed" v="30 mph"/>
    <tag k="name" v="Harrogate Road"/>
    <tag k="oneway" v="yes"/>
    <tag k="ref" v="A61"/>
    <tag k="source" v="historical"/>
    <tag k="source_ref" v="npe"/>
    <tag k="turn:lanes" v="left;through|right"/>
  </way>
  <way id="618451645" version="2" timestamp="2024-10-01T16:47:44Z" changeset="157348484" uid="111135" user="Pete Owens">
    <nd ref="5845582470"/>
    <nd ref="245495132"/>
    <tag k="bicycle" v="yes"/>
    <tag k="highway" v="trunk"/>
    <tag k="lanes" v="2"/>
    <tag k="maxspeed" v="30 mph"/>
    <tag k="name" v="Harrogate Road"/>
    <tag k="oneway" v="yes"/>
    <tag k="ref" v="A61"/>
    <tag k="source" v="historical"/>
    <tag k="source_ref" v="npe"/>
    <tag k="turn:lanes" v="through|right"/>
  </way>
  <way id="618451646" version="1" timestamp="2018-08-21T06:49:45Z" changeset="61844325" uid="3316592" user="Arthtoach">
    <nd ref="5845582470"/>
    <nd ref="5845582469"/>
    <nd ref="5845582468"/>
    <nd ref="5845582467"/>
    <tag k="highway" v="unclassified"/>
    <tag k="lanes" v="1"/>
    <tag k="name" v="Alwoodley Lane"/>
    <tag k="oneway" v="yes"/>
    <tag k="turn:lanes" v="left"/>
  </way>
  <way id="618451647" version="2" timestamp="2025-01-28T21:41:22Z" changeset="161874751" uid="12858708" user="imfelixyeung">
    <nd ref="248018350"/>
    <nd ref="1997294050"/>
    <tag k="highway" v="unclassified"/>
    <tag k="lanes:backward" v="1"/>
    <tag k="lanes:forward" v="2"/>
    <tag k="maxspeed" v="40 mph"/>
    <tag k="name" v="Wigton Lane"/>
    <tag k="source" v="local_knowledge"/>
    <tag k="source_ref" v="npe"/>
    <tag k="surface" v="asphalt"/>
    <tag k="turn:lanes:forward" v="left|through;right"/>
  </way>
  <way id="618451648" version="1" timestamp="2018-08-21T06:49:45Z" changeset="61844325" uid="3316592" user="Arthtoach">
    <nd ref="1997294050"/>
    <nd ref="2496393512"/>
    <tag k="highway" v="unclassified"/>
    <tag k="lanes" v="2"/>
    <tag k="name" v="Wigton Lane"/>
    <tag k="oneway" v="yes"/>
    <tag k="source" v="local_knowledge"/>
    <tag k="source_ref" v="npe"/>
    <tag k="surface" v="asphalt"/>
    <tag k="turn:lanes" v="left|through;right"/>
  </way>
  <way id="618451650" version="2" timestamp="2025-01-28T21:41:22Z" changeset="161874751" uid="12858708" user="imfelixyeung">
    <nd ref="245495132"/>
    <nd ref="1050180519"/>
    <nd ref="5845582473"/>
    <nd ref="1997294050"/>
    <tag k="highway" v="unclassified"/>
    <tag k="lanes" v="1"/>
    <tag k="maxspeed" v="40 mph"/>
    <tag k="name" v="Wigton Lane"/>
    <tag k="oneway" v="yes"/>
    <tag k="source" v="local_knowledge"/>
    <tag k="source_ref" v="npe"/>
    <tag k="surface" v="asphalt"/>
  </way>
  <way id="618451653" version="1" timestamp="2018-08-21T06:49:45Z" changeset="61844325" uid="3316592" user="Arthtoach">
    <nd ref="2496393512"/>
    <nd ref="5845582472"/>
    <nd ref="245495132"/>
    <tag k="highway" v="unclassified"/>
    <tag k="lanes" v="1"/>
    <tag k="name" v="Wigton Lane"/>
    <tag k="oneway" v="yes"/>
    <tag k="source" v="local_knowledge"/>
    <tag k="source_ref" v="npe"/>
    <tag k="surface" v="asphalt"/>
    <tag k="turn:lanes" v="through;right"/>
  </way>
  <way id="618451656" version="2" timestamp="2025-01-28T21:41:22Z" changeset="161874751" uid="12858708" user="imfelixyeung">
    <nd ref="245495132"/>
    <nd ref="5845582467"/>
    <nd ref="1997294051"/>
    <nd ref="1997434696"/>
    <nd ref="5845582474"/>
    <tag k="highway" v="unclassified"/>
    <tag k="lanes:backward" v="2"/>
    <tag k="lanes:forward" v="1"/>
    <tag k="maxspeed" v="40 mph"/>
    <tag k="name" v="Alwoodley Lane"/>
    <tag k="source" v="local_knowledge"/>
    <tag k="source_ref" v="npe"/>
    <tag k="surface" v="asphalt"/>
    <tag k="turn:lanes:backward" v="left|through;right"/>
  </way>
  <way id="618451657" version="2" timestamp="2024-10-01T16:47:44Z" changeset="157348484" uid="111135" user="Pete Owens">
    <nd ref="5845582475"/>
    <nd ref="245495132"/>
    <tag k="bicycle" v="yes"/>
    <tag k="highway" v="trunk"/>
    <tag k="lanes:backward" v="1"/>
    <tag k="lanes:forward" v="2"/>
    <tag k="maxspeed" v="30 mph"/>
    <tag k="name" v="Harrogate Road"/>
    <tag k="ref" v="A61"/>
    <tag k="source" v="OS_OpenData_StreetView;Bing;local_knowledge"/>
    <tag k="turn:lanes:forward" v="left;through|through;right"/>
  </way>
  <way id="618451659" version="2" timestamp="2024-10-01T16:47:44Z" changeset="157348484" uid="111135" user="Pete Owens">
    <nd ref="5845583098"/>
    <nd ref="1446223316"/>
    <nd ref="1630853052"/>
    <tag k="bicycle" v="yes"/>
    <tag k="highway" v="trunk"/>
    <tag k="lanes:backward" v="1"/>
    <tag k="lanes:forward" v="2"/>
    <tag k="maxspeed" v="30 mph"/>
    <tag k="name" v="Harrogate Road"/>
    <tag k="ref" v="A61"/>
    <tag k="source" v="OS_OpenData_StreetView;Bing;local_knowledge;npe"/>
    <tag k="turn:lanes:forward" v="left|through;right"/>
  </way>
  <way id="618484342" version="4" timestamp="2025-04-20T16:29:57Z" changeset="165201627" uid="2160231" user="rtwbike">
    <nd ref="5845860838"/>
    <nd ref="5845860839"/>
    <nd ref="5845860837"/>
    <nd ref="5845860843"/>
    <nd ref="5845860842"/>
    <nd ref="5845860836"/>
    <nd ref="5845860841"/>
    <nd ref="5845860840"/>
    <nd ref="5845860838"/>
    <tag k="addr:housenumber" v="60"/>
    <tag k="addr:street" v="High Ash Drive"/>
    <tag k="building" v="house"/>
    <tag k="ref:GB:uprn" v="72333004"/>
  </way>
  <way id="618484344" version="4" timestamp="2025-04-20T16:29:25Z" changeset="165201627" uid="2160231" user="rtwbike">
    <nd ref="5845860848"/>
    <nd ref="5845860851"/>
    <nd ref="5845860852"/>
    <nd ref="5845860853"/>
    <nd ref="5845860849"/>
    <nd ref="5845860850"/>
    <nd ref="5845860848"/>
    <tag k="addr:housenumber" v="56"/>
    <tag k="addr:street" v="High Ash Drive"/>
    <tag k="building" v="house"/>
    <tag k="ref:GB:uprn" v="72332999"/>
  </way>
  <way id="618484345" version="4" timestamp="2025-04-20T16:29:15Z" changeset="165201627" uid="2160231" user="rtwbike">
    <nd ref="5845860859"/>
    <nd ref="5845860855"/>
    <nd ref="5845860856"/>
    <nd ref="5845860854"/>
    <nd ref="5845860857"/>
    <nd ref="5845860858"/>
    <nd ref="5845860859"/>
    <tag k="addr:housenumber" v="54"/>
    <tag k="addr:street" v="High Ash Drive"/>
    <tag k="building" v="house"/>
    <tag k="ref:GB:uprn" v="72332997"/>
  </way>
  <way id="618484346" version="4" timestamp="2025-04-20T16:28:57Z" changeset="165201627" uid="2160231" user="rtwbike">
    <nd ref="5845860865"/>
    <nd ref="5845860863"/>
    <nd ref="5845860860"/>
    <nd ref="5845860861"/>
    <nd ref="5845860862"/>
    <nd ref="5845860864"/>
    <nd ref="5845860865"/>
    <tag k="addr:housenumber" v="52"/>
    <tag k="addr:street" v="High Ash Drive"/>
    <tag k="building" v="house"/>
    <tag k="ref:GB:uprn" v="72332995"/>
  </way>
  <way id="618484347" version="4" timestamp="2025-04-20T16:28:49Z" changeset="165201627" uid="2160231" user="rtwbike">
    <nd ref="5845860870"/>
    <nd ref="5845860869"/>
    <nd ref="5845860868"/>
    <nd ref="5845860875"/>
    <nd ref="5845860874"/>
    <nd ref="5845860866"/>
    <nd ref="5845860871"/>
    <nd ref="5845860872"/>
    <nd ref="5845860873"/>
    <nd ref="5845860867"/>
    <nd ref="5845860870"/>
    <tag k="addr:housenumber" v="50"/>
    <tag k="addr:street" v="High Ash Drive"/>
    <tag k="building" v="house"/>
    <tag k="ref:GB:uprn" v="72332993"/>
  </way>
  <way id="618484349" version="4" timestamp="2025-04-20T16:28:22Z" changeset="165201627" uid="2160231" user="rtwbike">
    <nd ref="5845862387"/>
    <nd ref="5845862385"/>
    <nd ref="5845860882"/>
    <nd ref="5845860883"/>
    <nd ref="5845860884"/>
    <nd ref="5845862386"/>
    <nd ref="5845862387"/>
    <tag k="addr:housenumber" v="46"/>
    <tag k="addr:street" v="High Ash Drive"/>
    <tag k="building" v="house"/>
    <tag k="ref:GB:uprn" v="72332989"/>
  </way>
  <way id="618484351" version="4" timestamp="2025-04-20T16:28:09Z" changeset="165201627" uid="2160231" user="rtwbike">
    <nd ref="5845862393"/>
    <nd ref="5845862392"/>
    <nd ref="5845862388"/>
    <nd ref="5845862394"/>
    <nd ref="5845862395"/>
    <nd ref="5845862389"/>
    <nd ref="5845862390"/>
    <nd ref="5845862391"/>
    <nd ref="5845862393"/>
    <tag k="addr:housenumber" v="44"/>
    <tag k="addr:street" v="High Ash Drive"/>
    <tag k="building" v="house"/>
    <tag k="ref:GB:uprn" v="72332987"/>
  </way>
  <way id="618484352" version="4" timestamp="2025-04-20T16:27:55Z" changeset="165201627" uid="2160231" user="rtwbike">
    <nd ref="5845862399"/>
    <nd ref="5845862396"/>
    <nd ref="5845862397"/>
    <nd ref="5845862398"/>
    <nd ref="5845862399"/>
    <tag k="addr:housenumber" v="42"/>
    <tag k="addr:street" v="High Ash Drive"/>
    <tag k="building" v="house"/>
    <tag k="ref:GB:uprn" v="72332985"/>
  </way>
  <way id="618484353" version="4" timestamp="2025-04-20T16:27:46Z" changeset="165201627" uid="2160231" user="rtwbike">
    <nd ref="5845862403"/>
    <nd ref="5845862402"/>
    <nd ref="5845862401"/>
    <nd ref="5845862400"/>
    <nd ref="5845862403"/>
    <tag k="addr:housenumber" v="40"/>
    <tag k="addr:street" v="High Ash Drive"/>
    <tag k="building" v="house"/>
    <tag k="ref:GB:uprn" v="72332983"/>
  </way>
  <way id="618484354" version="4" timestamp="2025-04-20T16:27:35Z" changeset="165201627" uid="2160231" user="rtwbike">
    <nd ref="5845862407"/>
    <nd ref="5845862404"/>
    <nd ref="5845862405"/>
    <nd ref="5845862406"/>
    <nd ref="5845862407"/>
    <tag k="addr:housenumber" v="38"/>
    <tag k="addr:street" v="High Ash Drive"/>
    <tag k="building" v="house"/>
    <tag k="ref:GB:uprn" v="72332981"/>
  </way>
  <way id="618484355" version="4" timestamp="2025-04-20T16:27:27Z" changeset="165201627" uid="2160231" user="rtwbike">
    <nd ref="5845862411"/>
    <nd ref="5845862419"/>
    <nd ref="5845862417"/>
    <nd ref="5845862409"/>
    <nd ref="5845862416"/>
    <nd ref="5845862414"/>
    <nd ref="5845862415"/>
    <nd ref="5845862408"/>
    <nd ref="5845862418"/>
    <nd ref="5845862410"/>
    <nd ref="5845862413"/>
    <nd ref="5845862412"/>
    <nd ref="5845862411"/>
    <tag k="addr:housenumber" v="36"/>
    <tag k="addr:street" v="High Ash Drive"/>
    <tag k="building" v="house"/>
    <tag k="ref:GB:uprn" v="72332979"/>
  </way>
  <way id="618484372" version="1" timestamp="2018-08-21T09:40:55Z" changeset="61849317" uid="3316592" user="Arthtoach">
    <nd ref="5845862739"/>
    <nd ref="5845862738"/>
    <tag k="highway" v="residential"/>
  </way>
  <way id="651200458" version="4" timestamp="2025-03-29T01:42:51Z" changeset="164232318" uid="8857" user="philipcullen">
    <nd ref="6106901754"/>
    <nd ref="6106901753"/>
    <nd ref="6106901745"/>
    <nd ref="6106901757"/>
    <nd ref="6106901758"/>
    <nd ref="6106901744"/>
    <nd ref="6106901754"/>
    <tag k="building" v="yes"/>
    <tag k="building:levels" v="1"/>
    <tag k="building:material" v="sandstone"/>
    <tag k="description" v="ornate gateway structure"/>
    <tag k="name" v="Alwoodley Lodge"/>
    <tag k="ref:GB:uprn" v="72569681"/>
    <tag k="roof:shape" v="flat"/>
    <tag k="source" v="survey"/>
    <tag k="source:name" v="NLS-OS-NatGrid-110k-1940-60"/>
  </way>
  <way id="651206294" version="1" timestamp="2018-11-30T19:23:11Z" changeset="65055469" uid="3316592" user="Arthtoach">
    <nd ref="1673598547"/>
    <nd ref="3985390545"/>
    <nd ref="1673598551"/>
    <tag k="highway" v="residential"/>
    <tag k="maxspeed" v="30 mph"/>
    <tag k="name" v="Wigton Green"/>
  </way>
  <way id="651434356" version="4" timestamp="2025-04-20T16:41:05Z" changeset="165201627" uid="2160231" user="rtwbike">
    <nd ref="6108849917"/>
    <nd ref="6108849916"/>
    <nd ref="6108849915"/>
    <nd ref="6108849914"/>
    <nd ref="6108849913"/>
    <nd ref="6108849918"/>
    <nd ref="6108849919"/>
    <nd ref="6108849920"/>
    <nd ref="6108849917"/>
    <tag k="addr:housenumber" v="68"/>
    <tag k="addr:street" v="High Ash Avenue"/>
    <tag k="building" v="house"/>
    <tag k="ref:GB:uprn" v="72332798"/>
  </way>
  <way id="651434358" version="4" timestamp="2025-04-20T16:40:53Z" changeset="165201627" uid="2160231" user="rtwbike">
    <nd ref="6108849924"/>
    <nd ref="6108849921"/>
    <nd ref="6108849922"/>
    <nd ref="6108849923"/>
    <nd ref="6108849924"/>
    <tag k="addr:housenumber" v="66"/>
    <tag k="addr:street" v="High Ash Avenue"/>
    <tag k="building" v="house"/>
    <tag k="ref:GB:uprn" v="72332796"/>
  </way>
  <way id="651471710" version="4" timestamp="2025-04-20T16:38:03Z" changeset="165201627" uid="2160231" user="rtwbike">
    <nd ref="6108887288"/>
    <nd ref="6108887285"/>
    <nd ref="6108887286"/>
    <nd ref="6108887287"/>
    <nd ref="6108887288"/>
    <tag k="addr:housenumber" v="89"/>
    <tag k="addr:street" v="High Ash Drive"/>
    <tag k="building" v="house"/>
    <tag k="ref:GB:uprn" v="72333053"/>
  </way>
  <way id="651471711" version="4" timestamp="2025-04-20T16:38:06Z" changeset="165201627" uid="2160231" user="rtwbike">
    <nd ref="6108887294"/>
    <nd ref="6108887292"/>
    <nd ref="6108887293"/>
    <nd ref="6108887291"/>
    <nd ref="6108887290"/>
    <nd ref="6108887289"/>
    <nd ref="6108887294"/>
    <tag k="addr:housenumber" v="91"/>
    <tag k="addr:street" v="High Ash Drive"/>
    <tag k="building" v="house"/>
    <tag k="ref:GB:uprn" v="72333055"/>
  </way>
  <way id="651472249" version="4" timestamp="2025-04-20T16:41:44Z" changeset="165201627" uid="2160231" user="rtwbike">
    <nd ref="6108890189"/>
    <nd ref="6108890188"/>
    <nd ref="6108890187"/>
    <nd ref="6108890190"/>
    <nd ref="6108890191"/>
    <nd ref="6108890192"/>
    <nd ref="6108890189"/>
    <tag k="addr:housenumber" v="70"/>
    <tag k="addr:street" v="High Ash Avenue"/>
    <tag k="building" v="house"/>
    <tag k="ref:GB:uprn" v="72332800"/>
  </way>
  <way id="651472250" version="4" timestamp="2025-04-20T16:41:55Z" changeset="165201627" uid="2160231" user="rtwbike">
    <nd ref="6108890193"/>
    <nd ref="6108890196"/>
    <nd ref="6108890195"/>
    <nd ref="6108890194"/>
    <nd ref="6108890197"/>
    <nd ref="6108890200"/>
    <nd ref="6108890199"/>
    <nd ref="6108890198"/>
    <nd ref="6108890193"/>
    <tag k="addr:housenumber" v="72"/>
    <tag k="addr:street" v="High Ash Avenue"/>
    <tag k="building" v="house"/>
    <tag k="ref:GB:uprn" v="72332802"/>
  </way>
  <way id="651472251" version="4" timestamp="2025-04-20T16:42:02Z" changeset="165201627" uid="2160231" user="rtwbike">
    <nd ref="6108890201"/>
    <nd ref="6108890202"/>
    <nd ref="6108890203"/>
    <nd ref="6108890205"/>
    <nd ref="6108890204"/>
    <nd ref="6108890206"/>
    <nd ref="6108890201"/>
    <tag k="addr:housenumber" v="74"/>
    <tag k="addr:street" v="High Ash Avenue"/>
    <tag k="building" v="house"/>
    <tag k="ref:GB:uprn" v="72332804"/>
  </way>
  <way id="651472252" version="4" timestamp="2025-04-20T16:42:12Z" changeset="165201627" uid="2160231" user="rtwbike">
    <nd ref="6108890207"/>
    <nd ref="6108890208"/>
    <nd ref="6108890209"/>
    <nd ref="6108890211"/>
    <nd ref="6108890210"/>
    <nd ref="6108890212"/>
    <nd ref="6108890207"/>
    <tag k="addr:housenumber" v="76"/>
    <tag k="addr:street" v="High Ash Avenue"/>
    <tag k="building" v="house"/>
    <tag k="ref:GB:uprn" v="72332806"/>
  </way>
  <way id="651472253" version="4" timestamp="2025-04-20T16:42:33Z" changeset="165201627" uid="2160231" user="rtwbike">
    <nd ref="6108890220"/>
    <nd ref="6108890219"/>
    <nd ref="6108890215"/>
    <nd ref="6108890214"/>
    <nd ref="6108890213"/>
    <nd ref="6108890216"/>
    <nd ref="6108890217"/>
    <nd ref="6108890218"/>
    <nd ref="6108890220"/>
    <tag k="addr:housenumber" v="78"/>
    <tag k="addr:street" v="High Ash Avenue"/>
    <tag k="building" v="house"/>
    <tag k="ref:GB:uprn" v="72332808"/>
  </way>
  <way id="651472254" version="4" timestamp="2025-04-20T16:42:48Z" changeset="165201627" uid="2160231" user="rtwbike">
    <nd ref="6108890226"/>
    <nd ref="6108890224"/>
    <nd ref="6108890225"/>
    <nd ref="6108890221"/>
    <nd ref="6108890222"/>
    <nd ref="6108890223"/>
    <nd ref="6108890226"/>
    <tag k="addr:housenumber" v="80"/>
    <tag k="addr:street" v="High Ash Avenue"/>
    <tag k="building" v="house"/>
    <tag k="ref:GB:uprn" v="72332810"/>
  </way>
  <way id="651472255" version="3" timestamp="2025-04-20T16:43:02Z" changeset="165201627" uid="2160231" user="rtwbike">
    <nd ref="6108890227"/>
    <nd ref="6108890232"/>
    <nd ref="6108890233"/>
    <nd ref="6108890234"/>
    <nd ref="6108890228"/>
    <nd ref="6108890231"/>
    <nd ref="6108890230"/>
    <nd ref="6108890229"/>
    <nd ref="6108890227"/>
    <tag k="addr:housenumber" v="82"/>
    <tag k="addr:street" v="High Ash Avenue"/>
    <tag k="building" v="house"/>
  </way>
  <way id="651472712" version="4" timestamp="2025-04-20T16:32:56Z" changeset="165201627" uid="2160231" user="rtwbike">
    <nd ref="6108895905"/>
    <nd ref="6108895902"/>
    <nd ref="6108895901"/>
    <nd ref="6108895900"/>
    <nd ref="6108895903"/>
    <nd ref="6108895904"/>
    <nd ref="6108895905"/>
    <tag k="addr:housenumber" v="84"/>
    <tag k="addr:street" v="High Ash Drive"/>
    <tag k="building" v="house"/>
    <tag k="ref:GB:uprn" v="72333028"/>
  </way>
  <way id="651472715" version="4" timestamp="2025-04-20T16:32:36Z" changeset="165201627" uid="2160231" user="rtwbike">
    <nd ref="6108895921"/>
    <nd ref="6108895917"/>
    <nd ref="6108895918"/>
    <nd ref="6108895919"/>
    <nd ref="6108895923"/>
    <nd ref="6108895920"/>
    <nd ref="6108895921"/>
    <tag k="addr:housenumber" v="80"/>
    <tag k="addr:street" v="High Ash Drive"/>
    <tag k="building" v="house"/>
    <tag k="ref:GB:uprn" v="72333024"/>
  </way>
  <way id="651472716" version="4" timestamp="2025-04-20T16:32:47Z" changeset="165201627" uid="2160231" user="rtwbike">
    <nd ref="6108895916"/>
    <nd ref="6108895915"/>
    <nd ref="6108895914"/>
    <nd ref="6108895921"/>
    <nd ref="6108895920"/>
    <nd ref="6108895922"/>
    <nd ref="6108895916"/>
    <tag k="addr:housenumber" v="82"/>
    <tag k="addr:street" v="High Ash Drive"/>
    <tag k="building" v="house"/>
    <tag k="ref:GB:uprn" v="72333026"/>
  </way>
  <way id="651472727" version="4" timestamp="2025-04-20T16:40:16Z" changeset="165201627" uid="2160231" user="rtwbike">
    <nd ref="6108895959"/>
    <nd ref="6108896404"/>
    <nd ref="6108896403"/>
    <nd ref="6108895958"/>
    <nd ref="6108895959"/>
    <tag k="addr:housenumber" v="138"/>
    <tag k="addr:street" v="High Ash Drive"/>
    <tag k="building" v="residential"/>
    <tag k="ref:GB:uprn" v="72333118;72333120"/>
  </way>
  <way id="651472728" version="4" timestamp="2025-04-20T16:38:31Z" changeset="165201627" uid="2160231" user="rtwbike">
    <nd ref="6108895961"/>
    <nd ref="6108895967"/>
    <nd ref="6108895966"/>
    <nd ref="6108895960"/>
    <nd ref="6108895961"/>
    <tag k="addr:housenumber" v="106"/>
    <tag k="addr:street" v="High Ash Drive"/>
    <tag k="building" v="residential"/>
    <tag k="ref:GB:uprn" v="72333077;72333079"/>
  </way>
  <way id="651472729" version="4" timestamp="2025-04-20T16:38:16Z" changeset="165201627" uid="2160231" user="rtwbike">
    <nd ref="6108895969"/>
    <nd ref="6108895968"/>
    <nd ref="6108895961"/>
    <nd ref="6108895960"/>
    <nd ref="6108895965"/>
    <nd ref="6108895964"/>
    <nd ref="6108895963"/>
    <nd ref="6108895962"/>
    <nd ref="6108895969"/>
    <tag k="addr:housenumber" v="104"/>
    <tag k="addr:street" v="High Ash Drive"/>
    <tag k="building" v="residential"/>
    <tag k="ref:GB:uprn" v="72333070;72333072"/>
  </way>
  <way id="651472730" version="4" timestamp="2025-04-20T16:38:57Z" changeset="165201627" uid="2160231" user="rtwbike">
    <nd ref="6108895971"/>
    <nd ref="6108895977"/>
    <nd ref="6108895976"/>
    <nd ref="6108895970"/>
    <nd ref="6108895971"/>
    <tag k="addr:housenumber" v="114"/>
    <tag k="addr:street" v="High Ash Drive"/>
    <tag k="building" v="residential"/>
    <tag k="ref:GB:uprn" v="72333090;72333088"/>
  </way>
  <way id="651472731" version="4" timestamp="2025-04-20T16:38:46Z" changeset="165201627" uid="2160231" user="rtwbike">
    <nd ref="6108895979"/>
    <nd ref="6108895978"/>
    <nd ref="6108895971"/>
    <nd ref="6108895970"/>
    <nd ref="6108895975"/>
    <nd ref="6108895974"/>
    <nd ref="6108895973"/>
    <nd ref="6108895972"/>
    <nd ref="6108895979"/>
    <tag k="addr:housenumber" v="112"/>
    <tag k="addr:street" v="High Ash Drive"/>
    <tag k="building" v="residential"/>
    <tag k="ref:GB:uprn" v="72333085;72333083"/>
  </way>
  <way id="651472732" version="4" timestamp="2025-04-20T16:39:20Z" changeset="165201627" uid="2160231" user="rtwbike">
    <nd ref="6108895981"/>
    <nd ref="6108896387"/>
    <nd ref="6108896386"/>
    <nd ref="6108895980"/>
    <nd ref="6108895981"/>
    <tag k="addr:housenumber" v="122"/>
    <tag k="addr:street" v="High Ash Drive"/>
    <tag k="building" v="residential"/>
    <tag k="ref:GB:uprn" v="72333098;72333100"/>
  </way>
  <way id="651472733" version="4" timestamp="2025-04-20T16:39:09Z" changeset="165201627" uid="2160231" user="rtwbike">
    <nd ref="6108896389"/>
    <nd ref="6108896388"/>
    <nd ref="6108895981"/>
    <nd ref="6108895980"/>
    <nd ref="6108896385"/>
    <nd ref="6108895984"/>
    <nd ref="6108895983"/>
    <nd ref="6108895982"/>
    <nd ref="6108896389"/>
    <tag k="addr:housenumber" v="120"/>
    <tag k="addr:street" v="High Ash Drive"/>
    <tag k="building" v="residential"/>
    <tag k="ref:GB:uprn" v="72333095;72333093"/>
  </way>
  <way id="651472735" version="4" timestamp="2025-04-20T16:40:13Z" changeset="165201627" uid="2160231" user="rtwbike">
    <nd ref="6108896399"/>
    <nd ref="6108896405"/>
    <nd ref="6108895959"/>
    <nd ref="6108895958"/>
    <nd ref="6108896402"/>
    <nd ref="6108896398"/>
    <nd ref="6108896401"/>
    <nd ref="6108896400"/>
    <nd ref="6108896399"/>
    <tag k="addr:housenumber" v="136"/>
    <tag k="addr:street" v="High Ash Drive"/>
    <tag k="building" v="residential"/>
    <tag k="ref:GB:uprn" v="72333115;72333113"/>
  </way>
  <way id="651492546" version="4" timestamp="2025-04-20T16:31:28Z" changeset="165201627" uid="2160231" user="rtwbike">
    <nd ref="6109069866"/>
    <nd ref="6109069867"/>
    <nd ref="6109069868"/>
    <nd ref="6109069869"/>
    <nd ref="6109069862"/>
    <nd ref="6109069863"/>
    <nd ref="6109069864"/>
    <nd ref="6109069865"/>
    <nd ref="6109069871"/>
    <nd ref="6109069870"/>
    <nd ref="6109069866"/>
    <tag k="addr:housenumber" v="74"/>
    <tag k="addr:street" v="High Ash Drive"/>
    <tag k="building" v="house"/>
    <tag k="ref:GB:uprn" v="72333018"/>
  </way>
  <way id="651492547" version="4" timestamp="2025-04-20T16:31:13Z" changeset="165201627" uid="2160231" user="rtwbike">
    <nd ref="6109069876"/>
    <nd ref="6109069874"/>
    <nd ref="6109069880"/>
    <nd ref="6109069881"/>
    <nd ref="6109069879"/>
    <nd ref="6109069873"/>
    <nd ref="6109069877"/>
    <nd ref="6109069878"/>
    <nd ref="6109069872"/>
    <nd ref="6109069875"/>
    <nd ref="6109069876"/>
    <tag k="addr:housenumber" v="72"/>
    <tag k="addr:street" v="High Ash Drive"/>
    <tag k="building" v="house"/>
    <tag k="ref:GB:uprn" v="72333016"/>
  </way>
  <way id="651492548" version="4" timestamp="2025-04-20T16:31:02Z" changeset="165201627" uid="2160231" user="rtwbike">
    <nd ref="6109069883"/>
    <nd ref="6109069882"/>
    <nd ref="6109069987"/>
    <nd ref="6109069986"/>
    <nd ref="6109069985"/>
    <nd ref="6109069884"/>
    <nd ref="6109069883"/>
    <tag k="addr:housenumber" v="70"/>
    <tag k="addr:street" v="High Ash Drive"/>
    <tag k="building" v="house"/>
    <tag k="ref:GB:uprn" v="72333014"/>
  </way>
  <way id="651492549" version="4" timestamp="2025-04-20T16:30:52Z" changeset="165201627" uid="2160231" user="rtwbike">
    <nd ref="6109069997"/>
    <nd ref="6109069991"/>
    <nd ref="6109069988"/>
    <nd ref="6109069989"/>
    <nd ref="6109069990"/>
    <nd ref="6109069996"/>
    <nd ref="6109069995"/>
    <nd ref="6109069994"/>
    <nd ref="6109069993"/>
    <nd ref="6109069992"/>
    <nd ref="6109069997"/>
    <tag k="addr:housenumber" v="68"/>
    <tag k="addr:street" v="High Ash Drive"/>
    <tag k="building" v="house"/>
    <tag k="ref:GB:uprn" v="72333012"/>
  </way>
  <way id="651492550" version="4" timestamp="2025-04-20T16:30:39Z" changeset="165201627" uid="2160231" user="rtwbike">
    <nd ref="6109070003"/>
    <nd ref="6109069998"/>
    <nd ref="6109069999"/>
    <nd ref="6109070000"/>
    <nd ref="6109070001"/>
    <nd ref="6109070002"/>
    <nd ref="6109070003"/>
    <tag k="addr:housenumber" v="66"/>
    <tag k="addr:street" v="High Ash Drive"/>
    <tag k="building" v="house"/>
    <tag k="ref:GB:uprn" v="72333010"/>
  </way>
  <way id="651492551" version="4" timestamp="2025-04-20T16:30:33Z" changeset="165201627" uid="2160231" user="rtwbike">
    <nd ref="6109070008"/>
    <nd ref="6109070009"/>
    <nd ref="6109070007"/>
    <nd ref="6109070004"/>
    <nd ref="6109070006"/>
    <nd ref="6109070005"/>
    <nd ref="6109070008"/>
    <tag k="addr:housenumber" v="64"/>
    <tag k="addr:street" v="High Ash Drive"/>
    <tag k="building" v="house"/>
    <tag k="ref:GB:uprn" v="72333008"/>
  </way>
  <way id="662669248" version="2" timestamp="2021-07-14T16:21:01Z" changeset="107991459" uid="4543415" user="The_JF">
    <nd ref="21436397"/>
    <nd ref="8920017557"/>
    <nd ref="8920017554"/>
    <nd ref="27456692"/>
    <nd ref="1985025786"/>
    <nd ref="4141801325"/>
    <nd ref="3978125442"/>
    <tag k="bicycle" v="yes"/>
    <tag k="foot" v="yes"/>
    <tag k="highway" v="trunk"/>
    <tag k="lanes:backward" v="2"/>
    <tag k="lanes:forward" v="1"/>
    <tag k="maxspeed" v="30 mph"/>
    <tag k="name" v="Harrogate Road"/>
    <tag k="oneway" v="no"/>
    <tag k="ref" v="A61"/>
    <tag k="sidewalk" v="both"/>
    <tag k="surface" v="asphalt"/>
    <tag k="turn:lanes:backward" v="left|through;right"/>
  </way>
  <way id="662669648" version="2" timestamp="2021-07-14T16:21:01Z" changeset="107991459" uid="4543415" user="The_JF">
    <nd ref="21436397"/>
    <nd ref="8920017556"/>
    <nd ref="8920017558"/>
    <nd ref="3978125432"/>
    <nd ref="3978126715"/>
    <tag k="alt_name" v="The Avenue"/>
    <tag k="bicycle" v="yes"/>
    <tag k="cycleway" v="no"/>
    <tag k="foot" v="yes"/>
    <tag k="highway" v="primary"/>
    <tag k="lanes:backward" v="2"/>
    <tag k="lanes:forward" v="1"/>
    <tag k="maxspeed" v="30 mph"/>
    <tag k="name" v="Harewood Avenue"/>
    <tag k="oneway" v="no"/>
    <tag k="ref" v="A659"/>
    <tag k="sidewalk" v="both"/>
    <tag k="source" v="survey"/>
    <tag k="surface" v="asphalt"/>
    <tag k="turn:lanes:backward" v="left|through;right"/>
  </way>
  <way id="662696325" version="3" timestamp="2021-07-14T16:21:01Z" changeset="107991459" uid="4543415" user="The_JF">
    <nd ref="6203885272"/>
    <nd ref="6203885267"/>
    <nd ref="6203885266"/>
    <nd ref="6203885264"/>
    <nd ref="6203885263"/>
    <nd ref="6203885262"/>
    <nd ref="6203885261"/>
    <nd ref="6203885265"/>
    <nd ref="6203885268"/>
    <nd ref="6203885269"/>
    <nd ref="6203885270"/>
    <nd ref="6203885271"/>
    <nd ref="6203885272"/>
    <tag k="amenity" v="dentist"/>
    <tag k="building" v="yes"/>
    <tag k="healthcare" v="dentist"/>
    <tag k="name" v="Dental"/>
  </way>
  <way id="662697145" version="2" timestamp="2021-07-14T16:21:01Z" changeset="107991459" uid="4543415" user="The_JF">
    <nd ref="21436397"/>
    <nd ref="8920017555"/>
    <nd ref="8920017559"/>
    <nd ref="1050180535"/>
    <nd ref="6203898058"/>
    <tag k="bicycle" v="yes"/>
    <tag k="foot" v="yes"/>
    <tag k="highway" v="trunk"/>
    <tag k="lanes:backward" v="2"/>
    <tag k="lanes:forward" v="1"/>
    <tag k="maxspeed" v="30 mph"/>
    <tag k="name" v="Harrogate Road"/>
    <tag k="oneway" v="no"/>
    <tag k="ref" v="A61"/>
    <tag k="source" v="OS_OpenData_StreetView;Bing;local_knowledge;npe"/>
    <tag k="surface" v="asphalt"/>
    <tag k="turn:lanes:backward" v="left;through|right"/>
  </way>
  <way id="664482604" version="2" timestamp="2022-02-08T20:57:28Z" changeset="117176984" uid="4543415" user="The_JF">
    <nd ref="6219294579"/>
    <nd ref="6219294584"/>
    <tag k="highway" v="residential"/>
    <tag k="maxspeed" v="20 mph"/>
    <tag k="name" v="Wike Ridge Mews"/>
  </way>
  <way id="673933236" version="3" timestamp="2025-03-13T22:31:17Z" changeset="163591014" uid="11606276" user="matty817">
    <nd ref="1643381961"/>
    <nd ref="6311318771"/>
    <nd ref="6311318770"/>
    <nd ref="6311318769"/>
    <nd ref="6311318768"/>
    <nd ref="6311318767"/>
    <nd ref="6311318766"/>
    <nd ref="6311318765"/>
    <nd ref="6311318764"/>
    <nd ref="6311318763"/>
    <nd ref="6311318762"/>
    <nd ref="6311318761"/>
    <nd ref="6311318760"/>
    <nd ref="6311318759"/>
    <nd ref="6311318758"/>
    <nd ref="6311318757"/>
    <nd ref="6311318756"/>
    <nd ref="6311318755"/>
    <nd ref="6311318754"/>
    <nd ref="6311318753"/>
    <nd ref="6311318752"/>
    <nd ref="6311318751"/>
    <nd ref="1643381961"/>
    <tag k="addr:city" v="Leeds"/>
    <tag k="addr:postcode" v="LS17 8RZ"/>
    <tag k="addr:street" v="Wigton Lane"/>
    <tag k="amenity" v="pub"/>
    <tag k="brand" v="Ember Inns"/>
    <tag k="brand:wikidata" v="Q116272278"/>
    <tag k="building" v="retail"/>
    <tag k="contact:website" v="https://www.emberinns.co.uk/nationalsearch/yorkshireandthehumber/the-dexter-leeds"/>
    <tag k="fhrs:id" v="321506"/>
    <tag k="name" v="The Dexter"/>
    <tag k="operator" v="Mitchells &amp; Butlers"/>
    <tag k="wikidata" v="Q61890529"/>
  </way>
  <way id="682080135" version="2" timestamp="2020-01-27T23:45:06Z" changeset="80164993" uid="4543415" user="The_JF">
    <nd ref="6387459201"/>
    <nd ref="6387459200"/>
    <nd ref="6387459199"/>
    <nd ref="6387459203"/>
    <nd ref="6387459204"/>
    <nd ref="6387459202"/>
    <nd ref="6387459201"/>
    <tag k="building" v="house"/>
    <tag k="name" v="Mills Croft Stables"/>
  </way>
  <way id="682080136" version="2" timestamp="2020-01-27T23:45:06Z" changeset="80164993" uid="4543415" user="The_JF">
    <nd ref="6387459209"/>
    <nd ref="6387459210"/>
    <nd ref="6387459211"/>
    <nd ref="6387459208"/>
    <nd ref="6387459205"/>
    <nd ref="6387459206"/>
    <nd ref="6387459207"/>
    <nd ref="6387459212"/>
    <nd ref="6387459213"/>
    <nd ref="6387459214"/>
    <nd ref="6387459209"/>
    <tag k="building" v="house"/>
    <tag k="name" v="Mills Croft Stables"/>
  </way>
  <way id="682080137" version="2" timestamp="2020-01-27T23:45:06Z" changeset="80164993" uid="4543415" user="The_JF">
    <nd ref="6387459215"/>
    <nd ref="6387459216"/>
    <nd ref="6387459222"/>
    <nd ref="6387459221"/>
    <nd ref="6387459218"/>
    <nd ref="6387459217"/>
    <nd ref="6387459219"/>
    <nd ref="6387459220"/>
    <nd ref="6387459215"/>
    <tag k="building" v="farm_auxiliary"/>
    <tag k="name" v="Sandalwood Stables"/>
  </way>
  <way id="685378255" version="2" timestamp="2019-05-12T15:03:45Z" changeset="70162853" uid="3316592" user="Arthtoach">
    <nd ref="6422728288"/>
    <nd ref="6468190445"/>
    <nd ref="935672075"/>
    <nd ref="6468190447"/>
    <nd ref="3182311044"/>
    <nd ref="935672021"/>
    <tag k="highway" v="unclassified"/>
    <tag k="name" v="Brandon Crescent"/>
    <tag k="source" v="OS OpenData StreetView"/>
  </way>
  <way id="685378257" version="1" timestamp="2019-04-23T08:53:11Z" changeset="69479443" uid="231082" user="WalkingMAN">
    <nd ref="6422728288"/>
    <nd ref="6422728289"/>
    <nd ref="6422728291"/>
    <nd ref="6422728290"/>
    <nd ref="6422728292"/>
    <nd ref="6422728294"/>
    <tag k="highway" v="unclassified"/>
    <tag k="name" v="Brandon Crescent"/>
    <tag k="source" v="OS OpenData StreetView"/>
  </way>
  <way id="697608919" version="3" timestamp="2025-05-08T23:11:03Z" changeset="166005795" uid="3199858" user="Mateusz Konieczny - bot account">
    <nd ref="765232205"/>
    <nd ref="248091714"/>
    <nd ref="6551383445"/>
    <nd ref="765231433"/>
    <nd ref="1581090601"/>
    <nd ref="7810591087"/>
    <nd ref="7810591093"/>
    <nd ref="1976374619"/>
    <nd ref="26261617"/>
    <nd ref="1887506346"/>
    <nd ref="1581090418"/>
    <nd ref="1581090804"/>
    <nd ref="26261618"/>
    <nd ref="1887586019"/>
    <nd ref="367293090"/>
    <nd ref="1887586033"/>
    <nd ref="1581057339"/>
    <nd ref="3370797539"/>
    <nd ref="1581058352"/>
    <tag k="alt_name" v="The Avenue"/>
    <tag k="bicycle" v="yes"/>
    <tag k="cycleway" v="no"/>
    <tag k="foot" v="yes"/>
    <tag k="highway" v="primary"/>
    <tag k="lanes" v="2"/>
    <tag k="lit" v="no"/>
    <tag k="maxspeed" v="60 mph"/>
    <tag k="name" v="Harewood Avenue"/>
    <tag k="oneway" v="no"/>
    <tag k="ref" v="A659"/>
    <tag k="sidewalk" v="no"/>
    <tag k="source" v="survey"/>
    <tag k="surface" v="asphalt"/>
    <tag k="verge" v="both"/>
  </way>
  <way id="726126851" version="1" timestamp="2019-09-19T11:54:33Z" changeset="74668838" uid="10310438" user="Beetec">
    <nd ref="6807816069"/>
    <nd ref="6807816070"/>
    <nd ref="6807816071"/>
    <nd ref="6807816072"/>
    <nd ref="6807816069"/>
    <tag k="addr:city" v="Harewood"/>
    <tag k="addr:housenumber" v="Unit 2 - 2b"/>
    <tag k="addr:street" v="Harewood Yard"/>
    <tag k="building" v="commercial"/>
    <tag k="name" v="2-2b"/>
    <tag k="smoking" v="outside"/>
  </way>
  <way id="726126852" version="1" timestamp="2019-09-19T11:54:33Z" changeset="74668838" uid="10310438" user="Beetec">
    <nd ref="2466472329"/>
    <nd ref="6807816073"/>
    <nd ref="2466472676"/>
    <nd ref="2466472414"/>
    <nd ref="2466472329"/>
    <tag k="addr:city" v="Harewood"/>
    <tag k="addr:housenumber" v="Unit 1b"/>
    <tag k="addr:street" v="Harewood Yard"/>
    <tag k="building" v="commercial"/>
    <tag k="name" v="1b"/>
    <tag k="smoking" v="outside"/>
  </way>
  <way id="726126853" version="1" timestamp="2019-09-19T11:54:33Z" changeset="74668838" uid="10310438" user="Beetec">
    <nd ref="6807816069"/>
    <nd ref="2466472426"/>
    <nd ref="6807816074"/>
    <nd ref="6807816075"/>
    <nd ref="2466472659"/>
    <nd ref="6807816070"/>
    <nd ref="6807816069"/>
    <tag k="addr:city" v="Harewood"/>
    <tag k="addr:housenumber" v="Unit 3"/>
    <tag k="addr:street" v="Harewood Yard"/>
    <tag k="building" v="commercial"/>
    <tag k="name" v="3"/>
    <tag k="smoking" v="outside"/>
  </way>
  <way id="726126854" version="1" timestamp="2019-09-19T11:54:33Z" changeset="74668838" uid="10310438" user="Beetec">
    <nd ref="6807816074"/>
    <nd ref="6807816075"/>
    <nd ref="2466472434"/>
    <nd ref="6807816076"/>
    <nd ref="6807816077"/>
    <nd ref="2466472278"/>
    <nd ref="6807816074"/>
    <tag k="addr:city" v="Harewood"/>
    <tag k="addr:housenumber" v="Unit 4"/>
    <tag k="addr:street" v="Harewood Yard"/>
    <tag k="building" v="commercial"/>
    <tag k="name" v="4"/>
    <tag k="smoking" v="outside"/>
  </way>
  <way id="726126855" version="1" timestamp="2019-09-19T11:54:33Z" changeset="74668838" uid="10310438" user="Beetec">
    <nd ref="6807816076"/>
    <nd ref="6807816078"/>
    <nd ref="6807816079"/>
    <nd ref="6807816077"/>
    <nd ref="6807816076"/>
    <tag k="addr:city" v="Harewood"/>
    <tag k="addr:housenumber" v="Unit 5"/>
    <tag k="addr:street" v="Harewood Yard"/>
    <tag k="building" v="commercial"/>
    <tag k="name" v="5"/>
    <tag k="smoking" v="outside"/>
  </way>
  <way id="726126856" version="1" timestamp="2019-09-19T11:54:33Z" changeset="74668838" uid="10310438" user="Beetec">
    <nd ref="6807816078"/>
    <nd ref="6807816079"/>
    <nd ref="2466472263"/>
    <nd ref="6807816080"/>
    <nd ref="6807816078"/>
    <tag k="addr:city" v="Harewood"/>
    <tag k="addr:housenumber" v="Unit 6a"/>
    <tag k="addr:street" v="Harewood Yard"/>
    <tag k="building" v="commercial"/>
    <tag k="name" v="6a"/>
    <tag k="smoking" v="outside"/>
  </way>
  <way id="726154275" version="5" timestamp="2022-10-08T06:58:59Z" changeset="127184713" uid="10852848" user="Land-o Calrissian">
    <nd ref="8920017526"/>
    <nd ref="495969137"/>
    <nd ref="2885485613"/>
    <nd ref="1088410335"/>
    <nd ref="21436378"/>
    <nd ref="2885485615"/>
    <nd ref="1088410341"/>
    <nd ref="1088410344"/>
    <nd ref="21436379"/>
    <nd ref="1088410347"/>
    <nd ref="1581075584"/>
    <tag k="highway" v="primary"/>
    <tag k="lanes" v="2"/>
    <tag k="lit" v="no"/>
    <tag k="maxspeed" v="60 mph"/>
    <tag k="name" v="Otley Road"/>
    <tag k="ref" v="A659"/>
    <tag k="source" v="survey"/>
  </way>
  <way id="726154277" version="4" timestamp="2020-05-21T03:06:39Z" changeset="85524865" uid="9196099" user="nmotupal">
    <nd ref="21436376"/>
    <nd ref="6808066377"/>
    <tag k="access" v="no"/>
    <tag k="bicycle" v="no"/>
    <tag k="foot" v="no"/>
    <tag k="highway" v="unclassified"/>
    <tag k="horse" v="no"/>
    <tag k="lanes" v="1"/>
    <tag k="motor_vehicle" v="no"/>
  </way>
  <way id="726574714" version="1" timestamp="2019-09-19T23:09:25Z" changeset="74698113" uid="10310438" user="Beetec">
    <nd ref="2466472449"/>
    <nd ref="6810305481"/>
    <nd ref="6810305482"/>
    <nd ref="6810305483"/>
    <nd ref="2466472449"/>
    <tag k="addr:city" v="Harewood"/>
    <tag k="addr:housename" v="Arch Barn"/>
    <tag k="addr:housenumber" v="Unit 7-7a"/>
    <tag k="addr:street" v="Harewood Yard"/>
    <tag k="building" v="commercial"/>
    <tag k="name" v="7-7a"/>
  </way>
  <way id="726574715" version="1" timestamp="2019-09-19T23:09:25Z" changeset="74698113" uid="10310438" user="Beetec">
    <nd ref="2466472286"/>
    <nd ref="6810323185"/>
    <nd ref="6810305484"/>
    <nd ref="2466472567"/>
    <nd ref="2466472673"/>
    <nd ref="6810323186"/>
    <nd ref="2466472556"/>
    <nd ref="2466472452"/>
    <nd ref="2466472286"/>
    <tag k="addr:housenumber" v="Unit 11a-11b"/>
    <tag k="building" v="yes"/>
    <tag k="layer" v="-1"/>
    <tag k="name" v="11a-11b"/>
  </way>
  <way id="741975788" version="1" timestamp="2019-11-04T17:50:58Z" changeset="76606850" uid="3197563" user="i_hsien">
    <nd ref="6945883882"/>
    <nd ref="6945883883"/>
    <nd ref="6945883884"/>
    <nd ref="6945902285"/>
    <nd ref="6945902286"/>
    <nd ref="6945902287"/>
    <nd ref="6945883882"/>
    <tag k="building" v="yes"/>
    <tag k="name" v="The Bothy"/>
  </way>
  <way id="810221761" version="2" timestamp="2024-10-01T16:47:44Z" changeset="157348484" uid="111135" user="Pete Owens">
    <nd ref="5845582466"/>
    <nd ref="7575101686"/>
    <tag k="bicycle" v="yes"/>
    <tag k="highway" v="trunk_link"/>
  </way>
  <way id="964346570" version="2" timestamp="2023-12-18T18:49:27Z" changeset="145262625" uid="16898063" user="benjo384">
    <nd ref="8920017497"/>
    <nd ref="8920017498"/>
    <nd ref="8920017499"/>
    <nd ref="8920017500"/>
    <nd ref="8920017501"/>
    <nd ref="8920017502"/>
    <nd ref="8920017503"/>
    <nd ref="8920017504"/>
    <nd ref="8920017505"/>
    <nd ref="8920017506"/>
    <nd ref="8920017507"/>
    <nd ref="8920017508"/>
    <nd ref="8920017509"/>
    <nd ref="8920017510"/>
    <nd ref="8920017497"/>
    <tag k="building" v="ruins"/>
    <tag k="name" v="Gawthorpe Manor (Sun Sides)"/>
  </way>
  <way id="964346574" version="1" timestamp="2021-07-14T16:21:01Z" changeset="107991459" uid="4543415" user="The_JF">
    <nd ref="21436376"/>
    <nd ref="21436377"/>
    <nd ref="2885485608"/>
    <nd ref="8920017527"/>
    <tag k="highway" v="primary"/>
    <tag k="lanes" v="2"/>
    <tag k="lit" v="no"/>
    <tag k="maxspeed" v="60 mph"/>
    <tag k="name" v="Otley Road"/>
    <tag k="ref" v="A659"/>
    <tag k="source" v="survey"/>
  </way>
  <way id="964346575" version="1" timestamp="2021-07-14T16:21:01Z" changeset="107991459" uid="4543415" user="The_JF">
    <nd ref="8920017527"/>
    <nd ref="8920017526"/>
    <tag k="bridge" v="yes"/>
    <tag k="highway" v="primary"/>
    <tag k="lanes" v="2"/>
    <tag k="layer" v="1"/>
    <tag k="lit" v="no"/>
    <tag k="maxspeed" v="60 mph"/>
    <tag k="name" v="Otley Road"/>
    <tag k="ref" v="A659"/>
    <tag k="source" v="survey"/>
  </way>
  <way id="964346586" version="3" timestamp="2024-10-01T16:47:44Z" changeset="157348484" uid="111135" user="Pete Owens">
    <nd ref="8920017591"/>
    <nd ref="3165111055"/>
    <nd ref="21436384"/>
    <nd ref="21436383"/>
    <tag k="bicycle" v="yes"/>
    <tag k="highway" v="trunk"/>
    <tag k="lanes" v="2"/>
    <tag k="lit" v="no"/>
    <tag k="maxspeed" v="60 mph"/>
    <tag k="name" v="Harrogate Road"/>
    <tag k="ref" v="A61"/>
    <tag k="source" v="survey"/>
    <tag k="surface" v="asphalt"/>
  </way>
  <way id="964346587" version="2" timestamp="2024-10-01T16:47:44Z" changeset="157348484" uid="111135" user="Pete Owens">
    <nd ref="8920017592"/>
    <nd ref="8920017591"/>
    <tag k="bicycle" v="yes"/>
    <tag k="bridge" v="yes"/>
    <tag k="highway" v="trunk"/>
    <tag k="lanes" v="2"/>
    <tag k="layer" v="1"/>
    <tag k="lit" v="no"/>
    <tag k="maxspeed" v="60 mph"/>
    <tag k="name" v="Harrogate Road"/>
    <tag k="ref" v="A61"/>
    <tag k="source" v="survey"/>
    <tag k="surface" v="asphalt"/>
  </way>
  <way id="1029419151" version="1" timestamp="2022-02-08T20:57:28Z" changeset="117176984" uid="4543415" user="The_JF">
    <nd ref="248018315"/>
    <nd ref="6312647133"/>
    <nd ref="9490734113"/>
    <nd ref="6312647138"/>
    <nd ref="6312647137"/>
    <tag k="highway" v="tertiary"/>
    <tag k="lanes" v="3"/>
    <tag k="lanes:backward" v="2"/>
    <tag k="lanes:forward" v="1"/>
    <tag k="name" v="Shadwell Lane"/>
    <tag k="postal_code" v="LS17"/>
    <tag k="source" v="local_knowledge"/>
    <tag k="source_ref" v="npe"/>
    <tag k="surface" v="asphalt"/>
    <tag k="turn:lanes:backward" v="left;through|right"/>
  </way>
  <way id="1029419166" version="1" timestamp="2022-02-08T20:57:28Z" changeset="117176984" uid="4543415" user="The_JF">
    <nd ref="9490847384"/>
    <nd ref="6311318723"/>
    <nd ref="9490734112"/>
    <nd ref="6312647132"/>
    <nd ref="248018315"/>
    <tag k="cycleway:both" v="no"/>
    <tag k="highway" v="tertiary"/>
    <tag k="lanes" v="2"/>
    <tag k="maxspeed" v="40 mph"/>
    <tag k="name" v="Wike Ridge Lane"/>
    <tag k="source" v="survey and npe"/>
    <tag k="surface" v="asphalt"/>
  </way>
  <way id="1029419168" version="1" timestamp="2022-02-08T20:57:28Z" changeset="117176984" uid="4543415" user="The_JF">
    <nd ref="1673598578"/>
    <nd ref="9490847391"/>
    <nd ref="9490847392"/>
    <nd ref="9490847393"/>
    <tag k="highway" v="residential"/>
    <tag k="maxspeed" v="20 mph"/>
  </way>
  <way id="1101875851" version="1" timestamp="2022-10-08T06:58:59Z" changeset="127184713" uid="10852848" user="Land-o Calrissian">
    <nd ref="1581075584"/>
    <nd ref="495969138"/>
    <nd ref="8870289015"/>
    <nd ref="21436380"/>
    <nd ref="1088408697"/>
    <nd ref="495969140"/>
    <tag k="highway" v="primary"/>
    <tag k="lanes" v="2"/>
    <tag k="lit" v="no"/>
    <tag k="maxspeed" v="60 mph"/>
    <tag k="name" v="Otley Road"/>
    <tag k="ref" v="A659"/>
    <tag k="source" v="survey"/>
  </way>
  <way id="1101875852" version="2" timestamp="2024-10-01T16:47:44Z" changeset="157348484" uid="111135" user="Pete Owens">
    <nd ref="21436383"/>
    <nd ref="2723201893"/>
    <nd ref="21436382"/>
    <nd ref="21436381"/>
    <tag k="bicycle" v="yes"/>
    <tag k="highway" v="trunk"/>
    <tag k="lanes" v="2"/>
    <tag k="lit" v="no"/>
    <tag k="maxspeed" v="60 mph"/>
    <tag k="name" v="Harrogate Road"/>
    <tag k="ref" v="A61"/>
    <tag k="source" v="survey"/>
    <tag k="surface" v="asphalt"/>
  </way>

</osm>
