<?xml version="1.0" encoding="UTF-8"?>
<osm version="0.6" generator="Overpass API 0.7.62.5 1bd436f1">
<note>The data included in this document is from www.openstreetmap.org. The data is made available under ODbL.</note>
<meta osm_base="2025-05-18T02:47:12Z" areas="2024-12-31T00:49:33Z"/>

  <node id="8811548" lat="50.0188567" lon="14.6165069" version="3" timestamp="2018-07-14T13:14:58Z" changeset="60711981" uid="1858155" user="Chenn Zenn"/>
  <node id="34664671" lat="50.0182983" lon="14.6491124" version="6" timestamp="2019-09-24T19:23:00Z" changeset="74874769" uid="1858155" user="Chenn Zenn"/>
  <node id="235536303" lat="50.0103945" lon="14.6138726" version="8" timestamp="2023-03-31T19:09:35Z" changeset="134358643" uid="1189910" user="Milancer"/>
  <node id="235536504" lat="50.0066214" lon="14.6136732" version="2" timestamp="2011-05-02T08:09:27Z" changeset="8028490" uid="126741" user="LStealth"/>
  <node id="244019948" lat="49.9987068" lon="14.6219945" version="2" timestamp="2017-12-08T21:42:14Z" changeset="54470997" uid="1858155" user="Chenn Zenn"/>
  <node id="297040330" lat="50.0271012" lon="14.6171813" version="2" timestamp="2009-03-03T21:09:37Z" changeset="729965" uid="1066" user="pavel"/>
  <node id="297041166" lat="50.0163770" lon="14.6363898" version="5" timestamp="2025-03-15T22:29:55Z" changeset="163669756" uid="4018695" user="游뻟릖 Roman Horn칤k"/>
  <node id="770890749" lat="50.0047736" lon="14.6231918" version="1" timestamp="2010-06-13T01:29:09Z" changeset="4975130" uid="3516" user="BiIbo"/>
  <node id="2604197214" lat="49.9961263" lon="14.6489186" version="1" timestamp="2014-01-01T09:31:16Z" changeset="19741993" uid="665336" user="Minimalis"/>
  <node id="6393782265" lat="49.9961759" lon="14.6282828" version="1" timestamp="2019-04-09T13:06:41Z" changeset="69045068" uid="8971394" user="vojtechzaboril"/>
  <node id="12640975113" lat="50.0297501" lon="14.6302161" version="1" timestamp="2025-03-06T14:49:34Z" changeset="163288634" uid="718054" user="Piskvor"/>
  <way id="5095115" version="16" timestamp="2024-03-30T16:59:51Z" changeset="149360584" uid="18720857" user="Michal_Bukovcan">
    <nd ref="34769560"/>
    <nd ref="610526046"/>
    <nd ref="34769573"/>
    <nd ref="34769578"/>
    <nd ref="4458453425"/>
    <nd ref="34769584"/>
    <nd ref="6823929858"/>
    <nd ref="842487487"/>
    <nd ref="11773874008"/>
    <nd ref="842487382"/>
    <nd ref="849949527"/>
    <nd ref="34769593"/>
    <tag k="highway" v="residential"/>
    <tag k="maxspeed" v="30"/>
    <tag k="name" v="K Po코t캩"/>
    <tag k="surface" v="asphalt"/>
  </way>
  <way id="5095118" version="12" timestamp="2018-09-04T19:00:16Z" changeset="62289110" uid="1858155" user="Chenn Zenn">
    <nd ref="8811551"/>
    <nd ref="5882576443"/>
    <nd ref="3021026275"/>
    <nd ref="3021026279"/>
    <nd ref="3021026281"/>
    <nd ref="8811550"/>
    <nd ref="8811548"/>
    <tag k="highway" v="tertiary"/>
    <tag k="name" v="Za Podjezdem"/>
  </way>
  <way id="5095123" version="4" timestamp="2021-02-22T08:45:20Z" changeset="99728084" uid="6588887" user="Martin2035">
    <nd ref="34769729"/>
    <nd ref="34769788"/>
    <nd ref="610526040"/>
    <nd ref="610526046"/>
    <tag k="highway" v="residential"/>
    <tag k="maxspeed" v="30"/>
    <tag k="name" v="Na Ro캜kov캩"/>
    <tag k="surface" v="asphalt"/>
  </way>
  <way id="5095127" version="10" timestamp="2025-02-28T22:23:03Z" changeset="163071394" uid="8468948" user="Feli Weigi">
    <nd ref="8811724"/>
    <nd ref="12626510264"/>
    <nd ref="34769860"/>
    <nd ref="34769863"/>
    <nd ref="12616230704"/>
    <nd ref="34769869"/>
    <nd ref="12616230705"/>
    <nd ref="34769875"/>
    <nd ref="4458452633"/>
    <nd ref="8807597680"/>
    <nd ref="34769881"/>
    <nd ref="34769887"/>
    <tag k="highway" v="tertiary"/>
    <tag k="name" v="K 콎칤캜an콢m"/>
  </way>
  <way id="5095128" version="5" timestamp="2025-02-24T17:16:00Z" changeset="162901822" uid="2061236" user="Thartek">
    <nd ref="34769887"/>
    <nd ref="12616230767"/>
    <nd ref="282780899"/>
    <tag k="highway" v="tertiary"/>
    <tag k="name" v="K 콎칤캜an콢m"/>
  </way>
  <way id="5095131" version="5" timestamp="2025-02-28T22:23:03Z" changeset="163071394" uid="8468948" user="Feli Weigi">
    <nd ref="34769932"/>
    <nd ref="4913602198"/>
    <nd ref="12626510280"/>
    <nd ref="4913602200"/>
    <nd ref="34769593"/>
    <tag k="highway" v="residential"/>
    <tag k="maxspeed" v="30"/>
    <tag k="name" v="Na Park치n캩"/>
    <tag k="surface" v="asphalt"/>
  </way>
  <way id="8159885" version="11" timestamp="2021-02-22T08:45:20Z" changeset="99728084" uid="6588887" user="Martin2035">
    <nd ref="610526073"/>
    <nd ref="610525878"/>
    <nd ref="5882576397"/>
    <nd ref="34769695"/>
    <nd ref="5882576058"/>
    <nd ref="34769700"/>
    <nd ref="34769706"/>
    <nd ref="34769712"/>
    <nd ref="1281855574"/>
    <nd ref="4458453459"/>
    <tag k="highway" v="residential"/>
    <tag k="lanes" v="2"/>
    <tag k="maxspeed" v="30"/>
    <tag k="name" v="Alb칤ny Hochov칠"/>
  </way>
  <way id="25923790" version="8" timestamp="2025-05-16T11:32:31Z" changeset="166345737" uid="22773464" user="radim91">
    <nd ref="8811554"/>
    <nd ref="282780804"/>
    <tag k="highway" v="residential"/>
    <tag k="lane_markings" v="no"/>
    <tag k="name" v="U Vodice"/>
    <tag k="surface" v="asphalt"/>
  </way>
  <way id="25923799" version="2" timestamp="2024-02-06T19:02:22Z" changeset="147147534" uid="4997045" user="Tomas_J">
    <nd ref="282780804"/>
    <nd ref="282780835"/>
    <nd ref="282780836"/>
    <nd ref="34769682"/>
    <tag k="highway" v="residential"/>
    <tag k="surface" v="asphalt"/>
  </way>
  <way id="25923811" version="9" timestamp="2021-02-22T08:47:22Z" changeset="99728271" uid="6588887" user="Martin2035">
    <nd ref="8811717"/>
    <nd ref="4458452653"/>
    <nd ref="282780850"/>
    <nd ref="282780851"/>
    <nd ref="282780852"/>
    <tag k="fixme" v="Check name - U zast치vky (cuzk:kn) / pod zast치vkou (aktu치ln칤)"/>
    <tag k="highway" v="residential"/>
    <tag k="lanes" v="1"/>
    <tag k="maxspeed" v="30"/>
    <tag k="name" v="Pod Zast치vkou"/>
    <tag k="oneway" v="yes"/>
    <tag k="surface" v="asphalt"/>
  </way>
  <way id="25923813" version="16" timestamp="2025-03-04T07:24:41Z" changeset="163189004" uid="13982657" user="gullmar">
    <nd ref="3023206039"/>
    <nd ref="6823929862"/>
    <nd ref="530260430"/>
    <nd ref="530260431"/>
    <nd ref="530260432"/>
    <nd ref="530260433"/>
    <nd ref="530260427"/>
    <nd ref="530260428"/>
    <nd ref="530260429"/>
    <nd ref="1297660615"/>
    <nd ref="530260434"/>
    <tag k="highway" v="residential"/>
    <tag k="lane_markings" v="no"/>
    <tag k="name" v="U 콯eleznice"/>
    <tag k="surface" v="asphalt"/>
  </way>
  <way id="25923814" version="4" timestamp="2011-06-06T14:52:39Z" changeset="8359955" uid="3516" user="BiIbo">
    <nd ref="282780855"/>
    <nd ref="282780856"/>
    <nd ref="282780857"/>
    <tag k="highway" v="residential"/>
    <tag k="name" v="Nad Zbrojnic칤"/>
  </way>
  <way id="25923815" version="8" timestamp="2025-04-20T15:43:07Z" changeset="165200202" uid="22773464" user="radim91">
    <nd ref="282780860"/>
    <nd ref="3034495915"/>
    <nd ref="4870477892"/>
    <tag k="highway" v="residential"/>
    <tag k="lane_markings" v="no"/>
    <tag k="name" v="Do Hlinek"/>
    <tag k="surface" v="asphalt"/>
  </way>
  <way id="25923817" version="6" timestamp="2024-12-12T21:20:07Z" changeset="160223984" uid="22239736" user="Ketiv">
    <nd ref="282780868"/>
    <nd ref="282780869"/>
    <nd ref="4870478536"/>
    <nd ref="282780870"/>
    <nd ref="282780871"/>
    <nd ref="282780872"/>
    <nd ref="988698708"/>
    <tag k="highway" v="residential"/>
    <tag k="name" v="U Jezu"/>
  </way>
  <way id="25923818" version="7" timestamp="2024-10-23T09:33:51Z" changeset="158244179" uid="718054" user="Piskvor">
    <nd ref="282780874"/>
    <nd ref="6797467053"/>
    <nd ref="736701556"/>
    <nd ref="736701558"/>
    <nd ref="6797467052"/>
    <nd ref="282780886"/>
    <tag k="bridge" v="yes"/>
    <tag k="bridge:structure" v="beam"/>
    <tag k="highway" v="tertiary"/>
    <tag k="layer" v="1"/>
    <tag k="maxspeed" v="30"/>
    <tag k="name" v="Do Lipan"/>
    <tag k="priority" v="backward"/>
    <tag k="sidewalk" v="separate"/>
    <tag k="source:maxspeed" v="sign"/>
  </way>
  <way id="25923819" version="9" timestamp="2025-02-24T17:16:00Z" changeset="162901822" uid="2061236" user="Thartek">
    <nd ref="8811723"/>
    <nd ref="4464381611"/>
    <nd ref="12616230764"/>
    <nd ref="282780893"/>
    <nd ref="12616230768"/>
    <nd ref="4464381610"/>
    <nd ref="282780894"/>
    <nd ref="282780895"/>
    <tag k="highway" v="residential"/>
    <tag k="maxspeed" v="30"/>
    <tag k="name" v="Nad Dvorem"/>
    <tag k="surface" v="asphalt"/>
  </way>
  <way id="25923820" version="6" timestamp="2021-06-05T20:11:25Z" changeset="105896579" uid="1189910" user="Milancer">
    <nd ref="282780898"/>
    <nd ref="8807597705"/>
    <nd ref="34769892"/>
    <tag k="highway" v="tertiary"/>
    <tag k="name" v="K 콎칤캜an콢m"/>
  </way>
  <way id="25923822" version="4" timestamp="2022-12-06T13:50:35Z" changeset="129784587" uid="718054" user="Piskvor">
    <nd ref="282780899"/>
    <nd ref="282780898"/>
    <tag k="bridge" v="yes"/>
    <tag k="bridge:structure" v="beam"/>
    <tag k="highway" v="tertiary"/>
    <tag k="layer" v="1"/>
    <tag k="name" v="K 콎칤캜an콢m"/>
  </way>
  <way id="25923824" version="10" timestamp="2025-04-20T15:33:03Z" changeset="165200202" uid="22773464" user="radim91">
    <nd ref="344264983"/>
    <nd ref="4608373768"/>
    <nd ref="4870477885"/>
    <nd ref="4870477882"/>
    <nd ref="344264982"/>
    <nd ref="988698671"/>
    <tag k="highway" v="residential"/>
    <tag k="lane_markings" v="no"/>
    <tag k="name" v="Pok콏iven치"/>
    <tag k="surface" v="asphalt"/>
  </way>
  <way id="25923826" version="3" timestamp="2017-01-14T19:10:22Z" changeset="45167737" uid="1858155" user="Chenn Zenn">
    <nd ref="282780902"/>
    <nd ref="4608373783"/>
    <nd ref="4608373788"/>
    <nd ref="282780918"/>
    <tag k="highway" v="residential"/>
    <tag k="name" v="Sva쬴t치"/>
  </way>
  <way id="27074768" version="19" timestamp="2025-03-04T22:02:07Z" changeset="163221287" uid="8971394" user="vojtechzaboril">
    <nd ref="297041163"/>
    <nd ref="7082112"/>
    <nd ref="26509909"/>
    <nd ref="12637266503"/>
    <nd ref="297041166"/>
    <tag k="cycleway:both" v="no"/>
    <tag k="highway" v="secondary"/>
    <tag k="lanes" v="2"/>
    <tag k="lit" v="no"/>
    <tag k="maxspeed" v="60"/>
    <tag k="official_ref" v="333"/>
    <tag k="ref" v="333"/>
    <tag k="sidewalk" v="no"/>
    <tag k="smoothness" v="excellent"/>
    <tag k="surface" v="asphalt"/>
  </way>
  <way id="27074770" version="20" timestamp="2025-03-15T22:29:55Z" changeset="163669756" uid="4018695" user="游뻟릖 Roman Horn칤k">
    <nd ref="297040330"/>
    <nd ref="6419096917"/>
    <nd ref="297041163"/>
    <tag k="cycleway:both" v="no"/>
    <tag k="highway" v="secondary"/>
    <tag k="lanes" v="2"/>
    <tag k="maxspeed" v="80"/>
    <tag k="official_ref" v="333"/>
    <tag k="ref" v="333"/>
    <tag k="smoothness" v="excellent"/>
    <tag k="surface" v="asphalt"/>
  </way>
  <way id="27074773" version="22" timestamp="2025-03-15T22:29:55Z" changeset="163669756" uid="4018695" user="游뻟릖 Roman Horn칤k">
    <nd ref="297041166"/>
    <nd ref="12637266391"/>
    <nd ref="12637266365"/>
    <nd ref="6393712154"/>
    <nd ref="12637266259"/>
    <nd ref="12637266191"/>
    <nd ref="189383826"/>
    <tag k="cycleway:both" v="no"/>
    <tag k="highway" v="secondary"/>
    <tag k="lanes" v="2"/>
    <tag k="maxspeed" v="80"/>
    <tag k="official_ref" v="333"/>
    <tag k="ref" v="333"/>
    <tag k="smoothness" v="excellent"/>
    <tag k="surface" v="asphalt"/>
  </way>
  <way id="27745982" version="13" timestamp="2025-04-05T20:00:07Z" changeset="164566557" uid="1189910" user="Milancer">
    <nd ref="34664671"/>
    <nd ref="12731831674"/>
    <nd ref="34664670"/>
    <nd ref="34664669"/>
    <nd ref="26510124"/>
    <nd ref="1289207720"/>
    <nd ref="1289207607"/>
    <nd ref="26510111"/>
    <nd ref="26510105"/>
    <nd ref="12637266542"/>
    <nd ref="12637266181"/>
    <nd ref="34769483"/>
    <nd ref="26510093"/>
    <nd ref="34769477"/>
    <nd ref="6393630979"/>
    <nd ref="26510074"/>
    <nd ref="26510064"/>
    <nd ref="12637253663"/>
    <nd ref="26509909"/>
    <tag k="highway" v="tertiary"/>
  </way>
  <way id="27745984" version="20" timestamp="2025-04-27T13:29:52Z" changeset="165506050" uid="22773464" user="radim91">
    <nd ref="8811724"/>
    <nd ref="6717313035"/>
    <nd ref="5018643861"/>
    <nd ref="616846524"/>
    <nd ref="1610712270"/>
    <nd ref="6702866520"/>
    <nd ref="616846521"/>
    <nd ref="8811723"/>
    <tag k="highway" v="tertiary"/>
    <tag k="name" v="M칤rov치"/>
    <tag k="ref" v="33312"/>
    <tag k="source" v="uhul:ortofoto"/>
    <tag k="source:ref" v="rsd_cr"/>
    <tag k="surface" v="asphalt"/>
  </way>
  <way id="30960063" version="12" timestamp="2024-12-09T15:34:55Z" changeset="160096933" uid="718054" user="Piskvor">
    <nd ref="5882445739"/>
    <nd ref="3023205595"/>
    <nd ref="5882576452"/>
    <nd ref="34769673"/>
    <nd ref="1314167434"/>
    <nd ref="4458453499"/>
    <nd ref="5882576455"/>
    <nd ref="8811553"/>
    <nd ref="4458453500"/>
    <nd ref="5760259385"/>
    <nd ref="5141719792"/>
    <nd ref="1314441061"/>
    <nd ref="5882445738"/>
    <nd ref="8811551"/>
    <tag k="highway" v="tertiary"/>
    <tag k="maxheight" v="default"/>
    <tag k="maxheight:signed" v="no"/>
    <tag k="name" v="Za Podjezdem"/>
    <tag k="ref" v="33312"/>
    <tag k="source" v="uhul:ortofoto"/>
    <tag k="source:ref" v="rsd_cr"/>
  </way>
  <way id="30960065" version="5" timestamp="2021-02-22T08:45:20Z" changeset="99728084" uid="6588887" user="Martin2035">
    <nd ref="34769724"/>
    <nd ref="4884331350"/>
    <nd ref="4884331352"/>
    <nd ref="34769729"/>
    <nd ref="4884331351"/>
    <nd ref="34769735"/>
    <nd ref="34769741"/>
    <nd ref="5882576080"/>
    <nd ref="34769747"/>
    <nd ref="5882576081"/>
    <nd ref="34769752"/>
    <nd ref="5882576083"/>
    <nd ref="5882576082"/>
    <nd ref="34769758"/>
    <nd ref="4936061263"/>
    <nd ref="34769765"/>
    <tag k="highway" v="residential"/>
    <tag k="maxspeed" v="30"/>
    <tag k="name" v="Na 캛ervence"/>
  </way>
  <way id="30960067" version="6" timestamp="2021-02-22T08:45:20Z" changeset="99728084" uid="6588887" user="Martin2035">
    <nd ref="282780862"/>
    <nd ref="4608373740"/>
    <nd ref="4469658310"/>
    <nd ref="344264974"/>
    <nd ref="1314167358"/>
    <tag k="highway" v="residential"/>
    <tag k="name" v="Pod Topoly"/>
    <tag k="surface" v="paving_stones"/>
  </way>
  <way id="30960068" version="8" timestamp="2024-10-23T09:33:51Z" changeset="158244179" uid="718054" user="Piskvor">
    <nd ref="4870477892"/>
    <nd ref="4870477881"/>
    <nd ref="282780902"/>
    <nd ref="4458452661"/>
    <nd ref="4458452663"/>
    <nd ref="282780903"/>
    <nd ref="6823947688"/>
    <nd ref="282780904"/>
    <nd ref="6823947719"/>
    <nd ref="282780905"/>
    <nd ref="282780906"/>
    <nd ref="282780907"/>
    <nd ref="282780908"/>
    <nd ref="4870477901"/>
    <nd ref="4870477903"/>
    <nd ref="282780909"/>
    <nd ref="282780910"/>
    <nd ref="619039490"/>
    <nd ref="282780911"/>
    <nd ref="865229324"/>
    <tag k="highway" v="residential"/>
    <tag k="name" v="Nad Topoly"/>
    <tag k="surface" v="asphalt"/>
  </way>
  <way id="30960069" version="9" timestamp="2024-09-26T14:57:43Z" changeset="157132944" uid="21123652" user="jehlijos">
    <nd ref="282780874"/>
    <nd ref="282780875"/>
    <nd ref="282780876"/>
    <nd ref="282780877"/>
    <nd ref="282780878"/>
    <nd ref="282780879"/>
    <nd ref="6702866521"/>
    <nd ref="344264986"/>
    <tag k="highway" v="tertiary"/>
    <tag k="lanes" v="2"/>
    <tag k="name" v="Do Lipan"/>
    <tag k="source" v="survey"/>
    <tag k="surface" v="asphalt"/>
  </way>
  <way id="34892592" version="4" timestamp="2025-01-03T20:50:20Z" changeset="160966067" uid="469828" user="Luk치코 Jel칤nek">
    <nd ref="282780861"/>
    <nd ref="4870477891"/>
    <tag k="bridge" v="yes"/>
    <tag k="highway" v="residential"/>
    <tag k="horse" v="yes"/>
    <tag k="layer" v="1"/>
    <tag k="name" v="Do Hlinek"/>
    <tag k="wikidata" v="Q108218720"/>
    <tag k="wikimedia_commons" v="File:Most ulice Do Hlinek p콏es 콎칤캜ansk칳 potok.jpg"/>
  </way>
  <way id="34892593" version="7" timestamp="2017-05-22T19:37:37Z" changeset="48897725" uid="1858155" user="Chenn Zenn">
    <nd ref="4870477891"/>
    <nd ref="282780862"/>
    <nd ref="282780868"/>
    <tag k="highway" v="residential"/>
    <tag k="name" v="Do Hlinek"/>
  </way>
  <way id="34892594" version="10" timestamp="2025-02-24T17:16:00Z" changeset="162901822" uid="2061236" user="Thartek">
    <nd ref="282780886"/>
    <nd ref="282780887"/>
    <nd ref="282780888"/>
    <nd ref="616846231"/>
    <nd ref="12616230745"/>
    <nd ref="12616230744"/>
    <nd ref="282780889"/>
    <tag k="highway" v="tertiary"/>
    <tag k="lanes" v="2"/>
    <tag k="name" v="Do Lipan"/>
    <tag k="oneway" v="no"/>
    <tag k="surface" v="asphalt"/>
  </way>
  <way id="47955841" version="7" timestamp="2025-02-24T17:16:00Z" changeset="162901822" uid="2061236" user="Thartek">
    <nd ref="282780895"/>
    <nd ref="8807597678"/>
    <nd ref="8807597679"/>
    <nd ref="12616230765"/>
    <nd ref="282780897"/>
    <nd ref="12616230766"/>
    <nd ref="34769887"/>
    <tag k="highway" v="residential"/>
    <tag k="lanes" v="1"/>
    <tag k="maxspeed" v="30"/>
    <tag k="name" v="Nad Dvorem"/>
    <tag k="oneway" v="yes"/>
    <tag k="surface" v="asphalt"/>
  </way>
  <way id="48011790" version="4" timestamp="2025-04-19T06:45:46Z" changeset="165139725" uid="22773464" user="radim91">
    <nd ref="610525716"/>
    <nd ref="8283581264"/>
    <nd ref="610525723"/>
    <nd ref="12626510295"/>
    <nd ref="610525714"/>
    <tag k="highway" v="residential"/>
    <tag k="name" v="Kot칤kova"/>
    <tag k="source" v="survey"/>
    <tag k="surface" v="asphalt"/>
  </way>
  <way id="48011793" version="5" timestamp="2025-04-19T06:46:18Z" changeset="165139725" uid="22773464" user="radim91">
    <nd ref="9767604375"/>
    <nd ref="9767604376"/>
    <nd ref="9767604377"/>
    <nd ref="9767604378"/>
    <nd ref="610525745"/>
    <nd ref="610525744"/>
    <nd ref="6702866519"/>
    <nd ref="610525733"/>
    <nd ref="610525736"/>
    <nd ref="1432579019"/>
    <nd ref="610525740"/>
    <nd ref="6702866518"/>
    <nd ref="610525744"/>
    <tag k="highway" v="residential"/>
    <tag k="name" v="Kupkova"/>
    <tag k="source" v="survey"/>
    <tag k="surface" v="asphalt"/>
  </way>
  <way id="48011795" version="3" timestamp="2025-04-19T06:46:13Z" changeset="165139725" uid="22773464" user="radim91">
    <nd ref="610525727"/>
    <nd ref="12626510297"/>
    <nd ref="610525748"/>
    <tag k="highway" v="residential"/>
    <tag k="name" v="Lolkova"/>
    <tag k="source" v="survey"/>
    <tag k="surface" v="asphalt"/>
  </way>
  <way id="48011796" version="4" timestamp="2025-04-17T07:56:52Z" changeset="165058370" uid="22773464" user="radim91">
    <nd ref="610525749"/>
    <nd ref="2995660510"/>
    <nd ref="34769944"/>
    <tag k="highway" v="residential"/>
    <tag k="lane_markings" v="no"/>
    <tag k="name" v="만tel칤kova"/>
    <tag k="source" v="survey"/>
    <tag k="surface" v="paving_stones"/>
  </way>
  <way id="48011801" version="7" timestamp="2021-02-22T08:45:20Z" changeset="99728084" uid="6588887" user="Martin2035">
    <nd ref="282780841"/>
    <nd ref="4884331952"/>
    <nd ref="4936061273"/>
    <nd ref="4936061279"/>
    <nd ref="610525817"/>
    <nd ref="4884331944"/>
    <nd ref="658673341"/>
    <nd ref="610525835"/>
    <nd ref="4936061278"/>
    <nd ref="4936061276"/>
    <nd ref="610525841"/>
    <nd ref="4884331354"/>
    <nd ref="610525848"/>
    <nd ref="4884331353"/>
    <nd ref="34769765"/>
    <nd ref="4936061261"/>
    <nd ref="610525878"/>
    <tag k="highway" v="residential"/>
    <tag k="lanes" v="2"/>
    <tag k="maxspeed" v="30"/>
    <tag k="name" v="M캩s칤캜kov치"/>
    <tag k="source" v="survey"/>
  </way>
  <way id="48011839" version="4" timestamp="2025-05-13T13:59:34Z" changeset="166204886" uid="22773464" user="radim91">
    <nd ref="610525727"/>
    <nd ref="610525745"/>
    <tag k="highway" v="residential"/>
    <tag k="lane_markings" v="no"/>
    <tag k="name" v="Preislerova"/>
    <tag k="source" v="survey"/>
    <tag k="surface" v="asphalt"/>
  </way>
  <way id="48011843" version="3" timestamp="2018-09-04T19:00:16Z" changeset="62289110" uid="1858155" user="Chenn Zenn">
    <nd ref="34769673"/>
    <nd ref="4458453496"/>
    <nd ref="5882576451"/>
    <nd ref="610526073"/>
    <tag k="highway" v="residential"/>
    <tag k="name" v="Alb칤ny Hochov칠"/>
  </way>
  <way id="48447678" version="8" timestamp="2025-02-25T17:01:12Z" changeset="162941271" uid="13982657" user="gullmar">
    <nd ref="615466154"/>
    <nd ref="615466134"/>
    <nd ref="615466320"/>
    <nd ref="615466307"/>
    <nd ref="615466299"/>
    <nd ref="615466293"/>
    <nd ref="615466284"/>
    <nd ref="615466275"/>
    <nd ref="615466268"/>
    <nd ref="615466260"/>
    <nd ref="615466254"/>
    <nd ref="615466230"/>
    <nd ref="615466216"/>
    <nd ref="615466203"/>
    <nd ref="615466190"/>
    <nd ref="615466178"/>
    <nd ref="615466154"/>
    <tag k="amenity" v="place_of_worship"/>
    <tag k="building" v="church"/>
    <tag k="building:ruian:type" v="5"/>
    <tag k="check_date" v="2025-02-25"/>
    <tag k="denomination" v="roman_catholic"/>
    <tag k="name" v="svat칳 Ond콏ej"/>
    <tag k="ref:ruian:building" v="50525506"/>
    <tag k="religion" v="christian"/>
    <tag k="source" v="cuzk:ruian"/>
    <tag k="wikidata" v="Q22074698"/>
    <tag k="wikipedia" v="cs:Kostel svat칠ho Ond콏eje (Kolovraty)"/>
  </way>
  <way id="48470866" version="9" timestamp="2024-01-06T16:40:03Z" changeset="145962026" uid="10932047" user="AF HAF KARTOGRAF">
    <nd ref="615924943"/>
    <nd ref="1432578626"/>
    <nd ref="5062590694"/>
    <nd ref="8811725"/>
    <nd ref="1150819566"/>
    <nd ref="1432578657"/>
    <nd ref="8811724"/>
    <tag k="highway" v="tertiary"/>
    <tag k="name" v="K 콎칤캜an콢m"/>
    <tag k="ref" v="33312"/>
    <tag k="source" v="uhul:ortofoto"/>
    <tag k="source:ref" v="rsd_cr"/>
  </way>
  <way id="48470867" version="3" timestamp="2024-01-06T16:40:03Z" changeset="145962026" uid="10932047" user="AF HAF KARTOGRAF">
    <nd ref="615924946"/>
    <nd ref="615924943"/>
    <tag k="bridge" v="yes"/>
    <tag k="highway" v="tertiary"/>
    <tag k="layer" v="1"/>
    <tag k="name" v="K 콎칤캜an콢m"/>
    <tag k="ref" v="33312"/>
    <tag k="source" v="uhul:ortofoto"/>
    <tag k="source:ref" v="rsd_cr"/>
  </way>
  <way id="48562462" version="8" timestamp="2025-02-24T17:16:00Z" changeset="162901822" uid="2061236" user="Thartek">
    <nd ref="282780889"/>
    <nd ref="12616230741"/>
    <nd ref="12616230740"/>
    <nd ref="616846251"/>
    <nd ref="344264999"/>
    <nd ref="1304189856"/>
    <nd ref="616845665"/>
    <tag k="highway" v="residential"/>
    <tag k="motor_vehicle" v="destination"/>
    <tag k="name" v="V Halt칳콏i"/>
    <tag k="surface" v="paving_stones"/>
  </way>
  <way id="48738535" version="4" timestamp="2018-02-21T19:57:55Z" changeset="56560542" uid="1858155" user="Chenn Zenn">
    <nd ref="3799311141"/>
    <nd ref="3799311142"/>
    <nd ref="618619082"/>
    <nd ref="618619081"/>
    <nd ref="3799311124"/>
    <nd ref="618619080"/>
    <nd ref="618619079"/>
    <nd ref="618619078"/>
    <nd ref="618619076"/>
    <nd ref="618619075"/>
    <nd ref="618619077"/>
    <nd ref="618619073"/>
    <nd ref="618619074"/>
    <nd ref="618619072"/>
    <nd ref="618619071"/>
    <nd ref="618619070"/>
    <nd ref="618619069"/>
    <nd ref="618619068"/>
    <nd ref="618619067"/>
    <nd ref="618619066"/>
    <nd ref="618619084"/>
    <nd ref="618619083"/>
    <nd ref="3799311141"/>
    <tag k="building" v="civic"/>
    <tag k="building:flats" v="12"/>
    <tag k="building:levels" v="2"/>
    <tag k="building:ruian:type" v="15"/>
    <tag k="name" v="D콢m s pe캜ovatelskou slu쬭ou"/>
    <tag k="ref:ruian:building" v="25015753"/>
    <tag k="source" v="cuzk:ruian"/>
    <tag k="start_date" v="2002-01-04"/>
  </way>
  <way id="48738553" version="5" timestamp="2025-04-20T15:41:21Z" changeset="165200202" uid="22773464" user="radim91">
    <nd ref="282780858"/>
    <nd ref="4458453300"/>
    <nd ref="4458452677"/>
    <nd ref="4458452665"/>
    <nd ref="282780859"/>
    <tag k="highway" v="residential"/>
    <tag k="lane_markings" v="no"/>
    <tag k="name" v="Nad Zbrojnic칤"/>
    <tag k="surface" v="paving_stones"/>
  </way>
  <way id="48746666" version="5" timestamp="2025-04-20T15:41:31Z" changeset="165199894" uid="22773464" user="radim91">
    <nd ref="618680846"/>
    <nd ref="618680844"/>
    <nd ref="3799311123"/>
    <nd ref="618680849"/>
    <nd ref="4512810304"/>
    <nd ref="618680848"/>
    <nd ref="618680847"/>
    <nd ref="618680846"/>
    <tag k="amenity" v="fire_station"/>
    <tag k="building" v="yes"/>
    <tag k="building:flats" v="3"/>
    <tag k="building:levels" v="2"/>
    <tag k="building:ruian:type" v="19"/>
    <tag k="name" v="Hasi캜i Kolovraty"/>
    <tag k="ref:ruian:building" v="21515174"/>
    <tag k="roof:shape" v="hipped"/>
    <tag k="source" v="cuzk:ruian"/>
  </way>
  <way id="48785211" version="6" timestamp="2019-09-25T21:06:18Z" changeset="74928315" uid="1858155" user="Chenn Zenn">
    <nd ref="6823947688"/>
    <nd ref="4608373777"/>
    <nd ref="1281855475"/>
    <nd ref="619039530"/>
    <nd ref="619039531"/>
    <nd ref="4608374689"/>
    <nd ref="8811716"/>
    <tag k="highway" v="residential"/>
    <tag k="name" v="Pod Zvoni캜kou"/>
    <tag k="source" v="cuzk:km"/>
  </way>
  <way id="48785219" version="6" timestamp="2017-05-22T19:37:38Z" changeset="48897725" uid="1858155" user="Chenn Zenn">
    <nd ref="282780908"/>
    <nd ref="4608373771"/>
    <nd ref="619039520"/>
    <nd ref="4870477902"/>
    <nd ref="619039539"/>
    <nd ref="619039544"/>
    <nd ref="1281855477"/>
    <nd ref="619039560"/>
    <nd ref="619039559"/>
    <tag k="highway" v="residential"/>
    <tag k="name" v="Nad Topoly"/>
    <tag k="source" v="uhul:ortofoto"/>
  </way>
  <way id="59406108" version="13" timestamp="2025-03-22T17:07:05Z" changeset="163956838" uid="13982657" user="gullmar">
    <nd ref="736701532"/>
    <nd ref="1314167235"/>
    <nd ref="736701523"/>
    <nd ref="1287611150"/>
    <nd ref="736701527"/>
    <nd ref="736701529"/>
    <nd ref="736701517"/>
    <nd ref="770890749"/>
    <tag k="highway" v="tertiary"/>
    <tag k="lane_markings" v="no"/>
    <tag k="maxspeed" v="50"/>
    <tag k="name" v="Do Lipan"/>
    <tag k="source" v="survey"/>
    <tag k="surface" v="asphalt"/>
  </way>
  <way id="59406109" version="15" timestamp="2025-02-27T22:35:37Z" changeset="163030926" uid="8468948" user="Feli Weigi">
    <nd ref="770890749"/>
    <nd ref="736701519"/>
    <nd ref="10727493927"/>
    <nd ref="10727493926"/>
    <nd ref="736701513"/>
    <nd ref="736701500"/>
    <nd ref="736701503"/>
    <nd ref="12624305608"/>
    <nd ref="842546725"/>
    <nd ref="842546689"/>
    <nd ref="736701508"/>
    <nd ref="736701510"/>
    <nd ref="3493862376"/>
    <nd ref="5272655653"/>
    <nd ref="5631132093"/>
    <nd ref="736701491"/>
    <nd ref="5631132122"/>
    <nd ref="5631132118"/>
    <nd ref="981346040"/>
    <nd ref="736701497"/>
    <nd ref="5654163245"/>
    <nd ref="1296599728"/>
    <nd ref="244019943"/>
    <tag k="highway" v="tertiary"/>
    <tag k="lane_markings" v="no"/>
    <tag k="lanes" v="2"/>
    <tag k="maxspeed" v="50"/>
    <tag k="name" v="V Listn치캜칤ch"/>
    <tag k="source" v="survey"/>
    <tag k="surface" v="asphalt"/>
  </way>
  <way id="70600973" version="4" timestamp="2019-02-13T12:00:41Z" changeset="67160600" uid="667065" user="Svatopluk V칤t">
    <nd ref="842487359"/>
    <nd ref="842486813"/>
    <nd ref="842486909"/>
    <nd ref="842487243"/>
    <nd ref="842487190"/>
    <nd ref="842487103"/>
    <nd ref="842487466"/>
    <nd ref="842487409"/>
    <nd ref="842487479"/>
    <nd ref="842486985"/>
    <nd ref="842487359"/>
    <tag k="building" v="kindergarten"/>
    <tag k="building:levels" v="2"/>
    <tag k="building:ruian:type" v="15"/>
    <tag k="name" v="Mate콏sk치 코kola"/>
    <tag k="ref:ruian:building" v="25301306"/>
    <tag k="source" v="cuzk:ruian"/>
    <tag k="start_date" v="2003-07-21"/>
  </way>
  <way id="70600976" version="4" timestamp="2017-06-13T20:36:55Z" changeset="49511474" uid="1858155" user="Chenn Zenn">
    <nd ref="842487054"/>
    <nd ref="842487424"/>
    <nd ref="4913618229"/>
    <nd ref="842486925"/>
    <nd ref="842486995"/>
    <nd ref="842487201"/>
    <nd ref="842487150"/>
    <nd ref="842487362"/>
    <nd ref="842487414"/>
    <nd ref="4913603446"/>
    <nd ref="4913603445"/>
    <nd ref="842487054"/>
    <tag k="building" v="school"/>
    <tag k="name" v="Z치kladn칤 코kola"/>
    <tag k="source" v="cuzk:km"/>
  </way>
  <way id="70600978" version="5" timestamp="2017-06-13T20:36:55Z" changeset="49511474" uid="1858155" user="Chenn Zenn">
    <nd ref="842486898"/>
    <nd ref="842487424"/>
    <nd ref="842487054"/>
    <nd ref="4913603444"/>
    <nd ref="842487349"/>
    <nd ref="4913603443"/>
    <nd ref="4913603442"/>
    <nd ref="842487148"/>
    <nd ref="842487107"/>
    <nd ref="842486810"/>
    <nd ref="842487189"/>
    <nd ref="842486983"/>
    <nd ref="842486908"/>
    <nd ref="842487407"/>
    <nd ref="842486898"/>
    <tag k="building" v="kindergarten"/>
    <tag k="name" v="Mate콏sk치 코kola"/>
    <tag k="source" v="cuzk:km"/>
  </way>
  <way id="70600979" version="4" timestamp="2019-02-13T12:01:21Z" changeset="67160618" uid="667065" user="Svatopluk V칤t">
    <nd ref="842487308"/>
    <nd ref="842486990"/>
    <nd ref="842486965"/>
    <nd ref="842487248"/>
    <nd ref="842487483"/>
    <nd ref="842487152"/>
    <nd ref="842487363"/>
    <nd ref="842487416"/>
    <nd ref="842487308"/>
    <tag k="building" v="kindergarten"/>
    <tag k="building:levels" v="2"/>
    <tag k="building:ruian:type" v="15"/>
    <tag k="name" v="Mate콏sk치 코kola"/>
    <tag k="ref:ruian:building" v="21515751"/>
    <tag k="source" v="cuzk:ruian"/>
  </way>
  <way id="70600981" version="3" timestamp="2015-10-23T12:52:46Z" changeset="34820237" uid="2169558" user="JandaM">
    <nd ref="842487021"/>
    <nd ref="842486878"/>
    <nd ref="842487277"/>
    <nd ref="842487512"/>
    <nd ref="842487569"/>
    <nd ref="842487092"/>
    <nd ref="842487450"/>
    <nd ref="842486940"/>
    <nd ref="842487029"/>
    <nd ref="842487219"/>
    <nd ref="842486866"/>
    <nd ref="842487128"/>
    <nd ref="842487021"/>
    <tag k="building" v="school"/>
    <tag k="building:flats" v="1"/>
    <tag k="building:levels" v="1"/>
    <tag k="building:ruian:type" v="3"/>
    <tag k="name" v="Hudebn칤 코kola"/>
    <tag k="ref:ruian:building" v="21514496"/>
    <tag k="source" v="cuzk:ruian"/>
  </way>
  <way id="70600983" version="4" timestamp="2025-04-20T15:55:58Z" changeset="165199894" uid="22773464" user="radim91">
    <nd ref="842487550"/>
    <nd ref="4458453344"/>
    <nd ref="842486857"/>
    <nd ref="842487204"/>
    <nd ref="3799311195"/>
    <nd ref="3799311196"/>
    <nd ref="3799311198"/>
    <nd ref="3799311197"/>
    <nd ref="842487323"/>
    <nd ref="842487550"/>
    <tag k="amenity" v="police"/>
    <tag k="building" v="yes"/>
    <tag k="building:levels" v="1"/>
    <tag k="building:ruian:type" v="19"/>
    <tag k="name" v="M캩stsk치 policie"/>
    <tag k="ref:ruian:building" v="25765990"/>
    <tag k="source" v="cuzk:ruian"/>
    <tag k="start_date" v="2006-01-26"/>
  </way>
  <way id="71594775" version="2" timestamp="2018-09-04T19:00:16Z" changeset="62289110" uid="1858155" user="Chenn Zenn">
    <nd ref="34769700"/>
    <nd ref="5882576390"/>
    <nd ref="34769752"/>
    <tag k="highway" v="residential"/>
    <tag k="name" v="Medu켿kov치"/>
    <tag k="oneway" v="yes"/>
    <tag k="source" v="survey"/>
  </way>
  <way id="72885916" version="7" timestamp="2025-04-20T15:49:56Z" changeset="165200202" uid="22773464" user="radim91">
    <nd ref="282780919"/>
    <nd ref="1281855488"/>
    <nd ref="865025761"/>
    <nd ref="4698175737"/>
    <nd ref="282780921"/>
    <nd ref="4698175735"/>
    <nd ref="282780853"/>
    <tag k="highway" v="residential"/>
    <tag k="lane_markings" v="no"/>
    <tag k="name" v="U Z치vor"/>
    <tag k="surface" v="asphalt"/>
  </way>
  <way id="111488647" version="6" timestamp="2024-09-26T14:54:41Z" changeset="157132944" uid="21123652" user="jehlijos">
    <nd ref="235536504"/>
    <nd ref="10776382669"/>
    <nd ref="235536521"/>
    <nd ref="235536538"/>
    <nd ref="10776382670"/>
    <nd ref="10776382671"/>
    <nd ref="244019932"/>
    <nd ref="244019933"/>
    <nd ref="10776382672"/>
    <nd ref="244019934"/>
    <nd ref="10776382673"/>
    <nd ref="244019935"/>
    <nd ref="244019936"/>
    <nd ref="842600452"/>
    <tag k="highway" v="tertiary"/>
    <tag k="lane_markings" v="no"/>
    <tag k="lanes" v="2"/>
    <tag k="ref" v="3339"/>
    <tag k="source:ref" v="rsd_cr"/>
    <tag k="surface" v="asphalt"/>
  </way>
  <way id="111488648" version="5" timestamp="2025-03-22T16:28:55Z" changeset="163955199" uid="13982657" user="gullmar">
    <nd ref="1270094948"/>
    <nd ref="235536504"/>
    <tag k="bridge" v="yes"/>
    <tag k="highway" v="tertiary"/>
    <tag k="lane_markings" v="no"/>
    <tag k="layer" v="1"/>
    <tag k="maxweight:signed" v="no"/>
    <tag k="ref" v="3339"/>
    <tag k="source:ref" v="rsd_cr"/>
    <tag k="surface" v="asphalt"/>
  </way>
  <way id="112143820" version="3" timestamp="2023-03-31T19:09:35Z" changeset="134358643" uid="1189910" user="Milancer">
    <nd ref="235536303"/>
    <nd ref="10776382665"/>
    <nd ref="235536313"/>
    <nd ref="10776382666"/>
    <nd ref="235536333"/>
    <nd ref="235536349"/>
    <nd ref="235536369"/>
    <nd ref="235536386"/>
    <nd ref="10776382667"/>
    <nd ref="235536403"/>
    <nd ref="235536429"/>
    <nd ref="235536444"/>
    <nd ref="10776382668"/>
    <nd ref="235536467"/>
    <tag k="highway" v="tertiary"/>
    <tag k="ref" v="3339"/>
    <tag k="source:ref" v="rsd_cr"/>
  </way>
  <way id="112143822" version="3" timestamp="2018-09-04T19:32:05Z" changeset="62289934" uid="1858155" user="Chenn Zenn">
    <nd ref="282780866"/>
    <nd ref="5882705970"/>
    <nd ref="1745313502"/>
    <nd ref="1745313468"/>
    <nd ref="5882705969"/>
    <nd ref="1745313436"/>
    <nd ref="5882705964"/>
    <nd ref="1745313399"/>
    <nd ref="5882705968"/>
    <nd ref="1745313336"/>
    <nd ref="865025805"/>
    <nd ref="5882705962"/>
    <nd ref="865025678"/>
    <tag k="highway" v="residential"/>
    <tag k="name" v="Do Hlinek"/>
  </way>
  <way id="112866241" version="3" timestamp="2024-03-05T22:27:06Z" changeset="148270326" uid="9291527" user="marekhrabe">
    <nd ref="282780917"/>
    <nd ref="3023205578"/>
    <nd ref="1281855476"/>
    <tag k="highway" v="residential"/>
    <tag k="name" v="U s치dek"/>
    <tag k="source" v="bing:ortofoto;cuzk:km"/>
  </way>
  <way id="113556491" version="4" timestamp="2020-06-06T08:11:41Z" changeset="86271754" uid="527259" user="Vratislav Filler">
    <nd ref="282780868"/>
    <nd ref="282780863"/>
    <nd ref="842487547"/>
    <nd ref="282780864"/>
    <nd ref="854301306"/>
    <nd ref="282780865"/>
    <tag k="highway" v="residential"/>
    <tag k="name" v="Do Hlinek"/>
  </way>
  <way id="113556494" version="3" timestamp="2025-03-22T16:28:57Z" changeset="163955199" uid="13982657" user="gullmar">
    <nd ref="235536467"/>
    <nd ref="235536487"/>
    <nd ref="1270094948"/>
    <tag k="highway" v="tertiary"/>
    <tag k="lane_markings" v="no"/>
    <tag k="ref" v="3339"/>
    <tag k="source:ref" v="rsd_cr"/>
    <tag k="surface" v="asphalt"/>
  </way>
  <way id="113558334" version="7" timestamp="2025-02-24T17:16:00Z" changeset="162901822" uid="2061236" user="Thartek">
    <nd ref="282780889"/>
    <nd ref="12616230743"/>
    <nd ref="12616230742"/>
    <nd ref="282780890"/>
    <nd ref="282780891"/>
    <nd ref="1298717941"/>
    <nd ref="617841035"/>
    <nd ref="282780892"/>
    <tag k="highway" v="tertiary"/>
    <tag k="incline" v="up"/>
    <tag k="lanes" v="2"/>
    <tag k="name" v="Do Lipan"/>
    <tag k="surface" v="asphalt"/>
  </way>
  <way id="113559612" version="6" timestamp="2025-03-04T22:02:07Z" changeset="163221287" uid="8971394" user="vojtechzaboril">
    <nd ref="8811727"/>
    <nd ref="7488349626"/>
    <nd ref="12637266164"/>
    <nd ref="615924946"/>
    <tag k="highway" v="tertiary"/>
    <tag k="name" v="K 콎칤캜an콢m"/>
    <tag k="ref" v="33312"/>
    <tag k="source" v="uhul:ortofoto"/>
    <tag k="source:ref" v="rsd_cr"/>
  </way>
  <way id="113559613" version="3" timestamp="2017-03-08T19:47:20Z" changeset="46690403" uid="5449575" user="malynemec">
    <nd ref="309914692"/>
    <nd ref="8811731"/>
    <nd ref="1733551193"/>
    <nd ref="4724707999"/>
    <tag k="highway" v="tertiary"/>
    <tag k="name" v="Kolovratsk치"/>
    <tag k="ref" v="33312"/>
    <tag k="source" v="uhul:ortofoto"/>
    <tag k="source:ref" v="rsd_cr"/>
  </way>
  <way id="113561467" version="2" timestamp="2018-05-07T12:34:21Z" changeset="58757375" uid="1858155" user="Chenn Zenn">
    <nd ref="8811723"/>
    <nd ref="5602208834"/>
    <nd ref="282780846"/>
    <tag k="highway" v="tertiary"/>
    <tag k="name" v="M칤rov치"/>
    <tag k="ref" v="33312"/>
    <tag k="source" v="uhul:ortofoto"/>
    <tag k="source:ref" v="rsd_cr"/>
  </way>
  <way id="113561473" version="13" timestamp="2025-02-28T22:23:03Z" changeset="163071394" uid="8468948" user="Feli Weigi">
    <nd ref="34769892"/>
    <nd ref="4458452644"/>
    <nd ref="4458452645"/>
    <nd ref="34769903"/>
    <nd ref="34769909"/>
    <nd ref="34769915"/>
    <nd ref="34769921"/>
    <nd ref="34769926"/>
    <nd ref="34769932"/>
    <nd ref="3954017623"/>
    <nd ref="3954017641"/>
    <nd ref="12626510284"/>
    <nd ref="34769938"/>
    <nd ref="3954017767"/>
    <nd ref="3954017777"/>
    <nd ref="34769944"/>
    <nd ref="282780901"/>
    <nd ref="610525714"/>
    <nd ref="610525748"/>
    <nd ref="12626510298"/>
    <nd ref="12626563702"/>
    <nd ref="12626563703"/>
    <nd ref="10242444659"/>
    <nd ref="34769500"/>
    <tag k="highway" v="tertiary"/>
    <tag k="lane_markings" v="no"/>
    <tag k="name" v="K 콎칤캜an콢m"/>
    <tag k="surface" v="asphalt"/>
  </way>
  <way id="113561474" version="20" timestamp="2024-12-12T21:20:07Z" changeset="160223984" uid="22239736" user="Ketiv">
    <nd ref="5018643923"/>
    <nd ref="1298717936"/>
    <nd ref="1298717955"/>
    <nd ref="344264983"/>
    <nd ref="4608373758"/>
    <nd ref="1281855575"/>
    <nd ref="1281855577"/>
    <nd ref="3034495909"/>
    <nd ref="8811717"/>
    <nd ref="618778270"/>
    <nd ref="4698185949"/>
    <nd ref="3034495905"/>
    <nd ref="282780859"/>
    <nd ref="282780860"/>
    <nd ref="3034540763"/>
    <nd ref="1281855478"/>
    <nd ref="282780918"/>
    <nd ref="4698173370"/>
    <nd ref="4698173374"/>
    <nd ref="8811716"/>
    <nd ref="6823929843"/>
    <nd ref="1281855489"/>
    <nd ref="282780913"/>
    <nd ref="4698173383"/>
    <nd ref="619039561"/>
    <nd ref="4698173377"/>
    <nd ref="1281855484"/>
    <nd ref="282780915"/>
    <nd ref="282780919"/>
    <nd ref="8811714"/>
    <nd ref="282780916"/>
    <nd ref="8811713"/>
    <nd ref="282780917"/>
    <nd ref="1281855482"/>
    <nd ref="8811712"/>
    <nd ref="1281855490"/>
    <nd ref="8811554"/>
    <tag k="highway" v="tertiary"/>
    <tag k="lanes" v="2"/>
    <tag k="name" v="M칤rov치"/>
    <tag k="ref" v="33312"/>
    <tag k="source" v="uhul:ortofoto"/>
    <tag k="source:ref" v="rsd_cr"/>
    <tag k="surface" v="asphalt"/>
  </way>
  <way id="113575454" version="4" timestamp="2019-02-13T12:17:04Z" changeset="67161064" uid="667065" user="Svatopluk V칤t">
    <nd ref="1287809137"/>
    <nd ref="1287806791"/>
    <nd ref="1287810769"/>
    <nd ref="1287808026"/>
    <nd ref="1287809137"/>
    <tag k="amenity" v="restaurant"/>
    <tag k="building" v="yes"/>
    <tag k="building:levels" v="1"/>
    <tag k="building:ruian:type" v="19"/>
    <tag k="name" v="Sportklub Tenis Kolovraty"/>
    <tag k="outdoor_seating" v="yes"/>
    <tag k="ref:ruian:building" v="25788752"/>
    <tag k="source" v="cuzk:ruian"/>
    <tag k="start_date" v="2006-03-20"/>
    <tag k="website" v="https://www.teniskolovraty.cz"/>
  </way>
  <way id="114593990" version="6" timestamp="2025-04-10T16:48:14Z" changeset="164778605" uid="13982657" user="gullmar">
    <nd ref="530260434"/>
    <nd ref="34769642"/>
    <nd ref="34769649"/>
    <nd ref="34769655"/>
    <nd ref="5018643918"/>
    <nd ref="8811719"/>
    <tag k="highway" v="residential"/>
    <tag k="lane_markings" v="no"/>
    <tag k="name" v="V Mil칤콏i"/>
    <tag k="surface" v="asphalt"/>
  </way>
  <way id="295805139" version="3" timestamp="2025-04-17T07:56:55Z" changeset="165058370" uid="22773464" user="radim91">
    <nd ref="2995660510"/>
    <nd ref="2995660511"/>
    <tag k="highway" v="residential"/>
    <tag k="lane_markings" v="no"/>
    <tag k="name" v="만tel칤kova"/>
    <tag k="surface" v="paving_stones"/>
  </way>
  <way id="298203533" version="3" timestamp="2025-03-16T00:21:43Z" changeset="163671705" uid="4018695" user="游뻟릖 Roman Horn칤k">
    <nd ref="8811548"/>
    <nd ref="842487004"/>
    <nd ref="8811547"/>
    <nd ref="842487083"/>
    <nd ref="410927578"/>
    <nd ref="8811545"/>
    <tag k="highway" v="tertiary"/>
    <tag k="maxspeed" v="70"/>
    <tag k="name" v="Za Podjezdem"/>
  </way>
  <way id="299459205" version="3" timestamp="2017-08-06T19:54:36Z" changeset="50895159" uid="1858155" user="Chenn Zenn">
    <nd ref="344264976"/>
    <nd ref="5018643950"/>
    <nd ref="4870477892"/>
    <tag k="highway" v="residential"/>
    <tag k="name" v="Pok콏iven치"/>
  </way>
  <way id="299468676" version="1" timestamp="2014-08-22T11:55:26Z" changeset="24930593" uid="1858155" user="Chenn Zenn">
    <nd ref="344264982"/>
    <nd ref="617841234"/>
    <nd ref="344264979"/>
    <nd ref="344264978"/>
    <nd ref="344264976"/>
    <tag k="highway" v="residential"/>
    <tag k="name" v="Pok콏iven치"/>
    <tag k="oneway" v="yes"/>
  </way>
  <way id="332107891" version="4" timestamp="2021-02-22T08:45:20Z" changeset="99728084" uid="6588887" user="Martin2035">
    <nd ref="34769771"/>
    <nd ref="6823929861"/>
    <nd ref="6823929860"/>
    <nd ref="6823929859"/>
    <nd ref="34769573"/>
    <tag k="highway" v="residential"/>
    <tag k="maxspeed" v="30"/>
    <tag k="name" v="Alb칤ny Hochov칠"/>
    <tag k="surface" v="asphalt"/>
  </way>
  <way id="376520967" version="2" timestamp="2019-02-13T12:00:05Z" changeset="67160584" uid="667065" user="Svatopluk V칤t">
    <nd ref="3799311229"/>
    <nd ref="3799311231"/>
    <nd ref="3799311227"/>
    <nd ref="3799311218"/>
    <nd ref="3799311238"/>
    <nd ref="3799311243"/>
    <nd ref="3799311234"/>
    <nd ref="3799311232"/>
    <nd ref="3799311229"/>
    <tag k="building" v="yes"/>
    <tag k="building:levels" v="1"/>
    <tag k="building:ruian:type" v="15"/>
    <tag k="name" v="Z치kladn칤 코kola"/>
    <tag k="ref:ruian:building" v="80031633"/>
    <tag k="source" v="cuzk:ruian"/>
    <tag k="start_date" v="2015-06-09"/>
  </way>
  <way id="443665568" version="4" timestamp="2025-04-10T16:55:11Z" changeset="164778914" uid="13982657" user="gullmar">
    <nd ref="4412233358"/>
    <nd ref="4412227239"/>
    <nd ref="4412227238"/>
    <nd ref="4412227240"/>
    <nd ref="4412227249"/>
    <nd ref="4412227248"/>
    <nd ref="4412227247"/>
    <nd ref="4412227246"/>
    <nd ref="4412227242"/>
    <nd ref="4412227245"/>
    <nd ref="4412227244"/>
    <nd ref="4412227243"/>
    <nd ref="4412227237"/>
    <nd ref="618592522"/>
    <nd ref="618592521"/>
    <nd ref="3799311068"/>
    <nd ref="3799311063"/>
    <nd ref="618592514"/>
    <nd ref="618592512"/>
    <nd ref="4412233358"/>
    <tag k="amenity" v="school"/>
    <tag k="building" v="civic"/>
    <tag k="building:levels" v="3"/>
    <tag k="building:ruian:type" v="5"/>
    <tag k="check_date" v="2025-04-10"/>
    <tag k="name" v="Z Kolovraty"/>
    <tag k="ref:ruian:building" v="21511934"/>
    <tag k="source" v="cuzk:ruian"/>
  </way>
  <way id="448873016" version="1" timestamp="2016-10-21T21:25:54Z" changeset="43069477" uid="1858155" user="Chenn Zenn">
    <nd ref="610526073"/>
    <nd ref="8811553"/>
    <tag k="highway" v="residential"/>
    <tag k="name" v="Alb칤ny Hochov칠"/>
    <tag k="oneway" v="yes"/>
  </way>
  <way id="448873017" version="4" timestamp="2021-08-22T08:27:34Z" changeset="110051295" uid="13972395" user="Tomas Jenicek">
    <nd ref="4458453459"/>
    <nd ref="34769724"/>
    <nd ref="34769771"/>
    <tag k="highway" v="residential"/>
    <tag k="lit" v="yes"/>
    <tag k="maxspeed" v="30"/>
    <tag k="name" v="Alb칤ny Hochov칠"/>
    <tag k="surface" v="asphalt"/>
  </way>
  <way id="479353857" version="4" timestamp="2024-01-06T16:40:03Z" changeset="145962026" uid="10932047" user="AF HAF KARTOGRAF">
    <nd ref="4724708000"/>
    <nd ref="427821205"/>
    <nd ref="1733551464"/>
    <nd ref="8811730"/>
    <nd ref="8811729"/>
    <nd ref="1733551655"/>
    <nd ref="10242444658"/>
    <nd ref="427821206"/>
    <nd ref="8811727"/>
    <tag k="highway" v="tertiary"/>
    <tag k="name" v="K 콎칤캜an콢m"/>
    <tag k="ref" v="33312"/>
    <tag k="source" v="uhul:ortofoto"/>
    <tag k="source:ref" v="rsd_cr"/>
  </way>
  <way id="479353858" version="4" timestamp="2024-01-06T16:40:03Z" changeset="145962026" uid="10932047" user="AF HAF KARTOGRAF">
    <nd ref="4724707999"/>
    <nd ref="4724708000"/>
    <tag k="highway" v="tertiary"/>
    <tag k="layer" v="1"/>
    <tag k="name" v="K 콎칤캜an콢m"/>
    <tag k="ref" v="33312"/>
    <tag k="source" v="uhul:ortofoto"/>
    <tag k="source:ref" v="rsd_cr"/>
  </way>
  <way id="496762239" version="1" timestamp="2017-05-29T21:17:48Z" changeset="49085584" uid="1858155" user="Chenn Zenn">
    <nd ref="610525817"/>
    <nd ref="4884332044"/>
    <nd ref="4884331349"/>
    <tag k="highway" v="residential"/>
    <tag k="name" v="M캩s칤캜kov치"/>
  </way>
  <way id="510089438" version="7" timestamp="2024-12-30T19:59:10Z" changeset="160807852" uid="718054" user="Piskvor">
    <nd ref="7082112"/>
    <nd ref="12463673107"/>
    <nd ref="12395965584"/>
    <nd ref="12395965581"/>
    <nd ref="34769500"/>
    <tag k="cycleway:both" v="no"/>
    <tag k="highway" v="tertiary"/>
    <tag k="name" v="K 콎칤캜an콢m"/>
  </way>
  <way id="592415869" version="4" timestamp="2025-02-24T17:16:00Z" changeset="162901822" uid="2061236" user="Thartek">
    <nd ref="282780846"/>
    <nd ref="616846513"/>
    <nd ref="6717313059"/>
    <nd ref="34769661"/>
    <nd ref="12616230746"/>
    <nd ref="8811722"/>
    <nd ref="12616230747"/>
    <nd ref="1610712229"/>
    <nd ref="8807597663"/>
    <nd ref="1610712232"/>
    <nd ref="1304189739"/>
    <nd ref="12616230748"/>
    <nd ref="616846506"/>
    <nd ref="12616230749"/>
    <nd ref="34769666"/>
    <nd ref="4464381609"/>
    <nd ref="282780892"/>
    <tag k="highway" v="tertiary"/>
    <tag k="name" v="M칤rov치"/>
    <tag k="ref" v="33312"/>
    <tag k="source" v="uhul:ortofoto"/>
    <tag k="source:ref" v="rsd_cr"/>
  </way>
  <way id="622831211" version="4" timestamp="2025-05-16T11:32:21Z" changeset="166345737" uid="22773464" user="radim91">
    <nd ref="8811554"/>
    <nd ref="1314167406"/>
    <nd ref="1314167410"/>
    <nd ref="34769682"/>
    <nd ref="5882445739"/>
    <tag k="highway" v="tertiary"/>
    <tag k="lanes" v="2"/>
    <tag k="maxheight" v="default"/>
    <tag k="maxheight:signed" v="no"/>
    <tag k="name" v="M칤rov치"/>
    <tag k="ref" v="33312"/>
    <tag k="source" v="uhul:ortofoto"/>
    <tag k="source:ref" v="rsd_cr"/>
    <tag k="surface" v="asphalt"/>
  </way>
  <way id="713660861" version="5" timestamp="2025-04-17T17:08:20Z" changeset="165081790" uid="22773464" user="radim91">
    <nd ref="282780853"/>
    <nd ref="10697628973"/>
    <nd ref="618681459"/>
    <nd ref="282780854"/>
    <nd ref="4834457744"/>
    <nd ref="282780855"/>
    <nd ref="6823929863"/>
    <nd ref="282780852"/>
    <tag k="highway" v="residential"/>
    <tag k="lane_markings" v="no"/>
    <tag k="name" v="U 콯eleznice"/>
    <tag k="surface" v="asphalt"/>
  </way>
  <way id="742780714" version="7" timestamp="2025-03-04T22:02:07Z" changeset="163221287" uid="8971394" user="vojtechzaboril">
    <nd ref="26509909"/>
    <nd ref="12637253662"/>
    <nd ref="12637253664"/>
    <nd ref="5654105003"/>
    <nd ref="1314167413"/>
    <nd ref="34769500"/>
    <tag k="cycleway:both" v="no"/>
    <tag k="highway" v="tertiary"/>
    <tag k="lane_markings" v="no"/>
    <tag k="lanes" v="2"/>
    <tag k="name" v="K Po코t캩"/>
    <tag k="note" v="silnice k nedvezi"/>
    <tag k="surface" v="asphalt"/>
  </way>
  <way id="767649619" version="1" timestamp="2020-01-28T17:53:04Z" changeset="80212945" uid="5579604" user="David Pfann">
    <nd ref="4870477892"/>
    <nd ref="282780861"/>
    <tag k="highway" v="residential"/>
    <tag k="name" v="Do Hlinek"/>
  </way>
  <way id="813356085" version="1" timestamp="2020-06-06T08:11:41Z" changeset="86271754" uid="527259" user="Vratislav Filler">
    <nd ref="282780865"/>
    <nd ref="5882705972"/>
    <nd ref="5337932231"/>
    <nd ref="5882705971"/>
    <nd ref="282780866"/>
    <tag k="highway" v="residential"/>
    <tag k="name" v="Do Hlinek"/>
  </way>
  <way id="813356086" version="3" timestamp="2025-03-22T17:08:54Z" changeset="163955199" uid="13982657" user="gullmar">
    <nd ref="344264986"/>
    <nd ref="5654163246"/>
    <nd ref="4870670855"/>
    <nd ref="282780882"/>
    <nd ref="5654163247"/>
    <nd ref="282780883"/>
    <nd ref="282780884"/>
    <nd ref="736701532"/>
    <tag k="highway" v="tertiary"/>
    <tag k="lane_markings" v="no"/>
    <tag k="name" v="Do Lipan"/>
    <tag k="source" v="survey"/>
    <tag k="surface" v="asphalt"/>
  </way>
  <way id="909351150" version="1" timestamp="2021-02-21T18:02:29Z" changeset="99692333" uid="6588887" user="Martin2035">
    <nd ref="282780913"/>
    <nd ref="1281855473"/>
    <nd ref="619039559"/>
    <nd ref="282780914"/>
    <nd ref="6823947687"/>
    <nd ref="4698175691"/>
    <nd ref="4698175690"/>
    <tag k="highway" v="residential"/>
    <tag k="name" v="V Tehovi캜k치ch"/>
    <tag k="surface" v="paving_stones"/>
  </way>
  <way id="909539422" version="4" timestamp="2025-04-18T09:29:49Z" changeset="165102961" uid="22773464" user="radim91">
    <nd ref="34769500"/>
    <nd ref="10776382661"/>
    <nd ref="34769560"/>
    <tag k="highway" v="residential"/>
    <tag k="lane_markings" v="no"/>
    <tag k="name" v="K Po코t캩"/>
    <tag k="surface" v="asphalt"/>
  </way>
  <way id="1293812795" version="1" timestamp="2024-06-20T08:33:35Z" changeset="152930969" uid="718054" user="Piskvor">
    <nd ref="6352881665"/>
    <nd ref="9924824116"/>
    <nd ref="6352881663"/>
    <nd ref="7082112"/>
    <tag k="hgv" v="no"/>
    <tag k="highway" v="tertiary"/>
    <tag k="maxwidth" v="2.2"/>
    <tag k="maxwidth:physical" v="2.2"/>
    <tag k="priority" v="backward"/>
  </way>
  <way id="1327478183" version="1" timestamp="2024-10-23T09:33:51Z" changeset="158244179" uid="718054" user="Piskvor">
    <nd ref="865229324"/>
    <nd ref="4870477893"/>
    <nd ref="282780912"/>
    <tag k="highway" v="residential"/>
    <tag k="name" v="Nad Topoly"/>
    <tag k="surface" v="paving_stones"/>
  </way>
  <way id="1338595237" version="2" timestamp="2025-03-04T22:02:07Z" changeset="163221287" uid="8971394" user="vojtechzaboril">
    <nd ref="2604197214"/>
    <nd ref="772361026"/>
    <nd ref="8812012"/>
    <nd ref="772361139"/>
    <nd ref="1103316259"/>
    <nd ref="772361109"/>
    <nd ref="8812011"/>
    <nd ref="8812010"/>
    <nd ref="8811732"/>
    <nd ref="7513458056"/>
    <nd ref="309914692"/>
    <tag k="highway" v="tertiary"/>
    <tag k="name" v="Kolovratsk치"/>
    <tag k="ref" v="33312"/>
    <tag k="source" v="uhul:ortofoto"/>
    <tag k="source:ref" v="rsd_cr"/>
  </way>
  <way id="1342259521" version="4" timestamp="2025-01-03T13:43:32Z" changeset="160948918" uid="469828" user="Luk치코 Jel칤nek">
    <nd ref="988698708"/>
    <nd ref="282780873"/>
    <nd ref="4870478535"/>
    <nd ref="282780874"/>
    <tag k="highway" v="residential"/>
    <tag k="lane_markings" v="no"/>
    <tag k="name" v="U Jezu"/>
    <tag k="smoothness" v="good"/>
    <tag k="surface" v="asphalt"/>
  </way>
  <way id="1342259523" version="3" timestamp="2025-04-20T15:35:14Z" changeset="165200202" uid="22773464" user="radim91">
    <nd ref="988698671"/>
    <nd ref="4608374698"/>
    <tag k="highway" v="residential"/>
    <tag k="lane_markings" v="no"/>
    <tag k="name" v="Pok콏iven치"/>
    <tag k="surface" v="paving_stones"/>
  </way>
  <way id="1342259527" version="2" timestamp="2025-02-24T17:16:00Z" changeset="162901822" uid="2061236" user="Thartek">
    <nd ref="8811719"/>
    <nd ref="12616230752"/>
    <nd ref="617841034"/>
    <nd ref="618594663"/>
    <nd ref="618594649"/>
    <nd ref="3034495923"/>
    <nd ref="8811718"/>
    <nd ref="658673305"/>
    <nd ref="5018643923"/>
    <tag k="highway" v="tertiary"/>
    <tag k="lanes" v="2"/>
    <tag k="name" v="M칤rov치"/>
    <tag k="ref" v="33312"/>
    <tag k="source" v="uhul:ortofoto"/>
    <tag k="source:ref" v="rsd_cr"/>
    <tag k="surface" v="asphalt"/>
  </way>
  <way id="1342259528" version="2" timestamp="2025-02-24T17:16:00Z" changeset="162901822" uid="2061236" user="Thartek">
    <nd ref="282780892"/>
    <nd ref="615467601"/>
    <nd ref="4464381608"/>
    <nd ref="615114693"/>
    <nd ref="8811720"/>
    <nd ref="617841033"/>
    <nd ref="12616230750"/>
    <nd ref="5018643919"/>
    <nd ref="12616230751"/>
    <nd ref="8811719"/>
    <tag k="highway" v="tertiary"/>
    <tag k="lanes" v="2"/>
    <tag k="name" v="M칤rov치"/>
    <tag k="ref" v="33312"/>
    <tag k="source" v="uhul:ortofoto"/>
    <tag k="source:ref" v="rsd_cr"/>
    <tag k="surface" v="asphalt"/>
  </way>
  <way id="1342259529" version="2" timestamp="2025-01-03T13:19:06Z" changeset="160948771" uid="469828" user="Luk치코 Jel칤nek">
    <nd ref="282780852"/>
    <nd ref="3023206039"/>
    <tag k="highway" v="residential"/>
    <tag k="lane_markings" v="no"/>
    <tag k="name" v="U 콯eleznice"/>
    <tag k="surface" v="asphalt"/>
  </way>
  <way id="1365016259" version="1" timestamp="2025-03-06T14:49:34Z" changeset="163288634" uid="718054" user="Piskvor">
    <nd ref="12640975113"/>
    <nd ref="34595913"/>
    <nd ref="34595915"/>
    <nd ref="34595917"/>
    <nd ref="34595919"/>
    <nd ref="34595921"/>
    <nd ref="34769488"/>
    <nd ref="34769494"/>
    <nd ref="6352881664"/>
    <nd ref="6352881665"/>
    <tag k="hgv" v="no"/>
    <tag k="highway" v="tertiary"/>
    <tag k="maxwidth" v="2.2"/>
  </way>
  <way id="1365948748" version="1" timestamp="2025-03-10T10:20:22Z" changeset="163435063" uid="718054" user="Piskvor">
    <nd ref="6393782265"/>
    <nd ref="244020923"/>
    <nd ref="12649573190"/>
    <nd ref="12649573189"/>
    <nd ref="244020924"/>
    <nd ref="6393782231"/>
    <nd ref="244020925"/>
    <nd ref="6393782230"/>
    <nd ref="244020926"/>
    <nd ref="6393782271"/>
    <tag k="highway" v="tertiary"/>
    <tag k="maxweight" v="6"/>
    <tag k="note" v="nebude po v칳stavb캩 D0 obnoveno"/>
    <tag k="ref" v="3339"/>
    <tag k="source:ref" v="rsd_cr"/>
    <tag k="surface" v="asphalt"/>
  </way>
  <way id="1365948749" version="1" timestamp="2025-03-10T10:20:22Z" changeset="163435063" uid="718054" user="Piskvor">
    <nd ref="244019948"/>
    <nd ref="5272655681"/>
    <nd ref="244020919"/>
    <nd ref="244020920"/>
    <nd ref="244020921"/>
    <nd ref="244020922"/>
    <nd ref="6393782265"/>
    <tag k="highway" v="tertiary"/>
    <tag k="maxweight" v="6"/>
    <tag k="ref" v="3339"/>
    <tag k="source:ref" v="rsd_cr"/>
    <tag k="surface" v="asphalt"/>
  </way>

</osm>
