<?xml version="1.0" encoding="UTF-8"?>
<osm version="0.6" generator="Overpass API 0.7.62.5 1bd436f1">
<note>The data included in this document is from www.openstreetmap.org. The data is made available under ODbL.</note>
<meta osm_base="2025-05-18T02:49:13Z" areas="2024-12-31T00:49:33Z"/>

  <node id="25951080" lat="50.1219036" lon="14.3939623" version="9" timestamp="2024-12-19T15:58:28Z" changeset="160400789" uid="8971394" user="vojtechzaboril"/>
  <node id="28023887" lat="50.1373262" lon="14.3848107" version="2" timestamp="2008-01-31T03:56:12Z" changeset="713458" uid="3516" user="BiIbo"/>
  <node id="28023960" lat="50.1363491" lon="14.3835716" version="3" timestamp="2012-02-07T08:02:54Z" changeset="10609803" uid="17615" user="Petr Dlouh칳"/>
  <node id="30558019" lat="50.1303272" lon="14.3822854" version="10" timestamp="2025-01-12T21:18:44Z" changeset="161287967" uid="4018695" user="游뻟릖 Roman Horn칤k"/>
  <node id="30558021" lat="50.1316900" lon="14.3838603" version="5" timestamp="2009-03-21T19:50:49Z" changeset="840131" uid="17615" user="Petr Dlouh칳"/>
  <node id="30558033" lat="50.1404431" lon="14.3894737" version="15" timestamp="2024-03-22T15:22:08Z" changeset="149018631" uid="100163" user="Hlav"/>
  <node id="90291302" lat="50.1216594" lon="14.3937874" version="7" timestamp="2022-12-26T19:35:10Z" changeset="130528391" uid="1189910" user="Milancer">
    <tag k="highway" v="traffic_signals"/>
  </node>
  <node id="125789475" lat="50.1342335" lon="14.3837294" version="6" timestamp="2012-02-06T21:35:06Z" changeset="10607323" uid="17615" user="Petr Dlouh칳"/>
  <node id="125793946" lat="50.1309040" lon="14.3811663" version="6" timestamp="2025-04-13T21:48:51Z" changeset="164913850" uid="4018695" user="游뻟릖 Roman Horn칤k"/>
  <node id="125793951" lat="50.1314157" lon="14.3801735" version="8" timestamp="2025-04-13T21:48:51Z" changeset="164913850" uid="4018695" user="游뻟릖 Roman Horn칤k"/>
  <node id="125796294" lat="50.1349754" lon="14.3831810" version="6" timestamp="2011-04-27T08:33:12Z" changeset="7982700" uid="248441" user="Jandrs"/>
  <node id="244252492" lat="50.1289425" lon="14.3858292" version="5" timestamp="2020-04-22T09:05:56Z" changeset="83928261" uid="6588887" user="Martin2035"/>
  <node id="244252493" lat="50.1283428" lon="14.3854337" version="2" timestamp="2014-02-23T15:13:15Z" changeset="20733613" uid="359096" user="OndrejLedrer"/>
  <node id="1756336780" lat="50.1373646" lon="14.3915617" version="1" timestamp="2012-05-17T17:54:35Z" changeset="11625817" uid="680202" user="Epidem"/>
  <node id="2686799608" lat="50.1286073" lon="14.3876919" version="2" timestamp="2020-04-22T09:05:56Z" changeset="83928261" uid="6588887" user="Martin2035"/>
  <way id="4709432" version="20" timestamp="2024-09-28T05:02:21Z" changeset="157194700" uid="17385839" user="Augustlej">
    <nd ref="361192370"/>
    <nd ref="6410399289"/>
    <tag k="cycleway" v="shared_lane"/>
    <tag k="highway" v="secondary"/>
    <tag k="lanes" v="4"/>
    <tag k="maxspeed" v="70"/>
    <tag k="name" v="Podbabsk치"/>
    <tag k="name:de" v="Podbaber Stra른"/>
    <tag k="ref" v="241"/>
    <tag k="sidewalk:both" v="separate"/>
    <tag k="surface" v="asphalt"/>
    <tag k="turn:lanes:backward" v="|merge_to_left"/>
  </way>
  <way id="4709433" version="12" timestamp="2022-10-22T18:09:23Z" changeset="127933306" uid="9291527" user="marekhrabe">
    <nd ref="28026657"/>
    <nd ref="1306859985"/>
    <nd ref="361192427"/>
    <nd ref="361192429"/>
    <nd ref="361192432"/>
    <nd ref="28026684"/>
    <nd ref="361192433"/>
    <nd ref="9794612950"/>
    <nd ref="361192436"/>
    <nd ref="2686828598"/>
    <nd ref="2686828600"/>
    <nd ref="2686828585"/>
    <tag k="highway" v="residential"/>
    <tag k="name" v="Ke St콏elnici"/>
  </way>
  <way id="4709442" version="14" timestamp="2023-11-12T13:56:08Z" changeset="143933129" uid="14156986" user="LVydra">
    <nd ref="28023887"/>
    <nd ref="6984722077"/>
    <nd ref="759753308"/>
    <nd ref="28023912"/>
    <nd ref="28023945"/>
    <nd ref="28023960"/>
    <nd ref="125789480"/>
    <tag k="highway" v="residential"/>
    <tag k="lit" v="yes"/>
    <tag k="maxspeed" v="30"/>
    <tag k="maxspeed:type" v="CZ:zone30"/>
    <tag k="name" v="Na Vrchmez칤"/>
    <tag k="source:name" v="nameit/uir-adr"/>
    <tag k="source:width" v="ARCore"/>
    <tag k="surface" v="asphalt"/>
    <tag k="width" v="6.3"/>
  </way>
  <way id="4709456" version="11" timestamp="2023-11-11T11:18:55Z" changeset="143894958" uid="14156986" user="LVydra">
    <nd ref="28023903"/>
    <nd ref="28023899"/>
    <tag k="highway" v="residential"/>
    <tag k="lit" v="yes"/>
    <tag k="maxspeed" v="30"/>
    <tag k="maxspeed:type" v="CZ:zone30"/>
    <tag k="name" v="Za H치jem"/>
    <tag k="sidewalk" v="right"/>
    <tag k="surface" v="asphalt"/>
    <tag k="width" v="8"/>
  </way>
  <way id="4712007" version="29" timestamp="2025-04-13T21:48:51Z" changeset="164913850" uid="4018695" user="游뻟릖 Roman Horn칤k">
    <nd ref="6410399288"/>
    <nd ref="2327395143"/>
    <nd ref="12753114698"/>
    <nd ref="1448033621"/>
    <nd ref="12753114697"/>
    <nd ref="1448033575"/>
    <tag k="cycleway:right" v="shared_lane"/>
    <tag k="highway" v="secondary"/>
    <tag k="name" v="Podbabsk치"/>
    <tag k="name:de" v="Podbaber Stra른"/>
    <tag k="oneway" v="yes"/>
    <tag k="ref" v="242"/>
    <tag k="surface" v="asphalt"/>
  </way>
  <way id="4712009" version="8" timestamp="2023-11-11T12:03:38Z" changeset="143894958" uid="14156986" user="LVydra">
    <nd ref="28023929"/>
    <nd ref="28023945"/>
    <tag k="created_by" v="JOSM"/>
    <tag k="highway" v="residential"/>
    <tag k="lane_markings" v="no"/>
    <tag k="maxspeed:type" v="CZ:urban"/>
    <tag k="name" v="U nov칠ho suchdola"/>
    <tag k="source:width" v="ARCore"/>
    <tag k="surface" v="asphalt"/>
    <tag k="width" v="4.9"/>
  </way>
  <way id="4712013" version="11" timestamp="2023-11-11T11:22:12Z" changeset="143894958" uid="14156986" user="LVydra">
    <nd ref="28023887"/>
    <nd ref="28023895"/>
    <tag k="highway" v="residential"/>
    <tag k="lit" v="yes"/>
    <tag k="maxspeed" v="30"/>
    <tag k="maxspeed:type" v="CZ:zone30"/>
    <tag k="name" v="Na Pasece"/>
    <tag k="sidewalk" v="right"/>
    <tag k="surface" v="asphalt"/>
    <tag k="width" v="6"/>
  </way>
  <way id="4820032" version="18" timestamp="2022-07-06T15:58:17Z" changeset="123284055" uid="15662873" user="maspav">
    <nd ref="30558019"/>
    <nd ref="740355165"/>
    <nd ref="9870624972"/>
    <nd ref="358500556"/>
    <tag k="highway" v="residential"/>
    <tag k="maxspeed" v="30"/>
    <tag k="maxspeed:type" v="CZ:zone30"/>
    <tag k="name" v="S칤dli코tn칤"/>
    <tag k="surface" v="asphalt"/>
  </way>
  <way id="4820040" version="11" timestamp="2023-11-11T12:04:03Z" changeset="143894958" uid="14156986" user="LVydra">
    <nd ref="28023912"/>
    <nd ref="28023929"/>
    <nd ref="125796290"/>
    <nd ref="8308322626"/>
    <nd ref="28023903"/>
    <tag k="highway" v="residential"/>
    <tag k="lane_markings" v="no"/>
    <tag k="maxspeed:type" v="CZ:urban"/>
    <tag k="name" v="U Nov칠ho Suchdola"/>
    <tag k="source:name" v="nameit/uir-adr"/>
    <tag k="source:width" v="ARCore"/>
    <tag k="surface" v="asphalt"/>
    <tag k="width" v="5"/>
  </way>
  <way id="4902611" version="24" timestamp="2020-04-22T09:05:56Z" changeset="83928261" uid="6588887" user="Martin2035">
    <nd ref="268807735"/>
    <nd ref="28028400"/>
    <nd ref="1228912582"/>
    <tag k="busway:right" v="lane"/>
    <tag k="cycleway:right" v="share_busway"/>
    <tag k="highway" v="secondary"/>
    <tag k="lanes" v="2"/>
    <tag k="lit" v="yes"/>
    <tag k="name" v="Kam칳ck치"/>
    <tag k="ref" v="241"/>
    <tag k="surface" v="asphalt"/>
  </way>
  <way id="13655455" version="13" timestamp="2025-04-13T21:48:51Z" changeset="164913850" uid="4018695" user="游뻟릖 Roman Horn칤k">
    <nd ref="30558021"/>
    <nd ref="125787800"/>
    <nd ref="125787804"/>
    <nd ref="125787809"/>
    <nd ref="740355193"/>
    <nd ref="125787776"/>
    <nd ref="12753119423"/>
    <tag k="highway" v="residential"/>
    <tag k="lane_markings" v="no"/>
    <tag k="maxspeed:type" v="CZ:urban"/>
    <tag k="name" v="Gagarinova"/>
    <tag k="source:name" v="nameit/uir-adr"/>
    <tag k="surface" v="asphalt"/>
    <tag k="width" v="8.5"/>
  </way>
  <way id="13655630" version="12" timestamp="2023-11-11T12:11:57Z" changeset="143894958" uid="14156986" user="LVydra">
    <nd ref="125789471"/>
    <nd ref="30558022"/>
    <tag k="highway" v="residential"/>
    <tag k="lane_markings" v="no"/>
    <tag k="maxspeed:type" v="CZ:urban"/>
    <tag k="name" v="U Vi코켿ovky"/>
    <tag k="source:name" v="nameit/uir-adr"/>
    <tag k="surface" v="asphalt"/>
    <tag k="width" v="5"/>
  </way>
  <way id="13655631" version="11" timestamp="2023-11-11T12:11:34Z" changeset="143896832" uid="14156986" user="LVydra">
    <nd ref="125793951"/>
    <nd ref="740355155"/>
    <nd ref="125787804"/>
    <nd ref="125793969"/>
    <nd ref="125796303"/>
    <nd ref="1620806621"/>
    <nd ref="125789475"/>
    <tag k="highway" v="residential"/>
    <tag k="maxspeed:type" v="CZ:urban"/>
    <tag k="name" v="Budy켿sk치"/>
    <tag k="source:name" v="nameit/uir-adr"/>
  </way>
  <way id="13656133" version="12" timestamp="2023-11-12T15:18:06Z" changeset="143937482" uid="14156986" user="LVydra">
    <nd ref="125789475"/>
    <nd ref="8308322627"/>
    <nd ref="28023903"/>
    <tag k="highway" v="residential"/>
    <tag k="lit" v="yes"/>
    <tag k="maxspeed" v="30"/>
    <tag k="maxspeed:type" v="CZ:zone30"/>
    <tag k="name" v="U Nov칠ho Suchdola"/>
    <tag k="sidewalk" v="both"/>
    <tag k="source:name" v="nameit/uir-adr"/>
    <tag k="source:width" v="ARCore"/>
    <tag k="surface" v="asphalt"/>
    <tag k="width" v="6.5"/>
  </way>
  <way id="13656402" version="13" timestamp="2023-12-06T12:14:21Z" changeset="144826439" uid="9026132" user="PulisakZ">
    <nd ref="125796294"/>
    <nd ref="760002066"/>
    <nd ref="125796291"/>
    <nd ref="125796290"/>
    <tag k="highway" v="residential"/>
    <tag k="lane_markings" v="no"/>
    <tag k="maxspeed:type" v="CZ:urban"/>
    <tag k="name" v="P콏i hranici"/>
    <tag k="oneway" v="yes"/>
    <tag k="source:name" v="nameit/uir-adr"/>
    <tag k="source:width" v="ARCore"/>
    <tag k="surface" v="asphalt"/>
    <tag k="width" v="3.4"/>
  </way>
  <way id="13658318" version="12" timestamp="2023-11-11T12:22:51Z" changeset="143894751" uid="14156986" user="LVydra">
    <nd ref="30558019"/>
    <nd ref="1306860206"/>
    <tag k="highway" v="tertiary"/>
    <tag k="lanes" v="2"/>
    <tag k="maxspeed" v="30"/>
    <tag k="maxspeed:type" v="sign"/>
    <tag k="name" v="Suchdolsk치"/>
    <tag k="surface" v="asphalt"/>
  </way>
  <way id="22758746" version="5" timestamp="2019-05-25T19:20:52Z" changeset="70617731" uid="2087700" user="NESClUS">
    <nd ref="244252492"/>
    <nd ref="740355162"/>
    <nd ref="244252493"/>
    <tag k="highway" v="residential"/>
    <tag k="name" v="Kam칳ck치"/>
    <tag k="source:name" v="nameit/uir-adr"/>
    <tag k="surface" v="asphalt"/>
  </way>
  <way id="22758747" version="11" timestamp="2025-04-13T21:48:51Z" changeset="164913850" uid="4018695" user="游뻟릖 Roman Horn칤k">
    <nd ref="244252493"/>
    <nd ref="244252494"/>
    <nd ref="244252496"/>
    <nd ref="1168073746"/>
    <nd ref="740355194"/>
    <nd ref="244252495"/>
    <tag k="highway" v="residential"/>
    <tag k="name" v="Ke Kladiv콢m"/>
    <tag k="source:name" v="nameit/uir-adr"/>
    <tag k="surface" v="asphalt"/>
  </way>
  <way id="22896472" version="14" timestamp="2023-11-11T12:08:02Z" changeset="143894751" uid="14156986" user="LVydra">
    <nd ref="125789475"/>
    <nd ref="1620457748"/>
    <nd ref="125796294"/>
    <nd ref="125789480"/>
    <nd ref="2938828243"/>
    <nd ref="740355209"/>
    <nd ref="125787796"/>
    <tag k="highway" v="tertiary"/>
    <tag k="lane_markings" v="no"/>
    <tag k="lit" v="yes"/>
    <tag k="maxspeed:type" v="CZ:urban"/>
    <tag k="name" v="Suchdolsk치"/>
    <tag k="surface" v="asphalt"/>
  </way>
  <way id="24599294" version="13" timestamp="2023-04-10T13:50:02Z" changeset="134731681" uid="6588887" user="Martin2035">
    <nd ref="267409685"/>
    <nd ref="1228912646"/>
    <nd ref="267409690"/>
    <nd ref="267409691"/>
    <tag k="highway" v="residential"/>
    <tag k="lit" v="yes"/>
    <tag k="maxspeed" v="30"/>
    <tag k="maxspeed:type" v="CZ:zone30"/>
    <tag k="maxweight:3.5" v="destination"/>
    <tag k="name" v="V Sedlci"/>
    <tag k="oneway" v="yes"/>
    <tag k="source:name" v="nameit/uir-adr"/>
    <tag k="surface" v="asphalt"/>
    <tag k="zone:maxspeed" v="30"/>
  </way>
  <way id="24732367" version="12" timestamp="2020-04-22T09:05:56Z" changeset="83928261" uid="6588887" user="Martin2035">
    <nd ref="268807734"/>
    <nd ref="28028359"/>
    <nd ref="7433021076"/>
    <tag k="cycleway:left" v="shared_lane"/>
    <tag k="cycleway:right" v="soft_lane"/>
    <tag k="highway" v="secondary"/>
    <tag k="lanes" v="2"/>
    <tag k="lit" v="yes"/>
    <tag k="maxspeed:type" v="CZ:urban"/>
    <tag k="name" v="Kam칳ck치"/>
    <tag k="ref" v="241"/>
    <tag k="surface" v="asphalt"/>
  </way>
  <way id="24732368" version="8" timestamp="2020-04-22T09:05:56Z" changeset="83928261" uid="6588887" user="Martin2035">
    <nd ref="268807735"/>
    <nd ref="1095581222"/>
    <nd ref="1095581308"/>
    <nd ref="268807734"/>
    <tag k="bridge" v="yes"/>
    <tag k="highway" v="secondary"/>
    <tag k="lanes" v="2"/>
    <tag k="layer" v="1"/>
    <tag k="lit" v="yes"/>
    <tag k="maxspeed:type" v="CZ:urban"/>
    <tag k="name" v="Kam칳ck치"/>
    <tag k="ref" v="241"/>
    <tag k="surface" v="asphalt"/>
  </way>
  <way id="24732479" version="17" timestamp="2023-12-25T14:58:58Z" changeset="145500938" uid="20684368" user="JHocek">
    <nd ref="267409693"/>
    <nd ref="2081346988"/>
    <nd ref="268808687"/>
    <nd ref="268808686"/>
    <nd ref="268808685"/>
    <nd ref="268808684"/>
    <nd ref="268808683"/>
    <tag k="highway" v="residential"/>
    <tag k="lit" v="yes"/>
    <tag k="maxspeed" v="30"/>
    <tag k="maxspeed:type" v="CZ:zone30"/>
    <tag k="maxweight:3.5" v="destination"/>
    <tag k="name" v="V Sedlci"/>
    <tag k="oneway" v="yes"/>
    <tag k="surface" v="asphalt"/>
    <tag k="zone:maxspeed" v="30"/>
  </way>
  <way id="24732563" version="13" timestamp="2021-01-10T10:27:57Z" changeset="97241529" uid="1189910" user="Milancer">
    <nd ref="2686799608"/>
    <nd ref="2686799558"/>
    <nd ref="2686799554"/>
    <nd ref="8308254891"/>
    <nd ref="2686799510"/>
    <nd ref="2686828603"/>
    <nd ref="268809251"/>
    <nd ref="268809252"/>
    <nd ref="268809253"/>
    <nd ref="268809255"/>
    <nd ref="268809257"/>
    <nd ref="1168073741"/>
    <nd ref="268809259"/>
    <nd ref="3127426380"/>
    <nd ref="268809262"/>
    <nd ref="268809264"/>
    <tag k="highway" v="residential"/>
    <tag k="name" v="KVinici"/>
    <tag k="surface" v="asphalt"/>
  </way>
  <way id="30757754" version="17" timestamp="2024-03-22T15:22:08Z" changeset="149018631" uid="100163" user="Hlav">
    <nd ref="30558033"/>
    <nd ref="11753128060"/>
    <nd ref="30558032"/>
    <nd ref="759753276"/>
    <nd ref="9161208390"/>
    <nd ref="759753320"/>
    <nd ref="30558027"/>
    <nd ref="1714944966"/>
    <nd ref="1714944960"/>
    <nd ref="30558026"/>
    <nd ref="30558025"/>
    <nd ref="1620810624"/>
    <nd ref="28023895"/>
    <tag k="hgv" v="no"/>
    <tag k="highway" v="residential"/>
    <tag k="lit" v="no"/>
    <tag k="maxspeed" v="30"/>
    <tag k="maxspeed:type" v="CZ:zone30"/>
    <tag k="name" v="Na Ryb치콏ce"/>
    <tag k="oneway" v="no"/>
    <tag k="sidewalk" v="no"/>
    <tag k="source:width" v="ARCore"/>
    <tag k="surface" v="asphalt"/>
    <tag k="width" v="2.7"/>
  </way>
  <way id="32209031" version="5" timestamp="2019-04-14T19:20:15Z" changeset="69211823" uid="665336" user="Minimalis">
    <nd ref="593249866"/>
    <nd ref="1295555000"/>
    <nd ref="361192375"/>
    <nd ref="361192376"/>
    <nd ref="361192380"/>
    <nd ref="361192384"/>
    <nd ref="1228912644"/>
    <nd ref="1228912522"/>
    <nd ref="361192386"/>
    <tag k="highway" v="residential"/>
    <tag k="name" v="U St치tn칤 dr치hy"/>
    <tag k="official_name" v="U st치tn칤 dr치hy"/>
    <tag k="ref:ruian:street" v="474941"/>
    <tag k="source" v="cuzk:km;uhul:ortofoto"/>
  </way>
  <way id="32209032" version="3" timestamp="2019-04-14T19:20:15Z" changeset="69211823" uid="665336" user="Minimalis">
    <nd ref="361192388"/>
    <nd ref="361192386"/>
    <nd ref="361192389"/>
    <nd ref="361192391"/>
    <tag k="highway" v="residential"/>
    <tag k="name" v="U Sedleck칠 코koly"/>
    <tag k="official_name" v="U sedleck칠 코koly"/>
    <tag k="ref:ruian:street" v="474622"/>
    <tag k="source" v="cuzk:km;uhul:ortofoto"/>
  </way>
  <way id="32209034" version="4" timestamp="2012-12-24T20:53:10Z" changeset="14394984" uid="17615" user="Petr Dlouh칳">
    <nd ref="268808501"/>
    <nd ref="1294904680"/>
    <nd ref="361192404"/>
    <nd ref="2081543342"/>
    <nd ref="2081543345"/>
    <nd ref="361192420"/>
    <nd ref="361192406"/>
    <nd ref="2081543349"/>
    <nd ref="2081346974"/>
    <nd ref="2081543353"/>
    <nd ref="2081346976"/>
    <nd ref="361192407"/>
    <tag k="highway" v="residential"/>
    <tag k="name" v="P콏eru코en치"/>
    <tag k="source" v="cuzk:km;uhul:ortofoto"/>
  </way>
  <way id="32209036" version="6" timestamp="2023-01-26T10:15:48Z" changeset="131726598" uid="527259" user="Vratislav Filler">
    <nd ref="2081346945"/>
    <nd ref="1095581380"/>
    <nd ref="1095581172"/>
    <nd ref="268808502"/>
    <tag k="highway" v="residential"/>
    <tag k="maxspeed" v="30"/>
    <tag k="name" v="V Sedlci"/>
    <tag k="surface" v="asphalt"/>
    <tag k="width" v="6"/>
  </way>
  <way id="32209037" version="7" timestamp="2022-02-13T15:01:02Z" changeset="117357463" uid="3516" user="BiIbo">
    <nd ref="28026684"/>
    <nd ref="28026848"/>
    <nd ref="361192430"/>
    <nd ref="28026942"/>
    <nd ref="2686828614"/>
    <nd ref="28027073"/>
    <tag k="highway" v="residential"/>
    <tag k="name" v="Ke St콏elnici"/>
    <tag k="sidewalk" v="no"/>
    <tag k="surface" v="asphalt"/>
  </way>
  <way id="32398153" version="10" timestamp="2024-03-22T14:37:20Z" changeset="149016727" uid="100163" user="Hlav">
    <nd ref="364479843"/>
    <nd ref="11753095155"/>
    <nd ref="1306860064"/>
    <nd ref="364479842"/>
    <tag k="highway" v="residential"/>
    <tag k="lit" v="yes"/>
    <tag k="maxweight:3.5" v="destination"/>
    <tag k="name" v="V Rokli"/>
    <tag k="oneway" v="yes"/>
    <tag k="surface" v="asphalt"/>
    <tag k="zone:maxspeed" v="30"/>
  </way>
  <way id="32398157" version="6" timestamp="2023-04-10T13:50:02Z" changeset="134731681" uid="6588887" user="Martin2035">
    <nd ref="364479867"/>
    <nd ref="759930805"/>
    <nd ref="364479868"/>
    <nd ref="268808683"/>
    <tag k="highway" v="residential"/>
    <tag k="lit" v="yes"/>
    <tag k="maxspeed" v="30"/>
    <tag k="maxspeed:type" v="CZ:zone30"/>
    <tag k="maxweight" v="3.5"/>
    <tag k="name" v="U Rychty"/>
    <tag k="surface" v="concrete"/>
    <tag k="zone:maxspeed" v="30"/>
  </way>
  <way id="32398161" version="11" timestamp="2023-11-11T11:10:38Z" changeset="143894958" uid="14156986" user="LVydra">
    <nd ref="125787825"/>
    <nd ref="30558021"/>
    <nd ref="125787832"/>
    <tag k="cycleway:both" v="no"/>
    <tag k="highway" v="tertiary"/>
    <tag k="lane_markings" v="no"/>
    <tag k="maxspeed" v="30"/>
    <tag k="maxspeed:type" v="sign"/>
    <tag k="name" v="Suchdolsk치"/>
    <tag k="source:width" v="ARCore"/>
    <tag k="surface" v="asphalt"/>
    <tag k="width" v="7"/>
  </way>
  <way id="32398163" version="9" timestamp="2023-04-10T13:50:02Z" changeset="134731681" uid="6588887" user="Martin2035">
    <nd ref="267409693"/>
    <nd ref="268808491"/>
    <nd ref="1228912589"/>
    <nd ref="268808492"/>
    <nd ref="2283627786"/>
    <nd ref="268808493"/>
    <nd ref="2081346981"/>
    <nd ref="268808494"/>
    <nd ref="268808495"/>
    <nd ref="268808496"/>
    <nd ref="268808497"/>
    <nd ref="364479839"/>
    <tag k="highway" v="residential"/>
    <tag k="maxspeed" v="30"/>
    <tag k="maxspeed:type" v="CZ:zone30"/>
    <tag k="maxweight:3.5" v="destination"/>
    <tag k="name" v="V Sedlci"/>
    <tag k="zone:maxspeed" v="30"/>
  </way>
  <way id="32398165" version="13" timestamp="2025-04-13T21:48:51Z" changeset="164913850" uid="4018695" user="游뻟릖 Roman Horn칤k">
    <nd ref="28028162"/>
    <nd ref="1095581369"/>
    <nd ref="1095581303"/>
    <nd ref="12753119421"/>
    <nd ref="28026582"/>
    <nd ref="28026657"/>
    <nd ref="1228912541"/>
    <nd ref="28026517"/>
    <nd ref="361192425"/>
    <nd ref="28026359"/>
    <nd ref="7433021080"/>
    <nd ref="361192423"/>
    <nd ref="28026293"/>
    <nd ref="28026199"/>
    <nd ref="2686799608"/>
    <nd ref="244252492"/>
    <nd ref="30558018"/>
    <nd ref="7433021078"/>
    <tag k="busway:left" v="lane"/>
    <tag k="cycleway:left" v="share_busway"/>
    <tag k="cycleway:right" v="soft_lane"/>
    <tag k="highway" v="secondary"/>
    <tag k="lanes" v="3"/>
    <tag k="lit" v="yes"/>
    <tag k="maxspeed" v="50"/>
    <tag k="maxspeed:type" v="sign"/>
    <tag k="name" v="Kam칳ck치"/>
    <tag k="ref" v="241"/>
    <tag k="surface" v="asphalt"/>
  </way>
  <way id="34109900" version="2" timestamp="2011-04-02T06:53:26Z" changeset="7741383" uid="17615" user="Petr Dlouh칳">
    <nd ref="361192394"/>
    <nd ref="361192395"/>
    <nd ref="361192396"/>
    <nd ref="361192397"/>
    <nd ref="1228912688"/>
    <nd ref="1228912626"/>
    <nd ref="1228912578"/>
    <nd ref="1228912631"/>
    <nd ref="361192400"/>
    <tag k="highway" v="residential"/>
    <tag k="name" v="P콏eru코en치"/>
    <tag k="source" v="cuzk:km;uhul:ortofoto"/>
  </way>
  <way id="34179323" version="10" timestamp="2017-06-27T14:42:24Z" changeset="49864249" uid="255936" user="NyanSten">
    <nd ref="392049417"/>
    <nd ref="1225818563"/>
    <nd ref="1225818566"/>
    <nd ref="361192391"/>
    <nd ref="4807105700"/>
    <nd ref="28028596"/>
    <nd ref="2081346966"/>
    <nd ref="76057589"/>
    <nd ref="30558389"/>
    <nd ref="361192400"/>
    <nd ref="1228912693"/>
    <nd ref="30558387"/>
    <nd ref="392049425"/>
    <nd ref="1752630748"/>
    <nd ref="2081346984"/>
    <nd ref="30558386"/>
    <nd ref="1752630747"/>
    <nd ref="30558385"/>
    <nd ref="267409687"/>
    <nd ref="267409686"/>
    <nd ref="2081346987"/>
    <nd ref="1228912610"/>
    <tag k="highway" v="secondary"/>
    <tag k="name" v="Roztock치"/>
    <tag k="name:de" v="Rostoker Stra른"/>
    <tag k="ref" v="242"/>
  </way>
  <way id="34179324" version="12" timestamp="2018-06-03T11:52:29Z" changeset="59506328" uid="96441" user="Yupa">
    <nd ref="364479842"/>
    <nd ref="2081347008"/>
    <nd ref="267409689"/>
    <tag k="highway" v="secondary"/>
    <tag k="lit" v="yes"/>
    <tag k="name" v="Roztock치"/>
    <tag k="name:de" v="Rostoker Stra른"/>
    <tag k="ref" v="242"/>
    <tag k="source:maxspeed" v="CZ:urban"/>
    <tag k="surface" v="asphalt"/>
  </way>
  <way id="60687142" version="13" timestamp="2024-03-06T21:28:34Z" changeset="148316312" uid="9291527" user="marekhrabe">
    <nd ref="28023960"/>
    <nd ref="1621255899"/>
    <nd ref="759753349"/>
    <nd ref="759753274"/>
    <nd ref="759753313"/>
    <nd ref="759753335"/>
    <nd ref="759753301"/>
    <nd ref="759753316"/>
    <tag k="highway" v="residential"/>
    <tag k="lane_markings" v="no"/>
    <tag k="maxspeed:type" v="CZ:urban"/>
    <tag k="name" v="Za h콏i코t캩m"/>
    <tag k="oneway" v="no"/>
    <tag k="source" v="uhul:ortofoto"/>
    <tag k="source:width" v="ARCore"/>
    <tag k="surface" v="asphalt"/>
    <tag k="width" v="3.8"/>
  </way>
  <way id="60687390" version="4" timestamp="2021-10-22T17:32:59Z" changeset="112849228" uid="10932047" user="AF HAF KARTOGRAF">
    <nd ref="759757625"/>
    <nd ref="759757954"/>
    <nd ref="759757861"/>
    <nd ref="759757830"/>
    <nd ref="759757737"/>
    <nd ref="759757930"/>
    <nd ref="759757828"/>
    <nd ref="759757799"/>
    <nd ref="759757760"/>
    <nd ref="6004520486"/>
    <nd ref="6004520485"/>
    <nd ref="6004518784"/>
    <nd ref="6004518783"/>
    <nd ref="6004518782"/>
    <nd ref="6004518781"/>
    <nd ref="6004518780"/>
    <nd ref="6004518779"/>
    <nd ref="6004518778"/>
    <nd ref="6004518777"/>
    <nd ref="6004518776"/>
    <nd ref="6004518775"/>
    <nd ref="6004518774"/>
    <nd ref="6004518773"/>
    <nd ref="6004518772"/>
    <nd ref="6004518771"/>
    <nd ref="759757708"/>
    <nd ref="759757591"/>
    <nd ref="759757742"/>
    <nd ref="759757604"/>
    <nd ref="759757587"/>
    <nd ref="759757892"/>
    <nd ref="3799471582"/>
    <nd ref="3799471581"/>
    <nd ref="3799471583"/>
    <nd ref="759757627"/>
    <nd ref="3799471584"/>
    <nd ref="3799471585"/>
    <nd ref="3799471586"/>
    <nd ref="759757931"/>
    <nd ref="3799471587"/>
    <nd ref="3799471588"/>
    <nd ref="3799471589"/>
    <nd ref="3799471590"/>
    <nd ref="3799471591"/>
    <nd ref="759757913"/>
    <nd ref="3799471592"/>
    <nd ref="3799471593"/>
    <nd ref="759757801"/>
    <nd ref="759757625"/>
    <tag k="amenity" v="social_facility"/>
    <tag k="building" v="yes"/>
    <tag k="building:ruian:type" v="19"/>
    <tag k="name" v="Speci치ln칤 domov pro ment치ln캩 posti쬰nou ml치de"/>
    <tag k="ref:ruian:building" v="22124713"/>
    <tag k="social_facility:for" v="mental_health"/>
    <tag k="source" v="cuzk:ruian"/>
  </way>
  <way id="60687392" version="5" timestamp="2018-03-05T09:13:48Z" changeset="56895515" uid="2169558" user="JandaM">
    <nd ref="759757937"/>
    <nd ref="759757867"/>
    <nd ref="759757718"/>
    <nd ref="759757921"/>
    <nd ref="759757810"/>
    <nd ref="3799471576"/>
    <nd ref="3799471575"/>
    <nd ref="3799471574"/>
    <nd ref="3799471573"/>
    <nd ref="3799471572"/>
    <nd ref="759757772"/>
    <nd ref="3799471571"/>
    <nd ref="3799471570"/>
    <nd ref="3799471568"/>
    <nd ref="759757613"/>
    <nd ref="759757807"/>
    <nd ref="759757633"/>
    <nd ref="759757609"/>
    <nd ref="759757917"/>
    <nd ref="759757658"/>
    <nd ref="759757957"/>
    <nd ref="759757937"/>
    <tag k="addr:housenumber" v="54/4"/>
    <tag k="addr:postcode" v="160 00"/>
    <tag k="addr:street" v="U Sedleck칠 코koly"/>
    <tag k="amenity" v="school"/>
    <tag k="building" v="yes"/>
    <tag k="building:levels" v="3"/>
    <tag k="building:ruian:type" v="19"/>
    <tag k="name" v="Riverside Primary School"/>
    <tag k="ref:ruian:building" v="22124918"/>
    <tag k="source" v="cuzk:ruian"/>
  </way>
  <way id="94255136" version="11" timestamp="2024-09-28T05:02:57Z" changeset="157194700" uid="17385839" user="Augustlej">
    <nd ref="9097001135"/>
    <nd ref="28028567"/>
    <nd ref="1225818568"/>
    <nd ref="1225818553"/>
    <nd ref="392049417"/>
    <tag k="highway" v="secondary"/>
    <tag k="lanes" v="2"/>
    <tag k="lit" v="yes"/>
    <tag k="name" v="Roztock치"/>
    <tag k="name:de" v="Rostoker Stra른"/>
    <tag k="ref" v="242"/>
    <tag k="sidewalk:both" v="separate"/>
  </way>
  <way id="94255137" version="1" timestamp="2011-01-10T00:02:38Z" changeset="6922274" uid="248441" user="Jandrs">
    <nd ref="1095581313"/>
    <nd ref="1095581343"/>
    <nd ref="1095581369"/>
    <tag k="highway" v="residential"/>
    <tag k="oneway" v="yes"/>
  </way>
  <way id="94255138" version="1" timestamp="2011-01-10T00:02:38Z" changeset="6922274" uid="248441" user="Jandrs">
    <nd ref="28028162"/>
    <nd ref="1095581364"/>
    <nd ref="1095581244"/>
    <nd ref="268808502"/>
    <tag k="highway" v="residential"/>
    <tag k="maxspeed" v="30"/>
    <tag k="name" v="V Sedlci"/>
    <tag k="oneway" v="yes"/>
  </way>
  <way id="94255141" version="1" timestamp="2011-01-10T00:02:38Z" changeset="6922274" uid="248441" user="Jandrs">
    <nd ref="268808502"/>
    <nd ref="1095581137"/>
    <nd ref="1095581313"/>
    <nd ref="1095581225"/>
    <nd ref="1095581129"/>
    <nd ref="1095581303"/>
    <tag k="highway" v="residential"/>
    <tag k="oneway" v="yes"/>
  </way>
  <way id="94255142" version="1" timestamp="2011-01-10T00:02:39Z" changeset="6922274" uid="248441" user="Jandrs">
    <nd ref="1095581369"/>
    <nd ref="1095581191"/>
    <nd ref="1095581265"/>
    <nd ref="1095581244"/>
    <tag k="highway" v="residential"/>
    <tag k="oneway" v="yes"/>
  </way>
  <way id="94255143" version="9" timestamp="2025-04-13T21:48:51Z" changeset="164913850" uid="4018695" user="游뻟릖 Roman Horn칤k">
    <nd ref="1095581290"/>
    <nd ref="1095581200"/>
    <nd ref="12753114692"/>
    <nd ref="1448033647"/>
    <nd ref="12753114691"/>
    <nd ref="1448033610"/>
    <tag k="highway" v="secondary"/>
    <tag k="lanes" v="1"/>
    <tag k="name" v="Roztock치"/>
    <tag k="name:de" v="Rostoker Stra른"/>
    <tag k="oneway" v="yes"/>
    <tag k="sidewalk:right" v="separate"/>
    <tag k="surface" v="asphalt"/>
  </way>
  <way id="103776009" version="10" timestamp="2024-09-28T05:04:00Z" changeset="157194696" uid="17385839" user="Augustlej">
    <nd ref="30558380"/>
    <nd ref="1756336780"/>
    <tag k="cycleway:both" v="no"/>
    <tag k="highway" v="secondary"/>
    <tag k="lanes" v="2"/>
    <tag k="ref" v="242"/>
    <tag k="smoothness" v="good"/>
    <tag k="source:maxspeed" v="CZ:rural"/>
    <tag k="surface" v="asphalt"/>
  </way>
  <way id="114943659" version="8" timestamp="2025-03-01T13:41:02Z" changeset="163088625" uid="22520662" user="JJa42">
    <nd ref="244252284"/>
    <nd ref="12628413441"/>
    <nd ref="28023887"/>
    <tag k="highway" v="residential"/>
    <tag k="lit" v="yes"/>
    <tag k="maxspeed" v="30"/>
    <tag k="maxspeed:type" v="CZ:zone30"/>
    <tag k="name" v="KDrsnici"/>
    <tag k="sidewalk" v="no"/>
    <tag k="source:name" v="nameit/uir-adr"/>
    <tag k="source:width" v="ARCore"/>
    <tag k="surface" v="asphalt"/>
    <tag k="width" v="11.8"/>
  </way>
  <way id="115744293" version="7" timestamp="2024-09-28T05:02:09Z" changeset="157194465" uid="17385839" user="Augustlej">
    <nd ref="361192360"/>
    <nd ref="1169055079"/>
    <nd ref="76062193"/>
    <tag k="cycleway:right" v="shared_lane"/>
    <tag k="highway" v="secondary"/>
    <tag k="lanes" v="4"/>
    <tag k="lit" v="yes"/>
    <tag k="maxspeed" v="70"/>
    <tag k="name" v="Podbabsk치"/>
    <tag k="name:de" v="Podbaber Stra른"/>
    <tag k="ref" v="241"/>
    <tag k="sidewalk:both" v="separate"/>
    <tag k="surface" v="asphalt"/>
    <tag k="turn:lanes:forward" v="through|through;right"/>
  </way>
  <way id="115744296" version="6" timestamp="2024-12-19T15:58:28Z" changeset="160400789" uid="8971394" user="vojtechzaboril">
    <nd ref="25951080"/>
    <nd ref="1306835570"/>
    <nd ref="181730371"/>
    <nd ref="1307117565"/>
    <nd ref="1169059351"/>
    <nd ref="181730373"/>
    <tag k="highway" v="tertiary"/>
    <tag k="lanes" v="1"/>
    <tag k="maxheight" v="2.9"/>
    <tag k="name" v="V Podbab캩"/>
    <tag k="oneway" v="yes"/>
    <tag k="surface" v="asphalt"/>
  </way>
  <way id="115744305" version="9" timestamp="2024-08-12T16:53:53Z" changeset="155158861" uid="700277" user="TeX232">
    <nd ref="76062193"/>
    <nd ref="25951080"/>
    <tag k="cycleway:right" v="shared_lane"/>
    <tag k="highway" v="secondary"/>
    <tag k="lanes" v="4"/>
    <tag k="lit" v="yes"/>
    <tag k="maxspeed" v="50"/>
    <tag k="name" v="Podbabsk치"/>
    <tag k="name:de" v="Podbaber Stra른"/>
    <tag k="ref" v="241"/>
    <tag k="sidewalk" v="separate"/>
    <tag k="surface" v="asphalt"/>
    <tag k="turn:lanes:forward" v="through|through;right"/>
  </way>
  <way id="115750293" version="3" timestamp="2020-04-22T09:05:56Z" changeset="83928261" uid="6588887" user="Martin2035">
    <nd ref="1306860246"/>
    <nd ref="1306860078"/>
    <tag k="highway" v="residential"/>
    <tag k="source" v="bing:ortofoto"/>
  </way>
  <way id="128914707" version="6" timestamp="2023-11-11T12:17:11Z" changeset="143894958" uid="14156986" user="LVydra">
    <nd ref="125787829"/>
    <nd ref="125787832"/>
    <tag k="highway" v="residential"/>
    <tag k="lit" v="yes"/>
    <tag k="maxspeed" v="30"/>
    <tag k="maxspeed:type" v="CZ:zone30"/>
    <tag k="name" v="Na Ryb치콏ce"/>
    <tag k="sidewalk" v="right"/>
    <tag k="source:width" v="ARCore"/>
    <tag k="surface" v="asphalt"/>
    <tag k="width" v="8.5"/>
  </way>
  <way id="128914710" version="5" timestamp="2018-06-03T14:51:41Z" changeset="59510888" uid="96441" user="Yupa">
    <nd ref="1228912610"/>
    <nd ref="267409685"/>
    <tag k="highway" v="secondary"/>
    <tag k="maxspeed" v="30"/>
    <tag k="maxspeed:type" v="sign"/>
    <tag k="name" v="Roztock치"/>
    <tag k="name:de" v="Rostoker Stra른"/>
    <tag k="ref" v="242"/>
    <tag k="surface" v="asphalt"/>
  </way>
  <way id="128914711" version="7" timestamp="2018-06-03T14:51:04Z" changeset="59510236" uid="96441" user="Yupa">
    <nd ref="267409685"/>
    <nd ref="30558384"/>
    <nd ref="267409688"/>
    <nd ref="267409689"/>
    <tag k="highway" v="secondary"/>
    <tag k="lit" v="yes"/>
    <tag k="maxspeed:type" v="CZ:urban"/>
    <tag k="name" v="Roztock치"/>
    <tag k="name:de" v="Rostoker Stra른"/>
    <tag k="ref" v="242"/>
    <tag k="surface" v="asphalt"/>
  </way>
  <way id="128914714" version="4" timestamp="2023-04-10T13:50:02Z" changeset="134731681" uid="6588887" user="Martin2035">
    <nd ref="364479839"/>
    <nd ref="268808498"/>
    <nd ref="268808499"/>
    <nd ref="268808500"/>
    <nd ref="268808501"/>
    <tag k="highway" v="residential"/>
    <tag k="maxspeed" v="30"/>
    <tag k="maxspeed:type" v="CZ:zone30"/>
    <tag k="maxweight:3.5" v="destination"/>
    <tag k="name" v="V Sedlci"/>
    <tag k="zone:maxspeed" v="30"/>
  </way>
  <way id="128914722" version="6" timestamp="2023-11-11T11:05:43Z" changeset="143894751" uid="14156986" user="LVydra">
    <nd ref="1306860206"/>
    <nd ref="1306860235"/>
    <nd ref="2153330728"/>
    <nd ref="125787825"/>
    <tag k="highway" v="tertiary"/>
    <tag k="lanes" v="2"/>
    <tag k="maxspeed" v="30"/>
    <tag k="maxspeed:type" v="sign"/>
    <tag k="name" v="Suchdolsk치"/>
    <tag k="surface" v="asphalt"/>
  </way>
  <way id="131593000" version="7" timestamp="2025-04-13T21:48:51Z" changeset="164913850" uid="4018695" user="游뻟릖 Roman Horn칤k">
    <nd ref="1448033613"/>
    <nd ref="12753114694"/>
    <nd ref="6410398855"/>
    <nd ref="12753114695"/>
    <nd ref="6410398854"/>
    <nd ref="1095581290"/>
    <tag k="highway" v="secondary"/>
    <tag k="lanes" v="1"/>
    <tag k="name" v="Roztock치"/>
    <tag k="name:de" v="Rostoker Stra른"/>
    <tag k="oneway" v="yes"/>
    <tag k="surface" v="asphalt"/>
  </way>
  <way id="131593003" version="7" timestamp="2021-09-16T07:50:15Z" changeset="111276875" uid="8971394" user="vojtechzaboril">
    <nd ref="6410399289"/>
    <nd ref="1095581377"/>
    <nd ref="593249865"/>
    <nd ref="1095581203"/>
    <nd ref="28028477"/>
    <nd ref="740360862"/>
    <nd ref="76057591"/>
    <nd ref="1095581329"/>
    <nd ref="9097001130"/>
    <nd ref="9097001131"/>
    <nd ref="392049416"/>
    <tag k="highway" v="secondary_link"/>
    <tag k="lanes" v="1"/>
    <tag k="name" v="Roztock치"/>
    <tag k="name:de" v="Rostoker Stra른"/>
    <tag k="oneway" v="yes"/>
    <tag k="ref" v="242"/>
    <tag k="surface" v="asphalt"/>
  </way>
  <way id="131593005" version="6" timestamp="2025-04-13T21:48:51Z" changeset="164913850" uid="4018695" user="游뻟릖 Roman Horn칤k">
    <nd ref="740360863"/>
    <nd ref="76057585"/>
    <nd ref="361192372"/>
    <nd ref="6410398847"/>
    <nd ref="12753119402"/>
    <nd ref="6410398846"/>
    <nd ref="12753114687"/>
    <nd ref="12753119401"/>
    <nd ref="1448033632"/>
    <tag k="highway" v="secondary"/>
    <tag k="lanes" v="1"/>
    <tag k="lit" v="yes"/>
    <tag k="name" v="Kam칳ck치"/>
    <tag k="oneway" v="yes"/>
    <tag k="ref" v="241"/>
    <tag k="surface" v="asphalt"/>
  </way>
  <way id="131593008" version="12" timestamp="2025-04-13T21:48:51Z" changeset="164913850" uid="4018695" user="游뻟릖 Roman Horn칤k">
    <nd ref="740360863"/>
    <nd ref="9097001138"/>
    <nd ref="28028440"/>
    <nd ref="1095581139"/>
    <tag k="highway" v="secondary_link"/>
    <tag k="lanes" v="1"/>
    <tag k="name" v="Podbabsk치"/>
    <tag k="name:de" v="Podbaber Stra른"/>
    <tag k="oneway" v="yes"/>
    <tag k="ref" v="241"/>
    <tag k="sidewalk:right" v="separate"/>
    <tag k="surface" v="asphalt"/>
  </way>
  <way id="131593009" version="8" timestamp="2025-04-13T21:48:51Z" changeset="164913850" uid="4018695" user="游뻟릖 Roman Horn칤k">
    <nd ref="1448033607"/>
    <nd ref="12753114700"/>
    <nd ref="9097001132"/>
    <nd ref="1448033670"/>
    <nd ref="1448033582"/>
    <nd ref="1095581139"/>
    <tag k="highway" v="secondary"/>
    <tag k="lanes" v="1"/>
    <tag k="name" v="Podbabsk치"/>
    <tag k="name:de" v="Podbaber Stra른"/>
    <tag k="oneway" v="yes"/>
    <tag k="ref" v="241"/>
    <tag k="surface" v="asphalt"/>
  </way>
  <way id="131593012" version="8" timestamp="2025-04-13T21:48:51Z" changeset="164913850" uid="4018695" user="游뻟릖 Roman Horn칤k">
    <nd ref="1448033610"/>
    <nd ref="12753114688"/>
    <nd ref="1448033650"/>
    <nd ref="12753119403"/>
    <nd ref="6410399292"/>
    <nd ref="12753119404"/>
    <nd ref="6410399290"/>
    <nd ref="6410399286"/>
    <nd ref="6410399287"/>
    <nd ref="12753119420"/>
    <nd ref="8651385058"/>
    <nd ref="1228912582"/>
    <tag k="highway" v="secondary"/>
    <tag k="lanes" v="1"/>
    <tag k="name" v="Kam칳ck치"/>
    <tag k="oneway" v="yes"/>
    <tag k="ref" v="241"/>
    <tag k="surface" v="asphalt"/>
  </way>
  <way id="131593014" version="6" timestamp="2025-04-13T21:48:51Z" changeset="164913850" uid="4018695" user="游뻟릖 Roman Horn칤k">
    <nd ref="1448033607"/>
    <nd ref="12753119413"/>
    <nd ref="12753114699"/>
    <nd ref="1448033616"/>
    <nd ref="12753119412"/>
    <nd ref="1448033592"/>
    <nd ref="12753119411"/>
    <nd ref="1448033654"/>
    <nd ref="12753114696"/>
    <nd ref="12753119406"/>
    <nd ref="1448033575"/>
    <tag k="highway" v="secondary"/>
    <tag k="junction" v="roundabout"/>
    <tag k="lanes" v="1"/>
    <tag k="maxspeed" v="50"/>
    <tag k="name" v="Kam칳ck치"/>
    <tag k="ref" v="241"/>
    <tag k="surface" v="asphalt"/>
  </way>
  <way id="131593017" version="6" timestamp="2025-04-13T21:48:51Z" changeset="164913850" uid="4018695" user="游뻟릖 Roman Horn칤k">
    <nd ref="1448033610"/>
    <nd ref="12753119416"/>
    <nd ref="12753114689"/>
    <nd ref="1448033664"/>
    <nd ref="12753119414"/>
    <nd ref="1448033686"/>
    <nd ref="12753119417"/>
    <nd ref="12753114686"/>
    <nd ref="12753119405"/>
    <nd ref="1448033632"/>
    <nd ref="12753119415"/>
    <nd ref="1448033607"/>
    <tag k="highway" v="secondary"/>
    <tag k="junction" v="roundabout"/>
    <tag k="lanes" v="1"/>
    <tag k="maxspeed" v="50"/>
    <tag k="name" v="Kam칳ck치"/>
    <tag k="ref" v="241"/>
    <tag k="surface" v="asphalt"/>
  </way>
  <way id="131593018" version="7" timestamp="2025-04-13T21:48:51Z" changeset="164913850" uid="4018695" user="游뻟릖 Roman Horn칤k">
    <nd ref="1448033575"/>
    <nd ref="12753119410"/>
    <nd ref="1448033613"/>
    <nd ref="12753119409"/>
    <nd ref="12753119418"/>
    <nd ref="12753114693"/>
    <nd ref="1448033666"/>
    <nd ref="12753119408"/>
    <nd ref="1448033658"/>
    <nd ref="12753119419"/>
    <nd ref="12753114690"/>
    <nd ref="12753119407"/>
    <nd ref="1448033610"/>
    <tag k="highway" v="secondary"/>
    <tag k="junction" v="roundabout"/>
    <tag k="lanes" v="1"/>
    <tag k="maxspeed" v="50"/>
    <tag k="name" v="Kam칳ck치"/>
    <tag k="ref" v="241"/>
    <tag k="surface" v="asphalt"/>
  </way>
  <way id="133721345" version="8" timestamp="2023-04-10T13:50:02Z" changeset="134731681" uid="6588887" user="Martin2035">
    <nd ref="267409691"/>
    <nd ref="267409695"/>
    <tag k="highway" v="residential"/>
    <tag k="lit" v="yes"/>
    <tag k="maxheight" v="3.0"/>
    <tag k="maxspeed" v="30"/>
    <tag k="maxspeed:type" v="CZ:zone30"/>
    <tag k="maxweight:3.5" v="destination"/>
    <tag k="name" v="V Sedlci"/>
    <tag k="oneway" v="yes"/>
    <tag k="source:name" v="nameit/uir-adr"/>
    <tag k="surface" v="asphalt"/>
    <tag k="zone:maxspeed" v="30"/>
  </way>
  <way id="133721346" version="7" timestamp="2018-06-03T11:50:02Z" changeset="59506328" uid="96441" user="Yupa">
    <nd ref="1471744690"/>
    <nd ref="364479843"/>
    <tag k="highway" v="residential"/>
    <tag k="lit" v="yes"/>
    <tag k="maxheight" v="2.8"/>
    <tag k="maxweight:3.5" v="destination"/>
    <tag k="name" v="V Rokli"/>
    <tag k="oneway" v="yes"/>
    <tag k="surface" v="asphalt"/>
    <tag k="zone:maxspeed" v="30"/>
  </way>
  <way id="133721347" version="7" timestamp="2023-04-10T13:50:02Z" changeset="134731681" uid="6588887" user="Martin2035">
    <nd ref="268808682"/>
    <nd ref="1471744690"/>
    <tag k="highway" v="residential"/>
    <tag k="lit" v="yes"/>
    <tag k="maxspeed" v="30"/>
    <tag k="maxspeed:type" v="CZ:zone30"/>
    <tag k="maxweight:3.5" v="destination"/>
    <tag k="name" v="V Rokli"/>
    <tag k="oneway" v="yes"/>
    <tag k="surface" v="asphalt"/>
    <tag k="zone:maxspeed" v="30"/>
  </way>
  <way id="162096136" version="7" timestamp="2023-04-10T13:50:02Z" changeset="134731681" uid="6588887" user="Martin2035">
    <nd ref="267409695"/>
    <nd ref="267409692"/>
    <nd ref="267409693"/>
    <tag k="highway" v="residential"/>
    <tag k="lit" v="yes"/>
    <tag k="maxspeed" v="30"/>
    <tag k="maxspeed:type" v="CZ:zone30"/>
    <tag k="maxweight" v="3.5"/>
    <tag k="motor_vehicle:conditional" v="destination @ (weight&gt;3.5)"/>
    <tag k="name" v="V Sedlci"/>
    <tag k="oneway" v="yes"/>
    <tag k="source:name" v="nameit/uir-adr"/>
    <tag k="surface" v="asphalt"/>
    <tag k="zone:maxspeed" v="30"/>
  </way>
  <way id="162096137" version="5" timestamp="2023-04-10T13:50:02Z" changeset="134731681" uid="6588887" user="Martin2035">
    <nd ref="268808682"/>
    <nd ref="2081347011"/>
    <nd ref="364479846"/>
    <nd ref="364479848"/>
    <nd ref="364479849"/>
    <tag k="highway" v="residential"/>
    <tag k="lit" v="yes"/>
    <tag k="maxspeed" v="30"/>
    <tag k="maxspeed:type" v="CZ:zone30"/>
    <tag k="maxweight" v="3.5"/>
    <tag k="name" v="V Rokli"/>
    <tag k="surface" v="paving_stones"/>
    <tag k="zone:maxspeed" v="30"/>
  </way>
  <way id="163977832" version="7" timestamp="2024-09-28T05:04:04Z" changeset="157194696" uid="17385839" user="Augustlej">
    <nd ref="1756336780"/>
    <nd ref="30558379"/>
    <nd ref="2192285078"/>
    <nd ref="2192285079"/>
    <nd ref="30558378"/>
    <nd ref="1306860195"/>
    <nd ref="10648836113"/>
    <tag k="cycleway:both" v="no"/>
    <tag k="highway" v="secondary"/>
    <tag k="lanes" v="2"/>
    <tag k="maxspeed" v="30"/>
    <tag k="ref" v="242"/>
    <tag k="smoothness" v="intermediate"/>
    <tag k="surface" v="asphalt"/>
  </way>
  <way id="166638194" version="9" timestamp="2024-12-19T16:39:04Z" changeset="160402333" uid="8971394" user="vojtechzaboril">
    <nd ref="361192370"/>
    <nd ref="76062214"/>
    <nd ref="1306835531"/>
    <nd ref="76062210"/>
    <nd ref="1169055187"/>
    <nd ref="76062205"/>
    <nd ref="76062200"/>
    <nd ref="1169055119"/>
    <nd ref="76062197"/>
    <nd ref="361192360"/>
    <tag k="access:lanes:forward" v="|no"/>
    <tag k="bicycle:lanes" v="|designated"/>
    <tag k="bus:lanes:forward" v="|designated"/>
    <tag k="busway:right" v="lane"/>
    <tag k="cycleway:right" v="share_busway"/>
    <tag k="highway" v="secondary"/>
    <tag k="lanes" v="4"/>
    <tag k="lanes:backward" v="2"/>
    <tag k="lanes:forward" v="2"/>
    <tag k="lit" v="yes"/>
    <tag k="maxspeed" v="70"/>
    <tag k="name" v="Podbabsk치"/>
    <tag k="name:de" v="Podbaber Stra른"/>
    <tag k="placement:forward" v="left_of:1"/>
    <tag k="ref" v="241"/>
    <tag k="sidewalk:both" v="separate"/>
    <tag k="smoothness" v="excellent"/>
    <tag k="surface" v="asphalt"/>
    <tag k="taxi:lanes:forward" v="|designated"/>
  </way>
  <way id="197940468" version="3" timestamp="2023-04-10T13:50:02Z" changeset="134731681" uid="6588887" user="Martin2035">
    <nd ref="2081346957"/>
    <nd ref="2081346962"/>
    <tag k="highway" v="residential"/>
    <tag k="maxspeed" v="30"/>
    <tag k="maxspeed:type" v="CZ:zone30"/>
    <tag k="name" v="Na Svahu"/>
    <tag k="official_name" v="Na svahu"/>
    <tag k="ref:ruian:street" v="459488"/>
    <tag k="zone:maxspeed" v="30"/>
  </way>
  <way id="197940469" version="3" timestamp="2023-04-10T13:50:02Z" changeset="134731681" uid="6588887" user="Martin2035">
    <nd ref="364479835"/>
    <nd ref="364479838"/>
    <nd ref="364479839"/>
    <tag k="highway" v="residential"/>
    <tag k="maxspeed" v="30"/>
    <tag k="maxspeed:type" v="CZ:zone30"/>
    <tag k="maxweight" v="3.5"/>
    <tag k="mtb:scale" v="1"/>
    <tag k="name" v="Na Svahu"/>
    <tag k="official_name" v="Na svahu"/>
    <tag k="ref:ruian:street" v="459488"/>
    <tag k="source" v="cuzk:km;uhul:ortofoto"/>
    <tag k="zone:maxspeed" v="30"/>
  </way>
  <way id="197940470" version="3" timestamp="2023-04-10T13:50:02Z" changeset="134731681" uid="6588887" user="Martin2035">
    <nd ref="2081346962"/>
    <nd ref="2081346964"/>
    <nd ref="364479835"/>
    <tag k="highway" v="residential"/>
    <tag k="maxspeed" v="30"/>
    <tag k="maxspeed:type" v="CZ:zone30"/>
    <tag k="maxweight" v="3.5"/>
    <tag k="mtb:scale" v="1"/>
    <tag k="name" v="Na Svahu"/>
    <tag k="official_name" v="Na svahu"/>
    <tag k="ref:ruian:street" v="459488"/>
    <tag k="source" v="cuzk:km;uhul:ortofoto"/>
    <tag k="zone:maxspeed" v="30"/>
  </way>
  <way id="197940471" version="3" timestamp="2023-04-10T13:50:02Z" changeset="134731681" uid="6588887" user="Martin2035">
    <nd ref="364479835"/>
    <nd ref="2081346971"/>
    <nd ref="2081346967"/>
    <nd ref="2081346970"/>
    <nd ref="2081346972"/>
    <nd ref="2081346973"/>
    <tag k="highway" v="residential"/>
    <tag k="maxspeed" v="30"/>
    <tag k="maxspeed:type" v="CZ:zone30"/>
    <tag k="maxweight" v="3.5"/>
    <tag k="name" v="Na Svahu"/>
    <tag k="official_name" v="Na svahu"/>
    <tag k="ref:ruian:street" v="459488"/>
    <tag k="zone:maxspeed" v="30"/>
  </way>
  <way id="197940472" version="10" timestamp="2024-09-28T05:03:46Z" changeset="157194714" uid="17385839" user="Augustlej">
    <nd ref="12206383912"/>
    <nd ref="30558383"/>
    <nd ref="1295556139"/>
    <nd ref="30558382"/>
    <nd ref="1295556136"/>
    <nd ref="364479840"/>
    <nd ref="30558381"/>
    <nd ref="1306860149"/>
    <nd ref="392049432"/>
    <nd ref="30558380"/>
    <tag k="cycleway:both" v="no"/>
    <tag k="highway" v="secondary"/>
    <tag k="lanes" v="2"/>
    <tag k="name" v="Roztock치"/>
    <tag k="name:de" v="Rostoker Stra른"/>
    <tag k="ref" v="242"/>
    <tag k="sidewalk" v="no"/>
    <tag k="smoothness" v="intermediate"/>
    <tag k="source:maxspeed" v="CZ:urban"/>
    <tag k="surface" v="asphalt"/>
  </way>
  <way id="219166830" version="2" timestamp="2023-04-10T13:50:02Z" changeset="134731681" uid="6588887" user="Martin2035">
    <nd ref="2283627786"/>
    <nd ref="2283627777"/>
    <tag k="highway" v="residential"/>
    <tag k="maxspeed" v="30"/>
    <tag k="maxspeed:type" v="CZ:zone30"/>
    <tag k="mtb:scale" v="1"/>
    <tag k="source" v="uhul:ortofoto;survey"/>
    <tag k="zone:maxspeed" v="30"/>
  </way>
  <way id="240072955" version="6" timestamp="2023-11-11T11:17:41Z" changeset="143895200" uid="14156986" user="LVydra">
    <nd ref="28023895"/>
    <nd ref="28023899"/>
    <nd ref="1714944565"/>
    <nd ref="30558022"/>
    <nd ref="1423289692"/>
    <nd ref="1423289691"/>
    <nd ref="125787812"/>
    <nd ref="1423289690"/>
    <nd ref="125787815"/>
    <nd ref="125787820"/>
    <nd ref="125787829"/>
    <tag k="highway" v="residential"/>
    <tag k="lit" v="yes"/>
    <tag k="maxspeed" v="30"/>
    <tag k="maxspeed:type" v="CZ:zone30"/>
    <tag k="name" v="Na Ryb치콏ce"/>
    <tag k="oneway" v="no"/>
    <tag k="surface" v="asphalt"/>
    <tag k="width" v="4"/>
  </way>
  <way id="476899580" version="9" timestamp="2023-11-11T12:12:39Z" changeset="143894958" uid="14156986" user="LVydra">
    <nd ref="125787832"/>
    <nd ref="125789471"/>
    <nd ref="125789475"/>
    <tag k="cycleway:both" v="no"/>
    <tag k="highway" v="tertiary"/>
    <tag k="lane_markings" v="no"/>
    <tag k="lit" v="yes"/>
    <tag k="maxspeed:type" v="CZ:urban"/>
    <tag k="name" v="Suchdolsk치"/>
    <tag k="sidewalk" v="both"/>
    <tag k="source:width" v="ARCore"/>
    <tag k="surface" v="asphalt"/>
    <tag k="width" v="6.8"/>
  </way>
  <way id="478320203" version="5" timestamp="2024-12-19T15:58:28Z" changeset="160400789" uid="8971394" user="vojtechzaboril">
    <nd ref="90291302"/>
    <nd ref="360297008"/>
    <nd ref="12433766081"/>
    <nd ref="25951080"/>
    <tag k="cycleway:left" v="shared_lane"/>
    <tag k="highway" v="secondary"/>
    <tag k="lanes" v="5"/>
    <tag k="lanes:forward" v="3"/>
    <tag k="lit" v="yes"/>
    <tag k="maxspeed" v="50"/>
    <tag k="name" v="Podbabsk치"/>
    <tag k="name:de" v="Podbaber Stra른"/>
    <tag k="ref" v="241"/>
    <tag k="sidewalk" v="separate"/>
    <tag k="surface" v="asphalt"/>
    <tag k="turn:lanes:forward" v="left|through|through"/>
  </way>
  <way id="684263698" version="4" timestamp="2024-09-28T05:02:33Z" changeset="157194700" uid="17385839" user="Augustlej">
    <nd ref="6410399288"/>
    <nd ref="6410399289"/>
    <tag k="cycleway:left" v="shared_lane"/>
    <tag k="highway" v="secondary"/>
    <tag k="lanes" v="3"/>
    <tag k="lanes:backward" v="1"/>
    <tag k="lanes:forward" v="2"/>
    <tag k="name" v="Podbabsk치"/>
    <tag k="placement:forward" v="left_of:1"/>
    <tag k="ref" v="241"/>
    <tag k="sidewalk:right" v="separate"/>
  </way>
  <way id="684263699" version="5" timestamp="2025-04-13T21:48:51Z" changeset="164913850" uid="4018695" user="游뻟릖 Roman Horn칤k">
    <nd ref="1095581139"/>
    <nd ref="6410399288"/>
    <tag k="highway" v="secondary"/>
    <tag k="lanes" v="2"/>
    <tag k="name" v="Podbabsk치"/>
    <tag k="oneway" v="yes"/>
    <tag k="ref" v="241"/>
    <tag k="sidewalk:right" v="separate"/>
    <tag k="turn:lanes" v="through|through"/>
  </way>
  <way id="684263700" version="3" timestamp="2021-09-16T07:50:15Z" changeset="111276875" uid="8971394" user="vojtechzaboril">
    <nd ref="1228912582"/>
    <nd ref="8651385059"/>
    <nd ref="740362003"/>
    <nd ref="740360863"/>
    <tag k="busway:right" v="lane"/>
    <tag k="cycleway:right" v="share_busway"/>
    <tag k="highway" v="secondary"/>
    <tag k="lanes" v="1"/>
    <tag k="lit" v="yes"/>
    <tag k="name" v="Kam칳ck치"/>
    <tag k="oneway" v="yes"/>
    <tag k="ref" v="241"/>
    <tag k="surface" v="asphalt"/>
  </way>
  <way id="696135866" version="3" timestamp="2024-09-28T05:02:42Z" changeset="157194700" uid="17385839" user="Augustlej">
    <nd ref="1095581290"/>
    <nd ref="6410398852"/>
    <nd ref="392049416"/>
    <tag k="highway" v="secondary"/>
    <tag k="lanes" v="2"/>
    <tag k="lit" v="yes"/>
    <tag k="name" v="Roztock치"/>
    <tag k="name:de" v="Rostoker Stra른"/>
    <tag k="ref" v="242"/>
    <tag k="sidewalk:left" v="separate"/>
  </way>
  <way id="794704806" version="1" timestamp="2020-04-22T09:05:56Z" changeset="83928261" uid="6588887" user="Martin2035">
    <nd ref="7433021076"/>
    <nd ref="1295555084"/>
    <nd ref="1306860231"/>
    <nd ref="28028317"/>
    <nd ref="1295555085"/>
    <nd ref="28028281"/>
    <nd ref="7433021077"/>
    <tag k="cycleway:left" v="lane"/>
    <tag k="cycleway:right" v="soft_lane"/>
    <tag k="highway" v="secondary"/>
    <tag k="lanes" v="2"/>
    <tag k="lit" v="yes"/>
    <tag k="maxspeed:type" v="CZ:urban"/>
    <tag k="name" v="Kam칳ck치"/>
    <tag k="ref" v="241"/>
    <tag k="surface" v="asphalt"/>
  </way>
  <way id="794704807" version="1" timestamp="2020-04-22T09:05:56Z" changeset="83928261" uid="6588887" user="Martin2035">
    <nd ref="7433021077"/>
    <nd ref="28028162"/>
    <tag k="busway:left" v="lane"/>
    <tag k="cycleway:left" v="share_busway"/>
    <tag k="cycleway:right" v="soft_lane"/>
    <tag k="highway" v="secondary"/>
    <tag k="lanes" v="3"/>
    <tag k="lit" v="yes"/>
    <tag k="maxspeed:type" v="CZ:urban"/>
    <tag k="name" v="Kam칳ck치"/>
    <tag k="ref" v="241"/>
    <tag k="surface" v="asphalt"/>
  </way>
  <way id="794704808" version="1" timestamp="2020-04-22T09:05:56Z" changeset="83928261" uid="6588887" user="Martin2035">
    <nd ref="1306860246"/>
    <nd ref="244252495"/>
    <nd ref="1306860066"/>
    <nd ref="30558019"/>
    <tag k="highway" v="secondary"/>
    <tag k="lanes" v="3"/>
    <tag k="lit" v="yes"/>
    <tag k="maxspeed" v="50"/>
    <tag k="maxspeed:type" v="sign"/>
    <tag k="name" v="Kam칳ck치"/>
    <tag k="ref" v="241"/>
    <tag k="surface" v="asphalt"/>
  </way>
  <way id="794704809" version="1" timestamp="2020-04-22T09:05:56Z" changeset="83928261" uid="6588887" user="Martin2035">
    <nd ref="7433021078"/>
    <nd ref="1306860246"/>
    <tag k="cycleway:right" v="shared_lane"/>
    <tag k="highway" v="secondary"/>
    <tag k="lanes" v="3"/>
    <tag k="lit" v="yes"/>
    <tag k="maxspeed" v="50"/>
    <tag k="maxspeed:type" v="sign"/>
    <tag k="name" v="Kam칳ck치"/>
    <tag k="ref" v="241"/>
    <tag k="surface" v="asphalt"/>
  </way>
  <way id="794704812" version="3" timestamp="2022-12-09T14:17:21Z" changeset="129902920" uid="15662873" user="maspav">
    <nd ref="1306860078"/>
    <nd ref="2270995452"/>
    <nd ref="10248988467"/>
    <nd ref="9870624927"/>
    <nd ref="1306860015"/>
    <nd ref="1306859991"/>
    <nd ref="1306860047"/>
    <nd ref="1306860098"/>
    <tag k="highway" v="residential"/>
    <tag k="source" v="bing:ortofoto"/>
  </way>
  <way id="800726410" version="4" timestamp="2023-11-11T12:22:19Z" changeset="143894751" uid="14156986" user="LVydra">
    <nd ref="125793946"/>
    <nd ref="740355226"/>
    <nd ref="10727874360"/>
    <nd ref="1306860191"/>
    <nd ref="30558019"/>
    <tag k="highway" v="secondary"/>
    <tag k="lanes" v="2"/>
    <tag k="name" v="Kam칳ck치"/>
    <tag k="ref" v="241"/>
    <tag k="surface" v="asphalt"/>
  </way>
  <way id="983816252" version="2" timestamp="2024-09-28T05:02:54Z" changeset="157194700" uid="17385839" user="Augustlej">
    <nd ref="392049416"/>
    <nd ref="9097001133"/>
    <nd ref="9097001136"/>
    <nd ref="9097001134"/>
    <nd ref="28028521"/>
    <nd ref="9097001135"/>
    <tag k="highway" v="secondary"/>
    <tag k="lanes:backward" v="1"/>
    <tag k="lanes:forward" v="2"/>
    <tag k="lit" v="yes"/>
    <tag k="name" v="Roztock치"/>
    <tag k="name:de" v="Rostoker Stra른"/>
    <tag k="placement:forward" v="left_of:1"/>
    <tag k="ref" v="242"/>
    <tag k="sidewalk:both" v="separate"/>
    <tag k="turn:lanes:forward" v="|merge_to_left"/>
  </way>
  <way id="1135394661" version="1" timestamp="2023-01-26T10:15:48Z" changeset="131726598" uid="527259" user="Vratislav Filler">
    <nd ref="268808501"/>
    <nd ref="2081346950"/>
    <nd ref="2081346945"/>
    <tag k="highway" v="residential"/>
    <tag k="maxspeed" v="30"/>
    <tag k="name" v="V Sedlci"/>
    <tag k="surface" v="asphalt"/>
    <tag k="width" v="6"/>
  </way>
  <way id="1234052039" version="1" timestamp="2023-12-25T14:58:58Z" changeset="145500938" uid="20684368" user="JHocek">
    <nd ref="268808683"/>
    <nd ref="1306860169"/>
    <nd ref="8985718326"/>
    <tag k="highway" v="residential"/>
    <tag k="lit" v="yes"/>
    <tag k="maxspeed" v="30"/>
    <tag k="maxspeed:type" v="CZ:zone30"/>
    <tag k="maxweight:3.5" v="destination"/>
    <tag k="name" v="V Sedlci"/>
    <tag k="oneway" v="yes"/>
    <tag k="surface" v="asphalt"/>
    <tag k="zone:maxspeed" v="30"/>
  </way>
  <way id="1234052040" version="1" timestamp="2023-12-25T14:58:58Z" changeset="145500938" uid="20684368" user="JHocek">
    <nd ref="8985718326"/>
    <nd ref="2081347009"/>
    <nd ref="268808682"/>
    <tag k="highway" v="residential"/>
    <tag k="lit" v="yes"/>
    <tag k="maxspeed" v="30"/>
    <tag k="maxspeed:type" v="CZ:zone30"/>
    <tag k="maxweight:3.5" v="destination"/>
    <tag k="name" v="V Sedlci"/>
    <tag k="oneway" v="yes"/>
    <tag k="surface" v="asphalt"/>
    <tag k="zone:maxspeed" v="30"/>
  </way>
  <way id="1318935570" version="4" timestamp="2024-09-28T05:03:49Z" changeset="157194714" uid="17385839" user="Augustlej">
    <nd ref="364479842"/>
    <nd ref="12206383912"/>
    <tag k="cycleway:both" v="no"/>
    <tag k="highway" v="secondary"/>
    <tag k="lanes" v="2"/>
    <tag k="name" v="Roztock치"/>
    <tag k="name:de" v="Rostoker Stra른"/>
    <tag k="ref" v="242"/>
    <tag k="sidewalk:left" v="separate"/>
    <tag k="smoothness" v="intermediate"/>
    <tag k="source:maxspeed" v="CZ:urban"/>
    <tag k="surface" v="asphalt"/>
  </way>

</osm>
