<?xml version="1.0" encoding="UTF-8"?>
<osm version="0.6" generator="Overpass API 0.7.62.5 1bd436f1">
<note>The data included in this document is from www.openstreetmap.org. The data is made available under ODbL.</note>
<meta osm_base="2025-05-18T02:46:05Z" areas="2024-12-31T00:49:33Z"/>

  <node id="21312490" lat="50.0933892" lon="14.3054628" version="4" timestamp="2024-08-31T14:48:51Z" changeset="156018650" uid="8971394" user="vojtechzaboril">
    <tag k="maxspeed" v="50"/>
    <tag k="traffic_sign" v="maxspeed"/>
  </node>
  <node id="21516945" lat="50.1014331" lon="14.2951147" version="5" timestamp="2017-05-23T06:39:09Z" changeset="48906966" uid="145231" user="woodpeck_repair"/>
  <node id="21631670" lat="50.0865939" lon="14.3392654" version="6" timestamp="2021-01-28T12:29:44Z" changeset="98296530" uid="11276832" user="HaPe-CZ"/>
  <node id="25694792" lat="50.0856689" lon="14.3386933" version="5" timestamp="2011-03-18T11:13:30Z" changeset="7594089" uid="248441" user="Jandrs"/>
  <node id="25694807" lat="50.0868954" lon="14.3349009" version="3" timestamp="2011-11-02T10:40:54Z" changeset="9720563" uid="17615" user="Petr DlouhÃ½"/>
  <node id="25694821" lat="50.0877306" lon="14.3333848" version="2" timestamp="2008-10-05T22:54:45Z" changeset="104383" uid="1066" user="pavel"/>
  <node id="25696337" lat="50.0915367" lon="14.3286071" version="4" timestamp="2025-04-12T22:26:22Z" changeset="164874324" uid="4018695" user="ðŸ‡¨ðŸ‡¿ Roman HornÃ­k"/>
  <node id="25696345" lat="50.0907986" lon="14.3289924" version="1" timestamp="2007-02-06T23:17:05Z" changeset="210101" uid="1066" user="pavel"/>
  <node id="25696363" lat="50.0922882" lon="14.3285967" version="3" timestamp="2025-04-12T22:26:22Z" changeset="164874324" uid="4018695" user="ðŸ‡¨ðŸ‡¿ Roman HornÃ­k"/>
  <node id="25696479" lat="50.0919667" lon="14.3137222" version="3" timestamp="2025-04-12T16:05:03Z" changeset="164862560" uid="4018695" user="ðŸ‡¨ðŸ‡¿ Roman HornÃ­k"/>
  <node id="25696480" lat="50.0921310" lon="14.3144746" version="3" timestamp="2008-12-22T02:37:16Z" changeset="549567" uid="3516" user="BiIbo"/>
  <node id="25696485" lat="50.0911187" lon="14.3162860" version="6" timestamp="2023-10-15T09:43:21Z" changeset="142609408" uid="6588887" user="Martin2035"/>
  <node id="26050675" lat="50.0836961" lon="14.3451711" version="4" timestamp="2025-04-12T22:26:22Z" changeset="164874324" uid="4018695" user="ðŸ‡¨ðŸ‡¿ Roman HornÃ­k"/>
  <node id="26827494" lat="50.0905761" lon="14.3125547" version="5" timestamp="2025-04-12T22:26:22Z" changeset="164874324" uid="4018695" user="ðŸ‡¨ðŸ‡¿ Roman HornÃ­k"/>
  <node id="26827496" lat="50.0912934" lon="14.3105765" version="5" timestamp="2025-04-12T16:05:03Z" changeset="164862560" uid="4018695" user="ðŸ‡¨ðŸ‡¿ Roman HornÃ­k"/>
  <node id="30242575" lat="50.1070116" lon="14.3242983" version="4" timestamp="2024-05-24T21:34:50Z" changeset="151789103" uid="469828" user="LukÃ¡Å¡ JelÃ­nek"/>
  <node id="31908409" lat="50.0927118" lon="14.3283150" version="6" timestamp="2025-04-12T22:26:22Z" changeset="164874324" uid="4018695" user="ðŸ‡¨ðŸ‡¿ Roman HornÃ­k"/>
  <node id="31908418" lat="50.0928402" lon="14.3282831" version="5" timestamp="2017-11-06T22:58:04Z" changeset="53568462" uid="255936" user="NyanSten"/>
  <node id="31908429" lat="50.0908603" lon="14.3084534" version="3" timestamp="2022-10-12T15:51:19Z" changeset="127424262" uid="16806396" user="Honzaiky"/>
  <node id="31908452" lat="50.0917178" lon="14.3028142" version="2" timestamp="2009-03-15T22:00:02Z" changeset="814607" uid="17615" user="Petr DlouhÃ½">
    <tag k="created_by" v="JOSM"/>
  </node>
  <node id="31908469" lat="50.0914696" lon="14.3030225" version="2" timestamp="2009-03-15T22:00:02Z" changeset="814607" uid="17615" user="Petr DlouhÃ½">
    <tag k="created_by" v="JOSM"/>
  </node>
  <node id="32268933" lat="50.1018055" lon="14.2956645" version="4" timestamp="2011-01-07T10:49:32Z" changeset="6891297" uid="248441" user="Jandrs"/>
  <node id="60687885" lat="50.0928923" lon="14.3036665" version="3" timestamp="2009-01-12T00:34:55Z" changeset="775882" uid="17615" user="Petr DlouhÃ½"/>
  <node id="66997316" lat="50.0852713" lon="14.3385036" version="4" timestamp="2008-09-15T21:26:31Z" changeset="645433" uid="3516" user="BiIbo"/>
  <node id="66997353" lat="50.0851555" lon="14.3383965" version="4" timestamp="2008-09-15T21:26:32Z" changeset="645433" uid="3516" user="BiIbo"/>
  <node id="67012813" lat="50.0855998" lon="14.3389002" version="3" timestamp="2008-09-15T21:26:30Z" changeset="645433" uid="3516" user="BiIbo"/>
  <node id="244498487" lat="50.1066106" lon="14.3218079" version="3" timestamp="2011-05-08T19:48:17Z" changeset="8086823" uid="248441" user="Jandrs"/>
  <node id="282743003" lat="50.0881223" lon="14.3237417" version="2" timestamp="2010-02-26T19:41:51Z" changeset="3983130" uid="162287" user="zby-cz"/>
  <node id="282743006" lat="50.0871010" lon="14.3236337" version="2" timestamp="2025-04-12T22:26:22Z" changeset="164874324" uid="4018695" user="ðŸ‡¨ðŸ‡¿ Roman HornÃ­k"/>
  <node id="282743008" lat="50.0866474" lon="14.3254803" version="1" timestamp="2008-08-01T20:33:17Z" changeset="23164" uid="3516" user="BiIbo"/>
  <node id="320806412" lat="50.0935076" lon="14.3026269" version="7" timestamp="2020-08-02T12:22:12Z" changeset="88838400" uid="6588887" user="Martin2035">
    <tag k="maxspeed" v="50"/>
    <tag k="traffic_sign" v="maxspeed"/>
  </node>
  <node id="475939087" lat="50.0892874" lon="14.3237132" version="2" timestamp="2011-10-05T19:39:52Z" changeset="9480981" uid="17615" user="Petr DlouhÃ½"/>
  <node id="1088093874" lat="50.1041839" lon="14.2991894" version="1" timestamp="2011-01-07T10:49:18Z" changeset="6891297" uid="248441" user="Jandrs"/>
  <node id="1245378514" lat="50.0823716" lon="14.3431669" version="1" timestamp="2011-04-15T10:25:25Z" changeset="7868330" uid="248441" user="Jandrs"/>
  <node id="1277517254" lat="50.1065174" lon="14.3216462" version="2" timestamp="2017-05-21T19:58:32Z" changeset="48868319" uid="10353" user="gorn"/>
  <node id="2317182631" lat="50.0848224" lon="14.3381226" version="1" timestamp="2013-05-23T14:50:22Z" changeset="16253598" uid="598980" user="Daniel BarÃ¡nek"/>
  <node id="5301398085" lat="50.0911994" lon="14.3166826" version="4" timestamp="2024-08-18T09:26:44Z" changeset="155404217" uid="4201328" user="granitschÃ¤del"/>
  <node id="8919685159" lat="50.0846273" lon="14.3217044" version="5" timestamp="2025-04-12T22:26:22Z" changeset="164874324" uid="4018695" user="ðŸ‡¨ðŸ‡¿ Roman HornÃ­k">
    <tag k="crossing" v="zebra"/>
    <tag k="crossing:island" v="no"/>
    <tag k="highway" v="crossing"/>
    <tag k="tactile_paving" v="yes"/>
  </node>
  <node id="9996767268" lat="50.0964834" lon="14.3116760" version="5" timestamp="2022-10-29T11:25:24Z" changeset="128206977" uid="16806396" user="Honzaiky">
    <tag k="building" v="bunker"/>
    <tag k="bunker_type" v="bomb_shelter"/>
    <tag k="military" v="bunker"/>
    <tag k="name" v="BÃ½valÃ½ protileteckÃ½ kryt V DivokÃ© Å Ã¡rce"/>
    <tag k="note" v="pro vstup kontaktujte sprÃ¡vce"/>
  </node>
  <way id="4391998" version="9" timestamp="2024-09-25T07:02:52Z" changeset="157066942" uid="598980" user="Daniel BarÃ¡nek">
    <nd ref="25696328"/>
    <nd ref="5556264682"/>
    <nd ref="691085181"/>
    <nd ref="5556264684"/>
    <nd ref="25696364"/>
    <tag k="highway" v="residential"/>
    <tag k="maxspeed" v="30"/>
    <tag k="name" v="PÅ™ednÃ­"/>
    <tag k="name:de" v="Vorderer Weg"/>
    <tag k="oneway" v="yes"/>
    <tag k="source:maxspeed" v="zone"/>
    <tag k="surface" v="asphalt"/>
  </way>
  <way id="4392000" version="18" timestamp="2024-10-09T12:21:25Z" changeset="157669690" uid="598980" user="Daniel BarÃ¡nek">
    <nd ref="25696320"/>
    <nd ref="8919644070"/>
    <nd ref="3577495287"/>
    <nd ref="32524110"/>
    <tag k="cycleway:both" v="no"/>
    <tag k="highway" v="residential"/>
    <tag k="lit" v="yes"/>
    <tag k="maxspeed" v="30"/>
    <tag k="name" v="Å potzova"/>
    <tag k="oneway" v="yes"/>
    <tag k="parking:left" v="no"/>
    <tag k="parking:right" v="lane"/>
    <tag k="parking:right:orientation" v="parallel"/>
    <tag k="sidewalk:both" v="separate"/>
    <tag k="source:width" v="ARCore"/>
    <tag k="surface" v="asphalt"/>
    <tag k="width" v="4.8"/>
  </way>
  <way id="4700856" version="18" timestamp="2024-08-30T13:39:19Z" changeset="155974925" uid="598980" user="Daniel BarÃ¡nek">
    <nd ref="21631670"/>
    <nd ref="8371624578"/>
    <nd ref="8371624577"/>
    <nd ref="8371624576"/>
    <nd ref="1143348847"/>
    <nd ref="8371624561"/>
    <nd ref="8371624562"/>
    <nd ref="8371624560"/>
    <nd ref="67012801"/>
    <nd ref="673407980"/>
    <nd ref="5310035042"/>
    <nd ref="673407981"/>
    <nd ref="25694792"/>
    <tag k="cycleway:both" v="no"/>
    <tag k="highway" v="residential"/>
    <tag k="lane_markings" v="no"/>
    <tag k="lit" v="yes"/>
    <tag k="maxspeed" v="50"/>
    <tag k="name" v="U HvÄ›zdy"/>
    <tag k="name:de" v="SternstraÃŸe"/>
    <tag k="oneway" v="yes"/>
    <tag k="sidewalk:left" v="no"/>
    <tag k="sidewalk:right" v="separate"/>
    <tag k="surface" v="asphalt"/>
  </way>
  <way id="4700865" version="25" timestamp="2025-02-18T20:13:59Z" changeset="162675818" uid="12087838" user="Bilykralik16">
    <nd ref="25696260"/>
    <nd ref="11283416576"/>
    <nd ref="12599148933"/>
    <nd ref="320805635"/>
    <nd ref="10231239908"/>
    <tag k="check_date" v="2023"/>
    <tag k="cycleway:left" v="no"/>
    <tag k="cycleway:right" v="lane"/>
    <tag k="cycleway:right:lane" v="advisory"/>
    <tag k="highway" v="residential"/>
    <tag k="lanes" v="1"/>
    <tag k="maxspeed" v="50"/>
    <tag k="name" v="Vlastina"/>
    <tag k="oneway" v="yes"/>
    <tag k="sidewalk" v="left"/>
    <tag k="source" v="iprpraha:DTMP"/>
    <tag k="surface" v="asphalt"/>
  </way>
  <way id="4711838" version="9" timestamp="2019-08-02T11:32:42Z" changeset="72935303" uid="10127568" user="michalkaima">
    <nd ref="25696340"/>
    <nd ref="360912043"/>
    <nd ref="5556264686"/>
    <nd ref="25696364"/>
    <nd ref="5556264685"/>
    <nd ref="302423146"/>
    <tag k="highway" v="residential"/>
    <tag k="maxspeed" v="30"/>
    <tag k="name" v="U KolejÃ­"/>
    <tag k="name:de" v="Am Gleis"/>
    <tag k="source:maxspeed" v="zone"/>
    <tag k="surface" v="asphalt"/>
  </way>
  <way id="4711839" version="7" timestamp="2022-04-11T11:54:50Z" changeset="119575636" uid="15548948" user="MilosBr">
    <nd ref="25696339"/>
    <nd ref="25696337"/>
    <tag k="highway" v="residential"/>
    <tag k="maxspeed" v="30"/>
    <tag k="name" v="BraÅ¡kovskÃ¡"/>
    <tag k="name:de" v="Braschkauer StraÃŸe"/>
    <tag k="oneway" v="yes"/>
    <tag k="source:maxspeed" v="zone"/>
    <tag k="surface" v="asphalt"/>
  </way>
  <way id="4711840" version="25" timestamp="2024-09-27T12:56:21Z" changeset="157167788" uid="17385839" user="Augustlej">
    <nd ref="25696480"/>
    <nd ref="320806011"/>
    <nd ref="1138389613"/>
    <nd ref="25696481"/>
    <nd ref="10095729750"/>
    <nd ref="1028950316"/>
    <nd ref="271536180"/>
    <nd ref="5301398082"/>
    <nd ref="5301398112"/>
    <nd ref="10247089704"/>
    <nd ref="11294144511"/>
    <nd ref="25696485"/>
    <tag k="highway" v="residential"/>
    <tag k="name" v="U Silnice"/>
    <tag k="name:de" v="LandstraÃŸe"/>
    <tag k="sidewalk:both" v="separate"/>
    <tag k="surface" v="asphalt"/>
  </way>
  <way id="4711842" version="25" timestamp="2025-04-12T22:26:22Z" changeset="164874324" uid="4018695" user="ðŸ‡¨ðŸ‡¿ Roman HornÃ­k">
    <nd ref="8919685159"/>
    <nd ref="25696454"/>
    <nd ref="12750727181"/>
    <nd ref="25696445"/>
    <nd ref="25696448"/>
    <nd ref="25696449"/>
    <nd ref="6835199538"/>
    <nd ref="10686021590"/>
    <nd ref="519222146"/>
    <nd ref="6835199536"/>
    <nd ref="25696435"/>
    <nd ref="6835199537"/>
    <nd ref="6835199539"/>
    <nd ref="25696434"/>
    <nd ref="25696432"/>
    <nd ref="654248904"/>
    <nd ref="25696431"/>
    <nd ref="11626465053"/>
    <nd ref="25696429"/>
    <nd ref="11626465052"/>
    <nd ref="11626465051"/>
    <tag k="cycleway:both" v="no"/>
    <tag k="highway" v="tertiary"/>
    <tag k="lanes" v="2"/>
    <tag k="lit" v="yes"/>
    <tag k="maxspeed" v="50"/>
    <tag k="name" v="RuzyÅˆskÃ¡"/>
    <tag k="parking:both" v="no"/>
    <tag k="sidewalk:both" v="separate"/>
    <tag k="source:maxspeed" v="CZ:urban"/>
    <tag k="source:name" v="nameit/uir-adr"/>
    <tag k="surface" v="asphalt"/>
  </way>
  <way id="4711863" version="13" timestamp="2025-05-10T23:49:56Z" changeset="166089534" uid="21903370" user="KrysaÅ™">
    <nd ref="31908429"/>
    <nd ref="26827497"/>
    <nd ref="12750101984"/>
    <tag k="highway" v="residential"/>
    <tag k="maxspeed" v="30"/>
    <tag k="name" v="Pod Cihelnou"/>
    <tag k="surface" v="asphalt"/>
  </way>
  <way id="4711865" version="13" timestamp="2025-05-10T23:49:56Z" changeset="166089534" uid="21903370" user="KrysaÅ™">
    <nd ref="25696487"/>
    <nd ref="25696488"/>
    <nd ref="25696494"/>
    <nd ref="10236199561"/>
    <nd ref="10176065790"/>
    <nd ref="10147530308"/>
    <nd ref="31908427"/>
    <tag k="highway" v="residential"/>
    <tag k="maxspeed" v="30"/>
    <tag k="name" v="NovÃ¡ Å Ã¡rka"/>
    <tag k="sidewalk:both" v="separate"/>
  </way>
  <way id="4711867" version="5" timestamp="2022-04-11T11:54:50Z" changeset="119575636" uid="15548948" user="MilosBr">
    <nd ref="25696340"/>
    <nd ref="25696339"/>
    <tag k="highway" v="residential"/>
    <tag k="maxspeed" v="30"/>
    <tag k="name" v="DolanskÃ¡"/>
    <tag k="name:de" v="Dolaner StraÃŸe"/>
    <tag k="oneway" v="yes"/>
    <tag k="source:maxspeed" v="zone"/>
    <tag k="surface" v="asphalt"/>
  </way>
  <way id="4711868" version="12" timestamp="2024-09-13T11:05:46Z" changeset="156566021" uid="598980" user="Daniel BarÃ¡nek">
    <nd ref="31908418"/>
    <nd ref="242836615"/>
    <nd ref="3414154394"/>
    <nd ref="31908409"/>
    <tag k="cycleway:both" v="no"/>
    <tag k="highway" v="residential"/>
    <tag k="lane_markings" v="no"/>
    <tag k="maxspeed" v="50"/>
    <tag k="name" v="Za Vokovickou vozovnou"/>
    <tag k="name:cs" v="Za Vokovickou vozovnou"/>
    <tag k="name:de" v="Wokowitzer Wagenhalle"/>
    <tag k="oneway" v="yes"/>
    <tag k="source:maxspeed" v="CZ:urban"/>
    <tag k="surface" v="asphalt"/>
  </way>
  <way id="4711890" version="16" timestamp="2024-08-30T13:39:51Z" changeset="155974925" uid="598980" user="Daniel BarÃ¡nek">
    <nd ref="67012813"/>
    <nd ref="25694792"/>
    <tag k="cycleway:both" v="no"/>
    <tag k="highway" v="residential"/>
    <tag k="lane_markings" v="no"/>
    <tag k="lit" v="yes"/>
    <tag k="maxspeed" v="50"/>
    <tag k="name" v="SestupnÃ¡"/>
    <tag k="name:de" v="Lehnenweg"/>
    <tag k="sidewalk" v="no"/>
    <tag k="source:name" v="uir-adr"/>
    <tag k="surface" v="asphalt"/>
  </way>
  <way id="4711902" version="9" timestamp="2024-07-22T08:03:47Z" changeset="154249508" uid="2980245" user="dj314d">
    <nd ref="25694807"/>
    <nd ref="25694840"/>
    <nd ref="25694836"/>
    <nd ref="1489409687"/>
    <nd ref="25694832"/>
    <nd ref="25694829"/>
    <nd ref="25694821"/>
    <tag k="highway" v="residential"/>
    <tag k="maxspeed" v="30"/>
    <tag k="maxspeed:type" v="CZ:zone30"/>
    <tag k="maxspeed:zone" v="30"/>
    <tag k="name" v="SestupnÃ¡"/>
    <tag k="name:de" v="Lehnenweg"/>
    <tag k="oneway" v="yes"/>
    <tag k="source:name" v="uir-adr"/>
    <tag k="surface" v="asphalt"/>
  </way>
  <way id="4711915" version="8" timestamp="2025-05-10T23:49:56Z" changeset="166089534" uid="21903370" user="KrysaÅ™">
    <nd ref="26827494"/>
    <nd ref="1138384720"/>
    <nd ref="5301398099"/>
    <nd ref="26827493"/>
    <tag k="highway" v="residential"/>
    <tag k="maxspeed" v="30"/>
    <tag k="name" v="ÄŒastavina"/>
    <tag k="oneway" v="yes"/>
    <tag k="oneway:bicycle" v="no"/>
  </way>
  <way id="4711916" version="13" timestamp="2025-05-10T23:49:56Z" changeset="166089534" uid="21903370" user="KrysaÅ™">
    <nd ref="25696479"/>
    <nd ref="10168966818"/>
    <nd ref="10681208537"/>
    <nd ref="10681208540"/>
    <nd ref="10128562164"/>
    <nd ref="10024794311"/>
    <nd ref="5301398096"/>
    <nd ref="5301398109"/>
    <nd ref="25696477"/>
    <tag k="highway" v="residential"/>
    <tag k="maxspeed" v="30"/>
    <tag k="name" v="MladÄina"/>
    <tag k="oneway" v="yes"/>
    <tag k="oneway:bicycle" v="no"/>
    <tag k="surface" v="asphalt"/>
  </way>
  <way id="4711919" version="22" timestamp="2024-10-21T07:04:20Z" changeset="158155876" uid="598980" user="Daniel BarÃ¡nek">
    <nd ref="3271034294"/>
    <nd ref="8919644015"/>
    <nd ref="1137882749"/>
    <tag k="cycleway:both" v="no"/>
    <tag k="highway" v="tertiary"/>
    <tag k="lanes" v="1"/>
    <tag k="maxspeed" v="50"/>
    <tag k="name" v="U Silnice"/>
    <tag k="name:de" v="LandstraÃŸe"/>
    <tag k="oneway" v="yes"/>
    <tag k="sidewalk:both" v="separate"/>
    <tag k="source:maxspeed" v="CZ:urban"/>
    <tag k="surface" v="asphalt"/>
    <tag k="turn:lanes" v="left;through"/>
  </way>
  <way id="4711938" version="14" timestamp="2025-05-15T17:14:11Z" changeset="166315642" uid="10317199" user="adam 12">
    <nd ref="5301398119"/>
    <nd ref="11264076582"/>
    <nd ref="10771599280"/>
    <nd ref="25696308"/>
    <nd ref="12750727168"/>
    <nd ref="12750727169"/>
    <nd ref="10268019372"/>
    <nd ref="25696315"/>
    <tag k="highway" v="residential"/>
    <tag k="maxspeed" v="30"/>
    <tag k="name" v="HostouÅˆskÃ¡"/>
    <tag k="oneway" v="yes"/>
    <tag k="sidewalk:left" v="separate"/>
  </way>
  <way id="4711940" version="2" timestamp="2025-05-10T23:49:56Z" changeset="166089534" uid="21903370" user="KrysaÅ™">
    <nd ref="25696480"/>
    <nd ref="25696487"/>
    <tag k="highway" v="residential"/>
    <tag k="maxspeed" v="30"/>
  </way>
  <way id="4711944" version="11" timestamp="2025-05-10T23:49:56Z" changeset="166089534" uid="21903370" user="KrysaÅ™">
    <nd ref="25696481"/>
    <nd ref="320806009"/>
    <nd ref="10033887926"/>
    <nd ref="10015634991"/>
    <nd ref="25696491"/>
    <nd ref="31906431"/>
    <nd ref="25696488"/>
    <tag k="highway" v="residential"/>
    <tag k="maxspeed" v="30"/>
    <tag k="name" v="RadÄina"/>
    <tag k="sidewalk:both" v="separate"/>
  </way>
  <way id="4896077" version="22" timestamp="2025-05-10T23:49:56Z" changeset="166089534" uid="21903370" user="KrysaÅ™">
    <nd ref="31908482"/>
    <nd ref="10304282979"/>
    <nd ref="882168549"/>
    <nd ref="10304282976"/>
    <nd ref="10304282973"/>
    <nd ref="10304282970"/>
    <nd ref="10304282967"/>
    <nd ref="10304282964"/>
    <nd ref="10304282961"/>
    <nd ref="10304282958"/>
    <nd ref="10304282955"/>
    <nd ref="10304282952"/>
    <nd ref="10304282949"/>
    <nd ref="10304282946"/>
    <nd ref="10304282943"/>
    <nd ref="10304282940"/>
    <nd ref="10304282937"/>
    <nd ref="10304282934"/>
    <nd ref="10304282931"/>
    <nd ref="10304282928"/>
    <nd ref="10304282925"/>
    <nd ref="10304282923"/>
    <nd ref="10304282920"/>
    <nd ref="474552127"/>
    <nd ref="10304282917"/>
    <nd ref="10304282914"/>
    <nd ref="10304282911"/>
    <nd ref="10304265408"/>
    <nd ref="10304265405"/>
    <nd ref="10304265402"/>
    <nd ref="10304265399"/>
    <nd ref="10304265396"/>
    <nd ref="10304265393"/>
    <nd ref="10304265390"/>
    <nd ref="10304265387"/>
    <nd ref="31908480"/>
    <nd ref="10130665543"/>
    <nd ref="10304265377"/>
    <nd ref="10304265374"/>
    <nd ref="10304265370"/>
    <nd ref="10304265368"/>
    <nd ref="882168694"/>
    <nd ref="10304265365"/>
    <nd ref="10304265362"/>
    <nd ref="10304265359"/>
    <nd ref="10304265356"/>
    <nd ref="10304265351"/>
    <nd ref="10304265348"/>
    <nd ref="10304213658"/>
    <nd ref="10304213655"/>
    <nd ref="10304213649"/>
    <nd ref="10304213646"/>
    <nd ref="10129988376"/>
    <nd ref="882168539"/>
    <nd ref="10132304274"/>
    <nd ref="882168666"/>
    <nd ref="10129988383"/>
    <nd ref="10129988385"/>
    <nd ref="10129988387"/>
    <nd ref="10077585560"/>
    <nd ref="10106557713"/>
    <nd ref="10106557711"/>
    <nd ref="10106557709"/>
    <nd ref="10106557707"/>
    <nd ref="10106557705"/>
    <nd ref="3457579259"/>
    <nd ref="10106557703"/>
    <nd ref="10106557701"/>
    <nd ref="10106557699"/>
    <nd ref="10106557697"/>
    <nd ref="10106557695"/>
    <nd ref="10106557693"/>
    <nd ref="10106557691"/>
    <nd ref="10106557689"/>
    <nd ref="10106557687"/>
    <nd ref="10106557685"/>
    <nd ref="10106557683"/>
    <nd ref="10106557681"/>
    <nd ref="10106557679"/>
    <nd ref="10106557677"/>
    <nd ref="10106557675"/>
    <nd ref="10221200943"/>
    <nd ref="10106254461"/>
    <nd ref="10106254463"/>
    <nd ref="10106254488"/>
    <nd ref="10106254467"/>
    <nd ref="10106562719"/>
    <nd ref="10106254465"/>
    <nd ref="10106254469"/>
    <nd ref="10106254487"/>
    <nd ref="10106254473"/>
    <nd ref="26827505"/>
    <nd ref="10221200941"/>
    <nd ref="10106254471"/>
    <nd ref="10106254486"/>
    <nd ref="10106254475"/>
    <nd ref="10106254477"/>
    <nd ref="10106254479"/>
    <nd ref="10106254481"/>
    <nd ref="10106254493"/>
    <nd ref="1138389630"/>
    <nd ref="10106254483"/>
    <nd ref="26827504"/>
    <tag k="highway" v="residential"/>
    <tag k="maxspeed" v="30"/>
    <tag k="name" v="NavigÃ¡torÅ¯"/>
    <tag k="sidewalk:right" v="separate"/>
    <tag k="surface" v="asphalt"/>
  </way>
  <way id="4896083" version="12" timestamp="2025-05-10T23:49:56Z" changeset="166089534" uid="21903370" user="KrysaÅ™">
    <nd ref="31908469"/>
    <nd ref="31908475"/>
    <nd ref="5702142048"/>
    <nd ref="31908477"/>
    <nd ref="268639558"/>
    <nd ref="10681624740"/>
    <nd ref="10308144814"/>
    <nd ref="10681624739"/>
    <nd ref="1028950476"/>
    <nd ref="10681624737"/>
    <nd ref="10681624735"/>
    <nd ref="10681624733"/>
    <nd ref="10308144818"/>
    <nd ref="10681624731"/>
    <nd ref="10681624729"/>
    <nd ref="10308144821"/>
    <nd ref="10681624727"/>
    <nd ref="10681624725"/>
    <nd ref="10308144824"/>
    <nd ref="10681624723"/>
    <nd ref="10681624721"/>
    <nd ref="10308144827"/>
    <nd ref="10681624719"/>
    <nd ref="10681624717"/>
    <nd ref="10308144830"/>
    <nd ref="10681624715"/>
    <nd ref="331371243"/>
    <nd ref="10681624713"/>
    <nd ref="10308144833"/>
    <nd ref="10681624711"/>
    <nd ref="31908479"/>
    <nd ref="10681624709"/>
    <nd ref="10308144836"/>
    <nd ref="10681624707"/>
    <nd ref="268639564"/>
    <nd ref="10304265383"/>
    <nd ref="10304265380"/>
    <nd ref="31908480"/>
    <tag k="highway" v="residential"/>
    <tag k="maxspeed" v="30"/>
    <tag k="name" v="DruÅ¾icovÃ¡"/>
    <tag k="oneway" v="yes"/>
    <tag k="sidewalk:both" v="separate"/>
  </way>
  <way id="4921117" version="16" timestamp="2025-04-08T07:53:57Z" changeset="164665911" uid="8971394" user="vojtechzaboril">
    <nd ref="21516945"/>
    <nd ref="1088093842"/>
    <nd ref="697296965"/>
    <nd ref="1088093792"/>
    <nd ref="697296967"/>
    <nd ref="1088093814"/>
    <nd ref="32268933"/>
    <tag k="destination" v="HoromÄ›Å™ice;PÅ™ednÃ­ Kopanina;NebuÅ¡ice"/>
    <tag k="highway" v="trunk_link"/>
    <tag k="lane_markings" v="no"/>
    <tag k="maxspeed" v="90"/>
    <tag k="name" v="Do HoromÄ›Å™ic"/>
    <tag k="oneway" v="yes"/>
    <tag k="ref" v="2404"/>
    <tag k="source:maxspeed" v="CZ:rural"/>
    <tag k="surface" v="asphalt"/>
  </way>
  <way id="4921118" version="14" timestamp="2025-04-08T07:53:57Z" changeset="164665911" uid="8971394" user="vojtechzaboril">
    <nd ref="32268933"/>
    <nd ref="1088093799"/>
    <nd ref="32020609"/>
    <nd ref="1088093853"/>
    <nd ref="1088093859"/>
    <nd ref="28224905"/>
    <tag k="highway" v="trunk_link"/>
    <tag k="lanes" v="1"/>
    <tag k="maxspeed" v="90"/>
    <tag k="name" v="Do HoromÄ›Å™ic"/>
    <tag k="oneway" v="yes"/>
    <tag k="ref" v="2404"/>
    <tag k="source:maxspeed" v="CZ:rural"/>
    <tag k="surface" v="asphalt"/>
  </way>
  <way id="7723641" version="10" timestamp="2024-07-22T08:03:48Z" changeset="154249508" uid="2980245" user="dj314d">
    <nd ref="25694821"/>
    <nd ref="1489409689"/>
    <nd ref="302423477"/>
    <tag k="alt_name" v="SbÃ­havÃ¡ I"/>
    <tag k="alt_name:de" v="GehrenstraÃŸe I"/>
    <tag k="highway" v="residential"/>
    <tag k="maxspeed" v="30"/>
    <tag k="maxspeed:type" v="CZ:zone30"/>
    <tag k="maxspeed:zone" v="30"/>
    <tag k="name" v="SbÃ­havÃ¡ â… "/>
    <tag k="name:de" v="GehrenstraÃŸe â… "/>
    <tag k="source:name" v="uir-adr"/>
    <tag k="surface" v="asphalt"/>
  </way>
  <way id="8100118" version="7" timestamp="2024-03-30T20:01:11Z" changeset="149365661" uid="10932047" user="AF HAF KARTOGRAF">
    <nd ref="449710922"/>
    <nd ref="3243717160"/>
    <nd ref="3243717163"/>
    <nd ref="3243717164"/>
    <nd ref="3243717161"/>
    <nd ref="60684742"/>
    <nd ref="3243717156"/>
    <nd ref="288981285"/>
    <nd ref="3243717150"/>
    <nd ref="3243717153"/>
    <nd ref="3243717145"/>
    <nd ref="3243717101"/>
    <nd ref="3243717102"/>
    <nd ref="3243717098"/>
    <nd ref="288981284"/>
    <nd ref="60684692"/>
    <nd ref="60684691"/>
    <nd ref="3243717108"/>
    <nd ref="3243717106"/>
    <nd ref="3243717097"/>
    <nd ref="3243717100"/>
    <nd ref="60684690"/>
    <nd ref="3243717099"/>
    <nd ref="3243717096"/>
    <nd ref="3243717104"/>
    <nd ref="3243717105"/>
    <nd ref="60684689"/>
    <nd ref="3243717111"/>
    <nd ref="3243717110"/>
    <nd ref="3243717112"/>
    <nd ref="3243717113"/>
    <nd ref="3243717122"/>
    <nd ref="3243717119"/>
    <nd ref="3243717143"/>
    <nd ref="449710922"/>
    <tag k="addr:conscriptionnumber" v="560"/>
    <tag k="addr:housenumber" v="560"/>
    <tag k="addr:postcode" v="16100"/>
    <tag k="addr:street" v="Na DÅ¾bÃ¡nu"/>
    <tag k="building" v="civic"/>
    <tag k="building:flats" v="3"/>
    <tag k="building:ruian:type" v="15"/>
    <tag k="ref:ruian:addr" v="22222847"/>
    <tag k="ref:ruian:building" v="22021990"/>
    <tag k="source" v="cuzk:ruian"/>
  </way>
  <way id="8100447" version="10" timestamp="2025-05-10T23:49:56Z" changeset="166089534" uid="21903370" user="KrysaÅ™">
    <nd ref="31908482"/>
    <nd ref="10294173332"/>
    <nd ref="10294173329"/>
    <nd ref="10681624786"/>
    <nd ref="10294173321"/>
    <nd ref="10294173318"/>
    <nd ref="10294173315"/>
    <nd ref="10294173310"/>
    <nd ref="10681624788"/>
    <nd ref="10294094407"/>
    <nd ref="10294094404"/>
    <nd ref="10294094401"/>
    <nd ref="10294094400"/>
    <nd ref="10681624790"/>
    <nd ref="10294094390"/>
    <nd ref="10681624792"/>
    <nd ref="10294094387"/>
    <nd ref="10681624793"/>
    <nd ref="10681624795"/>
    <nd ref="10294094381"/>
    <nd ref="60687884"/>
    <nd ref="10282874744"/>
    <nd ref="5702142050"/>
    <nd ref="10302505109"/>
    <nd ref="60687885"/>
    <tag k="highway" v="residential"/>
    <tag k="maxspeed" v="30"/>
    <tag k="name" v="NavigÃ¡torÅ¯"/>
    <tag k="sidewalk:left" v="separate"/>
  </way>
  <way id="8100448" version="8" timestamp="2025-05-10T23:49:56Z" changeset="166089534" uid="21903370" user="KrysaÅ™">
    <nd ref="60687885"/>
    <nd ref="12827420096"/>
    <nd ref="10302505111"/>
    <nd ref="474552145"/>
    <nd ref="10221200958"/>
    <nd ref="60687886"/>
    <tag k="highway" v="residential"/>
    <tag k="maxspeed" v="30"/>
    <tag k="name" v="RadistÅ¯"/>
    <tag k="sidewalk:both" v="separate"/>
  </way>
  <way id="8100450" version="9" timestamp="2025-05-10T23:49:56Z" changeset="166089534" uid="21903370" user="KrysaÅ™">
    <nd ref="60687886"/>
    <nd ref="10221200955"/>
    <nd ref="10264904583"/>
    <nd ref="60687887"/>
    <nd ref="9388319567"/>
    <nd ref="9388319566"/>
    <tag k="highway" v="residential"/>
    <tag k="maxspeed" v="30"/>
    <tag k="name" v="RubliÄova"/>
    <tag k="sidewalk:right" v="separate"/>
  </way>
  <way id="8100454" version="6" timestamp="2025-05-10T23:49:56Z" changeset="166089534" uid="21903370" user="KrysaÅ™">
    <nd ref="31906431"/>
    <nd ref="12332186190"/>
    <nd ref="32524112"/>
    <tag k="highway" v="residential"/>
    <tag k="maxspeed" v="30"/>
    <tag k="name" v="Svatavina"/>
    <tag k="sidewalk" v="separate"/>
    <tag k="surface" v="asphalt"/>
  </way>
  <way id="9078168" version="17" timestamp="2025-04-12T22:26:22Z" changeset="164874324" uid="4018695" user="ðŸ‡¨ðŸ‡¿ Roman HornÃ­k">
    <nd ref="26050675"/>
    <nd ref="370562850"/>
    <nd ref="370562845"/>
    <nd ref="370562823"/>
    <nd ref="66997309"/>
    <nd ref="66997311"/>
    <nd ref="1382175744"/>
    <nd ref="66997316"/>
    <tag k="highway" v="residential"/>
    <tag k="lit" v="yes"/>
    <tag k="maxspeed" v="30"/>
    <tag k="maxspeed:type" v="CZ:zone30"/>
    <tag k="maxspeed:zone" v="30"/>
    <tag k="name" v="Zeyerova alej"/>
    <tag k="name:de" v="Zeyer-Allee"/>
    <tag k="oneway" v="yes"/>
    <tag k="sidewalk:left" v="no"/>
    <tag k="sidewalk:right" v="separate"/>
    <tag k="surface" v="asphalt"/>
  </way>
  <way id="9078170" version="14" timestamp="2024-07-30T16:21:05Z" changeset="154613542" uid="598980" user="Daniel BarÃ¡nek">
    <nd ref="66997353"/>
    <nd ref="1382175743"/>
    <nd ref="66997351"/>
    <nd ref="66997348"/>
    <nd ref="4308014467"/>
    <nd ref="1384138415"/>
    <nd ref="26050677"/>
    <tag k="highway" v="residential"/>
    <tag k="lit" v="yes"/>
    <tag k="maxspeed" v="30"/>
    <tag k="maxspeed:type" v="CZ:zone30"/>
    <tag k="maxspeed:zone" v="30"/>
    <tag k="name" v="Zeyerova alej"/>
    <tag k="name:de" v="Zeyer-Allee"/>
    <tag k="oneway" v="yes"/>
    <tag k="sidewalk:left" v="no"/>
    <tag k="sidewalk:right" v="separate"/>
    <tag k="smoothness" v="good"/>
    <tag k="surface" v="asphalt"/>
  </way>
  <way id="9078857" version="11" timestamp="2024-07-30T16:21:25Z" changeset="154613555" uid="598980" user="Daniel BarÃ¡nek">
    <nd ref="66997316"/>
    <nd ref="66997353"/>
    <tag k="cycleway:both" v="no"/>
    <tag k="highway" v="residential"/>
    <tag k="lane_markings" v="no"/>
    <tag k="maxspeed" v="50"/>
    <tag k="name" v="U HvÄ›zdy"/>
    <tag k="name:de" v="SternstraÃŸe"/>
    <tag k="sidewalk:left" v="no"/>
    <tag k="sidewalk:right" v="separate"/>
    <tag k="surface" v="asphalt"/>
  </way>
  <way id="9093338" version="38" timestamp="2024-07-26T05:28:34Z" changeset="154422683" uid="598980" user="Daniel BarÃ¡nek">
    <nd ref="3055147359"/>
    <nd ref="3055147357"/>
    <nd ref="3055147361"/>
    <nd ref="3055147362"/>
    <nd ref="3055147363"/>
    <nd ref="3055147368"/>
    <nd ref="3055147369"/>
    <nd ref="3055147375"/>
    <nd ref="3055147373"/>
    <nd ref="3055147374"/>
    <nd ref="3055147376"/>
    <nd ref="3055147372"/>
    <nd ref="3055147371"/>
    <nd ref="3055147370"/>
    <nd ref="3055147367"/>
    <nd ref="3055147366"/>
    <nd ref="637801142"/>
    <nd ref="3055147364"/>
    <nd ref="3055147365"/>
    <nd ref="3055147358"/>
    <nd ref="3055147360"/>
    <nd ref="3055147359"/>
    <tag k="building" v="yes"/>
    <tag k="building:colour" v="white"/>
    <tag k="building:levels" v="3"/>
    <tag k="building:ruian:type" v="15"/>
    <tag k="height" v="25"/>
    <tag k="historic" v="castle"/>
    <tag k="name" v="LetohrÃ¡dek HvÄ›zda"/>
    <tag k="name:de" v="Lustschloss Stern"/>
    <tag k="name:en" v="Star Summer Palace"/>
    <tag k="name:fr" v="Pavillon de l'Ã©toile"/>
    <tag k="name:ru" v="Ð›ÐµÑ‚Ð½Ð¸Ð¹ Ð·Ð°Ð¼Ð¾Ðº Ð—Ð²ÐµÐ·Ð´Ð°"/>
    <tag k="name:sk" v="LetohrÃ¡dok HvÄ›zda"/>
    <tag k="official_name" v="KrÃ¡lovskÃ½ letohrÃ¡dek HvÄ›zda"/>
    <tag k="ref:ruian:building" v="40451925"/>
    <tag k="roof:shape" v="many"/>
    <tag k="source" v="cuzk:ruian"/>
    <tag k="start_date" v="2013-02-08"/>
    <tag k="wikidata" v="Q3175128"/>
    <tag k="wikimedia_commons" v="Category:LetohrÃ¡dek HvÄ›zda"/>
    <tag k="wikipedia" v="cs:HvÄ›zda (letohrÃ¡dek)"/>
  </way>
  <way id="13335783" version="7" timestamp="2017-05-21T19:58:32Z" changeset="48868319" uid="10353" user="gorn">
    <nd ref="30242575"/>
    <nd ref="4868517898"/>
    <nd ref="30242580"/>
    <nd ref="30242581"/>
    <nd ref="30242582"/>
    <nd ref="30242583"/>
    <nd ref="30242584"/>
    <nd ref="244498487"/>
    <tag k="highway" v="residential"/>
    <tag k="name" v="Pod HÃ¡jovnou"/>
  </way>
  <way id="22635933" version="12" timestamp="2024-10-10T06:30:42Z" changeset="157699742" uid="598980" user="Daniel BarÃ¡nek">
    <nd ref="26827509"/>
    <nd ref="26827508"/>
    <nd ref="475966040"/>
    <nd ref="26827507"/>
    <tag k="highway" v="residential"/>
    <tag k="lane_markings" v="no"/>
    <tag k="maxspeed" v="50"/>
    <tag k="name" v="DivokÃ¡ Å Ã¡rka"/>
    <tag k="name:de" v="Wilde Scharka"/>
    <tag k="sidewalk:left" v="no"/>
    <tag k="sidewalk:right" v="separate"/>
    <tag k="smoothness" v="excellent"/>
    <tag k="source:maxspeed" v="CZ:urban"/>
    <tag k="surface" v="asphalt"/>
  </way>
  <way id="22774893" version="5" timestamp="2017-05-21T19:58:32Z" changeset="48868319" uid="10353" user="gorn">
    <nd ref="1277517254"/>
    <nd ref="244498486"/>
    <nd ref="32059482"/>
    <tag k="highway" v="residential"/>
    <tag k="name" v="Pod HÃ¡jovnou"/>
  </way>
  <way id="24608400" version="12" timestamp="2024-09-18T07:10:29Z" changeset="156757844" uid="598980" user="Daniel BarÃ¡nek">
    <nd ref="25696594"/>
    <nd ref="10130615165"/>
    <nd ref="282743000"/>
    <tag k="access" v="destination"/>
    <tag k="cycleway:both" v="no"/>
    <tag k="highway" v="residential"/>
    <tag k="lane_markings" v="no"/>
    <tag k="lit" v="yes"/>
    <tag k="name" v="BrodeckÃ¡"/>
    <tag k="parking:both" v="no"/>
    <tag k="sidewalk" v="no"/>
    <tag k="source:name" v="nameit/uir-adr"/>
    <tag k="surface" v="asphalt"/>
  </way>
  <way id="25920157" version="12" timestamp="2024-09-18T07:11:01Z" changeset="156757844" uid="598980" user="Daniel BarÃ¡nek">
    <nd ref="282743000"/>
    <nd ref="10133614873"/>
    <nd ref="282743004"/>
    <nd ref="282743005"/>
    <tag k="access" v="destination"/>
    <tag k="cycleway:both" v="no"/>
    <tag k="highway" v="residential"/>
    <tag k="lane_markings" v="no"/>
    <tag k="lit" v="yes"/>
    <tag k="name" v="PavlovskÃ¡"/>
    <tag k="oneway" v="yes"/>
    <tag k="parking:both" v="separate"/>
    <tag k="sidewalk:left" v="separate"/>
    <tag k="sidewalk:right" v="no"/>
    <tag k="surface" v="asphalt"/>
  </way>
  <way id="25920158" version="11" timestamp="2024-09-23T07:03:55Z" changeset="156979648" uid="598980" user="Daniel BarÃ¡nek">
    <nd ref="282743006"/>
    <nd ref="10211786744"/>
    <nd ref="654322440"/>
    <nd ref="25696427"/>
    <nd ref="10211786740"/>
    <nd ref="8919685229"/>
    <nd ref="25696429"/>
    <tag k="cycleway:both" v="no"/>
    <tag k="highway" v="residential"/>
    <tag k="lane_markings" v="no"/>
    <tag k="lit" v="yes"/>
    <tag k="name" v="ÃšnÄ›tickÃ¡"/>
    <tag k="sidewalk:left" v="no"/>
    <tag k="sidewalk:right" v="separate"/>
    <tag k="source:name" v="uir-adr"/>
    <tag k="surface" v="asphalt"/>
  </way>
  <way id="25920160" version="9" timestamp="2024-09-30T07:00:34Z" changeset="157282034" uid="598980" user="Daniel BarÃ¡nek">
    <nd ref="282743008"/>
    <nd ref="10211786739"/>
    <nd ref="25696427"/>
    <tag k="cycleway:both" v="no"/>
    <tag k="highway" v="residential"/>
    <tag k="lane_markings" v="no"/>
    <tag k="lit" v="yes"/>
    <tag k="name" v="RuzyÅˆskÃ¡"/>
    <tag k="sidewalk:left" v="separate"/>
    <tag k="sidewalk:right" v="no"/>
    <tag k="surface" v="asphalt"/>
  </way>
  <way id="26378077" version="4" timestamp="2024-03-30T20:01:11Z" changeset="149365661" uid="10932047" user="AF HAF KARTOGRAF">
    <nd ref="296757123"/>
    <nd ref="288981229"/>
    <nd ref="288981230"/>
    <nd ref="288981232"/>
    <nd ref="288981231"/>
    <nd ref="288981233"/>
    <nd ref="296757123"/>
    <tag k="addr:conscriptionnumber" v="41"/>
    <tag k="addr:housenumber" v="41/3"/>
    <tag k="addr:postcode" v="16400"/>
    <tag k="addr:street" v="DivokÃ¡ Å Ã¡rka"/>
    <tag k="addr:streetnumber" v="3"/>
    <tag k="building" v="yes"/>
    <tag k="building:flats" v="1"/>
    <tag k="building:levels" v="1"/>
    <tag k="building:ruian:type" v="19"/>
    <tag k="ref:ruian:addr" v="22217088"/>
    <tag k="ref:ruian:building" v="22017259"/>
    <tag k="source" v="cuzk:ruian"/>
  </way>
  <way id="26378078" version="7" timestamp="2021-09-13T09:39:13Z" changeset="111134107" uid="1558400" user="Kudej">
    <nd ref="1850255184"/>
    <nd ref="288981237"/>
    <nd ref="288981236"/>
    <nd ref="1850255180"/>
    <nd ref="1850255184"/>
    <tag k="addr:conscriptionnumber" v="39"/>
    <tag k="addr:housenumber" v="39/4"/>
    <tag k="addr:place" v="Liboc"/>
    <tag k="addr:postcode" v="16400"/>
    <tag k="addr:street" v="DivokÃ¡ Å Ã¡rka"/>
    <tag k="addr:streetnumber" v="4"/>
    <tag k="building" v="house"/>
    <tag k="building:flats" v="2"/>
    <tag k="building:levels" v="1"/>
    <tag k="building:ruian:type" v="7"/>
    <tag k="ref:ruian:addr" v="22217061"/>
    <tag k="ref:ruian:building" v="22017232"/>
    <tag k="source" v="cuzk:ruian"/>
  </way>
  <way id="26705525" version="20" timestamp="2024-09-18T07:09:40Z" changeset="156757844" uid="598980" user="Daniel BarÃ¡nek">
    <nd ref="3271034291"/>
    <nd ref="25696373"/>
    <nd ref="475952786"/>
    <tag k="cycleway:both" v="no"/>
    <tag k="highway" v="residential"/>
    <tag k="lane_markings" v="no"/>
    <tag k="lit" v="yes"/>
    <tag k="maxspeed" v="50"/>
    <tag k="name" v="U Prioru"/>
    <tag k="oneway" v="yes"/>
    <tag k="sidewalk:left" v="no"/>
    <tag k="sidewalk:right" v="separate"/>
    <tag k="source:maxspeed" v="CZ:urban"/>
    <tag k="source:name" v="nameit/uir-adr"/>
    <tag k="surface" v="asphalt"/>
  </way>
  <way id="27099790" version="12" timestamp="2024-08-30T13:40:04Z" changeset="155974925" uid="598980" user="Daniel BarÃ¡nek">
    <nd ref="66997316"/>
    <nd ref="297332912"/>
    <nd ref="67012813"/>
    <tag k="cycleway:both" v="no"/>
    <tag k="highway" v="residential"/>
    <tag k="lane_markings" v="no"/>
    <tag k="lit" v="yes"/>
    <tag k="maxspeed" v="50"/>
    <tag k="name" v="U HvÄ›zdy"/>
    <tag k="name:de" v="SternstraÃŸe"/>
    <tag k="oneway" v="yes"/>
    <tag k="sidewalk:left" v="no"/>
    <tag k="sidewalk:right" v="separate"/>
    <tag k="surface" v="asphalt"/>
  </way>
  <way id="27167786" version="13" timestamp="2024-10-21T07:04:11Z" changeset="158155876" uid="598980" user="Daniel BarÃ¡nek">
    <nd ref="1137882749"/>
    <nd ref="3271034292"/>
    <nd ref="3271034290"/>
    <nd ref="3271034289"/>
    <tag k="cycleway:both" v="no"/>
    <tag k="highway" v="tertiary"/>
    <tag k="lanes" v="1"/>
    <tag k="lit" v="yes"/>
    <tag k="maxspeed" v="50"/>
    <tag k="oneway" v="yes"/>
    <tag k="sidewalk:left" v="separate"/>
    <tag k="sidewalk:right" v="no"/>
    <tag k="source:maxspeed" v="CZ:urban"/>
    <tag k="surface" v="asphalt"/>
  </way>
  <way id="27167787" version="17" timestamp="2024-10-21T07:03:46Z" changeset="158155876" uid="598980" user="Daniel BarÃ¡nek">
    <nd ref="3271034291"/>
    <nd ref="271537419"/>
    <nd ref="8919643992"/>
    <nd ref="25696317"/>
    <tag k="cycleway:both" v="no"/>
    <tag k="highway" v="residential"/>
    <tag k="lit" v="yes"/>
    <tag k="maxspeed" v="30"/>
    <tag k="name" v="U Silnice"/>
    <tag k="name:de" v="LandstraÃŸe"/>
    <tag k="oneway" v="yes"/>
    <tag k="sidewalk:both" v="separate"/>
    <tag k="source:width" v="ARCore"/>
    <tag k="surface" v="asphalt"/>
    <tag k="width" v="4.9"/>
  </way>
  <way id="27549616" version="30" timestamp="2025-04-18T14:59:14Z" changeset="165116821" uid="22796831" user="Finreeal">
    <nd ref="302423032"/>
    <nd ref="2807612380"/>
    <nd ref="629623779"/>
    <nd ref="4160607858"/>
    <nd ref="629623777"/>
    <nd ref="302423038"/>
    <nd ref="8108171916"/>
    <nd ref="4706967258"/>
    <nd ref="8108171915"/>
    <nd ref="4160542535"/>
    <nd ref="302423035"/>
    <nd ref="4160607854"/>
    <nd ref="4160607849"/>
    <nd ref="4160607850"/>
    <nd ref="4160607847"/>
    <nd ref="4160607848"/>
    <nd ref="4160607852"/>
    <nd ref="4160607855"/>
    <nd ref="4160607851"/>
    <nd ref="4160607853"/>
    <nd ref="4160607856"/>
    <nd ref="302423032"/>
    <tag k="addr:city" v="Praha"/>
    <tag k="addr:conscriptionnumber" v="634"/>
    <tag k="addr:housenumber" v="634/204"/>
    <tag k="addr:place" v="Liboc"/>
    <tag k="addr:postcode" v="16100"/>
    <tag k="addr:street" v="EvropskÃ¡"/>
    <tag k="addr:streetnumber" v="204"/>
    <tag k="air_conditioning" v="yes"/>
    <tag k="amenity" v="fast_food"/>
    <tag k="branch" v="DivokÃ¡ Å Ã¡rka"/>
    <tag k="brand" v="McDonald's"/>
    <tag k="brand:wikidata" v="Q38076"/>
    <tag k="brand:wikipedia" v="en:McDonald's"/>
    <tag k="building" v="retail"/>
    <tag k="building:levels" v="1"/>
    <tag k="building:ruian:type" v="15"/>
    <tag k="cuisine" v="burger"/>
    <tag k="diet:halal" v="no"/>
    <tag k="diet:kosher" v="no"/>
    <tag k="diet:vegan" v="yes"/>
    <tag k="diet:vegetarian" v="yes"/>
    <tag k="drive_through" v="yes"/>
    <tag k="internet_access" v="wlan"/>
    <tag k="name" v="McDonald's"/>
    <tag k="opening_hours" v="Mo-Su 07:00-21:00"/>
    <tag k="opening_hours:drive_through" v="Mo-Su 06:00-23:00"/>
    <tag k="outdoor_seating" v="yes"/>
    <tag k="payment:cash" v="yes"/>
    <tag k="payment:maestro" v="yes"/>
    <tag k="payment:mastercard" v="yes"/>
    <tag k="payment:meal_voucher" v="yes"/>
    <tag k="payment:visa" v="yes"/>
    <tag k="payment:visa_debit" v="yes"/>
    <tag k="payment:visa_electron" v="yes"/>
    <tag k="ref:ruian:building" v="24536091"/>
    <tag k="roof:shape" v="flat"/>
    <tag k="smoking" v="no"/>
    <tag k="source" v="cuzk:ruian"/>
    <tag k="start_date" v="1999-02-15"/>
    <tag k="takeaway" v="yes"/>
    <tag k="website" v="https://restaurace.mcdonalds.cz/praha-evropska"/>
    <tag k="wheelchair" v="yes"/>
  </way>
  <way id="27549618" version="7" timestamp="2018-04-15T22:02:25Z" changeset="58121100" uid="255936" user="NyanSten">
    <nd ref="302423061"/>
    <nd ref="4686821227"/>
    <nd ref="4705712098"/>
    <nd ref="4686821224"/>
    <nd ref="4686821228"/>
    <nd ref="654249152"/>
    <tag k="highway" v="residential"/>
    <tag k="maxspeed" v="30"/>
    <tag k="name" v="U Stanice"/>
    <tag k="name:de" v="Bei der Haltestelle"/>
    <tag k="source:maxspeed" v="zone"/>
    <tag k="surface" v="asphalt"/>
  </way>
  <way id="27549619" version="8" timestamp="2024-10-14T06:55:28Z" changeset="157861825" uid="598980" user="Daniel BarÃ¡nek">
    <nd ref="302423170"/>
    <nd ref="643842292"/>
    <nd ref="4686821231"/>
    <tag k="highway" v="residential"/>
    <tag k="lit" v="yes"/>
    <tag k="maxspeed" v="30"/>
    <tag k="name" v="U Stanice"/>
    <tag k="name:de" v="Bei der Haltestelle"/>
    <tag k="sidewalk" v="right"/>
    <tag k="source:maxspeed" v="zone"/>
    <tag k="surface" v="asphalt"/>
  </way>
  <way id="27549620" version="13" timestamp="2024-10-14T06:54:49Z" changeset="157861798" uid="598980" user="Daniel BarÃ¡nek">
    <nd ref="302423376"/>
    <nd ref="302423374"/>
    <nd ref="302423366"/>
    <nd ref="302423365"/>
    <nd ref="1260336130"/>
    <nd ref="302423141"/>
    <tag k="highway" v="residential"/>
    <tag k="lit" v="yes"/>
    <tag k="maxspeed" v="30"/>
    <tag k="name" v="U KolejÃ­"/>
    <tag k="name:de" v="Am Gleis"/>
    <tag k="oneway" v="yes"/>
    <tag k="source:maxspeed" v="zone"/>
    <tag k="surface" v="asphalt"/>
  </way>
  <way id="27549621" version="9" timestamp="2019-08-02T11:32:42Z" changeset="72935303" uid="10127568" user="michalkaima">
    <nd ref="5962459954"/>
    <nd ref="1137874894"/>
    <nd ref="360906066"/>
    <nd ref="5023010193"/>
    <nd ref="302423384"/>
    <nd ref="360906034"/>
    <tag k="highway" v="residential"/>
    <tag k="maxspeed" v="30"/>
    <tag k="name" v="KrajnÃ­"/>
    <tag k="name:de" v="RÃ¤ndelstraÃŸe"/>
    <tag k="source:maxspeed" v="zone"/>
    <tag k="surface" v="asphalt"/>
  </way>
  <way id="27549622" version="9" timestamp="2025-03-30T06:29:30Z" changeset="164274545" uid="598980" user="Daniel BarÃ¡nek">
    <nd ref="302423058"/>
    <nd ref="302423390"/>
    <nd ref="302423387"/>
    <nd ref="772355431"/>
    <nd ref="1135003544"/>
    <nd ref="360906034"/>
    <tag k="cycleway:both" v="no"/>
    <tag k="highway" v="residential"/>
    <tag k="maxspeed" v="30"/>
    <tag k="name" v="RybniÄnÃ¡"/>
    <tag k="name:de" v="Fischweihergasse"/>
    <tag k="oneway" v="yes"/>
    <tag k="source:maxspeed" v="zone"/>
    <tag k="surface" v="asphalt"/>
  </way>
  <way id="27549628" version="6" timestamp="2024-07-22T08:03:48Z" changeset="154249508" uid="2980245" user="dj314d">
    <nd ref="25694823"/>
    <nd ref="1489409674"/>
    <nd ref="302423425"/>
    <tag k="highway" v="residential"/>
    <tag k="maxspeed" v="30"/>
    <tag k="maxspeed:type" v="CZ:zone30"/>
    <tag k="maxspeed:zone" v="30"/>
    <tag k="name" v="Pod Domky"/>
    <tag k="name:de" v="HÃ¤uslergrund"/>
    <tag k="source:name" v="uir-adr"/>
    <tag k="surface" v="asphalt"/>
  </way>
  <way id="27549630" version="6" timestamp="2024-07-22T08:03:49Z" changeset="154249508" uid="2980245" user="dj314d">
    <nd ref="25694826"/>
    <nd ref="302423426"/>
    <tag k="highway" v="residential"/>
    <tag k="maxspeed" v="30"/>
    <tag k="maxspeed:type" v="CZ:zone30"/>
    <tag k="maxspeed:zone" v="30"/>
    <tag k="name" v="Pod HvÄ›zdou"/>
    <tag k="name:de" v="Sterngrund"/>
    <tag k="source:name" v="uir-adr"/>
    <tag k="surface" v="asphalt"/>
  </way>
  <way id="27549631" version="10" timestamp="2024-09-12T05:59:28Z" changeset="156511576" uid="598980" user="Daniel BarÃ¡nek">
    <nd ref="307584144"/>
    <nd ref="5023010180"/>
    <nd ref="25696603"/>
    <tag k="cycleway:both" v="no"/>
    <tag k="highway" v="residential"/>
    <tag k="lane_markings" v="no"/>
    <tag k="maxspeed:type" v="CZ:urban"/>
    <tag k="name" v="Å ebestiÃ¡nskÃ¡"/>
    <tag k="source:name" v="uir-adr"/>
    <tag k="surface" v="asphalt"/>
  </way>
  <way id="27549632" version="10" timestamp="2024-07-22T08:03:48Z" changeset="154249508" uid="2980245" user="dj314d">
    <nd ref="302423474"/>
    <nd ref="302423475"/>
    <nd ref="302423476"/>
    <nd ref="302423425"/>
    <nd ref="302423477"/>
    <tag k="highway" v="residential"/>
    <tag k="lit" v="yes"/>
    <tag k="maxspeed" v="30"/>
    <tag k="maxspeed:type" v="CZ:zone30"/>
    <tag k="maxspeed:zone" v="30"/>
    <tag k="name" v="SbÃ­havÃ¡ â…¡"/>
    <tag k="name:de" v="GehrenstraÃŸe â…¡"/>
    <tag k="source:name" v="uir-adr"/>
    <tag k="surface" v="asphalt"/>
  </way>
  <way id="27549634" version="7" timestamp="2022-02-11T16:03:35Z" changeset="117293498" uid="6588887" user="Martin2035">
    <nd ref="302423444"/>
    <nd ref="1489409668"/>
    <nd ref="302423483"/>
    <nd ref="600742989"/>
    <nd ref="600742990"/>
    <nd ref="600742991"/>
    <nd ref="9425082331"/>
    <nd ref="302423472"/>
    <tag k="highway" v="residential"/>
    <tag k="maxspeed" v="30"/>
    <tag k="maxspeed:type" v="CZ:zone30"/>
    <tag k="maxspeed:zone" v="30"/>
    <tag k="name" v="ÃšzkÃ¡"/>
    <tag k="name:de" v="Enge Gasse"/>
    <tag k="source:name" v="uir-adr"/>
  </way>
  <way id="28011752" version="9" timestamp="2025-04-12T22:26:22Z" changeset="164874324" uid="4018695" user="ðŸ‡¨ðŸ‡¿ Roman HornÃ­k">
    <nd ref="302423419"/>
    <nd ref="25696609"/>
    <nd ref="12750740502"/>
    <nd ref="12750740501"/>
    <nd ref="629536843"/>
    <nd ref="25696607"/>
    <tag k="highway" v="residential"/>
    <tag k="maxspeed" v="30"/>
    <tag k="maxspeed:type" v="CZ:zone30"/>
    <tag k="maxspeed:zone" v="30"/>
    <tag k="name" v="PelikÃ¡nova"/>
    <tag k="surface" v="asphalt"/>
  </way>
  <way id="28011753" version="7" timestamp="2022-02-11T16:03:35Z" changeset="117293498" uid="6588887" user="Martin2035">
    <nd ref="302423450"/>
    <nd ref="302423454"/>
    <nd ref="302423456"/>
    <tag k="access" v="destination"/>
    <tag k="highway" v="residential"/>
    <tag k="maxspeed" v="30"/>
    <tag k="maxspeed:type" v="CZ:zone30"/>
    <tag k="maxspeed:zone" v="30"/>
    <tag k="name" v="VÂ DomcÃ­ch"/>
    <tag k="name:de" v="HÃ¤uslerweg"/>
    <tag k="source:name" v="uir-adr"/>
    <tag k="surface" v="sett"/>
  </way>
  <way id="28011754" version="7" timestamp="2024-07-22T08:03:46Z" changeset="154249508" uid="2980245" user="dj314d">
    <nd ref="25694810"/>
    <nd ref="360905974"/>
    <nd ref="1489409669"/>
    <nd ref="25694807"/>
    <tag k="highway" v="residential"/>
    <tag k="maxspeed" v="30"/>
    <tag k="maxspeed:type" v="CZ:zone30"/>
    <tag k="maxspeed:zone" v="30"/>
    <tag k="name" v="VÂ DomcÃ­ch"/>
    <tag k="name:de" v="HÃ¤uslerweg"/>
    <tag k="oneway" v="yes"/>
    <tag k="source:name" v="uir-adr"/>
    <tag k="surface" v="asphalt"/>
  </way>
  <way id="31048152" version="4" timestamp="2024-03-30T20:01:11Z" changeset="149365661" uid="10932047" user="AF HAF KARTOGRAF">
    <nd ref="296751871"/>
    <nd ref="4868976986"/>
    <nd ref="4868976985"/>
    <nd ref="345144164"/>
    <nd ref="345144161"/>
    <nd ref="345144162"/>
    <nd ref="4868976984"/>
    <nd ref="4868976983"/>
    <nd ref="345144163"/>
    <nd ref="345144166"/>
    <nd ref="296751871"/>
    <tag k="addr:conscriptionnumber" v="40"/>
    <tag k="addr:housenumber" v="40"/>
    <tag k="addr:postcode" v="16400"/>
    <tag k="addr:street" v="DivokÃ¡ Å Ã¡rka"/>
    <tag k="building" v="yes"/>
    <tag k="building:flats" v="1"/>
    <tag k="building:ruian:type" v="19"/>
    <tag k="ref:ruian:addr" v="22217070"/>
    <tag k="ref:ruian:building" v="22017241"/>
    <tag k="source" v="cuzk:ruian"/>
  </way>
  <way id="31065017" version="11" timestamp="2025-04-12T22:26:22Z" changeset="164874324" uid="4018695" user="ðŸ‡¨ðŸ‡¿ Roman HornÃ­k">
    <nd ref="25696596"/>
    <nd ref="25696595"/>
    <tag k="cycleway:both" v="no"/>
    <tag k="highway" v="tertiary"/>
    <tag k="lane_markings" v="no"/>
    <tag k="lit" v="yes"/>
    <tag k="maxspeed" v="50"/>
    <tag k="name" v="LibockÃ¡"/>
    <tag k="name:de" v="Libotzer StraÃŸe"/>
    <tag k="oneway" v="yes"/>
    <tag k="sidewalk:left" v="no"/>
    <tag k="sidewalk:right" v="separate"/>
    <tag k="source:maxspeed" v="CZ:urban"/>
    <tag k="surface" v="asphalt"/>
  </way>
  <way id="31065018" version="11" timestamp="2024-10-25T06:12:11Z" changeset="158322395" uid="598980" user="Daniel BarÃ¡nek">
    <nd ref="345382727"/>
    <nd ref="302423209"/>
    <tag k="cutting" v="yes"/>
    <tag k="cycleway:both" v="no"/>
    <tag k="highway" v="tertiary"/>
    <tag k="lane_markings" v="no"/>
    <tag k="maxheight" v="3.2"/>
    <tag k="maxspeed" v="50"/>
    <tag k="name" v="LibockÃ¡"/>
    <tag k="name:de" v="Libotzer StraÃŸe"/>
    <tag k="oneway" v="yes"/>
    <tag k="sidewalk:left" v="separate"/>
    <tag k="sidewalk:right" v="no"/>
    <tag k="source:maxspeed" v="CZ:urban"/>
    <tag k="surface" v="asphalt"/>
  </way>
  <way id="31065020" version="11" timestamp="2024-10-25T06:11:57Z" changeset="158322395" uid="598980" user="Daniel BarÃ¡nek">
    <nd ref="302423209"/>
    <nd ref="5556300873"/>
    <tag k="cutting" v="yes"/>
    <tag k="cycleway:both" v="no"/>
    <tag k="highway" v="tertiary"/>
    <tag k="lanes" v="1"/>
    <tag k="maxspeed" v="50"/>
    <tag k="name" v="LibockÃ¡"/>
    <tag k="name:de" v="Libotzer StraÃŸe"/>
    <tag k="oneway" v="yes"/>
    <tag k="sidewalk:left" v="separate"/>
    <tag k="sidewalk:right" v="no"/>
    <tag k="source:maxspeed" v="CZ:urban"/>
    <tag k="surface" v="asphalt"/>
  </way>
  <way id="31116518" version="9" timestamp="2024-10-29T11:50:06Z" changeset="158494382" uid="598980" user="Daniel BarÃ¡nek">
    <nd ref="25696317"/>
    <nd ref="12296199693"/>
    <nd ref="25696319"/>
    <tag k="cycleway:both" v="no"/>
    <tag k="highway" v="residential"/>
    <tag k="lit" v="yes"/>
    <tag k="maxspeed" v="30"/>
    <tag k="name" v="LitovickÃ¡"/>
    <tag k="name:de" v="Lidowitzer StraÃŸe"/>
    <tag k="sidewalk:both" v="separate"/>
    <tag k="surface" v="asphalt"/>
  </way>
  <way id="31116519" version="12" timestamp="2024-09-18T06:22:11Z" changeset="156756804" uid="598980" user="Daniel BarÃ¡nek">
    <nd ref="25696320"/>
    <nd ref="8919643974"/>
    <nd ref="8919643991"/>
    <nd ref="3271034291"/>
    <tag k="cycleway:both" v="no"/>
    <tag k="highway" v="residential"/>
    <tag k="lit" v="yes"/>
    <tag k="maxspeed" v="30"/>
    <tag k="name" v="Å potzova"/>
    <tag k="oneway" v="yes"/>
    <tag k="parking:left" v="lane"/>
    <tag k="parking:left:orientation" v="parallel"/>
    <tag k="parking:right" v="no"/>
    <tag k="sidewalk:both" v="separate"/>
    <tag k="source:width" v="ARCore"/>
    <tag k="surface" v="asphalt"/>
    <tag k="width" v="5.2"/>
  </way>
  <way id="31116524" version="10" timestamp="2025-05-10T23:49:56Z" changeset="166089534" uid="21903370" user="KrysaÅ™">
    <nd ref="26827496"/>
    <nd ref="10244141062"/>
    <nd ref="1138379684"/>
    <nd ref="345830780"/>
    <tag k="highway" v="residential"/>
    <tag k="maxspeed" v="30"/>
    <tag k="name" v="HodÄina"/>
    <tag k="oneway" v="yes"/>
    <tag k="oneway:bicycle" v="no"/>
  </way>
  <way id="31116526" version="9" timestamp="2024-10-06T15:29:48Z" changeset="157545970" uid="598980" user="Daniel BarÃ¡nek">
    <nd ref="302423479"/>
    <nd ref="302423480"/>
    <nd ref="11511306745"/>
    <tag k="cycleway:both" v="no"/>
    <tag k="highway" v="residential"/>
    <tag k="lane_markings" v="no"/>
    <tag k="lit" v="yes"/>
    <tag k="maxspeed:type" v="CZ:urban"/>
    <tag k="name" v="Ke Kostelu"/>
    <tag k="name:de" v="Kirchsteig"/>
    <tag k="sidewalk:both" v="separate"/>
    <tag k="source:name" v="uir-adr"/>
    <tag k="surface" v="asphalt"/>
  </way>
  <way id="31134663" version="5" timestamp="2021-05-14T13:06:06Z" changeset="104686491" uid="25867" user="adamos">
    <nd ref="25696363"/>
    <nd ref="25696335"/>
    <tag k="highway" v="residential"/>
    <tag k="maxspeed" v="30"/>
    <tag k="name" v="JosÃ© MartÃ­ho"/>
    <tag k="source:maxspeed" v="zone"/>
    <tag k="surface" v="asphalt"/>
  </way>
  <way id="31134664" version="11" timestamp="2024-11-11T21:10:42Z" changeset="159026678" uid="8971394" user="vojtechzaboril">
    <nd ref="25696316"/>
    <nd ref="12296199691"/>
    <nd ref="12296199688"/>
    <nd ref="25696305"/>
    <nd ref="12296199687"/>
    <nd ref="10228213105"/>
    <nd ref="4964649064"/>
    <nd ref="1942683904"/>
    <nd ref="11283416575"/>
    <nd ref="25696260"/>
    <tag k="highway" v="residential"/>
    <tag k="maxspeed" v="30"/>
    <tag k="name" v="Ke DÅ¾bÃ¡nu"/>
    <tag k="oneway" v="yes"/>
    <tag k="surface" v="asphalt"/>
  </way>
  <way id="31134665" version="9" timestamp="2025-04-12T22:26:22Z" changeset="164874324" uid="4018695" user="ðŸ‡¨ðŸ‡¿ Roman HornÃ­k">
    <nd ref="25696313"/>
    <nd ref="11294144510"/>
    <nd ref="5301398118"/>
    <nd ref="12750727190"/>
    <nd ref="5301398222"/>
    <tag k="highway" v="residential"/>
    <tag k="name" v="HostouÅˆskÃ¡"/>
    <tag k="sidewalk" v="separate"/>
    <tag k="surface" v="asphalt"/>
  </way>
  <way id="31357389" version="18" timestamp="2024-09-27T10:39:27Z" changeset="157164280" uid="17385839" user="Augustlej">
    <nd ref="26827511"/>
    <nd ref="645856118"/>
    <tag k="highway" v="primary"/>
    <tag k="lanes" v="2"/>
    <tag k="lit" v="yes"/>
    <tag k="maxspeed" v="50"/>
    <tag k="name" v="EvropskÃ¡"/>
    <tag k="name:ja" v="ã‚¨ãƒ´ãƒ­ãƒ—ã‚¹ã‚«"/>
    <tag k="old_name" v="Leninova"/>
    <tag k="oneway" v="yes"/>
    <tag k="ref" v="7"/>
    <tag k="sidewalk:left" v="no"/>
    <tag k="sidewalk:right" v="separate"/>
    <tag k="smoothness" v="excellent"/>
    <tag k="source:maxspeed" v="CZ:urban"/>
    <tag k="surface" v="asphalt"/>
  </way>
  <way id="31357473" version="47" timestamp="2024-10-06T13:28:45Z" changeset="157540287" uid="598980" user="Daniel BarÃ¡nek">
    <nd ref="32524111"/>
    <nd ref="9391725475"/>
    <nd ref="10814664349"/>
    <nd ref="26827405"/>
    <tag k="cycleway:right" v="no"/>
    <tag k="highway" v="primary"/>
    <tag k="lanes" v="2"/>
    <tag k="lit" v="yes"/>
    <tag k="maxspeed" v="60"/>
    <tag k="name" v="EvropskÃ¡"/>
    <tag k="name:ja" v="ã‚¨ãƒ´ãƒ­ãƒ—ã‚¹ã‚«"/>
    <tag k="old_name" v="Leninova"/>
    <tag k="oneway" v="yes"/>
    <tag k="ref" v="7"/>
    <tag k="sidewalk:left" v="no"/>
    <tag k="sidewalk:right" v="separate"/>
    <tag k="smoothness" v="excellent"/>
    <tag k="source:maxspeed" v="sign"/>
    <tag k="surface" v="asphalt"/>
    <tag k="turn:lanes" v="through|through;right"/>
  </way>
  <way id="31357856" version="21" timestamp="2024-05-12T13:24:05Z" changeset="151225432" uid="70938" user="isidor">
    <nd ref="11264076580"/>
    <nd ref="10015634996"/>
    <nd ref="25696313"/>
    <tag k="cycleway:both" v="no"/>
    <tag k="hgv" v="destination"/>
    <tag k="highway" v="tertiary"/>
    <tag k="lanes" v="2"/>
    <tag k="lit" v="yes"/>
    <tag k="maxspeed" v="50"/>
    <tag k="name" v="Vlastina"/>
    <tag k="sidewalk" v="both"/>
    <tag k="source:maxspeed" v="CZ:urban"/>
    <tag k="surface" v="asphalt"/>
  </way>
  <way id="31357857" version="17" timestamp="2024-11-11T21:10:42Z" changeset="159026678" uid="8971394" user="vojtechzaboril">
    <nd ref="25696241"/>
    <nd ref="475966073"/>
    <tag k="check_date" v="2024"/>
    <tag k="hgv" v="destination"/>
    <tag k="highway" v="tertiary"/>
    <tag k="maxspeed" v="50"/>
    <tag k="name" v="Vlastina"/>
    <tag k="oneway" v="yes"/>
    <tag k="source:maxspeed" v="CZ:urban"/>
    <tag k="surface" v="asphalt"/>
    <tag k="turn:lanes" v="left;right"/>
  </way>
  <way id="31357858" version="22" timestamp="2024-11-11T21:10:42Z" changeset="159026678" uid="8971394" user="vojtechzaboril">
    <nd ref="9890675162"/>
    <nd ref="8283596835"/>
    <nd ref="10160151919"/>
    <tag k="highway" v="primary"/>
    <tag k="lanes" v="2"/>
    <tag k="lit" v="yes"/>
    <tag k="maxspeed" v="50"/>
    <tag k="name" v="EvropskÃ¡"/>
    <tag k="name:ja" v="ã‚¨ãƒ´ãƒ­ãƒ—ã‚¹ã‚«"/>
    <tag k="old_name" v="Leninova"/>
    <tag k="oneway" v="yes"/>
    <tag k="ref" v="7"/>
    <tag k="sidewalk:left" v="separate"/>
    <tag k="sidewalk:right" v="no"/>
    <tag k="smoothness" v="good"/>
    <tag k="source:maxspeed" v="CZ:urban"/>
    <tag k="surface" v="asphalt"/>
  </way>
  <way id="31357859" version="20" timestamp="2024-08-27T01:19:33Z" changeset="155807163" uid="20277966" user="legwarmer">
    <nd ref="29673511"/>
    <nd ref="11299877821"/>
    <nd ref="882168519"/>
    <nd ref="5663915852"/>
    <nd ref="302423797"/>
    <nd ref="1556082559"/>
    <tag k="foot" v="no"/>
    <tag k="highway" v="primary"/>
    <tag k="lanes" v="2"/>
    <tag k="lit" v="yes"/>
    <tag k="maxspeed" v="50"/>
    <tag k="name" v="EvropskÃ¡"/>
    <tag k="name:ja" v="ã‚¨ãƒ´ãƒ­ãƒ—ã‚¹ã‚«"/>
    <tag k="old_name" v="Leninova"/>
    <tag k="oneway" v="yes"/>
    <tag k="ref" v="7"/>
    <tag k="sidewalk" v="no"/>
    <tag k="smoothness" v="excellent"/>
    <tag k="source:maxspeed" v="CZ:urban"/>
    <tag k="surface" v="asphalt"/>
    <tag k="trolley_wire" v="yes"/>
  </way>
  <way id="32147874" version="7" timestamp="2022-02-11T16:03:35Z" changeset="117293498" uid="6588887" user="Martin2035">
    <nd ref="25694810"/>
    <nd ref="25694814"/>
    <nd ref="25694817"/>
    <nd ref="1489409663"/>
    <nd ref="302423473"/>
    <nd ref="9425082327"/>
    <nd ref="302423472"/>
    <nd ref="302423474"/>
    <nd ref="302423428"/>
    <nd ref="302423468"/>
    <nd ref="302423450"/>
    <tag k="highway" v="residential"/>
    <tag k="maxspeed" v="30"/>
    <tag k="maxspeed:type" v="CZ:zone30"/>
    <tag k="maxspeed:zone" v="30"/>
    <tag k="name" v="VÂ DomcÃ­ch"/>
    <tag k="name:de" v="HÃ¤uslerweg"/>
    <tag k="source:name" v="uir-adr"/>
  </way>
  <way id="32147875" version="5" timestamp="2024-07-22T08:03:49Z" changeset="154249508" uid="2980245" user="dj314d">
    <nd ref="25694821"/>
    <nd ref="25694823"/>
    <nd ref="25694826"/>
    <nd ref="307582738"/>
    <nd ref="5319221630"/>
    <nd ref="302423419"/>
    <tag k="highway" v="residential"/>
    <tag k="maxspeed" v="30"/>
    <tag k="maxspeed:type" v="CZ:zone30"/>
    <tag k="maxspeed:zone" v="30"/>
    <tag k="name" v="SestupnÃ¡"/>
    <tag k="name:de" v="Lehnenweg"/>
    <tag k="source:name" v="uir-adr"/>
    <tag k="surface" v="asphalt"/>
  </way>
  <way id="32147876" version="7" timestamp="2024-07-31T09:29:40Z" changeset="154639478" uid="2980245" user="dj314d">
    <nd ref="25694807"/>
    <nd ref="360905977"/>
    <tag k="access" v="destination"/>
    <tag k="highway" v="residential"/>
    <tag k="lane_markings" v="no"/>
    <tag k="maxspeed" v="30"/>
    <tag k="maxspeed:type" v="CZ:zone30"/>
    <tag k="name" v="SestupnÃ¡"/>
    <tag k="name:de" v="Lehnenweg"/>
    <tag k="oneway" v="yes"/>
    <tag k="surface" v="asphalt"/>
  </way>
  <way id="32147877" version="7" timestamp="2024-07-22T08:03:48Z" changeset="154249508" uid="2980245" user="dj314d">
    <nd ref="302423477"/>
    <nd ref="302423478"/>
    <nd ref="25694810"/>
    <tag k="highway" v="residential"/>
    <tag k="lit" v="yes"/>
    <tag k="maxspeed" v="30"/>
    <tag k="maxspeed:type" v="CZ:zone30"/>
    <tag k="maxspeed:zone" v="30"/>
    <tag k="name" v="SbÃ­havÃ¡ â… "/>
    <tag k="name:de" v="GehrenstraÃŸe â… "/>
    <tag k="oneway" v="yes"/>
    <tag k="source:name" v="uir-adr"/>
    <tag k="surface" v="asphalt"/>
  </way>
  <way id="32147881" version="6" timestamp="2022-02-11T16:03:35Z" changeset="117293498" uid="6588887" user="Martin2035">
    <nd ref="302423456"/>
    <nd ref="302423457"/>
    <nd ref="302423458"/>
    <nd ref="302423463"/>
    <nd ref="307582740"/>
    <nd ref="307582741"/>
    <nd ref="360906071"/>
    <tag k="access" v="destination"/>
    <tag k="highway" v="residential"/>
    <tag k="maxspeed" v="30"/>
    <tag k="maxspeed:type" v="CZ:zone30"/>
    <tag k="maxspeed:zone" v="30"/>
    <tag k="name" v="VÂ DomcÃ­ch"/>
    <tag k="name:de" v="HÃ¤uslerweg"/>
    <tag k="source:name" v="uir-adr"/>
    <tag k="surface" v="sett"/>
  </way>
  <way id="32148107" version="10" timestamp="2024-09-18T07:10:38Z" changeset="156757844" uid="598980" user="Daniel BarÃ¡nek">
    <nd ref="282743003"/>
    <nd ref="10133614880"/>
    <nd ref="282742999"/>
    <tag k="access" v="destination"/>
    <tag k="cycleway:both" v="no"/>
    <tag k="highway" v="residential"/>
    <tag k="lane_markings" v="no"/>
    <tag k="lit" v="yes"/>
    <tag k="name" v="BrodeckÃ¡"/>
    <tag k="oneway" v="yes"/>
    <tag k="parking:both" v="separate"/>
    <tag k="sidewalk" v="no"/>
    <tag k="source:name" v="nameit/uir-adr"/>
    <tag k="source:width" v="ARCore"/>
    <tag k="surface" v="asphalt"/>
    <tag k="width" v="4.9"/>
  </way>
  <way id="32148109" version="13" timestamp="2024-09-28T17:06:11Z" changeset="157220356" uid="598980" user="Daniel BarÃ¡nek">
    <nd ref="25696596"/>
    <nd ref="8919685249"/>
    <nd ref="360910093"/>
    <tag k="cycleway:both" v="no"/>
    <tag k="highway" v="tertiary"/>
    <tag k="lanes" v="2"/>
    <tag k="lit" v="yes"/>
    <tag k="maxspeed" v="50"/>
    <tag k="name" v="LibockÃ¡"/>
    <tag k="name:de" v="Libotzer StraÃŸe"/>
    <tag k="sidewalk:both" v="separate"/>
    <tag k="source:maxspeed" v="CZ:urban"/>
    <tag k="surface" v="asphalt"/>
    <tag k="turn:lanes:backward" v="left;right"/>
  </way>
  <way id="32148728" version="10" timestamp="2024-09-18T07:08:26Z" changeset="156757844" uid="598980" user="Daniel BarÃ¡nek">
    <nd ref="25696316"/>
    <nd ref="10130778086"/>
    <nd ref="1138386665"/>
    <nd ref="10130778095"/>
    <nd ref="25696319"/>
    <tag k="cycleway:both" v="no"/>
    <tag k="highway" v="residential"/>
    <tag k="maxspeed" v="30"/>
    <tag k="name" v="U Silnice"/>
    <tag k="name:de" v="LandstraÃŸe"/>
    <tag k="oneway" v="yes"/>
    <tag k="sidewalk:left" v="separate"/>
    <tag k="sidewalk:right" v="no"/>
    <tag k="surface" v="asphalt"/>
  </way>
  <way id="32148730" version="20" timestamp="2025-04-12T22:26:22Z" changeset="164874324" uid="4018695" user="ðŸ‡¨ðŸ‡¿ Roman HornÃ­k">
    <nd ref="25696319"/>
    <nd ref="10144768003"/>
    <nd ref="12234687181"/>
    <nd ref="25696301"/>
    <nd ref="12234687183"/>
    <nd ref="10161937149"/>
    <tag k="cycleway:both" v="no"/>
    <tag k="highway" v="residential"/>
    <tag k="lit" v="yes"/>
    <tag k="maxspeed" v="30"/>
    <tag k="name" v="LitovickÃ¡"/>
    <tag k="name:de" v="Lidowitzer StraÃŸe"/>
    <tag k="oneway" v="yes"/>
    <tag k="sidewalk:both" v="separate"/>
    <tag k="source" v="bing;local_knowledge"/>
    <tag k="surface" v="asphalt"/>
  </way>
  <way id="32148731" version="3" timestamp="2023-02-25T20:57:05Z" changeset="133021919" uid="16806396" user="Honzaiky">
    <nd ref="268639566"/>
    <nd ref="704394095"/>
    <nd ref="10693722874"/>
    <nd ref="360921722"/>
    <nd ref="360921721"/>
    <tag k="highway" v="residential"/>
  </way>
  <way id="32148734" version="5" timestamp="2022-11-18T21:13:17Z" changeset="129102429" uid="16806396" user="Honzaiky">
    <nd ref="360921721"/>
    <nd ref="360921759"/>
    <tag k="highway" v="residential"/>
    <tag k="oneway" v="no"/>
  </way>
  <way id="32825673" version="6" timestamp="2017-05-01T13:46:45Z" changeset="48308026" uid="255936" user="NyanSten">
    <nd ref="369852046"/>
    <nd ref="369852063"/>
    <tag k="access" v="no"/>
    <tag k="alt_name" v="Na PadesÃ¡tnÃ­ku II"/>
    <tag k="highway" v="residential"/>
    <tag k="name" v="Na PadesÃ¡tnÃ­ku â…¡"/>
    <tag k="source" v="cuzk:km"/>
    <tag k="surface" v="asphalt"/>
  </way>
  <way id="32825675" version="7" timestamp="2017-05-01T13:48:26Z" changeset="48308066" uid="255936" user="NyanSten">
    <nd ref="369852070"/>
    <nd ref="686455685"/>
    <nd ref="369852077"/>
    <tag k="alt_name" v="Na PadesÃ¡tnÃ­ku IV"/>
    <tag k="highway" v="residential"/>
    <tag k="name" v="Na PadesÃ¡tnÃ­ku â…£"/>
    <tag k="source" v="cuzk:km"/>
    <tag k="surface" v="asphalt"/>
  </way>
  <way id="32825679" version="8" timestamp="2017-11-28T14:48:31Z" changeset="54151193" uid="255936" user="NyanSten">
    <nd ref="369852030"/>
    <nd ref="5252178058"/>
    <nd ref="369852032"/>
    <nd ref="686455655"/>
    <nd ref="370558935"/>
    <nd ref="686455696"/>
    <nd ref="369852077"/>
    <nd ref="676086689"/>
    <tag k="alt_name" v="Na PadesÃ¡tnÃ­ku V"/>
    <tag k="highway" v="residential"/>
    <tag k="name" v="Na PadesÃ¡tnÃ­ku â…¤"/>
    <tag k="source" v="cuzk:km"/>
    <tag k="surface" v="asphalt"/>
  </way>
  <way id="32842458" version="20" timestamp="2024-11-11T21:10:42Z" changeset="159026678" uid="8971394" user="vojtechzaboril">
    <nd ref="645856118"/>
    <nd ref="320805400"/>
    <nd ref="6833309246"/>
    <tag k="cycleway:right" v="no"/>
    <tag k="highway" v="primary"/>
    <tag k="lanes" v="2"/>
    <tag k="lit" v="yes"/>
    <tag k="maxspeed" v="50"/>
    <tag k="name" v="EvropskÃ¡"/>
    <tag k="name:ja" v="ã‚¨ãƒ´ãƒ­ãƒ—ã‚¹ã‚«"/>
    <tag k="old_name" v="Leninova"/>
    <tag k="oneway" v="yes"/>
    <tag k="ref" v="7"/>
    <tag k="sidewalk:left" v="no"/>
    <tag k="sidewalk:right" v="separate"/>
    <tag k="smoothness" v="excellent"/>
    <tag k="source:maxspeed" v="CZ:urban"/>
    <tag k="surface" v="asphalt"/>
    <tag k="turn:lanes" v="through|through"/>
  </way>
  <way id="33435241" version="3" timestamp="2017-06-08T11:18:08Z" changeset="49364023" uid="2169558" user="JandaM">
    <nd ref="380467381"/>
    <nd ref="380467379"/>
    <nd ref="4903704827"/>
    <nd ref="2807612398"/>
    <nd ref="4903704826"/>
    <nd ref="380467382"/>
    <nd ref="380467381"/>
    <tag k="addr:conscriptionnumber" v="657"/>
    <tag k="addr:housenumber" v="657"/>
    <tag k="addr:place" v="Liboc"/>
    <tag k="addr:postcode" v="16200"/>
    <tag k="addr:street" v="EvropskÃ¡"/>
    <tag k="building" v="yes"/>
    <tag k="building:ruian:type" v="19"/>
    <tag k="ref:ruian:addr" v="25995111"/>
    <tag k="ref:ruian:building" v="25500601"/>
    <tag k="source" v="cuzk:ruian"/>
    <tag k="start_date" v="2004-06-08"/>
  </way>
  <way id="33542340" version="5" timestamp="2023-11-02T23:19:47Z" changeset="143552232" uid="9451067" user="b-jazz-bot">
    <nd ref="3055147394"/>
    <nd ref="3055147397"/>
    <nd ref="3055147396"/>
    <nd ref="3055147395"/>
    <nd ref="3055147391"/>
    <nd ref="3055147381"/>
    <nd ref="3055147392"/>
    <nd ref="3055147393"/>
    <nd ref="3055147394"/>
    <tag k="alt_name" v="CÃ­saÅ™skÃ¡ kuchynÄ›;HÃ¡jenka"/>
    <tag k="building" v="yes"/>
    <tag k="building:flats" v="1"/>
    <tag k="building:ruian:type" v="19"/>
    <tag k="name" v="Myslivna"/>
    <tag k="ref:ruian:building" v="22017615"/>
    <tag k="source" v="cuzk:ruian"/>
    <tag k="start_date" v="2013-11-15"/>
    <tag k="website" v="https://pamatniknarodnihopisemnictvi.cz/"/>
  </way>
  <way id="34310990" version="17" timestamp="2024-09-27T10:39:56Z" changeset="157164280" uid="17385839" user="Augustlej">
    <nd ref="31908418"/>
    <nd ref="26827432"/>
    <nd ref="10814664355"/>
    <nd ref="320806138"/>
    <nd ref="10814664354"/>
    <nd ref="21312489"/>
    <nd ref="5663915849"/>
    <nd ref="12147905727"/>
    <nd ref="1137882799"/>
    <nd ref="242836618"/>
    <nd ref="3414139084"/>
    <nd ref="10814664345"/>
    <nd ref="56195195"/>
    <tag k="cycleway:both" v="no"/>
    <tag k="highway" v="primary"/>
    <tag k="lanes" v="2"/>
    <tag k="lit" v="yes"/>
    <tag k="maxspeed" v="60"/>
    <tag k="name" v="EvropskÃ¡"/>
    <tag k="name:ja" v="ã‚¨ãƒ´ãƒ­ãƒ—ã‚¹ã‚«"/>
    <tag k="old_name" v="Leninova"/>
    <tag k="oneway" v="yes"/>
    <tag k="ref" v="7"/>
    <tag k="sidewalk:left" v="no"/>
    <tag k="sidewalk:right" v="separate"/>
    <tag k="smoothness" v="excellent"/>
    <tag k="source:maxspeed" v="sign"/>
    <tag k="surface" v="asphalt"/>
    <tag k="trolley_wire" v="yes"/>
  </way>
  <way id="34310991" version="20" timestamp="2024-11-11T21:10:42Z" changeset="159026678" uid="8971394" user="vojtechzaboril">
    <nd ref="56195195"/>
    <nd ref="10814664346"/>
    <nd ref="4690587539"/>
    <tag k="highway" v="primary"/>
    <tag k="lanes" v="2"/>
    <tag k="lit" v="yes"/>
    <tag k="maxspeed" v="60"/>
    <tag k="name" v="EvropskÃ¡"/>
    <tag k="name:ja" v="ã‚¨ãƒ´ãƒ­ãƒ—ã‚¹ã‚«"/>
    <tag k="old_name" v="Leninova"/>
    <tag k="oneway" v="yes"/>
    <tag k="ref" v="7"/>
    <tag k="sidewalk:left" v="no"/>
    <tag k="sidewalk:right" v="separate"/>
    <tag k="smoothness" v="excellent"/>
    <tag k="source:maxspeed" v="sign"/>
    <tag k="surface" v="asphalt"/>
    <tag k="trolley_wire" v="yes"/>
  </way>
  <way id="34388426" version="7" timestamp="2025-04-12T22:26:22Z" changeset="164874324" uid="4018695" user="ðŸ‡¨ðŸ‡¿ Roman HornÃ­k">
    <nd ref="26827405"/>
    <nd ref="1137882767"/>
    <nd ref="25696328"/>
    <tag k="highway" v="residential"/>
    <tag k="maxspeed" v="30"/>
    <tag k="maxweight" v="6"/>
    <tag k="name" v="PÅ™ednÃ­"/>
    <tag k="name:de" v="Vorderer Weg"/>
    <tag k="oneway" v="yes"/>
    <tag k="sidewalk:both" v="separate"/>
    <tag k="source:maxspeed" v="zone"/>
    <tag k="surface" v="asphalt"/>
  </way>
  <way id="39655844" version="13" timestamp="2025-04-12T16:05:03Z" changeset="164862560" uid="4018695" user="ðŸ‡¨ðŸ‡¿ Roman HornÃ­k">
    <nd ref="25696317"/>
    <nd ref="12750101983"/>
    <nd ref="298082035"/>
    <nd ref="475939103"/>
    <tag k="cycleway:both" v="no"/>
    <tag k="highway" v="residential"/>
    <tag k="lane_markings" v="no"/>
    <tag k="lit" v="no"/>
    <tag k="name" v="U Silnice"/>
    <tag k="name:de" v="LandstraÃŸe"/>
    <tag k="sidewalk:left" v="no"/>
    <tag k="sidewalk:right" v="separate"/>
    <tag k="surface" v="asphalt"/>
  </way>
  <way id="39656860" version="8" timestamp="2025-03-30T06:29:41Z" changeset="164274545" uid="598980" user="Daniel BarÃ¡nek">
    <nd ref="9281470521"/>
    <nd ref="1286970914"/>
    <nd ref="25696599"/>
    <tag k="bridge" v="yes"/>
    <tag k="cycleway:both" v="no"/>
    <tag k="highway" v="tertiary"/>
    <tag k="layer" v="1"/>
    <tag k="maxspeed" v="50"/>
    <tag k="name" v="LibockÃ¡"/>
    <tag k="name:de" v="Libotzer StraÃŸe"/>
    <tag k="priority" v="forward"/>
    <tag k="sidewalk:both" v="separate"/>
    <tag k="source:maxspeed" v="CZ:urban"/>
    <tag k="surface" v="asphalt"/>
  </way>
  <way id="39685379" version="12" timestamp="2025-04-12T22:26:22Z" changeset="164874324" uid="4018695" user="ðŸ‡¨ðŸ‡¿ Roman HornÃ­k">
    <nd ref="475815787"/>
    <nd ref="12750727187"/>
    <nd ref="12750727186"/>
    <nd ref="475815794"/>
    <nd ref="25696596"/>
    <tag k="cycleway:both" v="no"/>
    <tag k="highway" v="tertiary"/>
    <tag k="lanes" v="1"/>
    <tag k="lit" v="yes"/>
    <tag k="maxspeed" v="50"/>
    <tag k="name" v="LitovickÃ¡"/>
    <tag k="name:de" v="Lidowitzer StraÃŸe"/>
    <tag k="oneway" v="yes"/>
    <tag k="sidewalk:left" v="no"/>
    <tag k="sidewalk:right" v="separate"/>
    <tag k="source:maxspeed" v="CZ:urban"/>
    <tag k="surface" v="asphalt"/>
    <tag k="turn:lanes" v="left;through"/>
  </way>
  <way id="39685380" version="11" timestamp="2025-04-12T22:26:22Z" changeset="164874324" uid="4018695" user="ðŸ‡¨ðŸ‡¿ Roman HornÃ­k">
    <nd ref="475815787"/>
    <nd ref="475815790"/>
    <nd ref="4969313384"/>
    <nd ref="25696595"/>
    <tag k="cycleway:both" v="no"/>
    <tag k="highway" v="tertiary_link"/>
    <tag k="lane_markings" v="no"/>
    <tag k="lit" v="yes"/>
    <tag k="maxspeed" v="50"/>
    <tag k="oneway" v="yes"/>
    <tag k="sidewalk:left" v="separate"/>
    <tag k="sidewalk:right" v="no"/>
    <tag k="source:maxspeed" v="CZ:urban"/>
    <tag k="surface" v="asphalt"/>
  </way>
  <way id="39695076" version="11" timestamp="2025-04-12T22:26:22Z" changeset="164874324" uid="4018695" user="ðŸ‡¨ðŸ‡¿ Roman HornÃ­k">
    <nd ref="25696595"/>
    <nd ref="643842273"/>
    <nd ref="4687042792"/>
    <tag k="cycleway:both" v="no"/>
    <tag k="highway" v="tertiary"/>
    <tag k="lane_markings" v="no"/>
    <tag k="lit" v="no"/>
    <tag k="maxspeed" v="50"/>
    <tag k="name" v="LibockÃ¡"/>
    <tag k="name:de" v="Libotzer StraÃŸe"/>
    <tag k="oneway" v="yes"/>
    <tag k="sidewalk:left" v="separate"/>
    <tag k="sidewalk:right" v="no"/>
    <tag k="source:maxspeed" v="CZ:urban"/>
    <tag k="surface" v="asphalt"/>
  </way>
  <way id="39695870" version="12" timestamp="2025-04-18T15:01:18Z" changeset="165115570" uid="22796831" user="Finreeal">
    <nd ref="475966075"/>
    <nd ref="475966077"/>
    <nd ref="475966079"/>
    <nd ref="10243235179"/>
    <nd ref="475966080"/>
    <nd ref="475966075"/>
    <tag k="amenity" v="fast_food"/>
    <tag k="building" v="kiosk"/>
    <tag k="delivery" v="yes"/>
    <tag k="drive_through" v="no"/>
    <tag k="indoor_seating" v="no"/>
    <tag k="name" v="TÃ¼rk-eli kebap"/>
    <tag k="opening_hours" v="Mo-Sa 10:30-22:30; Su off"/>
    <tag k="outdoor_seating" v="no"/>
    <tag k="source:location" v="odhad"/>
    <tag k="takeaway" v="only"/>
    <tag k="wheelchair" v="yes"/>
  </way>
  <way id="45755494" version="5" timestamp="2023-08-07T16:27:54Z" changeset="139573775" uid="12500589" user="tg4567">
    <nd ref="582741916"/>
    <nd ref="582741910"/>
    <nd ref="582741919"/>
    <nd ref="582741921"/>
    <nd ref="582741922"/>
    <nd ref="582741917"/>
    <nd ref="582741920"/>
    <nd ref="3246877704"/>
    <nd ref="582741918"/>
    <nd ref="582741908"/>
    <nd ref="582741941"/>
    <nd ref="582741912"/>
    <nd ref="582741940"/>
    <nd ref="582741939"/>
    <nd ref="582741915"/>
    <nd ref="582741854"/>
    <nd ref="582741914"/>
    <nd ref="582741916"/>
    <tag k="building" v="house"/>
    <tag k="building:flats" v="1"/>
    <tag k="building:levels" v="1"/>
    <tag k="building:ruian:type" v="7"/>
    <tag k="name" v="Schubertova vila"/>
    <tag k="ref:ruian:building" v="22019405"/>
    <tag k="source" v="cuzk:ruian"/>
    <tag k="wikidata" v="Q33324151"/>
    <tag k="wikimedia_commons" v="Category:Schubertova vila (Liboc)"/>
  </way>
  <way id="45755500" version="9" timestamp="2024-09-21T13:46:05Z" changeset="156912649" uid="598980" user="Daniel BarÃ¡nek">
    <nd ref="10295995425"/>
    <nd ref="3246876710"/>
    <nd ref="582741869"/>
    <nd ref="582741881"/>
    <nd ref="10295995425"/>
    <tag k="building" v="apartments"/>
    <tag k="building:flats" v="6"/>
    <tag k="building:levels" v="2"/>
    <tag k="building:ruian:type" v="19"/>
    <tag k="name" v="dÅ¯m sprÃ¡vce obory"/>
    <tag k="ref:ruian:building" v="22016899"/>
    <tag k="roof:levels" v="2"/>
    <tag k="roof:shape" v="hipped"/>
    <tag k="source" v="cuzk:ruian"/>
  </way>
  <way id="45755504" version="7" timestamp="2018-04-05T14:02:27Z" changeset="57836985" uid="177221" user="reki">
    <nd ref="582741924"/>
    <nd ref="582741923"/>
    <nd ref="582741928"/>
    <nd ref="582741926"/>
    <nd ref="582741927"/>
    <nd ref="582741925"/>
    <nd ref="582741924"/>
    <tag k="addr:city" v="Praha"/>
    <tag k="addr:conscriptionnumber" v="276"/>
    <tag k="addr:housenumber" v="276/9"/>
    <tag k="addr:postcode" v="16200"/>
    <tag k="addr:street" v="LibockÃ¡"/>
    <tag k="addr:streetnumber" v="9"/>
    <tag k="amenity" v="pub"/>
    <tag k="building" v="yes"/>
    <tag k="cuisine" v="regional"/>
    <tag k="facebook" v="https://www.facebook.com/Libockastudna/"/>
    <tag k="name" v="LibockÃ¡ studna"/>
    <tag k="opening_hours" v="Mo-Su 00:00-01:00,17:00-24:00; Fr,Sa 00:00-03:00,17:00-24:00"/>
    <tag k="outdoor_seating" v="yes"/>
    <tag k="phone" v="+420 774 673 964"/>
    <tag k="smoking" v="outside"/>
    <tag k="source" v="cuzk:km"/>
    <tag k="website" v="http://www.libockastudna.cz/"/>
  </way>
  <way id="45755509" version="6" timestamp="2025-04-27T15:33:02Z" changeset="165511435" uid="598980" user="Daniel BarÃ¡nek">
    <nd ref="582741965"/>
    <nd ref="582741984"/>
    <nd ref="582741966"/>
    <nd ref="582741964"/>
    <nd ref="582741965"/>
    <tag k="building" v="house"/>
    <tag k="building:flats" v="1"/>
    <tag k="building:levels" v="1"/>
    <tag k="building:ruian:type" v="7"/>
    <tag k="name" v="Zeyerova vila"/>
    <tag k="ref:ruian:building" v="22019251"/>
    <tag k="roof:shape" v="gabled"/>
    <tag k="source" v="cuzk:ruian"/>
    <tag k="wikidata" v="Q33324144"/>
    <tag k="wikimedia_commons" v="Category:Zeyerova vila"/>
  </way>
  <way id="47088947" version="5" timestamp="2025-05-15T07:03:10Z" changeset="166288282" uid="598980" user="Daniel BarÃ¡nek">
    <nd ref="600500954"/>
    <nd ref="6014820771"/>
    <nd ref="600500955"/>
    <nd ref="600500957"/>
    <nd ref="6014820772"/>
    <nd ref="600500961"/>
    <nd ref="600500958"/>
    <nd ref="3243733232"/>
    <nd ref="3243733229"/>
    <nd ref="600500954"/>
    <tag k="building" v="yes"/>
    <tag k="building:levels" v="1"/>
    <tag k="building:ruian:type" v="19"/>
    <tag k="name" v="Saitek Computron"/>
    <tag k="ref:ruian:building" v="25039997"/>
    <tag k="roof:height" v="2"/>
    <tag k="roof:material" v="roof_tiles"/>
    <tag k="roof:shape" v="gabled"/>
    <tag k="shop" v="car"/>
    <tag k="source" v="cuzk:ruian"/>
    <tag k="start_date" v="2002-02-04"/>
  </way>
  <way id="47090224" version="4" timestamp="2024-03-30T20:01:11Z" changeset="149365661" uid="10932047" user="AF HAF KARTOGRAF">
    <nd ref="600512910"/>
    <nd ref="600512892"/>
    <nd ref="600512950"/>
    <nd ref="449814151"/>
    <nd ref="600512910"/>
    <tag k="addr:conscriptionnumber" v="633"/>
    <tag k="addr:housenumber" v="633/71"/>
    <tag k="addr:postcode" v="16100"/>
    <tag k="addr:street" v="LibockÃ¡"/>
    <tag k="addr:streetnumber" v="71"/>
    <tag k="building" v="house"/>
    <tag k="building:flats" v="1"/>
    <tag k="building:levels" v="1"/>
    <tag k="building:ruian:type" v="7"/>
    <tag k="ref:ruian:addr" v="22766243"/>
    <tag k="ref:ruian:building" v="22022716"/>
    <tag k="source" v="cuzk:ruian"/>
  </way>
  <way id="47090227" version="6" timestamp="2024-09-30T06:53:00Z" changeset="157281743" uid="598980" user="Daniel BarÃ¡nek">
    <nd ref="600512915"/>
    <nd ref="600512912"/>
    <nd ref="600512914"/>
    <nd ref="600512909"/>
    <nd ref="600512919"/>
    <nd ref="600512920"/>
    <nd ref="296794721"/>
    <nd ref="600512916"/>
    <nd ref="600512915"/>
    <tag k="addr:conscriptionnumber" v="110"/>
    <tag k="addr:housenumber" v="110/69"/>
    <tag k="addr:postcode" v="16100"/>
    <tag k="addr:street" v="LibockÃ¡"/>
    <tag k="addr:streetnumber" v="69"/>
    <tag k="building" v="house"/>
    <tag k="building:flats" v="2"/>
    <tag k="building:levels" v="1"/>
    <tag k="building:ruian:type" v="7"/>
    <tag k="ref:ruian:addr" v="22217771"/>
    <tag k="ref:ruian:building" v="22017852"/>
    <tag k="roof:levels" v="1"/>
    <tag k="roof:shape" v="half-hipped"/>
    <tag k="source" v="cuzk:ruian"/>
  </way>
  <way id="49499542" version="16" timestamp="2024-04-10T10:27:48Z" changeset="149810078" uid="10932047" user="AF HAF KARTOGRAF">
    <nd ref="628923562"/>
    <nd ref="628923563"/>
    <nd ref="4705712104"/>
    <nd ref="4705712116"/>
    <nd ref="4705712115"/>
    <nd ref="4705777016"/>
    <nd ref="5327615923"/>
    <nd ref="5327615922"/>
    <nd ref="5327615921"/>
    <nd ref="5327615920"/>
    <nd ref="628923568"/>
    <nd ref="628923573"/>
    <nd ref="296692033"/>
    <nd ref="628923579"/>
    <nd ref="628923583"/>
    <nd ref="4705777018"/>
    <nd ref="5327615919"/>
    <nd ref="5327615918"/>
    <nd ref="5327615917"/>
    <nd ref="5327615916"/>
    <nd ref="5327615915"/>
    <nd ref="5327615914"/>
    <nd ref="5327615913"/>
    <nd ref="5327615912"/>
    <nd ref="5327615911"/>
    <nd ref="5327615910"/>
    <nd ref="5327615909"/>
    <nd ref="5327615908"/>
    <nd ref="5327615907"/>
    <nd ref="5327615906"/>
    <nd ref="5327615905"/>
    <nd ref="5327615904"/>
    <nd ref="5327615903"/>
    <nd ref="5327615902"/>
    <nd ref="5327615901"/>
    <nd ref="5327615900"/>
    <nd ref="5327615899"/>
    <nd ref="5327615898"/>
    <nd ref="5327615897"/>
    <nd ref="5327615896"/>
    <nd ref="5327615895"/>
    <nd ref="5327615894"/>
    <nd ref="5327615893"/>
    <nd ref="628923883"/>
    <nd ref="628923881"/>
    <nd ref="628923885"/>
    <nd ref="628923887"/>
    <nd ref="628923889"/>
    <nd ref="628923562"/>
    <tag k="addr:city" v="Praha"/>
    <tag k="addr:conscriptionnumber" v="10"/>
    <tag k="addr:country" v="CZ"/>
    <tag k="addr:housenumber" v="10/64"/>
    <tag k="addr:place" v="Liboc"/>
    <tag k="addr:postcode" v="16200"/>
    <tag k="addr:street" v="LibockÃ¡"/>
    <tag k="addr:streetnumber" v="64"/>
    <tag k="addr:suburb" v="Praha 6"/>
    <tag k="amenity" v="restaurant"/>
    <tag k="building" v="civic"/>
    <tag k="building:levels" v="1"/>
    <tag k="building:ruian:type" v="15"/>
    <tag k="cuisine" v="pizza;italian"/>
    <tag k="name" v="Ristorante Fabiano"/>
    <tag k="opening_hours" v="Mo-Su 11:00-23:00"/>
    <tag k="outdoor_seating" v="yes"/>
    <tag k="payment:cash" v="yes"/>
    <tag k="payment:maestro" v="yes"/>
    <tag k="payment:mastercard" v="yes"/>
    <tag k="payment:meal_voucher" v="yes"/>
    <tag k="payment:visa" v="yes"/>
    <tag k="payment:visa_debit" v="yes"/>
    <tag k="payment:visa_electron" v="yes"/>
    <tag k="phone" v="+420 220 560 495"/>
    <tag k="ref:ruian:building" v="22016961"/>
    <tag k="source" v="cuzk:ruian"/>
    <tag k="website" v="https://ristorantefabiano.cz/"/>
  </way>
  <way id="49499544" version="6" timestamp="2024-09-30T06:55:50Z" changeset="157281741" uid="598980" user="Daniel BarÃ¡nek">
    <nd ref="628924305"/>
    <nd ref="628923610"/>
    <nd ref="628923614"/>
    <nd ref="296840732"/>
    <nd ref="628924305"/>
    <tag k="addr:conscriptionnumber" v="592"/>
    <tag k="addr:housenumber" v="592/9"/>
    <tag k="addr:place" v="Liboc"/>
    <tag k="addr:postcode" v="16100"/>
    <tag k="addr:street" v="U stanice"/>
    <tag k="addr:streetnumber" v="9"/>
    <tag k="building" v="residential"/>
    <tag k="building:flats" v="32"/>
    <tag k="building:levels" v="1"/>
    <tag k="building:ruian:type" v="6"/>
    <tag k="ref:ruian:addr" v="22223169"/>
    <tag k="ref:ruian:building" v="22022309"/>
    <tag k="roof:shape" v="flat"/>
    <tag k="source" v="cuzk:ruian"/>
  </way>
  <way id="49499565" version="6" timestamp="2024-09-30T06:56:27Z" changeset="157281741" uid="598980" user="Daniel BarÃ¡nek">
    <nd ref="628924292"/>
    <nd ref="296767502"/>
    <nd ref="628923933"/>
    <nd ref="628923930"/>
    <nd ref="628924292"/>
    <tag k="addr:conscriptionnumber" v="593"/>
    <tag k="addr:housenumber" v="593/7"/>
    <tag k="addr:place" v="Liboc"/>
    <tag k="addr:postcode" v="16100"/>
    <tag k="addr:street" v="U stanice"/>
    <tag k="addr:streetnumber" v="7"/>
    <tag k="building" v="residential"/>
    <tag k="building:flats" v="32"/>
    <tag k="building:levels" v="1"/>
    <tag k="building:ruian:type" v="6"/>
    <tag k="ref:ruian:addr" v="22223177"/>
    <tag k="ref:ruian:building" v="22022317"/>
    <tag k="roof:shape" v="flat"/>
    <tag k="source" v="cuzk:ruian"/>
  </way>
  <way id="49499567" version="10" timestamp="2024-01-12T15:55:45Z" changeset="146186702" uid="100163" user="Hlav">
    <nd ref="628923826"/>
    <nd ref="5358403597"/>
    <nd ref="5358403596"/>
    <nd ref="5358403595"/>
    <nd ref="5358403594"/>
    <nd ref="628924005"/>
    <nd ref="9388156970"/>
    <nd ref="11511306727"/>
    <nd ref="9388156973"/>
    <nd ref="628923999"/>
    <nd ref="5358403593"/>
    <nd ref="5358403592"/>
    <nd ref="5358403591"/>
    <nd ref="5358403590"/>
    <nd ref="5358403589"/>
    <nd ref="5358403588"/>
    <nd ref="628923794"/>
    <nd ref="628923826"/>
    <tag k="amenity" v="place_of_worship"/>
    <tag k="building" v="church"/>
    <tag k="building:colour" v="white"/>
    <tag k="building:ruian:type" v="15"/>
    <tag k="denomination" v="roman_catholic"/>
    <tag k="diocese" v="ArcidiecÃ©ze praÅ¾skÃ¡"/>
    <tag k="height" v="10"/>
    <tag k="heritage" v="3"/>
    <tag k="heritage:operator" v="npu"/>
    <tag k="name" v="svatÃ½ FabiÃ¡n a Å ebestiÃ¡n"/>
    <tag k="official_name" v="Kostel svatÃ©ho FabiÃ¡na a Å ebestiÃ¡na"/>
    <tag k="organ" v="yes"/>
    <tag k="ref:ruian:building" v="42894956"/>
    <tag k="religion" v="christian"/>
    <tag k="roof:material" v="slate"/>
    <tag k="roof:shape" v="hipped"/>
    <tag k="source" v="cuzk:ruian"/>
    <tag k="website" v="https://www.rkfliboc.cz/"/>
    <tag k="wikidata" v="Q12030712"/>
    <tag k="wikimedia_commons" v="Category:Church of Saints Fabian and Sebastian (Liboc)"/>
    <tag k="wikipedia" v="cs:Kostel svatÃ©ho FabiÃ¡na a Å ebestiÃ¡na (Liboc)"/>
  </way>
  <way id="49499571" version="9" timestamp="2024-09-12T07:09:53Z" changeset="156513723" uid="598980" user="Daniel BarÃ¡nek">
    <nd ref="628923900"/>
    <nd ref="296690083"/>
    <nd ref="5327615930"/>
    <nd ref="5327615929"/>
    <nd ref="5327615928"/>
    <nd ref="8108171888"/>
    <nd ref="5327615927"/>
    <nd ref="5327615926"/>
    <nd ref="5327615925"/>
    <nd ref="5327615924"/>
    <nd ref="628923893"/>
    <nd ref="628923891"/>
    <nd ref="628923900"/>
    <tag k="addr:conscriptionnumber" v="83"/>
    <tag k="addr:housenumber" v="83/3"/>
    <tag k="addr:place" v="Liboc"/>
    <tag k="addr:postcode" v="16100"/>
    <tag k="addr:street" v="U stanice"/>
    <tag k="addr:streetnumber" v="3"/>
    <tag k="building" v="residential"/>
    <tag k="building:flats" v="32"/>
    <tag k="building:levels" v="1"/>
    <tag k="building:ruian:type" v="6"/>
    <tag k="ref:ruian:addr" v="22217479"/>
    <tag k="ref:ruian:building" v="22017593"/>
    <tag k="roof:shape" v="flat"/>
    <tag k="source" v="cuzk:ruian"/>
  </way>
  <way id="49499572" version="6" timestamp="2024-09-20T08:05:34Z" changeset="156854498" uid="598980" user="Daniel BarÃ¡nek">
    <nd ref="628923953"/>
    <nd ref="628923879"/>
    <nd ref="628923894"/>
    <nd ref="296631791"/>
    <nd ref="628923953"/>
    <tag k="addr:conscriptionnumber" v="82"/>
    <tag k="addr:housenumber" v="82/1"/>
    <tag k="addr:place" v="Liboc"/>
    <tag k="addr:postcode" v="16100"/>
    <tag k="addr:street" v="U stanice"/>
    <tag k="addr:streetnumber" v="1"/>
    <tag k="building" v="residential"/>
    <tag k="building:flats" v="32"/>
    <tag k="building:levels" v="8"/>
    <tag k="building:ruian:type" v="6"/>
    <tag k="ref:ruian:addr" v="22217461"/>
    <tag k="ref:ruian:building" v="22017585"/>
    <tag k="roof:shape" v="flat"/>
    <tag k="source" v="cuzk:ruian"/>
  </way>
  <way id="49499574" version="6" timestamp="2020-11-11T13:04:04Z" changeset="93929735" uid="25867" user="adamos">
    <nd ref="628923977"/>
    <nd ref="296681990"/>
    <nd ref="628923971"/>
    <nd ref="628923974"/>
    <nd ref="628923977"/>
    <tag k="addr:conscriptionnumber" v="594"/>
    <tag k="addr:housenumber" v="594/5"/>
    <tag k="addr:place" v="Liboc"/>
    <tag k="addr:postcode" v="16100"/>
    <tag k="addr:street" v="U stanice"/>
    <tag k="addr:streetnumber" v="5"/>
    <tag k="building" v="yes"/>
    <tag k="building:flats" v="71"/>
    <tag k="building:levels" v="1"/>
    <tag k="building:ruian:type" v="19"/>
    <tag k="ref:ruian:addr" v="22223185"/>
    <tag k="ref:ruian:building" v="22022325"/>
    <tag k="source" v="cuzk:ruian"/>
  </way>
  <way id="49501519" version="6" timestamp="2024-09-30T06:56:14Z" changeset="157281741" uid="598980" user="Daniel BarÃ¡nek">
    <nd ref="628977282"/>
    <nd ref="628977281"/>
    <nd ref="628977278"/>
    <nd ref="628977531"/>
    <nd ref="2807612391"/>
    <nd ref="628977538"/>
    <nd ref="628977533"/>
    <nd ref="628977279"/>
    <nd ref="628977282"/>
    <tag k="addr:conscriptionnumber" v="642"/>
    <tag k="addr:housenumber" v="642/17"/>
    <tag k="addr:place" v="Liboc"/>
    <tag k="addr:postcode" v="16100"/>
    <tag k="addr:street" v="U kolejÃ­"/>
    <tag k="addr:streetnumber" v="17"/>
    <tag k="building" v="transportation"/>
    <tag k="building:levels" v="1"/>
    <tag k="building:ruian:type" v="17"/>
    <tag k="ref:ruian:addr" v="25481126"/>
    <tag k="ref:ruian:building" v="46825401"/>
    <tag k="roof:levels" v="0"/>
    <tag k="roof:shape" v="skillion"/>
    <tag k="source" v="cuzk:ruian"/>
  </way>
  <way id="49514487" version="5" timestamp="2025-03-30T06:30:03Z" changeset="164274564" uid="598980" user="Daniel BarÃ¡nek">
    <nd ref="2145360254"/>
    <nd ref="5327615892"/>
    <nd ref="5327615891"/>
    <nd ref="629107470"/>
    <nd ref="5327615890"/>
    <nd ref="5327615889"/>
    <nd ref="5327615888"/>
    <nd ref="5327615887"/>
    <nd ref="5327615886"/>
    <nd ref="5327615885"/>
    <nd ref="5327615884"/>
    <nd ref="5327615883"/>
    <nd ref="5327615882"/>
    <nd ref="5327615881"/>
    <nd ref="5327615880"/>
    <nd ref="5327615879"/>
    <nd ref="629107474"/>
    <nd ref="5327615878"/>
    <nd ref="5327615877"/>
    <nd ref="5327615876"/>
    <nd ref="5327615875"/>
    <nd ref="629107473"/>
    <nd ref="5327615874"/>
    <nd ref="5327615873"/>
    <nd ref="5327615872"/>
    <nd ref="5327615871"/>
    <nd ref="5327615870"/>
    <nd ref="5327615869"/>
    <nd ref="5327615868"/>
    <nd ref="5327615867"/>
    <nd ref="5327615866"/>
    <nd ref="5327615865"/>
    <nd ref="5327615864"/>
    <nd ref="5327615863"/>
    <nd ref="5327615862"/>
    <nd ref="5327615861"/>
    <nd ref="5327615860"/>
    <nd ref="5327615859"/>
    <nd ref="629107467"/>
    <nd ref="5327615858"/>
    <nd ref="5327615857"/>
    <nd ref="629107468"/>
    <nd ref="2145360254"/>
    <tag k="addr:conscriptionnumber" v="660"/>
    <tag k="addr:country" v="CZ"/>
    <tag k="addr:housenumber" v="660/2"/>
    <tag k="addr:place" v="Liboc"/>
    <tag k="addr:postcode" v="16200"/>
    <tag k="addr:street" v="U stanice"/>
    <tag k="addr:streetnumber" v="2"/>
    <tag k="building" v="residential"/>
    <tag k="building:flats" v="43"/>
    <tag k="building:levels" v="4"/>
    <tag k="building:ruian:type" v="6"/>
    <tag k="ref:ruian:addr" v="26134594"/>
    <tag k="ref:ruian:building" v="25635433"/>
    <tag k="roof:levels" v="1"/>
    <tag k="roof:shape" v="gabled"/>
    <tag k="source" v="cuzk:ruian"/>
    <tag k="start_date" v="2005-03-31"/>
  </way>
  <way id="49514488" version="5" timestamp="2025-03-30T06:30:26Z" changeset="164274564" uid="598980" user="Daniel BarÃ¡nek">
    <nd ref="2145360255"/>
    <nd ref="5327615411"/>
    <nd ref="5327615410"/>
    <nd ref="5327615409"/>
    <nd ref="5327615408"/>
    <nd ref="5327615407"/>
    <nd ref="5327615406"/>
    <nd ref="5327615405"/>
    <nd ref="5327615404"/>
    <nd ref="5327615403"/>
    <nd ref="5327615402"/>
    <nd ref="5327615401"/>
    <nd ref="5327615400"/>
    <nd ref="5327615399"/>
    <nd ref="5327615398"/>
    <nd ref="5327615397"/>
    <nd ref="5327615396"/>
    <nd ref="629107475"/>
    <nd ref="5327615395"/>
    <nd ref="5327615394"/>
    <nd ref="5327615393"/>
    <nd ref="5327615392"/>
    <nd ref="629107485"/>
    <nd ref="5327615391"/>
    <nd ref="5327615390"/>
    <nd ref="5327615389"/>
    <nd ref="5327615388"/>
    <nd ref="5327615387"/>
    <nd ref="5327615386"/>
    <nd ref="5327615385"/>
    <nd ref="5327615384"/>
    <nd ref="5327615383"/>
    <nd ref="5327615382"/>
    <nd ref="5327615381"/>
    <nd ref="5327615380"/>
    <nd ref="5327615379"/>
    <nd ref="5327615378"/>
    <nd ref="5327615377"/>
    <nd ref="5327615376"/>
    <nd ref="629107472"/>
    <nd ref="5327615375"/>
    <nd ref="5327615374"/>
    <nd ref="5327615373"/>
    <nd ref="5327615372"/>
    <nd ref="2145360255"/>
    <tag k="addr:conscriptionnumber" v="661"/>
    <tag k="addr:country" v="CZ"/>
    <tag k="addr:housenumber" v="661/2a"/>
    <tag k="addr:place" v="Liboc"/>
    <tag k="addr:postcode" v="16200"/>
    <tag k="addr:street" v="U stanice"/>
    <tag k="addr:streetnumber" v="2a"/>
    <tag k="building" v="residential"/>
    <tag k="building:flats" v="3"/>
    <tag k="building:levels" v="4"/>
    <tag k="building:ruian:type" v="6"/>
    <tag k="ref:ruian:addr" v="26134608"/>
    <tag k="ref:ruian:building" v="25635441"/>
    <tag k="roof:levels" v="1"/>
    <tag k="roof:shape" v="gabled"/>
    <tag k="source" v="cuzk:ruian"/>
    <tag k="start_date" v="2005-03-31"/>
  </way>
  <way id="49514489" version="3" timestamp="2018-04-16T11:06:38Z" changeset="58134270" uid="255936" user="NyanSten">
    <nd ref="2145360256"/>
    <nd ref="5327615823"/>
    <nd ref="5327615822"/>
    <nd ref="629107489"/>
    <nd ref="5327615821"/>
    <nd ref="5327615420"/>
    <nd ref="5327615419"/>
    <nd ref="5327615418"/>
    <nd ref="5327615417"/>
    <nd ref="5327615416"/>
    <nd ref="5327615415"/>
    <nd ref="5327615414"/>
    <nd ref="629107487"/>
    <nd ref="5327615413"/>
    <nd ref="5327615412"/>
    <nd ref="629107486"/>
    <nd ref="2145360256"/>
    <tag k="addr:conscriptionnumber" v="662"/>
    <tag k="addr:country" v="CZ"/>
    <tag k="addr:housenumber" v="662/2b"/>
    <tag k="addr:place" v="Liboc"/>
    <tag k="addr:postcode" v="16200"/>
    <tag k="addr:street" v="U stanice"/>
    <tag k="addr:streetnumber" v="2b"/>
    <tag k="building" v="residential"/>
    <tag k="building:flats" v="3"/>
    <tag k="building:levels" v="4"/>
    <tag k="building:ruian:type" v="6"/>
    <tag k="ref:ruian:addr" v="26134616"/>
    <tag k="ref:ruian:building" v="25635450"/>
    <tag k="source" v="cuzk:ruian"/>
    <tag k="start_date" v="2005-03-31"/>
  </way>
  <way id="49514490" version="3" timestamp="2018-04-16T11:06:37Z" changeset="58134270" uid="255936" user="NyanSten">
    <nd ref="2145360257"/>
    <nd ref="5327615855"/>
    <nd ref="5327615854"/>
    <nd ref="5327615853"/>
    <nd ref="5327615852"/>
    <nd ref="5327615851"/>
    <nd ref="5327615850"/>
    <nd ref="5327615849"/>
    <nd ref="5327615848"/>
    <nd ref="629107477"/>
    <nd ref="5327615847"/>
    <nd ref="5327615846"/>
    <nd ref="5327615845"/>
    <nd ref="5327615844"/>
    <nd ref="629107476"/>
    <nd ref="5327615843"/>
    <nd ref="5327615842"/>
    <nd ref="5327615841"/>
    <nd ref="5327615840"/>
    <nd ref="5327615839"/>
    <nd ref="5327615838"/>
    <nd ref="5327615837"/>
    <nd ref="5327615836"/>
    <nd ref="5327615835"/>
    <nd ref="5327615834"/>
    <nd ref="5327615833"/>
    <nd ref="5327615832"/>
    <nd ref="629107478"/>
    <nd ref="5327615831"/>
    <nd ref="5327615830"/>
    <nd ref="5327615829"/>
    <nd ref="5327615828"/>
    <nd ref="629107479"/>
    <nd ref="5327615827"/>
    <nd ref="5327615826"/>
    <nd ref="5327615825"/>
    <nd ref="2145360257"/>
    <tag k="addr:conscriptionnumber" v="663"/>
    <tag k="addr:country" v="CZ"/>
    <tag k="addr:housenumber" v="663/2c"/>
    <tag k="addr:place" v="Liboc"/>
    <tag k="addr:postcode" v="16200"/>
    <tag k="addr:street" v="U stanice"/>
    <tag k="addr:streetnumber" v="2c"/>
    <tag k="building" v="residential"/>
    <tag k="building:flats" v="3"/>
    <tag k="building:levels" v="4"/>
    <tag k="building:ruian:type" v="6"/>
    <tag k="ref:ruian:addr" v="26134624"/>
    <tag k="ref:ruian:building" v="25635468"/>
    <tag k="source" v="cuzk:ruian"/>
    <tag k="start_date" v="2005-03-31"/>
  </way>
  <way id="49514497" version="3" timestamp="2018-01-24T07:52:24Z" changeset="55705521" uid="2169558" user="JandaM">
    <nd ref="629107551"/>
    <nd ref="629107552"/>
    <nd ref="629107553"/>
    <nd ref="3246884170"/>
    <nd ref="629107547"/>
    <nd ref="629107548"/>
    <nd ref="629107549"/>
    <nd ref="629107550"/>
    <nd ref="629107554"/>
    <nd ref="629107556"/>
    <nd ref="629107551"/>
    <tag k="amenity" v="restaurant"/>
    <tag k="building" v="yes"/>
    <tag k="cuisine" v="regional"/>
    <tag k="name" v="LibockÃ½ dvÅ¯r"/>
    <tag k="source" v="cuzk:km"/>
    <tag k="website" v="http://www.libockydvur.cz/"/>
  </way>
  <way id="49939725" version="9" timestamp="2024-09-08T17:20:28Z" changeset="156361413" uid="598980" user="Daniel BarÃ¡nek">
    <nd ref="634586380"/>
    <nd ref="634586399"/>
    <nd ref="634586333"/>
    <nd ref="5358403599"/>
    <nd ref="634586330"/>
    <nd ref="634586377"/>
    <nd ref="634586376"/>
    <nd ref="634586380"/>
    <tag k="building" v="civic"/>
    <tag k="building:levels" v="2"/>
    <tag k="building:ruian:type" v="15"/>
    <tag k="name" v="fara"/>
    <tag k="ref:ruian:building" v="22016929"/>
    <tag k="roof:levels" v="2"/>
    <tag k="roof:shape" v="mansard"/>
    <tag k="source" v="cuzk:ruian"/>
    <tag k="wikidata" v="Q33324159"/>
    <tag k="wikimedia_commons" v="Category:Rectory in Liboc"/>
    <tag k="wikipedia" v="cs:Fara v Liboci"/>
  </way>
  <way id="50588013" version="6" timestamp="2024-10-14T06:55:05Z" changeset="157861798" uid="598980" user="Daniel BarÃ¡nek">
    <nd ref="302423365"/>
    <nd ref="1260336147"/>
    <nd ref="643842293"/>
    <nd ref="1260336137"/>
    <nd ref="1260336139"/>
    <tag k="highway" v="residential"/>
    <tag k="lit" v="yes"/>
    <tag k="maxspeed" v="30"/>
    <tag k="name" v="U KolejÃ­"/>
    <tag k="name:de" v="Am Gleis"/>
    <tag k="oneway" v="yes"/>
    <tag k="source:maxspeed" v="zone"/>
    <tag k="surface" v="asphalt"/>
  </way>
  <way id="51277550" version="9" timestamp="2024-10-08T13:46:40Z" changeset="157627926" uid="1702531" user="lenochod">
    <nd ref="654248851"/>
    <nd ref="654248957"/>
    <nd ref="654248857"/>
    <nd ref="654248855"/>
    <nd ref="654248859"/>
    <nd ref="654248853"/>
    <nd ref="4428527114"/>
    <nd ref="654248849"/>
    <nd ref="654248851"/>
    <tag k="addr:city" v="Praha"/>
    <tag k="addr:conscriptionnumber" v="142"/>
    <tag k="addr:country" v="CZ"/>
    <tag k="addr:housenumber" v="142/15"/>
    <tag k="addr:place" v="Liboc"/>
    <tag k="addr:postcode" v="16200"/>
    <tag k="addr:street" v="PavlovskÃ¡"/>
    <tag k="addr:streetnumber" v="15"/>
    <tag k="addr:suburb" v="Praha 6"/>
    <tag k="building" v="house"/>
    <tag k="building:flats" v="1"/>
    <tag k="building:levels" v="2"/>
    <tag k="building:ruian:type" v="7"/>
    <tag k="ref:ruian:addr" v="22218068"/>
    <tag k="ref:ruian:building" v="22018115"/>
    <tag k="roof:levels" v="1"/>
    <tag k="roof:shape" v="half-hipped"/>
    <tag k="source" v="cuzk:ruian"/>
  </way>
  <way id="51277578" version="8" timestamp="2024-09-18T07:10:32Z" changeset="156757844" uid="598980" user="Daniel BarÃ¡nek">
    <nd ref="282742999"/>
    <nd ref="10130615160"/>
    <nd ref="282743000"/>
    <tag k="access" v="destination"/>
    <tag k="cycleway:both" v="no"/>
    <tag k="highway" v="residential"/>
    <tag k="lane_markings" v="no"/>
    <tag k="lit" v="yes"/>
    <tag k="name" v="BrodeckÃ¡"/>
    <tag k="oneway" v="yes"/>
    <tag k="parking:both" v="no"/>
    <tag k="sidewalk" v="no"/>
    <tag k="source:name" v="nameit/uir-adr"/>
    <tag k="surface" v="asphalt"/>
  </way>
  <way id="53276583" version="3" timestamp="2018-04-15T20:23:15Z" changeset="58119486" uid="255936" user="NyanSten">
    <nd ref="25696335"/>
    <nd ref="25696333"/>
    <tag k="highway" v="residential"/>
    <tag k="maxspeed" v="30"/>
    <tag k="name" v="JeneÄskÃ¡"/>
    <tag k="name:de" v="Jentscher StraÃŸe"/>
    <tag k="oneway" v="yes"/>
    <tag k="source:maxspeed" v="zone"/>
    <tag k="surface" v="asphalt"/>
  </way>
  <way id="53276585" version="3" timestamp="2021-05-14T13:06:15Z" changeset="104686491" uid="25867" user="adamos">
    <nd ref="25696337"/>
    <nd ref="25696349"/>
    <tag k="highway" v="residential"/>
    <tag k="maxspeed" v="30"/>
    <tag k="name" v="BraÅ¡kovskÃ¡"/>
    <tag k="name:cs" v="BraÅ¡kovskÃ¡"/>
    <tag k="name:de" v="Braschkauer StraÃŸe"/>
    <tag k="source:maxspeed" v="zone"/>
    <tag k="surface" v="asphalt"/>
  </way>
  <way id="61954357" version="6" timestamp="2018-04-15T22:02:26Z" changeset="58121100" uid="255936" user="NyanSten">
    <nd ref="629107503"/>
    <nd ref="629107502"/>
    <nd ref="629107539"/>
    <nd ref="5023010192"/>
    <tag k="highway" v="residential"/>
    <tag k="maxspeed" v="30"/>
    <tag k="source:maxspeed" v="zone"/>
    <tag k="surface" v="asphalt"/>
  </way>
  <way id="61981417" version="6" timestamp="2024-03-30T20:01:14Z" changeset="149365661" uid="10932047" user="AF HAF KARTOGRAF">
    <nd ref="296807460"/>
    <nd ref="772796450"/>
    <nd ref="772796437"/>
    <nd ref="772796436"/>
    <nd ref="3678588557"/>
    <nd ref="3678588556"/>
    <nd ref="772796446"/>
    <nd ref="772796440"/>
    <nd ref="2337574112"/>
    <nd ref="772796461"/>
    <nd ref="3678588560"/>
    <nd ref="3678588561"/>
    <nd ref="772796434"/>
    <nd ref="2307058714"/>
    <nd ref="296807460"/>
    <tag k="addr:conscriptionnumber" v="356"/>
    <tag k="addr:housenumber" v="356/1"/>
    <tag k="addr:postcode" v="16400"/>
    <tag k="addr:street" v="DivokÃ¡ Å Ã¡rka"/>
    <tag k="addr:streetnumber" v="1"/>
    <tag k="building" v="yes"/>
    <tag k="ref:ruian:addr" v="22220461"/>
    <tag k="source" v="cuzk:km"/>
    <tag k="source:addr" v="cuzk:ruian"/>
  </way>
  <way id="94665919" version="3" timestamp="2018-01-04T01:19:25Z" changeset="55144610" uid="255936" user="NyanSten">
    <nd ref="2807613175"/>
    <nd ref="1098904018"/>
    <nd ref="1098904067"/>
    <nd ref="1098904105"/>
    <nd ref="1098904126"/>
    <nd ref="1098903999"/>
    <nd ref="1098904046"/>
    <nd ref="1098904090"/>
    <nd ref="1281186579"/>
    <nd ref="1098904108"/>
    <nd ref="1098904143"/>
    <nd ref="1098904040"/>
    <nd ref="1098904080"/>
    <nd ref="1098904100"/>
    <nd ref="1098904130"/>
    <nd ref="1098904146"/>
    <nd ref="1098904020"/>
    <nd ref="1098904022"/>
    <nd ref="1098904062"/>
    <nd ref="1098904082"/>
    <nd ref="1098904109"/>
    <nd ref="1098904013"/>
    <nd ref="1098904042"/>
    <nd ref="2807613175"/>
    <tag k="addr:housenumber" v="ev.8/2"/>
    <tag k="addr:place" v="Liboc"/>
    <tag k="addr:postcode" v="16400"/>
    <tag k="addr:provisionalnumber" v="8"/>
    <tag k="addr:street" v="DivokÃ¡ Å Ã¡rka"/>
    <tag k="addr:streetnumber" v="2"/>
    <tag k="building" v="yes"/>
    <tag k="ref:ruian:addr" v="25154222"/>
  </way>
  <way id="98351456" version="3" timestamp="2021-09-13T09:39:13Z" changeset="111134107" uid="1558400" user="Kudej">
    <nd ref="1137841038"/>
    <nd ref="1137841043"/>
    <nd ref="1137841053"/>
    <nd ref="1137841036"/>
    <nd ref="5555303035"/>
    <nd ref="1137841038"/>
    <tag k="building" v="yes"/>
    <tag k="name" v="ÄŒertÅ¯v mlÃ½n"/>
    <tag k="wikidata" v="Q33324166"/>
    <tag k="wikipedia" v="cs:ÄŒertÅ¯v mlÃ½n (Liboc)"/>
  </way>
  <way id="108570397" version="10" timestamp="2024-10-06T15:31:19Z" changeset="157545970" uid="598980" user="Daniel BarÃ¡nek">
    <nd ref="1245378514"/>
    <nd ref="66995796"/>
    <nd ref="66995801"/>
    <nd ref="1382175733"/>
    <nd ref="2317182631"/>
    <tag k="cycleway:both" v="no"/>
    <tag k="highway" v="tertiary"/>
    <tag k="lanes" v="2"/>
    <tag k="lit" v="yes"/>
    <tag k="maxspeed" v="50"/>
    <tag k="name" v="Na Vypichu"/>
    <tag k="name:de" v="Am Ausstich"/>
    <tag k="sidewalk" v="both"/>
    <tag k="surface" v="asphalt"/>
  </way>
  <way id="109113105" version="12" timestamp="2024-09-30T06:52:45Z" changeset="157281732" uid="598980" user="Daniel BarÃ¡nek">
    <nd ref="32524111"/>
    <nd ref="645856165"/>
    <nd ref="645856168"/>
    <nd ref="654249055"/>
    <nd ref="25696324"/>
    <nd ref="4687042794"/>
    <tag k="cycleway:both" v="no"/>
    <tag k="highway" v="tertiary"/>
    <tag k="lanes" v="2"/>
    <tag k="lit" v="yes"/>
    <tag k="maxspeed" v="50"/>
    <tag k="name" v="LibockÃ¡"/>
    <tag k="name:de" v="Libotzer StraÃŸe"/>
    <tag k="sidewalk:both" v="separate"/>
    <tag k="source:maxspeed" v="CZ:urban"/>
    <tag k="surface" v="asphalt"/>
  </way>
  <way id="109113108" version="7" timestamp="2024-11-11T21:10:42Z" changeset="159026678" uid="8971394" user="vojtechzaboril">
    <nd ref="29673511"/>
    <nd ref="25696241"/>
    <tag k="check_date" v="2024"/>
    <tag k="highway" v="tertiary_link"/>
    <tag k="maxspeed" v="50"/>
    <tag k="oneway" v="yes"/>
    <tag k="source:maxspeed" v="CZ:urban"/>
    <tag k="surface" v="asphalt"/>
  </way>
  <way id="111594295" version="5" timestamp="2024-11-07T14:18:20Z" changeset="158857909" uid="598980" user="Daniel BarÃ¡nek">
    <nd ref="307584144"/>
    <nd ref="302423434"/>
    <nd ref="302423444"/>
    <nd ref="302423450"/>
    <tag k="highway" v="residential"/>
    <tag k="maxspeed" v="30"/>
    <tag k="maxspeed:type" v="CZ:zone30"/>
    <tag k="maxspeed:zone" v="30"/>
    <tag k="name" v="Å ebestiÃ¡nskÃ¡"/>
    <tag k="oneway" v="no"/>
    <tag k="source:name" v="uir-adr"/>
    <tag k="source:width" v="ARCore"/>
    <tag k="surface" v="asphalt"/>
    <tag k="width" v="3.4"/>
  </way>
  <way id="114385823" version="5" timestamp="2023-05-31T21:06:35Z" changeset="136805884" uid="2906144" user="MatyÃ¡Å¡ Richter">
    <nd ref="369852030"/>
    <nd ref="32020603"/>
    <nd ref="1088093869"/>
    <nd ref="32020604"/>
    <nd ref="369852097"/>
    <nd ref="32020605"/>
    <nd ref="369852052"/>
    <nd ref="32020606"/>
    <nd ref="7900438369"/>
    <tag k="highway" v="tertiary"/>
    <tag k="maxspeed" v="50"/>
    <tag k="name" v="Do HoromÄ›Å™ic"/>
    <tag k="ref" v="2404"/>
    <tag k="source:maxspeed" v="CZ:urban"/>
    <tag k="surface" v="asphalt"/>
  </way>
  <way id="114385828" version="2" timestamp="2017-05-01T13:48:26Z" changeset="48308066" uid="255936" user="NyanSten">
    <nd ref="1088093874"/>
    <nd ref="369852030"/>
    <tag k="highway" v="tertiary"/>
    <tag k="maxspeed" v="50"/>
    <tag k="name" v="Do HoromÄ›Å™ic"/>
    <tag k="ref" v="2404"/>
    <tag k="source:maxspeed" v="CZ:urban"/>
    <tag k="surface" v="asphalt"/>
  </way>
  <way id="126265991" version="8" timestamp="2024-11-11T21:10:42Z" changeset="159026678" uid="8971394" user="vojtechzaboril">
    <nd ref="4758542232"/>
    <nd ref="12332186180"/>
    <nd ref="645856154"/>
    <nd ref="645856147"/>
    <nd ref="26827511"/>
    <tag k="highway" v="residential"/>
    <tag k="lanes" v="2"/>
    <tag k="maxspeed" v="50"/>
    <tag k="name" v="DivokÃ¡ Å Ã¡rka"/>
    <tag k="name:de" v="Wilde Scharka"/>
    <tag k="sidewalk:left" v="no"/>
    <tag k="sidewalk:right" v="separate"/>
    <tag k="source:maxspeed" v="CZ:urban"/>
    <tag k="surface" v="asphalt"/>
  </way>
  <way id="127708843" version="14" timestamp="2024-09-28T17:06:20Z" changeset="157220356" uid="598980" user="Daniel BarÃ¡nek">
    <nd ref="25696599"/>
    <nd ref="1286970924"/>
    <nd ref="1286970913"/>
    <nd ref="2145360241"/>
    <nd ref="8919685260"/>
    <nd ref="25696600"/>
    <tag k="cycleway:both" v="no"/>
    <tag k="foot" v="no"/>
    <tag k="highway" v="tertiary"/>
    <tag k="lanes" v="2"/>
    <tag k="lit" v="yes"/>
    <tag k="maxspeed" v="50"/>
    <tag k="name" v="LibockÃ¡"/>
    <tag k="name:de" v="Libotzer StraÃŸe"/>
    <tag k="sidewalk:both" v="separate"/>
    <tag k="source:maxspeed" v="CZ:urban"/>
    <tag k="surface" v="asphalt"/>
  </way>
  <way id="128914713" version="9" timestamp="2024-09-27T12:57:11Z" changeset="157167788" uid="17385839" user="Augustlej">
    <nd ref="25696485"/>
    <nd ref="11294144512"/>
    <nd ref="5301398083"/>
    <nd ref="10734715345"/>
    <nd ref="1456244008"/>
    <tag k="highway" v="residential"/>
    <tag k="name" v="U Silnice"/>
    <tag k="name:de" v="LandstraÃŸe"/>
    <tag k="sidewalk:both" v="separate"/>
    <tag k="surface" v="asphalt"/>
    <tag k="turn:lanes:backward" v="left;through"/>
  </way>
  <way id="132373397" version="7" timestamp="2024-10-07T06:52:32Z" changeset="157567368" uid="598980" user="Daniel BarÃ¡nek">
    <nd ref="475939103"/>
    <nd ref="475369979"/>
    <nd ref="475939112"/>
    <nd ref="25696316"/>
    <tag k="cycleway:both" v="no"/>
    <tag k="highway" v="residential"/>
    <tag k="lane_markings" v="no"/>
    <tag k="name" v="U Silnice"/>
    <tag k="name:de" v="LandstraÃŸe"/>
    <tag k="surface" v="asphalt"/>
  </way>
  <way id="135636661" version="12" timestamp="2024-07-30T16:18:20Z" changeset="154613542" uid="598980" user="Daniel BarÃ¡nek">
    <nd ref="25694792"/>
    <nd ref="1207174772"/>
    <nd ref="1207174724"/>
    <nd ref="67012833"/>
    <nd ref="25694796"/>
    <nd ref="25694800"/>
    <nd ref="67012831"/>
    <nd ref="25694802"/>
    <nd ref="25694804"/>
    <nd ref="1489409667"/>
    <nd ref="25694807"/>
    <tag k="highway" v="residential"/>
    <tag k="lit" v="yes"/>
    <tag k="maxspeed" v="30"/>
    <tag k="maxspeed:type" v="CZ:zone30"/>
    <tag k="maxspeed:zone" v="30"/>
    <tag k="name" v="SestupnÃ¡"/>
    <tag k="name:de" v="Lehnenweg"/>
    <tag k="sidewalk:left" v="separate"/>
    <tag k="sidewalk:right" v="no"/>
    <tag k="source:name" v="uir-adr"/>
    <tag k="surface" v="asphalt"/>
  </way>
  <way id="135636662" version="9" timestamp="2024-08-30T13:45:23Z" changeset="155975135" uid="598980" user="Daniel BarÃ¡nek">
    <nd ref="25694792"/>
    <nd ref="67012796"/>
    <nd ref="66997316"/>
    <tag k="cycleway:both" v="no"/>
    <tag k="highway" v="residential"/>
    <tag k="lane_markings" v="no"/>
    <tag k="lit" v="yes"/>
    <tag k="maxspeed" v="50"/>
    <tag k="name" v="U HvÄ›zdy"/>
    <tag k="name:de" v="SternstraÃŸe"/>
    <tag k="oneway" v="yes"/>
    <tag k="parking:left" v="no"/>
    <tag k="parking:right" v="lane"/>
    <tag k="parking:right:orientation" v="parallel"/>
    <tag k="sidewalk:left" v="no"/>
    <tag k="sidewalk:right" v="separate"/>
    <tag k="surface" v="asphalt"/>
  </way>
  <way id="142172746" version="11" timestamp="2024-09-27T12:55:35Z" changeset="157167788" uid="17385839" user="Augustlej">
    <nd ref="320806412"/>
    <nd ref="5663915855"/>
    <nd ref="12147905709"/>
    <nd ref="320806413"/>
    <nd ref="370561910"/>
    <tag k="access:lanes" v="|no"/>
    <tag k="bicycle:lanes" v="|designated"/>
    <tag k="bus:lanes" v="|designated"/>
    <tag k="busway:right" v="lane"/>
    <tag k="cycleway:right" v="share_busway"/>
    <tag k="highway" v="primary"/>
    <tag k="lanes" v="2"/>
    <tag k="lit" v="yes"/>
    <tag k="maxspeed" v="50"/>
    <tag k="name" v="EvropskÃ¡"/>
    <tag k="name:ja" v="ã‚¨ãƒ´ãƒ­ãƒ—ã‚¹ã‚«"/>
    <tag k="old_name" v="Leninova"/>
    <tag k="oneway" v="yes"/>
    <tag k="psv:lanes" v="|designated"/>
    <tag k="ref" v="7"/>
    <tag k="sidewalk:right" v="separate"/>
    <tag k="source:maxspeed" v="sign"/>
    <tag k="surface" v="asphalt"/>
    <tag k="taxi:lanes" v="|designated"/>
    <tag k="trolley_wire" v="yes"/>
  </way>
  <way id="142172752" version="13" timestamp="2025-04-20T13:10:14Z" changeset="165193353" uid="22796831" user="Finreeal">
    <nd ref="1556082559"/>
    <nd ref="882168449"/>
    <nd ref="10168935611"/>
    <nd ref="12770338222"/>
    <nd ref="21312490"/>
    <tag k="cycleway:right" v="no"/>
    <tag k="foot" v="no"/>
    <tag k="highway" v="primary"/>
    <tag k="lanes" v="2"/>
    <tag k="lit" v="yes"/>
    <tag k="maxspeed" v="70"/>
    <tag k="name" v="EvropskÃ¡"/>
    <tag k="name:ja" v="ã‚¨ãƒ´ãƒ­ãƒ—ã‚¹ã‚«"/>
    <tag k="old_name" v="Leninova"/>
    <tag k="oneway" v="yes"/>
    <tag k="ref" v="7"/>
    <tag k="sidewalk" v="no"/>
    <tag k="smoothness" v="excellent"/>
    <tag k="source:maxspeed" v="sign"/>
    <tag k="surface" v="asphalt"/>
    <tag k="trolley_wire" v="yes"/>
  </way>
  <way id="142172757" version="17" timestamp="2024-08-31T14:48:51Z" changeset="156018650" uid="8971394" user="vojtechzaboril">
    <nd ref="1556082555"/>
    <nd ref="5663915853"/>
    <nd ref="882168409"/>
    <nd ref="4733187166"/>
    <nd ref="3957417027"/>
    <nd ref="10244110457"/>
    <nd ref="9281450311"/>
    <nd ref="5547080635"/>
    <nd ref="882168477"/>
    <nd ref="4685611622"/>
    <tag k="access:lanes" v="|no"/>
    <tag k="bicycle:lanes" v="|designated"/>
    <tag k="bus:lanes" v="|designated"/>
    <tag k="busway:right" v="lane"/>
    <tag k="cycleway:right" v="share_busway"/>
    <tag k="highway" v="primary"/>
    <tag k="lanes" v="2"/>
    <tag k="lit" v="yes"/>
    <tag k="maxspeed" v="50"/>
    <tag k="name" v="EvropskÃ¡"/>
    <tag k="name:ja" v="ã‚¨ãƒ´ãƒ­ãƒ—ã‚¹ã‚«"/>
    <tag k="old_name" v="Leninova"/>
    <tag k="oneway" v="yes"/>
    <tag k="psv:lanes" v="|designated"/>
    <tag k="ref" v="7"/>
    <tag k="sidewalk:left" v="no"/>
    <tag k="sidewalk:right" v="separate"/>
    <tag k="source:maxspeed" v="sign"/>
    <tag k="surface" v="asphalt"/>
    <tag k="taxi:lanes" v="|designated"/>
    <tag k="trolley_wire" v="yes"/>
  </way>
  <way id="142172760" version="11" timestamp="2024-08-31T14:48:51Z" changeset="156018650" uid="8971394" user="vojtechzaboril">
    <nd ref="370561910"/>
    <nd ref="12147905712"/>
    <nd ref="250740"/>
    <nd ref="882168544"/>
    <nd ref="882168463"/>
    <nd ref="882168634"/>
    <nd ref="1556082555"/>
    <tag k="access:lanes" v="|no"/>
    <tag k="bicycle:lanes" v="|designated"/>
    <tag k="bus:lanes" v="|designated"/>
    <tag k="busway:right" v="lane"/>
    <tag k="cycleway:right" v="share_busway"/>
    <tag k="foot" v="no"/>
    <tag k="highway" v="primary"/>
    <tag k="lanes" v="2"/>
    <tag k="lit" v="yes"/>
    <tag k="maxspeed" v="70"/>
    <tag k="name" v="EvropskÃ¡"/>
    <tag k="name:ja" v="ã‚¨ãƒ´ãƒ­ãƒ—ã‚¹ã‚«"/>
    <tag k="old_name" v="Leninova"/>
    <tag k="oneway" v="yes"/>
    <tag k="psv:lanes" v="|designated"/>
    <tag k="ref" v="7"/>
    <tag k="sidewalk:left" v="no"/>
    <tag k="sidewalk:right" v="separate"/>
    <tag k="source:maxspeed" v="sign"/>
    <tag k="surface" v="asphalt"/>
    <tag k="taxi:lanes" v="|designated"/>
    <tag k="trolley_wire" v="yes"/>
  </way>
  <way id="142172761" version="10" timestamp="2024-08-31T14:48:51Z" changeset="156018650" uid="8971394" user="vojtechzaboril">
    <nd ref="21312490"/>
    <nd ref="12147905708"/>
    <nd ref="320806411"/>
    <nd ref="5663915854"/>
    <nd ref="12147905710"/>
    <nd ref="370561911"/>
    <nd ref="1556082568"/>
    <tag k="highway" v="primary"/>
    <tag k="lanes" v="2"/>
    <tag k="lit" v="yes"/>
    <tag k="maxspeed" v="50"/>
    <tag k="name" v="EvropskÃ¡"/>
    <tag k="name:ja" v="ã‚¨ãƒ´ãƒ­ãƒ—ã‚¹ã‚«"/>
    <tag k="old_name" v="Leninova"/>
    <tag k="oneway" v="yes"/>
    <tag k="ref" v="7"/>
    <tag k="sidewalk" v="no"/>
    <tag k="source:maxspeed" v="sign"/>
    <tag k="surface" v="asphalt"/>
    <tag k="trolley_wire" v="yes"/>
  </way>
  <way id="160125793" version="4" timestamp="2024-07-22T08:03:50Z" changeset="154249508" uid="2980245" user="dj314d">
    <nd ref="25696607"/>
    <nd ref="654249155"/>
    <nd ref="360906071"/>
    <nd ref="5023010182"/>
    <nd ref="25696605"/>
    <nd ref="25696600"/>
    <tag k="highway" v="residential"/>
    <tag k="maxspeed" v="30"/>
    <tag k="maxspeed:type" v="CZ:zone30"/>
    <tag k="maxspeed:zone" v="30"/>
    <tag k="name" v="PelikÃ¡nova"/>
    <tag k="surface" v="asphalt"/>
  </way>
  <way id="184570653" version="11" timestamp="2024-10-29T11:50:06Z" changeset="158494382" uid="598980" user="Daniel BarÃ¡nek">
    <nd ref="25696305"/>
    <nd ref="12296199689"/>
    <nd ref="12234687182"/>
    <nd ref="25696301"/>
    <nd ref="12234687180"/>
    <nd ref="12234687177"/>
    <nd ref="25696320"/>
    <nd ref="12234687179"/>
    <nd ref="12296199695"/>
    <nd ref="25696324"/>
    <tag k="cycleway:both" v="no"/>
    <tag k="highway" v="residential"/>
    <tag k="lit" v="yes"/>
    <tag k="maxspeed" v="30"/>
    <tag k="name" v="JeneÄskÃ¡"/>
    <tag k="name:de" v="Jentscher StraÃŸe"/>
    <tag k="oneway" v="yes"/>
    <tag k="sidewalk:both" v="separate"/>
    <tag k="surface" v="asphalt"/>
    <tag k="width" v="3.3"/>
  </way>
  <way id="184570834" version="6" timestamp="2024-10-29T11:50:06Z" changeset="158494382" uid="598980" user="Daniel BarÃ¡nek">
    <nd ref="25696305"/>
    <nd ref="12296199686"/>
    <nd ref="25696308"/>
    <tag k="highway" v="residential"/>
    <tag k="maxspeed" v="30"/>
    <tag k="name" v="JeneÄskÃ¡"/>
    <tag k="name:de" v="Jentscher StraÃŸe"/>
    <tag k="oneway" v="yes"/>
    <tag k="sidewalk" v="both"/>
    <tag k="surface" v="asphalt"/>
  </way>
  <way id="204539151" version="6" timestamp="2024-11-20T10:19:16Z" changeset="159359118" uid="598980" user="Daniel BarÃ¡nek">
    <nd ref="628923807"/>
    <nd ref="628923797"/>
    <nd ref="5327614864"/>
    <nd ref="5327614865"/>
    <nd ref="5327614854"/>
    <nd ref="628923800"/>
    <nd ref="628923802"/>
    <nd ref="628923804"/>
    <nd ref="5327614855"/>
    <nd ref="5327614856"/>
    <nd ref="628923875"/>
    <nd ref="5327614851"/>
    <nd ref="628923836"/>
    <nd ref="5327614868"/>
    <nd ref="628923843"/>
    <nd ref="5327614867"/>
    <nd ref="5327614866"/>
    <nd ref="628923851"/>
    <nd ref="628923840"/>
    <nd ref="628923807"/>
    <tag k="building" v="apartments"/>
    <tag k="building:flats" v="1"/>
    <tag k="building:levels" v="3"/>
    <tag k="building:ruian:type" v="19"/>
    <tag k="name" v="Domov svatÃ© rodiny"/>
    <tag k="ref:ruian:building" v="22016937"/>
    <tag k="roof:levels" v="1"/>
    <tag k="source" v="cuzk:ruian"/>
  </way>
  <way id="222780938" version="10" timestamp="2024-09-10T15:13:59Z" changeset="156445100" uid="598980" user="Daniel BarÃ¡nek">
    <nd ref="2317182630"/>
    <nd ref="4461326753"/>
    <nd ref="2317182633"/>
    <nd ref="29901668"/>
    <tag k="cycleway:both" v="no"/>
    <tag k="foot" v="no"/>
    <tag k="highway" v="residential"/>
    <tag k="lane_markings" v="no"/>
    <tag k="lit" v="yes"/>
    <tag k="maxspeed" v="50"/>
    <tag k="name" v="U HvÄ›zdy"/>
    <tag k="name:de" v="SternstraÃŸe"/>
    <tag k="oneway" v="yes"/>
    <tag k="sidewalk:left" v="no"/>
    <tag k="sidewalk:right" v="separate"/>
    <tag k="surface" v="asphalt"/>
  </way>
  <way id="222780939" version="10" timestamp="2024-09-10T15:14:01Z" changeset="156445100" uid="598980" user="Daniel BarÃ¡nek">
    <nd ref="2317182631"/>
    <nd ref="2317182632"/>
    <nd ref="4461326752"/>
    <nd ref="2317182630"/>
    <tag k="cycleway:both" v="no"/>
    <tag k="foot" v="no"/>
    <tag k="highway" v="residential"/>
    <tag k="lane_markings" v="no"/>
    <tag k="lit" v="yes"/>
    <tag k="maxspeed" v="50"/>
    <tag k="name" v="U HvÄ›zdy"/>
    <tag k="name:de" v="SternstraÃŸe"/>
    <tag k="oneway" v="yes"/>
    <tag k="sidewalk:left" v="no"/>
    <tag k="sidewalk:right" v="separate"/>
    <tag k="surface" v="asphalt"/>
  </way>
  <way id="230222448" version="8" timestamp="2024-04-10T10:27:48Z" changeset="149810078" uid="10932047" user="AF HAF KARTOGRAF">
    <nd ref="4903704825"/>
    <nd ref="4903704816"/>
    <nd ref="4903704817"/>
    <nd ref="4903704824"/>
    <nd ref="1920493145"/>
    <nd ref="4903704821"/>
    <nd ref="4903704820"/>
    <nd ref="2387498603"/>
    <nd ref="4903704819"/>
    <nd ref="2387498621"/>
    <nd ref="4903704825"/>
    <tag k="addr:housenumber" v="ev.28/200a"/>
    <tag k="addr:place" v="Liboc"/>
    <tag k="addr:postcode" v="16100"/>
    <tag k="addr:provisionalnumber" v="28"/>
    <tag k="addr:street" v="EvropskÃ¡"/>
    <tag k="addr:streetnumber" v="200a"/>
    <tag k="building" v="commercial"/>
    <tag k="building:levels" v="1"/>
    <tag k="building:ruian:type" v="10"/>
    <tag k="opening_hours" v="Mo-Fr 08:00-19:00; Sa, Su 09:00-17:00"/>
    <tag k="ref:ruian:building" v="24536733"/>
    <tag k="shop" v="florist"/>
    <tag k="source" v="cuzk:ruian"/>
    <tag k="start_date" v="1998-12-31"/>
  </way>
  <way id="249179358" version="7" timestamp="2024-10-14T06:54:34Z" changeset="157861798" uid="598980" user="Daniel BarÃ¡nek">
    <nd ref="302423144"/>
    <nd ref="475815800"/>
    <nd ref="302423145"/>
    <nd ref="302423146"/>
    <tag k="highway" v="residential"/>
    <tag k="lit" v="yes"/>
    <tag k="maxspeed" v="30"/>
    <tag k="name" v="U Stanice"/>
    <tag k="name:de" v="Bei der Haltestelle"/>
    <tag k="source:maxspeed" v="zone"/>
    <tag k="surface" v="asphalt"/>
  </way>
  <way id="249179359" version="9" timestamp="2025-03-30T06:29:21Z" changeset="164274545" uid="598980" user="Daniel BarÃ¡nek">
    <nd ref="25696598"/>
    <nd ref="2145360242"/>
    <nd ref="5023010181"/>
    <nd ref="5023010184"/>
    <nd ref="10211786759"/>
    <nd ref="302423049"/>
    <nd ref="302423055"/>
    <nd ref="302423058"/>
    <nd ref="643969563"/>
    <tag k="cycleway:both" v="no"/>
    <tag k="hgv:conditional" v="no @ (weight &gt; 6)"/>
    <tag k="highway" v="residential"/>
    <tag k="maxspeed" v="30"/>
    <tag k="name" v="U Stanice"/>
    <tag k="name:de" v="Bei der Haltestelle"/>
    <tag k="source:maxspeed" v="zone"/>
    <tag k="surface" v="asphalt"/>
  </way>
  <way id="250298545" version="9" timestamp="2024-10-06T15:31:06Z" changeset="157545970" uid="598980" user="Daniel BarÃ¡nek">
    <nd ref="2317182631"/>
    <nd ref="29901668"/>
    <tag k="cycleway:both" v="no"/>
    <tag k="highway" v="tertiary"/>
    <tag k="lanes" v="2"/>
    <tag k="lit" v="yes"/>
    <tag k="maxspeed:type" v="CZ:urban"/>
    <tag k="name" v="LibockÃ¡"/>
    <tag k="sidewalk:left" v="separate"/>
    <tag k="sidewalk:right" v="no"/>
    <tag k="surface" v="asphalt"/>
  </way>
  <way id="261914322" version="9" timestamp="2024-09-12T05:59:09Z" changeset="156511521" uid="598980" user="Daniel BarÃ¡nek">
    <nd ref="25696600"/>
    <nd ref="10244134121"/>
    <nd ref="1286970918"/>
    <nd ref="25696601"/>
    <nd ref="10586361102"/>
    <nd ref="1286970922"/>
    <nd ref="360906073"/>
    <nd ref="25696602"/>
    <tag k="cycleway:both" v="no"/>
    <tag k="foot" v="no"/>
    <tag k="highway" v="tertiary"/>
    <tag k="lanes" v="2"/>
    <tag k="lit" v="yes"/>
    <tag k="maxspeed" v="50"/>
    <tag k="name" v="LibockÃ¡"/>
    <tag k="name:de" v="Libotzer StraÃŸe"/>
    <tag k="source:maxspeed" v="CZ:urban"/>
    <tag k="surface" v="asphalt"/>
  </way>
  <way id="261927478" version="5" timestamp="2017-11-28T14:48:31Z" changeset="54151193" uid="255936" user="NyanSten">
    <nd ref="2675576308"/>
    <nd ref="369852089"/>
    <nd ref="5252178059"/>
    <nd ref="369852097"/>
    <tag k="alt_name" v="Na PadesÃ¡tnÃ­ku III"/>
    <tag k="highway" v="residential"/>
    <tag k="name" v="Na PadesÃ¡tnÃ­ku â…¢"/>
    <tag k="source" v="cuzk:km"/>
    <tag k="surface" v="asphalt"/>
  </way>
  <way id="320018447" version="21" timestamp="2025-04-12T22:26:22Z" changeset="164874324" uid="4018695" user="ðŸ‡¨ðŸ‡¿ Roman HornÃ­k">
    <nd ref="10244099100"/>
    <nd ref="302423481"/>
    <nd ref="581988498"/>
    <nd ref="11645551990"/>
    <nd ref="2323177433"/>
    <nd ref="29901670"/>
    <nd ref="9425082341"/>
    <nd ref="582741853"/>
    <nd ref="10248988435"/>
    <nd ref="29901669"/>
    <nd ref="2376834591"/>
    <nd ref="8699271636"/>
    <nd ref="297332911"/>
    <nd ref="634586356"/>
    <nd ref="8699271633"/>
    <nd ref="29901668"/>
    <tag k="cycleway:both" v="no"/>
    <tag k="foot" v="no"/>
    <tag k="highway" v="tertiary"/>
    <tag k="lanes" v="2"/>
    <tag k="lit" v="yes"/>
    <tag k="maxspeed" v="50"/>
    <tag k="name" v="LibockÃ¡"/>
    <tag k="name:de" v="Libotzer StraÃŸe"/>
    <tag k="sidewalk:both" v="separate"/>
    <tag k="surface" v="asphalt"/>
  </way>
  <way id="320018449" version="7" timestamp="2024-09-08T17:19:32Z" changeset="156361746" uid="598980" user="Daniel BarÃ¡nek">
    <nd ref="25696603"/>
    <nd ref="1272035648"/>
    <nd ref="1272035613"/>
    <nd ref="360906076"/>
    <nd ref="302423479"/>
    <tag k="cycleway:both" v="no"/>
    <tag k="foot" v="no"/>
    <tag k="highway" v="tertiary"/>
    <tag k="lanes" v="2"/>
    <tag k="lit" v="yes"/>
    <tag k="maxspeed" v="30"/>
    <tag k="maxspeed:type" v="sign"/>
    <tag k="name" v="LibockÃ¡"/>
    <tag k="name:de" v="Libotzer StraÃŸe"/>
    <tag k="surface" v="asphalt"/>
  </way>
  <way id="320559677" version="9" timestamp="2024-10-21T07:04:04Z" changeset="158155876" uid="598980" user="Daniel BarÃ¡nek">
    <nd ref="475952786"/>
    <nd ref="3271034287"/>
    <nd ref="3271034288"/>
    <nd ref="3271034289"/>
    <tag k="cycleway:both" v="no"/>
    <tag k="highway" v="tertiary_link"/>
    <tag k="lane_markings" v="no"/>
    <tag k="lit" v="yes"/>
    <tag k="maxspeed" v="50"/>
    <tag k="oneway" v="yes"/>
    <tag k="sidewalk:left" v="no"/>
    <tag k="sidewalk:right" v="separate"/>
    <tag k="source:maxspeed" v="CZ:urban"/>
    <tag k="surface" v="asphalt"/>
  </way>
  <way id="320559678" version="7" timestamp="2024-10-09T12:11:41Z" changeset="157669328" uid="598980" user="Daniel BarÃ¡nek">
    <nd ref="475952786"/>
    <nd ref="25696374"/>
    <nd ref="1456244007"/>
    <nd ref="475939089"/>
    <nd ref="25696375"/>
    <nd ref="475939087"/>
    <tag k="cycleway:both" v="no"/>
    <tag k="highway" v="residential"/>
    <tag k="lanes" v="2"/>
    <tag k="lit" v="yes"/>
    <tag k="name" v="U Prioru"/>
    <tag k="sidewalk:both" v="separate"/>
    <tag k="source:name" v="nameit/uir-adr"/>
    <tag k="surface" v="asphalt"/>
    <tag k="turn:lanes:backward" v="right"/>
  </way>
  <way id="320559679" version="6" timestamp="2024-10-09T12:12:12Z" changeset="157669328" uid="598980" user="Daniel BarÃ¡nek">
    <nd ref="1137882749"/>
    <nd ref="3271034291"/>
    <tag k="cycleway:both" v="no"/>
    <tag k="highway" v="residential"/>
    <tag k="lanes" v="2"/>
    <tag k="lit" v="yes"/>
    <tag k="maxspeed" v="50"/>
    <tag k="name" v="U Silnice"/>
    <tag k="name:de" v="LandstraÃŸe"/>
    <tag k="oneway" v="yes"/>
    <tag k="sidewalk:both" v="separate"/>
    <tag k="source:maxspeed" v="CZ:urban"/>
    <tag k="surface" v="asphalt"/>
  </way>
  <way id="320559682" version="9" timestamp="2024-10-21T07:03:59Z" changeset="158155876" uid="598980" user="Daniel BarÃ¡nek">
    <nd ref="3271034289"/>
    <nd ref="25696593"/>
    <nd ref="475939092"/>
    <nd ref="282743009"/>
    <nd ref="25696594"/>
    <nd ref="654249030"/>
    <tag k="cycleway:both" v="no"/>
    <tag k="highway" v="tertiary"/>
    <tag k="lanes" v="2"/>
    <tag k="lit" v="yes"/>
    <tag k="maxspeed" v="50"/>
    <tag k="name" v="LitovickÃ¡"/>
    <tag k="name:de" v="Lidowitzer StraÃŸe"/>
    <tag k="oneway" v="yes"/>
    <tag k="parking:both" v="no"/>
    <tag k="sidewalk:both" v="separate"/>
    <tag k="source:maxspeed" v="CZ:urban"/>
    <tag k="surface" v="asphalt"/>
  </way>
  <way id="361906830" version="3" timestamp="2022-04-11T11:54:50Z" changeset="119575636" uid="15548948" user="MilosBr">
    <nd ref="25696339"/>
    <nd ref="25696333"/>
    <tag k="highway" v="residential"/>
    <tag k="maxspeed" v="30"/>
    <tag k="name" v="DolanskÃ¡"/>
    <tag k="name:de" v="Dolaner StraÃŸe"/>
    <tag k="oneway" v="yes"/>
    <tag k="source:maxspeed" v="zone"/>
    <tag k="surface" v="asphalt"/>
  </way>
  <way id="361906831" version="5" timestamp="2025-04-12T22:26:22Z" changeset="164874324" uid="4018695" user="ðŸ‡¨ðŸ‡¿ Roman HornÃ­k">
    <nd ref="25696333"/>
    <nd ref="25696328"/>
    <tag k="highway" v="residential"/>
    <tag k="maxspeed" v="30"/>
    <tag k="name" v="JeneÄskÃ¡"/>
    <tag k="name:de" v="Jentscher StraÃŸe"/>
    <tag k="oneway" v="yes"/>
    <tag k="source:maxspeed" v="zone"/>
    <tag k="surface" v="asphalt"/>
  </way>
  <way id="361906832" version="12" timestamp="2025-04-12T22:26:22Z" changeset="164874324" uid="4018695" user="ðŸ‡¨ðŸ‡¿ Roman HornÃ­k">
    <nd ref="25696324"/>
    <nd ref="8919644033"/>
    <nd ref="25696328"/>
    <tag k="cycleway:both" v="no"/>
    <tag k="highway" v="residential"/>
    <tag k="lit" v="yes"/>
    <tag k="maxspeed" v="30"/>
    <tag k="name" v="JeneÄskÃ¡"/>
    <tag k="name:de" v="Jentscher StraÃŸe"/>
    <tag k="oneway" v="yes"/>
    <tag k="sidewalk:both" v="separate"/>
    <tag k="source:maxspeed" v="zone"/>
    <tag k="surface" v="asphalt"/>
  </way>
  <way id="364819978" version="4" timestamp="2017-05-01T13:46:45Z" changeset="48308026" uid="255936" user="NyanSten">
    <nd ref="369852058"/>
    <nd ref="369852063"/>
    <nd ref="369852089"/>
    <nd ref="369852070"/>
    <nd ref="369852032"/>
    <tag k="alt_name" v="Na PadesÃ¡tnÃ­ku I"/>
    <tag k="highway" v="residential"/>
    <tag k="name" v="Na PadesÃ¡tnÃ­ku â… "/>
    <tag k="source" v="cuzk:km"/>
    <tag k="surface" v="asphalt"/>
  </way>
  <way id="474652731" version="15" timestamp="2024-11-11T21:10:42Z" changeset="159026678" uid="8971394" user="vojtechzaboril">
    <nd ref="242836630"/>
    <nd ref="12332186181"/>
    <nd ref="12332186182"/>
    <nd ref="645856179"/>
    <nd ref="7777720675"/>
    <nd ref="26827511"/>
    <tag k="highway" v="primary"/>
    <tag k="lanes" v="3"/>
    <tag k="lit" v="yes"/>
    <tag k="maxspeed" v="60"/>
    <tag k="name" v="EvropskÃ¡"/>
    <tag k="name:ja" v="ã‚¨ãƒ´ãƒ­ãƒ—ã‚¹ã‚«"/>
    <tag k="old_name" v="Leninova"/>
    <tag k="oneway" v="yes"/>
    <tag k="placement" v="right_of:2"/>
    <tag k="ref" v="7"/>
    <tag k="sidewalk:left" v="no"/>
    <tag k="sidewalk:right" v="separate"/>
    <tag k="smoothness" v="excellent"/>
    <tag k="source:maxspeed" v="sign"/>
    <tag k="surface" v="asphalt"/>
    <tag k="trolley_wire" v="yes"/>
    <tag k="turn:lanes" v="left|through|through;right"/>
  </way>
  <way id="474652732" version="12" timestamp="2024-11-11T21:10:42Z" changeset="159026678" uid="8971394" user="vojtechzaboril">
    <nd ref="4685592411"/>
    <nd ref="32524110"/>
    <nd ref="645856152"/>
    <nd ref="7777720648"/>
    <nd ref="645856143"/>
    <nd ref="32524111"/>
    <tag k="cycleway:right" v="no"/>
    <tag k="highway" v="primary"/>
    <tag k="lanes" v="2"/>
    <tag k="lit" v="yes"/>
    <tag k="maxspeed" v="50"/>
    <tag k="name" v="EvropskÃ¡"/>
    <tag k="name:ja" v="ã‚¨ãƒ´ãƒ­ãƒ—ã‚¹ã‚«"/>
    <tag k="old_name" v="Leninova"/>
    <tag k="oneway" v="yes"/>
    <tag k="ref" v="7"/>
    <tag k="sidewalk:left" v="no"/>
    <tag k="sidewalk:right" v="separate"/>
    <tag k="source:maxspeed" v="CZ:urban"/>
    <tag k="surface" v="asphalt"/>
    <tag k="turn:lanes" v="through|through;right"/>
  </way>
  <way id="474654964" version="11" timestamp="2024-11-11T21:10:42Z" changeset="159026678" uid="8971394" user="vojtechzaboril">
    <nd ref="3577495289"/>
    <nd ref="4685611621"/>
    <tag k="foot" v="no"/>
    <tag k="highway" v="primary"/>
    <tag k="lanes" v="2"/>
    <tag k="lit" v="yes"/>
    <tag k="maxspeed" v="50"/>
    <tag k="name" v="EvropskÃ¡"/>
    <tag k="name:ja" v="ã‚¨ãƒ´ãƒ­ãƒ—ã‚¹ã‚«"/>
    <tag k="old_name" v="Leninova"/>
    <tag k="oneway" v="yes"/>
    <tag k="ref" v="7"/>
    <tag k="sidewalk" v="no"/>
    <tag k="smoothness" v="excellent"/>
    <tag k="surface" v="asphalt"/>
    <tag k="turn:lanes" v="left;through|through;right"/>
  </way>
  <way id="474654969" version="16" timestamp="2024-11-11T21:10:42Z" changeset="159026678" uid="8971394" user="vojtechzaboril">
    <nd ref="4685611621"/>
    <nd ref="12332186185"/>
    <nd ref="11264076574"/>
    <nd ref="5301383138"/>
    <nd ref="29673511"/>
    <tag k="foot" v="no"/>
    <tag k="highway" v="primary"/>
    <tag k="lanes" v="3"/>
    <tag k="lit" v="yes"/>
    <tag k="maxspeed" v="50"/>
    <tag k="name" v="EvropskÃ¡"/>
    <tag k="name:ja" v="ã‚¨ãƒ´ãƒ­ãƒ—ã‚¹ã‚«"/>
    <tag k="old_name" v="Leninova"/>
    <tag k="oneway" v="yes"/>
    <tag k="placement" v="right_of:2"/>
    <tag k="ref" v="7"/>
    <tag k="sidewalk" v="no"/>
    <tag k="source:maxspeed" v="CZ:urban"/>
    <tag k="surface" v="asphalt"/>
    <tag k="trolley_wire" v="yes"/>
    <tag k="turn:lanes" v="left|through|through"/>
  </way>
  <way id="474654975" version="14" timestamp="2025-04-20T13:10:14Z" changeset="165193353" uid="22796831" user="Finreeal">
    <nd ref="4685611622"/>
    <nd ref="3735798759"/>
    <nd ref="5301383137"/>
    <nd ref="7777720617"/>
    <nd ref="11299877822"/>
    <nd ref="4829044235"/>
    <nd ref="25696241"/>
    <tag k="foot" v="no"/>
    <tag k="highway" v="primary"/>
    <tag k="lanes" v="2"/>
    <tag k="lit" v="yes"/>
    <tag k="maxspeed" v="50"/>
    <tag k="name" v="EvropskÃ¡"/>
    <tag k="name:ja" v="ã‚¨ãƒ´ãƒ­ãƒ—ã‚¹ã‚«"/>
    <tag k="old_name" v="Leninova"/>
    <tag k="oneway" v="yes"/>
    <tag k="ref" v="7"/>
    <tag k="sidewalk" v="no"/>
    <tag k="source:maxspeed" v="CZ:urban"/>
    <tag k="surface" v="asphalt"/>
    <tag k="trolley_wire" v="yes"/>
    <tag k="turn:lanes" v="through|through;right"/>
  </way>
  <way id="474654979" version="13" timestamp="2024-11-11T21:10:42Z" changeset="159026678" uid="8971394" user="vojtechzaboril">
    <nd ref="6833309246"/>
    <nd ref="5301445279"/>
    <nd ref="11264076573"/>
    <nd ref="3577495289"/>
    <tag k="cycleway:right" v="no"/>
    <tag k="highway" v="primary"/>
    <tag k="lanes" v="2"/>
    <tag k="lit" v="yes"/>
    <tag k="maxspeed" v="50"/>
    <tag k="name" v="EvropskÃ¡"/>
    <tag k="name:ja" v="ã‚¨ãƒ´ãƒ­ãƒ—ã‚¹ã‚«"/>
    <tag k="old_name" v="Leninova"/>
    <tag k="oneway" v="yes"/>
    <tag k="ref" v="7"/>
    <tag k="sidewalk:left" v="no"/>
    <tag k="sidewalk:right" v="separate"/>
    <tag k="source:maxspeed" v="CZ:urban"/>
    <tag k="surface" v="asphalt"/>
    <tag k="turn:lanes" v="through|through"/>
  </way>
  <way id="474837589" version="8" timestamp="2024-10-25T06:12:01Z" changeset="158322395" uid="598980" user="Daniel BarÃ¡nek">
    <nd ref="4687042792"/>
    <nd ref="345382727"/>
    <tag k="cutting" v="yes"/>
    <tag k="cycleway:both" v="no"/>
    <tag k="highway" v="tertiary"/>
    <tag k="lane_markings" v="no"/>
    <tag k="lit" v="no"/>
    <tag k="maxspeed" v="50"/>
    <tag k="name" v="LibockÃ¡"/>
    <tag k="name:de" v="Libotzer StraÃŸe"/>
    <tag k="oneway" v="yes"/>
    <tag k="sidewalk:left" v="separate"/>
    <tag k="sidewalk:right" v="no"/>
    <tag k="source:maxspeed" v="CZ:urban"/>
    <tag k="surface" v="asphalt"/>
  </way>
  <way id="474837591" version="7" timestamp="2024-10-21T07:04:27Z" changeset="158155876" uid="598980" user="Daniel BarÃ¡nek">
    <nd ref="654249030"/>
    <nd ref="1216026527"/>
    <nd ref="475815787"/>
    <tag k="cycleway:both" v="no"/>
    <tag k="highway" v="tertiary"/>
    <tag k="lanes" v="2"/>
    <tag k="lit" v="yes"/>
    <tag k="maxspeed" v="50"/>
    <tag k="name" v="LitovickÃ¡"/>
    <tag k="name:de" v="Lidowitzer StraÃŸe"/>
    <tag k="oneway" v="yes"/>
    <tag k="sidewalk:both" v="separate"/>
    <tag k="source:maxspeed" v="CZ:urban"/>
    <tag k="surface" v="asphalt"/>
    <tag k="turn:lanes" v="left|right"/>
  </way>
  <way id="474837592" version="10" timestamp="2024-09-28T17:06:06Z" changeset="157220356" uid="598980" user="Daniel BarÃ¡nek">
    <nd ref="360910093"/>
    <nd ref="10144854188"/>
    <nd ref="2314963118"/>
    <nd ref="25696598"/>
    <nd ref="1286970921"/>
    <nd ref="10211786751"/>
    <nd ref="9281470521"/>
    <tag k="cycleway:both" v="no"/>
    <tag k="highway" v="tertiary"/>
    <tag k="lanes" v="2"/>
    <tag k="lit" v="yes"/>
    <tag k="maxspeed" v="50"/>
    <tag k="name" v="LibockÃ¡"/>
    <tag k="name:de" v="Libotzer StraÃŸe"/>
    <tag k="sidewalk:both" v="separate"/>
    <tag k="source:maxspeed" v="CZ:urban"/>
    <tag k="surface" v="asphalt"/>
  </way>
  <way id="474837593" version="8" timestamp="2024-10-03T03:09:25Z" changeset="157400818" uid="598980" user="Daniel BarÃ¡nek">
    <nd ref="4687042793"/>
    <nd ref="4969313385"/>
    <nd ref="25696597"/>
    <nd ref="25696596"/>
    <tag k="cycleway:both" v="no"/>
    <tag k="highway" v="tertiary"/>
    <tag k="lanes" v="2"/>
    <tag k="lanes:backward" v="1"/>
    <tag k="lanes:forward" v="1"/>
    <tag k="lit" v="yes"/>
    <tag k="maxspeed:backward" v="50"/>
    <tag k="maxspeed:forward" v="30"/>
    <tag k="name" v="RuzyÅˆskÃ¡"/>
    <tag k="sidewalk:both" v="separate"/>
    <tag k="source:maxspeed:backward" v="CZ:urban"/>
    <tag k="source:maxspeed:forward" v="sign"/>
    <tag k="source:name" v="nameit/uir-adr"/>
    <tag k="surface" v="asphalt"/>
    <tag k="turn:forward" v="through;right"/>
  </way>
  <way id="474837594" version="9" timestamp="2024-10-14T06:52:22Z" changeset="157861724" uid="598980" user="Daniel BarÃ¡nek">
    <nd ref="4687042794"/>
    <nd ref="1286970915"/>
    <nd ref="3271034294"/>
    <tag k="cycleway:both" v="no"/>
    <tag k="highway" v="tertiary"/>
    <tag k="lanes" v="2"/>
    <tag k="lit" v="yes"/>
    <tag k="maxspeed" v="50"/>
    <tag k="name" v="LibockÃ¡"/>
    <tag k="name:de" v="Libotzer StraÃŸe"/>
    <tag k="sidewalk:both" v="separate"/>
    <tag k="source:maxspeed" v="CZ:urban"/>
    <tag k="surface" v="asphalt"/>
    <tag k="turn:lanes:forward" v="right"/>
  </way>
  <way id="474837595" version="7" timestamp="2024-11-11T21:10:42Z" changeset="159026678" uid="8971394" user="vojtechzaboril">
    <nd ref="26827507"/>
    <nd ref="12332186176"/>
    <nd ref="4758542232"/>
    <tag k="highway" v="residential"/>
    <tag k="lanes" v="2"/>
    <tag k="maxspeed" v="50"/>
    <tag k="name" v="DivokÃ¡ Å Ã¡rka"/>
    <tag k="name:de" v="Wilde Scharka"/>
    <tag k="sidewalk:left" v="no"/>
    <tag k="sidewalk:right" v="separate"/>
    <tag k="source:maxspeed" v="CZ:urban"/>
    <tag k="surface" v="asphalt"/>
    <tag k="turn:lanes:backward" v="through"/>
  </way>
  <way id="480313945" version="4" timestamp="2022-12-10T12:27:17Z" changeset="129931992" uid="8420724" user="VojtaFilip">
    <nd ref="32020607"/>
    <nd ref="1088093773"/>
    <nd ref="32268933"/>
    <tag k="cycleway:both" v="no"/>
    <tag k="highway" v="tertiary"/>
    <tag k="lanes" v="2"/>
    <tag k="maxspeed" v="90"/>
    <tag k="name" v="Do HoromÄ›Å™ic"/>
    <tag k="ref" v="2404"/>
    <tag k="source:maxspeed" v="CZ:rural"/>
    <tag k="surface" v="asphalt"/>
  </way>
  <way id="487491788" version="8" timestamp="2024-10-07T06:42:43Z" changeset="157566968" uid="598980" user="Daniel BarÃ¡nek">
    <nd ref="31908409"/>
    <nd ref="31908422"/>
    <tag k="access:lanes" v="|no"/>
    <tag k="bicycle:lanes" v="|designated"/>
    <tag k="bus:lanes" v="|designated"/>
    <tag k="busway:right" v="lane"/>
    <tag k="cycleway:left" v="no"/>
    <tag k="cycleway:right" v="share_busway"/>
    <tag k="highway" v="primary"/>
    <tag k="lanes" v="2"/>
    <tag k="lit" v="yes"/>
    <tag k="maxspeed" v="60"/>
    <tag k="name" v="EvropskÃ¡"/>
    <tag k="name:ja" v="ã‚¨ãƒ´ãƒ­ãƒ—ã‚¹ã‚«"/>
    <tag k="old_name" v="Leninova"/>
    <tag k="oneway" v="yes"/>
    <tag k="psv:lanes" v="|designated"/>
    <tag k="ref" v="7"/>
    <tag k="sidewalk:left" v="no"/>
    <tag k="sidewalk:right" v="separate"/>
    <tag k="source:maxspeed" v="sign"/>
    <tag k="surface" v="asphalt"/>
    <tag k="taxi:lanes" v="|designated"/>
    <tag k="trolley_wire" v="yes"/>
  </way>
  <way id="487491789" version="3" timestamp="2019-08-02T11:32:42Z" changeset="72935303" uid="10127568" user="michalkaima">
    <nd ref="31908409"/>
    <nd ref="645861276"/>
    <nd ref="25696335"/>
    <nd ref="25696337"/>
    <tag k="highway" v="residential"/>
    <tag k="maxspeed" v="30"/>
    <tag k="name" v="Za Vokovickou vozovnou"/>
    <tag k="name:de" v="Wokowitzer Wagenhalle"/>
    <tag k="oneway" v="yes"/>
    <tag k="source:maxspeed" v="zone"/>
    <tag k="surface" v="asphalt"/>
  </way>
  <way id="487491790" version="9" timestamp="2024-10-07T06:42:13Z" changeset="157566968" uid="598980" user="Daniel BarÃ¡nek">
    <nd ref="1137874892"/>
    <nd ref="3414139086"/>
    <nd ref="31908409"/>
    <tag k="access:lanes" v="|no"/>
    <tag k="bicycle:lanes" v="|designated"/>
    <tag k="bus:lanes" v="|designated"/>
    <tag k="busway:right" v="lane"/>
    <tag k="cycleway:left" v="no"/>
    <tag k="cycleway:right" v="share_busway"/>
    <tag k="highway" v="primary"/>
    <tag k="lanes" v="2"/>
    <tag k="lit" v="yes"/>
    <tag k="maxspeed" v="60"/>
    <tag k="name" v="EvropskÃ¡"/>
    <tag k="name:ja" v="ã‚¨ãƒ´ãƒ­ãƒ—ã‚¹ã‚«"/>
    <tag k="old_name" v="Leninova"/>
    <tag k="oneway" v="yes"/>
    <tag k="psv:lanes" v="|designated"/>
    <tag k="ref" v="7"/>
    <tag k="sidewalk:left" v="no"/>
    <tag k="sidewalk:right" v="separate"/>
    <tag k="smoothness" v="excellent"/>
    <tag k="source:maxspeed" v="sign"/>
    <tag k="surface" v="asphalt"/>
    <tag k="taxi:lanes" v="|designated"/>
    <tag k="trolley_wire" v="yes"/>
    <tag k="turn:lanes" v="through;right|through;right"/>
  </way>
  <way id="490691846" version="2" timestamp="2017-11-28T14:48:31Z" changeset="54151193" uid="255936" user="NyanSten">
    <nd ref="369852063"/>
    <nd ref="5252178060"/>
    <nd ref="369852052"/>
    <tag k="alt_name" v="Na PadesÃ¡tnÃ­ku II"/>
    <tag k="highway" v="residential"/>
    <tag k="name" v="Na PadesÃ¡tnÃ­ku â…¡"/>
    <tag k="source" v="cuzk:km"/>
    <tag k="surface" v="asphalt"/>
  </way>
  <way id="495063504" version="1" timestamp="2017-05-21T19:58:32Z" changeset="48868319" uid="10353" user="gorn">
    <nd ref="244498487"/>
    <nd ref="4868517900"/>
    <nd ref="1277517254"/>
    <tag k="highway" v="residential"/>
    <tag k="name" v="Pod HÃ¡jovnou"/>
  </way>
  <way id="514027789" version="6" timestamp="2024-09-12T13:36:13Z" changeset="156528934" uid="598980" user="Daniel BarÃ¡nek">
    <nd ref="307584141"/>
    <nd ref="9425027004"/>
    <nd ref="2314963071"/>
    <nd ref="307584144"/>
    <tag k="cycleway:both" v="no"/>
    <tag k="highway" v="residential"/>
    <tag k="lane_markings" v="no"/>
    <tag k="name" v="FabiÃ¡nskÃ¡"/>
    <tag k="source:name" v="uir-adr"/>
    <tag k="surface" v="asphalt"/>
  </way>
  <way id="514027790" version="12" timestamp="2025-04-12T22:26:22Z" changeset="164874324" uid="4018695" user="ðŸ‡¨ðŸ‡¿ Roman HornÃ­k">
    <nd ref="25696602"/>
    <nd ref="634586419"/>
    <nd ref="10244099101"/>
    <nd ref="10586361103"/>
    <nd ref="11511306735"/>
    <nd ref="634586412"/>
    <nd ref="9425026993"/>
    <nd ref="9425026994"/>
    <nd ref="25696603"/>
    <tag k="cycleway:both" v="no"/>
    <tag k="foot" v="no"/>
    <tag k="highway" v="tertiary"/>
    <tag k="lanes" v="2"/>
    <tag k="maxspeed" v="30"/>
    <tag k="maxspeed:backward" v="50"/>
    <tag k="maxspeed:forward" v="30"/>
    <tag k="name" v="LibockÃ¡"/>
    <tag k="name:de" v="Libotzer StraÃŸe"/>
    <tag k="source:maxspeed:backward" v="CZ:urban"/>
    <tag k="source:maxspeed:forward" v="sign"/>
    <tag k="surface" v="asphalt"/>
  </way>
  <way id="514027794" version="4" timestamp="2024-10-14T06:54:36Z" changeset="157861798" uid="598980" user="Daniel BarÃ¡nek">
    <nd ref="643969563"/>
    <nd ref="302423061"/>
    <nd ref="1260336139"/>
    <nd ref="302423170"/>
    <nd ref="302423141"/>
    <nd ref="302423143"/>
    <nd ref="302423144"/>
    <tag k="highway" v="residential"/>
    <tag k="lit" v="yes"/>
    <tag k="maxspeed" v="30"/>
    <tag k="name" v="U Stanice"/>
    <tag k="name:de" v="Bei der Haltestelle"/>
    <tag k="source:maxspeed" v="zone"/>
    <tag k="surface" v="sett"/>
  </way>
  <way id="528085160" version="2" timestamp="2018-01-12T08:53:38Z" changeset="55373918" uid="1558400" user="Kudej">
    <nd ref="5132721231"/>
    <nd ref="5132721230"/>
    <nd ref="5132721229"/>
    <nd ref="5132721228"/>
    <nd ref="5132721231"/>
    <tag k="alt_name" v="kaple"/>
    <tag k="building" v="civic"/>
    <tag k="building:ruian:type" v="15"/>
    <tag k="name" v="mÃ¡rnice"/>
    <tag k="ref:ruian:building" v="40453383"/>
    <tag k="source" v="cuzk:ruian"/>
  </way>
  <way id="538697331" version="7" timestamp="2024-07-30T16:21:22Z" changeset="154613555" uid="598980" user="Daniel BarÃ¡nek">
    <nd ref="66997353"/>
    <nd ref="2317182630"/>
    <tag k="cycleway:both" v="no"/>
    <tag k="highway" v="residential"/>
    <tag k="lane_markings" v="no"/>
    <tag k="maxspeed" v="50"/>
    <tag k="name" v="U HvÄ›zdy"/>
    <tag k="name:de" v="SternstraÃŸe"/>
    <tag k="sidewalk:left" v="no"/>
    <tag k="sidewalk:right" v="separate"/>
    <tag k="surface" v="asphalt"/>
  </way>
  <way id="548775864" version="9" timestamp="2024-08-18T09:26:44Z" changeset="155404217" uid="4201328" user="granitschÃ¤del">
    <nd ref="25696313"/>
    <nd ref="5301398117"/>
    <nd ref="11700181132"/>
    <nd ref="5301398088"/>
    <nd ref="10130037420"/>
    <nd ref="5301398116"/>
    <tag k="hgv" v="destination"/>
    <tag k="highway" v="tertiary"/>
    <tag k="lanes" v="2"/>
    <tag k="lit" v="yes"/>
    <tag k="maxspeed" v="30"/>
    <tag k="name" v="Vlastina"/>
    <tag k="source:maxspeed" v="sign"/>
    <tag k="surface" v="asphalt"/>
  </way>
  <way id="548775876" version="10" timestamp="2024-09-27T12:57:37Z" changeset="157167788" uid="17385839" user="Augustlej">
    <nd ref="1456244008"/>
    <nd ref="10161941389"/>
    <nd ref="10161941387"/>
    <nd ref="10249802264"/>
    <nd ref="10161941388"/>
    <nd ref="10893653161"/>
    <nd ref="5301398085"/>
    <tag k="highway" v="tertiary_link"/>
    <tag k="lanes" v="1"/>
    <tag k="oneway" v="yes"/>
    <tag k="sidewalk:both" v="separate"/>
    <tag k="smoothness" v="excellent"/>
    <tag k="surface" v="asphalt"/>
    <tag k="turn:lanes" v="right"/>
  </way>
  <way id="548775877" version="7" timestamp="2024-11-11T21:10:42Z" changeset="159026678" uid="8971394" user="vojtechzaboril">
    <nd ref="1456244008"/>
    <nd ref="12332186195"/>
    <nd ref="650997504"/>
    <nd ref="360921703"/>
    <nd ref="1138386683"/>
    <nd ref="25696315"/>
    <tag k="highway" v="residential"/>
    <tag k="maxspeed" v="30"/>
    <tag k="name" v="U Silnice"/>
    <tag k="name:de" v="LandstraÃŸe"/>
    <tag k="sidewalk:left" v="separate"/>
  </way>
  <way id="548775878" version="10" timestamp="2024-09-27T12:57:33Z" changeset="157167788" uid="17385839" user="Augustlej">
    <nd ref="5301398085"/>
    <nd ref="11299877834"/>
    <nd ref="25696485"/>
    <tag k="hgv" v="destination"/>
    <tag k="highway" v="tertiary"/>
    <tag k="lanes" v="2"/>
    <tag k="lit" v="yes"/>
    <tag k="maxspeed" v="30"/>
    <tag k="name" v="Vlastina"/>
    <tag k="sidewalk:both" v="separate"/>
    <tag k="source:maxspeed" v="sign"/>
    <tag k="surface" v="asphalt"/>
  </way>
  <way id="548775879" version="9" timestamp="2024-09-27T10:37:28Z" changeset="157164280" uid="17385839" user="Augustlej">
    <nd ref="5301398116"/>
    <nd ref="271537417"/>
    <tag k="hgv" v="destination"/>
    <tag k="highway" v="tertiary"/>
    <tag k="lanes" v="2"/>
    <tag k="lit" v="yes"/>
    <tag k="maxspeed" v="20"/>
    <tag k="name" v="Vlastina"/>
    <tag k="smoothness" v="excellent"/>
    <tag k="source:maxspeed" v="sign"/>
    <tag k="surface" v="asphalt"/>
  </way>
  <way id="548775880" version="11" timestamp="2024-09-27T12:57:29Z" changeset="157167788" uid="17385839" user="Augustlej">
    <nd ref="271537417"/>
    <nd ref="10130106171"/>
    <nd ref="5301398085"/>
    <tag k="hgv" v="destination"/>
    <tag k="highway" v="tertiary"/>
    <tag k="lanes" v="2"/>
    <tag k="lit" v="yes"/>
    <tag k="maxspeed" v="30"/>
    <tag k="name" v="Vlastina"/>
    <tag k="sidewalk:both" v="separate"/>
    <tag k="smoothness" v="excellent"/>
    <tag k="source:maxspeed" v="sign"/>
    <tag k="surface" v="asphalt"/>
  </way>
  <way id="548779228" version="3" timestamp="2025-05-10T23:49:56Z" changeset="166089534" uid="21903370" user="KrysaÅ™">
    <nd ref="31908452"/>
    <nd ref="1138384710"/>
    <nd ref="60687886"/>
    <tag k="hgv" v="destination"/>
    <tag k="highway" v="residential"/>
    <tag k="maxspeed" v="30"/>
    <tag k="name" v="DÄ›dinskÃ¡"/>
    <tag k="sidewalk:both" v="separate"/>
    <tag k="surface" v="asphalt"/>
  </way>
  <way id="562560768" version="1" timestamp="2018-02-19T19:03:12Z" changeset="56500439" uid="1558400" user="Kudej">
    <nd ref="5423131879"/>
    <nd ref="5423131866"/>
    <nd ref="5423131865"/>
    <nd ref="5423131864"/>
    <nd ref="5423131878"/>
    <nd ref="5423131877"/>
    <nd ref="5423131876"/>
    <nd ref="5423131875"/>
    <nd ref="5423131879"/>
    <tag k="alt_name" v="SvÄ›tliÄka"/>
    <tag k="building" v="yes"/>
    <tag k="description" v="VstupnÃ­ objekt do vodovodnÃ­ Å¡toly SvÄ›tluÅ¡ka"/>
    <tag k="historic" v="yes"/>
    <tag k="name" v="SvÄ›tluÅ¡ka"/>
    <tag k="source" v="CZ:IPRPraha:ortofoto;survey"/>
    <tag k="wikidata" v="Q37460028"/>
  </way>
  <way id="580260445" version="1" timestamp="2018-04-15T22:02:24Z" changeset="58121100" uid="255936" user="NyanSten">
    <nd ref="5023010192"/>
    <nd ref="5023010194"/>
    <nd ref="674103369"/>
    <nd ref="1135003543"/>
    <nd ref="360906034"/>
    <tag k="highway" v="residential"/>
    <tag k="maxspeed" v="30"/>
    <tag k="name" v="NaardenskÃ¡"/>
    <tag k="source:maxspeed" v="zone"/>
    <tag k="surface" v="asphalt"/>
  </way>
  <way id="580260886" version="4" timestamp="2024-11-08T11:16:32Z" changeset="158891184" uid="718054" user="Piskvor">
    <nd ref="2314943403"/>
    <nd ref="5555296457"/>
    <nd ref="5555296458"/>
    <nd ref="5555296459"/>
    <nd ref="2314943403"/>
    <tag k="amenity" v="place_of_worship"/>
    <tag k="building" v="chapel"/>
    <tag k="denomination" v="roman_catholic"/>
    <tag k="name" v="svatÃ½ Jan NepomuckÃ½"/>
    <tag k="official_name" v="KapliÄka svatÃ©ho Jana NepomuckÃ©ho"/>
    <tag k="religion" v="christian"/>
    <tag k="source" v="CZ:IPRPraha:ortofoto"/>
    <tag k="wikidata" v="Q37459879"/>
    <tag k="wikimedia_commons" v="Category:Chapel of Saint John of Nepomuk (Praha-Liboc)"/>
  </way>
  <way id="580415705" version="5" timestamp="2024-10-25T06:12:16Z" changeset="158322395" uid="598980" user="Daniel BarÃ¡nek">
    <nd ref="5556300873"/>
    <nd ref="3271034294"/>
    <tag k="cycleway:both" v="no"/>
    <tag k="highway" v="tertiary"/>
    <tag k="lane_markings" v="no"/>
    <tag k="maxspeed" v="50"/>
    <tag k="name" v="LibockÃ¡"/>
    <tag k="name:de" v="Libotzer StraÃŸe"/>
    <tag k="oneway" v="yes"/>
    <tag k="sidewalk:left" v="separate"/>
    <tag k="sidewalk:right" v="no"/>
    <tag k="source:maxspeed" v="CZ:urban"/>
    <tag k="surface" v="asphalt"/>
  </way>
  <way id="709997637" version="2" timestamp="2020-08-04T07:38:16Z" changeset="88913147" uid="8976801" user="majkaz_imports">
    <nd ref="1137874899"/>
    <nd ref="5962459954"/>
    <tag k="highway" v="residential"/>
    <tag k="maxspeed" v="30"/>
    <tag k="name" v="KrajnÃ­"/>
    <tag k="name:de" v="RÃ¤ndelstraÃŸe"/>
    <tag k="source:maxspeed" v="zone"/>
    <tag k="surface" v="asphalt"/>
  </way>
  <way id="709997638" version="3" timestamp="2020-08-04T07:38:16Z" changeset="88913147" uid="8976801" user="majkaz_imports">
    <nd ref="1137874899"/>
    <nd ref="1260336135"/>
    <tag k="highway" v="residential"/>
    <tag k="maxspeed" v="30"/>
    <tag k="name" v="U KolejÃ­"/>
    <tag k="name:de" v="Am Gleis"/>
    <tag k="oneway" v="yes"/>
    <tag k="source:maxspeed" v="zone"/>
    <tag k="surface" v="asphalt"/>
  </way>
  <way id="709997639" version="2" timestamp="2020-08-04T07:38:16Z" changeset="88913147" uid="8976801" user="majkaz_imports">
    <nd ref="25696337"/>
    <nd ref="25696341"/>
    <tag k="highway" v="residential"/>
    <tag k="maxspeed" v="30"/>
    <tag k="name" v="Za Vokovickou vozovnou"/>
    <tag k="name:de" v="Wokowitzer Wagenhalle"/>
    <tag k="oneway" v="yes"/>
    <tag k="source:maxspeed" v="zone"/>
    <tag k="surface" v="asphalt"/>
  </way>
  <way id="709997641" version="3" timestamp="2020-08-04T07:38:16Z" changeset="88913147" uid="8976801" user="majkaz_imports">
    <nd ref="25696345"/>
    <nd ref="302423391"/>
    <nd ref="25696341"/>
    <nd ref="25696340"/>
    <tag k="highway" v="residential"/>
    <tag k="maxspeed" v="30"/>
    <tag k="name" v="U KolejÃ­"/>
    <tag k="name:de" v="Am Gleis"/>
    <tag k="source:maxspeed" v="zone"/>
    <tag k="surface" v="asphalt"/>
  </way>
  <way id="727464040" version="3" timestamp="2020-08-04T07:38:16Z" changeset="88913147" uid="8976801" user="majkaz_imports">
    <nd ref="1260336135"/>
    <nd ref="302423376"/>
    <tag k="highway" v="residential"/>
    <tag k="maxspeed" v="30"/>
    <tag k="name" v="U KolejÃ­"/>
    <tag k="name:de" v="Am Gleis"/>
    <tag k="oneway" v="yes"/>
    <tag k="source:maxspeed" v="zone"/>
    <tag k="surface" v="asphalt"/>
  </way>
  <way id="833163198" version="14" timestamp="2024-11-11T21:10:42Z" changeset="159026678" uid="8971394" user="vojtechzaboril">
    <nd ref="7777720676"/>
    <nd ref="10814664351"/>
    <nd ref="5663915851"/>
    <nd ref="12147905726"/>
    <nd ref="1137882714"/>
    <nd ref="10814664352"/>
    <nd ref="3414139068"/>
    <nd ref="10814664359"/>
    <nd ref="1137874892"/>
    <tag k="access:lanes" v="|no"/>
    <tag k="bicycle:lanes" v="|designated"/>
    <tag k="bus:lanes" v="|designated"/>
    <tag k="busway:right" v="lane"/>
    <tag k="cycleway:left" v="no"/>
    <tag k="cycleway:right" v="share_busway"/>
    <tag k="highway" v="primary"/>
    <tag k="lanes" v="2"/>
    <tag k="lit" v="yes"/>
    <tag k="maxspeed" v="60"/>
    <tag k="name" v="EvropskÃ¡"/>
    <tag k="name:ja" v="ã‚¨ãƒ´ãƒ­ãƒ—ã‚¹ã‚«"/>
    <tag k="old_name" v="Leninova"/>
    <tag k="oneway" v="yes"/>
    <tag k="psv:lanes" v="|designated"/>
    <tag k="ref" v="7"/>
    <tag k="sidewalk:left" v="no"/>
    <tag k="sidewalk:right" v="separate"/>
    <tag k="smoothness" v="excellent"/>
    <tag k="source:maxspeed" v="sign"/>
    <tag k="surface" v="asphalt"/>
    <tag k="taxi:lanes" v="|designated"/>
    <tag k="trolley_wire" v="yes"/>
  </way>
  <way id="960023770" version="5" timestamp="2025-05-10T23:49:56Z" changeset="166089534" uid="21903370" user="KrysaÅ™">
    <nd ref="8882294189"/>
    <nd ref="10231240979"/>
    <nd ref="25696494"/>
    <tag k="highway" v="residential"/>
    <tag k="maxspeed" v="30"/>
    <tag k="name" v="HostouÅˆskÃ¡"/>
    <tag k="sidewalk" v="left"/>
    <tag k="surface" v="asphalt"/>
  </way>
  <way id="960023771" version="5" timestamp="2025-05-10T23:49:56Z" changeset="166089534" uid="21903370" user="KrysaÅ™">
    <nd ref="5301398222"/>
    <nd ref="32524112"/>
    <nd ref="8882294189"/>
    <tag k="highway" v="residential"/>
    <tag k="maxspeed" v="30"/>
    <tag k="name" v="HostouÅˆskÃ¡"/>
    <tag k="sidewalk" v="no"/>
    <tag k="surface" v="asphalt"/>
  </way>
  <way id="964305945" version="8" timestamp="2024-10-07T06:59:15Z" changeset="157567129" uid="598980" user="Daniel BarÃ¡nek">
    <nd ref="475939087"/>
    <nd ref="25696376"/>
    <nd ref="25696377"/>
    <nd ref="6835199531"/>
    <nd ref="654248826"/>
    <nd ref="25696378"/>
    <nd ref="25696380"/>
    <nd ref="632551725"/>
    <nd ref="25696382"/>
    <nd ref="632551722"/>
    <nd ref="25696383"/>
    <nd ref="1137906688"/>
    <nd ref="25696384"/>
    <nd ref="25696385"/>
    <nd ref="25696387"/>
    <nd ref="10128562180"/>
    <nd ref="25696389"/>
    <nd ref="632551606"/>
    <nd ref="6835199543"/>
    <nd ref="25696391"/>
    <tag k="cycleway:both" v="no"/>
    <tag k="highway" v="residential"/>
    <tag k="lane_markings" v="no"/>
    <tag k="lit" v="yes"/>
    <tag k="name" v="U Prioru"/>
    <tag k="sidewalk:both" v="separate"/>
    <tag k="source:name" v="nameit/uir-adr"/>
    <tag k="surface" v="asphalt"/>
    <tag k="width" v="6"/>
  </way>
  <way id="1018231927" version="7" timestamp="2024-10-06T13:28:57Z" changeset="157540287" uid="598980" user="Daniel BarÃ¡nek">
    <nd ref="26827405"/>
    <nd ref="10814664348"/>
    <nd ref="7777720676"/>
    <tag k="highway" v="primary"/>
    <tag k="lanes" v="2"/>
    <tag k="lit" v="yes"/>
    <tag k="maxspeed" v="60"/>
    <tag k="name" v="EvropskÃ¡"/>
    <tag k="name:ja" v="ã‚¨ãƒ´ãƒ­ãƒ—ã‚¹ã‚«"/>
    <tag k="old_name" v="Leninova"/>
    <tag k="oneway" v="yes"/>
    <tag k="ref" v="7"/>
    <tag k="sidewalk:left" v="no"/>
    <tag k="sidewalk:right" v="separate"/>
    <tag k="source:maxspeed" v="sign"/>
    <tag k="surface" v="asphalt"/>
  </way>
  <way id="1093560840" version="3" timestamp="2022-11-05T21:10:32Z" changeset="128536699" uid="16806396" user="Honzaiky">
    <nd ref="25696491"/>
    <nd ref="10095652760"/>
    <nd ref="10015634976"/>
    <nd ref="10015634977"/>
    <nd ref="10015634978"/>
    <nd ref="10015634979"/>
    <nd ref="10015634980"/>
    <nd ref="10015634981"/>
    <nd ref="10015634982"/>
    <nd ref="10015634983"/>
    <nd ref="10015634984"/>
    <nd ref="10015634992"/>
    <nd ref="10015634985"/>
    <nd ref="10015634986"/>
    <nd ref="10015634987"/>
    <nd ref="10015634988"/>
    <nd ref="10015634989"/>
    <nd ref="10015634990"/>
    <nd ref="10033887923"/>
    <nd ref="10015634991"/>
    <tag k="highway" v="unclassified"/>
    <tag k="surface" v="asphalt"/>
  </way>
  <way id="1110608635" version="12" timestamp="2025-04-18T15:00:10Z" changeset="165116797" uid="22796831" user="Finreeal">
    <nd ref="781751626"/>
    <nd ref="11626465076"/>
    <nd ref="11264076577"/>
    <nd ref="11264076572"/>
    <nd ref="11264076578"/>
    <tag k="check_date" v="2024-09-23"/>
    <tag k="check_date:lit" v="2024-09-23"/>
    <tag k="cycleway:both" v="no"/>
    <tag k="highway" v="residential"/>
    <tag k="lanes" v="2"/>
    <tag k="lit" v="yes"/>
    <tag k="maxspeed" v="50"/>
    <tag k="name" v="Vlastina"/>
    <tag k="oneway" v="yes"/>
    <tag k="sidewalk" v="no"/>
    <tag k="surface" v="asphalt"/>
  </way>
  <way id="1114883355" version="6" timestamp="2025-05-10T23:49:56Z" changeset="166089534" uid="21903370" user="KrysaÅ™">
    <nd ref="26827504"/>
    <nd ref="10196918448"/>
    <nd ref="26827503"/>
    <nd ref="1138389598"/>
    <nd ref="26827502"/>
    <nd ref="12147905715"/>
    <nd ref="12147905714"/>
    <nd ref="10285720629"/>
    <nd ref="12147905713"/>
    <nd ref="26827500"/>
    <nd ref="360921723"/>
    <tag k="highway" v="residential"/>
    <tag k="maxspeed" v="30"/>
    <tag k="name" v="NavigÃ¡torÅ¯"/>
    <tag k="surface" v="asphalt"/>
  </way>
  <way id="1115317905" version="2" timestamp="2025-05-10T23:49:56Z" changeset="166089534" uid="21903370" user="KrysaÅ™">
    <nd ref="360921723"/>
    <nd ref="1138389579"/>
    <nd ref="25696480"/>
    <tag k="highway" v="residential"/>
    <tag k="maxspeed" v="30"/>
    <tag k="name" v="NavigÃ¡torÅ¯"/>
  </way>
  <way id="1115317906" version="2" timestamp="2023-07-07T15:19:23Z" changeset="138233729" uid="16796750" user="FastLukas">
    <nd ref="10095205290"/>
    <nd ref="360921723"/>
    <tag k="highway" v="residential"/>
    <tag k="oneway" v="yes"/>
  </way>
  <way id="1115317907" version="1" timestamp="2022-11-18T21:13:17Z" changeset="129102429" uid="16806396" user="Honzaiky">
    <nd ref="360921759"/>
    <nd ref="10181416402"/>
    <nd ref="10095205290"/>
    <tag k="highway" v="residential"/>
    <tag k="oneway" v="no"/>
  </way>
  <way id="1177965197" version="1" timestamp="2023-05-31T21:06:35Z" changeset="136805884" uid="2906144" user="MatyÃ¡Å¡ Richter">
    <nd ref="7900438369"/>
    <nd ref="32020607"/>
    <tag k="highway" v="tertiary"/>
    <tag k="maxspeed" v="50"/>
    <tag k="name" v="Do HoromÄ›Å™ic"/>
    <tag k="ref" v="2404"/>
    <tag k="source:maxspeed" v="CZ:urban"/>
    <tag k="surface" v="asphalt"/>
  </way>
  <way id="1215723411" version="4" timestamp="2024-11-11T21:10:42Z" changeset="159026678" uid="8971394" user="vojtechzaboril">
    <nd ref="10231239908"/>
    <nd ref="11264076575"/>
    <nd ref="271537418"/>
    <nd ref="781751626"/>
    <tag k="cycleway:left" v="no"/>
    <tag k="cycleway:right" v="shared_lane"/>
    <tag k="cycleway:right:lane" v="pictogram"/>
    <tag k="highway" v="residential"/>
    <tag k="lanes" v="2"/>
    <tag k="lit" v="yes"/>
    <tag k="maxspeed" v="50"/>
    <tag k="name" v="Vlastina"/>
    <tag k="oneway" v="yes"/>
    <tag k="sidewalk" v="separate"/>
    <tag k="source" v="iprpraha:DTMP"/>
    <tag k="surface" v="asphalt"/>
  </way>
  <way id="1215723412" version="3" timestamp="2024-09-27T10:38:02Z" changeset="157164280" uid="17385839" user="Augustlej">
    <nd ref="25696260"/>
    <nd ref="11264076580"/>
    <tag k="cycleway:both" v="no"/>
    <tag k="cycleway:left" v="soft_lane"/>
    <tag k="hgv" v="destination"/>
    <tag k="highway" v="tertiary"/>
    <tag k="lanes" v="2"/>
    <tag k="lit" v="yes"/>
    <tag k="maxspeed" v="50"/>
    <tag k="name" v="Vlastina"/>
    <tag k="sidewalk" v="both"/>
    <tag k="smoothness" v="excellent"/>
    <tag k="source:maxspeed" v="CZ:urban"/>
    <tag k="surface" v="asphalt"/>
  </way>
  <way id="1217059240" version="2" timestamp="2025-05-10T23:49:56Z" changeset="166089534" uid="21903370" user="KrysaÅ™">
    <nd ref="31908429"/>
    <nd ref="10095652773"/>
    <tag k="highway" v="residential"/>
    <tag k="maxspeed" v="30"/>
    <tag k="name" v="Å½ukovskÃ©ho"/>
  </way>
  <way id="1219514001" version="5" timestamp="2025-04-12T22:26:22Z" changeset="164874324" uid="4018695" user="ðŸ‡¨ðŸ‡¿ Roman HornÃ­k">
    <nd ref="25696315"/>
    <nd ref="599995253"/>
    <nd ref="12750727170"/>
    <nd ref="12750727171"/>
    <nd ref="1137882672"/>
    <nd ref="25696316"/>
    <tag k="check_date" v="2024-10-07"/>
    <tag k="check_date:surface" v="2024-10-07"/>
    <tag k="highway" v="residential"/>
    <tag k="name" v="U Silnice"/>
    <tag k="name:de" v="LandstraÃŸe"/>
    <tag k="surface" v="asphalt"/>
  </way>
  <way id="1222702124" version="6" timestamp="2024-11-11T21:10:42Z" changeset="159026678" uid="8971394" user="vojtechzaboril">
    <nd ref="10160151919"/>
    <nd ref="781751621"/>
    <nd ref="4685592411"/>
    <tag k="cycleway:right" v="no"/>
    <tag k="highway" v="primary"/>
    <tag k="lanes" v="2"/>
    <tag k="lit" v="yes"/>
    <tag k="maxspeed" v="50"/>
    <tag k="name" v="EvropskÃ¡"/>
    <tag k="name:ja" v="ã‚¨ãƒ´ãƒ­ãƒ—ã‚¹ã‚«"/>
    <tag k="old_name" v="Leninova"/>
    <tag k="oneway" v="yes"/>
    <tag k="ref" v="7"/>
    <tag k="sidewalk:left" v="separate"/>
    <tag k="sidewalk:right" v="no"/>
    <tag k="source:maxspeed" v="CZ:urban"/>
    <tag k="surface" v="asphalt"/>
  </way>
  <way id="1250741917" version="5" timestamp="2025-04-12T22:26:22Z" changeset="164874324" uid="4018695" user="ðŸ‡¨ðŸ‡¿ Roman HornÃ­k">
    <nd ref="475966073"/>
    <nd ref="11283416574"/>
    <nd ref="25696260"/>
    <tag k="check_date" v="2024"/>
    <tag k="hgv" v="destination"/>
    <tag k="highway" v="tertiary"/>
    <tag k="lane_markings" v="no"/>
    <tag k="maxspeed" v="50"/>
    <tag k="name" v="Vlastina"/>
    <tag k="oneway" v="yes"/>
    <tag k="source:maxspeed" v="CZ:urban"/>
    <tag k="surface" v="asphalt"/>
    <tag k="turn:lanes" v="left;right"/>
  </way>
  <way id="1250741919" version="7" timestamp="2025-04-18T15:00:18Z" changeset="165116122" uid="22796831" user="Finreeal">
    <nd ref="11264076578"/>
    <nd ref="10160151919"/>
    <nd ref="11299877827"/>
    <tag k="check_date" v="2025-04-18"/>
    <tag k="check_date:lit" v="2025-04-18"/>
    <tag k="check_date:smoothness" v="2024-09-27"/>
    <tag k="highway" v="residential"/>
    <tag k="lanes" v="2"/>
    <tag k="lit" v="yes"/>
    <tag k="maxspeed" v="50"/>
    <tag k="name" v="Vlastina"/>
    <tag k="oneway" v="yes"/>
    <tag k="sidewalk" v="no"/>
    <tag k="smoothness" v="excellent"/>
    <tag k="surface" v="asphalt"/>
  </way>
  <way id="1258981443" version="7" timestamp="2024-11-11T21:10:42Z" changeset="159026678" uid="8971394" user="vojtechzaboril">
    <nd ref="26827511"/>
    <nd ref="11299877819"/>
    <tag k="cycleway:both" v="no"/>
    <tag k="highway" v="tertiary"/>
    <tag k="lane_markings" v="no"/>
    <tag k="maxspeed" v="50"/>
    <tag k="name" v="LibockÃ¡"/>
    <tag k="name:cs" v="LibockÃ¡"/>
    <tag k="name:de" v="Libotzer StraÃŸe"/>
    <tag k="sidewalk" v="no"/>
    <tag k="source:maxspeed" v="CZ:urban"/>
    <tag k="surface" v="asphalt"/>
  </way>
  <way id="1258981446" version="5" timestamp="2025-04-18T14:58:46Z" changeset="165116797" uid="22796831" user="Finreeal">
    <nd ref="11299877820"/>
    <nd ref="32524111"/>
    <tag k="cycleway:both" v="no"/>
    <tag k="highway" v="tertiary"/>
    <tag k="lane_markings" v="no"/>
    <tag k="maxspeed" v="50"/>
    <tag k="name" v="LibockÃ¡"/>
    <tag k="name:cs" v="LibockÃ¡"/>
    <tag k="name:de" v="Libotzer StraÃŸe"/>
    <tag k="sidewalk" v="no"/>
    <tag k="source:maxspeed" v="CZ:urban"/>
    <tag k="surface" v="asphalt"/>
  </way>
  <way id="1312445766" version="4" timestamp="2025-04-18T15:00:16Z" changeset="165116122" uid="22796831" user="Finreeal">
    <nd ref="11299877827"/>
    <nd ref="11703625920"/>
    <tag k="check_date" v="2025-04-18"/>
    <tag k="check_date:lit" v="2025-04-18"/>
    <tag k="check_date:smoothness" v="2024-09-27"/>
    <tag k="highway" v="residential"/>
    <tag k="lanes" v="2"/>
    <tag k="lit" v="yes"/>
    <tag k="maxspeed" v="50"/>
    <tag k="name" v="Vlastina"/>
    <tag k="oneway" v="yes"/>
    <tag k="sidewalk" v="no"/>
    <tag k="smoothness" v="good"/>
    <tag k="surface" v="asphalt"/>
  </way>
  <way id="1312445767" version="6" timestamp="2025-04-12T22:26:22Z" changeset="164874324" uid="4018695" user="ðŸ‡¨ðŸ‡¿ Roman HornÃ­k">
    <nd ref="25696241"/>
    <nd ref="12332186186"/>
    <nd ref="12750727188"/>
    <nd ref="12332186184"/>
    <nd ref="12332186183"/>
    <nd ref="9890675162"/>
    <tag k="access:lanes" v="no||"/>
    <tag k="bus:lanes" v="designated||"/>
    <tag k="highway" v="primary"/>
    <tag k="lanes" v="3"/>
    <tag k="lit" v="yes"/>
    <tag k="maxspeed" v="50"/>
    <tag k="name" v="EvropskÃ¡"/>
    <tag k="name:ja" v="ã‚¨ãƒ´ãƒ­ãƒ—ã‚¹ã‚«"/>
    <tag k="old_name" v="Leninova"/>
    <tag k="oneway" v="yes"/>
    <tag k="placement" v="right_of:2"/>
    <tag k="ref" v="7"/>
    <tag k="sidewalk:left" v="separate"/>
    <tag k="sidewalk:right" v="no"/>
    <tag k="smoothness" v="excellent"/>
    <tag k="source:maxspeed" v="CZ:urban"/>
    <tag k="surface" v="asphalt"/>
    <tag k="trolley_wire" v="yes"/>
    <tag k="turn:lanes" v="|through|through"/>
  </way>
  <way id="1316309691" version="4" timestamp="2024-09-18T07:11:19Z" changeset="156757844" uid="598980" user="Daniel BarÃ¡nek">
    <nd ref="282743005"/>
    <nd ref="282743003"/>
    <tag k="access" v="destination"/>
    <tag k="cycleway:both" v="no"/>
    <tag k="highway" v="residential"/>
    <tag k="lane_markings" v="no"/>
    <tag k="lit" v="yes"/>
    <tag k="name" v="PavlovskÃ¡"/>
    <tag k="oneway" v="yes"/>
    <tag k="parking:left" v="lane"/>
    <tag k="parking:left:orientation" v="parallel"/>
    <tag k="parking:right" v="separate"/>
    <tag k="sidewalk:left" v="separate"/>
    <tag k="sidewalk:right" v="no"/>
    <tag k="surface" v="asphalt"/>
  </way>
  <way id="1318785799" version="3" timestamp="2025-05-10T23:49:56Z" changeset="166089534" uid="21903370" user="KrysaÅ™">
    <nd ref="60687885"/>
    <nd ref="12204973724"/>
    <tag k="highway" v="residential"/>
    <tag k="maxspeed" v="30"/>
    <tag k="motor_vehicle" v="destination"/>
    <tag k="name" v="LeteckÃ¡"/>
    <tag k="sidewalk:both" v="separate"/>
    <tag k="surface" v="asphalt"/>
  </way>
  <way id="1318785957" version="3" timestamp="2025-05-10T23:49:56Z" changeset="166089534" uid="21903370" user="KrysaÅ™">
    <nd ref="9388319566"/>
    <nd ref="31908482"/>
    <tag k="highway" v="residential"/>
    <tag k="maxspeed" v="30"/>
    <tag k="name" v="RubliÄova"/>
    <tag k="sidewalk:both" v="separate"/>
  </way>
  <way id="1333010640" version="1" timestamp="2024-11-11T21:10:42Z" changeset="159026678" uid="8971394" user="vojtechzaboril">
    <nd ref="4690587539"/>
    <nd ref="7777720674"/>
    <nd ref="242836630"/>
    <tag k="highway" v="primary"/>
    <tag k="lanes" v="2"/>
    <tag k="lit" v="yes"/>
    <tag k="maxspeed" v="60"/>
    <tag k="name" v="EvropskÃ¡"/>
    <tag k="name:ja" v="ã‚¨ãƒ´ãƒ­ãƒ—ã‚¹ã‚«"/>
    <tag k="old_name" v="Leninova"/>
    <tag k="oneway" v="yes"/>
    <tag k="ref" v="7"/>
    <tag k="sidewalk:left" v="no"/>
    <tag k="sidewalk:right" v="separate"/>
    <tag k="smoothness" v="excellent"/>
    <tag k="source:maxspeed" v="sign"/>
    <tag k="surface" v="asphalt"/>
    <tag k="trolley_wire" v="yes"/>
  </way>
  <way id="1333010642" version="1" timestamp="2024-11-11T21:10:42Z" changeset="159026678" uid="8971394" user="vojtechzaboril">
    <nd ref="11299877819"/>
    <nd ref="11299877820"/>
    <tag k="cycleway:both" v="no"/>
    <tag k="highway" v="tertiary"/>
    <tag k="lane_markings" v="no"/>
    <tag k="maxspeed" v="50"/>
    <tag k="name" v="LibockÃ¡"/>
    <tag k="name:cs" v="LibockÃ¡"/>
    <tag k="name:de" v="Libotzer StraÃŸe"/>
    <tag k="sidewalk" v="no"/>
    <tag k="source:maxspeed" v="CZ:urban"/>
    <tag k="surface" v="asphalt"/>
  </way>
  <way id="1343968593" version="2" timestamp="2025-04-12T22:26:22Z" changeset="164874324" uid="4018695" user="ðŸ‡¨ðŸ‡¿ Roman HornÃ­k">
    <nd ref="282743003"/>
    <nd ref="282743002"/>
    <nd ref="282743001"/>
    <nd ref="12750727185"/>
    <nd ref="267510888"/>
    <tag k="cycleway:both" v="no"/>
    <tag k="highway" v="residential"/>
    <tag k="lane_markings" v="no"/>
    <tag k="lit" v="yes"/>
    <tag k="motor_vehicle" v="destination"/>
    <tag k="name" v="BrodeckÃ¡"/>
    <tag k="oneway" v="no"/>
    <tag k="parking:left" v="no"/>
    <tag k="parking:right" v="lane"/>
    <tag k="parking:right:orientation" v="parallel"/>
    <tag k="sidewalk:both" v="separate"/>
    <tag k="source:name" v="nameit/uir-adr"/>
    <tag k="source:width" v="ARCore"/>
    <tag k="surface" v="asphalt"/>
    <tag k="width" v="6.5"/>
  </way>
  <way id="1356670425" version="2" timestamp="2025-04-12T22:26:22Z" changeset="164874324" uid="4018695" user="ðŸ‡¨ðŸ‡¿ Roman HornÃ­k">
    <nd ref="302423479"/>
    <nd ref="11511306740"/>
    <nd ref="12750727200"/>
    <nd ref="29901673"/>
    <nd ref="10586363134"/>
    <nd ref="1272035649"/>
    <nd ref="360906083"/>
    <nd ref="12750727199"/>
    <nd ref="1272035614"/>
    <nd ref="6574863661"/>
    <nd ref="11645551993"/>
    <nd ref="5550088874"/>
    <nd ref="360906081"/>
    <nd ref="11645551992"/>
    <nd ref="1272035630"/>
    <nd ref="29901671"/>
    <nd ref="29901672"/>
    <nd ref="10244134122"/>
    <nd ref="10244099100"/>
    <tag k="cycleway:both" v="no"/>
    <tag k="foot" v="no"/>
    <tag k="highway" v="tertiary"/>
    <tag k="lanes" v="2"/>
    <tag k="lit" v="yes"/>
    <tag k="maxspeed" v="30"/>
    <tag k="name" v="LibockÃ¡"/>
    <tag k="name:de" v="Libotzer StraÃŸe"/>
    <tag k="sidewalk:both" v="separate"/>
    <tag k="surface" v="asphalt"/>
  </way>
  <way id="1377006916" version="1" timestamp="2025-04-12T16:05:03Z" changeset="164862560" uid="4018695" user="ðŸ‡¨ðŸ‡¿ Roman HornÃ­k">
    <nd ref="25696313"/>
    <nd ref="11294144509"/>
    <nd ref="5301398119"/>
    <tag k="highway" v="residential"/>
    <tag k="maxspeed" v="30"/>
    <tag k="name" v="HostouÅˆskÃ¡"/>
    <tag k="oneway" v="yes"/>
    <tag k="sidewalk:left" v="separate"/>
  </way>
  <way id="1377006921" version="2" timestamp="2025-05-10T23:49:56Z" changeset="166089534" uid="21903370" user="KrysaÅ™">
    <nd ref="26827493"/>
    <nd ref="10247079313"/>
    <nd ref="9952962666"/>
    <nd ref="360921718"/>
    <nd ref="268639566"/>
    <nd ref="10235574908"/>
    <nd ref="25696479"/>
    <nd ref="25696480"/>
    <tag k="highway" v="residential"/>
    <tag k="maxspeed" v="30"/>
    <tag k="name" v="Pod Cihelnou"/>
    <tag k="surface" v="asphalt"/>
  </way>
  <way id="1377006922" version="2" timestamp="2025-05-10T23:49:56Z" changeset="166089534" uid="21903370" user="KrysaÅ™">
    <nd ref="26827496"/>
    <nd ref="10196918446"/>
    <nd ref="26827493"/>
    <tag k="highway" v="residential"/>
    <tag k="maxspeed" v="30"/>
    <tag k="name" v="Pod Cihelnou"/>
    <tag k="surface" v="asphalt"/>
  </way>
  <way id="1377006923" version="2" timestamp="2025-05-10T23:49:56Z" changeset="166089534" uid="21903370" user="KrysaÅ™">
    <nd ref="12750101984"/>
    <nd ref="26827496"/>
    <tag k="highway" v="residential"/>
    <tag k="maxspeed" v="30"/>
    <tag k="name" v="Pod Cihelnou"/>
    <tag k="surface" v="asphalt"/>
  </way>
  <way id="1377079949" version="1" timestamp="2025-04-12T22:26:22Z" changeset="164874324" uid="4018695" user="ðŸ‡¨ðŸ‡¿ Roman HornÃ­k">
    <nd ref="10161937149"/>
    <nd ref="10161937150"/>
    <nd ref="11264076576"/>
    <nd ref="781751626"/>
    <tag k="cycleway:both" v="no"/>
    <tag k="highway" v="residential"/>
    <tag k="lit" v="yes"/>
    <tag k="maxspeed" v="30"/>
    <tag k="name" v="LitovickÃ¡"/>
    <tag k="name:de" v="Lidowitzer StraÃŸe"/>
    <tag k="oneway" v="yes"/>
    <tag k="sidewalk:both" v="separate"/>
    <tag k="source" v="bing;local_knowledge"/>
    <tag k="surface" v="asphalt"/>
  </way>
  <way id="1377079957" version="1" timestamp="2025-04-12T22:26:22Z" changeset="164874324" uid="4018695" user="ðŸ‡¨ðŸ‡¿ Roman HornÃ­k">
    <nd ref="11626465051"/>
    <nd ref="654248955"/>
    <nd ref="4687042793"/>
    <tag k="cycleway:both" v="no"/>
    <tag k="highway" v="tertiary"/>
    <tag k="lanes" v="2"/>
    <tag k="lit" v="yes"/>
    <tag k="maxspeed" v="50"/>
    <tag k="name" v="RuzyÅˆskÃ¡"/>
    <tag k="parking:both" v="no"/>
    <tag k="sidewalk:both" v="separate"/>
    <tag k="source:maxspeed" v="CZ:urban"/>
    <tag k="source:name" v="nameit/uir-adr"/>
    <tag k="surface" v="asphalt"/>
  </way>
  <relation id="14698926" version="3" timestamp="2022-11-14T14:14:39Z" changeset="128893898" uid="16796750" user="FastLukas">
    <member type="way" ref="49533879" role="outer"/>
    <member type="way" ref="1104129146" role="inner"/>
    <member type="way" ref="1104129148" role="inner"/>
    <member type="way" ref="1104129149" role="inner"/>
    <tag k="addr:city" v="Praha 6"/>
    <tag k="addr:housenumber" v="580/6"/>
    <tag k="addr:postcode" v="16100"/>
    <tag k="addr:street" v="Å½ukovskÃ©ho"/>
    <tag k="building" v="school"/>
    <tag k="building:levels" v="2"/>
    <tag k="name" v="ZÅ  DÄ›dina"/>
    <tag k="type" v="multipolygon"/>
  </relation>

</osm>
