<?xml version="1.0" encoding="UTF-8"?>
<osm version="0.6" generator="Overpass API 0.7.62.5 1bd436f1">
<note>The data included in this document is from www.openstreetmap.org. The data is made available under ODbL.</note>
<meta osm_base="2025-05-18T04:39:45Z" areas="2024-12-31T00:49:33Z"/>

  <node id="36143912" lat="53.4756478" lon="10.1014951" version="7" timestamp="2018-04-24T22:14:44Z" changeset="58390728" uid="617520" user="sundew"/>
  <node id="280609624" lat="53.4818191" lon="10.1287344" version="7" timestamp="2021-11-15T12:02:57Z" changeset="113802392" uid="1431737" user="ma-rt-in"/>
  <node id="280611678" lat="53.4675252" lon="10.1734082" version="4" timestamp="2021-11-15T12:02:57Z" changeset="113802392" uid="1431737" user="ma-rt-in"/>
  <node id="280612809" lat="53.4605633" lon="10.1385569" version="3" timestamp="2018-04-24T22:14:45Z" changeset="58390728" uid="617520" user="sundew"/>
  <node id="5554904534" lat="53.4673325" lon="10.1721534" version="1" timestamp="2018-04-15T16:49:04Z" changeset="58114631" uid="1431737" user="ma-rt-in"/>
  <way id="5183128" version="11" timestamp="2021-10-02T14:52:27Z" changeset="112004135" uid="2006984" user="jan4321">
    <nd ref="36143906"/>
    <nd ref="36143907"/>
    <nd ref="36143908"/>
    <nd ref="280612809"/>
    <tag k="cycleway:both" v="no"/>
    <tag k="highway" v="tertiary"/>
    <tag k="maxspeed" v="50"/>
    <tag k="name" v="Wulffsbrücke"/>
    <tag k="sidewalk" v="left"/>
    <tag k="source:maxspeed" v="DE:urban"/>
    <tag k="surface" v="asphalt"/>
  </way>
  <way id="8494076" version="23" timestamp="2020-11-10T17:06:48Z" changeset="93874943" uid="10711520" user="Kuemonaut1">
    <nd ref="5554904534"/>
    <nd ref="5554904530"/>
    <nd ref="3688601261"/>
    <nd ref="283302852"/>
    <nd ref="2747419103"/>
    <nd ref="283302851"/>
    <tag k="cycleway:both" v="no"/>
    <tag k="embankment" v="yes"/>
    <tag k="highway" v="unclassified"/>
    <tag k="maxspeed" v="50"/>
    <tag k="name" v="Vorderdeich"/>
    <tag k="source:maxspeed" v="DE:urban"/>
  </way>
  <way id="23691462" version="18" timestamp="2023-06-18T15:10:57Z" changeset="137482270" uid="502863" user="Alpin100">
    <nd ref="36143881"/>
    <nd ref="8520720540"/>
    <nd ref="2637223162"/>
    <nd ref="10984348139"/>
    <nd ref="36143882"/>
    <nd ref="36143883"/>
    <nd ref="36143884"/>
    <nd ref="36143885"/>
    <nd ref="2938514501"/>
    <nd ref="9028935184"/>
    <nd ref="36143886"/>
    <nd ref="36143887"/>
    <nd ref="2715477085"/>
    <nd ref="36143888"/>
    <nd ref="36143889"/>
    <nd ref="2938514458"/>
    <nd ref="36143890"/>
    <nd ref="36143891"/>
    <nd ref="36143892"/>
    <nd ref="36143893"/>
    <nd ref="8190780805"/>
    <nd ref="36143894"/>
    <nd ref="36143895"/>
    <nd ref="36143896"/>
    <nd ref="8724543831"/>
    <nd ref="3722012040"/>
    <tag k="highway" v="unclassified"/>
    <tag k="maxspeed" v="50"/>
    <tag k="name" v="Reitbrooker Hinterdeich"/>
    <tag k="source:maxspeed" v="DE:urban"/>
    <tag k="surface" v="asphalt"/>
  </way>
  <way id="23691463" version="13" timestamp="2022-05-19T00:41:54Z" changeset="121168885" uid="502863" user="Alpin100">
    <nd ref="280610138"/>
    <nd ref="9750564346"/>
    <nd ref="280610139"/>
    <nd ref="9750564321"/>
    <nd ref="36143872"/>
    <nd ref="2579778131"/>
    <nd ref="36143873"/>
    <nd ref="9750564327"/>
    <nd ref="36143874"/>
    <nd ref="9753197143"/>
    <nd ref="36143875"/>
    <nd ref="2585294683"/>
    <nd ref="36143876"/>
    <nd ref="2585294687"/>
    <nd ref="36143877"/>
    <nd ref="9750564318"/>
    <nd ref="36143878"/>
    <nd ref="9752933017"/>
    <nd ref="36143879"/>
    <nd ref="36143880"/>
    <nd ref="36143881"/>
    <tag k="highway" v="unclassified"/>
    <tag k="maxspeed" v="50"/>
    <tag k="name" v="Reitbrooker Westerdeich"/>
    <tag k="source:maxspeed" v="DE:urban"/>
    <tag k="surface" v="asphalt"/>
  </way>
  <way id="23691464" version="14" timestamp="2022-04-29T21:13:53Z" changeset="120365197" uid="1417856" user="ReinholdR">
    <nd ref="36143906"/>
    <nd ref="1689658740"/>
    <nd ref="1689658736"/>
    <nd ref="256542447"/>
    <nd ref="1689658732"/>
    <nd ref="1689658722"/>
    <nd ref="256542448"/>
    <nd ref="1689658721"/>
    <nd ref="1689658716"/>
    <nd ref="1689658712"/>
    <nd ref="9704091464"/>
    <nd ref="1689658707"/>
    <nd ref="9704091471"/>
    <nd ref="1689658703"/>
    <nd ref="1689658701"/>
    <nd ref="8716731042"/>
    <nd ref="1689658694"/>
    <nd ref="1689658687"/>
    <nd ref="1689658684"/>
    <nd ref="1689658680"/>
    <nd ref="1689658666"/>
    <nd ref="1689658665"/>
    <nd ref="1689658660"/>
    <nd ref="2744588972"/>
    <nd ref="256542452"/>
    <nd ref="256542453"/>
    <nd ref="256542454"/>
    <nd ref="7095301976"/>
    <nd ref="2938514311"/>
    <nd ref="256542455"/>
    <nd ref="256542457"/>
    <nd ref="2449860723"/>
    <nd ref="2449860725"/>
    <nd ref="2449860726"/>
    <nd ref="2449860727"/>
    <nd ref="2449860729"/>
    <nd ref="2449860730"/>
    <tag k="highway" v="unclassified"/>
    <tag k="name" v="Reitbrooker Hinterdeich"/>
    <tag k="surface" v="asphalt"/>
  </way>
  <way id="25732706" version="13" timestamp="2023-04-14T18:39:14Z" changeset="134916833" uid="10342822" user="Mrvn9">
    <nd ref="280609623"/>
    <nd ref="2697375415"/>
    <nd ref="2891772501"/>
    <nd ref="2576076442"/>
    <nd ref="33451147"/>
    <tag k="highway" v="tertiary"/>
    <tag k="lane_markings" v="no"/>
    <tag k="maxspeed" v="50"/>
    <tag k="name" v="Kirchenbrücke"/>
    <tag k="sidewalk" v="left"/>
    <tag k="source:maxspeed" v="DE:urban"/>
    <tag k="surface" v="asphalt"/>
  </way>
  <way id="25732708" version="10" timestamp="2023-04-14T18:39:23Z" changeset="134916833" uid="10342822" user="Mrvn9">
    <nd ref="280609624"/>
    <nd ref="280609623"/>
    <tag k="bridge" v="yes"/>
    <tag k="highway" v="tertiary"/>
    <tag k="lane_markings" v="no"/>
    <tag k="layer" v="1"/>
    <tag k="maxaxleload" v="10"/>
    <tag k="maxspeed" v="50"/>
    <tag k="name" v="Allermöher Kirchenbrücke"/>
    <tag k="sidewalk" v="both"/>
    <tag k="source:maxspeed" v="DE:urban"/>
    <tag k="surface" v="asphalt"/>
  </way>
  <way id="25732762" version="15" timestamp="2022-05-18T03:18:24Z" changeset="121123063" uid="502863" user="Alpin100">
    <nd ref="280610457"/>
    <nd ref="1859033777"/>
    <nd ref="280610471"/>
    <nd ref="280610459"/>
    <nd ref="283701206"/>
    <nd ref="280610472"/>
    <nd ref="2579777680"/>
    <nd ref="1696956147"/>
    <nd ref="9750564394"/>
    <nd ref="1665579098"/>
    <nd ref="1665579079"/>
    <nd ref="1821600922"/>
    <nd ref="9750673176"/>
    <nd ref="280610084"/>
    <nd ref="1821600917"/>
    <nd ref="280610138"/>
    <tag k="embankment" v="yes"/>
    <tag k="highway" v="unclassified"/>
    <tag k="lane_markings" v="no"/>
    <tag k="name" v="Reitdeich"/>
    <tag k="surface" v="asphalt"/>
  </way>
  <way id="25732788" version="12" timestamp="2022-05-19T01:18:42Z" changeset="121169323" uid="502863" user="Alpin100">
    <nd ref="280610858"/>
    <nd ref="280610859"/>
    <nd ref="9753225774"/>
    <nd ref="280610860"/>
    <nd ref="9753225751"/>
    <nd ref="280610861"/>
    <nd ref="280610935"/>
    <nd ref="1821600927"/>
    <nd ref="280610863"/>
    <nd ref="1821600929"/>
    <nd ref="280610872"/>
    <nd ref="9753160591"/>
    <nd ref="36146841"/>
    <nd ref="9753160603"/>
    <nd ref="280610936"/>
    <nd ref="280610874"/>
    <nd ref="280610473"/>
    <nd ref="1859033759"/>
    <nd ref="280610501"/>
    <nd ref="280610457"/>
    <tag k="embankment" v="yes"/>
    <tag k="highway" v="unclassified"/>
    <tag k="motor_vehicle" v="no"/>
    <tag k="name" v="Reitdeich"/>
    <tag k="surface" v="asphalt"/>
  </way>
  <way id="25732791" version="11" timestamp="2024-12-07T21:08:20Z" changeset="160039861" uid="20017505" user="TFI71">
    <nd ref="36146831"/>
    <nd ref="12403323630"/>
    <tag k="cycleway:both" v="no"/>
    <tag k="highway" v="unclassified"/>
    <tag k="lane_markings" v="no"/>
    <tag k="name" v="Reitdeich"/>
    <tag k="portage" v="yes"/>
    <tag k="surface" v="asphalt"/>
  </way>
  <way id="25732792" version="15" timestamp="2021-02-21T16:40:55Z" changeset="99688855" uid="10711520" user="Kuemonaut1">
    <nd ref="36143912"/>
    <nd ref="2565186768"/>
    <nd ref="2904209876"/>
    <nd ref="36146829"/>
    <nd ref="2565186771"/>
    <nd ref="36146830"/>
    <tag k="cycleway:both" v="no"/>
    <tag k="highway" v="unclassified"/>
    <tag k="lane_markings" v="no"/>
    <tag k="name" v="Reitdeich"/>
    <tag k="surface" v="asphalt"/>
  </way>
  <way id="25732811" version="16" timestamp="2021-11-15T12:02:57Z" changeset="113802392" uid="1431737" user="ma-rt-in">
    <nd ref="280611678"/>
    <nd ref="280611666"/>
    <tag k="bridge" v="yes"/>
    <tag k="bridge:name" v="Reitbrooker Mühlenbrücke"/>
    <tag k="cycleway:both" v="no"/>
    <tag k="highway" v="tertiary"/>
    <tag k="lanes" v="2"/>
    <tag k="layer" v="1"/>
    <tag k="maxaxleload" v="10"/>
    <tag k="maxspeed" v="50"/>
    <tag k="name" v="Reitbrooker Mühlenbrücke"/>
    <tag k="sidewalk" v="right"/>
    <tag k="source:maxspeed" v="DE:urban"/>
    <tag k="surface" v="asphalt"/>
  </way>
  <way id="25732812" version="11" timestamp="2021-10-07T17:00:22Z" changeset="112226341" uid="2006984" user="jan4321">
    <nd ref="280611666"/>
    <nd ref="5554904539"/>
    <nd ref="5554904536"/>
    <nd ref="5554904535"/>
    <nd ref="5554904534"/>
    <tag k="cycleway:both" v="no"/>
    <tag k="highway" v="tertiary"/>
    <tag k="lanes" v="2"/>
    <tag k="maxspeed" v="50"/>
    <tag k="name" v="Reitbrooker Mühlenbrücke"/>
    <tag k="sidewalk" v="right"/>
    <tag k="source:maxspeed" v="DE:urban"/>
    <tag k="surface" v="asphalt"/>
  </way>
  <way id="25732861" version="12" timestamp="2021-10-03T15:16:05Z" changeset="112037329" uid="2006984" user="jan4321">
    <nd ref="280612809"/>
    <nd ref="36143909"/>
    <tag k="bridge" v="yes"/>
    <tag k="cycleway:both" v="no"/>
    <tag k="highway" v="tertiary"/>
    <tag k="layer" v="1"/>
    <tag k="maxaxleload" v="10"/>
    <tag k="maxspeed" v="50"/>
    <tag k="name" v="Wulffsbrücke"/>
    <tag k="sidewalk" v="both"/>
    <tag k="source:maxspeed" v="DE:urban"/>
    <tag k="surface" v="asphalt"/>
  </way>
  <way id="25928264" version="8" timestamp="2021-09-30T16:38:03Z" changeset="111925444" uid="2006984" user="jan4321">
    <nd ref="36146830"/>
    <nd ref="280611049"/>
    <tag k="bridge" v="yes"/>
    <tag k="bridge:name" v="Reitschleusenbrücke"/>
    <tag k="cycleway:both" v="no"/>
    <tag k="highway" v="unclassified"/>
    <tag k="lane_markings" v="no"/>
    <tag k="layer" v="1"/>
    <tag k="maxweight:signed" v="no"/>
    <tag k="name" v="Reitdeich"/>
    <tag k="surface" v="asphalt"/>
  </way>
  <way id="37373235" version="7" timestamp="2022-03-28T13:53:45Z" changeset="119023624" uid="2006984" user="jan4321">
    <nd ref="436197212"/>
    <nd ref="5555007625"/>
    <nd ref="8721394592"/>
    <nd ref="436197217"/>
    <nd ref="5555007218"/>
    <nd ref="5555007219"/>
    <nd ref="436197219"/>
    <nd ref="5555007220"/>
    <nd ref="2932275319"/>
    <nd ref="436197220"/>
    <nd ref="5555007217"/>
    <nd ref="5555007622"/>
    <nd ref="5555007621"/>
    <nd ref="436197221"/>
    <tag k="highway" v="residential"/>
    <tag k="name" v="Vorderdeich"/>
    <tag k="oneway" v="no"/>
    <tag k="sidewalk" v="no"/>
    <tag k="surface" v="asphalt"/>
    <tag k="width" v="4"/>
  </way>
  <way id="130793998" version="10" timestamp="2021-10-13T13:20:14Z" changeset="112462479" uid="408538" user="backendzeit">
    <nd ref="1665579055"/>
    <nd ref="5555007215"/>
    <nd ref="254902125"/>
    <nd ref="5555007216"/>
    <nd ref="436197221"/>
    <tag k="cycleway:both" v="no"/>
    <tag k="embankment" v="yes"/>
    <tag k="highway" v="tertiary"/>
    <tag k="lane_markings" v="no"/>
    <tag k="maxspeed" v="50"/>
    <tag k="name" v="Vorderdeich"/>
    <tag k="sidewalk" v="right"/>
    <tag k="source:maxspeed" v="DE:urban"/>
    <tag k="surface" v="asphalt"/>
  </way>
  <way id="132075541" version="9" timestamp="2021-10-20T16:33:14Z" changeset="112752699" uid="408538" user="backendzeit">
    <nd ref="436197221"/>
    <nd ref="1699992956"/>
    <nd ref="5555007623"/>
    <nd ref="5555007624"/>
    <nd ref="33451161"/>
    <nd ref="5555007626"/>
    <nd ref="436197212"/>
    <tag k="cycleway:both" v="no"/>
    <tag k="embankment" v="yes"/>
    <tag k="highway" v="tertiary"/>
    <tag k="lanes" v="2"/>
    <tag k="maxspeed" v="50"/>
    <tag k="name" v="Vorderdeich"/>
    <tag k="sidewalk" v="right"/>
    <tag k="source:maxspeed" v="DE:urban"/>
    <tag k="surface" v="asphalt"/>
  </way>
  <way id="132075542" version="16" timestamp="2022-04-29T21:13:53Z" changeset="120365197" uid="1417856" user="ReinholdR">
    <nd ref="436197212"/>
    <nd ref="5555007627"/>
    <nd ref="5555007628"/>
    <nd ref="5555007629"/>
    <nd ref="33451162"/>
    <nd ref="5555007631"/>
    <nd ref="5555007630"/>
    <nd ref="5555007632"/>
    <nd ref="5555007633"/>
    <nd ref="5555007634"/>
    <nd ref="33451163"/>
    <nd ref="5555007635"/>
    <nd ref="1699992974"/>
    <nd ref="5555007636"/>
    <nd ref="5555007637"/>
    <nd ref="33451164"/>
    <nd ref="1699992957"/>
    <nd ref="9704091480"/>
    <nd ref="5555007638"/>
    <nd ref="33451165"/>
    <nd ref="8520619549"/>
    <nd ref="5555007639"/>
    <nd ref="5555007640"/>
    <nd ref="5555007641"/>
    <nd ref="1699992927"/>
    <nd ref="2747419077"/>
    <nd ref="1699992933"/>
    <nd ref="2747419081"/>
    <nd ref="33451166"/>
    <nd ref="33451167"/>
    <nd ref="7230822936"/>
    <nd ref="9028291975"/>
    <nd ref="5554904527"/>
    <nd ref="33451168"/>
    <nd ref="5554904528"/>
    <nd ref="5554904529"/>
    <nd ref="2747419107"/>
    <nd ref="7094881294"/>
    <nd ref="5554904537"/>
    <nd ref="5554904538"/>
    <nd ref="5554904531"/>
    <nd ref="5554904532"/>
    <nd ref="5554904533"/>
    <nd ref="5554904534"/>
    <tag k="cycleway:both" v="no"/>
    <tag k="embankment" v="yes"/>
    <tag k="highway" v="tertiary"/>
    <tag k="lanes" v="2"/>
    <tag k="maxspeed" v="50"/>
    <tag k="name" v="Vorderdeich"/>
    <tag k="sidewalk" v="right"/>
    <tag k="source:maxspeed" v="DE:urban"/>
    <tag k="surface" v="asphalt"/>
  </way>
  <way id="153946520" version="14" timestamp="2022-04-30T19:38:21Z" changeset="120397634" uid="1417856" user="ReinholdR">
    <nd ref="36143906"/>
    <nd ref="1689658749"/>
    <nd ref="1665579042"/>
    <nd ref="1689658756"/>
    <nd ref="1665579045"/>
    <nd ref="8723353065"/>
    <nd ref="1689658799"/>
    <nd ref="1689658819"/>
    <nd ref="1665579046"/>
    <nd ref="1689658838"/>
    <nd ref="1665579047"/>
    <nd ref="1665579048"/>
    <nd ref="1665579049"/>
    <nd ref="1665579050"/>
    <nd ref="1665579051"/>
    <nd ref="8721175520"/>
    <nd ref="1665579052"/>
    <nd ref="8200218561"/>
    <nd ref="9705836202"/>
    <nd ref="9705836210"/>
    <nd ref="1665579053"/>
    <nd ref="1665579054"/>
    <nd ref="9705836224"/>
    <nd ref="9705836217"/>
    <nd ref="1699992882"/>
    <tag k="cycleway:both" v="no"/>
    <tag k="highway" v="tertiary"/>
    <tag k="lanes" v="2"/>
    <tag k="maxspeed" v="50"/>
    <tag k="name" v="Sietwende"/>
    <tag k="sidewalk" v="right"/>
    <tag k="source:maxspeed" v="DE:urban"/>
    <tag k="surface" v="asphalt"/>
  </way>
  <way id="153946521" version="26" timestamp="2022-04-30T19:38:21Z" changeset="120397634" uid="1417856" user="ReinholdR">
    <nd ref="33451147"/>
    <nd ref="9705536415"/>
    <nd ref="9705536416"/>
    <nd ref="9705555534"/>
    <nd ref="1665579101"/>
    <nd ref="9705555543"/>
    <nd ref="8708345452"/>
    <nd ref="9705555566"/>
    <nd ref="9705555565"/>
    <nd ref="9705555579"/>
    <nd ref="9705555580"/>
    <nd ref="9705555584"/>
    <nd ref="9705555585"/>
    <nd ref="9705555582"/>
    <nd ref="9705555587"/>
    <nd ref="8708345460"/>
    <nd ref="7060386057"/>
    <nd ref="9705555642"/>
    <nd ref="2697375420"/>
    <nd ref="9705626239"/>
    <nd ref="1665579076"/>
    <nd ref="9705649324"/>
    <nd ref="2697375413"/>
    <nd ref="2697375416"/>
    <nd ref="9705755566"/>
    <nd ref="2697375418"/>
    <nd ref="8720150039"/>
    <nd ref="9030375738"/>
    <nd ref="9705755770"/>
    <nd ref="8709460682"/>
    <nd ref="9030375745"/>
    <nd ref="9705755767"/>
    <nd ref="9705755771"/>
    <nd ref="9705755769"/>
    <nd ref="9705755772"/>
    <nd ref="2697375398"/>
    <nd ref="9705755773"/>
    <nd ref="9705755774"/>
    <nd ref="1665579073"/>
    <nd ref="8520170639"/>
    <nd ref="9705755780"/>
    <nd ref="1665579072"/>
    <nd ref="2697375422"/>
    <nd ref="8720150036"/>
    <nd ref="2781962888"/>
    <nd ref="9705755931"/>
    <nd ref="1665579070"/>
    <nd ref="9705755932"/>
    <nd ref="9705755933"/>
    <nd ref="9705755934"/>
    <nd ref="1665579065"/>
    <nd ref="9705755986"/>
    <nd ref="9705755936"/>
    <nd ref="9705755935"/>
    <nd ref="9705756005"/>
    <nd ref="9705756027"/>
    <nd ref="8190177189"/>
    <nd ref="9705828609"/>
    <nd ref="2935013473"/>
    <nd ref="9705835883"/>
    <nd ref="9705835893"/>
    <nd ref="9705835923"/>
    <nd ref="9705835894"/>
    <nd ref="9705835895"/>
    <nd ref="1665579062"/>
    <nd ref="9705835896"/>
    <nd ref="2935013458"/>
    <nd ref="8190177194"/>
    <nd ref="9705836005"/>
    <nd ref="9705835999"/>
    <nd ref="5555007195"/>
    <nd ref="9705836000"/>
    <nd ref="9705835897"/>
    <nd ref="1665579061"/>
    <nd ref="5555007196"/>
    <nd ref="9705836016"/>
    <nd ref="1665579060"/>
    <nd ref="9705835898"/>
    <nd ref="9705835899"/>
    <nd ref="5555007198"/>
    <nd ref="9705836037"/>
    <nd ref="1665579059"/>
    <nd ref="9705836039"/>
    <nd ref="5555007197"/>
    <nd ref="9705836049"/>
    <nd ref="5555007199"/>
    <nd ref="5555007200"/>
    <nd ref="5555007201"/>
    <nd ref="5555007202"/>
    <nd ref="1665579058"/>
    <nd ref="9705835900"/>
    <nd ref="5555007203"/>
    <nd ref="5555007204"/>
    <nd ref="5555007205"/>
    <nd ref="1665579057"/>
    <nd ref="3819548718"/>
    <nd ref="5555007206"/>
    <nd ref="5555007207"/>
    <nd ref="1665579056"/>
    <nd ref="5555007208"/>
    <nd ref="9705836164"/>
    <nd ref="5555007211"/>
    <nd ref="9705836181"/>
    <nd ref="9705835901"/>
    <nd ref="5555007210"/>
    <nd ref="1699992887"/>
    <nd ref="1699992886"/>
    <tag k="cycleway:both" v="no"/>
    <tag k="embankment" v="yes"/>
    <tag k="highway" v="tertiary"/>
    <tag k="lane_markings" v="no"/>
    <tag k="lit" v="yes"/>
    <tag k="maxspeed" v="50"/>
    <tag k="name" v="Vorderdeich"/>
    <tag k="sidewalk" v="no"/>
    <tag k="source:maxspeed" v="DE:urban"/>
    <tag k="surface" v="asphalt"/>
  </way>
  <way id="153946522" version="13" timestamp="2023-04-14T18:39:36Z" changeset="134916833" uid="10342822" user="Mrvn9">
    <nd ref="280610138"/>
    <nd ref="9750564400"/>
    <nd ref="1665579074"/>
    <nd ref="1665579075"/>
    <nd ref="9705471935"/>
    <nd ref="2576076423"/>
    <nd ref="1665579077"/>
    <nd ref="9705471959"/>
    <nd ref="2935013886"/>
    <nd ref="9750520125"/>
    <nd ref="9705471980"/>
    <nd ref="9705471985"/>
    <nd ref="9705471997"/>
    <nd ref="9705536350"/>
    <nd ref="9750518600"/>
    <nd ref="1665579103"/>
    <nd ref="1665579106"/>
    <nd ref="1665579104"/>
    <nd ref="9705536395"/>
    <nd ref="2585294679"/>
    <nd ref="33451147"/>
    <tag k="embankment" v="yes"/>
    <tag k="highway" v="unclassified"/>
    <tag k="lane_markings" v="no"/>
    <tag k="maxspeed" v="50"/>
    <tag k="name" v="Vorderdeich"/>
    <tag k="source:maxspeed" v="DE:urban"/>
    <tag k="surface" v="asphalt"/>
  </way>
  <way id="157746542" version="4" timestamp="2018-04-15T18:00:16Z" changeset="58116394" uid="1431737" user="ma-rt-in">
    <nd ref="1699992938"/>
    <nd ref="1699992947"/>
    <nd ref="1699992937"/>
    <nd ref="1699992951"/>
    <nd ref="436197222"/>
    <nd ref="1699992929"/>
    <nd ref="1699992938"/>
    <tag k="addr:city" v="Hamburg"/>
    <tag k="addr:country" v="DE"/>
    <tag k="addr:housenumber" v="128"/>
    <tag k="addr:street" v="Vorderdeich"/>
    <tag k="amenity" v="fire_station"/>
    <tag k="building" v="yes"/>
    <tag k="contact:phone" v="+49 40 7232244"/>
    <tag k="name" v="Freiwillige Feuerwehr Reitbrook"/>
    <tag k="ref" v="F2963"/>
  </way>
  <way id="157746544" version="10" timestamp="2021-10-13T13:20:20Z" changeset="112462479" uid="408538" user="backendzeit">
    <nd ref="1699992886"/>
    <nd ref="5555007209"/>
    <nd ref="1699992882"/>
    <tag k="cycleway:right" v="no"/>
    <tag k="foot" v="yes"/>
    <tag k="highway" v="tertiary"/>
    <tag k="lane_markings" v="no"/>
    <tag k="maxspeed" v="50"/>
    <tag k="name" v="Sietwende"/>
    <tag k="oneway" v="yes"/>
    <tag k="sidewalk" v="no"/>
    <tag k="source:maxspeed" v="DE:urban"/>
    <tag k="surface" v="asphalt"/>
  </way>
  <way id="157746546" version="9" timestamp="2021-10-13T13:20:19Z" changeset="112462479" uid="408538" user="backendzeit">
    <nd ref="1699992882"/>
    <nd ref="5555007214"/>
    <nd ref="5555007213"/>
    <nd ref="1665579055"/>
    <tag k="cycleway:right" v="no"/>
    <tag k="highway" v="tertiary"/>
    <tag k="lane_markings" v="no"/>
    <tag k="maxspeed" v="50"/>
    <tag k="name" v="Sietwende"/>
    <tag k="oneway" v="yes"/>
    <tag k="sidewalk" v="right"/>
    <tag k="source:maxspeed" v="DE:urban"/>
    <tag k="surface" v="asphalt"/>
  </way>
  <way id="157746548" version="8" timestamp="2021-10-13T13:20:15Z" changeset="112462479" uid="408538" user="backendzeit">
    <nd ref="1665579055"/>
    <nd ref="5555007212"/>
    <nd ref="1699992886"/>
    <tag k="cycleway:both" v="no"/>
    <tag k="embankment" v="yes"/>
    <tag k="highway" v="tertiary"/>
    <tag k="lane_markings" v="no"/>
    <tag k="maxspeed" v="50"/>
    <tag k="name" v="Vorderdeich"/>
    <tag k="sidewalk" v="no"/>
    <tag k="source:maxspeed" v="DE:urban"/>
    <tag k="surface" v="asphalt"/>
  </way>
  <way id="169981414" version="4" timestamp="2022-01-08T21:17:33Z" changeset="115924063" uid="1855021" user="Unkn0wnKevin">
    <nd ref="1811295447"/>
    <nd ref="1811295448"/>
    <nd ref="1811295463"/>
    <nd ref="2801032037"/>
    <nd ref="2801032038"/>
    <nd ref="1811295458"/>
    <nd ref="1811295447"/>
    <tag k="addr:city" v="Hamburg"/>
    <tag k="addr:housenumber" v="291"/>
    <tag k="addr:postcode" v="21037"/>
    <tag k="addr:street" v="Reitbrooker Hinterdeich"/>
    <tag k="building" v="greenhouse"/>
    <tag k="name" v="Hof vorm Deich"/>
    <tag k="website" v="http://www.hofvormdeich.de"/>
    <tag k="wheelchair" v="limited"/>
  </way>
  <way id="237037041" version="2" timestamp="2017-11-10T08:31:47Z" changeset="53660099" uid="507893" user="wsoroe">
    <nd ref="2449860730"/>
    <nd ref="256542459"/>
    <tag k="bridge" v="yes"/>
    <tag k="highway" v="unclassified"/>
    <tag k="name" v="Reitbrooker Hinterdeich"/>
  </way>
  <way id="237037042" version="3" timestamp="2017-11-10T08:31:47Z" changeset="53660099" uid="507893" user="wsoroe">
    <nd ref="256542459"/>
    <nd ref="2449860733"/>
    <nd ref="256542460"/>
    <nd ref="2449860735"/>
    <nd ref="256542461"/>
    <nd ref="256542462"/>
    <nd ref="2449860721"/>
    <nd ref="2449860718"/>
    <nd ref="2449862796"/>
    <tag k="highway" v="unclassified"/>
    <tag k="name" v="Reitbrooker Hinterdeich"/>
  </way>
  <way id="237037047" version="1" timestamp="2013-09-07T20:37:53Z" changeset="17723651" uid="645538" user="vademecum">
    <nd ref="2449860738"/>
    <nd ref="2449860734"/>
    <nd ref="2449860736"/>
    <nd ref="2449860737"/>
    <nd ref="2449860743"/>
    <nd ref="2449860741"/>
    <nd ref="2449860742"/>
    <nd ref="2449860740"/>
    <nd ref="2449860738"/>
    <tag k="addr:country" v="DE"/>
    <tag k="addr:housenumber" v="64"/>
    <tag k="addr:street" v="Reitbrooker Hinterdeich"/>
    <tag k="building" v="yes"/>
    <tag k="name" v="Schöpfwerk Reitbrook"/>
  </way>
  <way id="246783443" version="2" timestamp="2016-02-28T15:18:41Z" changeset="37500636" uid="502863" user="Alpin100">
    <nd ref="2537806605"/>
    <nd ref="2537806606"/>
    <nd ref="2537806607"/>
    <nd ref="2537806608"/>
    <nd ref="2537806605"/>
    <tag k="addr:city" v="Hamburg"/>
    <tag k="addr:housenumber" v="1"/>
    <tag k="addr:postcode" v="21037"/>
    <tag k="addr:street" v="Kirchenbrücke"/>
    <tag k="building" v="yes"/>
  </way>
  <way id="250205667" version="3" timestamp="2014-10-22T18:57:58Z" changeset="26262690" uid="47013" user="jbhh12">
    <nd ref="2566926582"/>
    <nd ref="2566926584"/>
    <nd ref="2566926586"/>
    <nd ref="2566926588"/>
    <nd ref="2566926582"/>
    <tag k="addr:city" v="Hamburg"/>
    <tag k="addr:country" v="DE"/>
    <tag k="addr:housenumber" v="139"/>
    <tag k="addr:postcode" v="21037"/>
    <tag k="addr:street" v="Reitdeich"/>
    <tag k="building" v="yes"/>
  </way>
  <way id="251807639" version="3" timestamp="2014-10-22T19:28:47Z" changeset="26263372" uid="47013" user="jbhh12">
    <nd ref="2579777720"/>
    <nd ref="2579777725"/>
    <nd ref="2579777728"/>
    <nd ref="2579777731"/>
    <nd ref="2579777734"/>
    <nd ref="2579777737"/>
    <nd ref="2579777720"/>
    <tag k="addr:city" v="Hamburg"/>
    <tag k="addr:country" v="DE"/>
    <tag k="addr:housenumber" v="70"/>
    <tag k="addr:postcode" v="21037"/>
    <tag k="addr:street" v="Reitbrooker Westerdeich"/>
    <tag k="building" v="yes"/>
  </way>
  <way id="251807641" version="5" timestamp="2024-10-18T13:12:10Z" changeset="158050496" uid="21849234" user="KBodendieck">
    <nd ref="2579777751"/>
    <nd ref="2579777754"/>
    <nd ref="2579777757"/>
    <nd ref="2579777760"/>
    <nd ref="2579777751"/>
    <tag k="building" v="yes"/>
    <tag k="name" v="Forschungsstation &quot;Die Reit&quot;"/>
    <tag k="operator" v="NABU"/>
  </way>
  <way id="251807643" version="3" timestamp="2014-10-22T19:28:47Z" changeset="26263372" uid="47013" user="jbhh12">
    <nd ref="2579777777"/>
    <nd ref="2579777779"/>
    <nd ref="2579777782"/>
    <nd ref="2579777784"/>
    <nd ref="2579777777"/>
    <tag k="addr:city" v="Hamburg"/>
    <tag k="addr:country" v="DE"/>
    <tag k="addr:housenumber" v="54"/>
    <tag k="addr:postcode" v="21037"/>
    <tag k="addr:street" v="Reitbrooker Westerdeich"/>
    <tag k="building" v="yes"/>
  </way>
  <way id="251807647" version="3" timestamp="2014-10-22T18:58:13Z" changeset="26262690" uid="47013" user="jbhh12">
    <nd ref="2579777830"/>
    <nd ref="2579777833"/>
    <nd ref="2579777838"/>
    <nd ref="2579777840"/>
    <nd ref="2579777830"/>
    <tag k="addr:city" v="Hamburg"/>
    <tag k="addr:country" v="DE"/>
    <tag k="addr:housenumber" v="69"/>
    <tag k="addr:postcode" v="21037"/>
    <tag k="addr:street" v="Reitdeich"/>
    <tag k="building" v="yes"/>
  </way>
  <way id="251807648" version="4" timestamp="2014-10-22T18:58:13Z" changeset="26262690" uid="47013" user="jbhh12">
    <nd ref="2579777844"/>
    <nd ref="2579777846"/>
    <nd ref="2579777849"/>
    <nd ref="2579777852"/>
    <nd ref="2637223221"/>
    <nd ref="2637223219"/>
    <nd ref="2579777844"/>
    <tag k="addr:city" v="Hamburg"/>
    <tag k="addr:country" v="DE"/>
    <tag k="addr:housenumber" v="67"/>
    <tag k="addr:postcode" v="21037"/>
    <tag k="addr:street" v="Reitdeich"/>
    <tag k="building" v="yes"/>
  </way>
  <way id="251807649" version="3" timestamp="2014-10-22T18:58:13Z" changeset="26262690" uid="47013" user="jbhh12">
    <nd ref="2579777855"/>
    <nd ref="2579777858"/>
    <nd ref="2579777861"/>
    <nd ref="2579777864"/>
    <nd ref="2579777867"/>
    <nd ref="2579777870"/>
    <nd ref="2579777855"/>
    <tag k="addr:city" v="Hamburg"/>
    <tag k="addr:country" v="DE"/>
    <tag k="addr:housenumber" v="65"/>
    <tag k="addr:postcode" v="21037"/>
    <tag k="addr:street" v="Reitdeich"/>
    <tag k="building" v="yes"/>
  </way>
  <way id="251807650" version="3" timestamp="2014-10-22T18:58:12Z" changeset="26262690" uid="47013" user="jbhh12">
    <nd ref="2579777873"/>
    <nd ref="2579777875"/>
    <nd ref="2579777878"/>
    <nd ref="2579777881"/>
    <nd ref="2579777873"/>
    <tag k="addr:city" v="Hamburg"/>
    <tag k="addr:country" v="DE"/>
    <tag k="addr:housenumber" v="57"/>
    <tag k="addr:postcode" v="21037"/>
    <tag k="addr:street" v="Reitdeich"/>
    <tag k="building" v="yes"/>
  </way>
  <way id="251807652" version="3" timestamp="2014-10-22T18:58:12Z" changeset="26262690" uid="47013" user="jbhh12">
    <nd ref="2579777896"/>
    <nd ref="2579777899"/>
    <nd ref="2579777902"/>
    <nd ref="2579777904"/>
    <nd ref="2579777896"/>
    <tag k="addr:city" v="Hamburg"/>
    <tag k="addr:country" v="DE"/>
    <tag k="addr:housenumber" v="51"/>
    <tag k="addr:postcode" v="21037"/>
    <tag k="addr:street" v="Reitdeich"/>
    <tag k="building" v="yes"/>
  </way>
  <way id="251807656" version="3" timestamp="2014-10-22T18:58:12Z" changeset="26262690" uid="47013" user="jbhh12">
    <nd ref="2579777942"/>
    <nd ref="2579777944"/>
    <nd ref="2579777946"/>
    <nd ref="2579777948"/>
    <nd ref="2579777942"/>
    <tag k="addr:city" v="Hamburg"/>
    <tag k="addr:country" v="DE"/>
    <tag k="addr:housenumber" v="47"/>
    <tag k="addr:postcode" v="21037"/>
    <tag k="addr:street" v="Reitdeich"/>
    <tag k="building" v="yes"/>
  </way>
  <way id="251807657" version="3" timestamp="2014-10-22T18:58:11Z" changeset="26262690" uid="47013" user="jbhh12">
    <nd ref="2579777950"/>
    <nd ref="2579777952"/>
    <nd ref="2579777954"/>
    <nd ref="2579777956"/>
    <nd ref="2579777950"/>
    <tag k="addr:city" v="Hamburg"/>
    <tag k="addr:country" v="DE"/>
    <tag k="addr:housenumber" v="331"/>
    <tag k="addr:postcode" v="21037"/>
    <tag k="addr:street" v="Vorderdeich"/>
    <tag k="building" v="yes"/>
  </way>
  <way id="251807660" version="3" timestamp="2014-10-22T18:58:11Z" changeset="26262690" uid="47013" user="jbhh12">
    <nd ref="2579777980"/>
    <nd ref="2579777982"/>
    <nd ref="2579777984"/>
    <nd ref="2579777986"/>
    <nd ref="2579777980"/>
    <tag k="addr:city" v="Hamburg"/>
    <tag k="addr:country" v="DE"/>
    <tag k="addr:housenumber" v="337"/>
    <tag k="addr:postcode" v="21037"/>
    <tag k="addr:street" v="Vorderdeich"/>
    <tag k="building" v="yes"/>
  </way>
  <way id="251807663" version="3" timestamp="2014-10-22T18:58:11Z" changeset="26262690" uid="47013" user="jbhh12">
    <nd ref="2579778005"/>
    <nd ref="2579778007"/>
    <nd ref="2579778009"/>
    <nd ref="2579778011"/>
    <nd ref="2579778013"/>
    <nd ref="2579778015"/>
    <nd ref="2579778017"/>
    <nd ref="2579778019"/>
    <nd ref="2579778005"/>
    <tag k="addr:city" v="Hamburg"/>
    <tag k="addr:country" v="DE"/>
    <tag k="addr:housenumber" v="339"/>
    <tag k="addr:postcode" v="21037"/>
    <tag k="addr:street" v="Vorderdeich"/>
    <tag k="building" v="yes"/>
  </way>
  <way id="251807668" version="3" timestamp="2014-10-22T18:58:12Z" changeset="26262690" uid="47013" user="jbhh12">
    <nd ref="2579778070"/>
    <nd ref="2579778072"/>
    <nd ref="2579778074"/>
    <nd ref="2579778076"/>
    <nd ref="2579778070"/>
    <tag k="addr:city" v="Hamburg"/>
    <tag k="addr:country" v="DE"/>
    <tag k="addr:housenumber" v="351"/>
    <tag k="addr:postcode" v="21037"/>
    <tag k="addr:street" v="Vorderdeich"/>
    <tag k="building" v="yes"/>
  </way>
  <way id="251807670" version="5" timestamp="2022-04-30T15:44:33Z" changeset="120390294" uid="1417856" user="ReinholdR">
    <nd ref="2579778078"/>
    <nd ref="2579778080"/>
    <nd ref="9705471976"/>
    <nd ref="2579778083"/>
    <nd ref="2579778078"/>
    <tag k="addr:city" v="Hamburg"/>
    <tag k="addr:country" v="DE"/>
    <tag k="addr:housenumber" v="359"/>
    <tag k="addr:postcode" v="21037"/>
    <tag k="addr:street" v="Vorderdeich"/>
    <tag k="building" v="detached"/>
  </way>
  <way id="251807672" version="4" timestamp="2022-04-30T15:44:33Z" changeset="120390294" uid="1417856" user="ReinholdR">
    <nd ref="2579778088"/>
    <nd ref="9705471964"/>
    <nd ref="2579778090"/>
    <nd ref="2579778092"/>
    <nd ref="2579778093"/>
    <nd ref="9705471973"/>
    <nd ref="2579778088"/>
    <tag k="addr:city" v="Hamburg"/>
    <tag k="addr:country" v="DE"/>
    <tag k="addr:housenumber" v="361"/>
    <tag k="addr:postcode" v="21037"/>
    <tag k="addr:street" v="Vorderdeich"/>
    <tag k="building" v="detached"/>
  </way>
  <way id="251807674" version="3" timestamp="2014-10-22T18:58:12Z" changeset="26262690" uid="47013" user="jbhh12">
    <nd ref="2579778117"/>
    <nd ref="2579778119"/>
    <nd ref="2579778121"/>
    <nd ref="2579778123"/>
    <nd ref="2579778117"/>
    <tag k="addr:city" v="Hamburg"/>
    <tag k="addr:country" v="DE"/>
    <tag k="addr:housenumber" v="373"/>
    <tag k="addr:postcode" v="21037"/>
    <tag k="addr:street" v="Vorderdeich"/>
    <tag k="building" v="yes"/>
  </way>
  <way id="251807675" version="3" timestamp="2014-10-22T19:28:42Z" changeset="26263372" uid="47013" user="jbhh12">
    <nd ref="2579778125"/>
    <nd ref="2579778127"/>
    <nd ref="2579778129"/>
    <nd ref="2579778130"/>
    <nd ref="2579778125"/>
    <tag k="addr:city" v="Hamburg"/>
    <tag k="addr:country" v="DE"/>
    <tag k="addr:housenumber" v="1"/>
    <tag k="addr:postcode" v="21037"/>
    <tag k="addr:street" v="Reitbrooker Westerdeich"/>
    <tag k="building" v="yes"/>
  </way>
  <way id="251807679" version="3" timestamp="2014-10-22T19:28:47Z" changeset="26263372" uid="47013" user="jbhh12">
    <nd ref="2579778145"/>
    <nd ref="2579778146"/>
    <nd ref="2938514526"/>
    <nd ref="2938514525"/>
    <nd ref="2579778147"/>
    <nd ref="2938514528"/>
    <nd ref="2938514527"/>
    <nd ref="2579778148"/>
    <nd ref="2579778145"/>
    <tag k="addr:city" v="Hamburg"/>
    <tag k="addr:country" v="DE"/>
    <tag k="addr:housenumber" v="73"/>
    <tag k="addr:postcode" v="21037"/>
    <tag k="addr:street" v="Reitbrooker Westerdeich"/>
    <tag k="building" v="yes"/>
  </way>
  <way id="251807680" version="4" timestamp="2014-10-22T19:28:47Z" changeset="26263372" uid="47013" user="jbhh12">
    <nd ref="2579778149"/>
    <nd ref="2579778150"/>
    <nd ref="2579778151"/>
    <nd ref="2579778152"/>
    <nd ref="2579778149"/>
    <tag k="addr:city" v="Hamburg"/>
    <tag k="addr:country" v="DE"/>
    <tag k="addr:housenumber" v="71"/>
    <tag k="addr:postcode" v="21037"/>
    <tag k="addr:street" v="Reitbrooker Westerdeich"/>
    <tag k="building" v="farm_auxiliary"/>
  </way>
  <way id="258357205" version="2" timestamp="2022-04-30T16:31:14Z" changeset="120391911" uid="1417856" user="ReinholdR">
    <nd ref="2637222983"/>
    <nd ref="2637222985"/>
    <nd ref="2637222987"/>
    <nd ref="2637222989"/>
    <nd ref="2637222983"/>
    <tag k="addr:city" v="Hamburg"/>
    <tag k="addr:housenumber" v="346"/>
    <tag k="addr:postcode" v="21037"/>
    <tag k="addr:street" v="Vorderdeich"/>
    <tag k="building" v="farm_auxiliary"/>
  </way>
  <way id="258357227" version="3" timestamp="2014-10-22T18:58:14Z" changeset="26262690" uid="47013" user="jbhh12">
    <nd ref="2637223184"/>
    <nd ref="2637223186"/>
    <nd ref="2637223188"/>
    <nd ref="2637223190"/>
    <nd ref="2637223184"/>
    <tag k="addr:city" v="Hamburg"/>
    <tag k="addr:country" v="DE"/>
    <tag k="addr:housenumber" v="71"/>
    <tag k="addr:postcode" v="21037"/>
    <tag k="addr:street" v="Reitdeich"/>
    <tag k="building" v="farm_auxiliary"/>
  </way>
  <way id="273331338" version="3" timestamp="2014-10-22T18:58:06Z" changeset="26262690" uid="47013" user="jbhh12">
    <nd ref="2781962873"/>
    <nd ref="2781962872"/>
    <nd ref="2781962846"/>
    <nd ref="2781962834"/>
    <nd ref="2781962859"/>
    <nd ref="2781962865"/>
    <nd ref="2781962873"/>
    <tag k="addr:city" v="Hamburg"/>
    <tag k="addr:country" v="DE"/>
    <tag k="addr:housenumber" v="269"/>
    <tag k="addr:postcode" v="21037"/>
    <tag k="addr:street" v="Vorderdeich"/>
    <tag k="building" v="yes"/>
  </way>
  <way id="273331342" version="6" timestamp="2022-04-30T15:44:33Z" changeset="120390294" uid="1417856" user="ReinholdR">
    <nd ref="2781962890"/>
    <nd ref="2781962893"/>
    <nd ref="9705471865"/>
    <nd ref="9705471866"/>
    <nd ref="2781962843"/>
    <nd ref="2781962838"/>
    <nd ref="2781962890"/>
    <tag k="addr:city" v="Hamburg"/>
    <tag k="addr:country" v="DE"/>
    <tag k="addr:housenumber" v="275"/>
    <tag k="addr:postcode" v="21037"/>
    <tag k="addr:street" v="Vorderdeich"/>
    <tag k="building" v="farm"/>
    <tag k="building:levels" v="1"/>
    <tag k="roof:levels" v="1"/>
  </way>
  <way id="273331347" version="5" timestamp="2021-10-28T09:58:09Z" changeset="113074407" uid="408538" user="backendzeit">
    <nd ref="2781962887"/>
    <nd ref="2781962854"/>
    <nd ref="2781962840"/>
    <nd ref="2781962844"/>
    <nd ref="2781962887"/>
    <tag k="addr:city" v="Hamburg"/>
    <tag k="addr:country" v="DE"/>
    <tag k="addr:housenumber" v="261"/>
    <tag k="addr:postcode" v="21037"/>
    <tag k="addr:street" v="Vorderdeich"/>
    <tag k="building" v="detached"/>
    <tag k="building:levels" v="1"/>
    <tag k="roof:levels" v="2"/>
  </way>
  <way id="280282949" version="7" timestamp="2023-06-08T05:07:33Z" changeset="137078999" uid="66391" user="geozeisig">
    <nd ref="2844243719"/>
    <nd ref="2844243720"/>
    <nd ref="2844243721"/>
    <nd ref="2844243722"/>
    <nd ref="2844243719"/>
    <tag k="building" v="yes"/>
    <tag k="name" v="R-0089"/>
    <tag k="power" v="substation"/>
  </way>
  <way id="289147680" version="1" timestamp="2014-06-22T08:04:46Z" changeset="23075604" uid="599999" user="svbr">
    <nd ref="2927055753"/>
    <nd ref="2927055754"/>
    <nd ref="2927055752"/>
    <nd ref="2927055751"/>
    <nd ref="2927055753"/>
    <tag k="addr:housenumber" v="1"/>
    <tag k="addr:street" v="Reitbrooker Mühlenbrücke"/>
    <tag k="building" v="yes"/>
  </way>
  <way id="289147681" version="1" timestamp="2014-06-22T08:04:46Z" changeset="23075604" uid="599999" user="svbr">
    <nd ref="2927055709"/>
    <nd ref="2927055714"/>
    <nd ref="2927055711"/>
    <nd ref="2927055713"/>
    <nd ref="2927055710"/>
    <nd ref="2927055701"/>
    <nd ref="2927055709"/>
    <tag k="addr:housenumber" v="1"/>
    <tag k="addr:street" v="Vorderdeich"/>
    <tag k="building" v="yes"/>
  </way>
  <way id="289147691" version="2" timestamp="2023-04-25T05:42:20Z" changeset="135326839" uid="66391" user="geozeisig">
    <nd ref="2927055726"/>
    <nd ref="2927055725"/>
    <nd ref="2927055721"/>
    <nd ref="2927055723"/>
    <nd ref="2927055726"/>
    <tag k="addr:housenumber" v="5"/>
    <tag k="addr:street" v="Vorderdeich"/>
    <tag k="building" v="yes"/>
    <tag k="dsa:criteria" v="Ensembleteil"/>
    <tag k="heritage" v="4"/>
    <tag k="heritage:operator" v="dsa"/>
    <tag k="ref:dsa" v="29794"/>
    <tag k="start_date" v="1605"/>
  </way>
  <way id="289147763" version="1" timestamp="2014-06-22T08:04:53Z" changeset="23075604" uid="599999" user="svbr">
    <nd ref="2927055724"/>
    <nd ref="2927055722"/>
    <nd ref="2927055716"/>
    <nd ref="2927055717"/>
    <nd ref="2927055715"/>
    <nd ref="2927055718"/>
    <nd ref="2927055719"/>
    <nd ref="2927055720"/>
    <nd ref="2927055724"/>
    <tag k="addr:housenumber" v="7"/>
    <tag k="addr:street" v="Vorderdeich"/>
    <tag k="building" v="yes"/>
  </way>
  <way id="289147764" version="2" timestamp="2023-04-25T05:42:20Z" changeset="135326839" uid="66391" user="geozeisig">
    <nd ref="2927055734"/>
    <nd ref="2927055731"/>
    <nd ref="2927055732"/>
    <nd ref="2927055729"/>
    <nd ref="2927055727"/>
    <nd ref="2927055728"/>
    <nd ref="2927055730"/>
    <nd ref="2927055733"/>
    <nd ref="2927055734"/>
    <tag k="addr:housenumber" v="9"/>
    <tag k="addr:street" v="Vorderdeich"/>
    <tag k="building" v="yes"/>
    <tag k="dsa:criteria" v="Baudenkmal"/>
    <tag k="heritage" v="4"/>
    <tag k="heritage:operator" v="dsa"/>
    <tag k="image" v="http://commons.wikimedia.org/wiki/File:Vorderdeich_9_%28Hamburg-Reitbrook%29.ajb.jpg"/>
    <tag k="ref:dsa" v="27661"/>
    <tag k="start_date" v="C18"/>
  </way>
  <way id="289147765" version="3" timestamp="2023-04-25T05:42:20Z" changeset="135326839" uid="66391" user="geozeisig">
    <nd ref="2927055746"/>
    <nd ref="2927055744"/>
    <nd ref="2927055745"/>
    <nd ref="2927055742"/>
    <nd ref="2927055741"/>
    <nd ref="2927055737"/>
    <nd ref="2927055735"/>
    <nd ref="2927055738"/>
    <nd ref="2927055736"/>
    <nd ref="2927055740"/>
    <nd ref="2927055739"/>
    <nd ref="2927055743"/>
    <nd ref="1703435188"/>
    <nd ref="2927055747"/>
    <nd ref="2927055749"/>
    <nd ref="2927055748"/>
    <nd ref="2927055750"/>
    <nd ref="2927055746"/>
    <tag k="addr:housenumber" v="11"/>
    <tag k="addr:street" v="Vorderdeich"/>
    <tag k="building" v="yes"/>
    <tag k="dsa:criteria" v="Ensembleteil"/>
    <tag k="heritage" v="4"/>
    <tag k="heritage:operator" v="dsa"/>
    <tag k="image" v="http://commons.wikimedia.org/wiki/File:Reitbrooker_M%C3%BChle_Hamburg.jpg"/>
    <tag k="man_made" v="windmill"/>
    <tag k="name" v="Reitbrooker Mühle"/>
    <tag k="ref:dsa" v="29795"/>
    <tag k="start_date" v="1870"/>
    <tag k="wikidata" v="Q2142054"/>
    <tag k="wikipedia" v="de:Reitbrooker Mühle"/>
  </way>
  <way id="289676949" version="2" timestamp="2021-10-20T16:33:18Z" changeset="112752698" uid="408538" user="backendzeit">
    <nd ref="2932275015"/>
    <nd ref="2932275023"/>
    <nd ref="2932275020"/>
    <nd ref="2932275008"/>
    <nd ref="2932275015"/>
    <tag k="addr:housenumber" v="1"/>
    <tag k="addr:street" v="Sietwende"/>
    <tag k="building" v="detached"/>
  </way>
  <way id="289676950" version="3" timestamp="2021-10-09T09:40:50Z" changeset="112293781" uid="408538" user="backendzeit">
    <nd ref="2932275425"/>
    <nd ref="2932275424"/>
    <nd ref="2932275409"/>
    <nd ref="2932275415"/>
    <nd ref="2932275425"/>
    <tag k="addr:housenumber" v="111"/>
    <tag k="addr:street" v="Vorderdeich"/>
    <tag k="building" v="detached"/>
    <tag k="building:levels" v="1"/>
    <tag k="roof:levels" v="1"/>
  </way>
  <way id="289676951" version="3" timestamp="2021-10-13T13:20:14Z" changeset="112462482" uid="408538" user="backendzeit">
    <nd ref="2932275439"/>
    <nd ref="2932275438"/>
    <nd ref="2932275432"/>
    <nd ref="2932275433"/>
    <nd ref="2932275427"/>
    <nd ref="2932275429"/>
    <nd ref="2932275434"/>
    <nd ref="2932275435"/>
    <nd ref="2932275439"/>
    <tag k="addr:housenumber" v="119"/>
    <tag k="addr:street" v="Vorderdeich"/>
    <tag k="building" v="detached"/>
    <tag k="building:levels" v="1"/>
    <tag k="roof:levels" v="1"/>
  </way>
  <way id="289676952" version="2" timestamp="2021-10-09T09:39:30Z" changeset="112293773" uid="408538" user="backendzeit">
    <nd ref="2932275437"/>
    <nd ref="2932275436"/>
    <nd ref="2932275417"/>
    <nd ref="2932275418"/>
    <nd ref="2932275430"/>
    <nd ref="2932275431"/>
    <nd ref="2932275437"/>
    <tag k="addr:housenumber" v="121"/>
    <tag k="addr:street" v="Vorderdeich"/>
    <tag k="building" v="detached"/>
  </way>
  <way id="289676953" version="2" timestamp="2021-10-20T16:33:13Z" changeset="112752698" uid="408538" user="backendzeit">
    <nd ref="2932275428"/>
    <nd ref="2932275426"/>
    <nd ref="2932275410"/>
    <nd ref="2932275414"/>
    <nd ref="2932275428"/>
    <tag k="addr:housenumber" v="123"/>
    <tag k="addr:street" v="Vorderdeich"/>
    <tag k="building" v="detached"/>
  </way>
  <way id="289676954" version="2" timestamp="2021-10-20T16:33:14Z" changeset="112752698" uid="408538" user="backendzeit">
    <nd ref="2932275382"/>
    <nd ref="2932275375"/>
    <nd ref="2932275344"/>
    <nd ref="2932275343"/>
    <nd ref="2932275330"/>
    <nd ref="2932275332"/>
    <nd ref="2932275342"/>
    <nd ref="2932275345"/>
    <nd ref="2932275382"/>
    <tag k="addr:housenumber" v="125"/>
    <tag k="addr:street" v="Vorderdeich"/>
    <tag k="building" v="apartments"/>
  </way>
  <way id="289676955" version="2" timestamp="2021-10-20T16:33:13Z" changeset="112752698" uid="408538" user="backendzeit">
    <nd ref="2932275398"/>
    <nd ref="2932275385"/>
    <nd ref="2932275358"/>
    <nd ref="2932275349"/>
    <nd ref="2932275329"/>
    <nd ref="2932275338"/>
    <nd ref="2932275325"/>
    <nd ref="2932275327"/>
    <nd ref="2932275398"/>
    <tag k="addr:housenumber" v="126"/>
    <tag k="addr:street" v="Vorderdeich"/>
    <tag k="building" v="detached"/>
  </way>
  <way id="289676956" version="3" timestamp="2021-10-09T09:49:15Z" changeset="112293781" uid="408538" user="backendzeit">
    <nd ref="2932275024"/>
    <nd ref="2932275021"/>
    <nd ref="2932275017"/>
    <nd ref="2932275022"/>
    <nd ref="2932275024"/>
    <tag k="addr:housenumber" v="13"/>
    <tag k="addr:street" v="Vorderdeich"/>
    <tag k="building" v="detached"/>
    <tag k="building:levels" v="1"/>
    <tag k="roof:levels" v="2"/>
  </way>
  <way id="289676957" version="2" timestamp="2021-10-20T16:33:13Z" changeset="112752698" uid="408538" user="backendzeit">
    <nd ref="2932275199"/>
    <nd ref="2932275198"/>
    <nd ref="2932275187"/>
    <nd ref="2932275186"/>
    <nd ref="2932275166"/>
    <nd ref="2932275167"/>
    <nd ref="2932275152"/>
    <nd ref="2932275153"/>
    <nd ref="2932275199"/>
    <tag k="addr:housenumber" v="133"/>
    <tag k="addr:street" v="Vorderdeich"/>
    <tag k="building" v="detached"/>
  </way>
  <way id="289676958" version="3" timestamp="2021-10-09T09:37:32Z" changeset="112293781" uid="408538" user="backendzeit">
    <nd ref="2932275320"/>
    <nd ref="2932275316"/>
    <nd ref="2932275182"/>
    <nd ref="2932275185"/>
    <nd ref="2932275301"/>
    <nd ref="2932275304"/>
    <nd ref="2932275191"/>
    <nd ref="2932275193"/>
    <nd ref="2932275320"/>
    <tag k="addr:housenumber" v="135"/>
    <tag k="addr:street" v="Vorderdeich"/>
    <tag k="building" v="detached"/>
    <tag k="building:levels" v="1"/>
    <tag k="roof:levels" v="1"/>
  </way>
  <way id="289676959" version="1" timestamp="2014-06-25T04:56:37Z" changeset="23135323" uid="599999" user="svbr">
    <nd ref="2932275163"/>
    <nd ref="2932275181"/>
    <nd ref="2932275155"/>
    <nd ref="2932275150"/>
    <nd ref="2932275163"/>
    <tag k="addr:housenumber" v="14"/>
    <tag k="addr:street" v="Vorderdeich"/>
    <tag k="building" v="yes"/>
  </way>
  <way id="289676960" version="3" timestamp="2021-10-28T10:04:02Z" changeset="113074407" uid="408538" user="backendzeit">
    <nd ref="2932275200"/>
    <nd ref="2932275173"/>
    <nd ref="2932275149"/>
    <nd ref="2932275160"/>
    <nd ref="2932275200"/>
    <tag k="addr:housenumber" v="141"/>
    <tag k="addr:street" v="Vorderdeich"/>
    <tag k="building" v="detached"/>
    <tag k="building:levels" v="1"/>
    <tag k="roof:levels" v="1"/>
  </way>
  <way id="289676961" version="3" timestamp="2021-10-28T10:04:07Z" changeset="113074407" uid="408538" user="backendzeit">
    <nd ref="2932275151"/>
    <nd ref="2932275144"/>
    <nd ref="2932275131"/>
    <nd ref="2932275140"/>
    <nd ref="2932275151"/>
    <tag k="addr:housenumber" v="143"/>
    <tag k="addr:street" v="Vorderdeich"/>
    <tag k="building" v="detached"/>
    <tag k="building:levels" v="1"/>
    <tag k="roof:levels" v="1"/>
  </way>
  <way id="289676962" version="2" timestamp="2021-10-13T13:20:20Z" changeset="112462480" uid="408538" user="backendzeit">
    <nd ref="2932275079"/>
    <nd ref="2932275039"/>
    <nd ref="2932275034"/>
    <nd ref="2932275047"/>
    <nd ref="2932275028"/>
    <nd ref="2932275032"/>
    <nd ref="2932275079"/>
    <tag k="addr:housenumber" v="149"/>
    <tag k="addr:street" v="Vorderdeich"/>
    <tag k="building" v="detached"/>
  </way>
  <way id="289676963" version="2" timestamp="2021-10-09T09:49:07Z" changeset="112293773" uid="408538" user="backendzeit">
    <nd ref="2932275027"/>
    <nd ref="2932275025"/>
    <nd ref="2932275013"/>
    <nd ref="2932275019"/>
    <nd ref="2932275027"/>
    <tag k="addr:housenumber" v="15"/>
    <tag k="addr:street" v="Vorderdeich"/>
    <tag k="building" v="detached"/>
  </way>
  <way id="289676964" version="5" timestamp="2021-11-16T12:03:08Z" changeset="113849019" uid="10198996" user="Minderbinder">
    <nd ref="2932275057"/>
    <nd ref="2932275038"/>
    <nd ref="2932275030"/>
    <nd ref="2932275029"/>
    <nd ref="2932275026"/>
    <nd ref="2932275031"/>
    <nd ref="2932275033"/>
    <nd ref="2932275036"/>
    <nd ref="2932275042"/>
    <nd ref="2932275035"/>
    <nd ref="2932275057"/>
    <tag k="addr:city" v="Hamburg"/>
    <tag k="addr:country" v="DE"/>
    <tag k="addr:housenumber" v="151"/>
    <tag k="addr:postcode" v="21037"/>
    <tag k="addr:street" v="Vorderdeich"/>
    <tag k="building" v="dormitory"/>
    <tag k="building:levels" v="1"/>
    <tag k="name" v="Alte Schule Reitbrook"/>
    <tag k="roof:levels" v="1"/>
    <tag k="wikidata" v="Q109593398"/>
  </way>
  <way id="289676965" version="3" timestamp="2021-10-20T16:33:18Z" changeset="112752698" uid="408538" user="backendzeit">
    <nd ref="2932275110"/>
    <nd ref="2932275091"/>
    <nd ref="2932275071"/>
    <nd ref="2932275081"/>
    <nd ref="2932275074"/>
    <nd ref="2932275085"/>
    <nd ref="2932275110"/>
    <tag k="addr:city" v="Hamburg"/>
    <tag k="addr:country" v="DE"/>
    <tag k="addr:housenumber" v="153"/>
    <tag k="addr:postcode" v="21037"/>
    <tag k="addr:street" v="Vorderdeich"/>
    <tag k="building" v="detached"/>
  </way>
  <way id="289676966" version="3" timestamp="2021-10-20T16:33:18Z" changeset="112752698" uid="408538" user="backendzeit">
    <nd ref="2932275121"/>
    <nd ref="2932275094"/>
    <nd ref="2932275055"/>
    <nd ref="2932275062"/>
    <nd ref="2932275054"/>
    <nd ref="2932275064"/>
    <nd ref="2932275046"/>
    <nd ref="2932275063"/>
    <nd ref="2932275082"/>
    <nd ref="2932275075"/>
    <nd ref="2932275121"/>
    <tag k="addr:city" v="Hamburg"/>
    <tag k="addr:country" v="DE"/>
    <tag k="addr:housenumber" v="155"/>
    <tag k="addr:postcode" v="21037"/>
    <tag k="addr:street" v="Vorderdeich"/>
    <tag k="building" v="detached"/>
  </way>
  <way id="289676967" version="1" timestamp="2014-06-25T04:56:37Z" changeset="23135323" uid="599999" user="svbr">
    <nd ref="2932275011"/>
    <nd ref="2932275006"/>
    <nd ref="2932275001"/>
    <nd ref="2932275004"/>
    <nd ref="2932275011"/>
    <tag k="addr:housenumber" v="17"/>
    <tag k="addr:street" v="Vorderdeich"/>
    <tag k="building" v="yes"/>
  </way>
  <way id="289676968" version="1" timestamp="2014-06-25T04:56:37Z" changeset="23135323" uid="599999" user="svbr">
    <nd ref="2932275096"/>
    <nd ref="2932275083"/>
    <nd ref="2932275058"/>
    <nd ref="2932275077"/>
    <nd ref="2932275097"/>
    <nd ref="2932275087"/>
    <nd ref="2932275096"/>
    <tag k="addr:housenumber" v="21"/>
    <tag k="addr:street" v="Vorderdeich"/>
    <tag k="building" v="yes"/>
  </way>
  <way id="289676969" version="1" timestamp="2014-06-25T04:56:37Z" changeset="23135323" uid="599999" user="svbr">
    <nd ref="2932275101"/>
    <nd ref="2932275098"/>
    <nd ref="2932275065"/>
    <nd ref="2932275072"/>
    <nd ref="2932275101"/>
    <tag k="addr:housenumber" v="23"/>
    <tag k="addr:street" v="Vorderdeich"/>
    <tag k="building" v="yes"/>
  </way>
  <way id="289676970" version="1" timestamp="2014-06-25T04:56:38Z" changeset="23135323" uid="599999" user="svbr">
    <nd ref="2932275089"/>
    <nd ref="2932275114"/>
    <nd ref="2932275107"/>
    <nd ref="2932275051"/>
    <nd ref="2932275052"/>
    <nd ref="2932275040"/>
    <nd ref="2932275044"/>
    <nd ref="2932275059"/>
    <nd ref="2932275088"/>
    <nd ref="2932275089"/>
    <tag k="addr:housenumber" v="25"/>
    <tag k="addr:street" v="Vorderdeich"/>
    <tag k="building" v="yes"/>
  </way>
  <way id="289676971" version="1" timestamp="2014-06-25T04:56:38Z" changeset="23135323" uid="599999" user="svbr">
    <nd ref="2932275059"/>
    <nd ref="2932275060"/>
    <nd ref="2932275049"/>
    <nd ref="2932275069"/>
    <nd ref="2932275095"/>
    <nd ref="2932275089"/>
    <nd ref="2932275088"/>
    <nd ref="2932275059"/>
    <tag k="addr:housenumber" v="25a"/>
    <tag k="addr:street" v="Vorderdeich"/>
    <tag k="building" v="yes"/>
  </way>
  <way id="289676972" version="1" timestamp="2014-06-25T04:56:38Z" changeset="23135323" uid="599999" user="svbr">
    <nd ref="2932275100"/>
    <nd ref="2932275099"/>
    <nd ref="2932275073"/>
    <nd ref="2932275076"/>
    <nd ref="2932275067"/>
    <nd ref="2932275068"/>
    <nd ref="2932275100"/>
    <tag k="addr:housenumber" v="27"/>
    <tag k="addr:street" v="Vorderdeich"/>
    <tag k="building" v="yes"/>
  </way>
  <way id="289676973" version="1" timestamp="2014-06-25T04:56:38Z" changeset="23135323" uid="599999" user="svbr">
    <nd ref="2932275122"/>
    <nd ref="2932275103"/>
    <nd ref="2932275070"/>
    <nd ref="2932275086"/>
    <nd ref="2932275122"/>
    <tag k="addr:housenumber" v="29"/>
    <tag k="addr:street" v="Vorderdeich"/>
    <tag k="building" v="yes"/>
  </way>
  <way id="289676974" version="1" timestamp="2014-06-25T04:56:38Z" changeset="23135323" uid="599999" user="svbr">
    <nd ref="2932275113"/>
    <nd ref="2932275135"/>
    <nd ref="2932275133"/>
    <nd ref="2932275130"/>
    <nd ref="2932275123"/>
    <nd ref="2932275102"/>
    <nd ref="2932275113"/>
    <tag k="addr:housenumber" v="29a"/>
    <tag k="addr:street" v="Vorderdeich"/>
    <tag k="building" v="yes"/>
  </way>
  <way id="289676975" version="1" timestamp="2014-06-25T04:56:38Z" changeset="23135323" uid="599999" user="svbr">
    <nd ref="2932275102"/>
    <nd ref="2932275084"/>
    <nd ref="2932275093"/>
    <nd ref="2932275113"/>
    <nd ref="2932275102"/>
    <tag k="addr:housenumber" v="29b"/>
    <tag k="addr:street" v="Vorderdeich"/>
    <tag k="building" v="yes"/>
  </way>
  <way id="289676976" version="1" timestamp="2014-06-25T04:56:38Z" changeset="23135323" uid="599999" user="svbr">
    <nd ref="2932275078"/>
    <nd ref="2932275061"/>
    <nd ref="2932275053"/>
    <nd ref="2932275048"/>
    <nd ref="2932275041"/>
    <nd ref="2932275043"/>
    <nd ref="2932275037"/>
    <nd ref="2932275050"/>
    <nd ref="2932275045"/>
    <nd ref="2932275056"/>
    <nd ref="2932275080"/>
    <nd ref="2932275066"/>
    <nd ref="2932275078"/>
    <tag k="addr:housenumber" v="31"/>
    <tag k="addr:street" v="Vorderdeich"/>
    <tag k="building" v="yes"/>
  </way>
  <way id="289676977" version="1" timestamp="2014-06-25T04:56:38Z" changeset="23135323" uid="599999" user="svbr">
    <nd ref="2932275104"/>
    <nd ref="2932275090"/>
    <nd ref="2932275092"/>
    <nd ref="2932275129"/>
    <nd ref="2932275128"/>
    <nd ref="2932275136"/>
    <nd ref="2932275134"/>
    <nd ref="2932275109"/>
    <nd ref="2932275112"/>
    <nd ref="2932275104"/>
    <tag k="addr:housenumber" v="33"/>
    <tag k="addr:street" v="Vorderdeich"/>
    <tag k="building" v="yes"/>
  </way>
  <way id="289676979" version="1" timestamp="2014-06-25T04:56:38Z" changeset="23135323" uid="599999" user="svbr">
    <nd ref="2932275141"/>
    <nd ref="2932275137"/>
    <nd ref="2932275108"/>
    <nd ref="2932275119"/>
    <nd ref="2932275105"/>
    <nd ref="2932275111"/>
    <nd ref="2932275141"/>
    <tag k="addr:housenumber" v="37"/>
    <tag k="addr:street" v="Vorderdeich"/>
    <tag k="building" v="yes"/>
  </way>
  <way id="289676980" version="1" timestamp="2014-06-25T04:56:38Z" changeset="23135323" uid="599999" user="svbr">
    <nd ref="2932275146"/>
    <nd ref="2932275142"/>
    <nd ref="2932275118"/>
    <nd ref="2932275120"/>
    <nd ref="2932275127"/>
    <nd ref="2932275132"/>
    <nd ref="2932275148"/>
    <nd ref="2932275145"/>
    <nd ref="2932275146"/>
    <tag k="addr:housenumber" v="39"/>
    <tag k="addr:street" v="Vorderdeich"/>
    <tag k="building" v="yes"/>
  </way>
  <way id="289676981" version="2" timestamp="2023-04-25T05:42:20Z" changeset="135326839" uid="66391" user="geozeisig">
    <nd ref="2932275175"/>
    <nd ref="2932275192"/>
    <nd ref="2932275126"/>
    <nd ref="2932275106"/>
    <nd ref="2932275175"/>
    <tag k="addr:housenumber" v="43"/>
    <tag k="addr:street" v="Vorderdeich"/>
    <tag k="building" v="yes"/>
    <tag k="dsa:criteria" v="Baudenkmal"/>
    <tag k="heritage" v="4"/>
    <tag k="heritage:operator" v="dsa"/>
    <tag k="ref:dsa" v="27663"/>
    <tag k="start_date" v="1890"/>
  </way>
  <way id="289676982" version="1" timestamp="2014-06-25T04:56:39Z" changeset="23135323" uid="599999" user="svbr">
    <nd ref="2932275197"/>
    <nd ref="2932275305"/>
    <nd ref="2932275171"/>
    <nd ref="2932275164"/>
    <nd ref="2932275197"/>
    <tag k="addr:housenumber" v="45"/>
    <tag k="addr:street" v="Vorderdeich"/>
    <tag k="building" v="yes"/>
  </way>
  <way id="289676983" version="1" timestamp="2014-06-25T04:56:39Z" changeset="23135323" uid="599999" user="svbr">
    <nd ref="2932275322"/>
    <nd ref="2932275321"/>
    <nd ref="2932275310"/>
    <nd ref="2932275312"/>
    <nd ref="2932275322"/>
    <tag k="addr:housenumber" v="51"/>
    <tag k="addr:street" v="Vorderdeich"/>
    <tag k="building" v="yes"/>
  </way>
  <way id="289676984" version="4" timestamp="2021-10-20T16:33:17Z" changeset="112752703" uid="408538" user="backendzeit">
    <nd ref="2932275018"/>
    <nd ref="2932275016"/>
    <nd ref="2932275014"/>
    <nd ref="2932275009"/>
    <nd ref="2932275007"/>
    <nd ref="2932275010"/>
    <nd ref="2932275012"/>
    <nd ref="2932275018"/>
    <tag k="addr:city" v="Hamburg"/>
    <tag k="addr:country" v="DE"/>
    <tag k="addr:housenumber" v="6"/>
    <tag k="addr:postcode" v="21037"/>
    <tag k="addr:street" v="Sietwende"/>
    <tag k="building" v="detached"/>
    <tag k="building:levels" v="1"/>
    <tag k="roof:levels" v="1"/>
  </way>
  <way id="289676985" version="1" timestamp="2014-06-25T04:56:39Z" changeset="23135323" uid="599999" user="svbr">
    <nd ref="2932275315"/>
    <nd ref="2932275302"/>
    <nd ref="2932275174"/>
    <nd ref="2932275184"/>
    <nd ref="2932275162"/>
    <nd ref="2932275157"/>
    <nd ref="2932275115"/>
    <nd ref="2932275147"/>
    <nd ref="2932275161"/>
    <nd ref="2932275189"/>
    <nd ref="2932275307"/>
    <nd ref="2932275188"/>
    <nd ref="2932275303"/>
    <nd ref="2932275179"/>
    <nd ref="2932275315"/>
    <tag k="addr:housenumber" v="61"/>
    <tag k="addr:street" v="Vorderdeich"/>
    <tag k="building" v="yes"/>
  </way>
  <way id="289676986" version="1" timestamp="2014-06-25T04:56:39Z" changeset="23135323" uid="599999" user="svbr">
    <nd ref="2932275311"/>
    <nd ref="2932275194"/>
    <nd ref="2932275178"/>
    <nd ref="2932275170"/>
    <nd ref="2932275156"/>
    <nd ref="2932275177"/>
    <nd ref="2932275311"/>
    <tag k="addr:housenumber" v="67"/>
    <tag k="addr:street" v="Vorderdeich"/>
    <tag k="building" v="yes"/>
  </way>
  <way id="289676987" version="1" timestamp="2014-06-25T04:56:39Z" changeset="23135323" uid="599999" user="svbr">
    <nd ref="2932275314"/>
    <nd ref="2932275309"/>
    <nd ref="2932275195"/>
    <nd ref="2932275190"/>
    <nd ref="2932275158"/>
    <nd ref="2932275165"/>
    <nd ref="2932275314"/>
    <tag k="addr:housenumber" v="69"/>
    <tag k="addr:street" v="Vorderdeich"/>
    <tag k="building" v="yes"/>
  </way>
  <way id="289676988" version="1" timestamp="2014-06-25T04:56:39Z" changeset="23135323" uid="599999" user="svbr">
    <nd ref="2932275165"/>
    <nd ref="2932275183"/>
    <nd ref="2932275168"/>
    <nd ref="2932275176"/>
    <nd ref="2932275313"/>
    <nd ref="2932275308"/>
    <nd ref="2932275318"/>
    <nd ref="2932275314"/>
    <nd ref="2932275165"/>
    <tag k="addr:housenumber" v="69a"/>
    <tag k="addr:street" v="Vorderdeich"/>
    <tag k="building" v="yes"/>
  </way>
  <way id="289676989" version="4" timestamp="2021-10-20T16:33:17Z" changeset="112752703" uid="408538" user="backendzeit">
    <nd ref="2932275007"/>
    <nd ref="2932275003"/>
    <nd ref="2932275002"/>
    <nd ref="2932275005"/>
    <nd ref="2932275010"/>
    <nd ref="2932275007"/>
    <tag k="addr:city" v="Hamburg"/>
    <tag k="addr:country" v="DE"/>
    <tag k="addr:housenumber" v="6a"/>
    <tag k="addr:postcode" v="21037"/>
    <tag k="addr:street" v="Sietwende"/>
    <tag k="building" v="detached"/>
    <tag k="building:levels" v="1"/>
    <tag k="roof:levels" v="1"/>
  </way>
  <way id="289676990" version="1" timestamp="2014-06-25T04:56:39Z" changeset="23135323" uid="599999" user="svbr">
    <nd ref="2932275196"/>
    <nd ref="2932275317"/>
    <nd ref="2932275306"/>
    <nd ref="2932275180"/>
    <nd ref="2932275196"/>
    <tag k="addr:housenumber" v="71"/>
    <tag k="addr:street" v="Vorderdeich"/>
    <tag k="building" v="yes"/>
  </way>
  <way id="289676991" version="1" timestamp="2014-06-25T04:56:40Z" changeset="23135323" uid="599999" user="svbr">
    <nd ref="2932275180"/>
    <nd ref="2932275159"/>
    <nd ref="2932275169"/>
    <nd ref="2932275196"/>
    <nd ref="2932275180"/>
    <tag k="addr:housenumber" v="71a"/>
    <tag k="addr:street" v="Vorderdeich"/>
    <tag k="building" v="yes"/>
  </way>
  <way id="289676992" version="2" timestamp="2023-04-25T05:42:20Z" changeset="135326839" uid="66391" user="geozeisig">
    <nd ref="2932275336"/>
    <nd ref="2932275324"/>
    <nd ref="2932275154"/>
    <nd ref="2932275172"/>
    <nd ref="2932275336"/>
    <tag k="addr:housenumber" v="75"/>
    <tag k="addr:street" v="Vorderdeich"/>
    <tag k="building" v="yes"/>
    <tag k="dsa:criteria" v="Ensembleteil"/>
    <tag k="heritage" v="4"/>
    <tag k="heritage:operator" v="dsa"/>
    <tag k="ref:dsa" v="29793"/>
    <tag k="start_date" v="1911"/>
  </way>
  <way id="289676993" version="2" timestamp="2021-10-09T09:45:02Z" changeset="112293773" uid="408538" user="backendzeit">
    <nd ref="2932275363"/>
    <nd ref="2932275331"/>
    <nd ref="2932275323"/>
    <nd ref="2932275326"/>
    <nd ref="2932275328"/>
    <nd ref="2932275337"/>
    <nd ref="2932275333"/>
    <nd ref="2932275341"/>
    <nd ref="2932275363"/>
    <tag k="addr:housenumber" v="77"/>
    <tag k="addr:street" v="Vorderdeich"/>
    <tag k="building" v="detached"/>
  </way>
  <way id="289676994" version="1" timestamp="2014-06-25T04:56:40Z" changeset="23135323" uid="599999" user="svbr">
    <nd ref="2932275374"/>
    <nd ref="2932275356"/>
    <nd ref="2932275340"/>
    <nd ref="2932275350"/>
    <nd ref="2932275374"/>
    <tag k="addr:housenumber" v="79"/>
    <tag k="addr:street" v="Vorderdeich"/>
    <tag k="building" v="yes"/>
  </way>
  <way id="289676995" version="1" timestamp="2014-06-25T04:56:40Z" changeset="23135323" uid="599999" user="svbr">
    <nd ref="2932275350"/>
    <nd ref="2932275339"/>
    <nd ref="2932275351"/>
    <nd ref="2932275400"/>
    <nd ref="2932275374"/>
    <nd ref="2932275350"/>
    <tag k="addr:housenumber" v="81"/>
    <tag k="addr:street" v="Vorderdeich"/>
    <tag k="building" v="yes"/>
  </way>
  <way id="289676996" version="1" timestamp="2014-06-25T04:56:40Z" changeset="23135323" uid="599999" user="svbr">
    <nd ref="2932275413"/>
    <nd ref="2932275388"/>
    <nd ref="2932275361"/>
    <nd ref="2932275399"/>
    <nd ref="2932275413"/>
    <tag k="addr:housenumber" v="83"/>
    <tag k="addr:street" v="Vorderdeich"/>
    <tag k="building" v="yes"/>
  </way>
  <way id="289676997" version="1" timestamp="2014-06-25T04:56:40Z" changeset="23135323" uid="599999" user="svbr">
    <nd ref="2932275397"/>
    <nd ref="2932275364"/>
    <nd ref="2932275348"/>
    <nd ref="2932275352"/>
    <nd ref="2932275347"/>
    <nd ref="2932275359"/>
    <nd ref="2932275397"/>
    <tag k="addr:housenumber" v="85"/>
    <tag k="addr:street" v="Vorderdeich"/>
    <tag k="building" v="yes"/>
  </way>
  <way id="289676998" version="1" timestamp="2014-06-25T04:56:40Z" changeset="23135323" uid="599999" user="svbr">
    <nd ref="2932275402"/>
    <nd ref="2932275379"/>
    <nd ref="2932275354"/>
    <nd ref="2932275370"/>
    <nd ref="2932275402"/>
    <tag k="addr:housenumber" v="89"/>
    <tag k="addr:street" v="Vorderdeich"/>
    <tag k="building" v="yes"/>
  </way>
  <way id="289676999" version="2" timestamp="2021-10-09T09:44:00Z" changeset="112293773" uid="408538" user="backendzeit">
    <nd ref="2932275381"/>
    <nd ref="2932275368"/>
    <nd ref="2932275334"/>
    <nd ref="2932275355"/>
    <nd ref="2932275376"/>
    <nd ref="2932275366"/>
    <nd ref="2932275381"/>
    <tag k="addr:housenumber" v="91"/>
    <tag k="addr:street" v="Vorderdeich"/>
    <tag k="building" v="detached"/>
  </way>
  <way id="289677000" version="2" timestamp="2021-10-09T09:43:53Z" changeset="112293773" uid="408538" user="backendzeit">
    <nd ref="2932275412"/>
    <nd ref="2932275395"/>
    <nd ref="2932275383"/>
    <nd ref="2932275389"/>
    <nd ref="2932275357"/>
    <nd ref="2932275369"/>
    <nd ref="2932275378"/>
    <nd ref="2932275393"/>
    <nd ref="2932275412"/>
    <tag k="addr:housenumber" v="93"/>
    <tag k="addr:street" v="Vorderdeich"/>
    <tag k="building" v="detached"/>
  </way>
  <way id="289677001" version="2" timestamp="2021-10-09T09:43:15Z" changeset="112293773" uid="408538" user="backendzeit">
    <nd ref="2932275405"/>
    <nd ref="2932275396"/>
    <nd ref="2932275353"/>
    <nd ref="2932275362"/>
    <nd ref="2932275377"/>
    <nd ref="2932275386"/>
    <nd ref="2932275405"/>
    <tag k="addr:housenumber" v="95"/>
    <tag k="addr:street" v="Vorderdeich"/>
    <tag k="building" v="detached"/>
  </way>
  <way id="289677002" version="2" timestamp="2021-10-09T09:42:42Z" changeset="112293773" uid="408538" user="backendzeit">
    <nd ref="2932275373"/>
    <nd ref="2932275365"/>
    <nd ref="2932275335"/>
    <nd ref="2932275346"/>
    <nd ref="2932275373"/>
    <tag k="addr:housenumber" v="97"/>
    <tag k="addr:street" v="Vorderdeich"/>
    <tag k="building" v="detached"/>
  </way>
  <way id="289677003" version="2" timestamp="2021-10-09T09:42:05Z" changeset="112293773" uid="408538" user="backendzeit">
    <nd ref="2932275403"/>
    <nd ref="2932275392"/>
    <nd ref="2932275367"/>
    <nd ref="2932275372"/>
    <nd ref="2932275360"/>
    <nd ref="2932275371"/>
    <nd ref="2932275403"/>
    <tag k="addr:housenumber" v="99"/>
    <tag k="addr:street" v="Vorderdeich"/>
    <tag k="building" v="detached"/>
  </way>
  <way id="289967778" version="2" timestamp="2014-10-22T18:58:00Z" changeset="26262690" uid="47013" user="jbhh12">
    <nd ref="2935013435"/>
    <nd ref="2935013434"/>
    <nd ref="2935013432"/>
    <nd ref="2935013433"/>
    <nd ref="2935013435"/>
    <tag k="addr:city" v="Hamburg"/>
    <tag k="addr:country" v="DE"/>
    <tag k="addr:housenumber" v="163"/>
    <tag k="addr:postcode" v="21037"/>
    <tag k="addr:street" v="Vorderdeich"/>
    <tag k="building" v="yes"/>
  </way>
  <way id="289967779" version="3" timestamp="2021-10-20T16:33:19Z" changeset="112752698" uid="408538" user="backendzeit">
    <nd ref="2935013444"/>
    <nd ref="2935013441"/>
    <nd ref="2935013438"/>
    <nd ref="2935013440"/>
    <nd ref="2935013436"/>
    <nd ref="2935013437"/>
    <nd ref="2935013444"/>
    <tag k="addr:city" v="Hamburg"/>
    <tag k="addr:country" v="DE"/>
    <tag k="addr:housenumber" v="185"/>
    <tag k="addr:postcode" v="21037"/>
    <tag k="addr:street" v="Vorderdeich"/>
    <tag k="building" v="detached"/>
  </way>
  <way id="289967780" version="2" timestamp="2014-10-22T18:58:00Z" changeset="26262690" uid="47013" user="jbhh12">
    <nd ref="2935013439"/>
    <nd ref="2935013442"/>
    <nd ref="2935013445"/>
    <nd ref="2935013443"/>
    <nd ref="2935013439"/>
    <tag k="addr:city" v="Hamburg"/>
    <tag k="addr:country" v="DE"/>
    <tag k="addr:housenumber" v="189"/>
    <tag k="addr:postcode" v="21037"/>
    <tag k="addr:street" v="Vorderdeich"/>
    <tag k="building" v="yes"/>
  </way>
  <way id="289967781" version="3" timestamp="2022-01-01T21:29:20Z" changeset="115651849" uid="408538" user="backendzeit">
    <nd ref="2935013449"/>
    <nd ref="2935013448"/>
    <nd ref="2935013446"/>
    <nd ref="2935013447"/>
    <nd ref="2935013449"/>
    <tag k="addr:city" v="Hamburg"/>
    <tag k="addr:country" v="DE"/>
    <tag k="addr:housenumber" v="197"/>
    <tag k="addr:postcode" v="21037"/>
    <tag k="addr:street" v="Vorderdeich"/>
    <tag k="building" v="detached"/>
  </way>
  <way id="289967782" version="2" timestamp="2014-10-22T18:58:02Z" changeset="26262690" uid="47013" user="jbhh12">
    <nd ref="2935013457"/>
    <nd ref="2935013455"/>
    <nd ref="2935013452"/>
    <nd ref="2935013453"/>
    <nd ref="2935013450"/>
    <nd ref="2935013451"/>
    <nd ref="2935013454"/>
    <nd ref="2935013456"/>
    <nd ref="2935013457"/>
    <tag k="addr:city" v="Hamburg"/>
    <tag k="addr:country" v="DE"/>
    <tag k="addr:housenumber" v="207"/>
    <tag k="addr:postcode" v="21037"/>
    <tag k="addr:street" v="Vorderdeich"/>
    <tag k="building" v="yes"/>
  </way>
  <way id="289967783" version="3" timestamp="2022-01-01T21:29:20Z" changeset="115651849" uid="408538" user="backendzeit">
    <nd ref="2935013462"/>
    <nd ref="2935013460"/>
    <nd ref="2935013459"/>
    <nd ref="2935013461"/>
    <nd ref="2935013462"/>
    <tag k="addr:city" v="Hamburg"/>
    <tag k="addr:country" v="DE"/>
    <tag k="addr:housenumber" v="217"/>
    <tag k="addr:postcode" v="21037"/>
    <tag k="addr:street" v="Vorderdeich"/>
    <tag k="building" v="detached"/>
  </way>
  <way id="289967784" version="2" timestamp="2014-10-22T18:58:03Z" changeset="26262690" uid="47013" user="jbhh12">
    <nd ref="2935013472"/>
    <nd ref="2935013470"/>
    <nd ref="2935013469"/>
    <nd ref="2935013467"/>
    <nd ref="2935013466"/>
    <nd ref="2935013464"/>
    <nd ref="2935013463"/>
    <nd ref="2935013465"/>
    <nd ref="2935013468"/>
    <nd ref="2935013471"/>
    <nd ref="2935013472"/>
    <tag k="addr:city" v="Hamburg"/>
    <tag k="addr:country" v="DE"/>
    <tag k="addr:housenumber" v="223"/>
    <tag k="addr:postcode" v="21037"/>
    <tag k="addr:street" v="Vorderdeich"/>
    <tag k="building" v="yes"/>
  </way>
  <way id="289967785" version="4" timestamp="2022-01-01T21:29:19Z" changeset="115651852" uid="408538" user="backendzeit">
    <nd ref="2935013481"/>
    <nd ref="2935013480"/>
    <nd ref="2935013474"/>
    <nd ref="2935013475"/>
    <nd ref="2935013476"/>
    <nd ref="2935013478"/>
    <nd ref="2935013477"/>
    <nd ref="2935013479"/>
    <nd ref="2935013481"/>
    <tag k="addr:city" v="Hamburg"/>
    <tag k="addr:country" v="DE"/>
    <tag k="addr:housenumber" v="229"/>
    <tag k="addr:postcode" v="21037"/>
    <tag k="addr:street" v="Vorderdeich"/>
    <tag k="building" v="detached"/>
    <tag k="building:levels" v="1"/>
    <tag k="roof:levels" v="1"/>
  </way>
  <way id="289967786" version="5" timestamp="2022-04-30T17:27:54Z" changeset="120393840" uid="1417856" user="ReinholdR">
    <nd ref="2935013497"/>
    <nd ref="2935013495"/>
    <nd ref="2935013494"/>
    <nd ref="2935013496"/>
    <nd ref="2935013497"/>
    <tag k="addr:city" v="Hamburg"/>
    <tag k="addr:country" v="DE"/>
    <tag k="addr:housenumber" v="239"/>
    <tag k="addr:postcode" v="21037"/>
    <tag k="addr:street" v="Vorderdeich"/>
    <tag k="building" v="detached"/>
    <tag k="building:levels" v="1"/>
    <tag k="roof:levels" v="2"/>
  </way>
  <way id="289967787" version="4" timestamp="2022-01-01T21:29:19Z" changeset="115651852" uid="408538" user="backendzeit">
    <nd ref="2935013485"/>
    <nd ref="2935013484"/>
    <nd ref="2935013482"/>
    <nd ref="2935013483"/>
    <nd ref="2935013485"/>
    <tag k="addr:city" v="Hamburg"/>
    <tag k="addr:country" v="DE"/>
    <tag k="addr:housenumber" v="233"/>
    <tag k="addr:postcode" v="21037"/>
    <tag k="addr:street" v="Vorderdeich"/>
    <tag k="building" v="detached"/>
    <tag k="building:levels" v="1"/>
  </way>
  <way id="289967788" version="5" timestamp="2022-04-30T18:25:22Z" changeset="120395588" uid="1417856" user="ReinholdR">
    <nd ref="2935013489"/>
    <nd ref="2935013488"/>
    <nd ref="9705756014"/>
    <nd ref="9705756015"/>
    <nd ref="9705756016"/>
    <nd ref="9705756013"/>
    <nd ref="9705756019"/>
    <nd ref="9705756018"/>
    <nd ref="9705756017"/>
    <nd ref="2935013487"/>
    <nd ref="2935013489"/>
    <tag k="addr:city" v="Hamburg"/>
    <tag k="addr:country" v="DE"/>
    <tag k="addr:housenumber" v="235"/>
    <tag k="addr:postcode" v="21037"/>
    <tag k="addr:street" v="Vorderdeich"/>
    <tag k="building" v="detached"/>
    <tag k="building:levels" v="1"/>
    <tag k="roof:levels" v="1"/>
  </way>
  <way id="289967789" version="4" timestamp="2022-01-01T21:29:18Z" changeset="115651852" uid="408538" user="backendzeit">
    <nd ref="2935013493"/>
    <nd ref="2935013491"/>
    <nd ref="2935013490"/>
    <nd ref="2935013492"/>
    <nd ref="2935013493"/>
    <tag k="addr:city" v="Hamburg"/>
    <tag k="addr:country" v="DE"/>
    <tag k="addr:housenumber" v="237"/>
    <tag k="addr:postcode" v="21037"/>
    <tag k="addr:street" v="Vorderdeich"/>
    <tag k="building" v="detached"/>
    <tag k="building:levels" v="1"/>
    <tag k="roof:levels" v="1"/>
  </way>
  <way id="289967790" version="4" timestamp="2022-01-01T21:29:17Z" changeset="115651852" uid="408538" user="backendzeit">
    <nd ref="2935013811"/>
    <nd ref="2935013805"/>
    <nd ref="2935013803"/>
    <nd ref="2935013806"/>
    <nd ref="2935013807"/>
    <nd ref="2935013808"/>
    <nd ref="2935013809"/>
    <nd ref="2935013810"/>
    <nd ref="2935013811"/>
    <tag k="addr:city" v="Hamburg"/>
    <tag k="addr:country" v="DE"/>
    <tag k="addr:housenumber" v="243"/>
    <tag k="addr:postcode" v="21037"/>
    <tag k="addr:street" v="Vorderdeich"/>
    <tag k="building" v="detached"/>
    <tag k="building:levels" v="1"/>
    <tag k="roof:levels" v="1"/>
  </way>
  <way id="289967791" version="3" timestamp="2022-04-30T18:25:22Z" changeset="120395588" uid="1417856" user="ReinholdR">
    <nd ref="2935013814"/>
    <nd ref="2935013815"/>
    <nd ref="9705755777"/>
    <nd ref="2935013813"/>
    <nd ref="2935013812"/>
    <nd ref="2935013814"/>
    <tag k="addr:city" v="Hamburg"/>
    <tag k="addr:country" v="DE"/>
    <tag k="addr:housenumber" v="283"/>
    <tag k="addr:postcode" v="21037"/>
    <tag k="addr:street" v="Vorderdeich"/>
    <tag k="building" v="yes"/>
  </way>
  <way id="289967792" version="2" timestamp="2014-10-22T18:58:07Z" changeset="26262690" uid="47013" user="jbhh12">
    <nd ref="2935013827"/>
    <nd ref="2935013834"/>
    <nd ref="2935013831"/>
    <nd ref="2935013836"/>
    <nd ref="2935013835"/>
    <nd ref="2935013822"/>
    <nd ref="2935013827"/>
    <tag k="addr:city" v="Hamburg"/>
    <tag k="addr:country" v="DE"/>
    <tag k="addr:housenumber" v="288"/>
    <tag k="addr:postcode" v="21037"/>
    <tag k="addr:street" v="Vorderdeich"/>
    <tag k="building" v="yes"/>
  </way>
  <way id="289967793" version="3" timestamp="2022-04-30T18:25:22Z" changeset="120395588" uid="1417856" user="ReinholdR">
    <nd ref="2935013821"/>
    <nd ref="2935013820"/>
    <nd ref="2935013817"/>
    <nd ref="2935013819"/>
    <nd ref="9705755722"/>
    <nd ref="2935013816"/>
    <nd ref="2935013818"/>
    <nd ref="2935013821"/>
    <tag k="addr:city" v="Hamburg"/>
    <tag k="addr:country" v="DE"/>
    <tag k="addr:housenumber" v="289"/>
    <tag k="addr:postcode" v="21037"/>
    <tag k="addr:street" v="Vorderdeich"/>
    <tag k="building" v="yes"/>
  </way>
  <way id="289967794" version="2" timestamp="2014-10-22T18:58:07Z" changeset="26262690" uid="47013" user="jbhh12">
    <nd ref="2935013837"/>
    <nd ref="2935013832"/>
    <nd ref="2935013833"/>
    <nd ref="2935013830"/>
    <nd ref="2935013826"/>
    <nd ref="2935013829"/>
    <nd ref="2935013824"/>
    <nd ref="2935013828"/>
    <nd ref="2935013823"/>
    <nd ref="2935013825"/>
    <nd ref="2935013837"/>
    <tag k="addr:city" v="Hamburg"/>
    <tag k="addr:country" v="DE"/>
    <tag k="addr:housenumber" v="291"/>
    <tag k="addr:postcode" v="21037"/>
    <tag k="addr:street" v="Vorderdeich"/>
    <tag k="building" v="yes"/>
  </way>
  <way id="289967795" version="2" timestamp="2014-10-22T18:58:08Z" changeset="26262690" uid="47013" user="jbhh12">
    <nd ref="2935013859"/>
    <nd ref="2935013864"/>
    <nd ref="2935013860"/>
    <nd ref="2935013865"/>
    <nd ref="2935013861"/>
    <nd ref="2935013855"/>
    <nd ref="2935013857"/>
    <nd ref="2935013850"/>
    <nd ref="2935013859"/>
    <tag k="addr:city" v="Hamburg"/>
    <tag k="addr:country" v="DE"/>
    <tag k="addr:housenumber" v="294"/>
    <tag k="addr:postcode" v="21037"/>
    <tag k="addr:street" v="Vorderdeich"/>
    <tag k="building" v="yes"/>
  </way>
  <way id="289967796" version="3" timestamp="2022-04-30T17:27:54Z" changeset="120393840" uid="1417856" user="ReinholdR">
    <nd ref="2935013848"/>
    <nd ref="2935013844"/>
    <nd ref="2935013838"/>
    <nd ref="2935013839"/>
    <nd ref="9705626294"/>
    <nd ref="9705626295"/>
    <nd ref="2935013840"/>
    <nd ref="2935013841"/>
    <nd ref="2935013848"/>
    <tag k="addr:city" v="Hamburg"/>
    <tag k="addr:country" v="DE"/>
    <tag k="addr:housenumber" v="299"/>
    <tag k="addr:postcode" v="21037"/>
    <tag k="addr:street" v="Vorderdeich"/>
    <tag k="building" v="yes"/>
  </way>
  <way id="289967797" version="3" timestamp="2022-04-30T17:27:54Z" changeset="120393840" uid="1417856" user="ReinholdR">
    <nd ref="2935013852"/>
    <nd ref="2935013847"/>
    <nd ref="2935013842"/>
    <nd ref="2935013845"/>
    <nd ref="2935013843"/>
    <nd ref="2935013846"/>
    <nd ref="9705626286"/>
    <nd ref="9705626287"/>
    <nd ref="9705626290"/>
    <nd ref="9705626288"/>
    <nd ref="9705626285"/>
    <nd ref="2935013852"/>
    <tag k="addr:city" v="Hamburg"/>
    <tag k="addr:country" v="DE"/>
    <tag k="addr:housenumber" v="301"/>
    <tag k="addr:postcode" v="21037"/>
    <tag k="addr:street" v="Vorderdeich"/>
    <tag k="building" v="yes"/>
  </way>
  <way id="289967798" version="3" timestamp="2022-04-30T17:27:54Z" changeset="120393840" uid="1417856" user="ReinholdR">
    <nd ref="2935013867"/>
    <nd ref="2935013862"/>
    <nd ref="2935013856"/>
    <nd ref="2935013853"/>
    <nd ref="2935013849"/>
    <nd ref="9705626249"/>
    <nd ref="2935013851"/>
    <nd ref="2935013854"/>
    <nd ref="2935013858"/>
    <nd ref="2935013863"/>
    <nd ref="2935013866"/>
    <nd ref="2935013867"/>
    <tag k="addr:city" v="Hamburg"/>
    <tag k="addr:country" v="DE"/>
    <tag k="addr:housenumber" v="303"/>
    <tag k="addr:postcode" v="21037"/>
    <tag k="addr:street" v="Vorderdeich"/>
    <tag k="building" v="yes"/>
  </way>
  <way id="289967799" version="2" timestamp="2014-10-22T18:58:08Z" changeset="26262690" uid="47013" user="jbhh12">
    <nd ref="2935013876"/>
    <nd ref="2935013874"/>
    <nd ref="2935013868"/>
    <nd ref="2935013869"/>
    <nd ref="2935013871"/>
    <nd ref="2935013872"/>
    <nd ref="2935013876"/>
    <tag k="addr:city" v="Hamburg"/>
    <tag k="addr:country" v="DE"/>
    <tag k="addr:housenumber" v="309"/>
    <tag k="addr:postcode" v="21037"/>
    <tag k="addr:street" v="Vorderdeich"/>
    <tag k="building" v="yes"/>
  </way>
  <way id="289967800" version="2" timestamp="2014-10-22T18:58:09Z" changeset="26262690" uid="47013" user="jbhh12">
    <nd ref="2935013881"/>
    <nd ref="2935013880"/>
    <nd ref="2935013878"/>
    <nd ref="2935013875"/>
    <nd ref="2935013870"/>
    <nd ref="2935013873"/>
    <nd ref="2935013877"/>
    <nd ref="2935013879"/>
    <nd ref="2935013881"/>
    <tag k="addr:city" v="Hamburg"/>
    <tag k="addr:country" v="DE"/>
    <tag k="addr:housenumber" v="311"/>
    <tag k="addr:postcode" v="21037"/>
    <tag k="addr:street" v="Vorderdeich"/>
    <tag k="building" v="yes"/>
  </way>
  <way id="289967801" version="2" timestamp="2014-10-22T18:58:09Z" changeset="26262690" uid="47013" user="jbhh12">
    <nd ref="2935013891"/>
    <nd ref="2935013887"/>
    <nd ref="2935013884"/>
    <nd ref="2935013885"/>
    <nd ref="2935013882"/>
    <nd ref="2935013883"/>
    <nd ref="2935013888"/>
    <nd ref="2935013889"/>
    <nd ref="2935013891"/>
    <tag k="addr:city" v="Hamburg"/>
    <tag k="addr:country" v="DE"/>
    <tag k="addr:housenumber" v="317"/>
    <tag k="addr:postcode" v="21037"/>
    <tag k="addr:street" v="Vorderdeich"/>
    <tag k="building" v="yes"/>
  </way>
  <way id="289967802" version="2" timestamp="2014-10-22T18:58:10Z" changeset="26262690" uid="47013" user="jbhh12">
    <nd ref="2935013899"/>
    <nd ref="2935013892"/>
    <nd ref="2935013890"/>
    <nd ref="2935013894"/>
    <nd ref="2935013893"/>
    <nd ref="2935013895"/>
    <nd ref="2935013898"/>
    <nd ref="2935013897"/>
    <nd ref="2935013899"/>
    <tag k="addr:city" v="Hamburg"/>
    <tag k="addr:country" v="DE"/>
    <tag k="addr:housenumber" v="319"/>
    <tag k="addr:postcode" v="21037"/>
    <tag k="addr:street" v="Vorderdeich"/>
    <tag k="building" v="yes"/>
  </way>
  <way id="289967803" version="3" timestamp="2022-04-30T16:31:14Z" changeset="120391911" uid="1417856" user="ReinholdR">
    <nd ref="2935013904"/>
    <nd ref="9705555586"/>
    <nd ref="2935013901"/>
    <nd ref="2935013896"/>
    <nd ref="2935013900"/>
    <nd ref="2935013903"/>
    <nd ref="2935013905"/>
    <nd ref="2935013908"/>
    <nd ref="9705555583"/>
    <nd ref="2935013907"/>
    <nd ref="2935013904"/>
    <tag k="addr:city" v="Hamburg"/>
    <tag k="addr:country" v="DE"/>
    <tag k="addr:housenumber" v="321"/>
    <tag k="addr:postcode" v="21037"/>
    <tag k="addr:street" v="Vorderdeich"/>
    <tag k="building" v="yes"/>
  </way>
  <way id="289967804" version="2" timestamp="2014-10-22T18:58:10Z" changeset="26262690" uid="47013" user="jbhh12">
    <nd ref="2935013928"/>
    <nd ref="2935013935"/>
    <nd ref="2935013929"/>
    <nd ref="2935013931"/>
    <nd ref="2935013927"/>
    <nd ref="2935013925"/>
    <nd ref="2935013924"/>
    <nd ref="2935013923"/>
    <nd ref="2935013921"/>
    <nd ref="2935013918"/>
    <nd ref="2935013928"/>
    <tag k="addr:city" v="Hamburg"/>
    <tag k="addr:country" v="DE"/>
    <tag k="addr:housenumber" v="322"/>
    <tag k="addr:postcode" v="21037"/>
    <tag k="addr:street" v="Vorderdeich"/>
    <tag k="building" v="yes"/>
  </way>
  <way id="289967805" version="3" timestamp="2022-04-30T16:31:14Z" changeset="120391911" uid="1417856" user="ReinholdR">
    <nd ref="2935013919"/>
    <nd ref="9705555581"/>
    <nd ref="2935013913"/>
    <nd ref="2935013906"/>
    <nd ref="2935013911"/>
    <nd ref="9705555573"/>
    <nd ref="2935013919"/>
    <tag k="addr:city" v="Hamburg"/>
    <tag k="addr:country" v="DE"/>
    <tag k="addr:housenumber" v="323"/>
    <tag k="addr:postcode" v="21037"/>
    <tag k="addr:street" v="Vorderdeich"/>
    <tag k="building" v="yes"/>
  </way>
  <way id="289967806" version="2" timestamp="2014-10-22T18:58:11Z" changeset="26262690" uid="47013" user="jbhh12">
    <nd ref="2935013922"/>
    <nd ref="2935013920"/>
    <nd ref="2935013914"/>
    <nd ref="2935013917"/>
    <nd ref="2935013912"/>
    <nd ref="2935013910"/>
    <nd ref="2935013902"/>
    <nd ref="2935013909"/>
    <nd ref="2935013915"/>
    <nd ref="2935013916"/>
    <nd ref="2935013922"/>
    <tag k="addr:city" v="Hamburg"/>
    <tag k="addr:country" v="DE"/>
    <tag k="addr:housenumber" v="325"/>
    <tag k="addr:postcode" v="21037"/>
    <tag k="addr:street" v="Vorderdeich"/>
    <tag k="building" v="yes"/>
  </way>
  <way id="289967807" version="3" timestamp="2022-04-30T16:31:14Z" changeset="120391911" uid="1417856" user="ReinholdR">
    <nd ref="2935013939"/>
    <nd ref="2935013934"/>
    <nd ref="2935013926"/>
    <nd ref="9705555559"/>
    <nd ref="9705555558"/>
    <nd ref="2935013932"/>
    <nd ref="2935013930"/>
    <nd ref="2935013933"/>
    <nd ref="2935013939"/>
    <tag k="addr:city" v="Hamburg"/>
    <tag k="addr:country" v="DE"/>
    <tag k="addr:housenumber" v="327"/>
    <tag k="addr:postcode" v="21037"/>
    <tag k="addr:street" v="Vorderdeich"/>
    <tag k="building" v="yes"/>
  </way>
  <way id="289967808" version="2" timestamp="2014-10-22T18:58:11Z" changeset="26262690" uid="47013" user="jbhh12">
    <nd ref="2935013942"/>
    <nd ref="2935013941"/>
    <nd ref="2935013938"/>
    <nd ref="2935013937"/>
    <nd ref="2935013936"/>
    <nd ref="2935013940"/>
    <nd ref="2935013942"/>
    <tag k="addr:city" v="Hamburg"/>
    <tag k="addr:country" v="DE"/>
    <tag k="addr:housenumber" v="329"/>
    <tag k="addr:postcode" v="21037"/>
    <tag k="addr:street" v="Vorderdeich"/>
    <tag k="building" v="yes"/>
  </way>
  <way id="289967809" version="2" timestamp="2014-10-22T18:58:11Z" changeset="26262690" uid="47013" user="jbhh12">
    <nd ref="2935013946"/>
    <nd ref="2579777972"/>
    <nd ref="2579777974"/>
    <nd ref="2935013945"/>
    <nd ref="2935013946"/>
    <tag k="addr:city" v="Hamburg"/>
    <tag k="addr:country" v="DE"/>
    <tag k="addr:housenumber" v="333"/>
    <tag k="addr:postcode" v="21037"/>
    <tag k="addr:street" v="Vorderdeich"/>
    <tag k="building" v="yes"/>
  </way>
  <way id="289967810" version="2" timestamp="2014-10-22T18:58:11Z" changeset="26262690" uid="47013" user="jbhh12">
    <nd ref="2579777978"/>
    <nd ref="2935013946"/>
    <nd ref="2935013945"/>
    <nd ref="2579777976"/>
    <nd ref="2579777978"/>
    <tag k="addr:city" v="Hamburg"/>
    <tag k="addr:country" v="DE"/>
    <tag k="addr:housenumber" v="335"/>
    <tag k="addr:postcode" v="21037"/>
    <tag k="addr:street" v="Vorderdeich"/>
    <tag k="building" v="yes"/>
  </way>
  <way id="289967811" version="2" timestamp="2014-10-22T18:58:11Z" changeset="26262690" uid="47013" user="jbhh12">
    <nd ref="2935013944"/>
    <nd ref="2579778021"/>
    <nd ref="2579778023"/>
    <nd ref="2935013943"/>
    <nd ref="2935013944"/>
    <tag k="addr:city" v="Hamburg"/>
    <tag k="addr:country" v="DE"/>
    <tag k="addr:housenumber" v="343"/>
    <tag k="addr:postcode" v="21037"/>
    <tag k="addr:street" v="Vorderdeich"/>
    <tag k="building" v="yes"/>
  </way>
  <way id="289967812" version="2" timestamp="2014-10-22T18:58:12Z" changeset="26262690" uid="47013" user="jbhh12">
    <nd ref="2579778027"/>
    <nd ref="2935013944"/>
    <nd ref="2935013943"/>
    <nd ref="2579778025"/>
    <nd ref="2579778027"/>
    <tag k="addr:city" v="Hamburg"/>
    <tag k="addr:country" v="DE"/>
    <tag k="addr:housenumber" v="343a"/>
    <tag k="addr:postcode" v="21037"/>
    <tag k="addr:street" v="Vorderdeich"/>
    <tag k="building" v="yes"/>
  </way>
  <way id="290295350" version="1" timestamp="2014-06-29T07:27:19Z" changeset="23263825" uid="599999" user="svbr">
    <nd ref="2938514364"/>
    <nd ref="2938514370"/>
    <nd ref="2938514366"/>
    <nd ref="2938514373"/>
    <nd ref="2938514371"/>
    <nd ref="2938514367"/>
    <nd ref="2938514369"/>
    <nd ref="2938514365"/>
    <nd ref="2938514362"/>
    <nd ref="2938514358"/>
    <nd ref="2938514359"/>
    <nd ref="2938514361"/>
    <nd ref="2938514364"/>
    <tag k="addr:housenumber" v="116"/>
    <tag k="addr:street" v="Reitbrooker Hinterdeich"/>
    <tag k="building" v="yes"/>
  </way>
  <way id="290295351" version="1" timestamp="2014-06-29T07:27:19Z" changeset="23263825" uid="599999" user="svbr">
    <nd ref="2938514383"/>
    <nd ref="2938514394"/>
    <nd ref="2938514388"/>
    <nd ref="2938514379"/>
    <nd ref="2938514383"/>
    <tag k="addr:housenumber" v="118"/>
    <tag k="addr:street" v="Reitbrooker Hinterdeich"/>
    <tag k="building" v="yes"/>
  </way>
  <way id="290295352" version="1" timestamp="2014-06-29T07:27:19Z" changeset="23263825" uid="599999" user="svbr">
    <nd ref="2938514397"/>
    <nd ref="2938514400"/>
    <nd ref="2938514398"/>
    <nd ref="2938514396"/>
    <nd ref="2938514397"/>
    <tag k="addr:housenumber" v="120"/>
    <tag k="addr:street" v="Reitbrooker Hinterdeich"/>
    <tag k="building" v="yes"/>
  </way>
  <way id="290295353" version="1" timestamp="2014-06-29T07:27:19Z" changeset="23263825" uid="599999" user="svbr">
    <nd ref="2938514390"/>
    <nd ref="2938514385"/>
    <nd ref="2938514381"/>
    <nd ref="2938514387"/>
    <nd ref="2938514390"/>
    <tag k="addr:housenumber" v="125"/>
    <tag k="addr:street" v="Reitbrooker Hinterdeich"/>
    <tag k="building" v="yes"/>
  </way>
  <way id="290295354" version="1" timestamp="2014-06-29T07:27:19Z" changeset="23263825" uid="599999" user="svbr">
    <nd ref="2938514386"/>
    <nd ref="2938514382"/>
    <nd ref="2938514378"/>
    <nd ref="2938514380"/>
    <nd ref="2938514386"/>
    <tag k="addr:housenumber" v="125a"/>
    <tag k="addr:street" v="Reitbrooker Hinterdeich"/>
    <tag k="building" v="yes"/>
  </way>
  <way id="290295355" version="1" timestamp="2014-06-29T07:27:19Z" changeset="23263825" uid="599999" user="svbr">
    <nd ref="2938514401"/>
    <nd ref="2938514403"/>
    <nd ref="2938514402"/>
    <nd ref="2938514399"/>
    <nd ref="2938514401"/>
    <tag k="addr:housenumber" v="126"/>
    <tag k="addr:street" v="Reitbrooker Hinterdeich"/>
    <tag k="building" v="yes"/>
  </way>
  <way id="290295356" version="1" timestamp="2014-06-29T07:27:19Z" changeset="23263825" uid="599999" user="svbr">
    <nd ref="2938514530"/>
    <nd ref="2938514532"/>
    <nd ref="2938514531"/>
    <nd ref="2938514529"/>
    <nd ref="2938514530"/>
    <tag k="addr:housenumber" v="140"/>
    <tag k="addr:street" v="Reitdeich"/>
    <tag k="building" v="yes"/>
  </way>
  <way id="290295357" version="2" timestamp="2014-10-22T19:28:42Z" changeset="26263372" uid="47013" user="jbhh12">
    <nd ref="2938514415"/>
    <nd ref="2938514413"/>
    <nd ref="2938514408"/>
    <nd ref="2938514409"/>
    <nd ref="2938514404"/>
    <nd ref="2938514405"/>
    <nd ref="2938514406"/>
    <nd ref="2938514407"/>
    <nd ref="2938514411"/>
    <nd ref="2938514410"/>
    <nd ref="2938514412"/>
    <nd ref="2938514414"/>
    <nd ref="2938514415"/>
    <tag k="addr:city" v="Hamburg"/>
    <tag k="addr:country" v="DE"/>
    <tag k="addr:housenumber" v="142"/>
    <tag k="addr:postcode" v="21037"/>
    <tag k="addr:street" v="Reitbrooker Hinterdeich"/>
    <tag k="building" v="yes"/>
  </way>
  <way id="290295358" version="2" timestamp="2014-10-22T19:28:43Z" changeset="26263372" uid="47013" user="jbhh12">
    <nd ref="2938514422"/>
    <nd ref="2938514425"/>
    <nd ref="2938514421"/>
    <nd ref="2938514424"/>
    <nd ref="2938514423"/>
    <nd ref="2938514420"/>
    <nd ref="2938514422"/>
    <tag k="addr:city" v="Hamburg"/>
    <tag k="addr:country" v="DE"/>
    <tag k="addr:housenumber" v="158"/>
    <tag k="addr:postcode" v="21037"/>
    <tag k="addr:street" v="Reitbrooker Hinterdeich"/>
    <tag k="building" v="yes"/>
  </way>
  <way id="290295359" version="2" timestamp="2014-10-22T19:28:43Z" changeset="26263372" uid="47013" user="jbhh12">
    <nd ref="2938514419"/>
    <nd ref="2938514418"/>
    <nd ref="2938514416"/>
    <nd ref="2938514417"/>
    <nd ref="2938514419"/>
    <tag k="addr:city" v="Hamburg"/>
    <tag k="addr:country" v="DE"/>
    <tag k="addr:housenumber" v="159"/>
    <tag k="addr:postcode" v="21037"/>
    <tag k="addr:street" v="Reitbrooker Hinterdeich"/>
    <tag k="building" v="yes"/>
  </way>
  <way id="290295360" version="2" timestamp="2014-10-22T19:28:43Z" changeset="26263372" uid="47013" user="jbhh12">
    <nd ref="2938514431"/>
    <nd ref="2938514427"/>
    <nd ref="2938514426"/>
    <nd ref="2938514428"/>
    <nd ref="2938514429"/>
    <nd ref="2938514430"/>
    <nd ref="2938514431"/>
    <tag k="addr:city" v="Hamburg"/>
    <tag k="addr:country" v="DE"/>
    <tag k="addr:housenumber" v="172"/>
    <tag k="addr:postcode" v="21037"/>
    <tag k="addr:street" v="Reitbrooker Hinterdeich"/>
    <tag k="building" v="yes"/>
  </way>
  <way id="290295361" version="2" timestamp="2014-10-22T19:28:43Z" changeset="26263372" uid="47013" user="jbhh12">
    <nd ref="2938514433"/>
    <nd ref="2938514432"/>
    <nd ref="2938514434"/>
    <nd ref="2938514435"/>
    <nd ref="2938514433"/>
    <tag k="addr:city" v="Hamburg"/>
    <tag k="addr:country" v="DE"/>
    <tag k="addr:housenumber" v="178"/>
    <tag k="addr:postcode" v="21037"/>
    <tag k="addr:street" v="Reitbrooker Hinterdeich"/>
    <tag k="building" v="yes"/>
  </way>
  <way id="290295362" version="2" timestamp="2014-10-22T19:28:43Z" changeset="26263372" uid="47013" user="jbhh12">
    <nd ref="2938514443"/>
    <nd ref="2938514442"/>
    <nd ref="2938514439"/>
    <nd ref="2938514438"/>
    <nd ref="2938514441"/>
    <nd ref="2938514440"/>
    <nd ref="2938514436"/>
    <nd ref="2938514437"/>
    <nd ref="2938514443"/>
    <tag k="addr:city" v="Hamburg"/>
    <tag k="addr:country" v="DE"/>
    <tag k="addr:housenumber" v="196"/>
    <tag k="addr:postcode" v="21037"/>
    <tag k="addr:street" v="Reitbrooker Hinterdeich"/>
    <tag k="building" v="yes"/>
  </way>
  <way id="290295363" version="2" timestamp="2014-10-22T19:28:44Z" changeset="26263372" uid="47013" user="jbhh12">
    <nd ref="2938514447"/>
    <nd ref="2938514449"/>
    <nd ref="2938514448"/>
    <nd ref="2938514446"/>
    <nd ref="2938514445"/>
    <nd ref="2938514444"/>
    <nd ref="2938514447"/>
    <tag k="addr:city" v="Hamburg"/>
    <tag k="addr:country" v="DE"/>
    <tag k="addr:housenumber" v="202"/>
    <tag k="addr:postcode" v="21037"/>
    <tag k="addr:street" v="Reitbrooker Hinterdeich"/>
    <tag k="building" v="yes"/>
  </way>
  <way id="290295364" version="2" timestamp="2014-10-22T19:28:44Z" changeset="26263372" uid="47013" user="jbhh12">
    <nd ref="2938514453"/>
    <nd ref="2938514452"/>
    <nd ref="2938514450"/>
    <nd ref="2938514451"/>
    <nd ref="2938514453"/>
    <tag k="addr:city" v="Hamburg"/>
    <tag k="addr:country" v="DE"/>
    <tag k="addr:housenumber" v="204"/>
    <tag k="addr:postcode" v="21037"/>
    <tag k="addr:street" v="Reitbrooker Hinterdeich"/>
    <tag k="building" v="yes"/>
  </way>
  <way id="290295365" version="2" timestamp="2014-10-22T19:28:44Z" changeset="26263372" uid="47013" user="jbhh12">
    <nd ref="2938514455"/>
    <nd ref="2938514457"/>
    <nd ref="2938514456"/>
    <nd ref="2938514454"/>
    <nd ref="2938514455"/>
    <tag k="addr:city" v="Hamburg"/>
    <tag k="addr:country" v="DE"/>
    <tag k="addr:housenumber" v="216"/>
    <tag k="addr:postcode" v="21037"/>
    <tag k="addr:street" v="Reitbrooker Hinterdeich"/>
    <tag k="building" v="yes"/>
  </way>
  <way id="290295366" version="2" timestamp="2014-10-22T19:28:45Z" changeset="26263372" uid="47013" user="jbhh12">
    <nd ref="2938514460"/>
    <nd ref="2938514462"/>
    <nd ref="2938514461"/>
    <nd ref="2938514464"/>
    <nd ref="2938514463"/>
    <nd ref="2938514459"/>
    <nd ref="2938514460"/>
    <tag k="addr:city" v="Hamburg"/>
    <tag k="addr:country" v="DE"/>
    <tag k="addr:housenumber" v="252"/>
    <tag k="addr:postcode" v="21037"/>
    <tag k="addr:street" v="Reitbrooker Hinterdeich"/>
    <tag k="building" v="yes"/>
  </way>
  <way id="290295367" version="2" timestamp="2014-10-22T19:28:46Z" changeset="26263372" uid="47013" user="jbhh12">
    <nd ref="2938514468"/>
    <nd ref="2938514467"/>
    <nd ref="2938514465"/>
    <nd ref="2938514466"/>
    <nd ref="2938514468"/>
    <tag k="addr:city" v="Hamburg"/>
    <tag k="addr:country" v="DE"/>
    <tag k="addr:housenumber" v="264"/>
    <tag k="addr:postcode" v="21037"/>
    <tag k="addr:street" v="Reitbrooker Hinterdeich"/>
    <tag k="building" v="yes"/>
  </way>
  <way id="290295368" version="2" timestamp="2014-10-22T19:28:46Z" changeset="26263372" uid="47013" user="jbhh12">
    <nd ref="2938514470"/>
    <nd ref="2938514476"/>
    <nd ref="2938514475"/>
    <nd ref="2938514472"/>
    <nd ref="2938514471"/>
    <nd ref="2938514474"/>
    <nd ref="2938514473"/>
    <nd ref="2938514469"/>
    <nd ref="2938514470"/>
    <tag k="addr:city" v="Hamburg"/>
    <tag k="addr:country" v="DE"/>
    <tag k="addr:housenumber" v="272"/>
    <tag k="addr:postcode" v="21037"/>
    <tag k="addr:street" v="Reitbrooker Hinterdeich"/>
    <tag k="building" v="yes"/>
  </way>
  <way id="290295369" version="2" timestamp="2014-10-22T19:28:46Z" changeset="26263372" uid="47013" user="jbhh12">
    <nd ref="2938514481"/>
    <nd ref="2938514479"/>
    <nd ref="2938514482"/>
    <nd ref="2938514480"/>
    <nd ref="2938514477"/>
    <nd ref="2938514478"/>
    <nd ref="2938514481"/>
    <tag k="addr:city" v="Hamburg"/>
    <tag k="addr:country" v="DE"/>
    <tag k="addr:housenumber" v="284"/>
    <tag k="addr:postcode" v="21037"/>
    <tag k="addr:street" v="Reitbrooker Hinterdeich"/>
    <tag k="building" v="yes"/>
  </way>
  <way id="290295370" version="2" timestamp="2014-10-22T19:28:46Z" changeset="26263372" uid="47013" user="jbhh12">
    <nd ref="2938514486"/>
    <nd ref="2938514485"/>
    <nd ref="2938514483"/>
    <nd ref="2938514484"/>
    <nd ref="2938514486"/>
    <tag k="addr:city" v="Hamburg"/>
    <tag k="addr:country" v="DE"/>
    <tag k="addr:housenumber" v="286"/>
    <tag k="addr:postcode" v="21037"/>
    <tag k="addr:street" v="Reitbrooker Hinterdeich"/>
    <tag k="building" v="yes"/>
  </way>
  <way id="290295371" version="2" timestamp="2014-10-22T19:28:46Z" changeset="26263372" uid="47013" user="jbhh12">
    <nd ref="2938514497"/>
    <nd ref="2938514496"/>
    <nd ref="2938514494"/>
    <nd ref="2938514492"/>
    <nd ref="2938514491"/>
    <nd ref="2938514493"/>
    <nd ref="2938514497"/>
    <tag k="addr:city" v="Hamburg"/>
    <tag k="addr:country" v="DE"/>
    <tag k="addr:housenumber" v="292"/>
    <tag k="addr:postcode" v="21037"/>
    <tag k="addr:street" v="Reitbrooker Hinterdeich"/>
    <tag k="building" v="yes"/>
  </way>
  <way id="290295372" version="2" timestamp="2014-10-22T19:28:46Z" changeset="26263372" uid="47013" user="jbhh12">
    <nd ref="2938514505"/>
    <nd ref="2938514504"/>
    <nd ref="2938514502"/>
    <nd ref="2938514503"/>
    <nd ref="2938514505"/>
    <tag k="addr:city" v="Hamburg"/>
    <tag k="addr:country" v="DE"/>
    <tag k="addr:housenumber" v="296"/>
    <tag k="addr:postcode" v="21037"/>
    <tag k="addr:street" v="Reitbrooker Hinterdeich"/>
    <tag k="building" v="yes"/>
  </way>
  <way id="290295373" version="2" timestamp="2014-10-22T19:28:46Z" changeset="26263372" uid="47013" user="jbhh12">
    <nd ref="2938514509"/>
    <nd ref="2938514507"/>
    <nd ref="2938514510"/>
    <nd ref="2938514512"/>
    <nd ref="2938514511"/>
    <nd ref="2938514509"/>
    <tag k="addr:city" v="Hamburg"/>
    <tag k="addr:country" v="DE"/>
    <tag k="addr:housenumber" v="310"/>
    <tag k="addr:postcode" v="21037"/>
    <tag k="addr:street" v="Reitbrooker Hinterdeich"/>
    <tag k="building" v="yes"/>
  </way>
  <way id="290295374" version="2" timestamp="2014-10-22T19:28:46Z" changeset="26263372" uid="47013" user="jbhh12">
    <nd ref="2938514511"/>
    <nd ref="2938514508"/>
    <nd ref="2938514506"/>
    <nd ref="2938514509"/>
    <nd ref="2938514511"/>
    <tag k="addr:city" v="Hamburg"/>
    <tag k="addr:country" v="DE"/>
    <tag k="addr:housenumber" v="312"/>
    <tag k="addr:postcode" v="21037"/>
    <tag k="addr:street" v="Reitbrooker Hinterdeich"/>
    <tag k="building" v="yes"/>
  </way>
  <way id="290295375" version="2" timestamp="2014-10-22T19:28:46Z" changeset="26263372" uid="47013" user="jbhh12">
    <nd ref="2938514519"/>
    <nd ref="2938514520"/>
    <nd ref="2938514518"/>
    <nd ref="2938514517"/>
    <nd ref="2938514519"/>
    <tag k="addr:city" v="Hamburg"/>
    <tag k="addr:country" v="DE"/>
    <tag k="addr:housenumber" v="320"/>
    <tag k="addr:postcode" v="21037"/>
    <tag k="addr:street" v="Reitbrooker Hinterdeich"/>
    <tag k="building" v="yes"/>
  </way>
  <way id="290295376" version="2" timestamp="2014-10-22T19:28:46Z" changeset="26263372" uid="47013" user="jbhh12">
    <nd ref="2938514524"/>
    <nd ref="2938514523"/>
    <nd ref="2938514521"/>
    <nd ref="2938514522"/>
    <nd ref="2938514524"/>
    <tag k="addr:city" v="Hamburg"/>
    <tag k="addr:country" v="DE"/>
    <tag k="addr:housenumber" v="326"/>
    <tag k="addr:postcode" v="21037"/>
    <tag k="addr:street" v="Reitbrooker Hinterdeich"/>
    <tag k="building" v="yes"/>
  </way>
  <way id="290295377" version="1" timestamp="2014-06-29T07:27:21Z" changeset="23263825" uid="599999" user="svbr">
    <nd ref="2938514355"/>
    <nd ref="2938514354"/>
    <nd ref="2938514357"/>
    <nd ref="2938514356"/>
    <nd ref="2938514353"/>
    <nd ref="2938514352"/>
    <nd ref="2938514350"/>
    <nd ref="2938514351"/>
    <nd ref="2938514355"/>
    <tag k="addr:housenumber" v="42"/>
    <tag k="addr:street" v="Reitbrooker Hinterdeich"/>
    <tag k="building" v="yes"/>
  </way>
  <way id="290295378" version="1" timestamp="2014-06-29T07:27:21Z" changeset="23263825" uid="599999" user="svbr">
    <nd ref="2938514327"/>
    <nd ref="2938514321"/>
    <nd ref="2938514314"/>
    <nd ref="2938514315"/>
    <nd ref="2938514319"/>
    <nd ref="2938514322"/>
    <nd ref="2938514327"/>
    <tag k="addr:housenumber" v="84"/>
    <tag k="addr:street" v="Reitbrooker Hinterdeich"/>
    <tag k="building" v="yes"/>
  </way>
  <way id="290295379" version="1" timestamp="2014-06-29T07:27:21Z" changeset="23263825" uid="599999" user="svbr">
    <nd ref="2938514338"/>
    <nd ref="2938514349"/>
    <nd ref="2938514345"/>
    <nd ref="2938514331"/>
    <nd ref="2938514338"/>
    <tag k="addr:housenumber" v="86"/>
    <tag k="addr:street" v="Reitbrooker Hinterdeich"/>
    <tag k="building" v="yes"/>
  </way>
  <way id="290295380" version="1" timestamp="2014-06-29T07:27:21Z" changeset="23263825" uid="599999" user="svbr">
    <nd ref="2938514336"/>
    <nd ref="2938514343"/>
    <nd ref="2938514340"/>
    <nd ref="2938514342"/>
    <nd ref="2938514339"/>
    <nd ref="2938514329"/>
    <nd ref="2938514336"/>
    <tag k="addr:housenumber" v="88"/>
    <tag k="addr:street" v="Reitbrooker Hinterdeich"/>
    <tag k="building" v="yes"/>
  </way>
  <way id="290295381" version="1" timestamp="2014-06-29T07:27:21Z" changeset="23263825" uid="599999" user="svbr">
    <nd ref="2938514324"/>
    <nd ref="2938514323"/>
    <nd ref="2938514318"/>
    <nd ref="2938514317"/>
    <nd ref="2938514312"/>
    <nd ref="2938514313"/>
    <nd ref="2938514316"/>
    <nd ref="2938514320"/>
    <nd ref="2938514324"/>
    <tag k="addr:housenumber" v="90"/>
    <tag k="addr:street" v="Reitbrooker Hinterdeich"/>
    <tag k="building" v="yes"/>
  </way>
  <way id="290295382" version="1" timestamp="2014-06-29T07:27:21Z" changeset="23263825" uid="599999" user="svbr">
    <nd ref="2938514348"/>
    <nd ref="2938514346"/>
    <nd ref="2938514330"/>
    <nd ref="2938514334"/>
    <nd ref="2938514344"/>
    <nd ref="2938514347"/>
    <nd ref="2938514348"/>
    <tag k="addr:housenumber" v="92"/>
    <tag k="addr:street" v="Reitbrooker Hinterdeich"/>
    <tag k="building" v="yes"/>
  </way>
  <way id="290295457" version="2" timestamp="2014-10-22T18:58:04Z" changeset="26262690" uid="47013" user="jbhh12">
    <nd ref="2938515000"/>
    <nd ref="2938514995"/>
    <nd ref="2938514992"/>
    <nd ref="2938514996"/>
    <nd ref="2938514991"/>
    <nd ref="2938514993"/>
    <nd ref="2938514994"/>
    <nd ref="2938514997"/>
    <nd ref="2938515000"/>
    <tag k="addr:city" v="Hamburg"/>
    <tag k="addr:country" v="DE"/>
    <tag k="addr:housenumber" v="23"/>
    <tag k="addr:postcode" v="21037"/>
    <tag k="addr:street" v="Sietwende"/>
    <tag k="building" v="yes"/>
  </way>
  <way id="290295459" version="2" timestamp="2014-10-22T18:58:13Z" changeset="26262690" uid="47013" user="jbhh12">
    <nd ref="2938514982"/>
    <nd ref="2938514984"/>
    <nd ref="2938514983"/>
    <nd ref="2938514987"/>
    <nd ref="2938514985"/>
    <nd ref="2938514979"/>
    <nd ref="2938514980"/>
    <nd ref="2938514981"/>
    <nd ref="2938514982"/>
    <tag k="addr:city" v="Hamburg"/>
    <tag k="addr:country" v="DE"/>
    <tag k="addr:housenumber" v="63"/>
    <tag k="addr:postcode" v="21037"/>
    <tag k="addr:street" v="Sietwende"/>
    <tag k="building" v="yes"/>
  </way>
  <way id="290295461" version="2" timestamp="2014-10-22T18:58:13Z" changeset="26262690" uid="47013" user="jbhh12">
    <nd ref="2938514973"/>
    <nd ref="2938514969"/>
    <nd ref="2938514971"/>
    <nd ref="2938514970"/>
    <nd ref="2938514967"/>
    <nd ref="2938514966"/>
    <nd ref="2938514965"/>
    <nd ref="2938514968"/>
    <nd ref="2938514973"/>
    <tag k="addr:city" v="Hamburg"/>
    <tag k="addr:country" v="DE"/>
    <tag k="addr:housenumber" v="67"/>
    <tag k="addr:postcode" v="21037"/>
    <tag k="addr:street" v="Sietwende"/>
    <tag k="building" v="yes"/>
  </way>
  <way id="290295462" version="2" timestamp="2014-10-22T18:58:13Z" changeset="26262690" uid="47013" user="jbhh12">
    <nd ref="2938514964"/>
    <nd ref="2938514961"/>
    <nd ref="2938514959"/>
    <nd ref="2938514956"/>
    <nd ref="2938514950"/>
    <nd ref="2938514952"/>
    <nd ref="2938514957"/>
    <nd ref="2938514962"/>
    <nd ref="2938514960"/>
    <nd ref="2938514963"/>
    <nd ref="2938514964"/>
    <tag k="addr:city" v="Hamburg"/>
    <tag k="addr:country" v="DE"/>
    <tag k="addr:housenumber" v="69"/>
    <tag k="addr:postcode" v="21037"/>
    <tag k="addr:street" v="Sietwende"/>
    <tag k="building" v="yes"/>
  </way>
  <way id="290295463" version="2" timestamp="2014-10-22T18:58:14Z" changeset="26262690" uid="47013" user="jbhh12">
    <nd ref="2938514953"/>
    <nd ref="2938514949"/>
    <nd ref="2938514947"/>
    <nd ref="2938514948"/>
    <nd ref="2938514953"/>
    <tag k="addr:city" v="Hamburg"/>
    <tag k="addr:country" v="DE"/>
    <tag k="addr:housenumber" v="71"/>
    <tag k="addr:postcode" v="21037"/>
    <tag k="addr:street" v="Sietwende"/>
    <tag k="building" v="yes"/>
  </way>
  <way id="290295464" version="2" timestamp="2014-10-22T18:58:14Z" changeset="26262690" uid="47013" user="jbhh12">
    <nd ref="2938514937"/>
    <nd ref="2938514939"/>
    <nd ref="2938514940"/>
    <nd ref="2938514941"/>
    <nd ref="2938514936"/>
    <nd ref="2938514935"/>
    <nd ref="2938514937"/>
    <tag k="addr:city" v="Hamburg"/>
    <tag k="addr:country" v="DE"/>
    <tag k="addr:housenumber" v="82"/>
    <tag k="addr:postcode" v="21037"/>
    <tag k="addr:street" v="Sietwende"/>
    <tag k="building" v="yes"/>
  </way>
  <way id="290295465" version="4" timestamp="2021-10-20T16:33:16Z" changeset="112752703" uid="408538" user="backendzeit">
    <nd ref="2938515117"/>
    <nd ref="2938515119"/>
    <nd ref="2938515113"/>
    <nd ref="2938515111"/>
    <nd ref="2938515115"/>
    <nd ref="2938515112"/>
    <nd ref="2938515117"/>
    <tag k="addr:city" v="Hamburg"/>
    <tag k="addr:country" v="DE"/>
    <tag k="addr:housenumber" v="9"/>
    <tag k="addr:postcode" v="21037"/>
    <tag k="addr:street" v="Sietwende"/>
    <tag k="building" v="detached"/>
    <tag k="building:levels" v="1"/>
    <tag k="roof:levels" v="1"/>
  </way>
  <way id="368357603" version="5" timestamp="2020-11-07T21:42:57Z" changeset="93721327" uid="10711520" user="Kuemonaut1">
    <nd ref="3722012040"/>
    <nd ref="36143897"/>
    <nd ref="7087886387"/>
    <nd ref="1689658820"/>
    <nd ref="1689658816"/>
    <nd ref="1689658801"/>
    <nd ref="1689658796"/>
    <nd ref="1689658794"/>
    <nd ref="1689658783"/>
    <nd ref="1689658770"/>
    <nd ref="1689658768"/>
    <nd ref="1689658767"/>
    <nd ref="1689658762"/>
    <nd ref="1689658763"/>
    <nd ref="1689658766"/>
    <nd ref="1689658764"/>
    <nd ref="1689658760"/>
    <nd ref="1689658757"/>
    <nd ref="1689658755"/>
    <nd ref="1689658753"/>
    <tag k="cycleway:both" v="no"/>
    <tag k="highway" v="unclassified"/>
    <tag k="maxspeed" v="50"/>
    <tag k="name" v="Reitbrooker Hinterdeich"/>
    <tag k="source:maxspeed" v="DE:urban"/>
    <tag k="surface" v="cobblestone"/>
  </way>
  <way id="368357604" version="3" timestamp="2020-11-07T21:42:48Z" changeset="93721327" uid="10711520" user="Kuemonaut1">
    <nd ref="1689658753"/>
    <nd ref="36143906"/>
    <tag k="cycleway:both" v="no"/>
    <tag k="highway" v="unclassified"/>
    <tag k="maxspeed" v="50"/>
    <tag k="name" v="Reitbrooker Hinterdeich"/>
    <tag k="source:maxspeed" v="DE:urban"/>
    <tag k="surface" v="asphalt"/>
  </way>
  <way id="1056259156" version="1" timestamp="2022-04-30T16:31:14Z" changeset="120391911" uid="1417856" user="ReinholdR">
    <nd ref="9705536355"/>
    <nd ref="9705536356"/>
    <nd ref="9705536357"/>
    <nd ref="9705536358"/>
    <nd ref="9705536355"/>
    <tag k="addr:city" v="Hamburg"/>
    <tag k="addr:housenumber" v="341"/>
    <tag k="addr:postcode" v="21037"/>
    <tag k="addr:street" v="Vorderdeich"/>
    <tag k="building" v="detached"/>
  </way>
  <way id="1056270280" version="2" timestamp="2022-04-30T18:25:22Z" changeset="120395588" uid="1417856" user="ReinholdR">
    <nd ref="9705649325"/>
    <nd ref="9705755784"/>
    <nd ref="9705649326"/>
    <nd ref="9705649327"/>
    <nd ref="9705649328"/>
    <nd ref="9705649325"/>
    <tag k="addr:city" v="Hamburg"/>
    <tag k="addr:housenumber" v="271"/>
    <tag k="addr:postcode" v="21037"/>
    <tag k="addr:street" v="Vorderdeich"/>
    <tag k="building" v="yes"/>
  </way>
  <way id="1340866548" version="1" timestamp="2024-12-07T21:08:20Z" changeset="160039861" uid="20017505" user="TFI71">
    <nd ref="12403323630"/>
    <nd ref="2910270943"/>
    <nd ref="280610858"/>
    <tag k="cycleway:both" v="no"/>
    <tag k="highway" v="unclassified"/>
    <tag k="lane_markings" v="no"/>
    <tag k="name" v="Reitdeich"/>
    <tag k="surface" v="asphalt"/>
  </way>
  <way id="1340866549" version="1" timestamp="2024-12-07T21:08:20Z" changeset="160039861" uid="20017505" user="TFI71">
    <nd ref="280611049"/>
    <nd ref="7752021773"/>
    <nd ref="36146831"/>
    <tag k="cycleway:both" v="no"/>
    <tag k="highway" v="unclassified"/>
    <tag k="lane_markings" v="no"/>
    <tag k="name" v="Reitdeich"/>
    <tag k="surface" v="asphalt"/>
  </way>

</osm>
