<?xml version="1.0" encoding="UTF-8"?>
<osm version="0.6" generator="Overpass API 0.7.62.5 1bd436f1">
<note>The data included in this document is from www.openstreetmap.org. The data is made available under ODbL.</note>
<meta osm_base="2025-05-18T01:34:19Z" areas="2024-12-31T00:49:33Z"/>

  <node id="30689955" lat="52.5775866" lon="13.4979744" version="5" timestamp="2023-03-22T13:43:23Z" changeset="133979176" uid="18208051" user="MappiViewer"/>
  <node id="259044772" lat="52.5724402" lon="13.4826543" version="10" timestamp="2023-02-19T13:00:40Z" changeset="132746896" uid="18208051" user="MappiViewer"/>
  <node id="262101190" lat="52.5840332" lon="13.4836905" version="8" timestamp="2023-03-22T12:18:02Z" changeset="133975885" uid="18208051" user="MappiViewer"/>
  <node id="534251596" lat="52.5765212" lon="13.4799000" version="5" timestamp="2022-09-03T10:16:33Z" changeset="125730877" uid="9508237" user="momabebra">
    <tag k="kerb" v="no"/>
  </node>
  <node id="2916407473" lat="52.5835295" lon="13.4803421" version="4" timestamp="2022-03-01T06:55:08Z" changeset="117967576" uid="10961311" user="StefanHRT"/>
  <way id="4788475" version="24" timestamp="2025-02-14T18:59:41Z" changeset="162514596" uid="44217" user="kjon">
    <nd ref="30689955"/>
    <nd ref="8797193640"/>
    <nd ref="8226577574"/>
    <tag k="cycleway:both" v="no"/>
    <tag k="foot" v="use_sidepath"/>
    <tag k="highway" v="secondary"/>
    <tag k="lane_markings" v="yes"/>
    <tag k="lanes" v="2"/>
    <tag k="lit" v="yes"/>
    <tag k="maxheight" v="4.0"/>
    <tag k="maxspeed" v="50"/>
    <tag k="maxspeed:conditional" v="30 @ wet"/>
    <tag k="name" v="Wartenberger Weg"/>
    <tag k="name:etymology:wikidata" v="Q1760551"/>
    <tag k="parking:both" v="no"/>
    <tag k="postal_code" v="13051"/>
    <tag k="sidewalk:left" v="no"/>
    <tag k="sidewalk:right" v="separate"/>
    <tag k="smoothness" v="good"/>
    <tag k="surface" v="asphalt"/>
    <tag k="tunnel" v="building_passage"/>
  </way>
  <way id="31099668" version="35" timestamp="2025-02-14T19:13:52Z" changeset="162514986" uid="44217" user="kjon">
    <nd ref="262101190"/>
    <nd ref="262101263"/>
    <nd ref="3023297673"/>
    <nd ref="5481073640"/>
    <nd ref="4239142675"/>
    <nd ref="5842159454"/>
    <tag k="bicycle" v="use_sidepath"/>
    <tag k="cycleway:both" v="separate"/>
    <tag k="foot" v="use_sidepath"/>
    <tag k="highway" v="primary"/>
    <tag k="lanes" v="2"/>
    <tag k="lit" v="no"/>
    <tag k="maxspeed" v="50"/>
    <tag k="name" v="Bundesstraße 2"/>
    <tag k="parking:both" v="no"/>
    <tag k="postal_code" v="13051"/>
    <tag k="ref" v="B 2"/>
    <tag k="sidewalk:both" v="separate"/>
    <tag k="smoothness" v="intermediate"/>
    <tag k="surface" v="asphalt"/>
    <tag k="zone:traffic" v="DE:urban"/>
  </way>
  <way id="51863695" version="37" timestamp="2025-02-14T19:13:52Z" changeset="162514986" uid="44217" user="kjon">
    <nd ref="2917747400"/>
    <nd ref="6511610537"/>
    <nd ref="9192198298"/>
    <nd ref="2917747501"/>
    <nd ref="3926264218"/>
    <nd ref="9192474018"/>
    <nd ref="9192198294"/>
    <nd ref="2917958417"/>
    <nd ref="29421304"/>
    <nd ref="3926264216"/>
    <nd ref="9192198289"/>
    <nd ref="9192474021"/>
    <nd ref="9192198284"/>
    <nd ref="2478807141"/>
    <nd ref="9192198279"/>
    <nd ref="2478807144"/>
    <nd ref="9192198275"/>
    <nd ref="4200225232"/>
    <nd ref="9192474023"/>
    <nd ref="9192198271"/>
    <nd ref="9192474043"/>
    <nd ref="9192198265"/>
    <nd ref="2478214402"/>
    <nd ref="7589442891"/>
    <nd ref="9192474048"/>
    <nd ref="9192474051"/>
    <nd ref="5270320611"/>
    <nd ref="7589442894"/>
    <nd ref="9192198264"/>
    <nd ref="4200225233"/>
    <nd ref="9192198258"/>
    <nd ref="2478214403"/>
    <tag k="cycleway:left" v="track"/>
    <tag k="cycleway:right" v="separate"/>
    <tag k="foot" v="use_sidepath"/>
    <tag k="highway" v="primary"/>
    <tag k="image" v="https://commons.wikimedia.org/wiki/File:Dorfstraße_(Berlin-Malchow).jpg"/>
    <tag k="lanes" v="2"/>
    <tag k="lit" v="yes"/>
    <tag k="maxspeed" v="50"/>
    <tag k="maxspeed:conditional" v="30 @ wet"/>
    <tag k="name" v="Dorfstraße"/>
    <tag k="parking:both" v="no"/>
    <tag k="postal_code" v="13051"/>
    <tag k="ref" v="B 2"/>
    <tag k="sidewalk:both" v="separate"/>
    <tag k="smoothness" v="excellent"/>
    <tag k="surface" v="asphalt"/>
    <tag k="wikidata" v="Q25089397"/>
    <tag k="wikimedia_commons" v="Category:Dorfstraße (Berlin-Malchow)"/>
    <tag k="wikipedia" v="de:Dorfstraße (Berlin-Malchow)"/>
    <tag k="zone:traffic" v="DE:urban"/>
  </way>
  <way id="55360042" version="14" timestamp="2025-04-10T14:15:11Z" changeset="164771438" uid="14069419" user="TenkouNoKitsune">
    <nd ref="695530463"/>
    <nd ref="695530465"/>
    <nd ref="695530454"/>
    <nd ref="695530455"/>
    <nd ref="5143344204"/>
    <nd ref="5143344205"/>
    <nd ref="695530456"/>
    <nd ref="695530459"/>
    <nd ref="695530457"/>
    <nd ref="695530458"/>
    <nd ref="695530452"/>
    <nd ref="695530461"/>
    <nd ref="695530451"/>
    <nd ref="5143344203"/>
    <nd ref="695530463"/>
    <tag k="addr:city" v="Berlin"/>
    <tag k="addr:housenumber" v="2"/>
    <tag k="addr:postcode" v="13051"/>
    <tag k="addr:street" v="Malchower Chaussee"/>
    <tag k="addr:suburb" v="Malchow"/>
    <tag k="building" v="school"/>
    <tag k="building:levels" v="2"/>
    <tag k="email" v="hg@gruener-campus-malchow.de"/>
    <tag k="fax" v="+49 30 962 485 96"/>
    <tag k="name" v="HG A"/>
    <tag k="phone" v="+49 30 962 485 95"/>
    <tag k="roof:levels" v="1"/>
    <tag k="roof:shape" v="gabled"/>
  </way>
  <way id="144887742" version="17" timestamp="2024-07-09T05:58:17Z" changeset="153729394" uid="10961311" user="StefanHRT">
    <nd ref="534251596"/>
    <nd ref="7288188428"/>
    <nd ref="2917740078"/>
    <nd ref="8999575543"/>
    <nd ref="12042878508"/>
    <nd ref="8290442836"/>
    <nd ref="250164853"/>
    <tag k="cycleway:both" v="no"/>
    <tag k="highway" v="unclassified"/>
    <tag k="lane_markings" v="no"/>
    <tag k="lit" v="no"/>
    <tag k="maxspeed:backward" v="30"/>
    <tag k="maxspeed:forward" v="50"/>
    <tag k="maxspeed:forward:conditional" v="30 @ (06:00-18:00)"/>
    <tag k="name" v="Märchenweg"/>
    <tag k="name:etymology:wikidata" v="Q699"/>
    <tag k="postal_code" v="13051"/>
    <tag k="sidewalk" v="no"/>
    <tag k="smoothness" v="intermediate"/>
    <tag k="surface" v="asphalt"/>
  </way>
  <way id="144888420" version="33" timestamp="2025-02-14T18:59:41Z" changeset="162514596" uid="44217" user="kjon">
    <nd ref="29421303"/>
    <nd ref="9192198303"/>
    <nd ref="8117697981"/>
    <nd ref="9545584343"/>
    <nd ref="7475613245"/>
    <nd ref="2918148700"/>
    <nd ref="8999575540"/>
    <nd ref="1583775054"/>
    <nd ref="4086823242"/>
    <nd ref="4086823241"/>
    <nd ref="1782860521"/>
    <nd ref="10753349970"/>
    <nd ref="1583775055"/>
    <nd ref="1583775053"/>
    <nd ref="2962082949"/>
    <nd ref="9934352117"/>
    <nd ref="249220785"/>
    <tag k="cycleway:both" v="no"/>
    <tag k="destination:colour:forward" v="white"/>
    <tag k="destination:forward" v="Wartenberg"/>
    <tag k="foot" v="use_sidepath"/>
    <tag k="highway" v="secondary"/>
    <tag k="lane_markings" v="yes"/>
    <tag k="lanes" v="2"/>
    <tag k="lit" v="yes"/>
    <tag k="maxheight" v="4.0"/>
    <tag k="maxspeed" v="50"/>
    <tag k="maxspeed:conditional" v="30 @ (22:00-06:00)"/>
    <tag k="name" v="Wartenberger Weg"/>
    <tag k="name:etymology:wikidata" v="Q1760551"/>
    <tag k="parking:both" v="no"/>
    <tag k="postal_code" v="13051"/>
    <tag k="sidewalk:both" v="separate"/>
    <tag k="smoothness" v="good"/>
    <tag k="surface" v="asphalt"/>
  </way>
  <way id="176753739" version="23" timestamp="2024-07-09T05:58:17Z" changeset="153729394" uid="10961311" user="StefanHRT">
    <nd ref="4200225247"/>
    <nd ref="12039486383"/>
    <nd ref="8999575559"/>
    <nd ref="4200225248"/>
    <nd ref="12039486378"/>
    <nd ref="3926258464"/>
    <nd ref="7288188431"/>
    <nd ref="2916438167"/>
    <nd ref="12042878511"/>
    <nd ref="12042878514"/>
    <nd ref="250164853"/>
    <tag k="cycleway" v="track"/>
    <tag k="foot" v="use_sidepath"/>
    <tag k="highway" v="primary"/>
    <tag k="image" v="https://commons.wikimedia.org/wiki/File:Dorfstraße_(Berlin-Malchow).jpg"/>
    <tag k="lanes" v="2"/>
    <tag k="lit" v="yes"/>
    <tag k="maxspeed" v="50"/>
    <tag k="maxspeed:conditional" v="30 @ wet"/>
    <tag k="name" v="Dorfstraße"/>
    <tag k="postal_code" v="13051"/>
    <tag k="ref" v="B 2"/>
    <tag k="sidewalk:both" v="separate"/>
    <tag k="smoothness" v="excellent"/>
    <tag k="surface" v="asphalt"/>
    <tag k="wikidata" v="Q25089397"/>
    <tag k="wikimedia_commons" v="Category:Dorfstraße (Berlin-Malchow)"/>
    <tag k="wikipedia" v="de:Dorfstraße (Berlin-Malchow)"/>
    <tag k="zone:traffic" v="DE:urban"/>
  </way>
  <way id="176753804" version="17" timestamp="2025-02-14T18:59:41Z" changeset="162514596" uid="44217" user="kjon">
    <nd ref="2962082943"/>
    <nd ref="9461784386"/>
    <nd ref="10753349972"/>
    <tag k="cycleway:both" v="no"/>
    <tag k="foot" v="use_sidepath"/>
    <tag k="highway" v="secondary"/>
    <tag k="lane_markings" v="yes"/>
    <tag k="lanes" v="2"/>
    <tag k="lit" v="yes"/>
    <tag k="maxspeed" v="50"/>
    <tag k="name" v="Wartenberger Weg"/>
    <tag k="name:etymology:wikidata" v="Q1760551"/>
    <tag k="parking:both" v="no"/>
    <tag k="postal_code" v="13051"/>
    <tag k="sidewalk:left" v="separate"/>
    <tag k="sidewalk:right" v="no"/>
    <tag k="smoothness" v="good"/>
    <tag k="surface" v="asphalt"/>
  </way>
  <way id="256917734" version="6" timestamp="2024-11-19T06:59:21Z" changeset="159311146" uid="66391" user="geozeisig">
    <nd ref="2625357716"/>
    <nd ref="2625357717"/>
    <nd ref="2625357718"/>
    <nd ref="4239735863"/>
    <nd ref="2625357719"/>
    <nd ref="2625357716"/>
    <tag k="addr:city" v="Berlin"/>
    <tag k="addr:housenumber" v="35"/>
    <tag k="addr:postcode" v="13051"/>
    <tag k="addr:street" v="Dorfstraße"/>
    <tag k="addr:suburb" v="Malchow"/>
    <tag k="building" v="yes"/>
    <tag k="name" v="Alter Stall"/>
    <tag k="phone" v="+49 30 92799830"/>
    <tag k="source" v="survey"/>
    <tag k="website" v="http://www.naturschutzstation-malchow.de/"/>
  </way>
  <way id="256917738" version="7" timestamp="2024-11-19T06:59:22Z" changeset="159311146" uid="66391" user="geozeisig">
    <nd ref="2625357739"/>
    <nd ref="4239735847"/>
    <nd ref="2916407434"/>
    <nd ref="2625357745"/>
    <nd ref="6511610564"/>
    <nd ref="6511610561"/>
    <nd ref="2625357738"/>
    <nd ref="2625357739"/>
    <tag k="addr:city" v="Berlin"/>
    <tag k="addr:housenumber" v="35"/>
    <tag k="addr:postcode" v="13051"/>
    <tag k="addr:street" v="Dorfstraße"/>
    <tag k="addr:suburb" v="Malchow"/>
    <tag k="building" v="yes"/>
    <tag k="name" v="Remise"/>
  </way>
  <way id="256917740" version="11" timestamp="2019-05-30T15:36:44Z" changeset="70775712" uid="9508237" user="momabebra">
    <nd ref="4921682198"/>
    <nd ref="2916407462"/>
    <nd ref="2916407427"/>
    <nd ref="2916407437"/>
    <nd ref="2625357756"/>
    <nd ref="2916407433"/>
    <nd ref="2916407457"/>
    <nd ref="2625357757"/>
    <nd ref="6511610538"/>
    <nd ref="6511610539"/>
    <nd ref="6511610541"/>
    <nd ref="6511610540"/>
    <nd ref="4921682198"/>
    <tag k="amenity" v="community_centre"/>
    <tag k="building" v="yes"/>
    <tag k="community_centre" v="parish_hall"/>
    <tag k="community_centre:for" v="religious"/>
    <tag k="denomination" v="protestant"/>
    <tag k="name" v="Evangelisches Gemeindehaus"/>
    <tag k="religion" v="christian"/>
  </way>
  <way id="256917742" version="8" timestamp="2019-02-20T18:28:24Z" changeset="67402566" uid="6794144" user="fräbrawu">
    <nd ref="2625357761"/>
    <nd ref="4921682194"/>
    <nd ref="4921682192"/>
    <nd ref="4921682191"/>
    <nd ref="4921682193"/>
    <nd ref="2625357762"/>
    <nd ref="4921682197"/>
    <nd ref="2625357754"/>
    <nd ref="2917779638"/>
    <nd ref="2917779640"/>
    <nd ref="2625357763"/>
    <nd ref="2625357764"/>
    <nd ref="4921682196"/>
    <nd ref="4921682195"/>
    <nd ref="2625357761"/>
    <tag k="building" v="yes"/>
    <tag k="name" v="Ev. Pfarramt"/>
    <tag k="office" v="religion"/>
  </way>
  <way id="256917939" version="2" timestamp="2014-01-25T19:30:25Z" changeset="20199034" uid="88159" user="iggy-x">
    <nd ref="2625361404"/>
    <nd ref="2625361406"/>
    <nd ref="2625361408"/>
    <nd ref="2625361410"/>
    <nd ref="2625361404"/>
    <tag k="addr:city" v="Berlin"/>
    <tag k="addr:street" v="Dorfstraße"/>
    <tag k="building" v="yes"/>
    <tag k="name" v="Pferdestall"/>
  </way>
  <way id="256917940" version="6" timestamp="2024-11-19T06:59:22Z" changeset="159311146" uid="66391" user="geozeisig">
    <nd ref="2918151302"/>
    <nd ref="2918151004"/>
    <nd ref="2918151202"/>
    <nd ref="2918151106"/>
    <nd ref="2918151203"/>
    <nd ref="2918151302"/>
    <tag k="addr:city" v="Berlin"/>
    <tag k="addr:housenumber" v="39"/>
    <tag k="addr:postcode" v="13051"/>
    <tag k="addr:street" v="Dorfstraße"/>
    <tag k="addr:suburb" v="Malchow"/>
    <tag k="building" v="commercial"/>
    <tag k="building:levels" v="1"/>
    <tag k="name" v="RIEBE Elektrotechnik GmbH"/>
    <tag k="roof:levels" v="0"/>
  </way>
  <way id="256919054" version="2" timestamp="2014-01-25T19:30:25Z" changeset="20199034" uid="88159" user="iggy-x">
    <nd ref="2625370045"/>
    <nd ref="2625370047"/>
    <nd ref="2625370049"/>
    <nd ref="2625370051"/>
    <nd ref="2625370045"/>
    <tag k="addr:city" v="Berlin"/>
    <tag k="addr:street" v="Märchenweg"/>
    <tag k="building" v="yes"/>
    <tag k="name" v="Pferdestall"/>
  </way>
  <way id="257239208" version="6" timestamp="2024-04-14T14:04:23Z" changeset="149994408" uid="16037237" user="aleixstw">
    <nd ref="2918150985"/>
    <nd ref="2918150984"/>
    <nd ref="2918151338"/>
    <nd ref="2918150981"/>
    <nd ref="2918151335"/>
    <nd ref="2918150985"/>
    <tag k="addr:city" v="Berlin"/>
    <tag k="addr:street" v="Wartenberger Weg"/>
    <tag k="building" v="yes"/>
    <tag k="name" v="Anglerbedarf Malchow"/>
    <tag k="opening_hours" v="Mo-Fr 09:00-18:00; Sa 09:00-14:00; Su,PH off"/>
    <tag k="shop" v="fishing"/>
  </way>
  <way id="257239210" version="8" timestamp="2024-11-19T06:59:22Z" changeset="159311146" uid="66391" user="geozeisig">
    <nd ref="2918151311"/>
    <nd ref="2918150946"/>
    <nd ref="2918151301"/>
    <nd ref="2918151303"/>
    <nd ref="2918151217"/>
    <nd ref="2918151219"/>
    <nd ref="2918150941"/>
    <nd ref="2918151306"/>
    <nd ref="2918151311"/>
    <tag k="addr:housenumber" v="11"/>
    <tag k="addr:postcode" v="13051"/>
    <tag k="addr:street" v="Dorfstraße"/>
    <tag k="addr:suburb" v="Malchow"/>
    <tag k="building" v="retail"/>
    <tag k="building:levels" v="1"/>
    <tag k="name" v="Wirtshaus Malchow"/>
    <tag k="roof:levels" v="0"/>
  </way>
  <way id="257241065" version="4" timestamp="2022-08-05T19:02:52Z" changeset="124536376" uid="9508237" user="momabebra">
    <nd ref="2628369242"/>
    <nd ref="2628369239"/>
    <nd ref="2628369243"/>
    <nd ref="2628369244"/>
    <nd ref="2628369245"/>
    <nd ref="2628369242"/>
    <tag k="building" v="yes"/>
    <tag k="building:levels" v="2"/>
    <tag k="name" v="Synanon"/>
  </way>
  <way id="257241066" version="4" timestamp="2022-08-05T19:02:52Z" changeset="124536376" uid="9508237" user="momabebra">
    <nd ref="2628369266"/>
    <nd ref="2628369265"/>
    <nd ref="2628369264"/>
    <nd ref="2628369263"/>
    <nd ref="2628369260"/>
    <nd ref="2628369247"/>
    <nd ref="2628369248"/>
    <nd ref="2628369249"/>
    <nd ref="2628369250"/>
    <nd ref="2628369251"/>
    <nd ref="2628369252"/>
    <nd ref="2628369253"/>
    <nd ref="2628369254"/>
    <nd ref="2628369273"/>
    <nd ref="2628369272"/>
    <nd ref="2628369271"/>
    <nd ref="2628369270"/>
    <nd ref="2628369269"/>
    <nd ref="2628369268"/>
    <nd ref="2628369267"/>
    <nd ref="2628369256"/>
    <nd ref="9934315112"/>
    <nd ref="9934315110"/>
    <nd ref="9934315109"/>
    <nd ref="9934315111"/>
    <nd ref="9934315113"/>
    <nd ref="2628369266"/>
    <tag k="addr:city" v="Berlin"/>
    <tag k="addr:street" v="Dorfstraße"/>
    <tag k="building" v="yes"/>
    <tag k="name" v="Synanon"/>
  </way>
  <way id="288106825" version="14" timestamp="2025-02-14T19:13:52Z" changeset="162514986" uid="44217" user="kjon">
    <nd ref="2916407473"/>
    <nd ref="692737884"/>
    <nd ref="10753139339"/>
    <nd ref="8157033963"/>
    <nd ref="10753139342"/>
    <nd ref="4313424903"/>
    <tag k="cycleway:both" v="separate"/>
    <tag k="foot" v="use_sidepath"/>
    <tag k="highway" v="secondary"/>
    <tag k="lane_markings" v="yes"/>
    <tag k="lanes" v="2"/>
    <tag k="lit" v="yes"/>
    <tag k="maxspeed" v="50"/>
    <tag k="name" v="Blankenburger Pflasterweg"/>
    <tag k="name:etymology:wikidata" v="Q693582"/>
    <tag k="note" v="Übergeordnete Straße, Stufe II"/>
    <tag k="parking:both" v="no"/>
    <tag k="postal_code" v="13129"/>
    <tag k="sidewalk:both" v="separate"/>
    <tag k="smoothness" v="good"/>
    <tag k="surface" v="asphalt"/>
    <tag k="wikidata" v="Q68903838"/>
  </way>
  <way id="424572048" version="4" timestamp="2024-11-19T06:59:22Z" changeset="159311146" uid="66391" user="geozeisig">
    <nd ref="2916407436"/>
    <nd ref="4239735853"/>
    <nd ref="2625357741"/>
    <nd ref="4239735861"/>
    <nd ref="2625357742"/>
    <nd ref="6576997674"/>
    <nd ref="2916407436"/>
    <tag k="addr:city" v="Berlin"/>
    <tag k="addr:housenumber" v="35"/>
    <tag k="addr:postcode" v="13051"/>
    <tag k="addr:street" v="Dorfstraße"/>
    <tag k="addr:suburb" v="Malchow"/>
    <tag k="building" v="yes"/>
    <tag k="name" v="Naturschutzscheune"/>
  </way>
  <way id="432205757" version="15" timestamp="2025-02-14T19:13:52Z" changeset="162514986" uid="44217" user="kjon">
    <nd ref="165736680"/>
    <nd ref="5778365295"/>
    <nd ref="9546672743"/>
    <nd ref="8997208498"/>
    <nd ref="4313424903"/>
    <tag k="cycleway:both" v="separate"/>
    <tag k="destination:colour:forward" v="white"/>
    <tag k="destination:forward" v="Karow;Blankenburg"/>
    <tag k="foot" v="use_sidepath"/>
    <tag k="highway" v="secondary"/>
    <tag k="lane_markings" v="yes"/>
    <tag k="lanes" v="3"/>
    <tag k="lanes:backward" v="2"/>
    <tag k="lanes:forward" v="1"/>
    <tag k="lit" v="yes"/>
    <tag k="maxspeed" v="50"/>
    <tag k="name" v="Blankenburger Pflasterweg"/>
    <tag k="name:etymology:wikidata" v="Q693582"/>
    <tag k="note" v="Übergeordnete Straße, Stufe II"/>
    <tag k="parking:both" v="no"/>
    <tag k="postal_code" v="13129"/>
    <tag k="sidewalk:both" v="separate"/>
    <tag k="smoothness" v="good"/>
    <tag k="surface" v="asphalt"/>
    <tag k="turn:lanes:backward" v="left|right"/>
    <tag k="wikidata" v="Q68903838"/>
  </way>
  <way id="432205764" version="11" timestamp="2024-07-07T09:58:46Z" changeset="153654334" uid="10961311" user="StefanHRT">
    <nd ref="250164853"/>
    <nd ref="3334171344"/>
    <tag k="cycleway" v="track"/>
    <tag k="foot" v="use_sidepath"/>
    <tag k="highway" v="primary"/>
    <tag k="image" v="https://commons.wikimedia.org/wiki/File:Dorfstraße_(Berlin-Malchow).jpg"/>
    <tag k="lanes" v="2"/>
    <tag k="lit" v="yes"/>
    <tag k="maxspeed" v="50"/>
    <tag k="maxspeed:conditional" v="30 @ wet"/>
    <tag k="name" v="Dorfstraße"/>
    <tag k="postal_code" v="13051"/>
    <tag k="ref" v="B 2"/>
    <tag k="sidewalk:both" v="separate"/>
    <tag k="smoothness" v="excellent"/>
    <tag k="surface" v="asphalt"/>
    <tag k="wikidata" v="Q25089397"/>
    <tag k="wikimedia_commons" v="Category:Dorfstraße (Berlin-Malchow)"/>
    <tag k="wikipedia" v="de:Dorfstraße (Berlin-Malchow)"/>
    <tag k="zone:traffic" v="DE:urban"/>
  </way>
  <way id="432205765" version="15" timestamp="2024-07-09T05:58:17Z" changeset="153729394" uid="10961311" user="StefanHRT">
    <nd ref="3334171344"/>
    <nd ref="12042878505"/>
    <nd ref="8999575541"/>
    <nd ref="12042878502"/>
    <nd ref="2916438174"/>
    <nd ref="5778363347"/>
    <nd ref="29421303"/>
    <tag k="cycleway" v="track"/>
    <tag k="destination:backward" v="Prenzlauer Berg;Weißensee"/>
    <tag k="destination:colour:backward" v="yellow"/>
    <tag k="foot" v="use_sidepath"/>
    <tag k="highway" v="primary"/>
    <tag k="image" v="https://commons.wikimedia.org/wiki/File:Dorfstraße_(Berlin-Malchow).jpg"/>
    <tag k="lanes" v="3"/>
    <tag k="lanes:backward" v="1"/>
    <tag k="lanes:forward" v="2"/>
    <tag k="lit" v="yes"/>
    <tag k="maxspeed" v="50"/>
    <tag k="maxspeed:conditional" v="30 @ wet"/>
    <tag k="name" v="Dorfstraße"/>
    <tag k="postal_code" v="13051"/>
    <tag k="ref" v="B 2"/>
    <tag k="sidewalk:both" v="separate"/>
    <tag k="smoothness" v="excellent"/>
    <tag k="surface" v="asphalt"/>
    <tag k="turn:lanes:forward" v="through|right"/>
    <tag k="wikidata" v="Q25089397"/>
    <tag k="wikimedia_commons" v="Category:Dorfstraße (Berlin-Malchow)"/>
    <tag k="wikipedia" v="de:Dorfstraße (Berlin-Malchow)"/>
    <tag k="zone:traffic" v="DE:urban"/>
  </way>
  <way id="432205766" version="15" timestamp="2023-09-06T12:09:52Z" changeset="140892476" uid="11963177" user="JeroenvanderGun">
    <nd ref="29421303"/>
    <nd ref="5778363351"/>
    <nd ref="7475613246"/>
    <nd ref="9192198302"/>
    <nd ref="2916438186"/>
    <nd ref="3334171346"/>
    <nd ref="3334171348"/>
    <nd ref="2917747400"/>
    <tag k="cycleway:left" v="track"/>
    <tag k="cycleway:right" v="separate"/>
    <tag k="destination:colour:forward" v=";yellow;white"/>
    <tag k="destination:forward" v=";Bernau;Karow"/>
    <tag k="destination:ref:to:forward" v="A 10"/>
    <tag k="destination:symbol:forward" v="motorway;none;none"/>
    <tag k="foot" v="use_sidepath"/>
    <tag k="highway" v="primary"/>
    <tag k="image" v="https://commons.wikimedia.org/wiki/File:Dorfstraße_(Berlin-Malchow).jpg"/>
    <tag k="lanes" v="3"/>
    <tag k="lanes:backward" v="2"/>
    <tag k="lanes:forward" v="1"/>
    <tag k="lit" v="yes"/>
    <tag k="maxspeed" v="50"/>
    <tag k="maxspeed:conditional" v="30 @ wet"/>
    <tag k="name" v="Dorfstraße"/>
    <tag k="postal_code" v="13051"/>
    <tag k="ref" v="B 2"/>
    <tag k="sidewalk:both" v="separate"/>
    <tag k="smoothness" v="excellent"/>
    <tag k="surface" v="asphalt"/>
    <tag k="turn:lanes:backward" v="left|through"/>
    <tag k="wikidata" v="Q25089397"/>
    <tag k="wikimedia_commons" v="Category:Dorfstraße (Berlin-Malchow)"/>
    <tag k="wikipedia" v="de:Dorfstraße (Berlin-Malchow)"/>
    <tag k="zone:traffic" v="DE:urban"/>
  </way>
  <way id="432205767" version="20" timestamp="2025-02-14T19:13:52Z" changeset="162514986" uid="44217" user="kjon">
    <nd ref="165736680"/>
    <nd ref="10753139348"/>
    <nd ref="5778365296"/>
    <nd ref="8997208499"/>
    <nd ref="3334171354"/>
    <nd ref="249220793"/>
    <nd ref="6909248263"/>
    <nd ref="9192474058"/>
    <nd ref="4200225234"/>
    <nd ref="2478214403"/>
    <tag k="cycleway:left" v="track"/>
    <tag k="cycleway:right" v="separate"/>
    <tag k="destination:backward" v="Bernau"/>
    <tag k="destination:colour:forward" v="yellow"/>
    <tag k="destination:forward" v="Prenzlauer Berg;Weißensee"/>
    <tag k="destination:ref:to:backward" v="A 10"/>
    <tag k="destination:symbol:to:backward" v="motorway"/>
    <tag k="foot" v="use_sidepath"/>
    <tag k="highway" v="primary"/>
    <tag k="image" v="https://commons.wikimedia.org/wiki/File:Dorfstraße_(Berlin-Malchow).jpg"/>
    <tag k="lanes" v="3"/>
    <tag k="lanes:backward" v="2"/>
    <tag k="lanes:forward" v="1"/>
    <tag k="lit" v="yes"/>
    <tag k="maxspeed" v="50"/>
    <tag k="maxspeed:conditional" v="30 @ wet"/>
    <tag k="name" v="Dorfstraße"/>
    <tag k="parking:both" v="no"/>
    <tag k="postal_code" v="13051"/>
    <tag k="ref" v="B 2"/>
    <tag k="sidewalk:both" v="separate"/>
    <tag k="smoothness" v="excellent"/>
    <tag k="surface" v="asphalt"/>
    <tag k="turn:lanes:backward" v="left|through"/>
    <tag k="wikidata" v="Q25089397"/>
    <tag k="wikimedia_commons" v="Category:Dorfstraße (Berlin-Malchow)"/>
    <tag k="wikipedia" v="de:Dorfstraße (Berlin-Malchow)"/>
    <tag k="zone:traffic" v="DE:urban"/>
  </way>
  <way id="492220002" version="4" timestamp="2024-09-22T17:23:36Z" changeset="156962062" uid="44217" user="kjon">
    <nd ref="4470047469"/>
    <nd ref="4470047466"/>
    <nd ref="4470047467"/>
    <nd ref="4470047468"/>
    <nd ref="4470047469"/>
    <tag k="building" v="roof"/>
    <tag k="layer" v="1"/>
    <tag k="material" v="wood"/>
    <tag k="name" v="Glockenstuhl"/>
    <tag k="wikipedia" v="de:Dorfkirche Malchow"/>
  </way>
  <way id="515474751" version="14" timestamp="2025-02-14T19:13:52Z" changeset="162514986" uid="44217" user="kjon">
    <nd ref="165736680"/>
    <nd ref="10756037337"/>
    <nd ref="2916440473"/>
    <nd ref="8997208502"/>
    <nd ref="2478214404"/>
    <nd ref="8997208508"/>
    <nd ref="262101593"/>
    <nd ref="262101190"/>
    <tag k="bicycle" v="use_sidepath"/>
    <tag k="cycleway:both" v="separate"/>
    <tag k="destination:colour:forward" v="yellow"/>
    <tag k="destination:forward" v="Bernau"/>
    <tag k="destination:ref" v="B 2"/>
    <tag k="destination:ref:to:forward" v="A 10"/>
    <tag k="destination:symbol:forward" v="motorway;none"/>
    <tag k="destination:symbol:to:forward" v="motorway"/>
    <tag k="foot" v="use_sidepath"/>
    <tag k="highway" v="primary"/>
    <tag k="lanes" v="2"/>
    <tag k="lit" v="yes"/>
    <tag k="maxspeed" v="50"/>
    <tag k="name" v="Bundesstraße 2"/>
    <tag k="parking:both" v="no"/>
    <tag k="postal_code" v="13051"/>
    <tag k="ref" v="B 2"/>
    <tag k="sidewalk:both" v="separate"/>
    <tag k="smoothness" v="intermediate"/>
    <tag k="surface" v="asphalt"/>
    <tag k="zone:traffic" v="DE:urban"/>
  </way>
  <way id="706436613" version="5" timestamp="2025-04-10T14:15:11Z" changeset="164771438" uid="14069419" user="TenkouNoKitsune">
    <nd ref="6638131382"/>
    <nd ref="6638131381"/>
    <nd ref="6638131380"/>
    <nd ref="6638131379"/>
    <nd ref="6638131382"/>
    <tag k="building" v="school"/>
    <tag k="building:levels" v="3"/>
    <tag k="name" v="HG B"/>
    <tag k="roof:shape" v="flat"/>
  </way>
  <way id="1036050868" version="4" timestamp="2024-07-07T09:58:46Z" changeset="153654334" uid="10961311" user="StefanHRT">
    <nd ref="259044772"/>
    <nd ref="4815985197"/>
    <tag k="cycleway:left" v="track"/>
    <tag k="cycleway:right" v="no"/>
    <tag k="hazard" v="children"/>
    <tag k="highway" v="primary"/>
    <tag k="image" v="https://commons.wikimedia.org/wiki/File:Dorfstraße_(Berlin-Malchow).jpg"/>
    <tag k="lanes" v="2"/>
    <tag k="lit" v="yes"/>
    <tag k="maxspeed" v="50"/>
    <tag k="maxspeed:conditional" v="30 @ (Mo-Fr 06:00-18:00)"/>
    <tag k="name" v="Dorfstraße"/>
    <tag k="postal_code" v="13051"/>
    <tag k="ref" v="B 2"/>
    <tag k="sidewalk" v="both"/>
    <tag k="sidewalk:both:surface" v="paving_stones"/>
    <tag k="sidewalk:right:bicycle" v="yes"/>
    <tag k="sidewalk:right:traffic_sign" v="DE:239,1022-10"/>
    <tag k="smoothness" v="excellent"/>
    <tag k="surface" v="asphalt"/>
    <tag k="wikidata" v="Q25089397"/>
    <tag k="wikimedia_commons" v="Category:Dorfstraße (Berlin-Malchow)"/>
    <tag k="wikipedia" v="de:Dorfstraße (Berlin-Malchow)"/>
    <tag k="zone:traffic" v="DE:urban"/>
  </way>
  <way id="1080363285" version="3" timestamp="2025-04-10T14:15:11Z" changeset="164771438" uid="14069419" user="TenkouNoKitsune">
    <nd ref="9902584243"/>
    <nd ref="9902584242"/>
    <nd ref="9902584241"/>
    <nd ref="9902584240"/>
    <nd ref="9902584243"/>
    <tag k="building" v="school"/>
    <tag k="name" v="Turnhalle I"/>
  </way>
  <way id="1084089150" version="6" timestamp="2025-02-14T18:59:41Z" changeset="162514596" uid="44217" user="kjon">
    <nd ref="9934267772"/>
    <nd ref="2962082943"/>
    <tag k="cycleway:both" v="no"/>
    <tag k="destination:colour:forward" v="white"/>
    <tag k="destination:forward" v="Wartenberg"/>
    <tag k="foot" v="use_sidepath"/>
    <tag k="highway" v="secondary"/>
    <tag k="lane_markings" v="yes"/>
    <tag k="lanes" v="2"/>
    <tag k="lit" v="yes"/>
    <tag k="maxheight" v="4.0"/>
    <tag k="maxspeed" v="50"/>
    <tag k="name" v="Wartenberger Weg"/>
    <tag k="name:etymology:wikidata" v="Q1760551"/>
    <tag k="parking:both" v="no"/>
    <tag k="postal_code" v="13051"/>
    <tag k="sidewalk:left" v="separate"/>
    <tag k="sidewalk:right" v="no"/>
    <tag k="smoothness" v="good"/>
    <tag k="surface" v="asphalt"/>
  </way>
  <way id="1156301561" version="2" timestamp="2025-02-14T18:59:41Z" changeset="162514596" uid="44217" user="kjon">
    <nd ref="249220785"/>
    <nd ref="9934267772"/>
    <tag k="cycleway:both" v="no"/>
    <tag k="destination:colour:forward" v="white"/>
    <tag k="destination:forward" v="Wartenberg"/>
    <tag k="foot" v="use_sidepath"/>
    <tag k="highway" v="secondary"/>
    <tag k="lane_markings" v="yes"/>
    <tag k="lanes" v="2"/>
    <tag k="lit" v="yes"/>
    <tag k="maxheight" v="4.0"/>
    <tag k="maxspeed" v="50"/>
    <tag k="name" v="Wartenberger Weg"/>
    <tag k="name:etymology:wikidata" v="Q1760551"/>
    <tag k="parking:both" v="no"/>
    <tag k="postal_code" v="13051"/>
    <tag k="sidewalk:both" v="separate"/>
    <tag k="smoothness" v="good"/>
    <tag k="surface" v="asphalt"/>
  </way>
  <way id="1156301562" version="2" timestamp="2025-02-14T18:59:41Z" changeset="162514596" uid="44217" user="kjon">
    <nd ref="10753349972"/>
    <nd ref="8226577574"/>
    <tag k="cycleway:both" v="no"/>
    <tag k="foot" v="use_sidepath"/>
    <tag k="highway" v="secondary"/>
    <tag k="lane_markings" v="yes"/>
    <tag k="lanes" v="2"/>
    <tag k="lit" v="yes"/>
    <tag k="maxspeed" v="50"/>
    <tag k="maxspeed:conditional" v="30 @ wet"/>
    <tag k="name" v="Wartenberger Weg"/>
    <tag k="name:etymology:wikidata" v="Q1760551"/>
    <tag k="parking:both" v="no"/>
    <tag k="postal_code" v="13051"/>
    <tag k="sidewalk:left" v="separate"/>
    <tag k="sidewalk:right" v="no"/>
    <tag k="smoothness" v="good"/>
    <tag k="surface" v="asphalt"/>
  </way>
  <way id="1299716094" version="1" timestamp="2024-07-07T09:58:46Z" changeset="153654334" uid="10961311" user="StefanHRT">
    <nd ref="4815985197"/>
    <nd ref="4815985198"/>
    <nd ref="9168730293"/>
    <nd ref="9168730291"/>
    <nd ref="9168730287"/>
    <nd ref="9168730282"/>
    <nd ref="4200225247"/>
    <tag k="cycleway:left" v="track"/>
    <tag k="cycleway:right" v="no"/>
    <tag k="highway" v="primary"/>
    <tag k="image" v="https://commons.wikimedia.org/wiki/File:Dorfstraße_(Berlin-Malchow).jpg"/>
    <tag k="lanes" v="2"/>
    <tag k="lit" v="yes"/>
    <tag k="maxspeed" v="50"/>
    <tag k="maxspeed:conditional" v="30 @ wet"/>
    <tag k="name" v="Dorfstraße"/>
    <tag k="postal_code" v="13051"/>
    <tag k="ref" v="B 2"/>
    <tag k="sidewalk" v="both"/>
    <tag k="sidewalk:both:surface" v="paving_stones"/>
    <tag k="sidewalk:right:bicycle" v="yes"/>
    <tag k="sidewalk:right:traffic_sign" v="DE:239,1022-10"/>
    <tag k="smoothness" v="excellent"/>
    <tag k="surface" v="asphalt"/>
    <tag k="wikidata" v="Q25089397"/>
    <tag k="wikimedia_commons" v="Category:Dorfstraße (Berlin-Malchow)"/>
    <tag k="wikipedia" v="de:Dorfstraße (Berlin-Malchow)"/>
    <tag k="zone:traffic" v="DE:urban"/>
  </way>

</osm>
