<?xml version="1.0" encoding="UTF-8"?>
<osm version="0.6" generator="Overpass API 0.7.62.5 1bd436f1">
<note>The data included in this document is from www.openstreetmap.org. The data is made available under ODbL.</note>
<meta osm_base="2025-05-18T01:34:19Z" areas="2024-12-31T00:49:33Z"/>

  <node id="30821352" lat="52.6172394" lon="13.3731492" version="2" timestamp="2008-11-06T21:35:14Z" changeset="700382" uid="77734" user="Lara-mm"/>
  <node id="30822865" lat="52.6348619" lon="13.3795704" version="10" timestamp="2022-06-29T11:06:17Z" changeset="122997287" uid="10961311" user="StefanHRT"/>
  <node id="166901119" lat="52.6209673" lon="13.4299767" version="5" timestamp="2022-03-02T08:23:11Z" changeset="118008038" uid="10961311" user="StefanHRT"/>
  <node id="166940704" lat="52.6155837" lon="13.4255342" version="3" timestamp="2013-09-17T16:48:49Z" changeset="17890410" uid="1725257" user="DerpyDerp"/>
  <node id="195828587" lat="52.6152520" lon="13.3721326" version="3" timestamp="2010-09-18T15:03:11Z" changeset="5812276" uid="10549" user="toaster"/>
  <node id="202112038" lat="52.6005445" lon="13.4168506" version="3" timestamp="2020-08-07T19:27:08Z" changeset="89106764" uid="44217" user="kjon"/>
  <node id="253685538" lat="52.6187217" lon="13.4179676" version="3" timestamp="2014-09-27T18:56:46Z" changeset="25711747" uid="1725257" user="DerpyDerp"/>
  <node id="322489747" lat="52.6102454" lon="13.4163126" version="5" timestamp="2023-06-13T08:38:57Z" changeset="137275454" uid="9508237" user="momabebra"/>
  <node id="656450415" lat="52.6024101" lon="13.4022717" version="4" timestamp="2022-12-12T22:02:18Z" changeset="130014187" uid="16037237" user="aleixstw"/>
  <node id="662223435" lat="52.6029906" lon="13.4157957" version="3" timestamp="2015-02-17T20:45:31Z" changeset="28918856" uid="881429" user="atpl_pilot"/>
  <node id="1594524801" lat="52.6308944" lon="13.4274740" version="2" timestamp="2020-09-23T09:12:18Z" changeset="91352964" uid="11211647" user="wermak"/>
  <node id="1598889796" lat="52.6229254" lon="13.4295628" version="6" timestamp="2021-06-30T18:24:29Z" changeset="107223169" uid="17304" user="kartograph"/>
  <node id="1599680719" lat="52.6227519" lon="13.4319771" version="1" timestamp="2012-01-21T10:21:36Z" changeset="10453781" uid="90528" user="Peter Maiwald"/>
  <node id="2960693872" lat="52.6243962" lon="13.4298014" version="2" timestamp="2016-11-26T22:24:26Z" changeset="43972986" uid="43566" user="anbr"/>
  <node id="3997258768" lat="52.6082034" lon="13.4159536" version="5" timestamp="2023-06-13T08:13:38Z" changeset="137274426" uid="9508237" user="momabebra">
    <tag k="bus" v="yes"/>
    <tag k="name" v="Aubertstraße"/>
    <tag k="note" v="Bus endet hier"/>
    <tag k="public_transport" v="stop_position"/>
    <tag k="ref:BVG" v="107394"/>
    <tag k="website" v="https://qr.bvg.de/h107394"/>
  </node>
  <node id="4543122876" lat="52.6050039" lon="13.4143358" version="4" timestamp="2023-01-17T12:54:02Z" changeset="131378257" uid="9508237" user="momabebra"/>
  <node id="7129286353" lat="52.6007204" lon="13.4165595" version="1" timestamp="2020-01-13T20:14:13Z" changeset="79531901" uid="5853411" user="j1scad"/>
  <node id="7129301656" lat="52.6022265" lon="13.4025271" version="2" timestamp="2023-01-09T10:49:14Z" changeset="131049085" uid="18208051" user="MappiViewer"/>
  <node id="7625638483" lat="52.6063399" lon="13.3790493" version="2" timestamp="2022-04-30T08:45:21Z" changeset="120376040" uid="1497225" user="kartonage"/>
  <node id="8157190441" lat="52.6487778" lon="13.3975632" version="1" timestamp="2020-11-24T07:30:09Z" changeset="94685131" uid="10961311" user="StefanHRT"/>
  <node id="9853092091" lat="52.6050997" lon="13.4151161" version="2" timestamp="2023-01-17T12:54:02Z" changeset="131378257" uid="9508237" user="momabebra"/>
  <node id="12401403680" lat="52.6315631" lon="13.4272559" version="1" timestamp="2024-12-07T04:44:55Z" changeset="160015631" uid="11211647" user="wermak"/>
  <way id="4407913" version="39" timestamp="2025-02-11T23:07:22Z" changeset="162410098" uid="44217" user="kjon">
    <nd ref="30822924"/>
    <nd ref="21508603"/>
    <tag k="cycleway:both" v="lane"/>
    <tag k="cycleway:both:lane" v="advisory"/>
    <tag k="foot" v="use_sidepath"/>
    <tag k="highway" v="secondary"/>
    <tag k="lane_markings" v="no"/>
    <tag k="lit" v="yes"/>
    <tag k="maxspeed" v="50"/>
    <tag k="name" v="Rosenthaler Weg"/>
    <tag k="name:etymology:wikidata" v="Q693521"/>
    <tag k="parking:both" v="no"/>
    <tag k="postal_code" v="13127"/>
    <tag k="sidewalk:both" v="separate"/>
    <tag k="smoothness" v="good"/>
    <tag k="surface" v="asphalt"/>
    <tag k="wikidata" v="Q67657932"/>
  </way>
  <way id="4484348" version="8" timestamp="2023-09-06T10:31:38Z" changeset="140888535" uid="11963177" user="JeroenvanderGun">
    <nd ref="27088121"/>
    <nd ref="1594524801"/>
    <tag k="bridge" v="yes"/>
    <tag k="highway" v="motorway"/>
    <tag k="lanes" v="2"/>
    <tag k="layer" v="1"/>
    <tag k="maxspeed" v="80"/>
    <tag k="oneway" v="yes"/>
    <tag k="ref" v="A 114"/>
    <tag k="urban" v="yes"/>
  </way>
  <way id="4803116" version="22" timestamp="2025-02-11T23:07:22Z" changeset="162410098" uid="44217" user="kjon">
    <nd ref="30822849"/>
    <nd ref="1453009082"/>
    <nd ref="340261617"/>
    <nd ref="30822851"/>
    <nd ref="2982406169"/>
    <nd ref="30822852"/>
    <nd ref="5835766851"/>
    <nd ref="5730362401"/>
    <nd ref="30822847"/>
    <tag k="bicycle" v="use_sidepath"/>
    <tag k="cycleway:left" v="no"/>
    <tag k="cycleway:right" v="separate"/>
    <tag k="foot" v="use_sidepath"/>
    <tag k="highway" v="primary"/>
    <tag k="lanes" v="2"/>
    <tag k="lit" v="yes"/>
    <tag k="maxspeed" v="50"/>
    <tag k="name" v="Blankenfelder Chaussee"/>
    <tag k="name:etymology:wikidata" v="Q702621"/>
    <tag k="name:etymology:wikipedia" v="de:Berlin-Blankenfelde"/>
    <tag k="oneway" v="yes"/>
    <tag k="parking:left" v="no"/>
    <tag k="postal_code" v="13159"/>
    <tag k="ref" v="B 96a"/>
    <tag k="sidewalk:both" v="separate"/>
    <tag k="smoothness" v="good"/>
    <tag k="surface" v="asphalt"/>
  </way>
  <way id="15223854" version="36" timestamp="2024-02-22T07:39:21Z" changeset="147760722" uid="19550286" user="MoriGM">
    <nd ref="7625638483"/>
    <nd ref="150637856"/>
    <nd ref="410336692"/>
    <nd ref="4589084283"/>
    <nd ref="410336693"/>
    <nd ref="389767434"/>
    <nd ref="726105786"/>
    <nd ref="496155960"/>
    <nd ref="389750115"/>
    <tag k="cycleway:both" v="no"/>
    <tag k="highway" v="tertiary"/>
    <tag k="lane_markings" v="no"/>
    <tag k="lit" v="yes"/>
    <tag k="maxspeed" v="30"/>
    <tag k="name" v="Mönchmühler Straße"/>
    <tag k="name:etymology:wikidata" v="Q1487869"/>
    <tag k="note" v="Übergeordnete Straße, Stufe II"/>
    <tag k="postal_code" v="13159"/>
    <tag k="sidewalk" v="right"/>
    <tag k="sidewalk:right:surface" v="paving_stones"/>
    <tag k="smoothness" v="intermediate"/>
    <tag k="surface" v="sett"/>
    <tag k="wikidata" v="Q93355015"/>
  </way>
  <way id="16307710" version="17" timestamp="2023-04-22T10:47:20Z" changeset="135223384" uid="3020814" user="BER319">
    <nd ref="166901119"/>
    <nd ref="9549024710"/>
    <nd ref="9442862271"/>
    <nd ref="2960694776"/>
    <nd ref="9549024712"/>
    <nd ref="9549047518"/>
    <nd ref="9549047517"/>
    <nd ref="166901120"/>
    <nd ref="2960696370"/>
    <nd ref="166901122"/>
    <tag k="foot" v="use_sidepath"/>
    <tag k="highway" v="unclassified"/>
    <tag k="lane_markings" v="no"/>
    <tag k="lit" v="no"/>
    <tag k="maxspeed" v="30"/>
    <tag k="name" v="Straße nach Arkenberge"/>
    <tag k="name:etymology:wikidata" v="Q821038"/>
    <tag k="name:etymology:wikipedia" v="de:Berlin-Arkenberge"/>
    <tag k="sidewalk:left" v="no"/>
    <tag k="sidewalk:right" v="separate"/>
    <tag k="smoothness" v="intermediate"/>
    <tag k="surface" v="asphalt"/>
  </way>
  <way id="16308100" version="8" timestamp="2020-12-17T04:53:15Z" changeset="95975093" uid="1468248" user="PantherStrix">
    <nd ref="166919214"/>
    <nd ref="2473522277"/>
    <tag k="highway" v="residential"/>
    <tag k="maxspeed" v="30"/>
    <tag k="name" v="Schillingweg"/>
    <tag k="name:etymology:wikidata" v="Q1661494"/>
    <tag k="postal_code" v="13159"/>
    <tag k="surface" v="unpaved"/>
  </way>
  <way id="18928583" version="23" timestamp="2022-06-29T07:32:39Z" changeset="122987742" uid="10961311" user="StefanHRT">
    <nd ref="30822858"/>
    <nd ref="8378778309"/>
    <nd ref="2269493198"/>
    <nd ref="7683572266"/>
    <nd ref="1453038458"/>
    <nd ref="299437388"/>
    <nd ref="299437426"/>
    <nd ref="299437354"/>
    <nd ref="299437418"/>
    <nd ref="299437407"/>
    <nd ref="299437372"/>
    <nd ref="1453038435"/>
    <nd ref="7162504247"/>
    <nd ref="299437428"/>
    <nd ref="195870454"/>
    <nd ref="8039715175"/>
    <nd ref="9579046286"/>
    <tag k="cycleway:both" v="no"/>
    <tag k="highway" v="residential"/>
    <tag k="lanes" v="2"/>
    <tag k="maxspeed" v="30"/>
    <tag k="name" v="Lübarser Weg"/>
    <tag k="name:etymology:wikidata" v="Q563664"/>
    <tag k="name:etymology:wikipedia" v="de:Berlin-Lübars"/>
    <tag k="postal_code" v="13159"/>
    <tag k="smoothness" v="intermediate"/>
    <tag k="surface" v="asphalt"/>
    <tag k="zone:maxspeed" v="DE:30"/>
  </way>
  <way id="18928585" version="15" timestamp="2022-06-29T07:32:39Z" changeset="122987742" uid="10961311" user="StefanHRT">
    <nd ref="30822859"/>
    <nd ref="8167312787"/>
    <nd ref="9855071272"/>
    <nd ref="9443138370"/>
    <nd ref="9443138371"/>
    <nd ref="195870464"/>
    <nd ref="195870468"/>
    <tag k="cycleway:both" v="no"/>
    <tag k="highway" v="residential"/>
    <tag k="lanes" v="2"/>
    <tag k="lit" v="yes"/>
    <tag k="maxspeed" v="30"/>
    <tag k="name" v="Birnbaumring"/>
    <tag k="name:etymology:wikidata" v="Q434"/>
    <tag k="name:etymology:wikipedia" v="de:Birnen"/>
    <tag k="postal_code" v="13159"/>
    <tag k="zone:maxspeed" v="DE:30"/>
  </way>
  <way id="18928586" version="12" timestamp="2023-06-11T20:24:39Z" changeset="137218890" uid="467783" user="philopsil">
    <nd ref="195870493"/>
    <nd ref="195870522"/>
    <nd ref="10107566447"/>
    <nd ref="195870525"/>
    <nd ref="195870534"/>
    <nd ref="195870539"/>
    <nd ref="9443138376"/>
    <nd ref="195870543"/>
    <nd ref="9443138374"/>
    <nd ref="195870546"/>
    <nd ref="195870549"/>
    <nd ref="9443138377"/>
    <nd ref="10107566448"/>
    <nd ref="195870468"/>
    <tag k="cycleway:both" v="no"/>
    <tag k="highway" v="residential"/>
    <tag k="maxspeed" v="30"/>
    <tag k="name" v="Kartoffelsteig"/>
    <tag k="name:etymology:wikidata" v="Q10998"/>
    <tag k="name:etymology:wikipedia" v="de:Kartoffel"/>
    <tag k="postal_code" v="13159"/>
    <tag k="smoothness" v="good"/>
    <tag k="surface" v="asphalt"/>
    <tag k="zone:maxspeed" v="DE:30"/>
  </way>
  <way id="18928587" version="10" timestamp="2023-06-11T20:24:39Z" changeset="137218890" uid="467783" user="philopsil">
    <nd ref="310270232"/>
    <nd ref="9443138383"/>
    <nd ref="195870563"/>
    <nd ref="9443138379"/>
    <nd ref="9443138378"/>
    <nd ref="195870573"/>
    <nd ref="9443138396"/>
    <tag k="cycleway:both" v="no"/>
    <tag k="highway" v="residential"/>
    <tag k="maxspeed" v="30"/>
    <tag k="name" v="Sonnenblumensteig"/>
    <tag k="name:etymology:wikidata" v="Q171497"/>
    <tag k="name:etymology:wikipedia" v="de:Sonnenblume"/>
    <tag k="postal_code" v="13159"/>
    <tag k="smoothness" v="good"/>
    <tag k="surface" v="asphalt"/>
    <tag k="zone:maxspeed" v="DE:30"/>
  </way>
  <way id="18928591" version="8" timestamp="2022-06-29T07:32:39Z" changeset="122987742" uid="10961311" user="StefanHRT">
    <nd ref="195870478"/>
    <nd ref="195870586"/>
    <nd ref="195870589"/>
    <tag k="cycleway:both" v="no"/>
    <tag k="highway" v="residential"/>
    <tag k="maxspeed" v="30"/>
    <tag k="name" v="Sichelsteig"/>
    <tag k="name:etymology:wikidata" v="Q42233"/>
    <tag k="name:etymology:wikipedia" v="de:Sichel (Werkzeug)"/>
    <tag k="postal_code" v="13159"/>
    <tag k="zone:maxspeed" v="DE:30"/>
  </way>
  <way id="18928593" version="7" timestamp="2022-06-29T07:32:39Z" changeset="122987742" uid="10961311" user="StefanHRT">
    <nd ref="195870474"/>
    <nd ref="195870577"/>
    <tag k="cycleway:both" v="no"/>
    <tag k="highway" v="residential"/>
    <tag k="maxspeed" v="30"/>
    <tag k="name" v="Forkensteig"/>
    <tag k="name:etymology:wikidata" v="Q20180908"/>
    <tag k="name:etymology:wikipedia" v="de:Gabel (Werkzeug)"/>
    <tag k="postal_code" v="13159"/>
    <tag k="surface" v="asphalt"/>
    <tag k="zone:maxspeed" v="DE:30"/>
  </way>
  <way id="20821970" version="27" timestamp="2022-06-29T11:06:17Z" changeset="122997287" uid="10961311" user="StefanHRT">
    <nd ref="30822865"/>
    <nd ref="9442966972"/>
    <nd ref="9855126640"/>
    <tag k="bicycle" v="use_sidepath"/>
    <tag k="cycleway:both" v="separate"/>
    <tag k="foot" v="use_sidepath"/>
    <tag k="highway" v="primary"/>
    <tag k="lanes" v="2"/>
    <tag k="lit" v="yes"/>
    <tag k="maxspeed" v="50"/>
    <tag k="name" v="Hauptstraße"/>
    <tag k="postal_code" v="13159"/>
    <tag k="ref" v="B 96a"/>
    <tag k="sidewalk:both" v="separate"/>
    <tag k="smoothness" v="good"/>
    <tag k="surface" v="asphalt"/>
  </way>
  <way id="20821971" version="30" timestamp="2025-02-11T23:07:22Z" changeset="162410098" uid="44217" user="kjon">
    <nd ref="30822908"/>
    <nd ref="2982404361"/>
    <nd ref="2982404363"/>
    <nd ref="2982404364"/>
    <nd ref="272432794"/>
    <nd ref="223676369"/>
    <nd ref="9010533703"/>
    <nd ref="9010533702"/>
    <nd ref="30822907"/>
    <nd ref="9010533705"/>
    <nd ref="30822905"/>
    <nd ref="2982404634"/>
    <nd ref="30822903"/>
    <nd ref="9010533713"/>
    <nd ref="9010533712"/>
    <nd ref="30822891"/>
    <nd ref="2982404999"/>
    <nd ref="2982405058"/>
    <nd ref="4306113542"/>
    <nd ref="2982405426"/>
    <nd ref="5835766854"/>
    <nd ref="5730362403"/>
    <nd ref="30821366"/>
    <tag k="bicycle" v="use_sidepath"/>
    <tag k="cycleway:left" v="no"/>
    <tag k="cycleway:right" v="separate"/>
    <tag k="foot" v="use_sidepath"/>
    <tag k="highway" v="primary"/>
    <tag k="lanes" v="2"/>
    <tag k="lit" v="yes"/>
    <tag k="maxspeed" v="50"/>
    <tag k="name" v="Blankenfelder Chaussee"/>
    <tag k="name:etymology:wikidata" v="Q702621"/>
    <tag k="name:etymology:wikipedia" v="de:Berlin-Blankenfelde"/>
    <tag k="oneway" v="yes"/>
    <tag k="parking:left" v="no"/>
    <tag k="postal_code" v="13159"/>
    <tag k="ref" v="B 96a"/>
    <tag k="sidewalk:left" v="no"/>
    <tag k="sidewalk:right" v="separate"/>
    <tag k="smoothness" v="good"/>
    <tag k="surface" v="asphalt"/>
  </way>
  <way id="20821975" version="28" timestamp="2025-02-11T23:07:22Z" changeset="162410098" uid="44217" user="kjon">
    <nd ref="30822847"/>
    <nd ref="5730362402"/>
    <nd ref="2982405415"/>
    <nd ref="4306113541"/>
    <nd ref="2982405052"/>
    <nd ref="30822889"/>
    <nd ref="2982404724"/>
    <nd ref="30822892"/>
    <nd ref="30822894"/>
    <nd ref="413903184"/>
    <nd ref="2982404575"/>
    <nd ref="9010533704"/>
    <nd ref="30822896"/>
    <nd ref="9010533701"/>
    <nd ref="2982404365"/>
    <nd ref="223676354"/>
    <nd ref="272432789"/>
    <nd ref="2982404362"/>
    <nd ref="2982404360"/>
    <nd ref="30822897"/>
    <tag k="bicycle" v="use_sidepath"/>
    <tag k="cycleway:left" v="no"/>
    <tag k="cycleway:right" v="separate"/>
    <tag k="foot" v="use_sidepath"/>
    <tag k="highway" v="primary"/>
    <tag k="lanes" v="2"/>
    <tag k="lit" v="yes"/>
    <tag k="maxspeed" v="50"/>
    <tag k="name" v="Blankenfelder Chaussee"/>
    <tag k="name:etymology:wikidata" v="Q702621"/>
    <tag k="name:etymology:wikipedia" v="de:Berlin-Blankenfelde"/>
    <tag k="oneway" v="yes"/>
    <tag k="parking:left" v="no"/>
    <tag k="postal_code" v="13159"/>
    <tag k="ref" v="B 96a"/>
    <tag k="sidewalk:left" v="no"/>
    <tag k="sidewalk:right" v="separate"/>
    <tag k="smoothness" v="good"/>
    <tag k="surface" v="asphalt"/>
  </way>
  <way id="20821976" version="24" timestamp="2025-02-11T23:07:22Z" changeset="162410098" uid="44217" user="kjon">
    <nd ref="30821366"/>
    <nd ref="5730362400"/>
    <nd ref="2982405537"/>
    <nd ref="2982405834"/>
    <nd ref="30822846"/>
    <nd ref="9442962604"/>
    <nd ref="30822848"/>
    <nd ref="9442962603"/>
    <nd ref="340261616"/>
    <nd ref="343510057"/>
    <nd ref="30822849"/>
    <tag k="bicycle" v="use_sidepath"/>
    <tag k="cycleway:left" v="no"/>
    <tag k="cycleway:right" v="separate"/>
    <tag k="foot" v="use_sidepath"/>
    <tag k="highway" v="primary"/>
    <tag k="lanes" v="2"/>
    <tag k="lit" v="yes"/>
    <tag k="maxspeed" v="50"/>
    <tag k="name" v="Blankenfelder Chaussee"/>
    <tag k="name:etymology:wikidata" v="Q702621"/>
    <tag k="name:etymology:wikipedia" v="de:Berlin-Blankenfelde"/>
    <tag k="oneway" v="yes"/>
    <tag k="parking:left" v="no"/>
    <tag k="postal_code" v="13159"/>
    <tag k="ref" v="B 96a"/>
    <tag k="sidewalk:both" v="separate"/>
    <tag k="smoothness" v="good"/>
    <tag k="surface" v="asphalt"/>
  </way>
  <way id="23066578" version="11" timestamp="2022-09-11T02:47:25Z" changeset="126034027" uid="2491880" user="öreg">
    <nd ref="8157190441"/>
    <nd ref="10014436304"/>
    <nd ref="8157190446"/>
    <nd ref="8157190445"/>
    <nd ref="10014700249"/>
    <tag k="highway" v="residential"/>
    <tag k="lit" v="no"/>
    <tag k="maxspeed" v="30"/>
    <tag k="name" v="Am Arkenberg"/>
    <tag k="name:etymology:wikidata" v="Q821038"/>
    <tag k="name:etymology:wikipedia" v="de:Berlin-Arkenberge"/>
    <tag k="postal_code" v="16567"/>
    <tag k="smoothness" v="very_bad"/>
    <tag k="surface" v="sand"/>
  </way>
  <way id="23121418" version="37" timestamp="2024-08-06T18:22:28Z" changeset="154904800" uid="10961311" user="StefanHRT">
    <nd ref="2734269011"/>
    <nd ref="9443093313"/>
    <nd ref="9443093314"/>
    <nd ref="9443093315"/>
    <nd ref="9443093316"/>
    <nd ref="9443093317"/>
    <nd ref="12095712865"/>
    <tag k="cycleway:both" v="no"/>
    <tag k="highway" v="unclassified"/>
    <tag k="lane_markings" v="no"/>
    <tag k="lit" v="yes"/>
    <tag k="maxspeed" v="30"/>
    <tag k="maxspeed:type" v="sign"/>
    <tag k="name" v="Hauptstraße"/>
    <tag k="name:etymology:wikidata" v="Q1006835"/>
    <tag k="name:etymology:wikipedia" v="de:Hauptstraße (allgemein)"/>
    <tag k="postal_code" v="13159"/>
    <tag k="surface" v="concrete"/>
  </way>
  <way id="23424516" version="21" timestamp="2023-04-16T13:10:48Z" changeset="134972590" uid="3020814" user="BER319">
    <nd ref="292131978"/>
    <nd ref="253683731"/>
    <nd ref="9442966826"/>
    <nd ref="2982449045"/>
    <nd ref="5730368139"/>
    <nd ref="2982449040"/>
    <nd ref="2982449039"/>
    <nd ref="253683732"/>
    <nd ref="253683733"/>
    <nd ref="4543123103"/>
    <nd ref="290736740"/>
    <nd ref="290736752"/>
    <tag k="cycleway:both" v="no"/>
    <tag k="highway" v="tertiary"/>
    <tag k="lane_markings" v="no"/>
    <tag k="lit" v="yes"/>
    <tag k="maxspeed" v="30"/>
    <tag k="name" v="Buchholzer Straße"/>
    <tag k="name:etymology:wikidata" v="Q675015"/>
    <tag k="name:etymology:wikipedia" v="de:Berlin-Französisch Buchholz"/>
    <tag k="note" v="Ergänzungsstraße mit besonderer Bedeutung"/>
    <tag k="postal_code" v="13159"/>
    <tag k="sidewalk" v="no"/>
    <tag k="smoothness" v="intermediate"/>
    <tag k="surface" v="asphalt"/>
  </way>
  <way id="23424609" version="15" timestamp="2023-09-04T14:41:50Z" changeset="140809291" uid="19550286" user="MoriGM">
    <nd ref="253685538"/>
    <nd ref="294945186"/>
    <nd ref="300467944"/>
    <nd ref="166919200"/>
    <nd ref="166919201"/>
    <nd ref="166919202"/>
    <nd ref="166919203"/>
    <nd ref="2960558398"/>
    <nd ref="166919204"/>
    <nd ref="166919205"/>
    <nd ref="166919206"/>
    <nd ref="166919207"/>
    <nd ref="253689688"/>
    <nd ref="166919209"/>
    <nd ref="166919210"/>
    <nd ref="166919211"/>
    <nd ref="166919212"/>
    <nd ref="294945217"/>
    <nd ref="294945215"/>
    <nd ref="294945206"/>
    <nd ref="166919214"/>
    <tag k="cycleway:both" v="no"/>
    <tag k="highway" v="unclassified"/>
    <tag k="lane_markings" v="no"/>
    <tag k="lit" v="yes"/>
    <tag k="maxspeed" v="30"/>
    <tag k="name" v="Schillingweg"/>
    <tag k="name:etymology:wikidata" v="Q1661494"/>
    <tag k="postal_code" v="13127"/>
    <tag k="sidewalk" v="no"/>
    <tag k="smoothness" v="good"/>
    <tag k="surface" v="asphalt"/>
  </way>
  <way id="23545615" version="9" timestamp="2023-07-09T00:41:55Z" changeset="138281287" uid="660273" user="a_d_s">
    <nd ref="9443138398"/>
    <nd ref="9443138396"/>
    <nd ref="9443138394"/>
    <nd ref="5523561323"/>
    <nd ref="9855071269"/>
    <nd ref="8167312772"/>
    <nd ref="254961034"/>
    <tag k="cycleway:both" v="no"/>
    <tag k="highway" v="residential"/>
    <tag k="lanes" v="1"/>
    <tag k="maxspeed" v="30"/>
    <tag k="name" v="Am Wäldchen"/>
    <tag k="oneway" v="no"/>
    <tag k="postal_code" v="13159"/>
    <tag k="smoothness" v="intermediate"/>
    <tag k="surface" v="asphalt"/>
    <tag k="zone:maxspeed" v="DE:30"/>
  </way>
  <way id="23547065" version="17" timestamp="2023-04-22T10:11:50Z" changeset="135222325" uid="3020814" user="BER319">
    <nd ref="254446515"/>
    <nd ref="2982452004"/>
    <nd ref="5730361155"/>
    <nd ref="5730361162"/>
    <nd ref="5730368137"/>
    <nd ref="255034191"/>
    <tag k="cycleway:both" v="no"/>
    <tag k="highway" v="unclassified"/>
    <tag k="lane_markings" v="no"/>
    <tag k="lit" v="no"/>
    <tag k="maxspeed" v="30"/>
    <tag k="name" v="Möllersfelder Weg"/>
    <tag k="name:etymology:wikidata" v="Q104215515"/>
    <tag k="postal_code" v="13159"/>
    <tag k="sidewalk:left" v="separate"/>
    <tag k="sidewalk:right" v="no"/>
    <tag k="smoothness" v="good"/>
    <tag k="surface" v="concrete"/>
  </way>
  <way id="23547079" version="12" timestamp="2023-10-07T11:33:39Z" changeset="142265326" uid="61594" user="wauzie">
    <nd ref="254982485"/>
    <nd ref="30822854"/>
    <tag k="bicycle" v="use_sidepath"/>
    <tag k="cycleway:both" v="separate"/>
    <tag k="foot" v="use_sidepath"/>
    <tag k="highway" v="primary"/>
    <tag k="lanes" v="2"/>
    <tag k="lit" v="yes"/>
    <tag k="maxspeed" v="50"/>
    <tag k="name" v="Schildower Straße"/>
    <tag k="name:etymology:wikidata" v="Q55726050"/>
    <tag k="name:etymology:wikipedia" v="de:Schildow"/>
    <tag k="postal_code" v="13159"/>
    <tag k="ref" v="B 96a"/>
    <tag k="sidewalk:both" v="separate"/>
    <tag k="smoothness" v="excellent"/>
    <tag k="surface" v="asphalt"/>
  </way>
  <way id="23547080" version="14" timestamp="2023-10-07T11:33:52Z" changeset="142265326" uid="61594" user="wauzie">
    <nd ref="30822854"/>
    <nd ref="9442966922"/>
    <nd ref="30822853"/>
    <nd ref="9442966917"/>
    <nd ref="30822850"/>
    <tag k="bicycle" v="use_sidepath"/>
    <tag k="cycleway:both" v="separate"/>
    <tag k="foot" v="use_sidepath"/>
    <tag k="highway" v="primary"/>
    <tag k="lanes" v="2"/>
    <tag k="lit" v="yes"/>
    <tag k="maxspeed" v="50"/>
    <tag k="name" v="Schildower Straße"/>
    <tag k="name:etymology:wikidata" v="Q55726050"/>
    <tag k="name:etymology:wikipedia" v="de:Schildow"/>
    <tag k="postal_code" v="13159"/>
    <tag k="ref" v="B 96a"/>
    <tag k="sidewalk:both" v="separate"/>
    <tag k="smoothness" v="excellent"/>
    <tag k="surface" v="asphalt"/>
  </way>
  <way id="23547470" version="15" timestamp="2023-10-06T15:43:09Z" changeset="142238765" uid="61594" user="wauzie">
    <nd ref="9579046286"/>
    <nd ref="9579046287"/>
    <tag k="cycleway:both" v="no"/>
    <tag k="highway" v="residential"/>
    <tag k="lane_markings" v="no"/>
    <tag k="lit" v="yes"/>
    <tag k="maxspeed" v="30"/>
    <tag k="name" v="Lübarser Weg"/>
    <tag k="name:etymology:wikidata" v="Q563664"/>
    <tag k="name:etymology:wikipedia" v="de:Berlin-Lübars"/>
    <tag k="oneway" v="no"/>
    <tag k="postal_code" v="13159"/>
    <tag k="sidewalk" v="no"/>
    <tag k="smoothness" v="good"/>
    <tag k="source:width" v="ARCore"/>
    <tag k="surface" v="sett"/>
    <tag k="width" v="4"/>
    <tag k="zone:maxspeed" v="DE:30"/>
  </way>
  <way id="23547510" version="16" timestamp="2023-04-22T10:11:17Z" changeset="135222346" uid="3020814" user="BER319">
    <nd ref="254961079"/>
    <nd ref="4306113568"/>
    <nd ref="254446519"/>
    <nd ref="4306113567"/>
    <nd ref="254446515"/>
    <tag k="cycleway:both" v="no"/>
    <tag k="highway" v="unclassified"/>
    <tag k="lane_markings" v="no"/>
    <tag k="lit" v="no"/>
    <tag k="maxspeed" v="30"/>
    <tag k="name" v="Hauptstraße"/>
    <tag k="name:etymology:wikidata" v="Q1006835"/>
    <tag k="name:etymology:wikipedia" v="de:Hauptstraße (allgemein)"/>
    <tag k="note" v="Ergänzungsstraße mit besonderer Bedeutung"/>
    <tag k="postal_code" v="13159"/>
    <tag k="sidewalk:left" v="no"/>
    <tag k="sidewalk:right" v="separate"/>
    <tag k="smoothness" v="good"/>
    <tag k="surface" v="concrete:plates"/>
  </way>
  <way id="23547511" version="22" timestamp="2022-05-31T16:13:21Z" changeset="121775455" uid="6811035" user="SteMue">
    <nd ref="254446515"/>
    <nd ref="2982452003"/>
    <nd ref="254446513"/>
    <nd ref="1446517114"/>
    <nd ref="5730364707"/>
    <nd ref="2982452002"/>
    <nd ref="2982452000"/>
    <nd ref="254446511"/>
    <nd ref="2982451999"/>
    <nd ref="2982451998"/>
    <nd ref="5730364705"/>
    <nd ref="7202424809"/>
    <nd ref="414217023"/>
    <nd ref="4306113564"/>
    <nd ref="5730363693"/>
    <nd ref="4306113563"/>
    <nd ref="7672862247"/>
    <nd ref="414217024"/>
    <tag k="cycleway:both" v="no"/>
    <tag k="highway" v="tertiary"/>
    <tag k="lane_markings" v="no"/>
    <tag k="lit" v="yes"/>
    <tag k="maxspeed" v="30"/>
    <tag k="name" v="Hauptstraße"/>
    <tag k="name:etymology:wikidata" v="Q1006835"/>
    <tag k="name:etymology:wikipedia" v="de:Hauptstraße (allgemein)"/>
    <tag k="note" v="Ergänzungsstraße mit besonderer Bedeutung"/>
    <tag k="postal_code" v="13159"/>
    <tag k="sidewalk" v="both"/>
    <tag k="sidewalk:both:surface" v="paving_stones"/>
    <tag k="smoothness" v="excellent"/>
    <tag k="surface" v="asphalt"/>
  </way>
  <way id="23553162" version="16" timestamp="2023-04-22T10:19:58Z" changeset="135222634" uid="3020814" user="BER319">
    <nd ref="255034191"/>
    <nd ref="2581112757"/>
    <tag k="bridge" v="yes"/>
    <tag k="cycleway:both" v="no"/>
    <tag k="highway" v="unclassified"/>
    <tag k="lane_markings" v="no"/>
    <tag k="layer" v="1"/>
    <tag k="lit" v="no"/>
    <tag k="maxspeed" v="30"/>
    <tag k="motor_vehicle" v="destination"/>
    <tag k="name" v="Möllersfelder Weg"/>
    <tag k="name:etymology:wikidata" v="Q104215515"/>
    <tag k="postal_code" v="13159"/>
    <tag k="sidewalk:left" v="separate"/>
    <tag k="sidewalk:right" v="no"/>
    <tag k="smoothness" v="good"/>
    <tag k="surface" v="concrete"/>
  </way>
  <way id="23609084" version="20" timestamp="2024-08-07T19:13:28Z" changeset="154950465" uid="2274818" user="Benjilein">
    <nd ref="255697929"/>
    <nd ref="9549047582"/>
    <nd ref="9549047586"/>
    <nd ref="534815159"/>
    <nd ref="166901138"/>
    <tag k="cycleway:both" v="separate"/>
    <tag k="foot" v="use_sidepath"/>
    <tag k="highway" v="unclassified"/>
    <tag k="lane_markings" v="no"/>
    <tag k="lit" v="no"/>
    <tag k="maxspeed" v="30"/>
    <tag k="name" v="Straße nach Arkenberge"/>
    <tag k="name:etymology:wikidata" v="Q821038"/>
    <tag k="name:etymology:wikipedia" v="de:Berlin-Arkenberge"/>
    <tag k="parking:left" v="no"/>
    <tag k="parking:right" v="on_kerb"/>
    <tag k="parking:right:orientation" v="perpendicular"/>
    <tag k="sidewalk:both" v="separate"/>
    <tag k="smoothness" v="intermediate"/>
    <tag k="source:width" v="ARCore"/>
    <tag k="surface" v="asphalt"/>
    <tag k="width" v="5.5"/>
  </way>
  <way id="23609110" version="14" timestamp="2023-11-16T12:46:41Z" changeset="144095143" uid="12156790" user="Weltenschummler">
    <nd ref="253685538"/>
    <nd ref="2960571580"/>
    <nd ref="166919197"/>
    <nd ref="166919196"/>
    <nd ref="166919195"/>
    <nd ref="11355605397"/>
    <nd ref="166919194"/>
    <nd ref="2963980983"/>
    <nd ref="166916296"/>
    <tag k="highway" v="unclassified"/>
    <tag k="lane_markings" v="no"/>
    <tag k="maxspeed" v="30"/>
    <tag k="maxspeed:type" v="sign"/>
    <tag k="name" v="Schillingweg"/>
    <tag k="name:etymology:wikidata" v="Q1661494"/>
    <tag k="postal_code" v="13127"/>
    <tag k="sidewalk" v="no"/>
    <tag k="smoothness" v="good"/>
    <tag k="surface" v="asphalt"/>
  </way>
  <way id="23609115" version="16" timestamp="2024-08-07T19:09:43Z" changeset="154950282" uid="2274818" user="Benjilein">
    <nd ref="166901122"/>
    <nd ref="2960692374"/>
    <nd ref="166901123"/>
    <nd ref="2960696067"/>
    <nd ref="166901126"/>
    <nd ref="166901128"/>
    <nd ref="2960696967"/>
    <nd ref="166901129"/>
    <nd ref="9549047525"/>
    <nd ref="2960655293"/>
    <nd ref="166901131"/>
    <nd ref="9549047526"/>
    <nd ref="9442862274"/>
    <nd ref="166901132"/>
    <nd ref="9549047528"/>
    <nd ref="9549047529"/>
    <nd ref="9549047530"/>
    <nd ref="166901133"/>
    <nd ref="9549047531"/>
    <nd ref="166901135"/>
    <nd ref="9549047532"/>
    <nd ref="9549047537"/>
    <nd ref="3099114023"/>
    <nd ref="9549047546"/>
    <nd ref="166901136"/>
    <nd ref="9549047542"/>
    <nd ref="9549047544"/>
    <nd ref="9549047543"/>
    <nd ref="9549047547"/>
    <nd ref="255697930"/>
    <tag k="cycleway:both" v="separate"/>
    <tag k="foot" v="use_sidepath"/>
    <tag k="highway" v="unclassified"/>
    <tag k="lane_markings" v="no"/>
    <tag k="lit" v="no"/>
    <tag k="maxspeed" v="30"/>
    <tag k="name" v="Straße nach Arkenberge"/>
    <tag k="name:etymology:wikidata" v="Q821038"/>
    <tag k="name:etymology:wikipedia" v="de:Berlin-Arkenberge"/>
    <tag k="parking:both" v="no"/>
    <tag k="sidewalk:left" v="no"/>
    <tag k="sidewalk:right" v="separate"/>
    <tag k="smoothness" v="intermediate"/>
    <tag k="surface" v="asphalt"/>
  </way>
  <way id="26525964" version="16" timestamp="2023-04-16T13:14:42Z" changeset="134974699" uid="3020814" user="BER319">
    <nd ref="290736752"/>
    <nd ref="290736754"/>
    <tag k="bridge" v="yes"/>
    <tag k="bridge:name" v="Buchholzer Brücke"/>
    <tag k="cycleway:both" v="no"/>
    <tag k="highway" v="tertiary"/>
    <tag k="lane_markings" v="no"/>
    <tag k="layer" v="1"/>
    <tag k="lit" v="no"/>
    <tag k="maxspeed" v="30"/>
    <tag k="maxweight:signed" v="no"/>
    <tag k="name" v="Buchholzer Straße"/>
    <tag k="name:etymology:wikidata" v="Q675015"/>
    <tag k="name:etymology:wikipedia" v="de:Berlin-Französisch Buchholz"/>
    <tag k="postal_code" v="13127"/>
    <tag k="sidewalk" v="right"/>
    <tag k="sidewalk:right:surface" v="asphalt"/>
    <tag k="smoothness" v="good"/>
    <tag k="surface" v="concrete"/>
  </way>
  <way id="26525965" version="15" timestamp="2023-04-16T13:14:27Z" changeset="134972766" uid="3020814" user="BER319">
    <nd ref="290736754"/>
    <nd ref="290736756"/>
    <nd ref="4755103507"/>
    <nd ref="253683735"/>
    <nd ref="253683736"/>
    <nd ref="4755103506"/>
    <nd ref="4755103505"/>
    <nd ref="253683737"/>
    <tag k="cycleway:both" v="no"/>
    <tag k="highway" v="tertiary"/>
    <tag k="lane_markings" v="no"/>
    <tag k="lit" v="no"/>
    <tag k="maxspeed" v="30"/>
    <tag k="name" v="Buchholzer Straße"/>
    <tag k="name:etymology:wikidata" v="Q675015"/>
    <tag k="name:etymology:wikipedia" v="de:Berlin-Französisch Buchholz"/>
    <tag k="note" v="Ergänzungsstraße mit besonderer Bedeutung"/>
    <tag k="postal_code" v="13159"/>
    <tag k="sidewalk" v="no"/>
    <tag k="smoothness" v="intermediate"/>
    <tag k="surface" v="asphalt"/>
  </way>
  <way id="26633358" version="18" timestamp="2024-09-27T20:08:54Z" changeset="157187031" uid="44217" user="kjon">
    <nd ref="292131972"/>
    <nd ref="8995811506"/>
    <nd ref="832856993"/>
    <nd ref="1453009086"/>
    <tag k="cycleway:both" v="no"/>
    <tag k="hgv" v="destination"/>
    <tag k="highway" v="residential"/>
    <tag k="lanes" v="1"/>
    <tag k="lit" v="no"/>
    <tag k="maxspeed" v="30"/>
    <tag k="maxweight" v="7.5 t"/>
    <tag k="name" v="Schildower Straße"/>
    <tag k="name:etymology:wikidata" v="Q55726050"/>
    <tag k="name:etymology:wikipedia" v="de:Schildow"/>
    <tag k="oneway" v="no"/>
    <tag k="postal_code" v="13159"/>
    <tag k="sidewalk" v="no"/>
    <tag k="smoothness" v="intermediate"/>
    <tag k="source:width" v="ARCore"/>
    <tag k="surface" v="paving_stones"/>
    <tag k="width" v="5.6"/>
  </way>
  <way id="26633359" version="22" timestamp="2025-02-11T23:07:22Z" changeset="162410098" uid="44217" user="kjon">
    <nd ref="292131975"/>
    <nd ref="2734268856"/>
    <nd ref="414216880"/>
    <nd ref="9442966818"/>
    <nd ref="2982405545"/>
    <nd ref="2982405367"/>
    <nd ref="2982405045"/>
    <nd ref="414223881"/>
    <nd ref="2982404801"/>
    <nd ref="2982404773"/>
    <nd ref="9000506567"/>
    <nd ref="292131978"/>
    <tag k="cycleway:right" v="no"/>
    <tag k="highway" v="tertiary"/>
    <tag k="lane_markings" v="no"/>
    <tag k="lit" v="yes"/>
    <tag k="maxspeed" v="30"/>
    <tag k="name" v="Berliner Straße"/>
    <tag k="name:etymology:wikidata" v="Q64"/>
    <tag k="name:etymology:wikipedia" v="de:Berlin"/>
    <tag k="note" v="Ergänzungsstraße mit besonderer Bedeutung"/>
    <tag k="oneway" v="yes"/>
    <tag k="parking:both" v="no"/>
    <tag k="postal_code" v="13159"/>
    <tag k="sidewalk" v="left"/>
    <tag k="sidewalk:left:surface" v="sett"/>
    <tag k="smoothness" v="good"/>
    <tag k="surface" v="asphalt"/>
  </way>
  <way id="26633360" version="9" timestamp="2022-06-22T07:34:19Z" changeset="122697769" uid="1497225" user="kartonage">
    <nd ref="292131981"/>
    <nd ref="966202986"/>
    <nd ref="966202987"/>
    <nd ref="2338749626"/>
    <nd ref="2338749628"/>
    <nd ref="2338749633"/>
    <nd ref="9837978378"/>
    <nd ref="9837978379"/>
    <nd ref="2338749625"/>
    <nd ref="9837978380"/>
    <nd ref="9837978381"/>
    <nd ref="292131991"/>
    <nd ref="2338749616"/>
    <nd ref="2338749618"/>
    <nd ref="966202991"/>
    <nd ref="966202993"/>
    <nd ref="292131984"/>
    <nd ref="292131981"/>
    <tag k="building" v="greenhouse"/>
    <tag k="name" v="Schaugewächshaus"/>
    <tag k="opening_hours" v="Tu,Th 10:00-14:00; Fr-Su,PH 10:00-17:00"/>
  </way>
  <way id="26876708" version="4" timestamp="2020-10-15T16:59:22Z" changeset="92535414" uid="1468248" user="PantherStrix">
    <nd ref="294945207"/>
    <nd ref="294945209"/>
    <nd ref="294945206"/>
    <tag k="highway" v="residential"/>
    <tag k="name" v="Kapellenweg"/>
    <tag k="name:etymology:wikidata" v="Q1434274"/>
    <tag k="name:etymology:wikipedia" v="de:Flurname"/>
    <tag k="postal_code" v="13159"/>
    <tag k="surface" v="unpaved"/>
  </way>
  <way id="26876712" version="3" timestamp="2010-05-14T18:04:35Z" changeset="4698297" uid="121042" user="Woschl">
    <nd ref="294945213"/>
    <nd ref="294945210"/>
    <nd ref="166919212"/>
    <tag k="highway" v="residential"/>
    <tag k="name" v="Weg B"/>
    <tag k="postal_code" v="13159"/>
    <tag k="surface" v="unpaved"/>
  </way>
  <way id="28252067" version="19" timestamp="2024-09-27T20:08:54Z" changeset="157187031" uid="44217" user="kjon">
    <nd ref="30822908"/>
    <nd ref="8167301004"/>
    <nd ref="8167312848"/>
    <nd ref="656477422"/>
    <tag k="cycleway:both" v="no"/>
    <tag k="highway" v="tertiary"/>
    <tag k="lane_markings" v="no"/>
    <tag k="lit" v="yes"/>
    <tag k="maxspeed" v="50"/>
    <tag k="name" v="Berliner Straße"/>
    <tag k="name:etymology:wikidata" v="Q64"/>
    <tag k="name:etymology:wikipedia" v="de:Berlin"/>
    <tag k="note" v="Ergänzungsstraße mit besonderer Bedeutung"/>
    <tag k="postal_code" v="13159"/>
    <tag k="sidewalk" v="no"/>
    <tag k="smoothness" v="excellent"/>
    <tag k="surface" v="asphalt"/>
  </way>
  <way id="28817687" version="35" timestamp="2025-02-11T23:07:22Z" changeset="162410098" uid="44217" user="kjon">
    <nd ref="21508603"/>
    <nd ref="10316587245"/>
    <nd ref="3822972860"/>
    <nd ref="9853175524"/>
    <nd ref="3356022070"/>
    <nd ref="656472789"/>
    <nd ref="7129286305"/>
    <tag k="cycleway:both" v="lane"/>
    <tag k="cycleway:left:lane" v="advisory"/>
    <tag k="cycleway:right:lane" v="exclusive"/>
    <tag k="foot" v="use_sidepath"/>
    <tag k="highway" v="secondary"/>
    <tag k="lanes" v="3"/>
    <tag k="lit" v="yes"/>
    <tag k="maxspeed" v="50"/>
    <tag k="name" v="Rosenthaler Weg"/>
    <tag k="name:etymology:wikidata" v="Q693521"/>
    <tag k="parking:both" v="no"/>
    <tag k="postal_code" v="13127"/>
    <tag k="sidewalk:both" v="separate"/>
    <tag k="smoothness" v="good"/>
    <tag k="surface" v="asphalt"/>
    <tag k="wikidata" v="Q67657932"/>
  </way>
  <way id="29311546" version="10" timestamp="2023-11-23T14:49:20Z" changeset="144372995" uid="10961311" user="StefanHRT">
    <nd ref="322489747"/>
    <nd ref="10973364901"/>
    <nd ref="253682998"/>
    <nd ref="3380967010"/>
    <nd ref="8500032801"/>
    <nd ref="322489738"/>
    <nd ref="322489622"/>
    <nd ref="11371302827"/>
    <nd ref="11371302828"/>
    <nd ref="322489610"/>
    <tag k="cycleway:both" v="no"/>
    <tag k="highway" v="residential"/>
    <tag k="maxspeed" v="30"/>
    <tag k="name" v="Straße 124"/>
    <tag k="postal_code" v="13127"/>
    <tag k="sidewalk" v="no"/>
    <tag k="source:maxspeed" v="DE:zone30"/>
    <tag k="surface" v="unpaved"/>
    <tag k="zone:maxspeed" v="DE:30"/>
  </way>
  <way id="29311550" version="3" timestamp="2010-05-14T18:04:36Z" changeset="4698297" uid="121042" user="Woschl">
    <nd ref="166919211"/>
    <nd ref="322489319"/>
    <tag k="highway" v="residential"/>
    <tag k="name" v="Weg A"/>
    <tag k="postal_code" v="13159"/>
    <tag k="surface" v="unpaved"/>
  </way>
  <way id="30138293" version="5" timestamp="2022-06-29T07:32:39Z" changeset="122987742" uid="10961311" user="StefanHRT">
    <nd ref="6140564504"/>
    <nd ref="310282433"/>
    <tag k="bridge" v="yes"/>
    <tag k="cycleway:both" v="no"/>
    <tag k="highway" v="residential"/>
    <tag k="layer" v="1"/>
    <tag k="maxspeed" v="30"/>
    <tag k="name" v="Birnbaumring"/>
    <tag k="name:etymology:wikidata" v="Q434"/>
    <tag k="name:etymology:wikipedia" v="de:Birnen"/>
    <tag k="postal_code" v="13159"/>
    <tag k="zone:maxspeed" v="DE:30"/>
  </way>
  <way id="30138294" version="10" timestamp="2023-06-11T20:24:39Z" changeset="137218890" uid="467783" user="philopsil">
    <nd ref="310282433"/>
    <nd ref="254982275"/>
    <nd ref="195870497"/>
    <nd ref="195870502"/>
    <nd ref="195870505"/>
    <nd ref="195870514"/>
    <nd ref="195870518"/>
    <nd ref="9855126639"/>
    <nd ref="8167312807"/>
    <nd ref="8168029671"/>
    <tag k="cycleway:both" v="no"/>
    <tag k="highway" v="residential"/>
    <tag k="maxspeed" v="30"/>
    <tag k="name" v="Birnbaumring"/>
    <tag k="name:etymology:wikidata" v="Q434"/>
    <tag k="name:etymology:wikipedia" v="de:Birnen"/>
    <tag k="postal_code" v="13159"/>
    <tag k="smoothness" v="good"/>
    <tag k="surface" v="asphalt"/>
    <tag k="zone:maxspeed" v="DE:30"/>
  </way>
  <way id="30768384" version="14" timestamp="2023-10-07T11:43:19Z" changeset="142265321" uid="61594" user="wauzie">
    <nd ref="30822850"/>
    <nd ref="9442966915"/>
    <nd ref="832870647"/>
    <nd ref="5481073642"/>
    <nd ref="30822849"/>
    <tag k="bicycle" v="use_sidepath"/>
    <tag k="cycleway:both" v="separate"/>
    <tag k="foot" v="use_sidepath"/>
    <tag k="highway" v="primary"/>
    <tag k="lanes" v="2"/>
    <tag k="lit" v="yes"/>
    <tag k="maxspeed" v="50"/>
    <tag k="name" v="Blankenfelder Chaussee"/>
    <tag k="name:etymology:wikidata" v="Q702621"/>
    <tag k="name:etymology:wikipedia" v="de:Berlin-Blankenfelde"/>
    <tag k="postal_code" v="13159"/>
    <tag k="ref" v="B 96a"/>
    <tag k="sidewalk:both" v="separate"/>
    <tag k="smoothness" v="excellent"/>
    <tag k="surface" v="asphalt"/>
  </way>
  <way id="30768385" version="23" timestamp="2023-06-09T22:58:18Z" changeset="137155984" uid="660273" user="a_d_s">
    <nd ref="30821361"/>
    <nd ref="7496982208"/>
    <nd ref="7207919479"/>
    <nd ref="30821362"/>
    <nd ref="7496982213"/>
    <nd ref="7496982211"/>
    <nd ref="7207919471"/>
    <nd ref="9937518500"/>
    <nd ref="9937518502"/>
    <nd ref="30821364"/>
    <tag k="cycleway:both" v="no"/>
    <tag k="hazard" v="children"/>
    <tag k="hgv" v="destination"/>
    <tag k="highway" v="tertiary"/>
    <tag k="lanes" v="2"/>
    <tag k="lit" v="yes"/>
    <tag k="maxspeed" v="30"/>
    <tag k="maxweight" v="7.5 t"/>
    <tag k="name" v="Hauptstraße"/>
    <tag k="name:etymology:wikidata" v="Q1006835"/>
    <tag k="name:etymology:wikipedia" v="de:Hauptstraße (allgemein)"/>
    <tag k="note" v="Übergeordnete Straße, Stufe II"/>
    <tag k="oneway" v="no"/>
    <tag k="postal_code" v="13159"/>
    <tag k="sidewalk" v="both"/>
    <tag k="sidewalk:both:surface" v="paving_stones"/>
    <tag k="smoothness" v="very_horrible"/>
    <tag k="surface" v="sett"/>
  </way>
  <way id="30768386" version="25" timestamp="2023-09-10T11:41:15Z" changeset="141059027" uid="19550286" user="MoriGM">
    <nd ref="30821352"/>
    <nd ref="743365187"/>
    <nd ref="255036616"/>
    <nd ref="4331051696"/>
    <nd ref="340258873"/>
    <nd ref="9442966882"/>
    <nd ref="310278767"/>
    <nd ref="30821356"/>
    <nd ref="2264407820"/>
    <nd ref="30249222"/>
    <nd ref="389776895"/>
    <nd ref="5481028549"/>
    <nd ref="30821358"/>
    <tag k="cycleway:both" v="no"/>
    <tag k="highway" v="tertiary"/>
    <tag k="lane_markings" v="no"/>
    <tag k="lanes" v="2"/>
    <tag k="lit" v="no"/>
    <tag k="maxspeed" v="30"/>
    <tag k="name" v="Bahnhofstraße"/>
    <tag k="name:etymology:wikidata" v="Q104215529"/>
    <tag k="note" v="Übergeordnete Straße, Stufe II"/>
    <tag k="oneway" v="no"/>
    <tag k="postal_code" v="13159"/>
    <tag k="sidewalk" v="no"/>
    <tag k="smoothness" v="excellent"/>
    <tag k="source:maxspeed" v="sign"/>
    <tag k="surface" v="asphalt"/>
  </way>
  <way id="32815965" version="5" timestamp="2022-06-29T07:32:39Z" changeset="122987742" uid="10961311" user="StefanHRT">
    <nd ref="195870555"/>
    <nd ref="195870569"/>
    <nd ref="195870573"/>
    <nd ref="195870582"/>
    <nd ref="195870577"/>
    <nd ref="195870586"/>
    <tag k="cycleway:both" v="no"/>
    <tag k="highway" v="residential"/>
    <tag k="maxspeed" v="30"/>
    <tag k="name" v="Kürbissteig"/>
    <tag k="name:etymology:wikidata" v="Q5339301"/>
    <tag k="name:etymology:wikipedia" v="de:Kürbisse"/>
    <tag k="postal_code" v="13159"/>
    <tag k="zone:maxspeed" v="DE:30"/>
  </way>
  <way id="34547151" version="16" timestamp="2023-09-06T10:31:38Z" changeset="140888535" uid="11963177" user="JeroenvanderGun">
    <nd ref="12696810"/>
    <nd ref="2960693580"/>
    <nd ref="2960695782"/>
    <nd ref="2025233461"/>
    <nd ref="1594541277"/>
    <nd ref="1594541284"/>
    <nd ref="2960696669"/>
    <nd ref="1594541269"/>
    <nd ref="2960693872"/>
    <tag k="highway" v="motorway"/>
    <tag k="lanes" v="2"/>
    <tag k="lit" v="no"/>
    <tag k="maxspeed" v="100"/>
    <tag k="oneway" v="yes"/>
    <tag k="ref" v="A 114"/>
    <tag k="smoothness" v="intermediate"/>
    <tag k="surface" v="asphalt"/>
    <tag k="urban" v="yes"/>
  </way>
  <way id="35337570" version="16" timestamp="2025-02-11T23:07:22Z" changeset="162410098" uid="44217" user="kjon">
    <nd ref="414217024"/>
    <nd ref="2734268859"/>
    <nd ref="414216880"/>
    <tag k="cycleway:right" v="no"/>
    <tag k="highway" v="tertiary"/>
    <tag k="lane_markings" v="no"/>
    <tag k="lit" v="yes"/>
    <tag k="maxspeed" v="30"/>
    <tag k="name" v="Berliner Straße"/>
    <tag k="name:etymology:wikidata" v="Q64"/>
    <tag k="name:etymology:wikipedia" v="de:Berlin"/>
    <tag k="oneway" v="yes"/>
    <tag k="parking:both" v="no"/>
    <tag k="postal_code" v="13159"/>
    <tag k="sidewalk" v="both"/>
    <tag k="sidewalk:both:surface" v="paving_stones"/>
    <tag k="smoothness" v="excellent"/>
    <tag k="surface" v="asphalt"/>
  </way>
  <way id="36969679" version="9" timestamp="2024-09-29T11:50:08Z" changeset="157248706" uid="360466" user="lutzgrzondziel">
    <nd ref="166940704"/>
    <nd ref="2461839494"/>
    <nd ref="166940706"/>
    <nd ref="2960570110"/>
    <nd ref="429878229"/>
    <nd ref="8621529089"/>
    <nd ref="734398870"/>
    <nd ref="8621529091"/>
    <nd ref="12208837811"/>
    <nd ref="7764308307"/>
    <nd ref="2960568309"/>
    <nd ref="2960571577"/>
    <nd ref="2960563391"/>
    <nd ref="166919197"/>
    <tag k="highway" v="residential"/>
    <tag k="name" v="Zeuschelstraße"/>
    <tag k="name:etymology:wikidata" v="Q104215648"/>
    <tag k="postal_code" v="13127"/>
    <tag k="sidewalk" v="right"/>
  </way>
  <way id="40391852" version="5" timestamp="2022-09-23T19:03:45Z" changeset="126560590" uid="4587682" user="Fluegelschwinger">
    <nd ref="3146161887"/>
    <nd ref="3146161885"/>
    <nd ref="3146161866"/>
    <nd ref="3146161863"/>
    <nd ref="3146161875"/>
    <nd ref="3146161894"/>
    <nd ref="3146161887"/>
    <tag k="building" v="hut"/>
    <tag k="name" v="Wirtschaftshof"/>
  </way>
  <way id="40391862" version="7" timestamp="2022-06-22T07:34:19Z" changeset="122697769" uid="1497225" user="kartonage">
    <nd ref="488328659"/>
    <nd ref="488328679"/>
    <nd ref="2338749823"/>
    <nd ref="2338749821"/>
    <nd ref="2338749824"/>
    <nd ref="9837978387"/>
    <nd ref="9837978385"/>
    <nd ref="9837978386"/>
    <nd ref="2338749830"/>
    <nd ref="2338749828"/>
    <nd ref="2338749831"/>
    <nd ref="488328696"/>
    <nd ref="488328706"/>
    <nd ref="2338749844"/>
    <nd ref="2338749846"/>
    <nd ref="2338749843"/>
    <nd ref="2338749842"/>
    <nd ref="2338749836"/>
    <nd ref="2338749838"/>
    <nd ref="2338749834"/>
    <nd ref="2338749833"/>
    <nd ref="488328659"/>
    <tag k="addr:city" v="Berlin"/>
    <tag k="addr:country" v="DE"/>
    <tag k="addr:housenumber" v="7"/>
    <tag k="addr:postcode" v="13159"/>
    <tag k="addr:street" v="Blankenfelder Chaussee"/>
    <tag k="addr:suburb" v="Blankenfelde"/>
    <tag k="building" v="yes"/>
    <tag k="contact:email" v="FoA_Pankow@senstadt.berlin.de"/>
    <tag k="contact:phone" v="+49 30 4749880"/>
    <tag k="name" v="Forstamt Pankow"/>
  </way>
  <way id="42813667" version="7" timestamp="2023-04-16T13:19:07Z" changeset="134974699" uid="3020814" user="BER319">
    <nd ref="253683737"/>
    <nd ref="166919214"/>
    <tag k="highway" v="tertiary"/>
    <tag k="lane_markings" v="no"/>
    <tag k="lit" v="yes"/>
    <tag k="maxspeed" v="30"/>
    <tag k="name" v="Buchholzer Straße"/>
    <tag k="name:etymology:wikidata" v="Q675015"/>
    <tag k="name:etymology:wikipedia" v="de:Berlin-Französisch Buchholz"/>
    <tag k="note" v="Ergänzungsstraße mit besonderer Bedeutung"/>
    <tag k="postal_code" v="13159"/>
    <tag k="sidewalk" v="no"/>
    <tag k="smoothness" v="good"/>
    <tag k="surface" v="asphalt"/>
  </way>
  <way id="42813669" version="13" timestamp="2024-01-29T13:12:05Z" changeset="146821471" uid="10832640" user="p*b">
    <nd ref="166919214"/>
    <nd ref="2477462892"/>
    <nd ref="2477462883"/>
    <nd ref="11564226340"/>
    <nd ref="253683738"/>
    <nd ref="11371067984"/>
    <nd ref="11371067985"/>
    <nd ref="413336511"/>
    <nd ref="2477462868"/>
    <nd ref="253683739"/>
    <tag k="cycleway:both" v="no"/>
    <tag k="highway" v="tertiary"/>
    <tag k="lane_markings" v="no"/>
    <tag k="lit" v="no"/>
    <tag k="maxspeed" v="30"/>
    <tag k="name" v="Buchholzer Straße"/>
    <tag k="name:etymology:wikidata" v="Q675015"/>
    <tag k="name:etymology:wikipedia" v="de:Berlin-Französisch Buchholz"/>
    <tag k="note" v="Ergänzungsstraße mit besonderer Bedeutung"/>
    <tag k="postal_code" v="13159"/>
    <tag k="sidewalk" v="no"/>
    <tag k="smoothness" v="good"/>
    <tag k="surface" v="asphalt"/>
  </way>
  <way id="58604703" version="7" timestamp="2020-11-26T08:12:32Z" changeset="94822562" uid="10961311" user="StefanHRT">
    <nd ref="195828587"/>
    <nd ref="726149728"/>
    <nd ref="8166983675"/>
    <nd ref="726149832"/>
    <nd ref="6235275953"/>
    <nd ref="195828591"/>
    <tag k="cycleway:both" v="no"/>
    <tag k="highway" v="unclassified"/>
    <tag k="maxspeed" v="30"/>
    <tag k="name" v="Alter Bernauer Heerweg"/>
    <tag k="name:etymology:wikidata" v="Q823166"/>
    <tag k="name:etymology:wikipedia" v="de:Bernauer Heerstraße"/>
    <tag k="postal_code" v="13469"/>
    <tag k="surface" v="unhewn_cobblestone"/>
  </way>
  <way id="58645323" version="11" timestamp="2025-02-11T23:07:22Z" changeset="162410098" uid="44217" user="kjon">
    <nd ref="726624833"/>
    <nd ref="726624835"/>
    <tag k="bicycle" v="no"/>
    <tag k="foot" v="no"/>
    <tag k="highway" v="primary"/>
    <tag k="lanes" v="4"/>
    <tag k="lit" v="yes"/>
    <tag k="maxspeed:type" v="DE:urban"/>
    <tag k="name" v="Blankenfelder Chaussee"/>
    <tag k="name:etymology:wikidata" v="Q702621"/>
    <tag k="name:etymology:wikipedia" v="de:Berlin-Blankenfelde"/>
    <tag k="parking:both" v="no"/>
    <tag k="postal_code" v="13159"/>
    <tag k="smoothness" v="good"/>
    <tag k="surface" v="asphalt"/>
  </way>
  <way id="58645816" version="3" timestamp="2020-12-17T04:53:15Z" changeset="95975093" uid="1468248" user="PantherStrix">
    <nd ref="726632078"/>
    <nd ref="726629195"/>
    <nd ref="254982350"/>
    <nd ref="726632083"/>
    <tag k="access" v="destination"/>
    <tag k="highway" v="unclassified"/>
    <tag k="maxspeed" v="30"/>
    <tag k="name" v="Möllersfelder Weg"/>
    <tag k="name:etymology:wikidata" v="Q104215515"/>
    <tag k="surface" v="unpaved"/>
  </way>
  <way id="58645817" version="5" timestamp="2021-09-12T15:32:21Z" changeset="111100960" uid="14098415" user="Hololli">
    <nd ref="726632083"/>
    <nd ref="254982329"/>
    <tag k="access" v="destination"/>
    <tag k="cycleway:both" v="no"/>
    <tag k="highway" v="unclassified"/>
    <tag k="lane_markings" v="no"/>
    <tag k="maxspeed" v="30"/>
    <tag k="name" v="Möllersfelder Weg"/>
    <tag k="name:etymology:wikidata" v="Q104215515"/>
    <tag k="surface" v="concrete"/>
  </way>
  <way id="58646567" version="5" timestamp="2023-04-22T10:39:28Z" changeset="135223095" uid="3020814" user="BER319">
    <nd ref="166916296"/>
    <nd ref="166959419"/>
    <nd ref="726639898"/>
    <tag k="bicycle" v="yes"/>
    <tag k="highway" v="unclassified"/>
    <tag k="motor_vehicle" v="destination"/>
    <tag k="name" v="Schillingweg"/>
    <tag k="name:etymology:wikidata" v="Q1661494"/>
    <tag k="postal_code" v="13127"/>
    <tag k="smoothness" v="very_bad"/>
    <tag k="surface" v="fine_gravel"/>
    <tag k="traffic_sign" v="DE:260,1022-10,1020-30,1026-36"/>
  </way>
  <way id="58699492" version="5" timestamp="2018-06-30T12:34:45Z" changeset="60301582" uid="7105697" user="_Garrison_">
    <nd ref="2982405018"/>
    <nd ref="2982404984"/>
    <nd ref="2982405002"/>
    <nd ref="2982405010"/>
    <nd ref="2982405012"/>
    <nd ref="2982405053"/>
    <nd ref="2982405018"/>
    <tag k="amenity" v="kindergarten"/>
    <tag k="building" v="yes"/>
    <tag k="name" v="Schwalbennest"/>
    <tag k="source" v="Geoportal Berlin / Hausumringe"/>
  </way>
  <way id="58699493" version="9" timestamp="2023-08-10T01:07:45Z" changeset="139683036" uid="12111703" user="KyL0VV">
    <nd ref="2982405617"/>
    <nd ref="2982405578"/>
    <nd ref="2982405586"/>
    <nd ref="10966444908"/>
    <nd ref="2982405563"/>
    <nd ref="10966444906"/>
    <nd ref="10966444909"/>
    <nd ref="10966444907"/>
    <nd ref="2982405573"/>
    <nd ref="2982405595"/>
    <nd ref="2982405604"/>
    <nd ref="2982405640"/>
    <nd ref="2982405617"/>
    <tag k="amenity" v="place_of_worship"/>
    <tag k="building" v="yes"/>
    <tag k="building:colour" v="#a9b0ac"/>
    <tag k="denomination" v="protestant"/>
    <tag k="name" v="Dorfkirche Blankenfelde"/>
    <tag k="religion" v="christian"/>
    <tag k="roof:colour" v="#ebbf9a"/>
    <tag k="source" v="Geoportal Berlin / Hausumringe"/>
    <tag k="wheelchair" v="limited"/>
    <tag k="wikidata" v="Q1244157"/>
    <tag k="wikipedia" v="de:Dorfkirche Blankenfelde (Berlin)"/>
  </way>
  <way id="58699642" version="10" timestamp="2023-10-03T06:56:09Z" changeset="142083633" uid="61594" user="wauzie">
    <nd ref="2982405104"/>
    <nd ref="2982405068"/>
    <nd ref="2982405103"/>
    <nd ref="2982405105"/>
    <nd ref="2982405109"/>
    <nd ref="2982405339"/>
    <nd ref="2982405336"/>
    <nd ref="2982405345"/>
    <nd ref="2982405104"/>
    <tag k="amenity" v="school"/>
    <tag k="building" v="school"/>
    <tag k="building:colour" v="#a27b76"/>
    <tag k="building:levels" v="2"/>
    <tag k="name" v="Platanen-Grundschule"/>
    <tag k="roof:colour" v="#ed9978"/>
    <tag k="roof:levels" v="1"/>
    <tag k="roof:shape" v="gabled"/>
    <tag k="source" v="Geoportal Berlin / Hausumringe"/>
    <tag k="wheelchair" v="no"/>
  </way>
  <way id="58699648" version="11" timestamp="2024-07-01T16:34:41Z" changeset="153420100" uid="9451067" user="b-jazz-bot">
    <nd ref="2982404973"/>
    <nd ref="2982404955"/>
    <nd ref="2982404947"/>
    <nd ref="2982404934"/>
    <nd ref="2982404968"/>
    <nd ref="2982404988"/>
    <nd ref="2982404973"/>
    <tag k="addr:city" v="Berlin"/>
    <tag k="addr:country" v="DE"/>
    <tag k="addr:housenumber" v="14"/>
    <tag k="addr:postcode" v="13159"/>
    <tag k="addr:street" v="Hauptstraße"/>
    <tag k="addr:suburb" v="Blankenfelde"/>
    <tag k="amenity" v="fire_station"/>
    <tag k="building" v="yes"/>
    <tag k="email" v="info@ff-blankenfelde.de"/>
    <tag k="fax" v="+4930 47470006"/>
    <tag k="name" v="Freiwillige Feuerwehr Blankenfelde"/>
    <tag k="phone" v="+4930 47470006"/>
    <tag k="ref" v="2630"/>
    <tag k="source" v="Geoportal Berlin / Hausumringe"/>
    <tag k="website" v="https://www.ff-blankenfelde.de/"/>
    <tag k="wikidata" v="Q107538351"/>
  </way>
  <way id="59207905" version="8" timestamp="2024-10-26T10:53:16Z" changeset="158371304" uid="10961311" user="StefanHRT">
    <nd ref="294945192"/>
    <nd ref="12289916052"/>
    <nd ref="294945193"/>
    <nd ref="322489319"/>
    <nd ref="294945213"/>
    <nd ref="294945194"/>
    <nd ref="294945214"/>
    <nd ref="294945195"/>
    <nd ref="294945212"/>
    <nd ref="294945196"/>
    <nd ref="294945207"/>
    <nd ref="294945197"/>
    <nd ref="253683737"/>
    <tag k="cycleway:both" v="no"/>
    <tag k="highway" v="unclassified"/>
    <tag k="lane_markings" v="no"/>
    <tag k="lit" v="yes"/>
    <tag k="maxspeed" v="30"/>
    <tag k="name" v="Kapellenweg"/>
    <tag k="name:etymology:wikidata" v="Q1434274"/>
    <tag k="name:etymology:wikipedia" v="de:Flurname"/>
    <tag k="postal_code" v="13159"/>
    <tag k="sidewalk" v="no"/>
    <tag k="smoothness" v="good"/>
    <tag k="surface" v="asphalt"/>
  </way>
  <way id="82452855" version="10" timestamp="2025-02-11T23:07:22Z" changeset="162410098" uid="44217" user="kjon">
    <nd ref="30822847"/>
    <nd ref="30821366"/>
    <tag k="cycleway:both" v="no"/>
    <tag k="foot" v="use_sidepath"/>
    <tag k="highway" v="tertiary"/>
    <tag k="lane_markings" v="no"/>
    <tag k="lit" v="yes"/>
    <tag k="maxspeed" v="30"/>
    <tag k="name" v="Hauptstraße"/>
    <tag k="name:etymology:wikidata" v="Q1006835"/>
    <tag k="name:etymology:wikipedia" v="de:Hauptstraße (allgemein)"/>
    <tag k="note" v="Übergeordnete Straße, Stufe II"/>
    <tag k="parking:both" v="no"/>
    <tag k="postal_code" v="13159"/>
    <tag k="sidewalk:both" v="separate"/>
    <tag k="smoothness" v="good"/>
    <tag k="surface" v="asphalt"/>
  </way>
  <way id="82452858" version="16" timestamp="2022-05-23T06:51:15Z" changeset="121349665" uid="4020938" user="eultra">
    <nd ref="9443093239"/>
    <nd ref="9443093267"/>
    <nd ref="8242031181"/>
    <nd ref="255697915"/>
    <nd ref="343510195"/>
    <nd ref="339201541"/>
    <nd ref="9443093227"/>
    <nd ref="9443093226"/>
    <tag k="highway" v="unclassified"/>
    <tag k="maxspeed" v="30"/>
    <tag k="name" v="Hauptstraße"/>
    <tag k="name:etymology:wikidata" v="Q1006835"/>
    <tag k="name:etymology:wikipedia" v="de:Hauptstraße (allgemein)"/>
    <tag k="postal_code" v="13159"/>
    <tag k="sidewalk:right" v="separate"/>
    <tag k="surface" v="asphalt"/>
  </way>
  <way id="85652915" version="10" timestamp="2022-04-16T20:05:09Z" changeset="119797262" uid="13203" user="bahnpirat">
    <nd ref="993743588"/>
    <nd ref="993743589"/>
    <nd ref="993743590"/>
    <nd ref="993743592"/>
    <nd ref="993743588"/>
    <tag k="addr:street" v="Rosenthaler Weg"/>
    <tag k="building" v="electricity"/>
    <tag k="name" v="Gleichrichterwerk 307 Rosenthaler Weg"/>
    <tag k="operator" v="Berliner Verkehrsbetriebe"/>
    <tag k="operator:wikidata" v="Q99633"/>
    <tag k="operator:wikipedia" v="de:Berliner Verkehrsbetriebe"/>
    <tag k="power" v="substation"/>
    <tag k="railway:electricity:ref" v="307"/>
    <tag k="ref" v="307"/>
    <tag k="substation" v="traction"/>
    <tag k="voltage:primary" v="10000"/>
    <tag k="voltage:secondary" v="600"/>
  </way>
  <way id="127191774" version="9" timestamp="2022-05-31T16:13:11Z" changeset="121775455" uid="6811035" user="SteMue">
    <nd ref="414217024"/>
    <nd ref="292131975"/>
    <tag k="cycleway:both" v="no"/>
    <tag k="highway" v="tertiary"/>
    <tag k="lane_markings" v="no"/>
    <tag k="lit" v="yes"/>
    <tag k="maxspeed" v="30"/>
    <tag k="name" v="Hauptstraße"/>
    <tag k="name:etymology:wikidata" v="Q1006835"/>
    <tag k="name:etymology:wikipedia" v="de:Hauptstraße (allgemein)"/>
    <tag k="note" v="Ergänzungsstraße mit besonderer Bedeutung"/>
    <tag k="postal_code" v="13159"/>
    <tag k="sidewalk" v="both"/>
    <tag k="sidewalk:both:surface" v="paving_stones"/>
    <tag k="smoothness" v="excellent"/>
    <tag k="surface" v="asphalt"/>
  </way>
  <way id="127191777" version="17" timestamp="2022-08-07T15:16:01Z" changeset="124601701" uid="2491880" user="öreg">
    <nd ref="292131975"/>
    <nd ref="5730363690"/>
    <nd ref="3504433141"/>
    <nd ref="9442962610"/>
    <nd ref="5730362793"/>
    <nd ref="5835766852"/>
    <nd ref="5730325463"/>
    <nd ref="30821366"/>
    <tag k="cycleway:both" v="no"/>
    <tag k="highway" v="tertiary"/>
    <tag k="lanes" v="1"/>
    <tag k="lit" v="yes"/>
    <tag k="maxspeed" v="30"/>
    <tag k="name" v="Hauptstraße"/>
    <tag k="name:etymology:wikidata" v="Q1006835"/>
    <tag k="name:etymology:wikipedia" v="de:Hauptstraße (allgemein)"/>
    <tag k="note" v="Ergänzungsstraße mit besonderer Bedeutung"/>
    <tag k="oneway" v="no"/>
    <tag k="postal_code" v="13159"/>
    <tag k="sidewalk" v="both"/>
    <tag k="sidewalk:both:surface" v="paving_stones"/>
    <tag k="smoothness" v="excellent"/>
    <tag k="surface" v="asphalt"/>
  </way>
  <way id="132049272" version="11" timestamp="2023-01-14T08:44:43Z" changeset="131255815" uid="9508237" user="momabebra">
    <nd ref="1453009086"/>
    <nd ref="6908415043"/>
    <nd ref="7496982219"/>
    <nd ref="8982905151"/>
    <tag k="cycleway:both" v="no"/>
    <tag k="hgv" v="destination"/>
    <tag k="highway" v="residential"/>
    <tag k="lanes" v="1"/>
    <tag k="lit" v="yes"/>
    <tag k="maxspeed" v="30"/>
    <tag k="maxweight" v="7.5 t"/>
    <tag k="name" v="Schildower Straße"/>
    <tag k="name:etymology:wikidata" v="Q55726050"/>
    <tag k="name:etymology:wikipedia" v="de:Schildow"/>
    <tag k="oneway" v="no"/>
    <tag k="postal_code" v="13159"/>
    <tag k="sidewalk" v="right"/>
    <tag k="surface" v="asphalt"/>
  </way>
  <way id="145671810" version="8" timestamp="2020-12-17T04:53:15Z" changeset="95975093" uid="1468248" user="PantherStrix">
    <nd ref="202112038"/>
    <nd ref="7129286351"/>
    <nd ref="7129286352"/>
    <nd ref="7129286353"/>
    <tag k="highway" v="residential"/>
    <tag k="lit" v="yes"/>
    <tag k="maxspeed" v="10"/>
    <tag k="name" v="Fliederblütenweg"/>
    <tag k="name:etymology:wikidata" v="Q157449"/>
    <tag k="name:etymology:wikipedia" v="de:Flieder"/>
    <tag k="postal_code" v="13127"/>
    <tag k="sidewalk" v="no"/>
    <tag k="smoothness" v="bad"/>
    <tag k="surface" v="gravel"/>
  </way>
  <way id="146621091" version="12" timestamp="2023-09-06T10:41:38Z" changeset="140888867" uid="11963177" user="JeroenvanderGun">
    <nd ref="1598889800"/>
    <nd ref="1598889794"/>
    <tag k="destination:backward" v="Schönerlinder Str.;Buchholz;Wandlitz"/>
    <tag k="destination:forward" v="Zentrum;Prenzlauer Berg"/>
    <tag k="destination:ref" v="A 114"/>
    <tag k="embankment" v="yes"/>
    <tag k="highway" v="motorway_link"/>
    <tag k="lanes" v="2"/>
    <tag k="lanes:backward" v="1"/>
    <tag k="lanes:forward" v="1"/>
    <tag k="lit" v="no"/>
    <tag k="maxspeed" v="50"/>
    <tag k="oneway" v="no"/>
    <tag k="surface" v="asphalt"/>
    <tag k="urban" v="yes"/>
  </way>
  <way id="146621092" version="13" timestamp="2023-09-06T10:41:38Z" changeset="140888867" uid="11963177" user="JeroenvanderGun">
    <nd ref="1598889796"/>
    <nd ref="1598889811"/>
    <nd ref="1598889798"/>
    <nd ref="1598889800"/>
    <tag k="destination:backward" v="Schönerlinder Str.;Buchholz;Wandlitz"/>
    <tag k="destination:forward" v="Zentrum;Prenzlauer Berg"/>
    <tag k="destination:ref" v="A 114"/>
    <tag k="embankment" v="yes"/>
    <tag k="highway" v="motorway_link"/>
    <tag k="lanes" v="2"/>
    <tag k="lit" v="no"/>
    <tag k="maxspeed" v="50"/>
    <tag k="oneway" v="no"/>
    <tag k="surface" v="asphalt"/>
    <tag k="urban" v="yes"/>
  </way>
  <way id="146621277" version="12" timestamp="2023-09-06T10:41:38Z" changeset="140888867" uid="11963177" user="JeroenvanderGun">
    <nd ref="1598889794"/>
    <nd ref="1598895360"/>
    <nd ref="2960684078"/>
    <nd ref="1598895361"/>
    <nd ref="1598895353"/>
    <nd ref="2960696372"/>
    <nd ref="1598895362"/>
    <nd ref="2960692475"/>
    <nd ref="1598895356"/>
    <nd ref="2960694283"/>
    <nd ref="1598895364"/>
    <nd ref="2960695976"/>
    <nd ref="1598895358"/>
    <nd ref="1598895363"/>
    <nd ref="1598895366"/>
    <nd ref="1598895359"/>
    <nd ref="2960695292"/>
    <nd ref="1598895365"/>
    <nd ref="2960695671"/>
    <nd ref="1598895355"/>
    <nd ref="2960693872"/>
    <tag k="destination" v="Zentrum;Prenzlauer Berg"/>
    <tag k="destination:ref" v="A 114"/>
    <tag k="highway" v="motorway_link"/>
    <tag k="lanes" v="1"/>
    <tag k="maxspeed" v="40"/>
    <tag k="oneway" v="yes"/>
    <tag k="urban" v="yes"/>
  </way>
  <way id="146621732" version="15" timestamp="2023-09-06T10:41:38Z" changeset="140888867" uid="11963177" user="JeroenvanderGun">
    <nd ref="1598900439"/>
    <nd ref="1598900454"/>
    <nd ref="1598900437"/>
    <nd ref="1598900457"/>
    <nd ref="2960694282"/>
    <nd ref="1598900448"/>
    <nd ref="2960696371"/>
    <nd ref="1598900456"/>
    <nd ref="1598889794"/>
    <tag k="destination" v="Schönerlinder Str.;Buchholz;Wandlitz"/>
    <tag k="destination:ref" v="B 109"/>
    <tag k="embankment" v="yes"/>
    <tag k="highway" v="motorway_link"/>
    <tag k="lanes" v="1"/>
    <tag k="lit" v="no"/>
    <tag k="maxspeed" v="50"/>
    <tag k="oneway" v="yes"/>
    <tag k="urban" v="yes"/>
  </way>
  <way id="146623256" version="6" timestamp="2023-09-06T10:31:38Z" changeset="140888535" uid="11963177" user="JeroenvanderGun">
    <nd ref="27088120"/>
    <nd ref="1598911519"/>
    <nd ref="1598911524"/>
    <nd ref="1598911523"/>
    <nd ref="1598911521"/>
    <nd ref="2025233465"/>
    <nd ref="2025233462"/>
    <nd ref="12696810"/>
    <tag k="highway" v="motorway"/>
    <tag k="lanes" v="2"/>
    <tag k="lit" v="no"/>
    <tag k="maxspeed" v="100"/>
    <tag k="oneway" v="yes"/>
    <tag k="ref" v="A 114"/>
    <tag k="smoothness" v="intermediate"/>
    <tag k="surface" v="asphalt"/>
    <tag k="urban" v="yes"/>
  </way>
  <way id="146623259" version="4" timestamp="2023-09-06T10:31:38Z" changeset="140888535" uid="11963177" user="JeroenvanderGun">
    <nd ref="27088118"/>
    <nd ref="27088120"/>
    <tag k="bridge" v="yes"/>
    <tag k="highway" v="motorway"/>
    <tag k="lanes" v="2"/>
    <tag k="layer" v="1"/>
    <tag k="lit" v="no"/>
    <tag k="maxspeed" v="60"/>
    <tag k="note" v="reduzierte Geschwindigkeit wegen Baustelle"/>
    <tag k="oneway" v="yes"/>
    <tag k="ref" v="A 114"/>
    <tag k="urban" v="yes"/>
  </way>
  <way id="161070032" version="16" timestamp="2023-11-23T14:49:20Z" changeset="144372995" uid="10961311" user="StefanHRT">
    <nd ref="3997258768"/>
    <nd ref="662248867"/>
    <nd ref="253682999"/>
    <nd ref="10973335577"/>
    <nd ref="10973349912"/>
    <nd ref="10973335576"/>
    <tag k="bicycle" v="optional_sidepath"/>
    <tag k="cycleway:both" v="separate"/>
    <tag k="foot" v="use_sidepath"/>
    <tag k="highway" v="tertiary"/>
    <tag k="lanes" v="2"/>
    <tag k="lit" v="yes"/>
    <tag k="maxspeed" v="50"/>
    <tag k="name" v="Blankenfelder Straße"/>
    <tag k="name:etymology:wikidata" v="Q702621"/>
    <tag k="postal_code" v="13127"/>
    <tag k="sidewalk:both" v="separate"/>
    <tag k="smoothness" v="good"/>
    <tag k="surface" v="asphalt"/>
    <tag k="wikidata" v="Q93445066"/>
  </way>
  <way id="165356204" version="17" timestamp="2025-02-11T23:07:22Z" changeset="162410098" uid="44217" user="kjon">
    <nd ref="726624833"/>
    <nd ref="1452982717"/>
    <nd ref="3997497597"/>
    <nd ref="5750222698"/>
    <tag k="bicycle" v="use_sidepath"/>
    <tag k="cycleway:left" v="no"/>
    <tag k="cycleway:right" v="separate"/>
    <tag k="foot" v="use_sidepath"/>
    <tag k="highway" v="primary"/>
    <tag k="lanes" v="2"/>
    <tag k="lit" v="yes"/>
    <tag k="maxspeed" v="50"/>
    <tag k="name" v="Blankenfelder Chaussee"/>
    <tag k="name:etymology:wikidata" v="Q702621"/>
    <tag k="name:etymology:wikipedia" v="de:Berlin-Blankenfelde"/>
    <tag k="oneway" v="yes"/>
    <tag k="parking:left" v="no"/>
    <tag k="postal_code" v="13159"/>
    <tag k="ref" v="B 96a"/>
    <tag k="sidewalk:left" v="no"/>
    <tag k="sidewalk:right" v="separate"/>
    <tag k="smoothness" v="good"/>
    <tag k="surface" v="asphalt"/>
  </way>
  <way id="165356205" version="16" timestamp="2025-02-11T23:07:22Z" changeset="162410098" uid="44217" user="kjon">
    <nd ref="30822897"/>
    <nd ref="9010533681"/>
    <nd ref="30822899"/>
    <nd ref="9010533678"/>
    <nd ref="9010533677"/>
    <nd ref="30822900"/>
    <nd ref="412259063"/>
    <nd ref="389087775"/>
    <nd ref="8378778396"/>
    <nd ref="4306113569"/>
    <nd ref="2338749852"/>
    <nd ref="726624833"/>
    <tag k="bicycle" v="use_sidepath"/>
    <tag k="cycleway:left" v="no"/>
    <tag k="cycleway:right" v="separate"/>
    <tag k="foot" v="use_sidepath"/>
    <tag k="highway" v="primary"/>
    <tag k="lanes" v="2"/>
    <tag k="lit" v="yes"/>
    <tag k="maxspeed" v="70"/>
    <tag k="name" v="Blankenfelder Chaussee"/>
    <tag k="name:etymology:wikidata" v="Q702621"/>
    <tag k="name:etymology:wikipedia" v="de:Berlin-Blankenfelde"/>
    <tag k="oneway" v="yes"/>
    <tag k="parking:left" v="no"/>
    <tag k="postal_code" v="13159"/>
    <tag k="ref" v="B 96a"/>
    <tag k="shoulder" v="no"/>
    <tag k="sidewalk:left" v="no"/>
    <tag k="sidewalk:right" v="separate"/>
    <tag k="smoothness" v="good"/>
    <tag k="surface" v="asphalt"/>
  </way>
  <way id="175590191" version="6" timestamp="2023-09-06T10:31:38Z" changeset="140888535" uid="11963177" user="JeroenvanderGun">
    <nd ref="1594524792"/>
    <nd ref="1599680680"/>
    <nd ref="1599680726"/>
    <nd ref="2960695578"/>
    <nd ref="1599680713"/>
    <nd ref="1599680718"/>
    <nd ref="1599680701"/>
    <nd ref="1599680685"/>
    <nd ref="1599680756"/>
    <nd ref="1599680703"/>
    <nd ref="1599680674"/>
    <nd ref="1599680723"/>
    <nd ref="27088121"/>
    <tag k="highway" v="motorway"/>
    <tag k="lanes" v="2"/>
    <tag k="lit" v="no"/>
    <tag k="maxspeed" v="100"/>
    <tag k="oneway" v="yes"/>
    <tag k="ref" v="A 114"/>
    <tag k="smoothness" v="intermediate"/>
    <tag k="surface" v="asphalt"/>
    <tag k="urban" v="yes"/>
  </way>
  <way id="176869742" version="22" timestamp="2025-02-11T23:07:22Z" changeset="162410098" uid="44217" user="kjon">
    <nd ref="1821463209"/>
    <nd ref="9853092092"/>
    <nd ref="662249119"/>
    <nd ref="7129286366"/>
    <nd ref="7129286363"/>
    <tag k="cycleway:left" v="no"/>
    <tag k="cycleway:right" v="lane"/>
    <tag k="cycleway:right:lane" v="exclusive"/>
    <tag k="foot" v="use_sidepath"/>
    <tag k="highway" v="secondary"/>
    <tag k="lane_markings" v="no"/>
    <tag k="lit" v="yes"/>
    <tag k="maxspeed" v="30"/>
    <tag k="name" v="Rosenthaler Weg"/>
    <tag k="name:etymology:wikidata" v="Q693521"/>
    <tag k="oneway" v="yes"/>
    <tag k="parking:both" v="no"/>
    <tag k="postal_code" v="13127"/>
    <tag k="sidewalk:left" v="no"/>
    <tag k="sidewalk:right" v="separate"/>
    <tag k="smoothness" v="good"/>
    <tag k="surface" v="asphalt"/>
    <tag k="wikidata" v="Q67657932"/>
  </way>
  <way id="191253606" version="13" timestamp="2024-09-27T20:08:54Z" changeset="157187031" uid="44217" user="kjon">
    <nd ref="656477422"/>
    <nd ref="2982404702"/>
    <nd ref="292131978"/>
    <tag k="cycleway:both" v="no"/>
    <tag k="highway" v="tertiary"/>
    <tag k="lane_markings" v="no"/>
    <tag k="lit" v="yes"/>
    <tag k="maxspeed" v="50"/>
    <tag k="name" v="Berliner Straße"/>
    <tag k="name:etymology:wikidata" v="Q64"/>
    <tag k="name:etymology:wikipedia" v="de:Berlin"/>
    <tag k="note" v="Ergänzungsstraße mit besonderer Bedeutung"/>
    <tag k="postal_code" v="13159"/>
    <tag k="sidewalk" v="no"/>
    <tag k="smoothness" v="excellent"/>
    <tag k="surface" v="asphalt"/>
  </way>
  <way id="200977031" version="10" timestamp="2024-01-31T08:29:26Z" changeset="146893082" uid="19550286" user="MoriGM">
    <nd ref="413336510"/>
    <nd ref="253683739"/>
    <tag k="cycleway:both" v="no"/>
    <tag k="highway" v="tertiary"/>
    <tag k="lane_markings" v="no"/>
    <tag k="lit" v="yes"/>
    <tag k="maxspeed" v="30"/>
    <tag k="name" v="Blankenfelder Straße"/>
    <tag k="name:etymology:wikidata" v="Q702621"/>
    <tag k="postal_code" v="13127"/>
    <tag k="sidewalk" v="no"/>
    <tag k="smoothness" v="good"/>
    <tag k="surface" v="asphalt"/>
    <tag k="wikidata" v="Q93445066"/>
  </way>
  <way id="207812957" version="4" timestamp="2018-02-07T10:03:22Z" changeset="56143927" uid="66391" user="geozeisig">
    <nd ref="2180615434"/>
    <nd ref="2180615424"/>
    <nd ref="2180615436"/>
    <nd ref="2180615445"/>
    <nd ref="2180615434"/>
    <tag k="building" v="riding_hall"/>
    <tag k="name" v="Reithalle"/>
    <tag k="source" v="Geoportal Berlin / DOP 2014"/>
    <tag k="sport" v="equestrian"/>
  </way>
  <way id="217633814" version="3" timestamp="2017-04-25T20:24:03Z" changeset="48141155" uid="799014" user="hdy3er">
    <nd ref="3145509729"/>
    <nd ref="3145509627"/>
    <nd ref="3145509529"/>
    <nd ref="3145509636"/>
    <nd ref="3145509663"/>
    <nd ref="3145509686"/>
    <nd ref="3145461921"/>
    <nd ref="3145509704"/>
    <nd ref="3145509680"/>
    <nd ref="3145509729"/>
    <tag k="amenity" v="restaurant"/>
    <tag k="building" v="yes"/>
    <tag k="building:levels" v="1"/>
    <tag k="name" v="Waldeck"/>
  </way>
  <way id="225049426" version="5" timestamp="2022-10-15T23:09:25Z" changeset="127592780" uid="660273" user="a_d_s">
    <nd ref="2338749635"/>
    <nd ref="2338749637"/>
    <nd ref="2338749627"/>
    <nd ref="2338749624"/>
    <nd ref="10104457797"/>
    <nd ref="2338749635"/>
    <tag k="building" v="shed"/>
    <tag k="name" v="Imkerhaus"/>
  </way>
  <way id="225049430" version="5" timestamp="2022-06-22T07:34:19Z" changeset="122697769" uid="1497225" user="kartonage">
    <nd ref="2338749696"/>
    <nd ref="2338749690"/>
    <nd ref="2338749699"/>
    <nd ref="2338749701"/>
    <nd ref="2338749696"/>
    <tag k="building" v="farm_auxiliary"/>
    <tag k="building:levels" v="1"/>
    <tag k="name" v="Parkbüro im Inspektorenhaus"/>
    <tag k="roof:levels" v="1"/>
  </way>
  <way id="231449333" version="8" timestamp="2023-06-11T20:24:39Z" changeset="137218890" uid="467783" user="philopsil">
    <nd ref="195870468"/>
    <nd ref="10107566451"/>
    <nd ref="310270232"/>
    <nd ref="195870474"/>
    <nd ref="195870478"/>
    <nd ref="195870482"/>
    <nd ref="195870486"/>
    <nd ref="195870489"/>
    <nd ref="195870493"/>
    <nd ref="9853807159"/>
    <nd ref="6140564504"/>
    <tag k="cycleway:both" v="no"/>
    <tag k="highway" v="residential"/>
    <tag k="maxspeed" v="30"/>
    <tag k="name" v="Birnbaumring"/>
    <tag k="name:etymology:wikidata" v="Q434"/>
    <tag k="name:etymology:wikipedia" v="de:Birnen"/>
    <tag k="postal_code" v="13159"/>
    <tag k="smoothness" v="good"/>
    <tag k="surface" v="asphalt"/>
    <tag k="zone:maxspeed" v="DE:30"/>
  </way>
  <way id="231449334" version="13" timestamp="2024-02-11T12:54:20Z" changeset="147326690" uid="19550286" user="MoriGM">
    <nd ref="30822859"/>
    <nd ref="9442966951"/>
    <nd ref="8168029678"/>
    <nd ref="8167312840"/>
    <nd ref="8168029676"/>
    <nd ref="8168029673"/>
    <nd ref="8168029674"/>
    <nd ref="8378778349"/>
    <nd ref="30822858"/>
    <tag k="bicycle" v="use_sidepath"/>
    <tag k="cycleway:both" v="separate"/>
    <tag k="foot" v="use_sidepath"/>
    <tag k="highway" v="primary"/>
    <tag k="lanes" v="2"/>
    <tag k="lit" v="yes"/>
    <tag k="maxspeed" v="50"/>
    <tag k="name" v="Schildower Straße"/>
    <tag k="name:etymology:wikidata" v="Q55726050"/>
    <tag k="name:etymology:wikipedia" v="de:Schildow"/>
    <tag k="postal_code" v="13159"/>
    <tag k="ref" v="B 96a"/>
    <tag k="sidewalk:both" v="separate"/>
    <tag k="smoothness" v="good"/>
    <tag k="surface" v="asphalt"/>
  </way>
  <way id="231449335" version="13" timestamp="2024-02-11T12:54:24Z" changeset="147326678" uid="19550286" user="MoriGM">
    <nd ref="30822858"/>
    <nd ref="8168029681"/>
    <nd ref="8168029680"/>
    <nd ref="8168029679"/>
    <nd ref="4306113537"/>
    <nd ref="254961034"/>
    <nd ref="9442966935"/>
    <nd ref="4306113536"/>
    <nd ref="254982485"/>
    <tag k="bicycle" v="use_sidepath"/>
    <tag k="cycleway:both" v="separate"/>
    <tag k="foot" v="use_sidepath"/>
    <tag k="highway" v="primary"/>
    <tag k="lanes" v="2"/>
    <tag k="lit" v="yes"/>
    <tag k="maxspeed" v="50"/>
    <tag k="name" v="Schildower Straße"/>
    <tag k="name:etymology:wikidata" v="Q55726050"/>
    <tag k="name:etymology:wikipedia" v="de:Schildow"/>
    <tag k="oneway" v="no"/>
    <tag k="postal_code" v="13159"/>
    <tag k="ref" v="B 96a"/>
    <tag k="sidewalk:both" v="separate"/>
    <tag k="smoothness" v="good"/>
    <tag k="surface" v="asphalt"/>
  </way>
  <way id="231449338" version="6" timestamp="2022-06-29T07:32:39Z" changeset="122987742" uid="10961311" user="StefanHRT">
    <nd ref="195870468"/>
    <nd ref="195870555"/>
    <nd ref="9443138394"/>
    <tag k="cycleway:both" v="no"/>
    <tag k="highway" v="residential"/>
    <tag k="maxspeed" v="30"/>
    <tag k="name" v="Kartoffelsteig"/>
    <tag k="name:etymology:wikidata" v="Q10998"/>
    <tag k="name:etymology:wikipedia" v="de:Kartoffel"/>
    <tag k="postal_code" v="13159"/>
    <tag k="surface" v="asphalt"/>
    <tag k="zone:maxspeed" v="DE:30"/>
  </way>
  <way id="251977498" version="7" timestamp="2023-04-22T10:19:58Z" changeset="135222634" uid="3020814" user="BER319">
    <nd ref="2581112757"/>
    <nd ref="254982329"/>
    <tag k="cycleway:both" v="no"/>
    <tag k="highway" v="unclassified"/>
    <tag k="lane_markings" v="no"/>
    <tag k="maxspeed" v="30"/>
    <tag k="motor_vehicle" v="destination"/>
    <tag k="name" v="Möllersfelder Weg"/>
    <tag k="sidewalk:left" v="separate"/>
    <tag k="sidewalk:right" v="no"/>
    <tag k="smoothness" v="good"/>
    <tag k="surface" v="concrete"/>
  </way>
  <way id="292837509" version="2" timestamp="2023-04-16T13:58:58Z" changeset="134976428" uid="10961311" user="StefanHRT">
    <nd ref="2963981007"/>
    <nd ref="2963980995"/>
    <nd ref="2963980986"/>
    <nd ref="2963981000"/>
    <nd ref="2963981007"/>
    <tag k="addr:city" v="Berlin"/>
    <tag k="addr:country" v="DE"/>
    <tag k="addr:housenumber" v="111"/>
    <tag k="addr:postcode" v="13127"/>
    <tag k="addr:street" v="Schillingweg"/>
    <tag k="addr:suburb" v="Französisch Buchholz"/>
    <tag k="building" v="yes"/>
    <tag k="source" v="Geoportal Berlin / Hauskoordinaten"/>
  </way>
  <way id="294648298" version="3" timestamp="2017-10-15T06:31:07Z" changeset="52946739" uid="66391" user="geozeisig">
    <nd ref="2982405966"/>
    <nd ref="2982406051"/>
    <nd ref="2982406033"/>
    <nd ref="2982405979"/>
    <nd ref="2982405967"/>
    <nd ref="2982405774"/>
    <nd ref="2982405794"/>
    <nd ref="2982405795"/>
    <nd ref="2982405831"/>
    <nd ref="2982406021"/>
    <nd ref="2982405966"/>
    <tag k="building" v="yes"/>
    <tag k="leisure" v="sports_centre"/>
    <tag k="name" v="Reithalle"/>
    <tag k="sport" v="equestrian"/>
  </way>
  <way id="294648344" version="2" timestamp="2021-03-29T07:02:16Z" changeset="101902327" uid="66391" user="geozeisig">
    <nd ref="2982406277"/>
    <nd ref="2982406266"/>
    <nd ref="2982406278"/>
    <nd ref="2907894408"/>
    <nd ref="2982406277"/>
    <tag k="addr:city" v="Berlin"/>
    <tag k="addr:housenumber" v="49"/>
    <tag k="addr:postcode" v="13159"/>
    <tag k="addr:street" v="Hauptstraße"/>
    <tag k="addr:suburb" v="Blankenfelde"/>
    <tag k="building" v="yes"/>
    <tag k="source" v="Geoportal Berlin / Hauskoordinaten"/>
  </way>
  <way id="309223997" version="2" timestamp="2018-04-08T17:44:43Z" changeset="57918953" uid="27954" user="henna">
    <nd ref="3145518004"/>
    <nd ref="3145517893"/>
    <nd ref="3145517878"/>
    <nd ref="3145517811"/>
    <nd ref="3145517825"/>
    <nd ref="3145517650"/>
    <nd ref="3145517696"/>
    <nd ref="3145517970"/>
    <nd ref="3145517997"/>
    <nd ref="3145518185"/>
    <nd ref="3145518004"/>
    <tag k="addr:city" v="Berlin"/>
    <tag k="addr:country" v="DE"/>
    <tag k="addr:housenumber" v="30"/>
    <tag k="addr:postcode" v="13159"/>
    <tag k="addr:street" v="Schildower Straße"/>
    <tag k="addr:suburb" v="Blankenfelde"/>
    <tag k="building" v="yes"/>
    <tag k="craft" v="plumber"/>
    <tag k="email" v="ohl@pumpenohl.de"/>
    <tag k="fax" v="+49 30 91244936"/>
    <tag k="name" v="Pumpen Ohl"/>
    <tag k="phone" v="+49 30 9121120"/>
    <tag k="website" v="http://www.pumpenohl.privat.t-online.de/Willkommen.html"/>
  </way>
  <way id="309276890" version="4" timestamp="2020-08-24T14:49:56Z" changeset="89864733" uid="1940221" user="28MzXP5-_uXH">
    <nd ref="3146161352"/>
    <nd ref="3146161121"/>
    <nd ref="3146161331"/>
    <nd ref="6924831828"/>
    <nd ref="3146161359"/>
    <nd ref="3146161352"/>
    <tag k="building" v="farm_auxiliary"/>
    <tag k="building:levels" v="1"/>
    <tag k="name" v="Bienenhaus"/>
    <tag k="source" v="Geoportal Berlin / Hausumringe"/>
  </way>
  <way id="309277493" version="3" timestamp="2022-09-23T19:03:31Z" changeset="126560590" uid="4587682" user="Fluegelschwinger">
    <nd ref="3146161417"/>
    <nd ref="3146161380"/>
    <nd ref="3146161403"/>
    <nd ref="3146161834"/>
    <nd ref="3146161417"/>
    <tag k="building" v="shed"/>
    <tag k="name" v="Holzbaracke"/>
    <tag k="source" v="Geoportal Berlin / Hausumringe"/>
  </way>
  <way id="312937317" version="6" timestamp="2024-08-07T19:08:14Z" changeset="154950246" uid="2274818" user="Benjilein">
    <nd ref="3188561540"/>
    <nd ref="3188561544"/>
    <tag k="bridge" v="yes"/>
    <tag k="cycleway:both" v="no"/>
    <tag k="highway" v="unclassified"/>
    <tag k="lane_markings" v="no"/>
    <tag k="layer" v="1"/>
    <tag k="lit" v="no"/>
    <tag k="maxspeed" v="30"/>
    <tag k="maxweight:signed" v="no"/>
    <tag k="name" v="Straße nach Arkenberge"/>
    <tag k="name:etymology:wikidata" v="Q821038"/>
    <tag k="name:etymology:wikipedia" v="de:Berlin-Arkenberge"/>
    <tag k="sidewalk:both" v="no"/>
    <tag k="smoothness" v="intermediate"/>
    <tag k="source:width" v="ARCore"/>
    <tag k="surface" v="concrete"/>
    <tag k="width" v="6.2"/>
  </way>
  <way id="328775094" version="2" timestamp="2021-03-18T16:28:02Z" changeset="101274095" uid="66391" user="geozeisig">
    <nd ref="3356022946"/>
    <nd ref="3356022558"/>
    <nd ref="3356022573"/>
    <nd ref="2907889939"/>
    <nd ref="3356022946"/>
    <tag k="addr:city" v="Berlin"/>
    <tag k="addr:housenumber" v="17"/>
    <tag k="addr:postcode" v="13159"/>
    <tag k="addr:street" v="Argonnenweg"/>
    <tag k="addr:suburb" v="Blankenfelde"/>
    <tag k="building" v="house"/>
    <tag k="source" v="Geoportal Berlin / Hauskoordinaten"/>
  </way>
  <way id="328775097" version="2" timestamp="2021-03-18T16:28:02Z" changeset="101274095" uid="66391" user="geozeisig">
    <nd ref="2907894434"/>
    <nd ref="3356022296"/>
    <nd ref="3356022313"/>
    <nd ref="3356022362"/>
    <nd ref="2907894434"/>
    <tag k="addr:city" v="Berlin"/>
    <tag k="addr:housenumber" v="5"/>
    <tag k="addr:postcode" v="13159"/>
    <tag k="addr:street" v="Normandieweg"/>
    <tag k="addr:suburb" v="Blankenfelde"/>
    <tag k="building" v="house"/>
    <tag k="source" v="Geoportal Berlin / Hauskoordinaten"/>
  </way>
  <way id="328775272" version="2" timestamp="2023-08-29T08:45:03Z" changeset="140529271" uid="66391" user="geozeisig">
    <nd ref="3356023530"/>
    <nd ref="2907888463"/>
    <nd ref="3356021965"/>
    <nd ref="3356023542"/>
    <nd ref="3356023530"/>
    <tag k="addr:city" v="Berlin"/>
    <tag k="addr:country" v="DE"/>
    <tag k="addr:housenumber" v="10"/>
    <tag k="addr:postcode" v="13159"/>
    <tag k="addr:street" v="Champagneweg"/>
    <tag k="addr:suburb" v="Blankenfelde"/>
    <tag k="building" v="house"/>
    <tag k="source" v="Geoportal Berlin / Hauskoordinaten"/>
  </way>
  <way id="328775445" version="2" timestamp="2023-08-29T08:45:03Z" changeset="140529271" uid="66391" user="geozeisig">
    <nd ref="3356022018"/>
    <nd ref="3356021702"/>
    <nd ref="3356021722"/>
    <nd ref="2907888491"/>
    <nd ref="11152477488"/>
    <nd ref="3356022049"/>
    <nd ref="3356022018"/>
    <tag k="addr:city" v="Berlin"/>
    <tag k="addr:country" v="DE"/>
    <tag k="addr:housenumber" v="11"/>
    <tag k="addr:postcode" v="13159"/>
    <tag k="addr:street" v="Bretagneweg"/>
    <tag k="addr:suburb" v="Blankenfelde"/>
    <tag k="building" v="house"/>
    <tag k="source" v="Geoportal Berlin / Hauskoordinaten"/>
  </way>
  <way id="328775914" version="2" timestamp="2023-08-29T08:45:03Z" changeset="140529271" uid="66391" user="geozeisig">
    <nd ref="3356023498"/>
    <nd ref="3356021938"/>
    <nd ref="2907889874"/>
    <nd ref="3356023518"/>
    <nd ref="3356023498"/>
    <tag k="addr:city" v="Berlin"/>
    <tag k="addr:country" v="DE"/>
    <tag k="addr:housenumber" v="14"/>
    <tag k="addr:postcode" v="13159"/>
    <tag k="addr:street" v="Argonnenweg"/>
    <tag k="addr:suburb" v="Blankenfelde"/>
    <tag k="building" v="house"/>
    <tag k="source" v="Geoportal Berlin / Hauskoordinaten"/>
  </way>
  <way id="328776203" version="2" timestamp="2021-03-18T16:28:02Z" changeset="101274095" uid="66391" user="geozeisig">
    <nd ref="2907891792"/>
    <nd ref="3356017949"/>
    <nd ref="3356018197"/>
    <nd ref="3356018282"/>
    <nd ref="2907891792"/>
    <tag k="addr:city" v="Berlin"/>
    <tag k="addr:housenumber" v="37"/>
    <tag k="addr:postcode" v="13159"/>
    <tag k="addr:street" v="Provenceweg"/>
    <tag k="addr:suburb" v="Blankenfelde"/>
    <tag k="building" v="house"/>
    <tag k="source" v="Geoportal Berlin / Hauskoordinaten"/>
  </way>
  <way id="328776309" version="2" timestamp="2023-08-29T08:45:03Z" changeset="140529271" uid="66391" user="geozeisig">
    <nd ref="3356021969"/>
    <nd ref="2907896821"/>
    <nd ref="3356023337"/>
    <nd ref="3356021953"/>
    <nd ref="3356021969"/>
    <tag k="addr:city" v="Berlin"/>
    <tag k="addr:country" v="DE"/>
    <tag k="addr:housenumber" v="9"/>
    <tag k="addr:postcode" v="13159"/>
    <tag k="addr:street" v="Cantalweg"/>
    <tag k="addr:suburb" v="Blankenfelde"/>
    <tag k="building" v="house"/>
    <tag k="source" v="Geoportal Berlin / Hauskoordinaten"/>
  </way>
  <way id="328776355" version="2" timestamp="2021-03-18T16:28:02Z" changeset="101274095" uid="66391" user="geozeisig">
    <nd ref="3356022531"/>
    <nd ref="3356022375"/>
    <nd ref="3356022383"/>
    <nd ref="2907890438"/>
    <nd ref="3356022531"/>
    <tag k="addr:city" v="Berlin"/>
    <tag k="addr:housenumber" v="20"/>
    <tag k="addr:postcode" v="13159"/>
    <tag k="addr:street" v="Provenceweg"/>
    <tag k="addr:suburb" v="Blankenfelde"/>
    <tag k="building" v="house"/>
    <tag k="source" v="Geoportal Berlin / Hauskoordinaten"/>
  </way>
  <way id="328776776" version="8" timestamp="2024-02-16T08:55:33Z" changeset="147521967" uid="19550286" user="MoriGM">
    <nd ref="7129286349"/>
    <nd ref="7129286348"/>
    <nd ref="7129286353"/>
    <tag k="highway" v="residential"/>
    <tag k="maxspeed" v="30"/>
    <tag k="name" v="Am Nordgraben"/>
    <tag k="name:etymology:wikidata" v="Q1998000"/>
    <tag k="postal_code" v="13127"/>
    <tag k="sidewalk" v="no"/>
    <tag k="smoothness" v="good"/>
    <tag k="surface" v="asphalt"/>
  </way>
  <way id="346966406" version="13" timestamp="2023-06-09T22:58:18Z" changeset="137155984" uid="660273" user="a_d_s">
    <nd ref="30821364"/>
    <nd ref="9937518499"/>
    <nd ref="1453009081"/>
    <nd ref="5835766853"/>
    <nd ref="9855071266"/>
    <nd ref="5730326001"/>
    <nd ref="30822847"/>
    <tag k="cycleway:both" v="no"/>
    <tag k="hazard" v="children"/>
    <tag k="hgv" v="destination"/>
    <tag k="highway" v="tertiary"/>
    <tag k="lanes" v="2"/>
    <tag k="lit" v="yes"/>
    <tag k="maxspeed" v="30"/>
    <tag k="maxweight" v="7.5 t"/>
    <tag k="name" v="Hauptstraße"/>
    <tag k="name:etymology:wikidata" v="Q1006835"/>
    <tag k="name:etymology:wikipedia" v="de:Hauptstraße (allgemein)"/>
    <tag k="note" v="Übergeordnete Straße, Stufe II"/>
    <tag k="oneway" v="no"/>
    <tag k="postal_code" v="13159"/>
    <tag k="sidewalk" v="both"/>
    <tag k="sidewalk:both:surface" v="paving_stones"/>
    <tag k="smoothness" v="good"/>
    <tag k="surface" v="asphalt"/>
  </way>
  <way id="363784099" version="8" timestamp="2024-08-07T19:14:09Z" changeset="154950465" uid="2274818" user="Benjilein">
    <nd ref="166901138"/>
    <nd ref="3099114197"/>
    <nd ref="534815164"/>
    <nd ref="166901139"/>
    <nd ref="4870803350"/>
    <nd ref="3388963902"/>
    <nd ref="166901140"/>
    <nd ref="3314841202"/>
    <nd ref="534815146"/>
    <nd ref="3314841209"/>
    <nd ref="166901142"/>
    <tag k="cycleway:both" v="separate"/>
    <tag k="highway" v="unclassified"/>
    <tag k="lane_markings" v="no"/>
    <tag k="lit" v="no"/>
    <tag k="maxspeed" v="30"/>
    <tag k="name" v="Straße nach Arkenberge"/>
    <tag k="name:etymology:wikidata" v="Q821038"/>
    <tag k="name:etymology:wikipedia" v="de:Berlin-Arkenberge"/>
    <tag k="parking:left" v="on_kerb"/>
    <tag k="parking:left:orientation" v="perpendicular"/>
    <tag k="parking:right" v="no"/>
    <tag k="sidewalk:both" v="no"/>
    <tag k="smoothness" v="intermediate"/>
    <tag k="source:width" v="ARCore"/>
    <tag k="surface" v="concrete"/>
    <tag k="width" v="6.1"/>
  </way>
  <way id="408323801" version="4" timestamp="2024-05-13T20:32:19Z" changeset="151284415" uid="6811035" user="SteMue">
    <nd ref="4102771420"/>
    <nd ref="4102771419"/>
    <tag k="bridge" v="yes"/>
    <tag k="cycleway:both" v="no"/>
    <tag k="highway" v="tertiary"/>
    <tag k="maxspeed" v="30"/>
    <tag k="name" v="Mönchmühler Straße"/>
    <tag k="name:etymology:wikidata" v="Q1487869"/>
    <tag k="note" v="Übergeordnete Straße, Stufe II"/>
    <tag k="postal_code" v="13159"/>
    <tag k="surface" v="cobblestone"/>
    <tag k="wikidata" v="Q93355015"/>
  </way>
  <way id="408323802" version="8" timestamp="2022-06-29T07:32:39Z" changeset="122987742" uid="10961311" user="StefanHRT">
    <nd ref="30821361"/>
    <nd ref="9442966839"/>
    <nd ref="4755104336"/>
    <nd ref="9442966843"/>
    <tag k="cycleway:both" v="no"/>
    <tag k="highway" v="tertiary"/>
    <tag k="lit" v="yes"/>
    <tag k="maxspeed" v="30"/>
    <tag k="name" v="Mönchmühler Straße"/>
    <tag k="name:etymology:wikidata" v="Q1487869"/>
    <tag k="note" v="Übergeordnete Straße, Stufe II"/>
    <tag k="postal_code" v="13159"/>
    <tag k="smoothness" v="very_horrible"/>
    <tag k="surface" v="cobblestone"/>
    <tag k="wikidata" v="Q93355015"/>
  </way>
  <way id="444587490" version="11" timestamp="2023-06-09T22:58:18Z" changeset="137155984" uid="660273" user="a_d_s">
    <nd ref="30821358"/>
    <nd ref="30821359"/>
    <nd ref="30821360"/>
    <nd ref="9509176664"/>
    <tag k="cycleway:both" v="no"/>
    <tag k="highway" v="tertiary"/>
    <tag k="lane_markings" v="no"/>
    <tag k="lanes" v="2"/>
    <tag k="lit" v="yes"/>
    <tag k="maxspeed" v="30"/>
    <tag k="name" v="Bahnhofstraße"/>
    <tag k="name:etymology:wikidata" v="Q104215529"/>
    <tag k="note" v="Übergeordnete Straße, Stufe II"/>
    <tag k="oneway" v="no"/>
    <tag k="postal_code" v="13159"/>
    <tag k="sidewalk" v="both"/>
    <tag k="sidewalk:both:surface" v="paving_stones"/>
    <tag k="smoothness" v="intermediate"/>
    <tag k="surface" v="asphalt"/>
  </way>
  <way id="444587491" version="16" timestamp="2025-02-11T23:07:22Z" changeset="162410098" uid="44217" user="kjon">
    <nd ref="5750222704"/>
    <nd ref="1452982732"/>
    <nd ref="3997497598"/>
    <nd ref="8167312730"/>
    <tag k="bicycle" v="use_sidepath"/>
    <tag k="cycleway:left" v="no"/>
    <tag k="cycleway:right" v="separate"/>
    <tag k="foot" v="use_sidepath"/>
    <tag k="highway" v="primary"/>
    <tag k="lanes" v="2"/>
    <tag k="lit" v="yes"/>
    <tag k="maxspeed" v="50"/>
    <tag k="name" v="Blankenfelder Chaussee"/>
    <tag k="name:etymology:wikidata" v="Q702621"/>
    <tag k="name:etymology:wikipedia" v="de:Berlin-Blankenfelde"/>
    <tag k="oneway" v="yes"/>
    <tag k="parking:left" v="no"/>
    <tag k="postal_code" v="13159"/>
    <tag k="ref" v="B 96a"/>
    <tag k="sidewalk:left" v="no"/>
    <tag k="sidewalk:right" v="separate"/>
    <tag k="smoothness" v="good"/>
    <tag k="surface" v="asphalt"/>
  </way>
  <way id="449341004" version="12" timestamp="2023-01-19T14:49:15Z" changeset="131470177" uid="9508237" user="momabebra">
    <nd ref="656472753"/>
    <nd ref="8167312849"/>
    <nd ref="8167312731"/>
    <tag k="bicycle" v="use_sidepath"/>
    <tag k="cycleway:left" v="no"/>
    <tag k="cycleway:right" v="separate"/>
    <tag k="foot" v="use_sidepath"/>
    <tag k="highway" v="primary"/>
    <tag k="lanes" v="2"/>
    <tag k="lit" v="yes"/>
    <tag k="maxspeed" v="70"/>
    <tag k="name" v="Blankenfelder Chaussee"/>
    <tag k="name:etymology:wikidata" v="Q702621"/>
    <tag k="name:etymology:wikipedia" v="de:Berlin-Blankenfelde"/>
    <tag k="oneway" v="yes"/>
    <tag k="postal_code" v="13159"/>
    <tag k="ref" v="B 96a"/>
    <tag k="shoulder" v="no"/>
    <tag k="sidewalk:left" v="no"/>
    <tag k="sidewalk:right" v="separate"/>
    <tag k="smoothness" v="good"/>
    <tag k="surface" v="asphalt"/>
  </way>
  <way id="450221285" version="8" timestamp="2024-08-06T18:22:28Z" changeset="154904800" uid="10961311" user="StefanHRT">
    <nd ref="4306113539"/>
    <nd ref="12095712863"/>
    <nd ref="12095712862"/>
    <tag k="cycleway:both" v="no"/>
    <tag k="highway" v="unclassified"/>
    <tag k="maxspeed" v="30"/>
    <tag k="name" v="Hauptstraße"/>
    <tag k="name:etymology:wikidata" v="Q1006835"/>
    <tag k="name:etymology:wikipedia" v="de:Hauptstraße (allgemein)"/>
    <tag k="postal_code" v="13159"/>
    <tag k="surface" v="paved"/>
  </way>
  <way id="456120249" version="5" timestamp="2023-09-06T10:31:38Z" changeset="140888535" uid="11963177" user="JeroenvanderGun">
    <nd ref="2960693872"/>
    <nd ref="2960695577"/>
    <nd ref="1594541282"/>
    <nd ref="4523975293"/>
    <nd ref="1594541213"/>
    <nd ref="1598895357"/>
    <tag k="highway" v="motorway"/>
    <tag k="lanes" v="3"/>
    <tag k="lit" v="no"/>
    <tag k="maxheight" v="default"/>
    <tag k="maxspeed" v="100"/>
    <tag k="oneway" v="yes"/>
    <tag k="ref" v="A 114"/>
    <tag k="smoothness" v="intermediate"/>
    <tag k="surface" v="asphalt"/>
    <tag k="turn:lanes" v="||merge_to_left"/>
    <tag k="urban" v="yes"/>
  </way>
  <way id="456120250" version="4" timestamp="2023-09-06T10:31:38Z" changeset="140888535" uid="11963177" user="JeroenvanderGun">
    <nd ref="1599680719"/>
    <nd ref="1599680753"/>
    <nd ref="1599680700"/>
    <nd ref="1599680705"/>
    <nd ref="1594524792"/>
    <tag k="highway" v="motorway"/>
    <tag k="lanes" v="3"/>
    <tag k="lit" v="no"/>
    <tag k="maxheight" v="default"/>
    <tag k="maxspeed" v="100"/>
    <tag k="oneway" v="yes"/>
    <tag k="ref" v="A 114"/>
    <tag k="smoothness" v="intermediate"/>
    <tag k="surface" v="asphalt"/>
    <tag k="turn:lanes" v="||merge_to_left"/>
    <tag k="urban" v="yes"/>
  </way>
  <way id="458275376" version="24" timestamp="2025-02-11T23:07:22Z" changeset="162410098" uid="44217" user="kjon">
    <nd ref="4543122880"/>
    <nd ref="4543122882"/>
    <nd ref="4543122883"/>
    <nd ref="4543122884"/>
    <nd ref="9429512747"/>
    <nd ref="4543122885"/>
    <nd ref="10564990752"/>
    <tag k="cycleway:both" v="lane"/>
    <tag k="cycleway:both:lane" v="exclusive"/>
    <tag k="foot" v="use_sidepath"/>
    <tag k="highway" v="secondary"/>
    <tag k="lanes" v="2"/>
    <tag k="lit" v="yes"/>
    <tag k="maxspeed" v="50"/>
    <tag k="name" v="Rosenthaler Weg"/>
    <tag k="name:etymology:wikidata" v="Q693521"/>
    <tag k="parking:both" v="separate"/>
    <tag k="postal_code" v="13127"/>
    <tag k="sidewalk:both" v="separate"/>
    <tag k="smoothness" v="excellent"/>
    <tag k="surface" v="asphalt"/>
    <tag k="wikidata" v="Q67657932"/>
  </way>
  <way id="459381687" version="3" timestamp="2017-11-05T21:59:03Z" changeset="53540705" uid="162827" user="Hb-">
    <nd ref="4552411408"/>
    <nd ref="4552411405"/>
    <nd ref="4552411406"/>
    <nd ref="4552411407"/>
    <nd ref="4552411408"/>
    <tag k="building" v="industrial"/>
    <tag k="historic" v="yes"/>
    <tag k="man_made" v="pipeline"/>
    <tag k="maxheight" v="4"/>
    <tag k="name" v="Rieselfeld-Regulator"/>
    <tag k="pipeline" v="valve"/>
    <tag k="place:origin" v="Radialsystem"/>
    <tag k="substance" v="sewage"/>
  </way>
  <way id="470227243" version="4" timestamp="2023-09-06T10:41:38Z" changeset="140888867" uid="11963177" user="JeroenvanderGun">
    <nd ref="12696810"/>
    <nd ref="2960696373"/>
    <nd ref="1598900455"/>
    <nd ref="1598900450"/>
    <nd ref="1598900452"/>
    <nd ref="1598900458"/>
    <nd ref="1598900438"/>
    <nd ref="1598900459"/>
    <nd ref="1598900439"/>
    <tag k="destination" v="Schönerlinder Str.;Buchholz;Wandlitz"/>
    <tag k="destination:ref" v="B 109"/>
    <tag k="highway" v="motorway_link"/>
    <tag k="lanes" v="1"/>
    <tag k="maxspeed" v="80"/>
    <tag k="oneway" v="yes"/>
    <tag k="urban" v="yes"/>
  </way>
  <way id="586028864" version="15" timestamp="2023-10-11T21:34:54Z" changeset="142453566" uid="44217" user="kjon">
    <nd ref="9855126640"/>
    <nd ref="8168029666"/>
    <nd ref="8168029669"/>
    <nd ref="8168029671"/>
    <nd ref="9442966963"/>
    <nd ref="8168029661"/>
    <nd ref="8168029663"/>
    <nd ref="8167312834"/>
    <nd ref="8167312832"/>
    <nd ref="8403570587"/>
    <nd ref="8168029685"/>
    <nd ref="8168029683"/>
    <nd ref="9855126634"/>
    <nd ref="9855126636"/>
    <nd ref="8167312823"/>
    <nd ref="8167312820"/>
    <nd ref="30822859"/>
    <tag k="bicycle" v="use_sidepath"/>
    <tag k="cycleway:both" v="separate"/>
    <tag k="foot" v="use_sidepath"/>
    <tag k="highway" v="primary"/>
    <tag k="lanes" v="2"/>
    <tag k="lit" v="yes"/>
    <tag k="maxspeed" v="50"/>
    <tag k="name" v="Schildower Straße"/>
    <tag k="name:etymology:wikidata" v="Q55726050"/>
    <tag k="name:etymology:wikipedia" v="de:Schildow"/>
    <tag k="oneway" v="no"/>
    <tag k="postal_code" v="13159"/>
    <tag k="ref" v="B 96a"/>
    <tag k="sidewalk:both" v="separate"/>
    <tag k="smoothness" v="good"/>
    <tag k="surface" v="asphalt"/>
  </way>
  <way id="606491928" version="10" timestamp="2025-02-11T23:07:22Z" changeset="162410098" uid="44217" user="kjon">
    <nd ref="5750222698"/>
    <nd ref="3822972861"/>
    <nd ref="9010533634"/>
    <nd ref="30822924"/>
    <tag k="bicycle" v="use_sidepath"/>
    <tag k="cycleway:left" v="no"/>
    <tag k="cycleway:right" v="separate"/>
    <tag k="foot" v="use_sidepath"/>
    <tag k="highway" v="primary"/>
    <tag k="lanes" v="2"/>
    <tag k="lit" v="yes"/>
    <tag k="maxspeed" v="50"/>
    <tag k="name" v="Blankenfelder Chaussee"/>
    <tag k="name:etymology:wikidata" v="Q702621"/>
    <tag k="name:etymology:wikipedia" v="de:Berlin-Blankenfelde"/>
    <tag k="oneway" v="yes"/>
    <tag k="parking:left" v="no"/>
    <tag k="postal_code" v="13159"/>
    <tag k="ref" v="B 96a"/>
    <tag k="sidewalk:left" v="no"/>
    <tag k="sidewalk:right" v="separate"/>
    <tag k="smoothness" v="good"/>
    <tag k="surface" v="asphalt"/>
  </way>
  <way id="606491929" version="13" timestamp="2025-02-11T23:07:22Z" changeset="162410098" uid="44217" user="kjon">
    <nd ref="21508603"/>
    <nd ref="9010533633"/>
    <nd ref="5750222704"/>
    <tag k="bicycle" v="use_sidepath"/>
    <tag k="cycleway:left" v="no"/>
    <tag k="cycleway:right" v="separate"/>
    <tag k="foot" v="use_sidepath"/>
    <tag k="highway" v="primary"/>
    <tag k="lanes" v="2"/>
    <tag k="lit" v="yes"/>
    <tag k="maxspeed" v="30"/>
    <tag k="name" v="Blankenfelder Chaussee"/>
    <tag k="name:etymology:wikidata" v="Q702621"/>
    <tag k="name:etymology:wikipedia" v="de:Berlin-Blankenfelde"/>
    <tag k="oneway" v="yes"/>
    <tag k="parking:left" v="no"/>
    <tag k="postal_code" v="13159"/>
    <tag k="ref" v="B 96a"/>
    <tag k="sidewalk:left" v="no"/>
    <tag k="sidewalk:right" v="separate"/>
    <tag k="smoothness" v="good"/>
    <tag k="surface" v="asphalt"/>
  </way>
  <way id="608061298" version="6" timestamp="2024-08-06T18:22:28Z" changeset="154904800" uid="10961311" user="StefanHRT">
    <nd ref="12095712866"/>
    <nd ref="12095712864"/>
    <tag k="cycleway:both" v="no"/>
    <tag k="highway" v="unclassified"/>
    <tag k="maxspeed" v="30"/>
    <tag k="maxspeed:type" v="sign"/>
    <tag k="name" v="Hauptstraße"/>
    <tag k="name:etymology:wikidata" v="Q1006835"/>
    <tag k="name:etymology:wikipedia" v="de:Hauptstraße (allgemein)"/>
    <tag k="postal_code" v="13159"/>
    <tag k="surface" v="concrete"/>
  </way>
  <way id="762951890" version="6" timestamp="2022-06-08T19:45:38Z" changeset="122133433" uid="114388" user="ubahnverleih">
    <nd ref="7129286353"/>
    <nd ref="7129286347"/>
    <nd ref="7129286346"/>
    <nd ref="5383162797"/>
    <nd ref="7795245134"/>
    <nd ref="169504897"/>
    <nd ref="169499884"/>
    <nd ref="169498319"/>
    <nd ref="202098128"/>
    <nd ref="169497235"/>
    <tag k="highway" v="residential"/>
    <tag k="maxspeed" v="30"/>
    <tag k="name" v="Nisbléstraße"/>
    <tag k="postal_code" v="13127"/>
    <tag k="sidewalk" v="no"/>
    <tag k="smoothness" v="good"/>
    <tag k="surface" v="asphalt"/>
  </way>
  <way id="762951893" version="12" timestamp="2025-02-11T23:07:22Z" changeset="162410098" uid="44217" user="kjon">
    <nd ref="9853092110"/>
    <nd ref="4543122877"/>
    <tag k="cycleway:both" v="lane"/>
    <tag k="cycleway:both:lane" v="exclusive"/>
    <tag k="foot" v="use_sidepath"/>
    <tag k="highway" v="secondary"/>
    <tag k="lanes" v="2"/>
    <tag k="lit" v="yes"/>
    <tag k="maxspeed" v="50"/>
    <tag k="name" v="Rosenthaler Weg"/>
    <tag k="name:etymology:wikidata" v="Q693521"/>
    <tag k="parking:both" v="separate"/>
    <tag k="postal_code" v="13127"/>
    <tag k="sidewalk:both" v="separate"/>
    <tag k="smoothness" v="excellent"/>
    <tag k="surface" v="asphalt"/>
    <tag k="wikidata" v="Q67657932"/>
  </way>
  <way id="762953646" version="9" timestamp="2025-03-23T22:06:04Z" changeset="164007378" uid="44217" user="kjon">
    <nd ref="732628444"/>
    <nd ref="3822972857"/>
    <nd ref="10255335259"/>
    <tag k="bridge" v="yes"/>
    <tag k="bridge:name" v="Blankenfelder-Allee-Brücke"/>
    <tag k="cycleway:left" v="no"/>
    <tag k="cycleway:right" v="track"/>
    <tag k="highway" v="primary"/>
    <tag k="lanes" v="2"/>
    <tag k="layer" v="1"/>
    <tag k="lit" v="yes"/>
    <tag k="maxspeed" v="30"/>
    <tag k="name" v="Blankenfelder Chaussee"/>
    <tag k="name:etymology:wikidata" v="Q702621"/>
    <tag k="name:etymology:wikipedia" v="de:Berlin-Blankenfelde"/>
    <tag k="oneway" v="yes"/>
    <tag k="parking:left" v="no"/>
    <tag k="ref" v="B 96a"/>
    <tag k="sidewalk:left" v="no"/>
    <tag k="sidewalk:right" v="separate"/>
    <tag k="surface" v="asphalt"/>
  </way>
  <way id="816478291" version="6" timestamp="2022-06-29T07:32:39Z" changeset="122987742" uid="10961311" user="StefanHRT">
    <nd ref="7625623159"/>
    <nd ref="8046408559"/>
    <nd ref="150637853"/>
    <nd ref="4102771420"/>
    <tag k="cycleway:both" v="no"/>
    <tag k="highway" v="tertiary"/>
    <tag k="lit" v="yes"/>
    <tag k="maxspeed" v="30"/>
    <tag k="name" v="Mönchmühler Straße"/>
    <tag k="name:etymology:wikidata" v="Q1487869"/>
    <tag k="note" v="Übergeordnete Straße, Stufe II"/>
    <tag k="postal_code" v="13159"/>
    <tag k="smoothness" v="very_horrible"/>
    <tag k="surface" v="cobblestone"/>
    <tag k="wikidata" v="Q93355015"/>
  </way>
  <way id="816478292" version="9" timestamp="2025-04-01T08:26:56Z" changeset="164362945" uid="10652271" user="yed6QLf42Ut">
    <nd ref="4102771419"/>
    <nd ref="340261602"/>
    <nd ref="4543101851"/>
    <nd ref="4543102037"/>
    <nd ref="726149603"/>
    <nd ref="4543102007"/>
    <nd ref="389087550"/>
    <nd ref="388586003"/>
    <nd ref="7625638483"/>
    <tag k="cycleway:both" v="no"/>
    <tag k="highway" v="tertiary"/>
    <tag k="lane_markings" v="no"/>
    <tag k="maxspeed" v="30"/>
    <tag k="name" v="Mönchmühler Straße"/>
    <tag k="name:etymology:wikidata" v="Q1487869"/>
    <tag k="note" v="Übergeordnete Straße, Stufe II"/>
    <tag k="postal_code" v="13159"/>
    <tag k="sidewalk" v="no"/>
    <tag k="surface" v="sett"/>
    <tag k="wikidata" v="Q93355015"/>
  </way>
  <way id="877818623" version="8" timestamp="2023-01-19T14:49:15Z" changeset="131470177" uid="9508237" user="momabebra">
    <nd ref="8167312730"/>
    <nd ref="726624835"/>
    <nd ref="4306113570"/>
    <nd ref="656472753"/>
    <tag k="bicycle" v="use_sidepath"/>
    <tag k="cycleway:left" v="no"/>
    <tag k="cycleway:right" v="separate"/>
    <tag k="foot" v="use_sidepath"/>
    <tag k="highway" v="primary"/>
    <tag k="lanes" v="2"/>
    <tag k="lit" v="yes"/>
    <tag k="maxspeed" v="70"/>
    <tag k="name" v="Blankenfelder Chaussee"/>
    <tag k="name:etymology:wikidata" v="Q702621"/>
    <tag k="name:etymology:wikipedia" v="de:Berlin-Blankenfelde"/>
    <tag k="oneway" v="yes"/>
    <tag k="postal_code" v="13159"/>
    <tag k="ref" v="B 96a"/>
    <tag k="shoulder" v="no"/>
    <tag k="sidewalk:left" v="no"/>
    <tag k="sidewalk:right" v="separate"/>
    <tag k="smoothness" v="good"/>
    <tag k="surface" v="asphalt"/>
  </way>
  <way id="877818624" version="11" timestamp="2025-02-11T23:07:22Z" changeset="162410098" uid="44217" user="kjon">
    <nd ref="8167312731"/>
    <nd ref="9010533679"/>
    <nd ref="223676371"/>
    <nd ref="9010533682"/>
    <nd ref="9010533683"/>
    <nd ref="30822908"/>
    <tag k="bicycle" v="use_sidepath"/>
    <tag k="cycleway:left" v="no"/>
    <tag k="cycleway:right" v="separate"/>
    <tag k="foot" v="use_sidepath"/>
    <tag k="highway" v="primary"/>
    <tag k="lanes" v="2"/>
    <tag k="lit" v="yes"/>
    <tag k="maxspeed" v="50"/>
    <tag k="name" v="Blankenfelder Chaussee"/>
    <tag k="name:etymology:wikidata" v="Q702621"/>
    <tag k="name:etymology:wikipedia" v="de:Berlin-Blankenfelde"/>
    <tag k="oneway" v="yes"/>
    <tag k="parking:left" v="no"/>
    <tag k="postal_code" v="13159"/>
    <tag k="ref" v="B 96a"/>
    <tag k="sidewalk:left" v="no"/>
    <tag k="sidewalk:right" v="separate"/>
    <tag k="smoothness" v="good"/>
    <tag k="surface" v="asphalt"/>
  </way>
  <way id="915503852" version="3" timestamp="2023-09-06T10:31:38Z" changeset="140888535" uid="11963177" user="JeroenvanderGun">
    <nd ref="1594524801"/>
    <nd ref="10731165591"/>
    <tag k="highway" v="motorway"/>
    <tag k="lanes" v="2"/>
    <tag k="lit" v="no"/>
    <tag k="maxspeed" v="80"/>
    <tag k="oneway" v="yes"/>
    <tag k="ref" v="A 114"/>
    <tag k="smoothness" v="intermediate"/>
    <tag k="surface" v="concrete"/>
    <tag k="urban" v="yes"/>
  </way>
  <way id="918800281" version="1" timestamp="2021-03-18T16:28:00Z" changeset="101274095" uid="66391" user="geozeisig">
    <nd ref="8533044338"/>
    <nd ref="8533044337"/>
    <nd ref="8533044336"/>
    <nd ref="8533044335"/>
    <nd ref="8533044338"/>
    <tag k="addr:city" v="Berlin"/>
    <tag k="addr:country" v="DE"/>
    <tag k="addr:housenumber" v="11"/>
    <tag k="addr:postcode" v="13159"/>
    <tag k="addr:street" v="Lorraineweg"/>
    <tag k="addr:suburb" v="Blankenfelde"/>
    <tag k="building" v="yes"/>
    <tag k="source" v="Geoportal Berlin / Hauskoordinaten"/>
  </way>
  <way id="918800282" version="1" timestamp="2021-03-18T16:28:00Z" changeset="101274095" uid="66391" user="geozeisig">
    <nd ref="8533044342"/>
    <nd ref="8533044341"/>
    <nd ref="8533044340"/>
    <nd ref="8533044339"/>
    <nd ref="8533044342"/>
    <tag k="addr:city" v="Berlin"/>
    <tag k="addr:country" v="DE"/>
    <tag k="addr:housenumber" v="28"/>
    <tag k="addr:postcode" v="13159"/>
    <tag k="addr:street" v="Champagneweg"/>
    <tag k="addr:suburb" v="Blankenfelde"/>
    <tag k="building" v="yes"/>
    <tag k="source" v="Geoportal Berlin / Hauskoordinaten"/>
  </way>
  <way id="918800283" version="1" timestamp="2021-03-18T16:28:00Z" changeset="101274095" uid="66391" user="geozeisig">
    <nd ref="8533044346"/>
    <nd ref="8533044345"/>
    <nd ref="8533044344"/>
    <nd ref="8533044343"/>
    <nd ref="8533044346"/>
    <tag k="addr:city" v="Berlin"/>
    <tag k="addr:country" v="DE"/>
    <tag k="addr:housenumber" v="1"/>
    <tag k="addr:postcode" v="13159"/>
    <tag k="addr:street" v="Gascogneweg"/>
    <tag k="addr:suburb" v="Blankenfelde"/>
    <tag k="building" v="yes"/>
    <tag k="source" v="Geoportal Berlin / Hauskoordinaten"/>
  </way>
  <way id="918800284" version="1" timestamp="2021-03-18T16:28:00Z" changeset="101274095" uid="66391" user="geozeisig">
    <nd ref="8533044350"/>
    <nd ref="8533044347"/>
    <nd ref="8533044348"/>
    <nd ref="8533044349"/>
    <nd ref="8533044350"/>
    <tag k="addr:city" v="Berlin"/>
    <tag k="addr:country" v="DE"/>
    <tag k="addr:housenumber" v="3"/>
    <tag k="addr:postcode" v="13159"/>
    <tag k="addr:street" v="Gascogneweg"/>
    <tag k="addr:suburb" v="Blankenfelde"/>
    <tag k="building" v="yes"/>
    <tag k="source" v="Geoportal Berlin / Hauskoordinaten"/>
  </way>
  <way id="970606018" version="7" timestamp="2024-01-17T12:04:19Z" changeset="146361137" uid="19550286" user="MoriGM">
    <nd ref="8982905151"/>
    <nd ref="30821364"/>
    <tag k="cycleway:both" v="no"/>
    <tag k="hgv" v="destination"/>
    <tag k="highway" v="residential"/>
    <tag k="lit" v="yes"/>
    <tag k="maxspeed" v="30"/>
    <tag k="maxweight" v="7.5 t"/>
    <tag k="name" v="Schildower Straße"/>
    <tag k="name:etymology:wikidata" v="Q55726050"/>
    <tag k="name:etymology:wikipedia" v="de:Schildow"/>
    <tag k="oneway" v="no"/>
    <tag k="postal_code" v="13159"/>
    <tag k="sidewalk" v="both"/>
    <tag k="sidewalk:both:surface" v="paving_stones"/>
    <tag k="smoothness" v="good"/>
    <tag k="surface" v="asphalt"/>
  </way>
  <way id="1024021053" version="2" timestamp="2022-06-29T07:32:39Z" changeset="122987742" uid="10961311" user="StefanHRT">
    <nd ref="9442966842"/>
    <nd ref="8451941136"/>
    <nd ref="292131951"/>
    <nd ref="7625623159"/>
    <tag k="cycleway:both" v="no"/>
    <tag k="highway" v="tertiary"/>
    <tag k="lit" v="yes"/>
    <tag k="maxspeed" v="30"/>
    <tag k="name" v="Mönchmühler Straße"/>
    <tag k="name:etymology:wikidata" v="Q1487869"/>
    <tag k="note" v="Übergeordnete Straße, Stufe II"/>
    <tag k="postal_code" v="13159"/>
    <tag k="smoothness" v="very_horrible"/>
    <tag k="surface" v="cobblestone"/>
    <tag k="wikidata" v="Q93355015"/>
  </way>
  <way id="1024021054" version="2" timestamp="2022-06-29T07:32:39Z" changeset="122987742" uid="10961311" user="StefanHRT">
    <nd ref="9442966843"/>
    <nd ref="9442966842"/>
    <tag k="bridge" v="yes"/>
    <tag k="cycleway:both" v="no"/>
    <tag k="highway" v="tertiary"/>
    <tag k="layer" v="1"/>
    <tag k="lit" v="yes"/>
    <tag k="maxspeed" v="30"/>
    <tag k="name" v="Mönchmühler Straße"/>
    <tag k="name:etymology:wikidata" v="Q1487869"/>
    <tag k="note" v="Übergeordnete Straße, Stufe II"/>
    <tag k="postal_code" v="13159"/>
    <tag k="smoothness" v="very_horrible"/>
    <tag k="surface" v="cobblestone"/>
    <tag k="wikidata" v="Q93355015"/>
  </way>
  <way id="1024035269" version="2" timestamp="2022-05-23T06:51:15Z" changeset="121349665" uid="4020938" user="eultra">
    <nd ref="9443093225"/>
    <nd ref="3151487522"/>
    <nd ref="2734268884"/>
    <nd ref="338747456"/>
    <nd ref="542535258"/>
    <nd ref="339145594"/>
    <nd ref="9443051914"/>
    <nd ref="542535256"/>
    <tag k="highway" v="unclassified"/>
    <tag k="maxspeed" v="30"/>
    <tag k="name" v="Hauptstraße"/>
    <tag k="name:etymology:wikidata" v="Q1006835"/>
    <tag k="name:etymology:wikipedia" v="de:Hauptstraße (allgemein)"/>
    <tag k="postal_code" v="13159"/>
    <tag k="sidewalk:right" v="separate"/>
    <tag k="surface" v="asphalt"/>
  </way>
  <way id="1024035270" version="4" timestamp="2022-05-31T16:14:00Z" changeset="121775452" uid="6811035" user="SteMue">
    <nd ref="542535256"/>
    <nd ref="9443051911"/>
    <nd ref="290736709"/>
    <nd ref="254961079"/>
    <tag k="cycleway:left" v="no"/>
    <tag k="cycleway:right" v="separate"/>
    <tag k="highway" v="unclassified"/>
    <tag k="lane_markings" v="no"/>
    <tag k="maxspeed" v="30"/>
    <tag k="name" v="Hauptstraße"/>
    <tag k="name:etymology:wikidata" v="Q1006835"/>
    <tag k="name:etymology:wikipedia" v="de:Hauptstraße (allgemein)"/>
    <tag k="postal_code" v="13159"/>
    <tag k="smoothness" v="good"/>
    <tag k="surface" v="concrete:plates"/>
  </way>
  <way id="1024035271" version="2" timestamp="2022-05-23T06:51:15Z" changeset="121349665" uid="4020938" user="eultra">
    <nd ref="9443093226"/>
    <nd ref="249660535"/>
    <nd ref="9443093225"/>
    <tag k="highway" v="unclassified"/>
    <tag k="maxspeed" v="30"/>
    <tag k="name" v="Hauptstraße"/>
    <tag k="name:etymology:wikidata" v="Q1006835"/>
    <tag k="name:etymology:wikipedia" v="de:Hauptstraße (allgemein)"/>
    <tag k="postal_code" v="13159"/>
    <tag k="sidewalk:right" v="separate"/>
    <tag k="surface" v="concrete:plates"/>
  </way>
  <way id="1024035272" version="3" timestamp="2024-08-06T18:22:28Z" changeset="154904800" uid="10961311" user="StefanHRT">
    <nd ref="12095712862"/>
    <nd ref="9443093318"/>
    <nd ref="9443093319"/>
    <nd ref="8242031179"/>
    <nd ref="9443093239"/>
    <tag k="highway" v="unclassified"/>
    <tag k="maxspeed" v="30"/>
    <tag k="name" v="Hauptstraße"/>
    <tag k="name:etymology:wikidata" v="Q1006835"/>
    <tag k="name:etymology:wikipedia" v="de:Hauptstraße (allgemein)"/>
    <tag k="postal_code" v="13159"/>
    <tag k="sidewalk:right" v="separate"/>
    <tag k="surface" v="concrete:plates"/>
  </way>
  <way id="1031838775" version="4" timestamp="2023-06-09T22:58:18Z" changeset="137155984" uid="660273" user="a_d_s">
    <nd ref="9509176664"/>
    <nd ref="30821361"/>
    <tag k="cycleway:both" v="no"/>
    <tag k="hgv" v="destination"/>
    <tag k="highway" v="tertiary"/>
    <tag k="lane_markings" v="no"/>
    <tag k="lanes" v="2"/>
    <tag k="lit" v="yes"/>
    <tag k="maxspeed" v="30"/>
    <tag k="name" v="Bahnhofstraße"/>
    <tag k="name:etymology:wikidata" v="Q104215529"/>
    <tag k="note" v="Übergeordnete Straße, Stufe II"/>
    <tag k="oneway" v="no"/>
    <tag k="postal_code" v="13159"/>
    <tag k="sidewalk" v="both"/>
    <tag k="sidewalk:both:surface" v="paving_stones"/>
    <tag k="smoothness" v="very_horrible"/>
    <tag k="surface" v="sett"/>
  </way>
  <way id="1036479144" version="3" timestamp="2024-08-07T19:04:13Z" changeset="154950246" uid="2274818" user="Benjilein">
    <nd ref="3188561544"/>
    <nd ref="255697929"/>
    <tag k="check_date:cycleway" v="2024-08-07"/>
    <tag k="cycleway:both" v="no"/>
    <tag k="highway" v="unclassified"/>
    <tag k="lane_markings" v="no"/>
    <tag k="lit" v="no"/>
    <tag k="maxspeed" v="30"/>
    <tag k="name" v="Straße nach Arkenberge"/>
    <tag k="name:etymology:wikidata" v="Q821038"/>
    <tag k="name:etymology:wikipedia" v="de:Berlin-Arkenberge"/>
    <tag k="sidewalk:both" v="no"/>
    <tag k="smoothness" v="intermediate"/>
    <tag k="source:width" v="ARCore"/>
    <tag k="surface" v="concrete"/>
    <tag k="width" v="6.2"/>
  </way>
  <way id="1036479145" version="3" timestamp="2024-08-07T19:07:30Z" changeset="154950246" uid="2274818" user="Benjilein">
    <nd ref="255697930"/>
    <nd ref="3188561540"/>
    <tag k="check_date:cycleway" v="2024-08-07"/>
    <tag k="cycleway:both" v="no"/>
    <tag k="highway" v="unclassified"/>
    <tag k="lane_markings" v="no"/>
    <tag k="lit" v="no"/>
    <tag k="maxspeed" v="30"/>
    <tag k="name" v="Straße nach Arkenberge"/>
    <tag k="name:etymology:wikidata" v="Q821038"/>
    <tag k="name:etymology:wikipedia" v="de:Berlin-Arkenberge"/>
    <tag k="sidewalk:both" v="no"/>
    <tag k="smoothness" v="intermediate"/>
    <tag k="source:width" v="ARCore"/>
    <tag k="surface" v="asphalt"/>
    <tag k="width" v="6.6"/>
  </way>
  <way id="1074183036" version="5" timestamp="2025-02-11T23:07:22Z" changeset="162410098" uid="44217" user="kjon">
    <nd ref="4543122876"/>
    <nd ref="4543102371"/>
    <nd ref="9853092110"/>
    <tag k="cycleway:both" v="lane"/>
    <tag k="cycleway:both:lane" v="exclusive"/>
    <tag k="foot" v="use_sidepath"/>
    <tag k="highway" v="secondary"/>
    <tag k="lanes" v="2"/>
    <tag k="lit" v="yes"/>
    <tag k="maxspeed:backward" v="50"/>
    <tag k="maxspeed:forward" v="30"/>
    <tag k="name" v="Rosenthaler Weg"/>
    <tag k="name:etymology:wikidata" v="Q693521"/>
    <tag k="parking:both" v="no"/>
    <tag k="postal_code" v="13127"/>
    <tag k="sidewalk:both" v="separate"/>
    <tag k="smoothness" v="excellent"/>
    <tag k="surface" v="asphalt"/>
    <tag k="wikidata" v="Q67657932"/>
  </way>
  <way id="1074192150" version="8" timestamp="2025-04-03T14:57:38Z" changeset="164469276" uid="10652271" user="yed6QLf42Ut">
    <nd ref="10255335260"/>
    <nd ref="3997497645"/>
    <nd ref="656450415"/>
    <tag k="bridge" v="yes"/>
    <tag k="bridge:name" v="Blankenfelder-Allee-Brücke"/>
    <tag k="cycleway:both" v="no"/>
    <tag k="highway" v="primary"/>
    <tag k="lanes" v="1"/>
    <tag k="layer" v="1"/>
    <tag k="lit" v="yes"/>
    <tag k="maxspeed" v="50"/>
    <tag k="maxweight:signed" v="no"/>
    <tag k="name" v="Blankenfelder Chaussee"/>
    <tag k="name:etymology:wikidata" v="Q702621"/>
    <tag k="name:etymology:wikipedia" v="de:Berlin-Blankenfelde"/>
    <tag k="oneway" v="yes"/>
    <tag k="parking:left" v="no"/>
    <tag k="postal_code" v="13158"/>
    <tag k="ref" v="B 96a"/>
    <tag k="sidewalk:left" v="no"/>
    <tag k="sidewalk:right" v="separate"/>
    <tag k="sidewalk:right:bicycle" v="yes"/>
    <tag k="surface" v="asphalt"/>
  </way>
  <way id="1084450399" version="3" timestamp="2024-04-19T16:08:30Z" changeset="150231461" uid="61594" user="wauzie">
    <nd ref="9937518481"/>
    <nd ref="9937518488"/>
    <nd ref="9937518483"/>
    <nd ref="9937518478"/>
    <nd ref="9937568177"/>
    <nd ref="9937568176"/>
    <nd ref="9937518481"/>
    <tag k="building" v="allotment_house"/>
    <tag k="name" v="Hallai József"/>
  </way>
  <way id="1121190723" version="8" timestamp="2025-02-11T23:07:22Z" changeset="162410098" uid="44217" user="kjon">
    <nd ref="10255335259"/>
    <nd ref="3822972859"/>
    <nd ref="21508603"/>
    <tag k="cycleway:left" v="no"/>
    <tag k="cycleway:right" v="separate"/>
    <tag k="highway" v="primary"/>
    <tag k="lanes" v="2"/>
    <tag k="lit" v="yes"/>
    <tag k="maxspeed" v="30"/>
    <tag k="name" v="Blankenfelder Chaussee"/>
    <tag k="name:etymology:wikidata" v="Q702621"/>
    <tag k="name:etymology:wikipedia" v="de:Berlin-Blankenfelde"/>
    <tag k="oneway" v="yes"/>
    <tag k="parking:left" v="no"/>
    <tag k="ref" v="B 96a"/>
    <tag k="sidewalk:left" v="no"/>
    <tag k="sidewalk:right" v="separate"/>
    <tag k="smoothness" v="good"/>
    <tag k="surface" v="asphalt"/>
  </way>
  <way id="1121190724" version="8" timestamp="2025-03-23T22:06:07Z" changeset="164007378" uid="44217" user="kjon">
    <nd ref="7129301656"/>
    <nd ref="732628444"/>
    <tag k="cycleway:left" v="no"/>
    <tag k="cycleway:right" v="track"/>
    <tag k="highway" v="primary"/>
    <tag k="lanes" v="2"/>
    <tag k="lit" v="yes"/>
    <tag k="maxspeed" v="30"/>
    <tag k="name" v="Blankenfelder Chaussee"/>
    <tag k="name:etymology:wikidata" v="Q702621"/>
    <tag k="name:etymology:wikipedia" v="de:Berlin-Blankenfelde"/>
    <tag k="oneway" v="yes"/>
    <tag k="parking:left" v="no"/>
    <tag k="ref" v="B 96a"/>
    <tag k="sidewalk:left" v="no"/>
    <tag k="sidewalk:right" v="separate"/>
    <tag k="sidewalk:right:surface" v="paving_stones"/>
    <tag k="smoothness" v="good"/>
    <tag k="surface" v="asphalt"/>
  </way>
  <way id="1121190725" version="8" timestamp="2025-03-23T22:05:56Z" changeset="164007378" uid="44217" user="kjon">
    <nd ref="656450415"/>
    <nd ref="9853175527"/>
    <tag k="cycleway:both" v="no"/>
    <tag k="highway" v="primary"/>
    <tag k="lanes" v="1"/>
    <tag k="lit" v="yes"/>
    <tag k="maxspeed" v="50"/>
    <tag k="name" v="Blankenfelder Chaussee"/>
    <tag k="name:etymology:wikidata" v="Q702621"/>
    <tag k="name:etymology:wikipedia" v="de:Berlin-Blankenfelde"/>
    <tag k="oneway" v="yes"/>
    <tag k="parking:left" v="no"/>
    <tag k="postal_code" v="13158"/>
    <tag k="ref" v="B 96a"/>
    <tag k="sidewalk:left" v="no"/>
    <tag k="sidewalk:right" v="separate"/>
    <tag k="sidewalk:right:bicycle" v="yes"/>
    <tag k="sidewalk:right:surface" v="paving_stones"/>
    <tag k="smoothness" v="good"/>
    <tag k="surface" v="asphalt"/>
  </way>
  <way id="1121190726" version="7" timestamp="2025-02-11T23:07:22Z" changeset="162410098" uid="44217" user="kjon">
    <nd ref="30822924"/>
    <nd ref="3822972858"/>
    <nd ref="10255335260"/>
    <tag k="cycleway:both" v="no"/>
    <tag k="highway" v="primary"/>
    <tag k="lanes" v="1"/>
    <tag k="lit" v="yes"/>
    <tag k="maxspeed" v="50"/>
    <tag k="name" v="Blankenfelder Chaussee"/>
    <tag k="name:etymology:wikidata" v="Q702621"/>
    <tag k="name:etymology:wikipedia" v="de:Berlin-Blankenfelde"/>
    <tag k="oneway" v="yes"/>
    <tag k="parking:left" v="no"/>
    <tag k="postal_code" v="13158"/>
    <tag k="ref" v="B 96a"/>
    <tag k="sidewalk:left" v="no"/>
    <tag k="sidewalk:right" v="separate"/>
    <tag k="sidewalk:right:bicycle" v="yes"/>
    <tag k="smoothness" v="good"/>
    <tag k="surface" v="asphalt"/>
  </way>
  <way id="1132424167" version="6" timestamp="2025-02-11T23:07:22Z" changeset="162410098" uid="44217" user="kjon">
    <nd ref="7129286310"/>
    <nd ref="7129286300"/>
    <nd ref="10565013632"/>
    <nd ref="7129286301"/>
    <nd ref="7129286302"/>
    <nd ref="7129286303"/>
    <nd ref="9429512736"/>
    <nd ref="7129286304"/>
    <nd ref="7129286305"/>
    <tag k="cycleway:both" v="lane"/>
    <tag k="cycleway:both:lane" v="exclusive"/>
    <tag k="foot" v="use_sidepath"/>
    <tag k="highway" v="secondary"/>
    <tag k="lanes" v="2"/>
    <tag k="lit" v="yes"/>
    <tag k="maxspeed" v="50"/>
    <tag k="name" v="Rosenthaler Weg"/>
    <tag k="name:etymology:wikidata" v="Q693521"/>
    <tag k="parking:both" v="no"/>
    <tag k="postal_code" v="13127"/>
    <tag k="sidewalk:both" v="separate"/>
    <tag k="smoothness" v="excellent"/>
    <tag k="surface" v="asphalt"/>
    <tag k="wikidata" v="Q67657932"/>
  </way>
  <way id="1132424755" version="5" timestamp="2025-02-11T23:07:22Z" changeset="162410098" uid="44217" user="kjon">
    <nd ref="4543122876"/>
    <nd ref="7129286365"/>
    <nd ref="7129286364"/>
    <nd ref="734440698"/>
    <tag k="cycleway:left" v="no"/>
    <tag k="cycleway:right" v="lane"/>
    <tag k="cycleway:right:lane" v="advisory"/>
    <tag k="foot" v="use_sidepath"/>
    <tag k="highway" v="secondary"/>
    <tag k="lanes" v="1"/>
    <tag k="lit" v="yes"/>
    <tag k="maxspeed" v="30"/>
    <tag k="name" v="Rosenthaler Weg"/>
    <tag k="name:etymology:wikidata" v="Q693521"/>
    <tag k="oneway" v="yes"/>
    <tag k="parking:both" v="no"/>
    <tag k="postal_code" v="13127"/>
    <tag k="sidewalk:left" v="no"/>
    <tag k="sidewalk:right" v="separate"/>
    <tag k="smoothness" v="excellent"/>
    <tag k="surface" v="asphalt"/>
    <tag k="wikidata" v="Q67657932"/>
  </way>
  <way id="1132749225" version="4" timestamp="2025-02-11T23:07:22Z" changeset="162410098" uid="44217" user="kjon">
    <nd ref="7129286363"/>
    <nd ref="4543122876"/>
    <tag k="cycleway:left" v="no"/>
    <tag k="cycleway:right" v="lane"/>
    <tag k="cycleway:right:lane" v="exclusive"/>
    <tag k="foot" v="use_sidepath"/>
    <tag k="highway" v="secondary"/>
    <tag k="lane_markings" v="no"/>
    <tag k="lit" v="yes"/>
    <tag k="maxspeed" v="30"/>
    <tag k="name" v="Rosenthaler Weg"/>
    <tag k="name:etymology:wikidata" v="Q693521"/>
    <tag k="oneway" v="yes"/>
    <tag k="parking:both" v="no"/>
    <tag k="postal_code" v="13127"/>
    <tag k="sidewalk:left" v="no"/>
    <tag k="sidewalk:right" v="separate"/>
    <tag k="smoothness" v="good"/>
    <tag k="surface" v="asphalt"/>
    <tag k="wikidata" v="Q67657932"/>
  </way>
  <way id="1132749226" version="4" timestamp="2025-02-11T23:07:22Z" changeset="162410098" uid="44217" user="kjon">
    <nd ref="9853092091"/>
    <nd ref="1821463209"/>
    <tag k="cycleway:left" v="no"/>
    <tag k="cycleway:right" v="lane"/>
    <tag k="cycleway:right:lane" v="exclusive"/>
    <tag k="foot" v="use_sidepath"/>
    <tag k="highway" v="secondary"/>
    <tag k="lane_markings" v="no"/>
    <tag k="lit" v="yes"/>
    <tag k="maxspeed" v="30"/>
    <tag k="name" v="Rosenthaler Weg"/>
    <tag k="name:etymology:wikidata" v="Q693521"/>
    <tag k="oneway" v="yes"/>
    <tag k="parking:both" v="no"/>
    <tag k="postal_code" v="13127"/>
    <tag k="sidewalk:left" v="no"/>
    <tag k="sidewalk:right" v="separate"/>
    <tag k="smoothness" v="good"/>
    <tag k="surface" v="asphalt"/>
    <tag k="wikidata" v="Q67657932"/>
  </way>
  <way id="1132776627" version="2" timestamp="2024-02-19T09:53:58Z" changeset="147642139" uid="19550286" user="MoriGM">
    <nd ref="662223435"/>
    <nd ref="169499016"/>
    <nd ref="10562317702"/>
    <tag k="cycleway:both" v="no"/>
    <tag k="foot" v="use_sidepath"/>
    <tag k="highway" v="residential"/>
    <tag k="lit" v="yes"/>
    <tag k="maxspeed" v="30"/>
    <tag k="name" v="Mazetstraße"/>
    <tag k="name:etymology:wikidata" v="Q16867380"/>
    <tag k="postal_code" v="13127"/>
    <tag k="sidewalk:both" v="separate"/>
    <tag k="smoothness" v="good"/>
    <tag k="source:maxspeed" v="DE:zone30"/>
    <tag k="surface" v="asphalt"/>
    <tag k="zone:maxspeed" v="DE:30"/>
  </way>
  <way id="1133133805" version="3" timestamp="2025-02-11T23:07:22Z" changeset="162410098" uid="44217" user="kjon">
    <nd ref="4543122877"/>
    <nd ref="9429512764"/>
    <nd ref="297864333"/>
    <nd ref="5882368850"/>
    <nd ref="297864330"/>
    <nd ref="4543122878"/>
    <tag k="cycleway:both" v="lane"/>
    <tag k="cycleway:both:lane" v="exclusive"/>
    <tag k="foot" v="use_sidepath"/>
    <tag k="highway" v="secondary"/>
    <tag k="lanes" v="2"/>
    <tag k="lit" v="yes"/>
    <tag k="maxspeed" v="50"/>
    <tag k="name" v="Rosenthaler Weg"/>
    <tag k="name:etymology:wikidata" v="Q693521"/>
    <tag k="parking:both" v="separate"/>
    <tag k="postal_code" v="13127"/>
    <tag k="sidewalk:both" v="separate"/>
    <tag k="smoothness" v="excellent"/>
    <tag k="surface" v="asphalt"/>
    <tag k="wikidata" v="Q67657932"/>
  </way>
  <way id="1133133806" version="4" timestamp="2025-02-11T23:07:22Z" changeset="162410098" uid="44217" user="kjon">
    <nd ref="4543122878"/>
    <nd ref="5749762625"/>
    <nd ref="9429512757"/>
    <nd ref="297864323"/>
    <nd ref="5749762624"/>
    <nd ref="4543122880"/>
    <tag k="cycleway:both" v="lane"/>
    <tag k="cycleway:both:lane" v="exclusive"/>
    <tag k="foot" v="use_sidepath"/>
    <tag k="highway" v="secondary"/>
    <tag k="lanes" v="2"/>
    <tag k="lit" v="yes"/>
    <tag k="maxspeed" v="50"/>
    <tag k="name" v="Rosenthaler Weg"/>
    <tag k="name:etymology:wikidata" v="Q693521"/>
    <tag k="parking:left" v="no"/>
    <tag k="parking:right" v="separate"/>
    <tag k="postal_code" v="13127"/>
    <tag k="sidewalk:both" v="separate"/>
    <tag k="smoothness" v="excellent"/>
    <tag k="surface" v="asphalt"/>
    <tag k="wikidata" v="Q67657932"/>
  </way>
  <way id="1133133807" version="4" timestamp="2025-02-11T23:07:22Z" changeset="162410098" uid="44217" user="kjon">
    <nd ref="10564990752"/>
    <nd ref="7129286310"/>
    <tag k="cycleway:both" v="lane"/>
    <tag k="cycleway:both:lane" v="exclusive"/>
    <tag k="foot" v="use_sidepath"/>
    <tag k="highway" v="secondary"/>
    <tag k="lanes" v="2"/>
    <tag k="lit" v="yes"/>
    <tag k="maxspeed" v="50"/>
    <tag k="name" v="Rosenthaler Weg"/>
    <tag k="name:etymology:wikidata" v="Q693521"/>
    <tag k="parking:both" v="no"/>
    <tag k="postal_code" v="13127"/>
    <tag k="sidewalk:both" v="separate"/>
    <tag k="smoothness" v="excellent"/>
    <tag k="surface" v="asphalt"/>
    <tag k="wikidata" v="Q67657932"/>
  </way>
  <way id="1153858231" version="3" timestamp="2024-12-07T04:44:55Z" changeset="160015631" uid="11211647" user="wermak">
    <nd ref="12401403680"/>
    <nd ref="27088118"/>
    <tag k="destination" v="Berlin-Zentrum (Alexanderplatz);-Pankow"/>
    <tag k="destination:ref" v="A 114"/>
    <tag k="highway" v="motorway"/>
    <tag k="lanes" v="2"/>
    <tag k="lit" v="no"/>
    <tag k="maxspeed" v="100"/>
    <tag k="oneway" v="yes"/>
    <tag k="ref" v="A 114"/>
    <tag k="smoothness" v="intermediate"/>
    <tag k="surface" v="asphalt"/>
    <tag k="urban" v="yes"/>
  </way>
  <way id="1181715671" version="3" timestamp="2023-11-23T14:49:20Z" changeset="144372995" uid="10961311" user="StefanHRT">
    <nd ref="5141433727"/>
    <nd ref="413336510"/>
    <tag k="cycleway:left" v="no"/>
    <tag k="cycleway:right" v="lane"/>
    <tag k="foot" v="use_sidepath"/>
    <tag k="highway" v="tertiary"/>
    <tag k="lanes" v="2"/>
    <tag k="lit" v="yes"/>
    <tag k="maxspeed" v="50"/>
    <tag k="name" v="Blankenfelder Straße"/>
    <tag k="name:etymology:wikidata" v="Q702621"/>
    <tag k="postal_code" v="13127"/>
    <tag k="sidewalk:left" v="separate"/>
    <tag k="sidewalk:right" v="no"/>
    <tag k="smoothness" v="good"/>
    <tag k="surface" v="asphalt"/>
    <tag k="wikidata" v="Q93445066"/>
  </way>
  <way id="1181715677" version="3" timestamp="2023-11-23T14:49:20Z" changeset="144372995" uid="10961311" user="StefanHRT">
    <nd ref="10973335576"/>
    <nd ref="11371302837"/>
    <nd ref="5141433727"/>
    <tag k="bicycle" v="optional_sidepath"/>
    <tag k="cycleway:both" v="separate"/>
    <tag k="foot" v="use_sidepath"/>
    <tag k="highway" v="tertiary"/>
    <tag k="lanes" v="2"/>
    <tag k="lit" v="yes"/>
    <tag k="maxspeed" v="50"/>
    <tag k="name" v="Blankenfelder Straße"/>
    <tag k="name:etymology:wikidata" v="Q702621"/>
    <tag k="postal_code" v="13127"/>
    <tag k="sidewalk:left" v="separate"/>
    <tag k="sidewalk:right" v="no"/>
    <tag k="smoothness" v="good"/>
    <tag k="surface" v="asphalt"/>
    <tag k="wikidata" v="Q93445066"/>
  </way>
  <way id="1203053403" version="1" timestamp="2023-08-29T08:45:02Z" changeset="140529271" uid="66391" user="geozeisig">
    <nd ref="11152477479"/>
    <nd ref="11152477476"/>
    <nd ref="11152477477"/>
    <nd ref="11152477478"/>
    <nd ref="11152477479"/>
    <tag k="addr:city" v="Berlin"/>
    <tag k="addr:country" v="DE"/>
    <tag k="addr:housenumber" v="20"/>
    <tag k="addr:postcode" v="13159"/>
    <tag k="addr:street" v="Picardieweg"/>
    <tag k="addr:suburb" v="Blankenfelde"/>
    <tag k="building" v="yes"/>
    <tag k="source" v="Geoportal Berlin / Hauskoordinaten"/>
  </way>
  <way id="1203053404" version="1" timestamp="2023-08-29T08:45:02Z" changeset="140529271" uid="66391" user="geozeisig">
    <nd ref="11152477483"/>
    <nd ref="11152477480"/>
    <nd ref="11152477481"/>
    <nd ref="11152477482"/>
    <nd ref="11152477483"/>
    <tag k="addr:city" v="Berlin"/>
    <tag k="addr:country" v="DE"/>
    <tag k="addr:housenumber" v="25"/>
    <tag k="addr:postcode" v="13159"/>
    <tag k="addr:street" v="Champagneweg"/>
    <tag k="addr:suburb" v="Blankenfelde"/>
    <tag k="building" v="yes"/>
    <tag k="source" v="Geoportal Berlin / Hauskoordinaten"/>
  </way>
  <way id="1203053405" version="1" timestamp="2023-08-29T08:45:02Z" changeset="140529271" uid="66391" user="geozeisig">
    <nd ref="11152477487"/>
    <nd ref="11152477484"/>
    <nd ref="11152477485"/>
    <nd ref="11152477486"/>
    <nd ref="11152477487"/>
    <tag k="addr:city" v="Berlin"/>
    <tag k="addr:country" v="DE"/>
    <tag k="addr:housenumber" v="26"/>
    <tag k="addr:postcode" v="13159"/>
    <tag k="addr:street" v="Champagneweg"/>
    <tag k="addr:suburb" v="Blankenfelde"/>
    <tag k="building" v="yes"/>
    <tag k="source" v="Geoportal Berlin / Hauskoordinaten"/>
  </way>
  <way id="1203053406" version="1" timestamp="2023-08-29T08:45:02Z" changeset="140529271" uid="66391" user="geozeisig">
    <nd ref="11152459382"/>
    <nd ref="11152477489"/>
    <nd ref="11152459380"/>
    <nd ref="11152459381"/>
    <nd ref="11152459382"/>
    <tag k="addr:city" v="Berlin"/>
    <tag k="addr:country" v="DE"/>
    <tag k="addr:housenumber" v="5"/>
    <tag k="addr:postcode" v="13159"/>
    <tag k="addr:street" v="Bretagneweg"/>
    <tag k="addr:suburb" v="Blankenfelde"/>
    <tag k="building" v="yes"/>
    <tag k="source" v="Geoportal Berlin / Hauskoordinaten"/>
  </way>
  <way id="1306005139" version="1" timestamp="2024-08-06T18:22:28Z" changeset="154904800" uid="10961311" user="StefanHRT">
    <nd ref="12095712864"/>
    <nd ref="4306113539"/>
    <tag k="cycleway:both" v="no"/>
    <tag k="highway" v="unclassified"/>
    <tag k="maxspeed" v="30"/>
    <tag k="name" v="Hauptstraße"/>
    <tag k="name:etymology:wikidata" v="Q1006835"/>
    <tag k="name:etymology:wikipedia" v="de:Hauptstraße (allgemein)"/>
    <tag k="postal_code" v="13159"/>
    <tag k="surface" v="paved"/>
  </way>
  <way id="1306005140" version="1" timestamp="2024-08-06T18:22:28Z" changeset="154904800" uid="10961311" user="StefanHRT">
    <nd ref="12095712865"/>
    <nd ref="4306113538"/>
    <nd ref="12095712866"/>
    <tag k="cycleway:both" v="no"/>
    <tag k="highway" v="unclassified"/>
    <tag k="maxspeed" v="30"/>
    <tag k="maxspeed:type" v="sign"/>
    <tag k="name" v="Hauptstraße"/>
    <tag k="name:etymology:wikidata" v="Q1006835"/>
    <tag k="name:etymology:wikipedia" v="de:Hauptstraße (allgemein)"/>
    <tag k="postal_code" v="13159"/>
    <tag k="surface" v="concrete"/>
  </way>

</osm>
