<?xml version="1.0" encoding="UTF-8"?>
<osm version="0.6" generator="Overpass API 0.7.62.5 1bd436f1">
<note>The data included in this document is from www.openstreetmap.org. The data is made available under ODbL.</note>
<meta osm_base="2025-05-18T02:43:59Z" areas="2024-12-31T00:49:33Z"/>

  <node id="252114" lat="50.1602138" lon="14.4799356" version="5" timestamp="2025-02-14T20:58:07Z" changeset="162518265" uid="4018695" user="游뻟릖 Roman Horn칤k"/>
  <node id="21764280" lat="50.1657095" lon="14.4682182" version="6" timestamp="2025-02-14T20:58:07Z" changeset="162518265" uid="4018695" user="游뻟릖 Roman Horn칤k"/>
  <node id="25987748" lat="50.1642727" lon="14.4593814" version="3" timestamp="2021-11-08T14:05:31Z" changeset="113524157" uid="11545091" user="VladaC"/>
  <node id="25988428" lat="50.1723441" lon="14.4839791" version="4" timestamp="2017-05-23T06:37:14Z" changeset="48906966" uid="145231" user="woodpeck_repair"/>
  <node id="73482681" lat="50.1609250" lon="14.4835540" version="2" timestamp="2009-11-18T08:15:53Z" changeset="3148126" uid="5748" user="pschonmann">
    <tag k="source" v="HELP SERVICE - REMOTE SENSING spol. s r.o. http://www.bnhelp.cz"/>
  </node>
  <node id="1816801361" lat="50.1622599" lon="14.4893887" version="2" timestamp="2018-12-07T17:13:00Z" changeset="65274050" uid="3003739" user="r00tcz"/>
  <node id="3179674837" lat="50.1626027" lon="14.4746309" version="1" timestamp="2014-11-10T21:20:35Z" changeset="26698010" uid="1708065" user="Salamandr">
    <tag k="name" v="Praha"/>
    <tag k="traffic_sign" v="city_limit"/>
  </node>
  <node id="3179674844" lat="50.1670184" lon="14.4653460" version="2" timestamp="2015-08-21T19:33:12Z" changeset="33491579" uid="102554" user="Jezevec"/>
  <way id="8065584" version="10" timestamp="2023-08-15T12:30:10Z" changeset="139912636" uid="100163" user="Hlav">
    <nd ref="5387558348"/>
    <nd ref="25988283"/>
    <nd ref="444644388"/>
    <tag k="highway" v="residential"/>
    <tag k="lanes" v="2"/>
    <tag k="maxspeed" v="30"/>
    <tag k="maxspeed:type" v="CZ:zone30"/>
    <tag k="name" v="Na Poli"/>
    <tag k="source" v="survey;gps;aerial imagery;cuzk:km"/>
    <tag k="surface" v="asphalt"/>
    <tag k="zone:maxspeed" v="30"/>
  </way>
  <way id="8065591" version="8" timestamp="2024-04-18T21:45:46Z" changeset="150195689" uid="3003739" user="r00tcz">
    <nd ref="25988337"/>
    <nd ref="3978017603"/>
    <nd ref="25988338"/>
    <nd ref="11829318778"/>
    <nd ref="25988339"/>
    <tag k="highway" v="residential"/>
    <tag k="name" v="Na Boleslavce"/>
  </way>
  <way id="8065593" version="9" timestamp="2018-12-07T17:13:02Z" changeset="65274050" uid="3003739" user="r00tcz">
    <nd ref="1816801361"/>
    <nd ref="1816801360"/>
    <nd ref="1816801297"/>
    <nd ref="1816801291"/>
    <nd ref="1816801354"/>
    <nd ref="1816801294"/>
    <nd ref="1816801350"/>
    <nd ref="1816801336"/>
    <nd ref="1816801359"/>
    <nd ref="6123752510"/>
    <nd ref="2296283331"/>
    <tag k="highway" v="residential"/>
    <tag k="name" v="KB콏ezin캩vsi"/>
  </way>
  <way id="8378751" version="10" timestamp="2021-11-08T14:05:31Z" changeset="113524157" uid="11545091" user="VladaC">
    <nd ref="25987748"/>
    <nd ref="9235508342"/>
    <nd ref="5353153982"/>
    <nd ref="5353153983"/>
    <nd ref="9235508328"/>
    <nd ref="5353153984"/>
    <nd ref="9235508327"/>
    <nd ref="25987825"/>
    <nd ref="25987826"/>
    <nd ref="9235508326"/>
    <nd ref="5353153985"/>
    <nd ref="25987827"/>
    <nd ref="5353153986"/>
    <nd ref="9235508325"/>
    <nd ref="25987828"/>
    <nd ref="9235508324"/>
    <nd ref="9235508323"/>
    <nd ref="9235508322"/>
    <nd ref="25987829"/>
    <nd ref="25987830"/>
    <nd ref="25987831"/>
    <nd ref="2268145392"/>
    <nd ref="25987832"/>
    <tag k="highway" v="unclassified"/>
    <tag k="surface" v="asphalt"/>
  </way>
  <way id="8378761" version="11" timestamp="2025-02-02T16:20:07Z" changeset="162053339" uid="4018695" user="游뻟릖 Roman Horn칤k">
    <nd ref="25987748"/>
    <nd ref="9235508341"/>
    <nd ref="5353153975"/>
    <nd ref="7453799170"/>
    <nd ref="7453799171"/>
    <nd ref="25987848"/>
    <nd ref="7453799108"/>
    <nd ref="5353153976"/>
    <nd ref="7453799088"/>
    <nd ref="9235508339"/>
    <nd ref="25987857"/>
    <nd ref="9235508338"/>
    <nd ref="5353153977"/>
    <nd ref="9235508337"/>
    <nd ref="25987865"/>
    <nd ref="5353153978"/>
    <nd ref="9235508336"/>
    <nd ref="5353153979"/>
    <nd ref="25987872"/>
    <nd ref="12551456270"/>
    <nd ref="5353153980"/>
    <nd ref="12551456269"/>
    <nd ref="25987882"/>
    <nd ref="5568519250"/>
    <nd ref="12551456268"/>
    <nd ref="25987891"/>
    <nd ref="12551456267"/>
    <nd ref="5568519251"/>
    <nd ref="12551456266"/>
    <nd ref="25987899"/>
    <tag k="highway" v="unclassified"/>
    <tag k="surface" v="asphalt"/>
  </way>
  <way id="8378767" version="8" timestamp="2024-07-11T08:05:48Z" changeset="153812514" uid="100163" user="Hlav">
    <nd ref="25987899"/>
    <nd ref="25987907"/>
    <tag k="bridge" v="yes"/>
    <tag k="bridge:structure" v="beam"/>
    <tag k="highway" v="unclassified"/>
    <tag k="layer" v="1"/>
    <tag k="surface" v="asphalt"/>
  </way>
  <way id="8378768" version="10" timestamp="2025-02-02T16:20:07Z" changeset="162053339" uid="4018695" user="游뻟릖 Roman Horn칤k">
    <nd ref="25987907"/>
    <nd ref="12551456265"/>
    <nd ref="7869932727"/>
    <nd ref="12551456263"/>
    <nd ref="5387558356"/>
    <nd ref="12551456264"/>
    <nd ref="25987914"/>
    <nd ref="25987916"/>
    <nd ref="12551456271"/>
    <nd ref="5387558357"/>
    <nd ref="444644392"/>
    <tag k="highway" v="unclassified"/>
    <tag k="surface" v="asphalt"/>
  </way>
  <way id="26192756" version="4" timestamp="2016-01-30T14:59:57Z" changeset="36899438" uid="507276" user="jkjkjk">
    <nd ref="286811826"/>
    <nd ref="3978017628"/>
    <nd ref="286811832"/>
    <nd ref="286811828"/>
    <nd ref="286811830"/>
    <tag k="highway" v="residential"/>
    <tag k="name" v="Vzd치len치"/>
  </way>
  <way id="26192757" version="3" timestamp="2011-04-27T08:27:04Z" changeset="7982656" uid="17615" user="Petr Dlouh칳">
    <nd ref="286811832"/>
    <nd ref="286811834"/>
    <tag k="highway" v="residential"/>
  </way>
  <way id="110515760" version="6" timestamp="2020-07-25T19:56:20Z" changeset="88505083" uid="1189910" user="Milancer">
    <nd ref="1261887145"/>
    <nd ref="1261887090"/>
    <nd ref="7747314939"/>
    <tag k="highway" v="residential"/>
    <tag k="source" v="bing:ortofoto"/>
  </way>
  <way id="110515784" version="5" timestamp="2023-01-29T12:46:58Z" changeset="131839081" uid="6588887" user="Martin2035">
    <nd ref="1261887227"/>
    <nd ref="1261886987"/>
    <nd ref="6123751799"/>
    <nd ref="1261886814"/>
    <tag k="highway" v="residential"/>
    <tag k="lanes" v="2"/>
    <tag k="maxspeed" v="30"/>
    <tag k="maxspeed:type" v="CZ:zone30"/>
    <tag k="name" v="Petr치캜kova"/>
    <tag k="source" v="bing:ortofoto"/>
    <tag k="source:name" v="ruian"/>
    <tag k="surface" v="asphalt"/>
    <tag k="zone:maxspeed" v="30"/>
  </way>
  <way id="110515785" version="5" timestamp="2023-07-22T15:06:52Z" changeset="138858509" uid="17272867" user="Zet_">
    <nd ref="286811826"/>
    <nd ref="1261886887"/>
    <nd ref="10591534303"/>
    <nd ref="1261887168"/>
    <nd ref="1261887095"/>
    <tag k="highway" v="residential"/>
    <tag k="lanes" v="2"/>
    <tag k="maxspeed" v="30"/>
    <tag k="maxspeed:type" v="CZ:zone30"/>
    <tag k="name" v="Vzd치len치"/>
    <tag k="smoothness" v="excellent"/>
    <tag k="source" v="bing:ortofoto"/>
    <tag k="surface" v="asphalt"/>
    <tag k="zone:maxspeed" v="30"/>
  </way>
  <way id="127636568" version="10" timestamp="2025-04-28T20:40:44Z" changeset="165565580" uid="12080464" user="Vojt캩ch Kade콏치bek">
    <nd ref="11067128916"/>
    <nd ref="11067128915"/>
    <nd ref="11067128914"/>
    <nd ref="11067128913"/>
    <nd ref="11067128912"/>
    <nd ref="12796093434"/>
    <nd ref="444644388"/>
    <nd ref="5387558341"/>
    <nd ref="25988293"/>
    <nd ref="7747314953"/>
    <nd ref="25988294"/>
    <nd ref="3457909116"/>
    <nd ref="25988295"/>
    <nd ref="6123751621"/>
    <nd ref="25988323"/>
    <nd ref="7747314951"/>
    <nd ref="1261886875"/>
    <nd ref="6123751620"/>
    <nd ref="6123751619"/>
    <nd ref="6123751618"/>
    <nd ref="1610940874"/>
    <nd ref="25988314"/>
    <tag k="highway" v="residential"/>
    <tag k="lanes" v="2"/>
    <tag k="maxspeed" v="30"/>
    <tag k="maxspeed:type" v="CZ:zone30"/>
    <tag k="name" v="KB콏ezince"/>
    <tag k="surface" v="asphalt"/>
    <tag k="zone:maxspeed" v="30"/>
  </way>
  <way id="134255687" version="7" timestamp="2018-11-08T14:31:36Z" changeset="64294685" uid="2169558" user="JandaM">
    <nd ref="2938562626"/>
    <nd ref="2938562638"/>
    <nd ref="2938562640"/>
    <nd ref="2938562686"/>
    <nd ref="2938562684"/>
    <nd ref="2938562695"/>
    <nd ref="2938562691"/>
    <nd ref="2938562620"/>
    <nd ref="2938562624"/>
    <nd ref="2938562622"/>
    <nd ref="2938562614"/>
    <nd ref="2938562615"/>
    <nd ref="2938562626"/>
    <tag k="addr:conscriptionnumber" v="382"/>
    <tag k="addr:country" v="CZ"/>
    <tag k="addr:housenumber" v="382/14"/>
    <tag k="addr:place" v="B콏ezin캩ves"/>
    <tag k="addr:postcode" v="18200"/>
    <tag k="addr:street" v="V p캩코ink치ch"/>
    <tag k="addr:streetnumber" v="14"/>
    <tag k="building" v="house"/>
    <tag k="building:flats" v="1"/>
    <tag k="building:levels" v="2"/>
    <tag k="building:ruian:type" v="7"/>
    <tag k="ref:ruian:addr" v="27918823"/>
    <tag k="ref:ruian:building" v="27387801"/>
    <tag k="source" v="cuzk:ruian"/>
    <tag k="start_date" v="2009-09-11"/>
  </way>
  <way id="134255690" version="7" timestamp="2018-11-08T14:31:36Z" changeset="64294685" uid="2169558" user="JandaM">
    <nd ref="2938562379"/>
    <nd ref="2938562426"/>
    <nd ref="2938562422"/>
    <nd ref="2938562440"/>
    <nd ref="2938562431"/>
    <nd ref="2938562355"/>
    <nd ref="2938562357"/>
    <nd ref="2938562377"/>
    <nd ref="2938562379"/>
    <tag k="addr:conscriptionnumber" v="383"/>
    <tag k="addr:country" v="CZ"/>
    <tag k="addr:housenumber" v="383/26"/>
    <tag k="addr:place" v="B콏ezin캩ves"/>
    <tag k="addr:postcode" v="18200"/>
    <tag k="addr:street" v="V p캩코ink치ch"/>
    <tag k="addr:streetnumber" v="26"/>
    <tag k="building" v="house"/>
    <tag k="building:flats" v="1"/>
    <tag k="building:levels" v="2"/>
    <tag k="building:ruian:type" v="7"/>
    <tag k="ref:ruian:addr" v="27918831"/>
    <tag k="ref:ruian:building" v="27387810"/>
    <tag k="source" v="cuzk:ruian"/>
    <tag k="start_date" v="2009-09-11"/>
  </way>
  <way id="134255696" version="7" timestamp="2018-11-08T14:31:36Z" changeset="64294685" uid="2169558" user="JandaM">
    <nd ref="2938562406"/>
    <nd ref="2938562419"/>
    <nd ref="2938562423"/>
    <nd ref="2938562470"/>
    <nd ref="2938562464"/>
    <nd ref="2938562478"/>
    <nd ref="2938562471"/>
    <nd ref="2938562395"/>
    <nd ref="2938562398"/>
    <nd ref="2938562396"/>
    <nd ref="2938562388"/>
    <nd ref="2938562389"/>
    <nd ref="2938562400"/>
    <nd ref="2938562406"/>
    <tag k="addr:conscriptionnumber" v="384"/>
    <tag k="addr:country" v="CZ"/>
    <tag k="addr:housenumber" v="384/12"/>
    <tag k="addr:place" v="B콏ezin캩ves"/>
    <tag k="addr:postcode" v="18200"/>
    <tag k="addr:street" v="V p캩코ink치ch"/>
    <tag k="addr:streetnumber" v="12"/>
    <tag k="building" v="house"/>
    <tag k="building:flats" v="1"/>
    <tag k="building:levels" v="2"/>
    <tag k="building:ruian:type" v="7"/>
    <tag k="ref:ruian:addr" v="27925510"/>
    <tag k="ref:ruian:building" v="27394166"/>
    <tag k="source" v="cuzk:ruian"/>
    <tag k="start_date" v="2009-09-24"/>
  </way>
  <way id="134255704" version="7" timestamp="2018-11-08T14:31:37Z" changeset="64294685" uid="2169558" user="JandaM">
    <nd ref="2938562617"/>
    <nd ref="2938562685"/>
    <nd ref="2938562683"/>
    <nd ref="2938562676"/>
    <nd ref="2938562673"/>
    <nd ref="2938562621"/>
    <nd ref="2938562625"/>
    <nd ref="2938562611"/>
    <nd ref="2938562617"/>
    <tag k="addr:conscriptionnumber" v="385"/>
    <tag k="addr:country" v="CZ"/>
    <tag k="addr:housenumber" v="385/16"/>
    <tag k="addr:place" v="B콏ezin캩ves"/>
    <tag k="addr:postcode" v="18200"/>
    <tag k="addr:street" v="V p캩코ink치ch"/>
    <tag k="addr:streetnumber" v="16"/>
    <tag k="building" v="house"/>
    <tag k="building:flats" v="1"/>
    <tag k="building:levels" v="2"/>
    <tag k="building:ruian:type" v="7"/>
    <tag k="ref:ruian:addr" v="27925528"/>
    <tag k="ref:ruian:building" v="27394174"/>
    <tag k="source" v="cuzk:ruian"/>
    <tag k="start_date" v="2009-09-24"/>
  </way>
  <way id="134255705" version="7" timestamp="2018-11-08T14:31:37Z" changeset="64294685" uid="2169558" user="JandaM">
    <nd ref="2938562361"/>
    <nd ref="2938562411"/>
    <nd ref="2938562409"/>
    <nd ref="2938562438"/>
    <nd ref="2938562424"/>
    <nd ref="2938562372"/>
    <nd ref="2938562375"/>
    <nd ref="2938562354"/>
    <nd ref="2938562361"/>
    <tag k="addr:conscriptionnumber" v="386"/>
    <tag k="addr:country" v="CZ"/>
    <tag k="addr:housenumber" v="386/24"/>
    <tag k="addr:place" v="B콏ezin캩ves"/>
    <tag k="addr:postcode" v="18200"/>
    <tag k="addr:street" v="V p캩코ink치ch"/>
    <tag k="addr:streetnumber" v="24"/>
    <tag k="building" v="house"/>
    <tag k="building:flats" v="1"/>
    <tag k="building:levels" v="2"/>
    <tag k="building:ruian:type" v="7"/>
    <tag k="ref:ruian:addr" v="27925536"/>
    <tag k="ref:ruian:building" v="27394182"/>
    <tag k="source" v="cuzk:ruian"/>
    <tag k="start_date" v="2009-09-24"/>
  </way>
  <way id="134255706" version="7" timestamp="2018-11-08T14:31:37Z" changeset="64294685" uid="2169558" user="JandaM">
    <nd ref="2938562533"/>
    <nd ref="2938562563"/>
    <nd ref="2938562561"/>
    <nd ref="2938562578"/>
    <nd ref="2938562573"/>
    <nd ref="2938562557"/>
    <nd ref="2938562555"/>
    <nd ref="2938562526"/>
    <nd ref="2938562533"/>
    <tag k="addr:conscriptionnumber" v="387"/>
    <tag k="addr:country" v="CZ"/>
    <tag k="addr:housenumber" v="387/28"/>
    <tag k="addr:place" v="B콏ezin캩ves"/>
    <tag k="addr:postcode" v="18200"/>
    <tag k="addr:street" v="V p캩코ink치ch"/>
    <tag k="addr:streetnumber" v="28"/>
    <tag k="building" v="house"/>
    <tag k="building:flats" v="1"/>
    <tag k="building:levels" v="2"/>
    <tag k="building:ruian:type" v="7"/>
    <tag k="ref:ruian:addr" v="27925544"/>
    <tag k="ref:ruian:building" v="27394191"/>
    <tag k="source" v="cuzk:ruian"/>
    <tag k="start_date" v="2009-09-24"/>
  </way>
  <way id="134255707" version="7" timestamp="2018-11-08T14:31:38Z" changeset="64294685" uid="2169558" user="JandaM">
    <nd ref="2938562469"/>
    <nd ref="2938562466"/>
    <nd ref="2938562480"/>
    <nd ref="2938562474"/>
    <nd ref="2938562399"/>
    <nd ref="2938562407"/>
    <nd ref="2938562421"/>
    <nd ref="2938562425"/>
    <nd ref="2938562469"/>
    <tag k="addr:conscriptionnumber" v="388"/>
    <tag k="addr:country" v="CZ"/>
    <tag k="addr:housenumber" v="388/10"/>
    <tag k="addr:place" v="B콏ezin캩ves"/>
    <tag k="addr:postcode" v="18200"/>
    <tag k="addr:street" v="V p캩코ink치ch"/>
    <tag k="addr:streetnumber" v="10"/>
    <tag k="building" v="house"/>
    <tag k="building:flats" v="1"/>
    <tag k="building:levels" v="2"/>
    <tag k="building:ruian:type" v="7"/>
    <tag k="ref:ruian:addr" v="27970442"/>
    <tag k="ref:ruian:building" v="27437663"/>
    <tag k="source" v="cuzk:ruian"/>
    <tag k="start_date" v="2009-11-10"/>
  </way>
  <way id="134255708" version="7" timestamp="2018-11-08T14:31:38Z" changeset="64294685" uid="2169558" user="JandaM">
    <nd ref="2938562469"/>
    <nd ref="2938562425"/>
    <nd ref="2938562427"/>
    <nd ref="2938562417"/>
    <nd ref="2938562420"/>
    <nd ref="2938562489"/>
    <nd ref="2938562486"/>
    <nd ref="2938562472"/>
    <nd ref="2938562469"/>
    <tag k="addr:conscriptionnumber" v="390"/>
    <tag k="addr:country" v="CZ"/>
    <tag k="addr:housenumber" v="390/8"/>
    <tag k="addr:place" v="B콏ezin캩ves"/>
    <tag k="addr:postcode" v="18200"/>
    <tag k="addr:street" v="V p캩코ink치ch"/>
    <tag k="addr:streetnumber" v="8"/>
    <tag k="building" v="house"/>
    <tag k="building:flats" v="1"/>
    <tag k="building:levels" v="2"/>
    <tag k="building:ruian:type" v="7"/>
    <tag k="ref:ruian:addr" v="28009916"/>
    <tag k="ref:ruian:building" v="27476499"/>
    <tag k="source" v="cuzk:ruian"/>
    <tag k="start_date" v="2009-12-08"/>
  </way>
  <way id="134255709" version="7" timestamp="2018-11-08T14:31:38Z" changeset="64294685" uid="2169558" user="JandaM">
    <nd ref="2938562650"/>
    <nd ref="2938562717"/>
    <nd ref="2938562712"/>
    <nd ref="2938562705"/>
    <nd ref="2938562704"/>
    <nd ref="2938562656"/>
    <nd ref="2938562659"/>
    <nd ref="2938562649"/>
    <nd ref="2938562650"/>
    <tag k="addr:conscriptionnumber" v="394"/>
    <tag k="addr:country" v="CZ"/>
    <tag k="addr:housenumber" v="394/2"/>
    <tag k="addr:place" v="B콏ezin캩ves"/>
    <tag k="addr:postcode" v="18200"/>
    <tag k="addr:street" v="V p캩코ink치ch"/>
    <tag k="addr:streetnumber" v="2"/>
    <tag k="building" v="house"/>
    <tag k="building:flats" v="1"/>
    <tag k="building:levels" v="2"/>
    <tag k="building:ruian:type" v="7"/>
    <tag k="ref:ruian:addr" v="28038568"/>
    <tag k="ref:ruian:building" v="27504590"/>
    <tag k="source" v="cuzk:ruian"/>
    <tag k="start_date" v="2010-01-04"/>
  </way>
  <way id="134255710" version="7" timestamp="2018-11-08T14:31:38Z" changeset="64294685" uid="2169558" user="JandaM">
    <nd ref="2938562450"/>
    <nd ref="2938562509"/>
    <nd ref="2938562506"/>
    <nd ref="2938562497"/>
    <nd ref="2938562495"/>
    <nd ref="2938562454"/>
    <nd ref="2938562459"/>
    <nd ref="2938562444"/>
    <nd ref="2938562446"/>
    <nd ref="2938562445"/>
    <nd ref="2938562436"/>
    <nd ref="2938562439"/>
    <nd ref="2938562449"/>
    <nd ref="2938562450"/>
    <tag k="addr:conscriptionnumber" v="395"/>
    <tag k="addr:country" v="CZ"/>
    <tag k="addr:housenumber" v="395/6"/>
    <tag k="addr:place" v="B콏ezin캩ves"/>
    <tag k="addr:postcode" v="18200"/>
    <tag k="addr:street" v="V p캩코ink치ch"/>
    <tag k="addr:streetnumber" v="6"/>
    <tag k="building" v="house"/>
    <tag k="building:flats" v="1"/>
    <tag k="building:levels" v="2"/>
    <tag k="building:ruian:type" v="7"/>
    <tag k="ref:ruian:addr" v="28038576"/>
    <tag k="ref:ruian:building" v="27504603"/>
    <tag k="source" v="cuzk:ruian"/>
    <tag k="start_date" v="2010-01-04"/>
  </way>
  <way id="134255711" version="7" timestamp="2018-11-08T14:31:39Z" changeset="64294685" uid="2169558" user="JandaM">
    <nd ref="2938562661"/>
    <nd ref="2938562657"/>
    <nd ref="2938562613"/>
    <nd ref="2938562618"/>
    <nd ref="2938562598"/>
    <nd ref="2938562608"/>
    <nd ref="2938562621"/>
    <nd ref="2938562673"/>
    <nd ref="2938562682"/>
    <nd ref="2938562678"/>
    <nd ref="2938562661"/>
    <tag k="addr:conscriptionnumber" v="396"/>
    <tag k="addr:country" v="CZ"/>
    <tag k="addr:housenumber" v="396/18"/>
    <tag k="addr:place" v="B콏ezin캩ves"/>
    <tag k="addr:postcode" v="18200"/>
    <tag k="addr:street" v="V p캩코ink치ch"/>
    <tag k="addr:streetnumber" v="18"/>
    <tag k="building" v="house"/>
    <tag k="building:flats" v="1"/>
    <tag k="building:levels" v="2"/>
    <tag k="building:ruian:type" v="7"/>
    <tag k="ref:ruian:addr" v="28038584"/>
    <tag k="ref:ruian:building" v="27504611"/>
    <tag k="source" v="cuzk:ruian"/>
    <tag k="start_date" v="2010-01-04"/>
  </way>
  <way id="134255712" version="7" timestamp="2018-11-08T14:31:39Z" changeset="64294685" uid="2169558" user="JandaM">
    <nd ref="2938562452"/>
    <nd ref="2938562511"/>
    <nd ref="2938562510"/>
    <nd ref="2938562517"/>
    <nd ref="2938562512"/>
    <nd ref="2938562487"/>
    <nd ref="2938562488"/>
    <nd ref="2938562455"/>
    <nd ref="2938562457"/>
    <nd ref="2938562448"/>
    <nd ref="2938562452"/>
    <tag k="addr:conscriptionnumber" v="397"/>
    <tag k="addr:country" v="CZ"/>
    <tag k="addr:housenumber" v="397/4"/>
    <tag k="addr:place" v="B콏ezin캩ves"/>
    <tag k="addr:postcode" v="18200"/>
    <tag k="addr:street" v="V cesti캜k치ch"/>
    <tag k="addr:streetnumber" v="4"/>
    <tag k="building" v="house"/>
    <tag k="building:flats" v="1"/>
    <tag k="building:levels" v="2"/>
    <tag k="building:ruian:type" v="7"/>
    <tag k="ref:ruian:addr" v="28038592"/>
    <tag k="ref:ruian:building" v="27504620"/>
    <tag k="source" v="cuzk:ruian"/>
    <tag k="start_date" v="2010-01-04"/>
  </way>
  <way id="134255713" version="7" timestamp="2018-11-08T14:31:39Z" changeset="64294685" uid="2169558" user="JandaM">
    <nd ref="2938562391"/>
    <nd ref="2938562468"/>
    <nd ref="2938562462"/>
    <nd ref="2938562460"/>
    <nd ref="2938562456"/>
    <nd ref="2938562397"/>
    <nd ref="2938562404"/>
    <nd ref="2938562387"/>
    <nd ref="2938562391"/>
    <tag k="addr:conscriptionnumber" v="398"/>
    <tag k="addr:country" v="CZ"/>
    <tag k="addr:housenumber" v="398/22"/>
    <tag k="addr:place" v="B콏ezin캩ves"/>
    <tag k="addr:postcode" v="18200"/>
    <tag k="addr:street" v="V p캩코ink치ch"/>
    <tag k="addr:streetnumber" v="22"/>
    <tag k="building" v="house"/>
    <tag k="building:flats" v="1"/>
    <tag k="building:levels" v="2"/>
    <tag k="building:ruian:type" v="7"/>
    <tag k="ref:ruian:addr" v="28038681"/>
    <tag k="ref:ruian:building" v="27504671"/>
    <tag k="source" v="cuzk:ruian"/>
    <tag k="start_date" v="2010-01-20"/>
  </way>
  <way id="134255714" version="5" timestamp="2020-03-04T14:05:12Z" changeset="81779095" uid="5748" user="pschonmann">
    <nd ref="1476884906"/>
    <nd ref="1476885775"/>
    <nd ref="1476885748"/>
    <nd ref="1476885707"/>
    <nd ref="1476885663"/>
    <nd ref="1476884402"/>
    <nd ref="1476884442"/>
    <nd ref="1476884876"/>
    <nd ref="1476884906"/>
    <tag k="addr:conscriptionnumber" v="403"/>
    <tag k="addr:country" v="CZ"/>
    <tag k="addr:housenumber" v="403/7"/>
    <tag k="addr:place" v="B콏ezin캩ves"/>
    <tag k="addr:postcode" v="18200"/>
    <tag k="addr:street" v="V p캩코ink치ch"/>
    <tag k="addr:streetnumber" v="7"/>
    <tag k="building" v="house"/>
    <tag k="building:flats" v="1"/>
    <tag k="building:levels" v="2"/>
    <tag k="building:ruian:type" v="7"/>
    <tag k="ref:ruian:addr" v="28110617"/>
    <tag k="ref:ruian:building" v="27572986"/>
    <tag k="source" v="cuzk:ruian"/>
    <tag k="start_date" v="2010-04-07"/>
  </way>
  <way id="134255715" version="7" timestamp="2018-11-08T14:31:40Z" changeset="64294685" uid="2169558" user="JandaM">
    <nd ref="2938562709"/>
    <nd ref="2938562706"/>
    <nd ref="2938562641"/>
    <nd ref="2938562645"/>
    <nd ref="2938562655"/>
    <nd ref="2938562656"/>
    <nd ref="2938562704"/>
    <nd ref="2938562703"/>
    <nd ref="2938562709"/>
    <tag k="addr:conscriptionnumber" v="408"/>
    <tag k="addr:country" v="CZ"/>
    <tag k="addr:housenumber" v="408/4"/>
    <tag k="addr:place" v="B콏ezin캩ves"/>
    <tag k="addr:postcode" v="18200"/>
    <tag k="addr:street" v="V p캩코ink치ch"/>
    <tag k="addr:streetnumber" v="4"/>
    <tag k="building" v="house"/>
    <tag k="building:flats" v="1"/>
    <tag k="building:levels" v="2"/>
    <tag k="building:ruian:type" v="7"/>
    <tag k="ref:ruian:addr" v="28138252"/>
    <tag k="ref:ruian:building" v="27600009"/>
    <tag k="source" v="cuzk:ruian"/>
    <tag k="start_date" v="2010-05-20"/>
  </way>
  <way id="134255716" version="7" timestamp="2018-11-08T14:31:40Z" changeset="64294685" uid="2169558" user="JandaM">
    <nd ref="2938562652"/>
    <nd ref="2938562648"/>
    <nd ref="2938562597"/>
    <nd ref="2938562599"/>
    <nd ref="2938562573"/>
    <nd ref="2938562578"/>
    <nd ref="2938562607"/>
    <nd ref="2938562610"/>
    <nd ref="2938562652"/>
    <tag k="addr:conscriptionnumber" v="410"/>
    <tag k="addr:country" v="CZ"/>
    <tag k="addr:housenumber" v="410/30"/>
    <tag k="addr:place" v="B콏ezin캩ves"/>
    <tag k="addr:postcode" v="18200"/>
    <tag k="addr:street" v="V p캩코ink치ch"/>
    <tag k="addr:streetnumber" v="30"/>
    <tag k="building" v="house"/>
    <tag k="building:flats" v="1"/>
    <tag k="building:levels" v="2"/>
    <tag k="building:ruian:type" v="7"/>
    <tag k="ref:ruian:addr" v="28172361"/>
    <tag k="ref:ruian:building" v="27633403"/>
    <tag k="source" v="cuzk:ruian"/>
    <tag k="start_date" v="2010-06-30"/>
  </way>
  <way id="134255717" version="5" timestamp="2020-03-04T14:05:12Z" changeset="81779095" uid="5748" user="pschonmann">
    <nd ref="1476884926"/>
    <nd ref="1476885574"/>
    <nd ref="1476885535"/>
    <nd ref="7263826970"/>
    <nd ref="1476885406"/>
    <nd ref="1476885395"/>
    <nd ref="1476885048"/>
    <nd ref="1476884939"/>
    <nd ref="1476884900"/>
    <nd ref="1476884893"/>
    <nd ref="1476884268"/>
    <nd ref="1476884290"/>
    <nd ref="1476884932"/>
    <nd ref="1476884926"/>
    <tag k="addr:conscriptionnumber" v="412"/>
    <tag k="addr:country" v="CZ"/>
    <tag k="addr:housenumber" v="412/9"/>
    <tag k="addr:place" v="B콏ezin캩ves"/>
    <tag k="addr:postcode" v="18200"/>
    <tag k="addr:street" v="V p캩코ink치ch"/>
    <tag k="addr:streetnumber" v="9"/>
    <tag k="building" v="house"/>
    <tag k="building:flats" v="1"/>
    <tag k="building:levels" v="2"/>
    <tag k="building:ruian:type" v="7"/>
    <tag k="ref:ruian:addr" v="28216351"/>
    <tag k="ref:ruian:building" v="27676510"/>
    <tag k="source" v="cuzk:ruian"/>
    <tag k="start_date" v="2010-09-01"/>
  </way>
  <way id="134255718" version="7" timestamp="2018-11-08T14:31:40Z" changeset="64294685" uid="2169558" user="JandaM">
    <nd ref="2938562577"/>
    <nd ref="2938562590"/>
    <nd ref="2938562587"/>
    <nd ref="2938562636"/>
    <nd ref="2938562628"/>
    <nd ref="2938562580"/>
    <nd ref="2938562579"/>
    <nd ref="2938562546"/>
    <nd ref="2938562551"/>
    <nd ref="2938562553"/>
    <nd ref="2938562554"/>
    <nd ref="2938562562"/>
    <nd ref="2938562570"/>
    <nd ref="2938562577"/>
    <tag k="addr:conscriptionnumber" v="414"/>
    <tag k="addr:country" v="CZ"/>
    <tag k="addr:housenumber" v="414/2"/>
    <tag k="addr:place" v="B콏ezin캩ves"/>
    <tag k="addr:postcode" v="18200"/>
    <tag k="addr:street" v="V cesti캜k치ch"/>
    <tag k="addr:streetnumber" v="2"/>
    <tag k="building" v="house"/>
    <tag k="building:flats" v="1"/>
    <tag k="building:levels" v="2"/>
    <tag k="building:ruian:type" v="7"/>
    <tag k="ref:ruian:addr" v="28230175"/>
    <tag k="ref:ruian:building" v="27690458"/>
    <tag k="source" v="cuzk:ruian"/>
    <tag k="start_date" v="2010-10-05"/>
  </way>
  <way id="134255719" version="5" timestamp="2020-03-04T14:05:12Z" changeset="81779095" uid="5748" user="pschonmann">
    <nd ref="1476883449"/>
    <nd ref="1476883958"/>
    <nd ref="1476883920"/>
    <nd ref="1476883848"/>
    <nd ref="1476883825"/>
    <nd ref="1476883353"/>
    <nd ref="1476883374"/>
    <nd ref="1476883435"/>
    <nd ref="1476883449"/>
    <tag k="addr:conscriptionnumber" v="415"/>
    <tag k="addr:country" v="CZ"/>
    <tag k="addr:housenumber" v="415/11"/>
    <tag k="addr:place" v="B콏ezin캩ves"/>
    <tag k="addr:postcode" v="18200"/>
    <tag k="addr:street" v="V p캩코ink치ch"/>
    <tag k="addr:streetnumber" v="11"/>
    <tag k="building" v="house"/>
    <tag k="building:flats" v="1"/>
    <tag k="building:levels" v="2"/>
    <tag k="building:ruian:type" v="7"/>
    <tag k="ref:ruian:addr" v="28270185"/>
    <tag k="ref:ruian:building" v="27729621"/>
    <tag k="source" v="cuzk:ruian"/>
    <tag k="start_date" v="2010-11-10"/>
  </way>
  <way id="134255720" version="6" timestamp="2020-03-04T14:05:12Z" changeset="81779095" uid="5748" user="pschonmann">
    <nd ref="1476883820"/>
    <nd ref="1476884141"/>
    <nd ref="1476883996"/>
    <nd ref="1476883752"/>
    <nd ref="1476883769"/>
    <nd ref="1476883523"/>
    <nd ref="1476883547"/>
    <nd ref="1476883788"/>
    <nd ref="1476883820"/>
    <tag k="addr:conscriptionnumber" v="416"/>
    <tag k="addr:country" v="CZ"/>
    <tag k="addr:housenumber" v="416/1"/>
    <tag k="addr:place" v="B콏ezin캩ves"/>
    <tag k="addr:postcode" v="18200"/>
    <tag k="addr:street" v="V p캩코ink치ch"/>
    <tag k="addr:streetnumber" v="1"/>
    <tag k="building" v="house"/>
    <tag k="building:flats" v="1"/>
    <tag k="building:levels" v="2"/>
    <tag k="building:ruian:type" v="7"/>
    <tag k="ref:ruian:addr" v="28293274"/>
    <tag k="ref:ruian:building" v="27752381"/>
    <tag k="source" v="cuzk:ruian"/>
    <tag k="start_date" v="2010-12-09"/>
  </way>
  <way id="134255721" version="7" timestamp="2018-11-08T14:31:40Z" changeset="64294685" uid="2169558" user="JandaM">
    <nd ref="2938562308"/>
    <nd ref="2938562342"/>
    <nd ref="2938562341"/>
    <nd ref="2938562383"/>
    <nd ref="2938562380"/>
    <nd ref="2938562339"/>
    <nd ref="2938562338"/>
    <nd ref="2938562304"/>
    <nd ref="2938562308"/>
    <tag k="addr:conscriptionnumber" v="417"/>
    <tag k="addr:country" v="CZ"/>
    <tag k="addr:housenumber" v="417/6"/>
    <tag k="addr:place" v="B콏ezin캩ves"/>
    <tag k="addr:postcode" v="18200"/>
    <tag k="addr:street" v="V cesti캜k치ch"/>
    <tag k="addr:streetnumber" v="6"/>
    <tag k="building" v="house"/>
    <tag k="building:flats" v="1"/>
    <tag k="building:levels" v="2"/>
    <tag k="building:ruian:type" v="7"/>
    <tag k="ref:ruian:addr" v="28293151"/>
    <tag k="ref:ruian:building" v="27752411"/>
    <tag k="source" v="cuzk:ruian"/>
    <tag k="start_date" v="2010-12-09"/>
  </way>
  <way id="134255722" version="5" timestamp="2020-03-04T14:05:12Z" changeset="81779095" uid="5748" user="pschonmann">
    <nd ref="1476885075"/>
    <nd ref="1476885700"/>
    <nd ref="1476885676"/>
    <nd ref="1476885685"/>
    <nd ref="1476885551"/>
    <nd ref="1476885473"/>
    <nd ref="1476885186"/>
    <nd ref="1476885100"/>
    <nd ref="1476884999"/>
    <nd ref="1476885042"/>
    <nd ref="1476884406"/>
    <nd ref="1476884433"/>
    <nd ref="1476885059"/>
    <nd ref="1476885075"/>
    <tag k="addr:conscriptionnumber" v="443"/>
    <tag k="addr:country" v="CZ"/>
    <tag k="addr:housenumber" v="443/3"/>
    <tag k="addr:place" v="B콏ezin캩ves"/>
    <tag k="addr:postcode" v="18200"/>
    <tag k="addr:street" v="V p캩코ink치ch"/>
    <tag k="addr:streetnumber" v="3"/>
    <tag k="building" v="house"/>
    <tag k="building:ruian:type" v="7"/>
    <tag k="ref:ruian:addr" v="28413148"/>
    <tag k="ref:ruian:building" v="27871215"/>
    <tag k="source" v="cuzk:ruian"/>
    <tag k="start_date" v="2011-05-17"/>
  </way>
  <way id="134256196" version="8" timestamp="2024-03-15T10:28:03Z" changeset="148680509" uid="1189910" user="Milancer">
    <nd ref="1476886262"/>
    <nd ref="11728554247"/>
    <nd ref="1476886267"/>
    <nd ref="1476886169"/>
    <nd ref="1476886152"/>
    <nd ref="1476886262"/>
    <tag k="building" v="hotel"/>
    <tag k="building:levels" v="1"/>
    <tag k="building:ruian:type" v="11"/>
    <tag k="name" v="Fr칳dl"/>
    <tag k="ref:ruian:building" v="21453012"/>
    <tag k="source" v="cuzk:ruian"/>
    <tag k="tourism" v="hotel"/>
  </way>
  <way id="134256523" version="5" timestamp="2024-03-13T20:46:38Z" changeset="148612469" uid="10932047" user="AF HAF KARTOGRAF">
    <nd ref="1476921573"/>
    <nd ref="6123752070"/>
    <nd ref="1476922670"/>
    <nd ref="1476922707"/>
    <nd ref="1476922780"/>
    <nd ref="1476922808"/>
    <nd ref="1476921925"/>
    <nd ref="1476921935"/>
    <nd ref="1476921598"/>
    <nd ref="1476921573"/>
    <tag k="addr:conscriptionnumber" v="393"/>
    <tag k="addr:housenumber" v="393/16"/>
    <tag k="addr:place" v="B콏ezin캩ves"/>
    <tag k="addr:postcode" v="18200"/>
    <tag k="addr:street" v="Johanitsk치"/>
    <tag k="addr:streetnumber" v="16"/>
    <tag k="building" v="house"/>
    <tag k="building:flats" v="1"/>
    <tag k="building:levels" v="2"/>
    <tag k="building:ruian:type" v="7"/>
    <tag k="ref:ruian:addr" v="28015509"/>
    <tag k="ref:ruian:building" v="27481930"/>
    <tag k="source" v="cuzk:ruian"/>
    <tag k="start_date" v="2009-12-28"/>
  </way>
  <way id="170515994" version="9" timestamp="2024-05-31T09:00:17Z" changeset="152069708" uid="100163" user="Hlav">
    <nd ref="1816801361"/>
    <nd ref="6123752688"/>
    <nd ref="11947386972"/>
    <nd ref="1816801357"/>
    <nd ref="10205273008"/>
    <nd ref="1816801288"/>
    <nd ref="10205273007"/>
    <nd ref="1816801344"/>
    <nd ref="2137563688"/>
    <nd ref="4834490446"/>
    <nd ref="2137563690"/>
    <nd ref="10591552209"/>
    <nd ref="2296283332"/>
    <nd ref="25988290"/>
    <tag k="highway" v="residential"/>
    <tag k="name" v="VP캩코ink치ch"/>
  </way>
  <way id="170515997" version="4" timestamp="2014-07-13T14:16:47Z" changeset="24121184" uid="10353" user="gorn">
    <nd ref="25988428"/>
    <nd ref="1911191442"/>
    <tag k="highway" v="secondary"/>
    <tag k="ref" v="243"/>
    <tag k="source" v="HELP SERVICE - REMOTE SENSING spol. s r.o. http://www.bnhelp.cz"/>
  </way>
  <way id="201239477" version="2" timestamp="2023-01-29T12:46:58Z" changeset="131839081" uid="6588887" user="Martin2035">
    <nd ref="2111969879"/>
    <nd ref="2111969880"/>
    <tag k="highway" v="residential"/>
    <tag k="lanes" v="2"/>
    <tag k="maxspeed" v="30"/>
    <tag k="maxspeed:type" v="CZ:zone30"/>
    <tag k="oneway" v="no"/>
    <tag k="surface" v="asphalt"/>
    <tag k="zone:maxspeed" v="30"/>
  </way>
  <way id="258614350" version="10" timestamp="2024-04-20T12:34:35Z" changeset="150261350" uid="25867" user="adamos">
    <nd ref="25544701"/>
    <nd ref="1261887225"/>
    <nd ref="73366018"/>
    <nd ref="1261887199"/>
    <nd ref="25988290"/>
    <tag k="highway" v="secondary"/>
    <tag k="lanes" v="2"/>
    <tag k="lit" v="yes"/>
    <tag k="name" v="Na Hlavn칤"/>
    <tag k="ref" v="243"/>
    <tag k="source" v="HELP SERVICE - REMOTE SENSING spol. s r.o. http://www.bnhelp.cz"/>
    <tag k="surface" v="asphalt"/>
  </way>
  <way id="308446336" version="11" timestamp="2021-09-07T08:33:48Z" changeset="110843164" uid="8060650" user="Evcaa">
    <nd ref="21764280"/>
    <nd ref="1452507049"/>
    <nd ref="25988050"/>
    <nd ref="1472023825"/>
    <nd ref="3708468096"/>
    <nd ref="1452507052"/>
    <tag k="highway" v="motorway"/>
    <tag k="int_ref" v="E 55"/>
    <tag k="lanes" v="2"/>
    <tag k="maxspeed" v="130"/>
    <tag k="oneway" v="yes"/>
    <tag k="placement" v="right_of:1"/>
    <tag k="ref" v="D8"/>
    <tag k="surface" v="asphalt"/>
    <tag k="toll" v="no"/>
  </way>
  <way id="308446337" version="12" timestamp="2021-09-07T08:34:25Z" changeset="110843202" uid="8060650" user="Evcaa">
    <nd ref="3179674844"/>
    <nd ref="122985943"/>
    <nd ref="3137342239"/>
    <nd ref="122985945"/>
    <tag k="highway" v="motorway"/>
    <tag k="int_ref" v="E 55"/>
    <tag k="lanes" v="2"/>
    <tag k="lit" v="no"/>
    <tag k="maxspeed" v="130"/>
    <tag k="oneway" v="yes"/>
    <tag k="placement" v="right_of:1"/>
    <tag k="ref" v="D8"/>
    <tag k="surface" v="asphalt"/>
    <tag k="toll" v="no"/>
  </way>
  <way id="311812528" version="3" timestamp="2023-01-29T12:46:58Z" changeset="131839081" uid="6588887" user="Martin2035">
    <nd ref="2111969880"/>
    <nd ref="10130961404"/>
    <tag k="highway" v="residential"/>
    <tag k="lanes" v="2"/>
    <tag k="maxspeed" v="30"/>
    <tag k="maxspeed:type" v="CZ:zone30"/>
    <tag k="surface" v="asphalt"/>
    <tag k="zone:maxspeed" v="30"/>
  </way>
  <way id="312133590" version="6" timestamp="2018-02-20T15:24:52Z" changeset="56523774" uid="255936" user="NyanSten">
    <nd ref="3179674843"/>
    <nd ref="122985946"/>
    <nd ref="3179674837"/>
    <tag k="highway" v="trunk"/>
    <tag k="int_ref" v="E 55"/>
    <tag k="lanes" v="2"/>
    <tag k="lit" v="no"/>
    <tag k="maxspeed" v="100"/>
    <tag k="motorroad" v="yes"/>
    <tag k="name" v="C칤noveck치"/>
    <tag k="oneway" v="yes"/>
    <tag k="placement" v="right_of:1"/>
    <tag k="ref" v="8"/>
    <tag k="surface" v="asphalt"/>
    <tag k="toll" v="no"/>
  </way>
  <way id="312133592" version="8" timestamp="2022-07-19T21:11:26Z" changeset="123824637" uid="2456136" user="FM007">
    <nd ref="3179674837"/>
    <nd ref="1452507037"/>
    <nd ref="3179674841"/>
    <nd ref="122985951"/>
    <nd ref="1452507035"/>
    <nd ref="3708468093"/>
    <nd ref="122986311"/>
    <nd ref="3179674838"/>
    <tag k="highway" v="trunk"/>
    <tag k="int_ref" v="E 55"/>
    <tag k="lanes" v="2"/>
    <tag k="lit" v="no"/>
    <tag k="maxspeed" v="80"/>
    <tag k="motorroad" v="yes"/>
    <tag k="name" v="C칤noveck치"/>
    <tag k="oneway" v="yes"/>
    <tag k="placement" v="right_of:1"/>
    <tag k="ref" v="8"/>
    <tag k="surface" v="asphalt"/>
    <tag k="toll" v="no"/>
  </way>
  <way id="338439728" version="10" timestamp="2023-07-22T15:06:51Z" changeset="138858509" uid="17272867" user="Zet_">
    <nd ref="2418730707"/>
    <nd ref="25988336"/>
    <nd ref="25988337"/>
    <nd ref="10205272997"/>
    <nd ref="73303745"/>
    <nd ref="6123752279"/>
    <nd ref="286811826"/>
    <nd ref="10221618783"/>
    <nd ref="10221648353"/>
    <nd ref="3969268057"/>
    <nd ref="2111951582"/>
    <tag k="highway" v="secondary"/>
    <tag k="lanes" v="2"/>
    <tag k="lit" v="yes"/>
    <tag k="name" v="Na Hlavn칤"/>
    <tag k="ref" v="243"/>
    <tag k="smoothness" v="excellent"/>
    <tag k="source" v="HELP SERVICE - REMOTE SENSING spol. s r.o. http://www.bnhelp.cz"/>
    <tag k="surface" v="asphalt"/>
  </way>
  <way id="338439729" version="2" timestamp="2015-04-15T17:45:24Z" changeset="30245508" uid="100163" user="Hlav">
    <nd ref="73351505"/>
    <nd ref="2418730707"/>
    <tag k="highway" v="secondary"/>
    <tag k="incline" v="4%"/>
    <tag k="lit" v="yes"/>
    <tag k="name" v="Na Hlavn칤"/>
    <tag k="ref" v="243"/>
    <tag k="smoothness" v="excellent"/>
    <tag k="source" v="HELP SERVICE - REMOTE SENSING spol. s r.o. http://www.bnhelp.cz"/>
    <tag k="surface" v="asphalt"/>
  </way>
  <way id="366863556" version="8" timestamp="2022-04-10T08:54:17Z" changeset="119526648" uid="138186" user="flunk">
    <nd ref="252114"/>
    <nd ref="3708468094"/>
    <nd ref="1452507036"/>
    <nd ref="122985950"/>
    <tag k="highway" v="trunk"/>
    <tag k="int_ref" v="E 55"/>
    <tag k="lanes" v="3"/>
    <tag k="lit" v="no"/>
    <tag k="maxspeed" v="80"/>
    <tag k="motorroad" v="yes"/>
    <tag k="name" v="C칤noveck치"/>
    <tag k="oneway" v="yes"/>
    <tag k="placement" v="right_of:1"/>
    <tag k="ref" v="8"/>
    <tag k="shoulder" v="right"/>
    <tag k="surface" v="asphalt"/>
    <tag k="toll" v="no"/>
    <tag k="turn:lanes" v="none|none|merge_to_left"/>
  </way>
  <way id="366863568" version="6" timestamp="2022-04-10T08:54:38Z" changeset="119526648" uid="138186" user="flunk">
    <nd ref="122985950"/>
    <nd ref="3179674842"/>
    <nd ref="1452507039"/>
    <nd ref="25988054"/>
    <tag k="highway" v="trunk"/>
    <tag k="int_ref" v="E 55"/>
    <tag k="lanes" v="2"/>
    <tag k="maxspeed" v="80"/>
    <tag k="motorroad" v="yes"/>
    <tag k="name" v="C칤noveck치"/>
    <tag k="oneway" v="yes"/>
    <tag k="placement" v="right_of:1"/>
    <tag k="ref" v="8"/>
    <tag k="shoulder" v="right"/>
    <tag k="surface" v="asphalt"/>
    <tag k="toll" v="no"/>
  </way>
  <way id="387427930" version="8" timestamp="2025-02-14T20:58:07Z" changeset="162518265" uid="4018695" user="游뻟릖 Roman Horn칤k">
    <nd ref="25988054"/>
    <nd ref="12588427672"/>
    <nd ref="12588427673"/>
    <nd ref="21764280"/>
    <tag k="highway" v="trunk"/>
    <tag k="int_ref" v="E 55"/>
    <tag k="lanes" v="2"/>
    <tag k="maxheight" v="default"/>
    <tag k="maxspeed" v="110"/>
    <tag k="motorroad" v="yes"/>
    <tag k="name" v="C칤noveck치"/>
    <tag k="oneway" v="yes"/>
    <tag k="placement" v="right_of:1"/>
    <tag k="ref" v="8"/>
    <tag k="shoulder" v="right"/>
    <tag k="toll" v="no"/>
  </way>
  <way id="387427931" version="7" timestamp="2025-02-14T20:58:07Z" changeset="162518265" uid="4018695" user="游뻟릖 Roman Horn칤k">
    <nd ref="122985945"/>
    <nd ref="12588427671"/>
    <nd ref="3179674843"/>
    <tag k="highway" v="trunk"/>
    <tag k="int_ref" v="E 55"/>
    <tag k="lanes" v="2"/>
    <tag k="lit" v="no"/>
    <tag k="maxheight" v="default"/>
    <tag k="maxspeed" v="110"/>
    <tag k="motorroad" v="yes"/>
    <tag k="name" v="C칤noveck치"/>
    <tag k="oneway" v="yes"/>
    <tag k="placement" v="right_of:1"/>
    <tag k="ref" v="8"/>
    <tag k="surface" v="asphalt"/>
    <tag k="toll" v="no"/>
  </way>
  <way id="392506817" version="3" timestamp="2021-11-23T15:21:18Z" changeset="114145094" uid="25867" user="adamos">
    <nd ref="2296283331"/>
    <nd ref="25544701"/>
    <tag k="highway" v="residential"/>
    <tag k="name" v="KB콏ezin캩vsi"/>
    <tag k="surface" v="asphalt"/>
  </way>
  <way id="392506819" version="8" timestamp="2023-01-29T12:46:58Z" changeset="131839081" uid="6588887" user="Martin2035">
    <nd ref="1261887227"/>
    <nd ref="6123751795"/>
    <nd ref="5387558343"/>
    <nd ref="2111965251"/>
    <tag k="highway" v="residential"/>
    <tag k="lanes" v="2"/>
    <tag k="maxspeed" v="30"/>
    <tag k="maxspeed:type" v="CZ:zone30"/>
    <tag k="name" v="VK콏epelk치ch"/>
    <tag k="surface" v="asphalt"/>
    <tag k="zone:maxspeed" v="30"/>
  </way>
  <way id="392506820" version="3" timestamp="2023-07-22T15:06:53Z" changeset="138858509" uid="17272867" user="Zet_">
    <nd ref="1261887095"/>
    <nd ref="1261886814"/>
    <tag k="highway" v="residential"/>
    <tag k="lanes" v="2"/>
    <tag k="maxspeed" v="30"/>
    <tag k="maxspeed:type" v="CZ:zone30"/>
    <tag k="name" v="Vzd치len치"/>
    <tag k="smoothness" v="good"/>
    <tag k="source" v="bing:ortofoto"/>
    <tag k="surface" v="asphalt"/>
    <tag k="zone:maxspeed" v="30"/>
  </way>
  <way id="394912796" version="6" timestamp="2022-11-27T15:59:58Z" changeset="129440085" uid="17700514" user="cermino">
    <nd ref="3969269052"/>
    <nd ref="10221618782"/>
    <nd ref="25988314"/>
    <nd ref="10221648354"/>
    <nd ref="1261887161"/>
    <nd ref="286811820"/>
    <nd ref="73351505"/>
    <tag k="highway" v="secondary"/>
    <tag k="lanes" v="2"/>
    <tag k="lit" v="yes"/>
    <tag k="maxspeed" v="50"/>
    <tag k="name" v="Na Hlavn칤"/>
    <tag k="ref" v="243"/>
    <tag k="source" v="HELP SERVICE - REMOTE SENSING spol. s r.o. http://www.bnhelp.cz"/>
    <tag k="surface" v="asphalt"/>
  </way>
  <way id="503714246" version="5" timestamp="2023-01-29T12:46:58Z" changeset="131839081" uid="6588887" user="Martin2035">
    <nd ref="2111965251"/>
    <nd ref="5387558344"/>
    <nd ref="10591534304"/>
    <nd ref="10591534299"/>
    <nd ref="2111965250"/>
    <tag k="highway" v="residential"/>
    <tag k="lanes" v="2"/>
    <tag k="maxspeed" v="30"/>
    <tag k="maxspeed:type" v="CZ:zone30"/>
    <tag k="name" v="VK콏epelk치ch"/>
    <tag k="oneway" v="no"/>
    <tag k="surface" v="asphalt"/>
    <tag k="zone:maxspeed" v="30"/>
  </way>
  <way id="653416283" version="3" timestamp="2023-01-29T12:46:58Z" changeset="131839081" uid="6588887" user="Martin2035">
    <nd ref="2111965250"/>
    <nd ref="6123751459"/>
    <nd ref="6123751458"/>
    <nd ref="6123751457"/>
    <nd ref="6123751456"/>
    <nd ref="6123751455"/>
    <nd ref="6123751427"/>
    <tag k="highway" v="residential"/>
    <tag k="lanes" v="2"/>
    <tag k="maxspeed" v="30"/>
    <tag k="maxspeed:type" v="CZ:zone30"/>
    <tag k="name" v="Mikanov칳ch"/>
    <tag k="surface" v="asphalt"/>
    <tag k="zone:maxspeed" v="30"/>
  </way>
  <way id="843687822" version="4" timestamp="2023-08-15T12:30:10Z" changeset="139912636" uid="100163" user="Hlav">
    <nd ref="6123751427"/>
    <nd ref="6123751454"/>
    <nd ref="6123751453"/>
    <nd ref="6123751452"/>
    <nd ref="8166197866"/>
    <nd ref="8166197857"/>
    <nd ref="6123751442"/>
    <nd ref="6123751451"/>
    <nd ref="6123751450"/>
    <nd ref="6123751449"/>
    <nd ref="6123751448"/>
    <nd ref="6123751428"/>
    <nd ref="5387558348"/>
    <tag k="highway" v="residential"/>
    <tag k="lanes" v="2"/>
    <tag k="maxspeed" v="30"/>
    <tag k="maxspeed:type" v="CZ:zone30"/>
    <tag k="name" v="Na Poli"/>
    <tag k="source" v="survey;gps;aerial imagery;cuzk:km"/>
    <tag k="surface" v="asphalt"/>
    <tag k="zone:maxspeed" v="30"/>
  </way>
  <way id="975796002" version="1" timestamp="2021-08-23T19:46:07Z" changeset="110135211" uid="7649834" user="L___I">
    <nd ref="2111951582"/>
    <nd ref="3978017632"/>
    <nd ref="25988428"/>
    <tag k="highway" v="secondary"/>
    <tag k="lit" v="yes"/>
    <tag k="name" v="Na Hlavn칤"/>
    <tag k="ref" v="243"/>
    <tag k="source" v="HELP SERVICE - REMOTE SENSING spol. s r.o. http://www.bnhelp.cz"/>
    <tag k="surface" v="asphalt"/>
  </way>
  <way id="975796003" version="1" timestamp="2021-08-23T19:46:07Z" changeset="110135211" uid="7649834" user="L___I">
    <nd ref="1261887217"/>
    <nd ref="2672158139"/>
    <nd ref="1261887167"/>
    <nd ref="2672158141"/>
    <nd ref="1261887145"/>
    <nd ref="3969269052"/>
    <tag k="highway" v="secondary"/>
    <tag k="lit" v="yes"/>
    <tag k="name" v="Na Hlavn칤"/>
    <tag k="ref" v="243"/>
    <tag k="source" v="HELP SERVICE - REMOTE SENSING spol. s r.o. http://www.bnhelp.cz"/>
    <tag k="surface" v="asphalt"/>
  </way>
  <way id="1136158218" version="1" timestamp="2023-01-29T12:46:58Z" changeset="131839081" uid="6588887" user="Martin2035">
    <nd ref="2111969879"/>
    <nd ref="10205272996"/>
    <nd ref="2111951582"/>
    <tag k="highway" v="residential"/>
    <tag k="lanes" v="2"/>
    <tag k="maxspeed" v="30"/>
    <tag k="maxspeed:type" v="CZ:zone30"/>
    <tag k="name" v="Johanitsk치"/>
    <tag k="oneway" v="no"/>
    <tag k="surface" v="asphalt"/>
    <tag k="zone:maxspeed" v="30"/>
  </way>
  <way id="1136159648" version="1" timestamp="2023-01-29T12:53:04Z" changeset="131839274" uid="6588887" user="Martin2035">
    <nd ref="10591552205"/>
    <nd ref="1261886879"/>
    <nd ref="25988290"/>
    <tag k="highway" v="residential"/>
    <tag k="name" v="Ke Zdib콢m"/>
  </way>
  <way id="1274401591" version="1" timestamp="2024-04-20T12:34:35Z" changeset="150261350" uid="25867" user="adamos">
    <nd ref="73472570"/>
    <nd ref="2672158137"/>
    <nd ref="1261887150"/>
    <nd ref="2672158138"/>
    <nd ref="1261887249"/>
    <nd ref="7453799182"/>
    <tag k="highway" v="secondary"/>
    <tag k="lanes" v="2"/>
    <tag k="lit" v="yes"/>
    <tag k="name" v="Na Hlavn칤"/>
    <tag k="ref" v="243"/>
    <tag k="source" v="HELP SERVICE - REMOTE SENSING spol. s r.o. http://www.bnhelp.cz"/>
    <tag k="surface" v="asphalt"/>
  </way>
  <way id="1274401592" version="1" timestamp="2024-04-20T12:34:35Z" changeset="150261350" uid="25867" user="adamos">
    <nd ref="25988290"/>
    <nd ref="10205273006"/>
    <nd ref="73472570"/>
    <tag k="highway" v="secondary"/>
    <tag k="lanes" v="2"/>
    <tag k="lit" v="yes"/>
    <tag k="name" v="Na Hlavn칤"/>
    <tag k="ref" v="243"/>
    <tag k="source" v="HELP SERVICE - REMOTE SENSING spol. s r.o. http://www.bnhelp.cz"/>
    <tag k="surface" v="asphalt"/>
  </way>
  <way id="1274401593" version="1" timestamp="2024-04-20T12:34:35Z" changeset="150261350" uid="25867" user="adamos">
    <nd ref="7453799182"/>
    <nd ref="1261887217"/>
    <tag k="highway" v="secondary"/>
    <tag k="lanes" v="2"/>
    <tag k="lit" v="yes"/>
    <tag k="name" v="Na Hlavn칤"/>
    <tag k="ref" v="243"/>
    <tag k="source" v="HELP SERVICE - REMOTE SENSING spol. s r.o. http://www.bnhelp.cz"/>
    <tag k="surface" v="asphalt"/>
  </way>
  <way id="1288300120" version="1" timestamp="2024-05-31T09:00:17Z" changeset="152069708" uid="100163" user="Hlav">
    <nd ref="73482681"/>
    <nd ref="73428233"/>
    <nd ref="25544701"/>
    <tag k="highway" v="secondary"/>
    <tag k="lanes" v="2"/>
    <tag k="lit" v="yes"/>
    <tag k="name" v="캝치blick치"/>
    <tag k="ref" v="243"/>
    <tag k="source" v="HELP SERVICE - REMOTE SENSING spol. s r.o. http://www.bnhelp.cz"/>
    <tag k="source:name" v="ruian"/>
    <tag k="surface" v="asphalt"/>
  </way>

</osm>
