<?xml version="1.0" encoding="UTF-8"?>
<osm version="0.6" generator="Overpass API 0.7.62.5 1bd436f1">
<note>The data included in this document is from www.openstreetmap.org. The data is made available under ODbL.</note>
<meta osm_base="2025-05-18T02:53:12Z" areas="2024-12-31T00:49:33Z"/>

  <node id="247751" lat="50.0887026" lon="14.4155853" version="8" timestamp="2024-12-22T14:51:19Z" changeset="160504314" uid="10224968" user="comfyquiettree"/>
  <node id="8810385" lat="50.0910538" lon="14.4170274" version="4" timestamp="2019-05-22T11:02:52Z" changeset="70510562" uid="118134" user="scai"/>
  <node id="9187809" lat="50.0883909" lon="14.4187057" version="3" timestamp="2024-09-25T19:05:33Z" changeset="157097860" uid="8971394" user="vojtechzaboril"/>
  <node id="9187812" lat="50.0884568" lon="14.4166398" version="7" timestamp="2024-09-25T18:36:27Z" changeset="157096812" uid="8971394" user="vojtechzaboril"/>
  <node id="25659746" lat="50.0900584" lon="14.4209597" version="2" timestamp="2011-03-30T15:36:41Z" changeset="7717300" uid="17615" user="Petr Dlouhý"/>
  <node id="25659748" lat="50.0894486" lon="14.4193647" version="3" timestamp="2024-09-25T19:05:33Z" changeset="157097860" uid="8971394" user="vojtechzaboril"/>
  <node id="25685114" lat="50.0906430" lon="14.4224194" version="2" timestamp="2008-11-29T15:43:18Z" changeset="809085" uid="3516" user="BiIbo"/>
  <node id="25685248" lat="50.0893283" lon="14.4158380" version="4" timestamp="2019-05-22T11:02:52Z" changeset="70510562" uid="118134" user="scai"/>
  <node id="25685297" lat="50.0910580" lon="14.4203683" version="2" timestamp="2008-11-29T15:43:19Z" changeset="809085" uid="3516" user="BiIbo"/>
  <node id="25685301" lat="50.0902159" lon="14.4205039" version="3" timestamp="2024-05-24T07:06:09Z" changeset="151753827" uid="10224968" user="comfyquiettree"/>
  <node id="25685407" lat="50.0882044" lon="14.4176773" version="5" timestamp="2024-09-25T18:36:27Z" changeset="157096812" uid="8971394" user="vojtechzaboril"/>
  <node id="25685424" lat="50.0885108" lon="14.4163569" version="7" timestamp="2021-03-18T18:07:44Z" changeset="101278901" uid="11276832" user="HaPe-CZ"/>
  <node id="26517823" lat="50.0897221" lon="14.4201956" version="4" timestamp="2024-09-25T19:05:33Z" changeset="157097860" uid="8971394" user="vojtechzaboril"/>
  <node id="472661922" lat="50.0878430" lon="14.4191543" version="2" timestamp="2021-04-06T13:45:00Z" changeset="102412385" uid="11276832" user="HaPe-CZ"/>
  <node id="1251645273" lat="50.0894751" lon="14.4195000" version="9" timestamp="2025-03-16T10:26:11Z" changeset="163681836" uid="10224968" user="comfyquiettree">
    <tag k="crossing" v="uncontrolled"/>
    <tag k="crossing:island" v="no"/>
    <tag k="crossing:markings" v="zebra"/>
    <tag k="highway" v="crossing"/>
    <tag k="tactile_paving" v="yes"/>
  </node>
  <node id="1251663083" lat="50.0898801" lon="14.4205759" version="2" timestamp="2024-09-25T19:05:33Z" changeset="157097860" uid="8971394" user="vojtechzaboril"/>
  <node id="6490559355" lat="50.0915540" lon="14.4179869" version="2" timestamp="2021-02-05T17:30:58Z" changeset="98782777" uid="11276832" user="HaPe-CZ"/>
  <way id="4086159" version="48" timestamp="2024-12-22T14:51:19Z" changeset="160504314" uid="10224968" user="comfyquiettree">
    <nd ref="247751"/>
    <nd ref="4691199604"/>
    <nd ref="4691199454"/>
    <nd ref="1016303367"/>
    <nd ref="12230264334"/>
    <nd ref="12441641058"/>
    <nd ref="8533357128"/>
    <nd ref="26518407"/>
    <tag k="cycleway:both" v="no"/>
    <tag k="highway" v="tertiary"/>
    <tag k="lanes" v="2"/>
    <tag k="lit" v="yes"/>
    <tag k="maxspeed:type" v="CZ:urban"/>
    <tag k="name" v="náměstí Jana Palacha"/>
    <tag k="name:be" v="плошча Яна Палаха"/>
    <tag k="name:ru" v="площадь Яна Палаха"/>
    <tag k="sidewalk:both" v="separate"/>
    <tag k="smoothness" v="intermediate"/>
    <tag k="sorting_name" v="Jana Palacha"/>
    <tag k="surface" v="sett"/>
    <tag k="turn:lanes:backward" v="left|right"/>
  </way>
  <way id="4323229" version="58" timestamp="2024-12-22T14:51:19Z" changeset="160504314" uid="10224968" user="comfyquiettree">
    <nd ref="247751"/>
    <nd ref="4691199553"/>
    <nd ref="1016303571"/>
    <nd ref="9572989381"/>
    <nd ref="12441641059"/>
    <nd ref="1265638058"/>
    <nd ref="4691199554"/>
    <nd ref="25685385"/>
    <nd ref="4691199599"/>
    <nd ref="4700724513"/>
    <tag k="cycleway:both" v="no"/>
    <tag k="highway" v="secondary"/>
    <tag k="horse" v="no"/>
    <tag k="lanes" v="3"/>
    <tag k="lanes:backward" v="2"/>
    <tag k="lanes:forward" v="1"/>
    <tag k="lit" v="yes"/>
    <tag k="maxheight" v="3.3"/>
    <tag k="maxspeed:type" v="CZ:urban"/>
    <tag k="name" v="Křižovnická"/>
    <tag k="name:de" v="Kreuzherrengasse"/>
    <tag k="name:ru" v="Кржижовницкая улица"/>
    <tag k="parking:both" v="no"/>
    <tag k="sidewalk:both" v="separate"/>
    <tag k="smoothness" v="excellent"/>
    <tag k="surface" v="asphalt"/>
    <tag k="turn:lanes:backward" v="left|through"/>
    <tag k="wikidata" v="Q43388676"/>
  </way>
  <way id="4353629" version="43" timestamp="2025-04-16T09:50:21Z" changeset="165020049" uid="10224968" user="comfyquiettree">
    <nd ref="25685248"/>
    <nd ref="6490559339"/>
    <nd ref="1251645276"/>
    <nd ref="342292566"/>
    <nd ref="12759347420"/>
    <nd ref="9187811"/>
    <tag k="cycleway:both" v="no"/>
    <tag k="highway" v="residential"/>
    <tag k="lanes" v="1"/>
    <tag k="lit" v="yes"/>
    <tag k="maxspeed:type" v="CZ:urban"/>
    <tag k="name" v="Široká"/>
    <tag k="name:de" v="Breite Gasse"/>
    <tag k="name:ru" v="Широкая улица"/>
    <tag k="oneway" v="yes"/>
    <tag k="sidewalk" v="separate"/>
    <tag k="smoothness" v="good"/>
    <tag k="source:width" v="ARCore"/>
    <tag k="surface" v="asphalt"/>
    <tag k="width" v="6"/>
    <tag k="wikidata" v="Q26897280"/>
  </way>
  <way id="4353635" version="12" timestamp="2024-10-31T11:02:01Z" changeset="158574102" uid="2907091" user="Tobias1996">
    <nd ref="25685301"/>
    <nd ref="11930026623"/>
    <nd ref="25685306"/>
    <tag k="highway" v="residential"/>
    <tag k="lanes" v="1"/>
    <tag k="lit" v="yes"/>
    <tag k="maxspeed:type" v="CZ:urban"/>
    <tag k="name" v="U Svatého ducha"/>
    <tag k="name:de" v="Zum heiligen Geist"/>
    <tag k="oneway" v="yes"/>
    <tag k="sidewalk" v="separate"/>
    <tag k="source:name" v="nameit/uir-adr"/>
    <tag k="surface" v="asphalt"/>
  </way>
  <way id="4353636" version="36" timestamp="2024-12-28T21:21:56Z" changeset="160730463" uid="10224968" user="comfyquiettree">
    <nd ref="25685297"/>
    <nd ref="1225805064"/>
    <nd ref="9558698706"/>
    <tag k="cycleway:left" v="shared_lane"/>
    <tag k="highway" v="residential"/>
    <tag k="lane_markings" v="no"/>
    <tag k="lit" v="yes"/>
    <tag k="maxspeed:type" v="CZ:urban"/>
    <tag k="name" v="Dušní"/>
    <tag k="name:de" v="Geistgasse"/>
    <tag k="name:ru" v="Душни улица"/>
    <tag k="oneway" v="yes"/>
    <tag k="oneway:bicycle" v="no"/>
    <tag k="source:name" v="nameit/uir-adr"/>
    <tag k="surface" v="asphalt"/>
    <tag k="wikidata" v="Q23770370"/>
  </way>
  <way id="4353641" version="30" timestamp="2024-10-31T11:02:24Z" changeset="158574102" uid="2907091" user="Tobias1996">
    <nd ref="26517824"/>
    <nd ref="315529382"/>
    <nd ref="11930026600"/>
    <nd ref="11930026601"/>
    <nd ref="26517609"/>
    <nd ref="4883181740"/>
    <nd ref="26517612"/>
    <tag k="highway" v="residential"/>
    <tag k="lanes" v="1"/>
    <tag k="maxspeed:type" v="CZ:urban"/>
    <tag k="name" v="U Staré školy"/>
    <tag k="name:ru" v="улица У старой школы"/>
    <tag k="oneway" v="yes"/>
    <tag k="sidewalk:both" v="separate"/>
    <tag k="source:name" v="nameit/uir-adr"/>
    <tag k="surface" v="asphalt"/>
  </way>
  <way id="4353643" version="31" timestamp="2024-12-28T21:21:51Z" changeset="160730463" uid="10224968" user="comfyquiettree">
    <nd ref="8810388"/>
    <nd ref="1016303748"/>
    <nd ref="8810390"/>
    <tag k="highway" v="residential"/>
    <tag k="lanes" v="1"/>
    <tag k="lit" v="yes"/>
    <tag k="maxspeed:type" v="CZ:urban"/>
    <tag k="name" v="Bílkova"/>
    <tag k="name:ru" v="Билкова улица"/>
    <tag k="oneway" v="yes"/>
    <tag k="oneway:bicycle" v="yes"/>
    <tag k="sidewalk:left" v="yes"/>
    <tag k="sidewalk:right" v="separate"/>
    <tag k="source:name" v="nameit/uir-adr"/>
    <tag k="surface" v="sett"/>
    <tag k="wikidata" v="Q21822545"/>
  </way>
  <way id="4353653" version="37" timestamp="2024-10-31T10:48:18Z" changeset="158574102" uid="2907091" user="Tobias1996">
    <nd ref="25659748"/>
    <nd ref="1251645257"/>
    <nd ref="8810393"/>
    <nd ref="8810394"/>
    <tag k="cycleway:both" v="no"/>
    <tag k="highway" v="residential"/>
    <tag k="lanes" v="1"/>
    <tag k="lit" v="yes"/>
    <tag k="maxspeed:type" v="CZ:urban"/>
    <tag k="name" v="Pařížská"/>
    <tag k="name:be" v="Парыжская вуліца"/>
    <tag k="name:de" v="Pariser Straße"/>
    <tag k="name:ru" v="Парижская улица"/>
    <tag k="name:zh" v="巴黎大街"/>
    <tag k="oneway" v="yes"/>
    <tag k="sidewalk" v="separate"/>
    <tag k="surface" v="asphalt"/>
    <tag k="wikidata" v="Q6810086"/>
    <tag k="wikipedia" v="cs:Pařížská (Praha)"/>
  </way>
  <way id="4353658" version="15" timestamp="2025-04-09T14:30:11Z" changeset="164727719" uid="10224968" user="comfyquiettree">
    <nd ref="8810385"/>
    <nd ref="4691199586"/>
    <nd ref="354684509"/>
    <nd ref="8810386"/>
    <nd ref="1016303283"/>
    <nd ref="12741629296"/>
    <nd ref="12741629293"/>
    <nd ref="12741629294"/>
    <nd ref="11923018308"/>
    <nd ref="8810388"/>
    <tag k="cycleway:both" v="no"/>
    <tag k="highway" v="residential"/>
    <tag k="lanes" v="1"/>
    <tag k="lit" v="yes"/>
    <tag k="maxspeed:type" v="CZ:urban"/>
    <tag k="name" v="Břehová"/>
    <tag k="oneway" v="yes"/>
    <tag k="sidewalk:both" v="separate"/>
    <tag k="source:name" v="nameit/uir-adr"/>
    <tag k="surface" v="sett"/>
    <tag k="wikidata" v="Q22369425"/>
  </way>
  <way id="4353678" version="50" timestamp="2024-12-28T21:21:43Z" changeset="160730463" uid="10224968" user="comfyquiettree">
    <nd ref="247751"/>
    <nd ref="4691199510"/>
    <nd ref="1016303334"/>
    <nd ref="9572989379"/>
    <nd ref="12441641060"/>
    <nd ref="109867557"/>
    <tag k="cycleway:both" v="no"/>
    <tag k="highway" v="secondary"/>
    <tag k="lanes" v="3"/>
    <tag k="lanes:backward" v="2"/>
    <tag k="lanes:forward" v="1"/>
    <tag k="lit" v="yes"/>
    <tag k="maxspeed:type" v="CZ:urban"/>
    <tag k="name" v="17. listopadu"/>
    <tag k="name:be" v="вуліца 17 лістапада"/>
    <tag k="name:ru" v="улица 17 ноября"/>
    <tag k="parking:both" v="no"/>
    <tag k="sidewalk:both" v="separate"/>
    <tag k="smoothness" v="intermediate"/>
    <tag k="surface" v="sett"/>
    <tag k="surface:left" v="sett"/>
    <tag k="turn:lanes:backward" v="through|right"/>
    <tag k="wikidata" v="Q19264027"/>
  </way>
  <way id="4353696" version="45" timestamp="2024-12-05T20:04:39Z" changeset="159971197" uid="16912130" user="Ondra (CZ)">
    <nd ref="472661922"/>
    <nd ref="1016303548"/>
    <nd ref="25660079"/>
    <nd ref="1016303452"/>
    <nd ref="25685407"/>
    <tag k="cycleway:both" v="no"/>
    <tag k="highway" v="residential"/>
    <tag k="lane_markings" v="no"/>
    <tag k="lit" v="yes"/>
    <tag k="maxspeed:type" v="CZ:urban"/>
    <tag k="name" v="Kaprova"/>
    <tag k="name:de" v="Karpfengasse"/>
    <tag k="name:ru" v="Капрова улица"/>
    <tag k="oneway" v="yes"/>
    <tag k="parking:both" v="lane"/>
    <tag k="parking:both:orientation" v="diagonal"/>
    <tag k="sidewalk:both" v="separate"/>
    <tag k="smoothness" v="intermediate"/>
    <tag k="surface" v="sett"/>
    <tag k="wikidata" v="Q26878349"/>
  </way>
  <way id="4353797" version="37" timestamp="2024-10-31T10:46:10Z" changeset="158574102" uid="2907091" user="Tobias1996">
    <nd ref="8810390"/>
    <nd ref="1016303163"/>
    <nd ref="1947145406"/>
    <nd ref="1964390493"/>
    <nd ref="26518198"/>
    <nd ref="1251645261"/>
    <nd ref="25659748"/>
    <tag k="highway" v="residential"/>
    <tag k="his:1926-1940:name" v="Pařížská"/>
    <tag k="his:1940-1945:name" v="Norimberská"/>
    <tag k="his:1945-:name" v="Pařížská"/>
    <tag k="lanes" v="1"/>
    <tag k="lit" v="yes"/>
    <tag k="maxspeed:type" v="CZ:urban"/>
    <tag k="name" v="Pařížská"/>
    <tag k="name:be" v="Парыжская вуліца"/>
    <tag k="name:de" v="Pariser Straße"/>
    <tag k="name:ru" v="Парижская улица"/>
    <tag k="oneway" v="yes"/>
    <tag k="sidewalk" v="separate"/>
    <tag k="surface" v="asphalt"/>
    <tag k="wikidata" v="Q6810086"/>
    <tag k="wikipedia" v="cs:Pařížská (Praha)"/>
  </way>
  <way id="4643617" version="37" timestamp="2025-03-12T11:50:05Z" changeset="163524049" uid="10224968" user="comfyquiettree">
    <nd ref="25659755"/>
    <nd ref="12199730053"/>
    <nd ref="300520928"/>
    <nd ref="25685407"/>
    <tag k="cycleway:both" v="no"/>
    <tag k="highway" v="residential"/>
    <tag k="lanes" v="1"/>
    <tag k="lit" v="yes"/>
    <tag k="maxspeed:type" v="CZ:urban"/>
    <tag k="name" v="Žatecká"/>
    <tag k="name:de" v="Saazergasse"/>
    <tag k="name:ru" v="Жатецкая улица"/>
    <tag k="oneway" v="yes"/>
    <tag k="parking:both" v="lane"/>
    <tag k="parking:both:orientation" v="parallel"/>
    <tag k="sidewalk:both" v="separate"/>
    <tag k="smoothness" v="bad"/>
    <tag k="source:name" v="nameit/uir-adr"/>
    <tag k="surface" v="sett"/>
    <tag k="wikidata" v="Q26897386"/>
  </way>
  <way id="4690433" version="38" timestamp="2025-02-19T10:40:05Z" changeset="162693620" uid="10224968" user="comfyquiettree">
    <nd ref="6490559355"/>
    <nd ref="1289267287"/>
    <nd ref="1016303355"/>
    <nd ref="5622292072"/>
    <nd ref="5066698469"/>
    <nd ref="26517908"/>
    <tag k="cycleway:both" v="no"/>
    <tag k="highway" v="residential"/>
    <tag k="lanes" v="2"/>
    <tag k="lit" v="yes"/>
    <tag k="maxspeed:type" v="CZ:urban"/>
    <tag k="name" v="Pařížská"/>
    <tag k="name:de" v="Pariser Straße"/>
    <tag k="name:ru" v="Парижская улица"/>
    <tag k="parking:right" v="no"/>
    <tag k="sidewalk" v="separate"/>
    <tag k="smoothness" v="excellent"/>
    <tag k="surface" v="asphalt"/>
    <tag k="wikidata" v="Q6810086"/>
    <tag k="wikipedia" v="cs:Pařížská (Praha)"/>
  </way>
  <way id="4819693" version="35" timestamp="2024-12-05T20:07:55Z" changeset="159971197" uid="16912130" user="Ondra (CZ)">
    <nd ref="9187811"/>
    <nd ref="1251645240"/>
    <nd ref="1016303679"/>
    <nd ref="9187812"/>
    <tag k="cycleway:both" v="no"/>
    <tag k="highway" v="residential"/>
    <tag k="lanes" v="1"/>
    <tag k="lit" v="yes"/>
    <tag k="maxspeed:type" v="CZ:urban"/>
    <tag k="name" v="Valentinská"/>
    <tag k="name:de" v="Valentinsgasse"/>
    <tag k="name:ru" v="Валентинская улица"/>
    <tag k="oneway" v="yes"/>
    <tag k="parking:both" v="lane"/>
    <tag k="parking:both:orientation" v="parallel"/>
    <tag k="sidewalk:both" v="separate"/>
    <tag k="smoothness" v="excellent"/>
    <tag k="source" v="Yahoo"/>
    <tag k="surface" v="asphalt"/>
    <tag k="wikidata" v="Q26897384"/>
  </way>
  <way id="27376005" version="43" timestamp="2025-02-26T15:48:03Z" changeset="162977637" uid="10224968" user="comfyquiettree">
    <nd ref="3261448213"/>
    <nd ref="300529137"/>
    <nd ref="300529136"/>
    <nd ref="300529135"/>
    <nd ref="300529134"/>
    <nd ref="300529133"/>
    <nd ref="3261448214"/>
    <nd ref="300529132"/>
    <nd ref="4475033847"/>
    <nd ref="300529187"/>
    <nd ref="300529188"/>
    <nd ref="300529189"/>
    <nd ref="300529190"/>
    <nd ref="300529191"/>
    <nd ref="3261448213"/>
    <tag k="addr:city" v="Praha"/>
    <tag k="amenity" v="place_of_worship"/>
    <tag k="building" v="synagogue"/>
    <tag k="building:architecture" v="baroque"/>
    <tag k="building:levels" v="2"/>
    <tag k="building:ruian:type" v="5"/>
    <tag k="heritage" v="4"/>
    <tag k="heritage:operator" v="npu"/>
    <tag k="heritage:ref" v="38875/1-456"/>
    <tag k="heritage:website" v="https://pamatkovykatalog.cz/klausova-synagoga-18559630"/>
    <tag k="name" v="Klausová synagoga"/>
    <tag k="name:cs" v="Klausová synagoga"/>
    <tag k="name:de" v="Klausensynagoge"/>
    <tag k="name:en" v="Klausen Synagogue"/>
    <tag k="name:he" v="בית הכנסת קלאוזן"/>
    <tag k="name:ja" v="クラウスシナゴーグ"/>
    <tag k="name:ru" v="Клаусова синагога"/>
    <tag k="opening_hours" v="&quot;Uzavřena z důvodů rekonstruce do roku 2028. Otevřena pouze, pokud se zde koná expozice v rámci návštěvnického okruhu.&quot;"/>
    <tag k="ref:ruian:building" v="40352846"/>
    <tag k="religion" v="jewish"/>
    <tag k="source" v="cuzk:ruian"/>
    <tag k="website" v="https://www.jewishmuseum.cz/"/>
    <tag k="wheelchair" v="no"/>
    <tag k="wikidata" v="Q898588"/>
    <tag k="wikimedia_commons" v="Category:Klausen Synagogue"/>
    <tag k="wikipedia" v="cs:Klausová synagoga"/>
    <tag k="year_of_construction" v="1689 –1694 / 1884"/>
  </way>
  <way id="27376006" version="35" timestamp="2025-02-26T15:55:48Z" changeset="162977943" uid="10224968" user="comfyquiettree">
    <nd ref="300529198"/>
    <nd ref="300529199"/>
    <nd ref="300529200"/>
    <nd ref="300529201"/>
    <nd ref="300529202"/>
    <nd ref="3261411567"/>
    <nd ref="300529203"/>
    <nd ref="300529204"/>
    <nd ref="300529205"/>
    <nd ref="3261411566"/>
    <nd ref="3261411565"/>
    <nd ref="300529198"/>
    <tag k="addr:city" v="Praha"/>
    <tag k="alt_name" v="Stará Nová škola"/>
    <tag k="alt_name:de" v="Alt-Neuschul"/>
    <tag k="amenity" v="place_of_worship"/>
    <tag k="building" v="synagogue"/>
    <tag k="building:architecture" v="gothic"/>
    <tag k="building:ruian:type" v="19"/>
    <tag k="heritage" v="4"/>
    <tag k="heritage:operator" v="npu"/>
    <tag k="heritage:ref" v="38867/1-452"/>
    <tag k="heritage:website" v="https://pamatkovykatalog.cz/staronova-synagoga-23331470"/>
    <tag k="historic" v="synagogue"/>
    <tag k="name" v="Staronová synagoga"/>
    <tag k="name:be" v="Старановая сінагога"/>
    <tag k="name:cs" v="Staronová synagoga"/>
    <tag k="name:de" v="Altneu-Synagoge"/>
    <tag k="name:en" v="Old New Synagogue"/>
    <tag k="name:he" v="בית הכנסת הישן-חדש (&quot;אלט-נוי&quot;)"/>
    <tag k="name:ja" v="旧新シナゴーグ"/>
    <tag k="name:ru" v="Староновая синагога"/>
    <tag k="opening_hours" v="Jan 01 11:00-17:00; Jan 02-Mar 31,Oct 19-Dec 31 09:00-17:00; Apr 01-31,Sep 01-Oct 18 09:00-18:00; May 01-Aug 31 09:00-19:00; Aug 03 11:00-19:00; Dec 24 09:00-14:00; Sa off; JH off"/>
    <tag k="ref:ruian:building" v="49106473"/>
    <tag k="religion" v="jewish"/>
    <tag k="source" v="cuzk:ruian"/>
    <tag k="start_date" v="1270"/>
    <tag k="website" v="https://www.jewishmuseum.cz/"/>
    <tag k="wikidata" v="Q443107"/>
    <tag k="wikimedia_commons" v="Category:Old New Synagogue"/>
    <tag k="wikipedia" v="cs:Staronová synagoga"/>
  </way>
  <way id="27376007" version="31" timestamp="2024-04-09T12:05:41Z" changeset="149774471" uid="1778799" user="SomeoneElse_Revert">
    <nd ref="300529207"/>
    <nd ref="300529208"/>
    <nd ref="342292363"/>
    <nd ref="300529209"/>
    <nd ref="3261426165"/>
    <nd ref="342292356"/>
    <nd ref="300529210"/>
    <nd ref="342292358"/>
    <nd ref="300529212"/>
    <nd ref="300529206"/>
    <nd ref="342292332"/>
    <nd ref="300529207"/>
    <tag k="addr:city" v="Praha"/>
    <tag k="amenity" v="place_of_worship"/>
    <tag k="building" v="synagogue"/>
    <tag k="building:levels" v="5"/>
    <tag k="building:ruian:type" v="19"/>
    <tag k="denomination" v="jewish"/>
    <tag k="heritage" v="4"/>
    <tag k="heritage:operator" v="npu"/>
    <tag k="heritage:ref" v="44412/1-460"/>
    <tag k="heritage:website" v="https://pamatkovykatalog.cz/vysoka-synagoga-13260941"/>
    <tag k="name" v="Vysoká synagoga"/>
    <tag k="name:cs" v="Vysoká synagoga"/>
    <tag k="name:de" v="Hohe Synagoge"/>
    <tag k="name:en" v="High Synagogue"/>
    <tag k="name:ru" v="Высокая синагога"/>
    <tag k="ref:ruian:building" v="21538000"/>
    <tag k="religion" v="jewish"/>
    <tag k="source" v="cuzk:ruian"/>
    <tag k="start_date" v="1577"/>
    <tag k="wikidata" v="Q1623546"/>
    <tag k="wikimedia_commons" v="Category:High Synagogue in Prague"/>
    <tag k="wikipedia" v="cs:Vysoká synagoga"/>
    <tag k="year_of_construction" v="1577"/>
  </way>
  <way id="28517451" version="38" timestamp="2025-02-25T16:40:33Z" changeset="162940472" uid="10224968" user="comfyquiettree">
    <nd ref="3261476462"/>
    <nd ref="313248216"/>
    <nd ref="313248217"/>
    <nd ref="313248218"/>
    <nd ref="313248219"/>
    <nd ref="4723945893"/>
    <nd ref="313248220"/>
    <nd ref="313248221"/>
    <nd ref="313248222"/>
    <nd ref="313248232"/>
    <nd ref="313248233"/>
    <nd ref="313248223"/>
    <nd ref="313248224"/>
    <nd ref="342286541"/>
    <nd ref="313248225"/>
    <nd ref="313248226"/>
    <nd ref="313248227"/>
    <nd ref="313248228"/>
    <nd ref="313248229"/>
    <nd ref="313248230"/>
    <nd ref="313248231"/>
    <nd ref="342286556"/>
    <nd ref="342286484"/>
    <nd ref="313248211"/>
    <nd ref="313248212"/>
    <nd ref="313248213"/>
    <nd ref="313248214"/>
    <nd ref="313248215"/>
    <nd ref="3261476462"/>
    <tag k="addr:city" v="Praha"/>
    <tag k="amenity" v="place_of_worship"/>
    <tag k="architect" v="Vojtěch Ignác Ullmann, Josef Niklas"/>
    <tag k="architect:wikidata" v="Q11925879;Q6280055"/>
    <tag k="building" v="synagogue"/>
    <tag k="building:architecture" v="moorish_revival"/>
    <tag k="building:levels" v="5"/>
    <tag k="building:ruian:type" v="19"/>
    <tag k="heritage" v="4"/>
    <tag k="heritage:operator" v="npu"/>
    <tag k="heritage:ref" v="38881/1-459"/>
    <tag k="heritage:website" v="https://pamatkovykatalog.cz/spanelska-synagoga-stara-skola-templ-13259567"/>
    <tag k="name" v="Španělská synagoga"/>
    <tag k="name:cs" v="Španělská synagoga"/>
    <tag k="name:de" v="Spanische Synagoge"/>
    <tag k="name:en" v="Spanish Synagogue"/>
    <tag k="name:he" v="בית הכנסת הספרדי"/>
    <tag k="name:ja" v="スペインシナゴーグ"/>
    <tag k="name:ru" v="Испанская синагога"/>
    <tag k="opening_hours" v="Jan 01 11:00-16:30; Jan 02-Mar 31,Oct 19-Dec 31 09:00-16:30; Apr 01-30,Sep 01-Oct 18 09:00-18:00; May 01-Aug 31 09:00-19:00; Dec 24 09:00-14:00; JH off"/>
    <tag k="organ" v="yes"/>
    <tag k="ref:ruian:building" v="42688531"/>
    <tag k="religion" v="jewish"/>
    <tag k="source" v="cuzk:ruian"/>
    <tag k="tourism" v="museum"/>
    <tag k="website" v="https://www.jewishmuseum.cz/"/>
    <tag k="wheelchair" v="yes"/>
    <tag k="wikidata" v="Q990003"/>
    <tag k="wikimedia_commons" v="Category:Spanish Synagogue in Prague"/>
    <tag k="wikipedia" v="cs:Španělská synagoga"/>
    <tag k="year_of_construction" v="1868 –1893"/>
  </way>
  <way id="28518987" version="32" timestamp="2025-02-25T16:42:06Z" changeset="162940524" uid="10224968" user="comfyquiettree">
    <nd ref="313270004"/>
    <nd ref="313269989"/>
    <nd ref="313269991"/>
    <nd ref="313270005"/>
    <nd ref="313270006"/>
    <nd ref="313269992"/>
    <nd ref="313269987"/>
    <nd ref="3270101436"/>
    <nd ref="3270101435"/>
    <nd ref="8411396512"/>
    <nd ref="313269943"/>
    <nd ref="313269945"/>
    <nd ref="313269946"/>
    <nd ref="313269947"/>
    <nd ref="313269948"/>
    <nd ref="313269949"/>
    <nd ref="313269950"/>
    <nd ref="313269952"/>
    <nd ref="313269953"/>
    <nd ref="313269954"/>
    <nd ref="313269958"/>
    <nd ref="313269962"/>
    <nd ref="313269963"/>
    <nd ref="313269964"/>
    <nd ref="313269965"/>
    <nd ref="313269967"/>
    <nd ref="313269968"/>
    <nd ref="313269969"/>
    <nd ref="313269972"/>
    <nd ref="313269974"/>
    <nd ref="313269975"/>
    <nd ref="313269976"/>
    <nd ref="313269977"/>
    <nd ref="313269978"/>
    <nd ref="313269979"/>
    <nd ref="313269980"/>
    <nd ref="342294831"/>
    <nd ref="313269981"/>
    <nd ref="313269982"/>
    <nd ref="313269983"/>
    <nd ref="313269984"/>
    <nd ref="313269985"/>
    <nd ref="342294794"/>
    <nd ref="313269932"/>
    <nd ref="313269933"/>
    <nd ref="313269935"/>
    <nd ref="313269986"/>
    <nd ref="313269998"/>
    <nd ref="313269999"/>
    <nd ref="313270000"/>
    <nd ref="313269996"/>
    <nd ref="313269994"/>
    <nd ref="313270001"/>
    <nd ref="313270002"/>
    <nd ref="313269995"/>
    <nd ref="4883181722"/>
    <nd ref="313269988"/>
    <nd ref="313270003"/>
    <nd ref="313270004"/>
    <tag k="access" v="customers"/>
    <tag k="addr:city" v="Praha 1"/>
    <tag k="addr:housenumber" v="63/10"/>
    <tag k="addr:postcode" v="11000"/>
    <tag k="addr:street" v="Maiselova"/>
    <tag k="amenity" v="place_of_worship"/>
    <tag k="building" v="synagogue"/>
    <tag k="building:ruian:type" v="19"/>
    <tag k="fee" v="yes"/>
    <tag k="heritage" v="4"/>
    <tag k="heritage:operator" v="npu"/>
    <tag k="heritage:ref" v="38869/1-453"/>
    <tag k="heritage:website" v="https://pamatkovykatalog.cz/maiselova-synagoga-18560706"/>
    <tag k="name" v="Maiselova synagoga"/>
    <tag k="name:cs" v="Maiselova synagoga"/>
    <tag k="name:de" v="Maiselsynagoge"/>
    <tag k="name:en" v="Maisel Synagogue"/>
    <tag k="name:he" v="בית הכנסת מייזל"/>
    <tag k="name:ja" v="マイゼルシナゴーグ"/>
    <tag k="name:ru" v="Майзелова синагога"/>
    <tag k="opening_hours" v="Jan 01 11:00-16:30; Jan 02-Mar 31,Oct 19-Dec 31 09:00-16:30; Apr 01-30,Sep 01-Oct 18 09:00-18:00; May 01-Aug 31 09:00-19:00; Dec 24 09:00-14:00; JH off"/>
    <tag k="ref:ruian:building" v="42688523"/>
    <tag k="religion" v="jewish"/>
    <tag k="source" v="cuzk:ruian"/>
    <tag k="website" v="https://www.jewishmuseum.cz/"/>
    <tag k="wheelchair" v="yes"/>
    <tag k="wikidata" v="Q517766"/>
    <tag k="wikimedia_commons" v="Category:Maisel Synagogue"/>
    <tag k="wikipedia" v="cs:Maiselova synagoga"/>
    <tag k="year_of_construction" v="1590 - 1592"/>
  </way>
  <way id="30066031" version="33" timestamp="2024-04-09T12:05:16Z" changeset="149774471" uid="1778799" user="SomeoneElse_Revert">
    <nd ref="25685114"/>
    <nd ref="2239270702"/>
    <nd ref="1225805026"/>
    <nd ref="9558712219"/>
    <nd ref="26517612"/>
    <nd ref="25659746"/>
    <tag k="cycleway:left" v="shared_lane"/>
    <tag k="highway" v="residential"/>
    <tag k="lanes" v="1"/>
    <tag k="lit" v="yes"/>
    <tag k="maxspeed" v="30"/>
    <tag k="name" v="Vězeňská"/>
    <tag k="name:de" v="Stockhausgasse"/>
    <tag k="name:ru" v="Везеньска улица"/>
    <tag k="note" v="oneway:bicycle=no since 03/2022"/>
    <tag k="oneway" v="yes"/>
    <tag k="oneway:bicycle" v="no"/>
    <tag k="sidewalk:both" v="separate"/>
    <tag k="surface" v="sett"/>
  </way>
  <way id="30825119" version="41" timestamp="2025-04-09T08:48:38Z" changeset="164712888" uid="10224968" user="comfyquiettree">
    <nd ref="342289497"/>
    <nd ref="3274216965"/>
    <nd ref="3274216964"/>
    <nd ref="342289490"/>
    <nd ref="342289480"/>
    <nd ref="3426740049"/>
    <nd ref="342289471"/>
    <nd ref="342289464"/>
    <nd ref="3270129615"/>
    <nd ref="3270129616"/>
    <nd ref="3270129617"/>
    <nd ref="342289453"/>
    <nd ref="342289582"/>
    <nd ref="342289579"/>
    <nd ref="342289577"/>
    <nd ref="342289574"/>
    <nd ref="342289572"/>
    <nd ref="342289568"/>
    <nd ref="342289564"/>
    <nd ref="342289561"/>
    <nd ref="342289556"/>
    <nd ref="342289547"/>
    <nd ref="342289542"/>
    <nd ref="342289537"/>
    <nd ref="342289534"/>
    <nd ref="342289531"/>
    <nd ref="342289527"/>
    <nd ref="342289522"/>
    <nd ref="342289519"/>
    <nd ref="342289512"/>
    <nd ref="3274216963"/>
    <nd ref="3274216962"/>
    <nd ref="342289505"/>
    <nd ref="2989898939"/>
    <nd ref="342289497"/>
    <tag k="building" v="civic"/>
    <tag k="building:flats" v="1"/>
    <tag k="building:levels" v="4"/>
    <tag k="building:ruian:type" v="5"/>
    <tag k="check_date" v="2023-06-27"/>
    <tag k="fee" v="yes"/>
    <tag k="name" v="Uměleckoprůmyslové muzeum v Praze"/>
    <tag k="name:be" v="Музей прыкладнога мастацтва"/>
    <tag k="name:cs" v="Uměleckoprůmyslové muzeum v Praze"/>
    <tag k="name:de" v="Kunstgewerbemuseum"/>
    <tag k="name:en" v="Museum of Decorative Arts in Prague"/>
    <tag k="name:es" v="Museo de Artes Decorativas"/>
    <tag k="name:he" v="המוזיאון לאמנות דקורטיבית"/>
    <tag k="name:ru" v="Музей прикладного искусства"/>
    <tag k="opening_hours" v="Tu 10:00-20:00; We-Su 10:00-18:00"/>
    <tag k="ref:ruian:building" v="21537534"/>
    <tag k="short_name" v="UPM"/>
    <tag k="source" v="cuzk:ruian"/>
    <tag k="status" v="reconstruction"/>
    <tag k="tourism" v="museum"/>
    <tag k="website" v="https://www.upm.cz/"/>
    <tag k="wikidata" v="Q1349747"/>
    <tag k="wikipedia" v="cs:Uměleckoprůmyslové museum v Praze"/>
  </way>
  <way id="30825232" version="11" timestamp="2023-08-06T12:00:52Z" changeset="139512928" uid="12500589" user="tg4567">
    <nd ref="342292341"/>
    <nd ref="3261426162"/>
    <nd ref="342292338"/>
    <nd ref="342292336"/>
    <nd ref="342292334"/>
    <nd ref="3261426166"/>
    <nd ref="342292360"/>
    <nd ref="342292358"/>
    <nd ref="300529210"/>
    <nd ref="342292356"/>
    <nd ref="3261426163"/>
    <nd ref="3261426164"/>
    <nd ref="342292354"/>
    <nd ref="342292352"/>
    <nd ref="3261426161"/>
    <nd ref="342292349"/>
    <nd ref="342292347"/>
    <nd ref="342292345"/>
    <nd ref="342292467"/>
    <nd ref="342292343"/>
    <nd ref="342292341"/>
    <tag k="addr:city" v="Praha"/>
    <tag k="addr:street" v="Maiselova"/>
    <tag k="alt_name" v="Maiselova radnice"/>
    <tag k="building" v="civic"/>
    <tag k="building:levels" v="5"/>
    <tag k="building:ruian:type" v="19"/>
    <tag k="heritage" v="4"/>
    <tag k="heritage:operator" v="npu"/>
    <tag k="heritage:ref" v="44412/1-460"/>
    <tag k="heritage:website" v="https://pamatkovykatalog.cz/zidovska-radnice-13261142"/>
    <tag k="name" v="Židovská radnice"/>
    <tag k="name:de" v="Jüdisches Rathaus"/>
    <tag k="name:en" v="Jewish Town Hall"/>
    <tag k="name:es" v="Antiguo Ayuntamiento"/>
    <tag k="name:he" v="בנין המועצה היהודית"/>
    <tag k="ref:ruian:building" v="21538263"/>
    <tag k="source" v="cuzk:ruian"/>
    <tag k="start_date" v="1577"/>
    <tag k="wikidata" v="Q80272"/>
    <tag k="wikimedia_commons" v="Category:Jewish Town Hall (Prague)"/>
    <tag k="wikipedia" v="cs:Maiselova radnice"/>
    <tag k="year_of_construction" v="1577 / 1754 / 1908"/>
  </way>
  <way id="31695695" version="31" timestamp="2025-01-09T17:00:50Z" changeset="161177789" uid="10224968" user="comfyquiettree">
    <nd ref="1251663083"/>
    <nd ref="26517823"/>
    <nd ref="1251645273"/>
    <tag k="highway" v="residential"/>
    <tag k="lanes" v="2"/>
    <tag k="lit" v="yes"/>
    <tag k="maxspeed:type" v="CZ:urban"/>
    <tag k="name" v="Široká"/>
    <tag k="name:de" v="Breite Gasse"/>
    <tag k="name:ru" v="Широкая улица"/>
    <tag k="sidewalk:both" v="separate"/>
    <tag k="smoothness" v="good"/>
    <tag k="surface" v="sett"/>
    <tag k="wikidata" v="Q26897280"/>
  </way>
  <way id="31695696" version="30" timestamp="2024-12-28T21:21:30Z" changeset="160730463" uid="10224968" user="comfyquiettree">
    <nd ref="25659748"/>
    <nd ref="1251645253"/>
    <nd ref="9154241837"/>
    <nd ref="9154241836"/>
    <nd ref="25659750"/>
    <tag k="highway" v="residential"/>
    <tag k="lanes" v="1"/>
    <tag k="lit" v="yes"/>
    <tag k="maxspeed:type" v="CZ:urban"/>
    <tag k="name" v="Široká"/>
    <tag k="name:de" v="Breite Gasse"/>
    <tag k="name:ru" v="Широкая улица"/>
    <tag k="oneway" v="yes"/>
    <tag k="oneway:bicycle" v="no"/>
    <tag k="sidewalk:both" v="separate"/>
    <tag k="surface" v="sett"/>
    <tag k="wikidata" v="Q26897280"/>
  </way>
  <way id="41492498" version="35" timestamp="2025-04-09T10:45:19Z" changeset="164718101" uid="10224968" user="comfyquiettree">
    <nd ref="8810390"/>
    <nd ref="1016303246"/>
    <nd ref="25685294"/>
    <tag k="highway" v="residential"/>
    <tag k="his:1400-1840:name" v="Bílkova"/>
    <tag k="his:1840-1870:name" v="Malá Křížová"/>
    <tag k="his:1870-1940:name" v="Bílkova"/>
    <tag k="his:1940-1945:name" v="Waldhauserova"/>
    <tag k="his:1945-:name" v="Bílkova"/>
    <tag k="lanes" v="2"/>
    <tag k="lit" v="yes"/>
    <tag k="maxspeed:type" v="CZ:urban"/>
    <tag k="name" v="Bílkova"/>
    <tag k="name:ru" v="Билкова улица"/>
    <tag k="sidewalk:both" v="separate"/>
    <tag k="smoothness" v="intermediate"/>
    <tag k="source:name" v="nameit/uir-adr"/>
    <tag k="surface" v="sett"/>
    <tag k="wikidata" v="Q21822545"/>
  </way>
  <way id="55503427" version="12" timestamp="2024-12-28T21:22:00Z" changeset="160730463" uid="10224968" user="comfyquiettree">
    <nd ref="26517823"/>
    <nd ref="1225461943"/>
    <nd ref="25685306"/>
    <nd ref="1225461939"/>
    <nd ref="25685294"/>
    <tag k="highway" v="residential"/>
    <tag k="lanes" v="1"/>
    <tag k="lit" v="yes"/>
    <tag k="maxspeed:type" v="CZ:urban"/>
    <tag k="name" v="Elišky Krásnohorské"/>
    <tag k="name:de" v="Eliška-Krásnohorská-Gasse"/>
    <tag k="oneway" v="yes"/>
    <tag k="sidewalk:both" v="separate"/>
    <tag k="surface" v="sett"/>
    <tag k="wikidata" v="Q25336723"/>
  </way>
  <way id="106522648" version="29" timestamp="2024-12-28T21:21:52Z" changeset="160730463" uid="10224968" user="comfyquiettree">
    <nd ref="25685297"/>
    <nd ref="1410296775"/>
    <tag k="highway" v="residential"/>
    <tag k="his:1400-1840:name" v="Bílkova"/>
    <tag k="his:1840-1870:name" v="Malá Křížová"/>
    <tag k="his:1870-1940:name" v="Bílkova"/>
    <tag k="his:1940-1945:name" v="Waldhauserova"/>
    <tag k="his:1945-:name" v="Bílkova"/>
    <tag k="lanes" v="1"/>
    <tag k="lit" v="yes"/>
    <tag k="maxspeed:type" v="CZ:urban"/>
    <tag k="name" v="Bílkova"/>
    <tag k="name:ru" v="Билкова улица"/>
    <tag k="note" v="Oneway_bicycle=no since 2021"/>
    <tag k="oneway" v="yes"/>
    <tag k="oneway:bicycle" v="no"/>
    <tag k="sidewalk" v="both"/>
    <tag k="source:name" v="nameit/uir-adr"/>
    <tag k="surface" v="asphalt"/>
    <tag k="width" v="10"/>
    <tag k="wikidata" v="Q21822545"/>
  </way>
  <way id="106522649" version="32" timestamp="2024-12-28T21:21:53Z" changeset="160730463" uid="10224968" user="comfyquiettree">
    <nd ref="25685294"/>
    <nd ref="1225461941"/>
    <nd ref="1225461938"/>
    <nd ref="25685297"/>
    <tag k="cycleway:left" v="no"/>
    <tag k="cycleway:right" v="no"/>
    <tag k="highway" v="residential"/>
    <tag k="his:1400-1840:name" v="Bílkova"/>
    <tag k="his:1840-1870:name" v="Malá Křížová"/>
    <tag k="his:1870-1940:name" v="Bílkova"/>
    <tag k="his:1940-1945:name" v="Waldhauserova"/>
    <tag k="his:1945-:name" v="Bílkova"/>
    <tag k="lane_markings" v="no"/>
    <tag k="lit" v="yes"/>
    <tag k="maxspeed:type" v="CZ:urban"/>
    <tag k="name" v="Bílkova"/>
    <tag k="name:ru" v="Билкова улица"/>
    <tag k="oneway" v="yes"/>
    <tag k="oneway:bicycle" v="no"/>
    <tag k="sidewalk:left" v="separate"/>
    <tag k="sidewalk:right" v="yes"/>
    <tag k="source:name" v="nameit/uir-adr"/>
    <tag k="surface" v="asphalt"/>
    <tag k="wikidata" v="Q21822545"/>
  </way>
  <way id="109301771" version="27" timestamp="2024-12-28T21:21:59Z" changeset="160730463" uid="10224968" user="comfyquiettree">
    <nd ref="25685297"/>
    <nd ref="26517824"/>
    <nd ref="11930026622"/>
    <nd ref="25685301"/>
    <tag k="highway" v="residential"/>
    <tag k="lanes" v="1"/>
    <tag k="lit" v="yes"/>
    <tag k="maxspeed:type" v="CZ:urban"/>
    <tag k="name" v="Dušní"/>
    <tag k="name:de" v="Geistgasse"/>
    <tag k="name:ru" v="Душни улица"/>
    <tag k="oneway" v="yes"/>
    <tag k="sidewalk" v="both"/>
    <tag k="source:name" v="nameit/uir-adr"/>
    <tag k="surface" v="asphalt"/>
    <tag k="wikidata" v="Q23770370"/>
  </way>
  <way id="126243816" version="27" timestamp="2025-01-09T17:00:52Z" changeset="161177789" uid="10224968" user="comfyquiettree">
    <nd ref="1251645273"/>
    <nd ref="25659748"/>
    <tag k="highway" v="residential"/>
    <tag k="lanes" v="2"/>
    <tag k="lit" v="yes"/>
    <tag k="maxspeed:type" v="CZ:urban"/>
    <tag k="name" v="Široká"/>
    <tag k="name:de" v="Breite Gasse"/>
    <tag k="name:ru" v="Широкая улица"/>
    <tag k="sidewalk:both" v="separate"/>
    <tag k="smoothness" v="good"/>
    <tag k="surface" v="sett"/>
    <tag k="wikidata" v="Q26897280"/>
  </way>
  <way id="127883999" version="31" timestamp="2024-12-05T20:06:23Z" changeset="159971197" uid="16912130" user="Ondra (CZ)">
    <nd ref="25685407"/>
    <nd ref="1016303294"/>
    <nd ref="4799890343"/>
    <nd ref="9187812"/>
    <tag k="cycleway:both" v="no"/>
    <tag k="highway" v="residential"/>
    <tag k="lane_markings" v="no"/>
    <tag k="lit" v="yes"/>
    <tag k="maxspeed:type" v="CZ:urban"/>
    <tag k="name" v="Kaprova"/>
    <tag k="name:de" v="Karpfengasse"/>
    <tag k="name:ru" v="Капрова улица"/>
    <tag k="oneway" v="yes"/>
    <tag k="parking:both" v="lane"/>
    <tag k="parking:both:orientation" v="diagonal"/>
    <tag k="sidewalk:both" v="separate"/>
    <tag k="smoothness" v="excellent"/>
    <tag k="surface" v="asphalt"/>
    <tag k="wikidata" v="Q26878349"/>
  </way>
  <way id="127885989" version="29" timestamp="2024-12-28T21:21:24Z" changeset="160730463" uid="10224968" user="comfyquiettree">
    <nd ref="25685407"/>
    <nd ref="1016303363"/>
    <nd ref="12199730044"/>
    <nd ref="300520927"/>
    <nd ref="1016303670"/>
    <nd ref="25659012"/>
    <tag k="cycleway:both" v="no"/>
    <tag k="highway" v="residential"/>
    <tag k="lane_markings" v="no"/>
    <tag k="lit" v="yes"/>
    <tag k="maxspeed:type" v="CZ:urban"/>
    <tag k="name" v="Žatecká"/>
    <tag k="name:de" v="Saazergasse"/>
    <tag k="name:ru" v="Жатецкая улица"/>
    <tag k="oneway" v="yes"/>
    <tag k="parking:both" v="lane"/>
    <tag k="parking:both:orientation" v="parallel"/>
    <tag k="sidewalk:both" v="separate"/>
    <tag k="smoothness" v="good"/>
    <tag k="source:name" v="nameit/uir-adr"/>
    <tag k="surface" v="asphalt"/>
    <tag k="wikidata" v="Q26897386"/>
  </way>
  <way id="165287756" version="31" timestamp="2025-02-19T10:02:58Z" changeset="162693620" uid="10224968" user="comfyquiettree">
    <nd ref="25685248"/>
    <nd ref="3442721033"/>
    <nd ref="1493645193"/>
    <nd ref="3442721045"/>
    <nd ref="8810423"/>
    <nd ref="5066698489"/>
    <nd ref="4691199591"/>
    <nd ref="8810384"/>
    <tag k="cycleway:both" v="no"/>
    <tag k="highway" v="secondary"/>
    <tag k="lanes" v="4"/>
    <tag k="lit" v="yes"/>
    <tag k="maxspeed:type" v="CZ:urban"/>
    <tag k="name" v="17. listopadu"/>
    <tag k="name:be" v="вуліца 17 лістапада"/>
    <tag k="name:ru" v="улица 17 ноября"/>
    <tag k="sidewalk" v="separate"/>
    <tag k="smoothness" v="excellent"/>
    <tag k="surface" v="asphalt"/>
    <tag k="wikidata" v="Q19264027"/>
  </way>
  <way id="179183380" version="35" timestamp="2025-02-25T16:38:26Z" changeset="162940382" uid="10224968" user="comfyquiettree">
    <nd ref="300529096"/>
    <nd ref="3261464797"/>
    <nd ref="3261464799"/>
    <nd ref="3261464798"/>
    <nd ref="3261464796"/>
    <nd ref="300529095"/>
    <nd ref="3261464795"/>
    <nd ref="3261464794"/>
    <nd ref="3261464793"/>
    <nd ref="300529093"/>
    <nd ref="3261464791"/>
    <nd ref="3261464792"/>
    <nd ref="3261464789"/>
    <nd ref="3261464790"/>
    <nd ref="1895315069"/>
    <nd ref="300529186"/>
    <nd ref="300529096"/>
    <tag k="addr:city" v="Praha"/>
    <tag k="amenity" v="place_of_worship"/>
    <tag k="building" v="synagogue"/>
    <tag k="building:ruian:type" v="5"/>
    <tag k="fee" v="yes"/>
    <tag k="name" v="Pinkasova synagoga"/>
    <tag k="name:cs" v="Pinkasova synagoga"/>
    <tag k="name:de" v="Pinkassynagoge"/>
    <tag k="name:en" v="Pinkas Synagogue"/>
    <tag k="name:he" v="בית הכנסת פינקס"/>
    <tag k="name:it" v="Sinagoga e cimitero"/>
    <tag k="name:ja" v="ピンカスシナゴーグ"/>
    <tag k="name:ru" v="Пинкасова синагога"/>
    <tag k="opening_hours" v="Jan 01 11:00-16:30; Jan 02-Mar 31,Oct 19-Dec 31 09:00-16:30; Apr 01-30,Sep 01-Oct 18 09:00-18:00; May 01-Aug 31 09:00-19:00; Dec 24 09:00-14:00; JH off"/>
    <tag k="operator" v="Židovské muzeum v Praze"/>
    <tag k="ref:ruian:building" v="21537704"/>
    <tag k="religion" v="jewish"/>
    <tag k="source" v="cuzk:ruian"/>
    <tag k="tourism" v="museum"/>
    <tag k="website" v="https://www.jewishmuseum.cz/"/>
    <tag k="wheelchair" v="no"/>
    <tag k="wikidata" v="Q599211"/>
    <tag k="wikimedia_commons" v="Category:Pinkas Synagogue"/>
    <tag k="wikipedia" v="cs:Pinkasova synagoga"/>
  </way>
  <way id="295285613" version="32" timestamp="2025-03-03T15:22:29Z" changeset="163165905" uid="10224968" user="comfyquiettree">
    <nd ref="2989898955"/>
    <nd ref="2989898956"/>
    <nd ref="2989898957"/>
    <nd ref="2989898958"/>
    <nd ref="2989898959"/>
    <nd ref="2989898960"/>
    <nd ref="2989898952"/>
    <nd ref="2989898953"/>
    <nd ref="2989898951"/>
    <nd ref="300529131"/>
    <nd ref="300529130"/>
    <nd ref="2989898954"/>
    <nd ref="2989898955"/>
    <tag k="access" v="customers"/>
    <tag k="building" v="civic"/>
    <tag k="building:levels" v="3"/>
    <tag k="building:ruian:type" v="5"/>
    <tag k="fee" v="yes"/>
    <tag k="name" v="Obřadní síň"/>
    <tag k="name:cs" v="Obřadní síň"/>
    <tag k="name:de" v="Zeremoniensaal"/>
    <tag k="name:en" v="Ceremonial Hall"/>
    <tag k="name:he" v="בית הטהרה"/>
    <tag k="name:ja" v="セレモニアル・ホール"/>
    <tag k="name:ru" v="Церемониальный зал"/>
    <tag k="operator" v="Židovské muzeum v Praze"/>
    <tag k="ref:ruian:building" v="46668004"/>
    <tag k="roof:levels" v="1"/>
    <tag k="source" v="cuzk:ruian"/>
    <tag k="tourism" v="museum"/>
    <tag k="website" v="https://www.jewishmuseum.cz/"/>
    <tag k="wheelchair" v="no"/>
    <tag k="wikidata" v="Q474468"/>
    <tag k="wikimedia_commons" v="Category:Jewish Ceremonial Hall, Prague-Josefov"/>
    <tag k="wikipedia" v="cs:Nová obřadní síň u Starého židovského hřbitova v Praze-Josefově"/>
  </way>
  <way id="306390482" version="27" timestamp="2025-01-09T18:06:45Z" changeset="161179954" uid="10224968" user="comfyquiettree">
    <nd ref="25659746"/>
    <nd ref="12486970697"/>
    <nd ref="3112804646"/>
    <nd ref="315529356"/>
    <nd ref="25659745"/>
    <tag k="highway" v="residential"/>
    <tag k="junction" v="roundabout"/>
    <tag k="lanes" v="1"/>
    <tag k="lit" v="yes"/>
    <tag k="maxspeed:type" v="CZ:urban"/>
    <tag k="name" v="Dušní"/>
    <tag k="name:de" v="Geistgasse"/>
    <tag k="name:ru" v="Душни улица"/>
    <tag k="oneway" v="yes"/>
    <tag k="sidewalk:both" v="separate"/>
    <tag k="source:name" v="nameit/uir-adr"/>
    <tag k="surface" v="sett"/>
    <tag k="wikidata" v="Q23770370"/>
  </way>
  <way id="306390483" version="28" timestamp="2024-12-28T21:21:34Z" changeset="160730463" uid="10224968" user="comfyquiettree">
    <nd ref="9187809"/>
    <nd ref="12199717998"/>
    <nd ref="25659749"/>
    <nd ref="6455491585"/>
    <nd ref="1251645265"/>
    <nd ref="25659750"/>
    <tag k="highway" v="residential"/>
    <tag k="lanes" v="1"/>
    <tag k="lit" v="yes"/>
    <tag k="maxspeed:type" v="CZ:urban"/>
    <tag k="name" v="Maiselova"/>
    <tag k="name:de" v="Maiselgasse"/>
    <tag k="name:ru" v="улица Майзелова"/>
    <tag k="oneway" v="yes"/>
    <tag k="sidewalk:both" v="separate"/>
    <tag k="surface" v="sett"/>
    <tag k="wikidata" v="Q26897372"/>
  </way>
  <way id="390952680" version="6" timestamp="2023-06-01T19:50:39Z" changeset="136843062" uid="13864" user="Martin Poljak">
    <nd ref="431322086"/>
    <nd ref="6032182098"/>
    <nd ref="431322085"/>
    <nd ref="3941072347"/>
    <nd ref="3941072353"/>
    <nd ref="3941072350"/>
    <nd ref="3941072378"/>
    <nd ref="3941072381"/>
    <nd ref="3941072385"/>
    <nd ref="431322077"/>
    <nd ref="6032182099"/>
    <nd ref="6032182094"/>
    <nd ref="431322079"/>
    <nd ref="2817959429"/>
    <nd ref="2817959431"/>
    <nd ref="431322086"/>
    <tag k="addr:city" v="Praha 1"/>
    <tag k="addr:housenumber" v="133/11"/>
    <tag k="addr:postcode" v="11000"/>
    <tag k="addr:street" v="Elišky Krásnohorské"/>
    <tag k="building" v="apartments"/>
    <tag k="building:flats" v="11"/>
    <tag k="building:levels" v="5"/>
    <tag k="building:ruian:type" v="3"/>
    <tag k="disused:shop" v="yes"/>
    <tag k="ref:ruian:building" v="21538123"/>
    <tag k="roof:material" v="roof_tiles"/>
    <tag k="roof:shape" v="gabled"/>
    <tag k="source" v="cuzk:ruian;www.perlyasie.cz"/>
  </way>
  <way id="566826589" version="32" timestamp="2024-12-05T20:08:58Z" changeset="159971197" uid="16912130" user="Ondra (CZ)">
    <nd ref="25685424"/>
    <nd ref="12205621957"/>
    <nd ref="9572989380"/>
    <nd ref="8533351080"/>
    <nd ref="8533357144"/>
    <nd ref="12389652564"/>
    <nd ref="6490559345"/>
    <nd ref="247751"/>
    <tag k="cycleway:both" v="no"/>
    <tag k="highway" v="residential"/>
    <tag k="lane_markings" v="no"/>
    <tag k="lit" v="yes"/>
    <tag k="maxspeed:type" v="CZ:urban"/>
    <tag k="name" v="Kaprova"/>
    <tag k="name:de" v="Karpfengasse"/>
    <tag k="name:ru" v="Капрова улица"/>
    <tag k="oneway" v="yes"/>
    <tag k="parking:left" v="lane"/>
    <tag k="parking:left:orientation" v="parallel"/>
    <tag k="parking:right" v="no"/>
    <tag k="sidewalk:both" v="separate"/>
    <tag k="smoothness" v="excellent"/>
    <tag k="surface" v="asphalt"/>
    <tag k="wikidata" v="Q26878349"/>
  </way>
  <way id="566826590" version="26" timestamp="2024-12-28T21:21:31Z" changeset="160730463" uid="10224968" user="comfyquiettree">
    <nd ref="9187811"/>
    <nd ref="300520929"/>
    <tag k="cycleway:both" v="no"/>
    <tag k="highway" v="residential"/>
    <tag k="lanes" v="1"/>
    <tag k="lit" v="yes"/>
    <tag k="maxspeed:type" v="CZ:urban"/>
    <tag k="name" v="Široká"/>
    <tag k="name:de" v="Breite Gasse"/>
    <tag k="name:ru" v="Широкая улица"/>
    <tag k="oneway" v="yes"/>
    <tag k="sidewalk:left" v="no"/>
    <tag k="sidewalk:right" v="separate"/>
    <tag k="smoothness" v="good"/>
    <tag k="surface" v="asphalt"/>
    <tag k="wikidata" v="Q26897280"/>
  </way>
  <way id="635416702" version="25" timestamp="2024-12-28T21:21:41Z" changeset="160730463" uid="10224968" user="comfyquiettree">
    <nd ref="109867557"/>
    <nd ref="25685248"/>
    <tag k="cycleway:both" v="no"/>
    <tag k="highway" v="secondary"/>
    <tag k="lanes" v="3"/>
    <tag k="lanes:backward" v="2"/>
    <tag k="lanes:forward" v="1"/>
    <tag k="lit" v="yes"/>
    <tag k="maxspeed:type" v="CZ:urban"/>
    <tag k="name" v="17. listopadu"/>
    <tag k="name:be" v="вуліца 17 лістапада"/>
    <tag k="name:ru" v="улица 17 ноября"/>
    <tag k="sidewalk:both" v="separate"/>
    <tag k="smoothness" v="good"/>
    <tag k="surface" v="asphalt"/>
    <tag k="surface:left" v="sett"/>
    <tag k="wikidata" v="Q19264027"/>
  </way>
  <way id="683684594" version="25" timestamp="2024-12-28T21:21:30Z" changeset="160730463" uid="10224968" user="comfyquiettree">
    <nd ref="25659750"/>
    <nd ref="12199933822"/>
    <nd ref="25659755"/>
    <tag k="cycleway:left" v="shared_lane"/>
    <tag k="highway" v="residential"/>
    <tag k="lanes" v="1"/>
    <tag k="lit" v="yes"/>
    <tag k="maxspeed:type" v="CZ:urban"/>
    <tag k="name" v="Široká"/>
    <tag k="name:de" v="Breite Gasse"/>
    <tag k="name:ru" v="Широкая улица"/>
    <tag k="oneway" v="yes"/>
    <tag k="oneway:bicycle" v="no"/>
    <tag k="sidewalk:both" v="separate"/>
    <tag k="surface" v="sett"/>
    <tag k="wikidata" v="Q26897280"/>
  </way>
  <way id="876526302" version="25" timestamp="2024-12-05T20:09:09Z" changeset="159971197" uid="16912130" user="Ondra (CZ)">
    <nd ref="9187812"/>
    <nd ref="25685424"/>
    <tag k="cycleway:both" v="no"/>
    <tag k="highway" v="residential"/>
    <tag k="lane_markings" v="no"/>
    <tag k="lit" v="yes"/>
    <tag k="maxspeed:type" v="CZ:urban"/>
    <tag k="name" v="Kaprova"/>
    <tag k="name:de" v="Karpfengasse"/>
    <tag k="name:ru" v="Капрова улица"/>
    <tag k="oneway" v="yes"/>
    <tag k="parking:left" v="lane"/>
    <tag k="parking:left:orientation" v="parallel"/>
    <tag k="parking:right" v="no"/>
    <tag k="sidewalk:both" v="separate"/>
    <tag k="smoothness" v="excellent"/>
    <tag k="surface" v="asphalt"/>
    <tag k="wikidata" v="Q26878349"/>
  </way>
  <way id="1230955522" version="7" timestamp="2025-03-12T11:50:11Z" changeset="163524049" uid="10224968" user="comfyquiettree">
    <nd ref="300520929"/>
    <nd ref="12486985805"/>
    <nd ref="25659755"/>
    <tag k="cycleway:both" v="no"/>
    <tag k="highway" v="residential"/>
    <tag k="lanes" v="1"/>
    <tag k="lit" v="yes"/>
    <tag k="maxspeed:type" v="CZ:urban"/>
    <tag k="name" v="Široká"/>
    <tag k="name:de" v="Breite Gasse"/>
    <tag k="name:ru" v="Широкая улица"/>
    <tag k="oneway" v="yes"/>
    <tag k="sidewalk:both" v="separate"/>
    <tag k="smoothness" v="bad"/>
    <tag k="surface" v="sett"/>
    <tag k="wikidata" v="Q26897280"/>
  </way>
  <way id="1323205493" version="3" timestamp="2025-02-19T10:40:11Z" changeset="162693620" uid="10224968" user="comfyquiettree">
    <nd ref="26517908"/>
    <nd ref="1016303440"/>
    <nd ref="8810390"/>
    <tag k="cycleway:both" v="no"/>
    <tag k="highway" v="residential"/>
    <tag k="lanes" v="2"/>
    <tag k="lit" v="yes"/>
    <tag k="maxspeed:type" v="CZ:urban"/>
    <tag k="name" v="Pařížská"/>
    <tag k="name:de" v="Pariser Straße"/>
    <tag k="name:ru" v="Парижская улица"/>
    <tag k="parking:right" v="street_side"/>
    <tag k="parking:right:orientation" v="diagonal"/>
    <tag k="sidewalk" v="separate"/>
    <tag k="smoothness" v="excellent"/>
    <tag k="surface" v="asphalt"/>
    <tag k="wikidata" v="Q6810086"/>
    <tag k="wikipedia" v="cs:Pařížská (Praha)"/>
  </way>
  <relation id="49848" version="16" timestamp="2024-07-12T14:51:03Z" changeset="153859538" uid="10932047" user="AF HAF KARTOGRAF">
    <member type="way" ref="28249349" role="outer"/>
    <member type="way" ref="28249350" role="inner"/>
    <member type="way" ref="28249351" role="inner"/>
    <tag k="building" v="university"/>
    <tag k="building:flats" v="1"/>
    <tag k="building:levels" v="5"/>
    <tag k="building:ruian:type" v="5"/>
    <tag k="layer" v="1"/>
    <tag k="name" v="hlavní budova Filozofické fakulty Univerzity Karlovy"/>
    <tag k="name:cs" v="hlavní budova Filozofické fakulty Univerzity Karlovy"/>
    <tag k="name:de" v="Hauptgebäude der Philosophischen Fakultät der Karls-Universität"/>
    <tag k="name:en" v="main building of the Faculty of Arts of Charles University"/>
    <tag k="phone" v="+420 221 619 111"/>
    <tag k="ref:ruian:building" v="21537526"/>
    <tag k="roof:shape" v="many"/>
    <tag k="short_name" v="FF UK Palach"/>
    <tag k="source" v="cuzk:ruian"/>
    <tag k="type" v="multipolygon"/>
    <tag k="website" v="https://www.ff.cuni.cz/"/>
    <tag k="wikidata" v="Q26878498"/>
    <tag k="wikimedia_commons" v="Category:Main building of the Faculty of Arts of Charles University"/>
  </relation>

</osm>
