<?xml version="1.0" encoding="UTF-8"?>
<osm version="0.6" generator="Overpass API 0.7.62.5 1bd436f1">
<note>The data included in this document is from www.openstreetmap.org. The data is made available under ODbL.</note>
<meta osm_base="2025-05-18T03:00:36Z" areas="2024-12-31T00:49:33Z"/>

  <node id="363061" lat="48.1201019" lon="11.6415966" version="2" timestamp="2011-05-09T11:50:59Z" changeset="8092070" uid="29061" user="KPG"/>
  <node id="363062" lat="48.1208956" lon="11.6419574" version="3" timestamp="2011-05-09T11:50:59Z" changeset="8092070" uid="29061" user="KPG"/>
  <node id="363063" lat="48.1216750" lon="11.6422984" version="3" timestamp="2022-08-30T16:14:21Z" changeset="125577576" uid="817113" user="santon"/>
  <node id="363098" lat="48.1198770" lon="11.6500067" version="8" timestamp="2012-08-10T17:07:08Z" changeset="12682351" uid="8748" user="ToniE"/>
  <node id="428727" lat="48.1249443" lon="11.6531614" version="2" timestamp="2015-11-02T13:15:22Z" changeset="35034176" uid="8748" user="ToniE"/>
  <node id="11598328" lat="48.1188850" lon="11.6305906" version="14" timestamp="2022-11-15T19:04:53Z" changeset="128955490" uid="8748" user="ToniE">
    <tag k="TMC:cid_58:tabcd_1:Class" v="Point"/>
    <tag k="TMC:cid_58:tabcd_1:Direction" v="negative"/>
    <tag k="TMC:cid_58:tabcd_1:LCLversion" v="8.00"/>
    <tag k="TMC:cid_58:tabcd_1:LocationCode" v="35451"/>
    <tag k="TMC:cid_58:tabcd_1:NextLocationCode" v="35452"/>
    <tag k="TMC:cid_58:tabcd_1:PrevLocationCode" v="35450"/>
  </node>
  <node id="13346738" lat="48.1226710" lon="11.6526972" version="3" timestamp="2012-06-21T09:01:56Z" changeset="11966222" uid="446175" user="schiwi"/>
  <node id="13569900" lat="48.1196385" lon="11.6507217" version="3" timestamp="2017-06-02T07:50:22Z" changeset="49187420" uid="8748" user="ToniE"/>
  <node id="13570828" lat="48.1253602" lon="11.6499302" version="8" timestamp="2015-11-02T13:15:18Z" changeset="35034176" uid="8748" user="ToniE"/>
  <node id="14658524" lat="48.1144577" lon="11.6464488" version="8" timestamp="2013-04-25T19:33:34Z" changeset="15864756" uid="8748" user="ToniE"/>
  <node id="14658527" lat="48.1150741" lon="11.6438521" version="4" timestamp="2015-04-11T14:37:54Z" changeset="30143866" uid="8748" user="ToniE"/>
  <node id="14658530" lat="48.1151953" lon="11.6441246" version="2" timestamp="2008-09-30T20:56:40Z" changeset="723851" uid="62236" user="Paulchen Panther">
    <tag k="created_by" v="JOSM"/>
  </node>
  <node id="14658534" lat="48.1192133" lon="11.6494860" version="9" timestamp="2011-08-07T15:48:18Z" changeset="8948564" uid="42393" user="mawi42"/>
  <node id="15247068" lat="48.1230751" lon="11.6514025" version="3" timestamp="2021-03-30T20:14:10Z" changeset="102007454" uid="137242" user="Rainero"/>
  <node id="15431555" lat="48.1232602" lon="11.6478033" version="4" timestamp="2012-08-10T15:22:43Z" changeset="12681292" uid="8748" user="ToniE"/>
  <node id="15487586" lat="48.1168720" lon="11.6398577" version="4" timestamp="2013-06-20T19:46:42Z" changeset="16634981" uid="8748" user="ToniE"/>
  <node id="15687477" lat="48.1239980" lon="11.6436850" version="14" timestamp="2025-04-23T21:43:11Z" changeset="165353497" uid="8748" user="ToniE">
    <tag k="button_operated" v="no"/>
    <tag k="crossing" v="traffic_signals"/>
    <tag k="crossing_ref" v="pelican"/>
    <tag k="tactile_paving" v="no"/>
    <tag k="traffic_signals" v="tram_priority"/>
    <tag k="traffic_signals:direction" v="both"/>
    <tag k="traffic_signals:sound" v="no"/>
    <tag k="traffic_signals:vibration" v="no"/>
  </node>
  <node id="17707827" lat="48.1259354" lon="11.6339201" version="6" timestamp="2013-07-22T19:07:49Z" changeset="17052919" uid="8748" user="ToniE">
    <tag k="highway" v="traffic_signals"/>
  </node>
  <node id="17713265" lat="48.1187045" lon="11.6305618" version="12" timestamp="2021-02-26T13:51:04Z" changeset="100055169" uid="7649834" user="L___I">
    <tag k="TMC:cid_58:tabcd_1:Class" v="Point"/>
    <tag k="TMC:cid_58:tabcd_1:Direction" v="positive"/>
    <tag k="TMC:cid_58:tabcd_1:LCLversion" v="8.00"/>
    <tag k="TMC:cid_58:tabcd_1:LocationCode" v="35451"/>
    <tag k="TMC:cid_58:tabcd_1:NextLocationCode" v="35452"/>
    <tag k="TMC:cid_58:tabcd_1:PrevLocationCode" v="35450"/>
  </node>
  <node id="17884344" lat="48.1205522" lon="11.6417678" version="3" timestamp="2025-01-25T16:11:11Z" changeset="161752334" uid="16061279" user="YellowSoul"/>
  <node id="18288524" lat="48.1195666" lon="11.6497570" version="12" timestamp="2012-08-10T17:07:00Z" changeset="12682351" uid="8748" user="ToniE"/>
  <node id="18288558" lat="48.1213483" lon="11.6421746" version="4" timestamp="2012-08-10T17:07:00Z" changeset="12682351" uid="8748" user="ToniE"/>
  <node id="18289671" lat="48.1200860" lon="11.6374635" version="5" timestamp="2012-10-26T22:47:52Z" changeset="13644325" uid="8748" user="ToniE"/>
  <node id="18289672" lat="48.1204739" lon="11.6352952" version="6" timestamp="2012-10-26T22:47:52Z" changeset="13644325" uid="8748" user="ToniE"/>
  <node id="18289686" lat="48.1206418" lon="11.6343570" version="5" timestamp="2012-10-26T22:47:52Z" changeset="13644325" uid="8748" user="ToniE"/>
  <node id="21590821" lat="48.1229596" lon="11.6417558" version="8" timestamp="2023-01-04T10:59:32Z" changeset="130861465" uid="11360996" user="ADAC Kartographie"/>
  <node id="32268793" lat="48.1202677" lon="11.6312349" version="5" timestamp="2011-01-01T15:26:22Z" changeset="6828583" uid="29061" user="KPG"/>
  <node id="201387902" lat="48.1223454" lon="11.6427045" version="4" timestamp="2011-05-09T11:51:00Z" changeset="8092070" uid="29061" user="KPG"/>
  <node id="269944489" lat="48.1211077" lon="11.6317530" version="9" timestamp="2018-08-24T01:54:30Z" changeset="61937026" uid="930414" user="track_manuel">
    <tag k="direction" v="backward"/>
    <tag k="highway" v="give_way"/>
    <tag k="traffic_sign:forward" v="give_way"/>
  </node>
  <node id="987100128" lat="48.1195391" lon="11.6309058" version="5" timestamp="2013-06-14T22:10:28Z" changeset="16556821" uid="8748" user="ToniE"/>
  <node id="1077015329" lat="48.1189638" lon="11.6305899" version="11" timestamp="2023-11-06T17:42:15Z" changeset="143703819" uid="536583" user="Strubbl">
    <tag k="button_operated" v="no"/>
    <tag k="check_date:tactile_paving" v="2023-11-05"/>
    <tag k="crossing" v="traffic_signals"/>
    <tag k="highway" v="crossing"/>
    <tag k="tactile_paving" v="no"/>
    <tag k="traffic_signals:sound" v="yes"/>
    <tag k="traffic_signals:vibration" v="yes"/>
  </node>
  <node id="1701767456" lat="48.1259947" lon="11.6448703" version="1" timestamp="2012-04-04T22:51:35Z" changeset="11183325" uid="64536" user="Michael Forster"/>
  <node id="1701767462" lat="48.1260056" lon="11.6446941" version="2" timestamp="2015-10-07T13:46:44Z" changeset="34490541" uid="2590140" user="Floppy919"/>
  <node id="2281107305" lat="48.1151638" lon="11.6445054" version="2" timestamp="2015-04-11T14:37:56Z" changeset="30143866" uid="8748" user="ToniE"/>
  <node id="2281107307" lat="48.1153036" lon="11.6441209" version="2" timestamp="2015-04-11T14:37:56Z" changeset="30143866" uid="8748" user="ToniE"/>
  <node id="2948527809" lat="48.1221897" lon="11.6525496" version="1" timestamp="2014-07-04T20:40:21Z" changeset="23956820" uid="8703" user="rolandg"/>
  <node id="7556465348" lat="48.1242040" lon="11.6437193" version="1" timestamp="2020-05-25T14:56:05Z" changeset="85722261" uid="930414" user="track_manuel"/>
  <node id="10926883582" lat="48.1244219" lon="11.6538354" version="1" timestamp="2023-05-25T19:02:10Z" changeset="136556391" uid="12120321" user="bollyboll"/>
  <way id="3322006" version="21" timestamp="2023-11-08T15:37:46Z" changeset="143786508" uid="18493611" user="MunichWays">
    <nd ref="14658530"/>
    <nd ref="14658528"/>
    <nd ref="3450607368"/>
    <nd ref="2281107305"/>
    <tag k="class:bicycle" v="1"/>
    <tag k="cycleway:both" v="no"/>
    <tag k="highway" v="residential"/>
    <tag k="lane_markings" v="no"/>
    <tag k="lit" v="yes"/>
    <tag k="maxspeed" v="50"/>
    <tag k="name" v="Zehntfeldstraße"/>
    <tag k="sidewalk" v="both"/>
    <tag k="sidewalk:both:surface" v="asphalt"/>
    <tag k="smoothness" v="good"/>
    <tag k="source:maxspeed" v="DE:urban"/>
    <tag k="surface" v="asphalt"/>
  </way>
  <way id="3322008" version="9" timestamp="2025-04-29T18:55:32Z" changeset="165604894" uid="817113" user="santon">
    <nd ref="14658531"/>
    <nd ref="7558097747"/>
    <nd ref="8576778667"/>
    <nd ref="8576778665"/>
    <nd ref="15431212"/>
    <nd ref="7611232729"/>
    <nd ref="7611232735"/>
    <nd ref="15431210"/>
    <nd ref="15431208"/>
    <nd ref="3099155202"/>
    <nd ref="2281107304"/>
    <nd ref="14658525"/>
    <tag k="highway" v="residential"/>
    <tag k="lit" v="yes"/>
    <tag k="maxspeed" v="30"/>
    <tag k="name" v="Kranzhornstraße"/>
    <tag k="smoothness" v="good"/>
    <tag k="source:maxspeed" v="DE:zone:30"/>
    <tag k="surface" v="asphalt"/>
    <tag k="width" v="5.5"/>
  </way>
  <way id="3322009" version="7" timestamp="2024-04-14T20:37:35Z" changeset="150009178" uid="137242" user="Rainero">
    <nd ref="15431224"/>
    <nd ref="2101151074"/>
    <nd ref="15431222"/>
    <nd ref="2942535659"/>
    <nd ref="15431221"/>
    <nd ref="2942535668"/>
    <nd ref="15431217"/>
    <nd ref="15431210"/>
    <tag k="highway" v="residential"/>
    <tag k="lit" v="yes"/>
    <tag k="maxspeed" v="30"/>
    <tag k="name" v="Wildalpjochstraße"/>
    <tag k="sidewalk" v="both"/>
    <tag k="sidewalk:both:surface" v="asphalt"/>
    <tag k="smoothness" v="good"/>
    <tag k="source:maxspeed" v="DE:zone:30"/>
    <tag k="surface" v="asphalt"/>
  </way>
  <way id="3322010" version="3" timestamp="2015-04-11T14:37:52Z" changeset="30143866" uid="8748" user="ToniE">
    <nd ref="15431217"/>
    <nd ref="15431219"/>
    <nd ref="3450607497"/>
    <nd ref="2942543919"/>
    <nd ref="15431208"/>
    <tag k="highway" v="residential"/>
    <tag k="lit" v="yes"/>
    <tag k="maxspeed" v="30"/>
    <tag k="name" v="Wildalpjochstraße"/>
    <tag k="smoothness" v="good"/>
    <tag k="source:maxspeed" v="DE:zone:30"/>
    <tag k="surface" v="asphalt"/>
  </way>
  <way id="3322011" version="21" timestamp="2025-04-29T18:58:10Z" changeset="165604894" uid="817113" user="santon">
    <nd ref="14658524"/>
    <nd ref="2950437417"/>
    <nd ref="2950543368"/>
    <nd ref="14658523"/>
    <nd ref="7019973542"/>
    <nd ref="1283722440"/>
    <nd ref="7019973537"/>
    <nd ref="2950543399"/>
    <nd ref="15431215"/>
    <nd ref="14574943"/>
    <nd ref="14658532"/>
    <nd ref="2950743233"/>
    <nd ref="2950741325"/>
    <nd ref="14658534"/>
    <tag k="highway" v="residential"/>
    <tag k="lit" v="yes"/>
    <tag k="maxspeed" v="30"/>
    <tag k="name" v="Rofanstraße"/>
    <tag k="sidewalk" v="both"/>
    <tag k="sidewalk:both:surface" v="asphalt"/>
    <tag k="smoothness" v="good"/>
    <tag k="source:maxspeed" v="DE:zone:30"/>
    <tag k="surface" v="asphalt"/>
    <tag k="width" v="6"/>
  </way>
  <way id="3322012" version="20" timestamp="2024-09-23T17:20:02Z" changeset="157006049" uid="13190781" user="TheCrazyMaffin">
    <nd ref="18289161"/>
    <nd ref="1931997885"/>
    <nd ref="3510879225"/>
    <nd ref="363083"/>
    <nd ref="2019363476"/>
    <nd ref="15431227"/>
    <nd ref="2101151081"/>
    <nd ref="2953133202"/>
    <nd ref="1345595272"/>
    <nd ref="15487600"/>
    <nd ref="2942537696"/>
    <nd ref="15431212"/>
    <nd ref="12195090301"/>
    <tag k="class:bicycle" v="1"/>
    <tag k="highway" v="residential"/>
    <tag k="lit" v="yes"/>
    <tag k="maxspeed" v="30"/>
    <tag k="name" v="Guffertstraße"/>
    <tag k="sidewalk" v="both"/>
    <tag k="source:maxspeed" v="DE:zone:30"/>
    <tag k="source:width" v="ARCore"/>
    <tag k="surface" v="asphalt"/>
    <tag k="width" v="5.7"/>
  </way>
  <way id="3322013" version="4" timestamp="2020-11-15T13:59:56Z" changeset="94147748" uid="422299" user="mTb">
    <nd ref="15487600"/>
    <nd ref="1345595292"/>
    <nd ref="15487599"/>
    <tag k="highway" v="residential"/>
    <tag k="lit" v="yes"/>
    <tag k="maxspeed" v="30"/>
    <tag k="name" v="Trainsjochstraße"/>
    <tag k="surface" v="asphalt"/>
  </way>
  <way id="3322015" version="11" timestamp="2025-04-29T18:51:27Z" changeset="165604894" uid="817113" user="santon">
    <nd ref="363061"/>
    <nd ref="1931997892"/>
    <nd ref="363087"/>
    <nd ref="1931991697"/>
    <nd ref="15431228"/>
    <nd ref="2101151082"/>
    <nd ref="15487599"/>
    <nd ref="14658531"/>
    <nd ref="1163051531"/>
    <nd ref="14658532"/>
    <tag k="cycleway:both" v="no"/>
    <tag k="highway" v="residential"/>
    <tag k="lit" v="yes"/>
    <tag k="maxspeed" v="30"/>
    <tag k="name" v="Gratlspitzstraße"/>
    <tag k="sidewalk" v="both"/>
    <tag k="smoothness" v="good"/>
    <tag k="source:maxspeed" v="DE:zone:30"/>
    <tag k="surface" v="asphalt"/>
    <tag k="width" v="5.5"/>
  </way>
  <way id="3322132" version="27" timestamp="2025-04-25T09:43:09Z" changeset="165414833" uid="16061279" user="YellowSoul">
    <nd ref="15487585"/>
    <nd ref="269943149"/>
    <nd ref="298877105"/>
    <nd ref="3450607532"/>
    <nd ref="15431224"/>
    <nd ref="3450607545"/>
    <nd ref="15431227"/>
    <nd ref="15431228"/>
    <nd ref="363069"/>
    <nd ref="1389831780"/>
    <nd ref="2618641178"/>
    <nd ref="18288533"/>
    <nd ref="363095"/>
    <nd ref="14574944"/>
    <nd ref="12613558851"/>
    <nd ref="1796785495"/>
    <nd ref="14574945"/>
    <nd ref="1860366760"/>
    <nd ref="1860366761"/>
    <nd ref="15431555"/>
    <nd ref="15247073"/>
    <nd ref="15431541"/>
    <nd ref="12520138070"/>
    <nd ref="17884352"/>
    <nd ref="12520173959"/>
    <nd ref="15431543"/>
    <nd ref="1252306973"/>
    <nd ref="411670595"/>
    <nd ref="15431549"/>
    <tag k="bicycle" v="yes"/>
    <tag k="class:bicycle" v="1"/>
    <tag k="cycleway:both" v="separate"/>
    <tag k="highway" v="residential"/>
    <tag k="lit" v="yes"/>
    <tag k="maxspeed" v="30"/>
    <tag k="name" v="Sonnwendjochstraße"/>
    <tag k="sidewalk:both" v="separate"/>
    <tag k="smoothness" v="good"/>
    <tag k="source:maxspeed" v="DE:zone:30"/>
    <tag k="surface" v="asphalt"/>
    <tag k="width" v="7"/>
  </way>
  <way id="3322133" version="20" timestamp="2025-04-29T18:58:33Z" changeset="165604894" uid="817113" user="santon">
    <nd ref="363062"/>
    <nd ref="1961547647"/>
    <nd ref="2019363477"/>
    <nd ref="363069"/>
    <nd ref="2101151071"/>
    <nd ref="363070"/>
    <nd ref="1389831781"/>
    <nd ref="14658534"/>
    <tag k="class:bicycle" v="-1"/>
    <tag k="highway" v="residential"/>
    <tag k="lane_markings" v="no"/>
    <tag k="lit" v="yes"/>
    <tag k="maxspeed" v="30"/>
    <tag k="name" v="Hohenbrunner Straße"/>
    <tag k="parking:lane:right" v="parallel"/>
    <tag k="sidewalk" v="both"/>
    <tag k="source:maxspeed" v="DE:zone30"/>
    <tag k="surface" v="asphalt"/>
    <tag k="width" v="5.5"/>
  </way>
  <way id="3322134" version="23" timestamp="2023-12-03T09:23:56Z" changeset="144714690" uid="18493611" user="MunichWays">
    <nd ref="363064"/>
    <nd ref="363065"/>
    <nd ref="2019363478"/>
    <nd ref="363095"/>
    <nd ref="2101151079"/>
    <nd ref="363096"/>
    <nd ref="1345595253"/>
    <nd ref="1345595289"/>
    <nd ref="363097"/>
    <nd ref="1345595276"/>
    <nd ref="363098"/>
    <tag k="class:bicycle" v="1"/>
    <tag k="cycleway:both" v="no"/>
    <tag k="highway" v="tertiary"/>
    <tag k="lane_markings" v="no"/>
    <tag k="lit" v="yes"/>
    <tag k="maxspeed" v="30"/>
    <tag k="name" v="Waldstraße"/>
    <tag k="parking:lane:right" v="parallel"/>
    <tag k="sidewalk" v="left"/>
    <tag k="sidewalk:left:surface" v="asphalt"/>
    <tag k="smoothness" v="excellent"/>
    <tag k="surface" v="asphalt"/>
    <tag k="width" v="6"/>
  </way>
  <way id="3322135" version="14" timestamp="2025-02-23T20:40:44Z" changeset="162868152" uid="137242" user="Rainero">
    <nd ref="10215595080"/>
    <nd ref="17884349"/>
    <nd ref="15431532"/>
    <nd ref="2019363480"/>
    <nd ref="14574944"/>
    <tag k="highway" v="residential"/>
    <tag k="lanes" v="1"/>
    <tag k="lit" v="yes"/>
    <tag k="maxspeed" v="30"/>
    <tag k="name" v="Blombergstraße"/>
    <tag k="oneway" v="no"/>
    <tag k="sidewalk" v="both"/>
    <tag k="sidewalk:both:surface" v="asphalt"/>
    <tag k="smoothness" v="good"/>
    <tag k="source:maxspeed" v="DE:zone30"/>
    <tag k="surface" v="asphalt"/>
    <tag k="width" v="5.2"/>
  </way>
  <way id="3322136" version="16" timestamp="2024-09-23T17:28:15Z" changeset="157006358" uid="13190781" user="TheCrazyMaffin">
    <nd ref="13569900"/>
    <nd ref="12195090480"/>
    <nd ref="14574947"/>
    <nd ref="7491098812"/>
    <nd ref="8460117468"/>
    <nd ref="2942651592"/>
    <nd ref="14574946"/>
    <nd ref="2948527811"/>
    <nd ref="14658535"/>
    <nd ref="2948527809"/>
    <tag k="class:bicycle" v="1"/>
    <tag k="cycleway:both" v="no"/>
    <tag k="highway" v="residential"/>
    <tag k="lit" v="yes"/>
    <tag k="maxspeed" v="30"/>
    <tag k="name" v="Weißpfennigweg"/>
    <tag k="sidewalk" v="both"/>
    <tag k="sidewalk:both:surface" v="asphalt"/>
    <tag k="smoothness" v="good"/>
    <tag k="source:maxspeed" v="DE:zone:30"/>
    <tag k="surface" v="asphalt"/>
    <tag k="width" v="5.4"/>
  </way>
  <way id="3322139" version="12" timestamp="2025-02-23T20:40:44Z" changeset="162868152" uid="137242" user="Rainero">
    <nd ref="15687477"/>
    <nd ref="12531942316"/>
    <nd ref="15687478"/>
    <nd ref="15687479"/>
    <nd ref="15431537"/>
    <nd ref="2019363482"/>
    <nd ref="14574945"/>
    <nd ref="2019363481"/>
    <nd ref="14658539"/>
    <nd ref="12121156358"/>
    <nd ref="14574946"/>
    <nd ref="15431568"/>
    <tag k="class:bicycle" v="1"/>
    <tag k="highway" v="residential"/>
    <tag k="lanes" v="2"/>
    <tag k="lit" v="yes"/>
    <tag k="maxspeed" v="30"/>
    <tag k="name" v="Josephsburgstraße"/>
    <tag k="sidewalk" v="both"/>
    <tag k="sidewalk:both:surface" v="asphalt"/>
    <tag k="smoothness" v="good"/>
    <tag k="source:maxspeed" v="DE:zone:30"/>
    <tag k="surface" v="asphalt"/>
  </way>
  <way id="3322140" version="5" timestamp="2023-07-13T17:11:11Z" changeset="138472833" uid="19854238" user="Odisseues">
    <nd ref="15431555"/>
    <nd ref="2019363483"/>
    <nd ref="14658538"/>
    <nd ref="14658535"/>
    <tag k="cycleway:both" v="no"/>
    <tag k="highway" v="residential"/>
    <tag k="lit" v="yes"/>
    <tag k="maxspeed" v="30"/>
    <tag k="name" v="Freilassinger Straße"/>
    <tag k="surface" v="asphalt"/>
  </way>
  <way id="3322286" version="6" timestamp="2023-07-20T09:19:12Z" changeset="138753774" uid="19854238" user="Odisseues">
    <nd ref="14574944"/>
    <nd ref="2019363479"/>
    <nd ref="14574947"/>
    <tag k="highway" v="residential"/>
    <tag k="lit" v="yes"/>
    <tag k="maxspeed" v="30"/>
    <tag k="name" v="Blombergstraße"/>
    <tag k="sidewalk" v="both"/>
    <tag k="source:maxspeed" v="DE:zone30"/>
    <tag k="surface" v="asphalt"/>
    <tag k="width" v="5"/>
  </way>
  <way id="3526897" version="22" timestamp="2024-09-15T16:55:46Z" changeset="156656301" uid="18493611" user="MunichWays">
    <nd ref="18288524"/>
    <nd ref="1860509219"/>
    <nd ref="363101"/>
    <nd ref="9949016585"/>
    <nd ref="13569901"/>
    <tag k="class:bicycle" v="1"/>
    <tag k="highway" v="unclassified"/>
    <tag k="lane_markings" v="no"/>
    <tag k="lit" v="yes"/>
    <tag k="maxspeed" v="30"/>
    <tag k="name" v="Waldstraße"/>
    <tag k="smoothness" v="good"/>
    <tag k="surface" v="asphalt"/>
    <tag k="width" v="6"/>
  </way>
  <way id="3576883" version="32" timestamp="2025-01-12T12:27:23Z" changeset="161268959" uid="2815653" user="DaxServer">
    <nd ref="363058"/>
    <nd ref="3450607537"/>
    <nd ref="886125943"/>
    <nd ref="2923650415"/>
    <nd ref="18289162"/>
    <nd ref="1077037346"/>
    <nd ref="18289663"/>
    <nd ref="1077037331"/>
    <nd ref="1077037395"/>
    <nd ref="18289678"/>
    <nd ref="18289687"/>
    <nd ref="363105"/>
    <nd ref="27239105"/>
    <nd ref="363106"/>
    <nd ref="10186515256"/>
    <tag k="bicycle" v="use_sidepath"/>
    <tag k="dual_carriageway" v="yes"/>
    <tag k="foot" v="use_sidepath"/>
    <tag k="highway" v="secondary"/>
    <tag k="lanes" v="2"/>
    <tag k="lit" v="yes"/>
    <tag k="maxspeed" v="50"/>
    <tag k="name" v="Heinrich-Wieland-Straße"/>
    <tag k="oneway" v="yes"/>
    <tag k="parking:lane:right" v="marked"/>
    <tag k="psv" v="yes"/>
    <tag k="sidewalk:left" v="no"/>
    <tag k="sidewalk:right" v="separate"/>
    <tag k="smoothness" v="good"/>
    <tag k="source:maxspeed" v="DE:urban"/>
    <tag k="surface" v="asphalt"/>
    <tag k="tmc" v="DE:35451/35452"/>
    <tag k="wikidata" v="Q117471700"/>
  </way>
  <way id="3615536" version="10" timestamp="2024-08-03T08:26:27Z" changeset="154763722" uid="930414" user="track_manuel">
    <nd ref="17884344"/>
    <nd ref="1961547644"/>
    <nd ref="10024671746"/>
    <nd ref="1860509268"/>
    <nd ref="363092"/>
    <tag k="class:bicycle" v="-1"/>
    <tag k="highway" v="residential"/>
    <tag k="lit" v="yes"/>
    <tag k="maxspeed" v="30"/>
    <tag k="name" v="Gerlosstraße"/>
    <tag k="parking:both" v="street_side"/>
    <tag k="sidewalk" v="both"/>
    <tag k="smoothness" v="good"/>
    <tag k="surface" v="asphalt"/>
  </way>
  <way id="3615537" version="13" timestamp="2025-04-29T18:39:24Z" changeset="165604894" uid="817113" user="santon">
    <nd ref="17884346"/>
    <nd ref="269944489"/>
    <tag k="highway" v="residential"/>
    <tag k="lane_markings" v="no"/>
    <tag k="lanes" v="2"/>
    <tag k="lit" v="yes"/>
    <tag k="maxspeed" v="30"/>
    <tag k="name" v="Hachinger-Bach-Straße"/>
    <tag k="surface" v="paving_stones"/>
    <tag k="width" v="6"/>
  </way>
  <way id="3615539" version="20" timestamp="2024-09-03T07:57:18Z" changeset="156129900" uid="88803" user="Rainer Jung">
    <nd ref="363092"/>
    <nd ref="1860509267"/>
    <nd ref="1937974381"/>
    <nd ref="2923670471"/>
    <nd ref="5862353238"/>
    <nd ref="5856287037"/>
    <nd ref="5854595457"/>
    <nd ref="1860509229"/>
    <nd ref="18289164"/>
    <nd ref="17884347"/>
    <tag k="class:bicycle" v="1"/>
    <tag k="highway" v="residential"/>
    <tag k="lit" v="yes"/>
    <tag k="maxspeed" v="30"/>
    <tag k="name" v="Großvenedigerstraße"/>
    <tag k="parking:both" v="street_side"/>
    <tag k="sidewalk" v="both"/>
    <tag k="sidewalk:both:surface" v="paving_stones"/>
    <tag k="smoothness" v="good"/>
    <tag k="source:width" v="ARCore"/>
    <tag k="surface" v="asphalt"/>
    <tag k="width" v="5.9"/>
  </way>
  <way id="3615540" version="9" timestamp="2022-11-24T20:37:43Z" changeset="129342944" uid="12120321" user="bollyboll">
    <nd ref="363064"/>
    <nd ref="1278105555"/>
    <nd ref="1278105556"/>
    <nd ref="17884349"/>
    <tag k="highway" v="residential"/>
    <tag k="lit" v="yes"/>
    <tag k="maxspeed" v="30"/>
    <tag k="name" v="Riffelwandstraße"/>
    <tag k="parking:lane:both" v="parallel"/>
    <tag k="sidewalk" v="both"/>
    <tag k="sidewalk:both:surface" v="asphalt"/>
    <tag k="smoothness" v="excellent"/>
    <tag k="source:maxspeed" v="DE:zone30"/>
    <tag k="surface" v="asphalt"/>
    <tag k="width" v="5.4"/>
  </way>
  <way id="3615541" version="27" timestamp="2025-04-28T18:13:30Z" changeset="165561073" uid="137242" user="Rainero">
    <nd ref="13346738"/>
    <nd ref="5809320470"/>
    <nd ref="2948521561"/>
    <nd ref="2948521198"/>
    <nd ref="12795891575"/>
    <nd ref="2948521193"/>
    <nd ref="10926883582"/>
    <tag k="class:bicycle" v="1"/>
    <tag k="highway" v="residential"/>
    <tag k="lit" v="yes"/>
    <tag k="maxspeed" v="30"/>
    <tag k="name" v="Talerweg"/>
    <tag k="note" v="Talerweg ist keine Einbahnstraße; es ist die Einfahrt von der Kreillerstraße her verboten außer für Fahrräder (Zeichen DE:267), am südlichen Ende weist ZeichenDE:125 auf Zweirichtungsverkehr hin."/>
    <tag k="oneway" v="no"/>
    <tag k="parking:lane:both" v="parallel"/>
    <tag k="parking:lane:both:parallel" v="on_street"/>
    <tag k="sidewalk" v="both"/>
    <tag k="smoothness" v="good"/>
    <tag k="source:maxspeed" v="DE:zone:30"/>
    <tag k="surface" v="asphalt"/>
    <tag k="width" v="5.3"/>
  </way>
  <way id="3615542" version="9" timestamp="2023-05-25T19:02:31Z" changeset="136556396" uid="12120321" user="bollyboll">
    <nd ref="14574948"/>
    <nd ref="10926879248"/>
    <tag k="highway" v="residential"/>
    <tag k="lit" v="yes"/>
    <tag k="maxspeed" v="30"/>
    <tag k="name" v="Maria-Eck-Platz"/>
    <tag k="sidewalk" v="both"/>
    <tag k="sidewalk:left:surface" v="asphalt"/>
    <tag k="sidewalk:right:surface" v="paving_stones"/>
    <tag k="smoothness" v="good"/>
    <tag k="source:maxspeed" v="DE:zone:30"/>
    <tag k="surface" v="asphalt"/>
    <tag k="width" v="5.5"/>
  </way>
  <way id="3615543" version="6" timestamp="2023-07-13T17:10:37Z" changeset="138472833" uid="19854238" user="Odisseues">
    <nd ref="15431563"/>
    <nd ref="15431565"/>
    <tag k="created_by" v="JOSM"/>
    <tag k="cycleway:both" v="no"/>
    <tag k="highway" v="residential"/>
    <tag k="lit" v="yes"/>
    <tag k="maxspeed" v="30"/>
    <tag k="name" v="Maria-Eck-Platz"/>
    <tag k="sidewalk" v="left"/>
    <tag k="surface" v="asphalt"/>
    <tag k="width" v="6"/>
  </way>
  <way id="3615544" version="5" timestamp="2025-02-21T22:19:44Z" changeset="162798205" uid="137242" user="Rainero">
    <nd ref="17884351"/>
    <nd ref="15247068"/>
    <tag k="highway" v="residential"/>
    <tag k="lit" v="yes"/>
    <tag k="maxspeed" v="30"/>
    <tag k="name" v="Traunstraße"/>
    <tag k="smoothness" v="good"/>
    <tag k="source:maxspeed" v="DE:zone:30"/>
    <tag k="surface" v="asphalt"/>
  </way>
  <way id="3615545" version="10" timestamp="2021-03-30T20:14:10Z" changeset="102007454" uid="137242" user="Rainero">
    <nd ref="15247068"/>
    <nd ref="15431565"/>
    <nd ref="15247070"/>
    <nd ref="411670904"/>
    <nd ref="15247069"/>
    <tag k="highway" v="residential"/>
    <tag k="lit" v="yes"/>
    <tag k="maxspeed" v="30"/>
    <tag k="name" v="Siegsdorfer Straße"/>
    <tag k="sidewalk" v="both"/>
    <tag k="source:maxspeed" v="DE:zone:30"/>
    <tag k="surface" v="asphalt"/>
  </way>
  <way id="3615546" version="10" timestamp="2023-07-13T17:10:51Z" changeset="138472833" uid="19854238" user="Odisseues">
    <nd ref="14658539"/>
    <nd ref="14658538"/>
    <nd ref="15247072"/>
    <nd ref="14574948"/>
    <nd ref="15431563"/>
    <nd ref="15431546"/>
    <nd ref="411670903"/>
    <nd ref="428728"/>
    <tag k="cycleway:both" v="no"/>
    <tag k="highway" v="residential"/>
    <tag k="lit" v="yes"/>
    <tag k="maxspeed" v="30"/>
    <tag k="name" v="Ruhpoldinger Straße"/>
    <tag k="sidewalk" v="both"/>
    <tag k="surface" v="asphalt"/>
    <tag k="width" v="5"/>
  </way>
  <way id="3615547" version="4" timestamp="2020-10-04T16:27:52Z" changeset="91938670" uid="7629918" user="paulinx">
    <nd ref="15247073"/>
    <nd ref="2019363484"/>
    <nd ref="15247072"/>
    <tag k="highway" v="residential"/>
    <tag k="lit" v="yes"/>
    <tag k="maxspeed" v="30"/>
    <tag k="name" v="Eibenstockstraße"/>
    <tag k="source:maxspeed" v="DE:zone:30"/>
    <tag k="surface" v="asphalt"/>
  </way>
  <way id="3615548" version="6" timestamp="2023-07-13T17:10:36Z" changeset="138472830" uid="19854238" user="Odisseues">
    <nd ref="17884352"/>
    <nd ref="2019363486"/>
    <nd ref="1287684020"/>
    <nd ref="15431563"/>
    <tag k="highway" v="residential"/>
    <tag k="lit" v="yes"/>
    <tag k="maxspeed" v="30"/>
    <tag k="name" v="Winkelmooser Straße"/>
    <tag k="source:maxspeed" v="DE:zone:30"/>
    <tag k="surface" v="asphalt"/>
    <tag k="width" v="6"/>
  </way>
  <way id="3615549" version="6" timestamp="2022-12-24T11:02:09Z" changeset="130452126" uid="14211102" user="Kartographix">
    <nd ref="15431543"/>
    <nd ref="2019363487"/>
    <nd ref="15431546"/>
    <tag k="highway" v="residential"/>
    <tag k="lit" v="yes"/>
    <tag k="maxspeed" v="30"/>
    <tag k="name" v="Wildenwarter Straße"/>
    <tag k="sidewalk" v="both"/>
    <tag k="source:maxspeed" v="DE:zone:30"/>
    <tag k="surface" v="asphalt"/>
    <tag k="width" v="5"/>
  </way>
  <way id="3615550" version="12" timestamp="2025-04-30T05:34:28Z" changeset="165617683" uid="817113" user="santon">
    <nd ref="15687478"/>
    <nd ref="15687490"/>
    <nd ref="15687484"/>
    <nd ref="15687483"/>
    <nd ref="1860509332"/>
    <nd ref="15687482"/>
    <nd ref="15687481"/>
    <tag k="class:bicycle" v="1"/>
    <tag k="highway" v="residential"/>
    <tag k="lit" v="yes"/>
    <tag k="maxspeed" v="30"/>
    <tag k="name" v="Gronsdorfer Straße"/>
    <tag k="sidewalk" v="both"/>
    <tag k="smoothness" v="good"/>
    <tag k="source:maxspeed" v="DE:zone:30"/>
    <tag k="surface" v="asphalt"/>
    <tag k="width" v="6"/>
  </way>
  <way id="3615551" version="9" timestamp="2025-04-30T05:35:26Z" changeset="165617683" uid="817113" user="santon">
    <nd ref="15687480"/>
    <nd ref="2261899838"/>
    <nd ref="1701767442"/>
    <nd ref="15687491"/>
    <nd ref="1860509336"/>
    <nd ref="15687492"/>
    <nd ref="15687483"/>
    <tag k="highway" v="residential"/>
    <tag k="lit" v="yes"/>
    <tag k="maxspeed" v="30"/>
    <tag k="name" v="Staudacher Straße"/>
    <tag k="sidewalk" v="both"/>
    <tag k="source:maxspeed" v="DE:zone:30"/>
    <tag k="surface" v="asphalt"/>
    <tag k="width" v="5.5"/>
  </way>
  <way id="3615552" version="5" timestamp="2025-04-30T05:31:04Z" changeset="165617683" uid="817113" user="santon">
    <nd ref="15687484"/>
    <nd ref="15687489"/>
    <nd ref="15687485"/>
    <tag k="highway" v="residential"/>
    <tag k="lit" v="yes"/>
    <tag k="maxspeed" v="30"/>
    <tag k="name" v="Lödenseestraße"/>
    <tag k="sidewalk" v="both"/>
    <tag k="source:maxspeed" v="DE:zone:30"/>
    <tag k="source:width" v="ARCore"/>
    <tag k="surface" v="asphalt"/>
    <tag k="width" v="5.4"/>
  </way>
  <way id="3615553" version="6" timestamp="2025-04-30T05:28:28Z" changeset="165617683" uid="817113" user="santon">
    <nd ref="15687479"/>
    <nd ref="15687485"/>
    <nd ref="15687486"/>
    <nd ref="1860509329"/>
    <nd ref="15687487"/>
    <nd ref="15687482"/>
    <tag k="highway" v="residential"/>
    <tag k="lit" v="yes"/>
    <tag k="maxspeed" v="30"/>
    <tag k="name" v="Überseeplatz"/>
    <tag k="sidewalk" v="left"/>
    <tag k="source:maxspeed" v="DE:zone:30"/>
    <tag k="surface" v="asphalt"/>
    <tag k="width" v="6"/>
  </way>
  <way id="3615554" version="6" timestamp="2025-04-30T05:28:06Z" changeset="165617683" uid="817113" user="santon">
    <nd ref="15431537"/>
    <nd ref="15431534"/>
    <nd ref="1860509325"/>
    <nd ref="15687488"/>
    <nd ref="15687481"/>
    <tag k="highway" v="residential"/>
    <tag k="lit" v="yes"/>
    <tag k="maxspeed" v="30"/>
    <tag k="name" v="Überseeplatz"/>
    <tag k="sidewalk" v="right"/>
    <tag k="source:maxspeed" v="DE:zone:30"/>
    <tag k="surface" v="asphalt"/>
    <tag k="width" v="6"/>
  </way>
  <way id="3615555" version="5" timestamp="2020-12-14T14:49:55Z" changeset="95811929" uid="536583" user="Strubbl">
    <nd ref="15431534"/>
    <nd ref="2019363485"/>
    <nd ref="15431541"/>
    <tag k="highway" v="residential"/>
    <tag k="lit" v="yes"/>
    <tag k="maxspeed" v="30"/>
    <tag k="name" v="Obinger Straße"/>
    <tag k="sidewalk" v="both"/>
    <tag k="source:maxspeed" v="DE:zone:30"/>
    <tag k="surface" v="asphalt"/>
  </way>
  <way id="3616774" version="36" timestamp="2025-04-23T21:43:11Z" changeset="165353497" uid="8748" user="ToniE">
    <nd ref="17707827"/>
    <nd ref="269944632"/>
    <nd ref="1131118196"/>
    <nd ref="1201451466"/>
    <nd ref="1278105537"/>
    <nd ref="17888592"/>
    <nd ref="21593616"/>
    <nd ref="2393168473"/>
    <nd ref="2926124733"/>
    <nd ref="2926159613"/>
    <nd ref="21593600"/>
    <nd ref="12544309125"/>
    <nd ref="2926176923"/>
    <nd ref="21590832"/>
    <nd ref="684791293"/>
    <nd ref="12544317267"/>
    <nd ref="21593594"/>
    <nd ref="1131127432"/>
    <nd ref="17888598"/>
    <nd ref="8148453900"/>
    <nd ref="17888594"/>
    <nd ref="1131127420"/>
    <nd ref="21593592"/>
    <nd ref="12779876622"/>
    <nd ref="673714797"/>
    <nd ref="1237837428"/>
    <nd ref="12734443631"/>
    <nd ref="15687477"/>
    <tag k="bicycle" v="yes"/>
    <tag k="class:bicycle" v="-1"/>
    <tag k="highway" v="residential"/>
    <tag k="lanes" v="2"/>
    <tag k="lit" v="yes"/>
    <tag k="maxspeed" v="30"/>
    <tag k="name" v="Josephsburgstraße"/>
    <tag k="parking:lane:both" v="parallel"/>
    <tag k="sidewalk" v="separate"/>
    <tag k="smoothness" v="intermediate"/>
    <tag k="source:maxspeed" v="DE:zone:30"/>
    <tag k="surface" v="asphalt"/>
  </way>
  <way id="3689660" version="8" timestamp="2022-09-01T09:30:48Z" changeset="125646504" uid="24310" user="RoXXoR">
    <nd ref="363079"/>
    <nd ref="269943148"/>
    <nd ref="363080"/>
    <nd ref="2952773722"/>
    <nd ref="2281232739"/>
    <nd ref="363082"/>
    <nd ref="1190770041"/>
    <nd ref="1190769981"/>
    <nd ref="363083"/>
    <nd ref="1190770059"/>
    <nd ref="363084"/>
    <nd ref="363087"/>
    <tag k="highway" v="residential"/>
    <tag k="lit" v="yes"/>
    <tag k="maxspeed" v="30"/>
    <tag k="name" v="Heubergstraße"/>
    <tag k="sidewalk" v="both"/>
    <tag k="surface" v="asphalt"/>
  </way>
  <way id="3689776" version="14" timestamp="2023-06-05T10:52:06Z" changeset="136966643" uid="5686224" user="Boyan Alexiev">
    <nd ref="18289680"/>
    <nd ref="2923618612"/>
    <nd ref="2923560853"/>
    <nd ref="10957013276"/>
    <nd ref="269943157"/>
    <nd ref="18289687"/>
    <tag k="highway" v="residential"/>
    <tag k="lanes" v="1"/>
    <tag k="lit" v="yes"/>
    <tag k="maxspeed" v="30"/>
    <tag k="name" v="Loferer Straße"/>
    <tag k="narrow" v="yes"/>
    <tag k="sidewalk" v="both"/>
    <tag k="smoothness" v="good"/>
    <tag k="surface" v="asphalt"/>
  </way>
  <way id="3689777" version="7" timestamp="2020-11-05T16:51:09Z" changeset="93614413" uid="26299" user="uboot">
    <nd ref="18289686"/>
    <nd ref="18289683"/>
    <nd ref="18289684"/>
    <tag k="cycleway:both" v="no"/>
    <tag k="highway" v="residential"/>
    <tag k="lanes" v="1"/>
    <tag k="lit" v="yes"/>
    <tag k="maxspeed" v="30"/>
    <tag k="name" v="Hochgernstraße"/>
    <tag k="narrow" v="yes"/>
    <tag k="sidewalk" v="both"/>
    <tag k="smoothness" v="good"/>
    <tag k="surface" v="asphalt"/>
  </way>
  <way id="3689778" version="9" timestamp="2020-11-05T16:50:57Z" changeset="93614413" uid="26299" user="uboot">
    <nd ref="18289684"/>
    <nd ref="2923618607"/>
    <nd ref="18289685"/>
    <nd ref="476572805"/>
    <nd ref="18289680"/>
    <nd ref="18289688"/>
    <nd ref="18289674"/>
    <nd ref="18289690"/>
    <nd ref="18289679"/>
    <tag k="cycleway:both" v="no"/>
    <tag k="highway" v="residential"/>
    <tag k="lanes" v="1"/>
    <tag k="lit" v="yes"/>
    <tag k="maxspeed" v="30"/>
    <tag k="name" v="Geigelsteinstraße"/>
    <tag k="narrow" v="yes"/>
    <tag k="sidewalk" v="both"/>
    <tag k="smoothness" v="good"/>
    <tag k="surface" v="asphalt"/>
  </way>
  <way id="3689780" version="11" timestamp="2023-06-05T10:50:54Z" changeset="136966600" uid="5686224" user="Boyan Alexiev">
    <nd ref="18289674"/>
    <nd ref="18289676"/>
    <nd ref="18289677"/>
    <nd ref="10957012279"/>
    <nd ref="269943159"/>
    <nd ref="18289678"/>
    <tag k="cycleway:both" v="no"/>
    <tag k="highway" v="residential"/>
    <tag k="lanes" v="1"/>
    <tag k="lit" v="yes"/>
    <tag k="maxspeed" v="30"/>
    <tag k="name" v="Hochfellnstraße"/>
    <tag k="narrow" v="yes"/>
    <tag k="sidewalk" v="both"/>
    <tag k="smoothness" v="good"/>
    <tag k="surface" v="asphalt"/>
  </way>
  <way id="3689781" version="12" timestamp="2023-11-10T19:28:47Z" changeset="143876816" uid="18493611" user="MunichWays">
    <nd ref="18289672"/>
    <nd ref="1201451422"/>
    <nd ref="18289679"/>
    <tag k="class:bicycle" v="2"/>
    <tag k="cycleway:both" v="no"/>
    <tag k="highway" v="residential"/>
    <tag k="lit" v="yes"/>
    <tag k="maxspeed" v="30"/>
    <tag k="name" v="Michaeliburgstraße"/>
    <tag k="sidewalk" v="right"/>
    <tag k="smoothness" v="good"/>
    <tag k="source:maxspeed" v="DE:zone:30"/>
    <tag k="source:width" v="ARCore"/>
    <tag k="surface" v="asphalt"/>
    <tag k="width" v="5.4"/>
  </way>
  <way id="3689782" version="7" timestamp="2021-03-29T12:56:06Z" changeset="101919032" uid="133822" user="schoffer">
    <nd ref="18289667"/>
    <nd ref="18289669"/>
    <nd ref="2923642354"/>
    <nd ref="18289670"/>
    <tag k="highway" v="residential"/>
    <tag k="lanes" v="1"/>
    <tag k="lit" v="yes"/>
    <tag k="maxspeed" v="30"/>
    <tag k="name" v="Hochriesstraße"/>
    <tag k="narrow" v="yes"/>
    <tag k="sidewalk" v="both"/>
    <tag k="smoothness" v="good"/>
    <tag k="source:maxspeed" v="DE:zone:30"/>
    <tag k="surface" v="asphalt"/>
  </way>
  <way id="3689783" version="9" timestamp="2025-04-29T18:46:13Z" changeset="165604894" uid="817113" user="santon">
    <nd ref="18289671"/>
    <nd ref="18289694"/>
    <tag k="class:bicycle" v="2"/>
    <tag k="highway" v="residential"/>
    <tag k="lane_markings" v="no"/>
    <tag k="lit" v="yes"/>
    <tag k="maxspeed" v="30"/>
    <tag k="name" v="Langkofelstraße"/>
    <tag k="sidewalk" v="right"/>
    <tag k="smoothness" v="good"/>
    <tag k="surface" v="asphalt"/>
    <tag k="width" v="5.5"/>
  </way>
  <way id="3689881" version="7" timestamp="2024-05-28T06:01:12Z" changeset="151926397" uid="21532286" user="Street explorer">
    <nd ref="16477012"/>
    <nd ref="2281107315"/>
    <nd ref="1982620000"/>
    <nd ref="2281107307"/>
    <tag k="class:bicycle" v="1"/>
    <tag k="cycleway:both" v="no"/>
    <tag k="highway" v="residential"/>
    <tag k="lit" v="yes"/>
    <tag k="maxspeed" v="30"/>
    <tag k="name" v="Zehntfeldstraße"/>
    <tag k="smoothness" v="excellent"/>
    <tag k="source:maxspeed" v="DE:zone:30"/>
    <tag k="surface" v="asphalt"/>
  </way>
  <way id="4076446" version="12" timestamp="2019-01-15T07:08:07Z" changeset="66323352" uid="133822" user="schoffer">
    <nd ref="21590821"/>
    <nd ref="27224980"/>
    <nd ref="443361713"/>
    <nd ref="21590827"/>
    <tag k="highway" v="residential"/>
    <tag k="lit" v="yes"/>
    <tag k="maxspeed" v="30"/>
    <tag k="name" v="Jella-Lepman-Straße"/>
    <tag k="parking:lane:both" v="perpendicular"/>
    <tag k="surface" v="asphalt"/>
  </way>
  <way id="4426247" version="9" timestamp="2022-11-24T20:37:35Z" changeset="129342944" uid="12120321" user="bollyboll">
    <nd ref="363065"/>
    <nd ref="1278105524"/>
    <nd ref="15431532"/>
    <tag k="highway" v="residential"/>
    <tag k="lit" v="yes"/>
    <tag k="maxspeed" v="30"/>
    <tag k="name" v="Kreuzjochstraße"/>
    <tag k="sidewalk" v="both"/>
    <tag k="sidewalk:both:surface" v="asphalt"/>
    <tag k="smoothness" v="good"/>
    <tag k="source:maxspeed" v="DE:zone30"/>
    <tag k="surface" v="asphalt"/>
    <tag k="width" v="5.5"/>
  </way>
  <way id="4435432" version="10" timestamp="2023-11-06T17:42:23Z" changeset="143703839" uid="536583" user="Strubbl">
    <nd ref="27224231"/>
    <nd ref="27224235"/>
    <nd ref="1201451432"/>
    <nd ref="1066713775"/>
    <nd ref="10956968547"/>
    <nd ref="269943155"/>
    <nd ref="363105"/>
    <tag k="highway" v="residential"/>
    <tag k="lanes" v="1"/>
    <tag k="lit" v="yes"/>
    <tag k="maxspeed" v="30"/>
    <tag k="name" v="Kampenwandstraße"/>
    <tag k="narrow" v="yes"/>
    <tag k="overtaking" v="no"/>
    <tag k="sidewalk" v="left"/>
    <tag k="sidewalk:left:surface" v="asphalt"/>
    <tag k="smoothness" v="good"/>
    <tag k="source:maxspeed" v="DE:zone:30"/>
    <tag k="surface" v="asphalt"/>
  </way>
  <way id="4920913" version="14" timestamp="2023-12-02T19:29:40Z" changeset="144701818" uid="18493611" user="MunichWays">
    <nd ref="32268793"/>
    <nd ref="540321556"/>
    <tag k="class:bicycle" v="-1"/>
    <tag k="highway" v="residential"/>
    <tag k="lane_markings" v="no"/>
    <tag k="lanes" v="2"/>
    <tag k="lit" v="yes"/>
    <tag k="maxspeed" v="50"/>
    <tag k="name" v="Bad-Kreuther-Straße"/>
    <tag k="source:maxspeed" v="DE:urban"/>
    <tag k="surface" v="asphalt"/>
  </way>
  <way id="22723624" version="30" timestamp="2025-01-05T17:37:56Z" changeset="161030081" uid="2815653" user="DaxServer">
    <nd ref="1701767456"/>
    <nd ref="2214333589"/>
    <nd ref="1860509343"/>
    <nd ref="1252306906"/>
    <nd ref="4709991017"/>
    <nd ref="1252306940"/>
    <nd ref="15431549"/>
    <nd ref="3813800226"/>
    <tag k="bicycle" v="use_sidepath"/>
    <tag k="dual_carriageway" v="yes"/>
    <tag k="hgv" v="destination"/>
    <tag k="highway" v="primary"/>
    <tag k="lanes" v="2"/>
    <tag k="lit" v="yes"/>
    <tag k="maxspeed" v="50"/>
    <tag k="name" v="Kreillerstraße"/>
    <tag k="oneway" v="yes"/>
    <tag k="ref" v="B 304"/>
    <tag k="sidewalk:left" v="no"/>
    <tag k="sidewalk:right" v="separate"/>
    <tag k="smoothness" v="good"/>
    <tag k="source:maxspeed" v="DE:urban"/>
    <tag k="surface" v="asphalt"/>
    <tag k="tmc" v="DE:22868/22869"/>
    <tag k="wikidata" v="Q117205858"/>
  </way>
  <way id="23394531" version="17" timestamp="2025-04-03T15:23:59Z" changeset="164470427" uid="16061279" user="YellowSoul">
    <nd ref="17713265"/>
    <nd ref="11598328"/>
    <tag k="check_date:smoothness" v="2023-11-05"/>
    <tag k="cycleway:both" v="separate"/>
    <tag k="foot" v="use_sidepath"/>
    <tag k="highway" v="tertiary"/>
    <tag k="lanes" v="2"/>
    <tag k="lanes:backward" v="1"/>
    <tag k="lanes:forward" v="1"/>
    <tag k="lit" v="yes"/>
    <tag k="maxspeed" v="50"/>
    <tag k="name" v="Sankt-Michael-Straße"/>
    <tag k="overtaking" v="no"/>
    <tag k="sidewalk" v="separate"/>
    <tag k="smoothness" v="good"/>
    <tag k="surface" v="asphalt"/>
  </way>
  <way id="26696137" version="18" timestamp="2025-04-29T18:47:07Z" changeset="165604894" uid="817113" user="santon">
    <nd ref="18289671"/>
    <nd ref="18289670"/>
    <nd ref="5854595456"/>
    <nd ref="17884347"/>
    <tag k="bicycle" v="designated"/>
    <tag k="bicycle_road" v="yes"/>
    <tag k="check_date:smoothness" v="2022-05-28"/>
    <tag k="class:bicycle" v="1"/>
    <tag k="highway" v="residential"/>
    <tag k="lane_markings" v="no"/>
    <tag k="lit" v="yes"/>
    <tag k="maxspeed" v="30"/>
    <tag k="motor_vehicle" v="yes"/>
    <tag k="name" v="Hachinger-Bach-Straße"/>
    <tag k="sidewalk" v="both"/>
    <tag k="sidewalk:both:surface" v="paving_stones"/>
    <tag k="smoothness" v="good"/>
    <tag k="source:maxspeed" v="DE:bicycle_road"/>
    <tag k="surface" v="asphalt"/>
    <tag k="traffic_sign" v="DE:244.1"/>
    <tag k="width" v="5.5"/>
  </way>
  <way id="26696141" version="14" timestamp="2025-05-02T17:34:49Z" changeset="165730105" uid="2409957" user="firefoxinspace">
    <nd ref="18288558"/>
    <nd ref="12779876626"/>
    <nd ref="18288557"/>
    <nd ref="12779876627"/>
    <nd ref="363063"/>
    <tag k="bicycle" v="use_sidepath"/>
    <tag k="check_date" v="2024-04-10"/>
    <tag k="foot" v="use_sidepath"/>
    <tag k="highway" v="tertiary"/>
    <tag k="lanes" v="2"/>
    <tag k="lanes:backward" v="1"/>
    <tag k="lanes:forward" v="1"/>
    <tag k="lit" v="yes"/>
    <tag k="maxspeed" v="30"/>
    <tag k="name" v="Sankt-Veit-Straße"/>
    <tag k="sidewalk" v="separate"/>
    <tag k="smoothness" v="good"/>
    <tag k="source:maxspeed" v="sign"/>
    <tag k="surface" v="asphalt"/>
  </way>
  <way id="26696143" version="10" timestamp="2025-05-02T17:34:49Z" changeset="165730105" uid="2409957" user="firefoxinspace">
    <nd ref="27224985"/>
    <nd ref="18288558"/>
    <tag k="bicycle" v="use_sidepath"/>
    <tag k="foot" v="use_sidepath"/>
    <tag k="highway" v="tertiary"/>
    <tag k="lanes" v="2"/>
    <tag k="lanes:backward" v="1"/>
    <tag k="lanes:forward" v="1"/>
    <tag k="lit" v="yes"/>
    <tag k="maxspeed" v="30"/>
    <tag k="name" v="Sankt-Veit-Straße"/>
    <tag k="sidewalk" v="separate"/>
    <tag k="smoothness" v="good"/>
    <tag k="surface" v="asphalt"/>
  </way>
  <way id="32765369" version="22" timestamp="2025-05-02T17:34:49Z" changeset="165730105" uid="2409957" user="firefoxinspace">
    <nd ref="12531942322"/>
    <nd ref="15687480"/>
    <tag k="bicycle" v="yes"/>
    <tag k="cycleway:right" v="no"/>
    <tag k="dual_carriageway" v="yes"/>
    <tag k="foot" v="use_sidepath"/>
    <tag k="highway" v="tertiary"/>
    <tag k="lanes" v="1"/>
    <tag k="lit" v="yes"/>
    <tag k="maxspeed" v="30"/>
    <tag k="name" v="Sankt-Veit-Straße"/>
    <tag k="oneway" v="yes"/>
    <tag k="sidewalk" v="separate"/>
    <tag k="smoothness" v="good"/>
    <tag k="source:maxspeed" v="sign"/>
    <tag k="surface" v="asphalt"/>
  </way>
  <way id="35039841" version="21" timestamp="2025-01-12T12:27:23Z" changeset="161268959" uid="2815653" user="DaxServer">
    <nd ref="410968444"/>
    <nd ref="1077037303"/>
    <tag k="bicycle" v="use_sidepath"/>
    <tag k="dual_carriageway" v="yes"/>
    <tag k="foot" v="no"/>
    <tag k="highway" v="secondary"/>
    <tag k="lanes" v="3"/>
    <tag k="lit" v="yes"/>
    <tag k="maxspeed" v="50"/>
    <tag k="name" v="Heinrich-Wieland-Straße"/>
    <tag k="oneway" v="yes"/>
    <tag k="psv" v="yes"/>
    <tag k="sidewalk:left" v="no"/>
    <tag k="sidewalk:right" v="separate"/>
    <tag k="smoothness" v="good"/>
    <tag k="surface" v="asphalt"/>
    <tag k="tmc" v="DE:35451/35452"/>
    <tag k="turn:lanes" v="left|through|through;right"/>
    <tag k="wikidata" v="Q117471700"/>
  </way>
  <way id="35042657" version="8" timestamp="2024-04-25T18:05:31Z" changeset="150508649" uid="18493611" user="MunichWays">
    <nd ref="18289164"/>
    <nd ref="1931988288"/>
    <nd ref="363094"/>
    <tag k="class:bicycle" v="1"/>
    <tag k="highway" v="residential"/>
    <tag k="lanes" v="1"/>
    <tag k="lit" v="yes"/>
    <tag k="maxspeed" v="30"/>
    <tag k="name" v="Hachinger-Bach-Straße"/>
    <tag k="narrow" v="yes"/>
    <tag k="sidewalk" v="both"/>
    <tag k="smoothness" v="good"/>
    <tag k="source:width" v="ARCore"/>
    <tag k="surface" v="asphalt"/>
    <tag k="width" v="5.5"/>
  </way>
  <way id="35470199" version="3" timestamp="2022-09-02T05:29:34Z" changeset="125679816" uid="24310" user="RoXXoR">
    <nd ref="415972656"/>
    <nd ref="415972657"/>
    <nd ref="415972658"/>
    <nd ref="415972659"/>
    <nd ref="415972656"/>
    <tag k="addr:city" v="München"/>
    <tag k="addr:country" v="DE"/>
    <tag k="addr:housenumber" v="6"/>
    <tag k="addr:postcode" v="81825"/>
    <tag k="addr:street" v="Guffertstraße"/>
    <tag k="building" v="house"/>
    <tag k="building:levels" v="2"/>
    <tag k="roof:levels" v="1"/>
  </way>
  <way id="52466618" version="11" timestamp="2022-09-04T16:40:13Z" changeset="125780072" uid="11585073" user="tinitron">
    <nd ref="13570828"/>
    <nd ref="667005954"/>
    <tag k="cycleway:right" v="no"/>
    <tag k="foot" v="no"/>
    <tag k="highway" v="tertiary_link"/>
    <tag k="lane_markings" v="no"/>
    <tag k="lit" v="yes"/>
    <tag k="maxspeed" v="50"/>
    <tag k="oneway" v="yes"/>
    <tag k="sidewalk" v="no"/>
    <tag k="surface" v="asphalt"/>
  </way>
  <way id="62483271" version="6" timestamp="2014-04-21T17:28:56Z" changeset="21843474" uid="58185" user="Midas">
    <nd ref="780036909"/>
    <nd ref="780036919"/>
    <nd ref="780036928"/>
    <nd ref="780036948"/>
    <nd ref="780036909"/>
    <tag k="addr:city" v="München"/>
    <tag k="addr:country" v="DE"/>
    <tag k="addr:housenumber" v="17"/>
    <tag k="addr:postcode" v="81825"/>
    <tag k="addr:street" v="Kranzhornstraße"/>
    <tag k="building" v="residential"/>
  </way>
  <way id="75078151" version="23" timestamp="2025-05-02T17:34:49Z" changeset="165730105" uid="2409957" user="firefoxinspace">
    <nd ref="269943145"/>
    <nd ref="4586882265"/>
    <nd ref="886125623"/>
    <nd ref="1961547628"/>
    <nd ref="18289161"/>
    <nd ref="6996391705"/>
    <nd ref="8926742429"/>
    <nd ref="363094"/>
    <nd ref="2929891619"/>
    <nd ref="363061"/>
    <nd ref="17884344"/>
    <tag k="alt_name" v="St.-Veit-Straße"/>
    <tag k="bicycle" v="use_sidepath"/>
    <tag k="foot" v="use_sidepath"/>
    <tag k="highway" v="tertiary"/>
    <tag k="lanes" v="2"/>
    <tag k="lanes:backward" v="1"/>
    <tag k="lanes:forward" v="1"/>
    <tag k="lit" v="yes"/>
    <tag k="maxspeed" v="30"/>
    <tag k="name" v="Sankt-Veit-Straße"/>
    <tag k="sidewalk" v="separate"/>
    <tag k="smoothness" v="good"/>
    <tag k="source:maxspeed" v="sign"/>
    <tag k="surface" v="asphalt"/>
  </way>
  <way id="75078152" version="16" timestamp="2025-05-02T17:34:49Z" changeset="165730105" uid="2409957" user="firefoxinspace">
    <nd ref="201387902"/>
    <nd ref="12779876624"/>
    <nd ref="7636261468"/>
    <nd ref="21590827"/>
    <nd ref="12779876625"/>
    <nd ref="287540355"/>
    <nd ref="1237837556"/>
    <nd ref="12779876623"/>
    <nd ref="15687477"/>
    <tag k="bicycle:backward" v="yes"/>
    <tag k="bicycle:forward" v="use_sidepath"/>
    <tag k="foot" v="use_sidepath"/>
    <tag k="highway" v="tertiary"/>
    <tag k="lanes" v="2"/>
    <tag k="lanes:backward" v="1"/>
    <tag k="lanes:forward" v="1"/>
    <tag k="lit" v="yes"/>
    <tag k="maxspeed" v="30"/>
    <tag k="name" v="Sankt-Veit-Straße"/>
    <tag k="sidewalk" v="separate"/>
    <tag k="smoothness" v="good"/>
    <tag k="source:maxspeed" v="sign"/>
    <tag k="surface" v="asphalt"/>
  </way>
  <way id="87727467" version="10" timestamp="2024-08-03T03:26:16Z" changeset="154758242" uid="930414" user="track_manuel">
    <nd ref="17884347"/>
    <nd ref="2281232741"/>
    <nd ref="2281232740"/>
    <nd ref="2942504876"/>
    <nd ref="269943146"/>
    <nd ref="18289162"/>
    <tag k="check_date:smoothness" v="2022-05-28"/>
    <tag k="highway" v="residential"/>
    <tag k="lanes" v="1"/>
    <tag k="lit" v="yes"/>
    <tag k="maxspeed" v="30"/>
    <tag k="name" v="Großvenedigerstraße"/>
    <tag k="narrow" v="yes"/>
    <tag k="parking:both" v="half_on_kerb"/>
    <tag k="sidewalk" v="both"/>
    <tag k="sidewalk:both:surface" v="paving_stones"/>
    <tag k="smoothness" v="good"/>
    <tag k="source:maxspeed" v="DE:zone:30"/>
    <tag k="surface" v="asphalt"/>
  </way>
  <way id="87729084" version="12" timestamp="2025-05-02T17:34:49Z" changeset="165730105" uid="2409957" user="firefoxinspace">
    <nd ref="17884344"/>
    <nd ref="363062"/>
    <tag k="bicycle" v="use_sidepath"/>
    <tag k="foot" v="use_sidepath"/>
    <tag k="highway" v="tertiary"/>
    <tag k="lanes" v="2"/>
    <tag k="lanes:backward" v="1"/>
    <tag k="lanes:forward" v="1"/>
    <tag k="lit" v="yes"/>
    <tag k="maxspeed" v="30"/>
    <tag k="name" v="Sankt-Veit-Straße"/>
    <tag k="sidewalk" v="separate"/>
    <tag k="smoothness" v="good"/>
    <tag k="source:maxspeed" v="sign"/>
    <tag k="surface" v="asphalt"/>
  </way>
  <way id="87729746" version="9" timestamp="2025-05-02T17:34:49Z" changeset="165730105" uid="2409957" user="firefoxinspace">
    <nd ref="363062"/>
    <nd ref="8690866549"/>
    <nd ref="27224985"/>
    <tag k="bicycle" v="use_sidepath"/>
    <tag k="foot" v="use_sidepath"/>
    <tag k="highway" v="tertiary"/>
    <tag k="lanes" v="2"/>
    <tag k="lanes:backward" v="1"/>
    <tag k="lanes:forward" v="1"/>
    <tag k="lit" v="yes"/>
    <tag k="maxspeed" v="30"/>
    <tag k="name" v="Sankt-Veit-Straße"/>
    <tag k="sidewalk" v="separate"/>
    <tag k="smoothness" v="good"/>
    <tag k="surface" v="asphalt"/>
  </way>
  <way id="87730347" version="9" timestamp="2022-11-24T20:38:08Z" changeset="129342944" uid="12120321" user="bollyboll">
    <nd ref="14658534"/>
    <nd ref="2618641181"/>
    <nd ref="18288524"/>
    <tag k="highway" v="residential"/>
    <tag k="lane_markings" v="no"/>
    <tag k="lanes" v="2"/>
    <tag k="lit" v="yes"/>
    <tag k="maxspeed" v="30"/>
    <tag k="name" v="Rofanstraße"/>
    <tag k="sidewalk" v="both"/>
    <tag k="sidewalk:both:surface" v="asphalt"/>
    <tag k="smoothness" v="excellent"/>
    <tag k="surface" v="asphalt"/>
    <tag k="width" v="5"/>
  </way>
  <way id="87730349" version="9" timestamp="2025-04-25T05:37:15Z" changeset="165406066" uid="817113" user="santon">
    <nd ref="18288524"/>
    <nd ref="363098"/>
    <tag k="highway" v="residential"/>
    <tag k="lane_markings" v="no"/>
    <tag k="lanes" v="2"/>
    <tag k="lit" v="yes"/>
    <tag k="maxspeed" v="30"/>
    <tag k="name" v="Rofanstraße"/>
    <tag k="sidewalk" v="both"/>
    <tag k="sidewalk:both:surface" v="asphalt"/>
    <tag k="smoothness" v="bad"/>
    <tag k="surface" v="sett"/>
    <tag k="width" v="5"/>
  </way>
  <way id="92881799" version="13" timestamp="2025-04-03T15:23:59Z" changeset="164470427" uid="16061279" user="YellowSoul">
    <nd ref="269943156"/>
    <nd ref="4560721616"/>
    <nd ref="4560721613"/>
    <tag k="bicycle" v="use_sidepath"/>
    <tag k="cycleway:right" v="separate"/>
    <tag k="foot" v="no"/>
    <tag k="highway" v="tertiary"/>
    <tag k="lanes" v="2"/>
    <tag k="lit" v="yes"/>
    <tag k="maxspeed" v="50"/>
    <tag k="name" v="Sankt-Michael-Straße"/>
    <tag k="oneway" v="yes"/>
    <tag k="sidewalk" v="separate"/>
    <tag k="smoothness" v="good"/>
    <tag k="source:maxspeed" v="DE:urban"/>
    <tag k="surface" v="asphalt"/>
  </way>
  <way id="92881833" version="11" timestamp="2022-05-28T20:03:17Z" changeset="121630920" uid="137242" user="Rainero">
    <nd ref="987100128"/>
    <nd ref="2344960681"/>
    <nd ref="1077037376"/>
    <nd ref="32268793"/>
    <nd ref="17884346"/>
    <nd ref="9329549060"/>
    <nd ref="11598332"/>
    <nd ref="32701685"/>
    <nd ref="27224243"/>
    <nd ref="11658117"/>
    <tag k="bicycle" v="use_sidepath"/>
    <tag k="foot" v="no"/>
    <tag k="highway" v="tertiary"/>
    <tag k="lanes" v="2"/>
    <tag k="lanes:backward" v="1"/>
    <tag k="lanes:forward" v="1"/>
    <tag k="lit" v="yes"/>
    <tag k="maxspeed" v="50"/>
    <tag k="name" v="Sankt-Michael-Straße"/>
    <tag k="sidewalk" v="separate"/>
    <tag k="smoothness" v="good"/>
    <tag k="source:maxspeed" v="DE:urban"/>
    <tag k="surface" v="asphalt"/>
  </way>
  <way id="97953538" version="2" timestamp="2014-04-21T10:12:24Z" changeset="21833991" uid="58185" user="Midas">
    <nd ref="1133735763"/>
    <nd ref="1133735775"/>
    <nd ref="1133735766"/>
    <nd ref="1133735773"/>
    <nd ref="1133735763"/>
    <tag k="addr:city" v="München"/>
    <tag k="addr:housenumber" v="36"/>
    <tag k="addr:postcode" v="81825"/>
    <tag k="addr:street" v="Guffertstraße"/>
    <tag k="building" v="yes"/>
  </way>
  <way id="100601703" version="3" timestamp="2014-04-21T08:42:19Z" changeset="21832085" uid="58185" user="Midas">
    <nd ref="1163051688"/>
    <nd ref="1163051663"/>
    <nd ref="1163051707"/>
    <nd ref="2805578370"/>
    <nd ref="1163051542"/>
    <nd ref="1163051688"/>
    <tag k="addr:city" v="München"/>
    <tag k="addr:housenumber" v="7a"/>
    <tag k="addr:postcode" v="81825"/>
    <tag k="addr:street" v="Trainsjochstraße"/>
    <tag k="building" v="residential"/>
  </way>
  <way id="100601705" version="3" timestamp="2021-03-30T20:30:12Z" changeset="102008097" uid="137242" user="Rainero">
    <nd ref="1163051666"/>
    <nd ref="1163051642"/>
    <nd ref="1163051691"/>
    <nd ref="1163051606"/>
    <nd ref="1163051666"/>
    <tag k="addr:city" v="München"/>
    <tag k="addr:country" v="DE"/>
    <tag k="addr:housenumber" v="11"/>
    <tag k="addr:postcode" v="81825"/>
    <tag k="addr:street" v="Kranzhornstraße"/>
    <tag k="building" v="yes"/>
  </way>
  <way id="100601710" version="6" timestamp="2014-04-21T09:46:31Z" changeset="21833416" uid="58185" user="Midas">
    <nd ref="1163051633"/>
    <nd ref="1163051617"/>
    <nd ref="2803146593"/>
    <nd ref="2803146594"/>
    <nd ref="1163051656"/>
    <nd ref="2803146599"/>
    <nd ref="2803146600"/>
    <nd ref="2803146598"/>
    <nd ref="2803146597"/>
    <nd ref="2803146595"/>
    <nd ref="2805578368"/>
    <nd ref="2803146596"/>
    <nd ref="1163051699"/>
    <nd ref="1163051633"/>
    <tag k="addr:city" v="München"/>
    <tag k="addr:housenumber" v="11"/>
    <tag k="addr:postcode" v="81825"/>
    <tag k="addr:street" v="Trainsjochstraße"/>
    <tag k="building" v="residential"/>
    <tag k="building:levels" v="2"/>
  </way>
  <way id="100601717" version="6" timestamp="2019-10-08T14:29:58Z" changeset="75418507" uid="834127" user="kartler175">
    <nd ref="1163051661"/>
    <nd ref="1163051529"/>
    <nd ref="2942587868"/>
    <nd ref="1163051679"/>
    <nd ref="2806823611"/>
    <nd ref="2806823610"/>
    <nd ref="2806823613"/>
    <nd ref="2806823612"/>
    <nd ref="1163051523"/>
    <nd ref="1163051661"/>
    <tag k="building" v="residential"/>
    <tag k="name" v="Hofmeir Media GmbH"/>
  </way>
  <way id="100601726" version="4" timestamp="2014-04-21T09:46:31Z" changeset="21833416" uid="58185" user="Midas">
    <nd ref="1163051711"/>
    <nd ref="2805578367"/>
    <nd ref="2805578366"/>
    <nd ref="1163051562"/>
    <nd ref="2803146596"/>
    <nd ref="2805578368"/>
    <nd ref="2805578369"/>
    <nd ref="1163051600"/>
    <nd ref="1163051638"/>
    <nd ref="1163051711"/>
    <tag k="addr:city" v="München"/>
    <tag k="addr:housenumber" v="9a"/>
    <tag k="addr:postcode" v="81825"/>
    <tag k="addr:street" v="Trainsjochstraße"/>
    <tag k="building" v="residential"/>
    <tag k="building:levels" v="2"/>
  </way>
  <way id="100601737" version="5" timestamp="2014-04-21T09:56:59Z" changeset="21833667" uid="58185" user="Midas">
    <nd ref="1163051658"/>
    <nd ref="1163051526"/>
    <nd ref="1163051556"/>
    <nd ref="1163051589"/>
    <nd ref="1163051658"/>
    <tag k="addr:city" v="München"/>
    <tag k="addr:country" v="DE"/>
    <tag k="addr:housenumber" v="13"/>
    <tag k="addr:postcode" v="81825"/>
    <tag k="addr:street" v="Trainsjochstraße"/>
    <tag k="building" v="house"/>
    <tag k="building:levels" v="2"/>
  </way>
  <way id="100601745" version="3" timestamp="2014-04-21T10:12:25Z" changeset="21833991" uid="58185" user="Midas">
    <nd ref="1163051593"/>
    <nd ref="1163051654"/>
    <nd ref="1163051697"/>
    <nd ref="1163051537"/>
    <nd ref="1163051593"/>
    <tag k="addr:city" v="München"/>
    <tag k="addr:housenumber" v="44"/>
    <tag k="addr:postcode" v="81825"/>
    <tag k="addr:street" v="Gratlspitzstraße"/>
    <tag k="building" v="yes"/>
  </way>
  <way id="100601772" version="4" timestamp="2014-04-20T09:29:36Z" changeset="21812509" uid="58185" user="Midas">
    <nd ref="1163051695"/>
    <nd ref="1163051675"/>
    <nd ref="1163051516"/>
    <nd ref="1163051548"/>
    <nd ref="1163051695"/>
    <tag k="addr:city" v="München"/>
    <tag k="addr:housenumber" v="1"/>
    <tag k="addr:postcode" v="81825"/>
    <tag k="addr:street" v="Trainsjochstraße"/>
    <tag k="building" v="residential"/>
  </way>
  <way id="103119859" version="1" timestamp="2011-03-07T09:23:09Z" changeset="7482074" uid="6367" user="mackerski">
    <nd ref="1190769985"/>
    <nd ref="1190769992"/>
    <nd ref="1190770027"/>
    <nd ref="1190770069"/>
    <nd ref="1190770057"/>
    <nd ref="1190770031"/>
    <nd ref="1190769985"/>
    <tag k="addr:city" v="München"/>
    <tag k="addr:country" v="DE"/>
    <tag k="addr:housenumber" v="5"/>
    <tag k="addr:postcode" v="81825"/>
    <tag k="addr:street" v="Guffertstraße"/>
    <tag k="building" v="house"/>
  </way>
  <way id="103119861" version="2" timestamp="2022-09-02T05:29:50Z" changeset="125679816" uid="24310" user="RoXXoR">
    <nd ref="1190770025"/>
    <nd ref="1190770074"/>
    <nd ref="1190769965"/>
    <nd ref="1190770009"/>
    <nd ref="1190770025"/>
    <tag k="addr:city" v="München"/>
    <tag k="addr:country" v="DE"/>
    <tag k="addr:housenumber" v="8"/>
    <tag k="addr:postcode" v="81825"/>
    <tag k="addr:street" v="Guffertstraße"/>
    <tag k="building" v="house"/>
    <tag k="building:levels" v="2"/>
    <tag k="roof:levels" v="1"/>
  </way>
  <way id="103119867" version="2" timestamp="2022-09-01T09:30:49Z" changeset="125646500" uid="24310" user="RoXXoR">
    <nd ref="1190770007"/>
    <nd ref="1190770039"/>
    <nd ref="1190769966"/>
    <nd ref="1190770015"/>
    <nd ref="1190770007"/>
    <tag k="addr:city" v="München"/>
    <tag k="addr:country" v="DE"/>
    <tag k="addr:housenumber" v="4"/>
    <tag k="addr:postcode" v="81825"/>
    <tag k="addr:street" v="Guffertstraße"/>
    <tag k="building" v="house"/>
    <tag k="building:levels" v="2"/>
    <tag k="roof:levels" v="1"/>
  </way>
  <way id="104821914" version="2" timestamp="2014-04-21T17:21:48Z" changeset="21843275" uid="58185" user="Midas">
    <nd ref="1209068034"/>
    <nd ref="1209068009"/>
    <nd ref="1209067943"/>
    <nd ref="1209067910"/>
    <nd ref="1209068034"/>
    <tag k="addr:city" v="München"/>
    <tag k="addr:housenumber" v="28"/>
    <tag k="addr:postcode" v="81825"/>
    <tag k="addr:street" v="Kranzhornstraße"/>
    <tag k="building" v="residential"/>
  </way>
  <way id="104821920" version="2" timestamp="2013-02-20T13:43:51Z" changeset="15100317" uid="289251" user="SAS6667">
    <nd ref="1209067892"/>
    <nd ref="1209068180"/>
    <nd ref="1209068073"/>
    <nd ref="1209068042"/>
    <nd ref="1209067892"/>
    <tag k="addr:city" v="München"/>
    <tag k="addr:country" v="DE"/>
    <tag k="addr:housenumber" v="7"/>
    <tag k="addr:postcode" v="81825"/>
    <tag k="addr:street" v="Wildalpjochstraße"/>
    <tag k="building" v="residential"/>
  </way>
  <way id="104821922" version="2" timestamp="2014-04-21T17:21:49Z" changeset="21843275" uid="58185" user="Midas">
    <nd ref="1209068087"/>
    <nd ref="1209067994"/>
    <nd ref="1209067972"/>
    <nd ref="1209068184"/>
    <nd ref="1209068087"/>
    <tag k="addr:city" v="München"/>
    <tag k="addr:housenumber" v="25"/>
    <tag k="addr:postcode" v="81825"/>
    <tag k="addr:street" v="Kranzhornstraße"/>
    <tag k="building" v="residential"/>
  </way>
  <way id="104821923" version="2" timestamp="2014-04-21T17:21:47Z" changeset="21843275" uid="58185" user="Midas">
    <nd ref="1209068055"/>
    <nd ref="1209068032"/>
    <nd ref="1209067962"/>
    <nd ref="1209067928"/>
    <nd ref="1209068055"/>
    <tag k="addr:city" v="München"/>
    <tag k="addr:housenumber" v="26"/>
    <tag k="addr:postcode" v="81825"/>
    <tag k="addr:street" v="Kranzhornstraße"/>
    <tag k="building" v="residential"/>
  </way>
  <way id="104821925" version="3" timestamp="2024-04-14T20:37:35Z" changeset="150009178" uid="137242" user="Rainero">
    <nd ref="1209068103"/>
    <nd ref="1209067888"/>
    <nd ref="11817248014"/>
    <nd ref="1209067992"/>
    <nd ref="1209068007"/>
    <nd ref="1209068103"/>
    <tag k="addr:city" v="München"/>
    <tag k="addr:country" v="DE"/>
    <tag k="addr:housenumber" v="11"/>
    <tag k="addr:postcode" v="81825"/>
    <tag k="addr:street" v="Wildalpjochstraße"/>
    <tag k="building" v="residential"/>
  </way>
  <way id="112297307" version="12" timestamp="2024-04-25T18:05:31Z" changeset="150508649" uid="18493611" user="MunichWays">
    <nd ref="269944489"/>
    <nd ref="27224233"/>
    <nd ref="27224231"/>
    <nd ref="1985103894"/>
    <nd ref="540402546"/>
    <nd ref="18289686"/>
    <nd ref="18289672"/>
    <nd ref="18289671"/>
    <tag k="class:bicycle" v="1"/>
    <tag k="cycleway:both" v="no"/>
    <tag k="highway" v="residential"/>
    <tag k="lanes" v="1"/>
    <tag k="lit" v="yes"/>
    <tag k="maxspeed" v="30"/>
    <tag k="name" v="Hachinger-Bach-Straße"/>
    <tag k="narrow" v="yes"/>
    <tag k="overtaking" v="no"/>
    <tag k="sidewalk" v="right"/>
    <tag k="smoothness" v="good"/>
    <tag k="source:maxspeed" v="DE:zone:30"/>
    <tag k="source:width" v="ARCore"/>
    <tag k="surface" v="asphalt"/>
    <tag k="width" v="5.8"/>
  </way>
  <way id="112572407" version="10" timestamp="2022-05-28T20:03:17Z" changeset="121630920" uid="137242" user="Rainero">
    <nd ref="987100128"/>
    <nd ref="1077015277"/>
    <nd ref="1077015592"/>
    <tag k="bicycle" v="use_sidepath"/>
    <tag k="foot" v="no"/>
    <tag k="highway" v="tertiary"/>
    <tag k="lanes" v="1"/>
    <tag k="lit" v="yes"/>
    <tag k="maxspeed" v="50"/>
    <tag k="name" v="Sankt-Michael-Straße"/>
    <tag k="oneway" v="yes"/>
    <tag k="overtaking" v="no"/>
    <tag k="sidewalk" v="separate"/>
    <tag k="smoothness" v="good"/>
    <tag k="source:maxspeed" v="DE:urban"/>
    <tag k="surface" v="asphalt"/>
  </way>
  <way id="119894880" version="4" timestamp="2022-12-10T15:46:51Z" changeset="129937754" uid="4238158" user="RiderOnTheStorm">
    <nd ref="1345595274"/>
    <nd ref="1345595300"/>
    <nd ref="1345595258"/>
    <nd ref="2942601712"/>
    <nd ref="1345595285"/>
    <nd ref="1345595255"/>
    <nd ref="1345595302"/>
    <nd ref="1345595261"/>
    <nd ref="1345595275"/>
    <nd ref="1345595274"/>
    <tag k="building" v="yes"/>
    <tag k="heritage" v="4"/>
    <tag k="heritage:operator" v="BLfD"/>
    <tag k="historic" v="building"/>
    <tag k="name" v="Hochbunker"/>
    <tag k="ref:BLfD" v="D-1-62-000-7812"/>
    <tag k="wikidata" v="Q57759594"/>
    <tag k="wikimedia_commons" v="Category:Hochbunker (Berg am Laim)"/>
    <tag k="wikipedia" v="de:Hochbunker Sonnwendjochstraße"/>
  </way>
  <way id="125006361" version="5" timestamp="2014-04-21T09:46:30Z" changeset="21833416" uid="58185" user="Midas">
    <nd ref="1389627561"/>
    <nd ref="1389627566"/>
    <nd ref="1389627568"/>
    <nd ref="1389627556"/>
    <nd ref="1389627554"/>
    <nd ref="1389627557"/>
    <nd ref="1389627559"/>
    <nd ref="1389627560"/>
    <nd ref="1389627551"/>
    <nd ref="1389627558"/>
    <nd ref="1389627561"/>
    <tag k="addr:city" v="München"/>
    <tag k="addr:housenumber" v="16"/>
    <tag k="addr:postcode" v="81825"/>
    <tag k="addr:street" v="Trainsjochstraße"/>
    <tag k="building" v="residential"/>
    <tag k="building:levels" v="1"/>
  </way>
  <way id="125015944" version="2" timestamp="2014-04-21T10:12:25Z" changeset="21833991" uid="58185" user="Midas">
    <nd ref="1389753759"/>
    <nd ref="1389753734"/>
    <nd ref="1389753623"/>
    <nd ref="1389753924"/>
    <nd ref="1389753759"/>
    <tag k="addr:city" v="München"/>
    <tag k="addr:housenumber" v="30"/>
    <tag k="addr:postcode" v="81825"/>
    <tag k="addr:street" v="Gratlspitzstraße"/>
    <tag k="building" v="residential"/>
  </way>
  <way id="125015947" version="3" timestamp="2014-04-21T10:12:25Z" changeset="21833991" uid="58185" user="Midas">
    <nd ref="1389753912"/>
    <nd ref="1389753454"/>
    <nd ref="1389753907"/>
    <nd ref="1389753615"/>
    <nd ref="2803146590"/>
    <nd ref="2803146589"/>
    <nd ref="1389753912"/>
    <tag k="addr:city" v="München"/>
    <tag k="addr:housenumber" v="3"/>
    <tag k="addr:postcode" v="81825"/>
    <tag k="addr:street" v="Trainsjochstraße"/>
    <tag k="building" v="residential"/>
  </way>
  <way id="125015949" version="2" timestamp="2014-04-21T10:12:24Z" changeset="21833991" uid="58185" user="Midas">
    <nd ref="1389753563"/>
    <nd ref="1389753761"/>
    <nd ref="1389753938"/>
    <nd ref="1389753867"/>
    <nd ref="1389753563"/>
    <tag k="addr:city" v="München"/>
    <tag k="addr:housenumber" v="27"/>
    <tag k="addr:postcode" v="81825"/>
    <tag k="addr:street" v="Guffertstraße"/>
    <tag k="building" v="residential"/>
  </way>
  <way id="125015950" version="3" timestamp="2014-04-21T09:46:30Z" changeset="21833416" uid="58185" user="Midas">
    <nd ref="1389753648"/>
    <nd ref="1389753696"/>
    <nd ref="1389753833"/>
    <nd ref="1389753431"/>
    <nd ref="1389753490"/>
    <nd ref="1389753486"/>
    <nd ref="1389753648"/>
    <tag k="addr:city" v="München"/>
    <tag k="addr:housenumber" v="18"/>
    <tag k="addr:postcode" v="81825"/>
    <tag k="addr:street" v="Trainsjochstraße"/>
    <tag k="building" v="residential"/>
    <tag k="building:levels" v="2"/>
  </way>
  <way id="125015951" version="3" timestamp="2014-04-21T17:21:47Z" changeset="21843275" uid="58185" user="Midas">
    <nd ref="1389753483"/>
    <nd ref="1389753757"/>
    <nd ref="1389753494"/>
    <nd ref="1389753736"/>
    <nd ref="1389753483"/>
    <tag k="addr:city" v="München"/>
    <tag k="addr:housenumber" v="20"/>
    <tag k="addr:postcode" v="81825"/>
    <tag k="addr:street" v="Trainsjochstraße"/>
    <tag k="building" v="residential"/>
    <tag k="building:levels" v="2"/>
  </way>
  <way id="125015952" version="2" timestamp="2014-04-21T10:21:03Z" changeset="21834200" uid="58185" user="Midas">
    <nd ref="1389753849"/>
    <nd ref="1389753531"/>
    <nd ref="1389753694"/>
    <nd ref="1389753955"/>
    <nd ref="1389753849"/>
    <tag k="addr:city" v="München"/>
    <tag k="addr:housenumber" v="53"/>
    <tag k="addr:postcode" v="81825"/>
    <tag k="addr:street" v="Sonnwendjochstraße"/>
    <tag k="building" v="residential"/>
  </way>
  <way id="125015958" version="2" timestamp="2014-04-21T10:12:25Z" changeset="21833991" uid="58185" user="Midas">
    <nd ref="1389753878"/>
    <nd ref="1389753922"/>
    <nd ref="1389753692"/>
    <nd ref="1389753561"/>
    <nd ref="1389753878"/>
    <tag k="addr:city" v="München"/>
    <tag k="addr:housenumber" v="28"/>
    <tag k="addr:postcode" v="81825"/>
    <tag k="addr:street" v="Gratlspitzstraße"/>
    <tag k="building" v="residential"/>
  </way>
  <way id="125015960" version="3" timestamp="2014-04-21T09:56:59Z" changeset="21833667" uid="58185" user="Midas">
    <nd ref="1389753452"/>
    <nd ref="1389753875"/>
    <nd ref="1389753909"/>
    <nd ref="2805759005"/>
    <nd ref="1389753606"/>
    <nd ref="2805759006"/>
    <nd ref="1389753452"/>
    <tag k="addr:city" v="München"/>
    <tag k="addr:housenumber" v="23"/>
    <tag k="addr:postcode" v="81825"/>
    <tag k="addr:street" v="Guffertstraße"/>
    <tag k="building" v="residential"/>
    <tag k="building:levels" v="2"/>
  </way>
  <way id="125015961" version="3" timestamp="2025-05-15T08:33:42Z" changeset="166291780" uid="13523345" user="enanoide">
    <nd ref="1389753602"/>
    <nd ref="2942601736"/>
    <nd ref="1389753905"/>
    <nd ref="1389753727"/>
    <nd ref="1389753790"/>
    <nd ref="1389753895"/>
    <nd ref="1389753707"/>
    <nd ref="1389753528"/>
    <nd ref="1389753841"/>
    <nd ref="1389753602"/>
    <tag k="addr:city" v="München"/>
    <tag k="addr:housenumber" v="61"/>
    <tag k="addr:postcode" v="81825"/>
    <tag k="addr:street" v="Sonnwendjochstraße"/>
    <tag k="building" v="apartments"/>
  </way>
  <way id="125015963" version="4" timestamp="2014-04-21T10:12:25Z" changeset="21833991" uid="58185" user="Midas">
    <nd ref="1389753658"/>
    <nd ref="1389753510"/>
    <nd ref="2803146592"/>
    <nd ref="2803146591"/>
    <nd ref="1389753580"/>
    <nd ref="1389753450"/>
    <nd ref="1389753658"/>
    <tag k="addr:city" v="München"/>
    <tag k="addr:housenumber" v="6"/>
    <tag k="addr:postcode" v="81825"/>
    <tag k="addr:street" v="Trainsjochstraße"/>
    <tag k="building" v="residential"/>
  </way>
  <way id="125015964" version="3" timestamp="2014-04-21T09:46:31Z" changeset="21833416" uid="58185" user="Midas">
    <nd ref="1389753689"/>
    <nd ref="1389753464"/>
    <nd ref="1389753853"/>
    <nd ref="1389753953"/>
    <nd ref="1389753654"/>
    <nd ref="1389753612"/>
    <nd ref="1389753793"/>
    <nd ref="1389753686"/>
    <nd ref="1389753840"/>
    <nd ref="1389753577"/>
    <nd ref="1389753689"/>
    <tag k="addr:city" v="München"/>
    <tag k="addr:housenumber" v="14"/>
    <tag k="addr:postcode" v="81825"/>
    <tag k="addr:street" v="Trainsjochstraße"/>
    <tag k="building" v="residential"/>
    <tag k="building:levels" v="2"/>
  </way>
  <way id="125015966" version="3" timestamp="2014-04-21T10:21:04Z" changeset="21834200" uid="58185" user="Midas">
    <nd ref="1389753945"/>
    <nd ref="1389753818"/>
    <nd ref="1389753730"/>
    <nd ref="1389753481"/>
    <nd ref="1389753945"/>
    <tag k="addr:city" v="München"/>
    <tag k="addr:housenumber" v="15"/>
    <tag k="addr:postcode" v="81825"/>
    <tag k="addr:street" v="Guffertstraße"/>
    <tag k="building" v="residential"/>
  </way>
  <way id="125015967" version="2" timestamp="2014-04-21T10:21:03Z" changeset="21834200" uid="58185" user="Midas">
    <nd ref="1389753703"/>
    <nd ref="1389753660"/>
    <nd ref="1389753567"/>
    <nd ref="1389753746"/>
    <nd ref="1389753703"/>
    <tag k="addr:city" v="München"/>
    <tag k="addr:housenumber" v="26"/>
    <tag k="addr:postcode" v="81825"/>
    <tag k="addr:street" v="Gratlspitzstraße"/>
    <tag k="building" v="residential"/>
  </way>
  <way id="125048341" version="3" timestamp="2021-03-30T20:30:12Z" changeset="102008097" uid="137242" user="Rainero">
    <nd ref="1389924637"/>
    <nd ref="1389924672"/>
    <nd ref="1389924600"/>
    <nd ref="1389924697"/>
    <nd ref="1389924637"/>
    <tag k="addr:city" v="München"/>
    <tag k="addr:country" v="DE"/>
    <tag k="addr:housenumber" v="13"/>
    <tag k="addr:postcode" v="81825"/>
    <tag k="addr:street" v="Kranzhornstraße"/>
    <tag k="building" v="residential"/>
  </way>
  <way id="125048343" version="2" timestamp="2014-04-21T10:21:03Z" changeset="21834200" uid="58185" user="Midas">
    <nd ref="1389924607"/>
    <nd ref="1389924712"/>
    <nd ref="1389924631"/>
    <nd ref="1389924678"/>
    <nd ref="1389924607"/>
    <tag k="addr:city" v="München"/>
    <tag k="addr:housenumber" v="29"/>
    <tag k="addr:postcode" v="81825"/>
    <tag k="addr:street" v="Gratlspitzstraße"/>
    <tag k="building" v="residential"/>
  </way>
  <way id="125048344" version="2" timestamp="2014-04-21T10:12:25Z" changeset="21833991" uid="58185" user="Midas">
    <nd ref="1389924610"/>
    <nd ref="1389924661"/>
    <nd ref="1389924622"/>
    <nd ref="1389924688"/>
    <nd ref="1389924610"/>
    <tag k="addr:city" v="München"/>
    <tag k="addr:housenumber" v="33"/>
    <tag k="addr:postcode" v="81825"/>
    <tag k="addr:street" v="Gratlspitzstraße"/>
    <tag k="building" v="residential"/>
  </way>
  <way id="125048345" version="2" timestamp="2014-04-21T10:12:25Z" changeset="21833991" uid="58185" user="Midas">
    <nd ref="1389924684"/>
    <nd ref="1389924656"/>
    <nd ref="1389924694"/>
    <nd ref="1389924644"/>
    <nd ref="1389924684"/>
    <tag k="addr:city" v="München"/>
    <tag k="addr:housenumber" v="31"/>
    <tag k="addr:postcode" v="81825"/>
    <tag k="addr:street" v="Gratlspitzstraße"/>
    <tag k="building" v="residential"/>
  </way>
  <way id="125048351" version="2" timestamp="2014-04-21T10:12:25Z" changeset="21833991" uid="58185" user="Midas">
    <nd ref="1389924613"/>
    <nd ref="1389924716"/>
    <nd ref="1389924668"/>
    <nd ref="1389924605"/>
    <nd ref="1389924613"/>
    <tag k="addr:city" v="München"/>
    <tag k="addr:housenumber" v="35"/>
    <tag k="addr:postcode" v="81825"/>
    <tag k="addr:street" v="Gratlspitzstraße"/>
    <tag k="building" v="residential"/>
  </way>
  <way id="125048353" version="2" timestamp="2014-04-21T10:21:04Z" changeset="21834200" uid="58185" user="Midas">
    <nd ref="1389924719"/>
    <nd ref="1389924627"/>
    <nd ref="1389924658"/>
    <nd ref="1389924650"/>
    <nd ref="1389924643"/>
    <nd ref="1389924642"/>
    <nd ref="1389924719"/>
    <tag k="addr:city" v="München"/>
    <tag k="addr:housenumber" v="20"/>
    <tag k="addr:postcode" v="81825"/>
    <tag k="addr:street" v="Guffertstraße"/>
    <tag k="building" v="residential"/>
  </way>
  <way id="125048355" version="2" timestamp="2014-04-21T17:21:47Z" changeset="21843275" uid="58185" user="Midas">
    <nd ref="1389924691"/>
    <nd ref="1389924626"/>
    <nd ref="1389924675"/>
    <nd ref="1389924680"/>
    <nd ref="1389924598"/>
    <nd ref="1389924674"/>
    <nd ref="1389924715"/>
    <nd ref="1389924599"/>
    <nd ref="1389924691"/>
    <tag k="addr:city" v="München"/>
    <tag k="addr:housenumber" v="22"/>
    <tag k="addr:postcode" v="81825"/>
    <tag k="addr:street" v="Kranzhornstraße"/>
    <tag k="building" v="residential"/>
  </way>
  <way id="125048361" version="2" timestamp="2014-04-21T09:56:59Z" changeset="21833667" uid="58185" user="Midas">
    <nd ref="1389924701"/>
    <nd ref="1389924717"/>
    <nd ref="1389924704"/>
    <nd ref="1389924597"/>
    <nd ref="1389924701"/>
    <tag k="addr:city" v="München"/>
    <tag k="addr:housenumber" v="24"/>
    <tag k="addr:postcode" v="81825"/>
    <tag k="addr:street" v="Guffertstraße"/>
    <tag k="building" v="residential"/>
  </way>
  <way id="125048362" version="2" timestamp="2014-04-21T10:12:25Z" changeset="21833991" uid="58185" user="Midas">
    <nd ref="1389924732"/>
    <nd ref="1389924721"/>
    <nd ref="1389924681"/>
    <nd ref="1389924657"/>
    <nd ref="1389924732"/>
    <tag k="addr:city" v="München"/>
    <tag k="addr:housenumber" v="37"/>
    <tag k="addr:postcode" v="81825"/>
    <tag k="addr:street" v="Gratlspitzstraße"/>
    <tag k="building" v="residential"/>
  </way>
  <way id="125048363" version="3" timestamp="2014-04-21T10:21:03Z" changeset="21834200" uid="58185" user="Midas">
    <nd ref="1389924629"/>
    <nd ref="1389924714"/>
    <nd ref="2805597676"/>
    <nd ref="1389924660"/>
    <nd ref="1389924676"/>
    <nd ref="1389924628"/>
    <nd ref="1389924711"/>
    <nd ref="1389924629"/>
    <tag k="addr:city" v="München"/>
    <tag k="addr:housenumber" v="18"/>
    <tag k="addr:postcode" v="81825"/>
    <tag k="addr:street" v="Guffertstraße"/>
    <tag k="building" v="yes"/>
  </way>
  <way id="125048367" version="2" timestamp="2014-04-21T10:12:25Z" changeset="21833991" uid="58185" user="Midas">
    <nd ref="1389924653"/>
    <nd ref="1389924616"/>
    <nd ref="1389924724"/>
    <nd ref="1389924733"/>
    <nd ref="1389924653"/>
    <tag k="addr:city" v="München"/>
    <tag k="addr:housenumber" v="39"/>
    <tag k="addr:postcode" v="81825"/>
    <tag k="addr:street" v="Gratlspitzstraße"/>
    <tag k="building" v="residential"/>
  </way>
  <way id="125048369" version="2" timestamp="2014-04-21T17:21:47Z" changeset="21843275" uid="58185" user="Midas">
    <nd ref="1389924594"/>
    <nd ref="1389924636"/>
    <nd ref="1389924614"/>
    <nd ref="1389924670"/>
    <nd ref="1389924594"/>
    <tag k="addr:city" v="München"/>
    <tag k="addr:housenumber" v="24"/>
    <tag k="addr:postcode" v="81825"/>
    <tag k="addr:street" v="Kranzhornstraße"/>
    <tag k="building" v="residential"/>
  </way>
  <way id="125048372" version="2" timestamp="2014-04-21T09:56:59Z" changeset="21833667" uid="58185" user="Midas">
    <nd ref="1389924734"/>
    <nd ref="1389924687"/>
    <nd ref="2805759008"/>
    <nd ref="1389924645"/>
    <nd ref="1389924652"/>
    <nd ref="1389924734"/>
    <tag k="addr:city" v="München"/>
    <tag k="addr:housenumber" v="32"/>
    <tag k="addr:postcode" v="81825"/>
    <tag k="addr:street" v="Guffertstraße"/>
    <tag k="building" v="residential"/>
  </way>
  <way id="125048373" version="3" timestamp="2024-08-11T20:24:42Z" changeset="155120722" uid="137242" user="Rainero">
    <nd ref="1389924618"/>
    <nd ref="1389924729"/>
    <nd ref="1389924603"/>
    <nd ref="1389924634"/>
    <nd ref="12104981760"/>
    <nd ref="1389924618"/>
    <tag k="addr:city" v="München"/>
    <tag k="addr:housenumber" v="22"/>
    <tag k="addr:postcode" v="81825"/>
    <tag k="addr:street" v="Guffertstraße"/>
    <tag k="building" v="residential"/>
  </way>
  <way id="125048374" version="2" timestamp="2014-04-21T09:56:59Z" changeset="21833667" uid="58185" user="Midas">
    <nd ref="1389924731"/>
    <nd ref="1389924612"/>
    <nd ref="1389924655"/>
    <nd ref="1389924623"/>
    <nd ref="1389924651"/>
    <nd ref="1389924625"/>
    <nd ref="1389924731"/>
    <tag k="addr:city" v="München"/>
    <tag k="addr:housenumber" v="30"/>
    <tag k="addr:postcode" v="81825"/>
    <tag k="addr:street" v="Guffertstraße"/>
    <tag k="building" v="residential"/>
    <tag k="building:levels" v="2"/>
  </way>
  <way id="125048377" version="3" timestamp="2014-04-21T09:56:59Z" changeset="21833667" uid="58185" user="Midas">
    <nd ref="1389924602"/>
    <nd ref="1389924735"/>
    <nd ref="1389924706"/>
    <nd ref="1389924633"/>
    <nd ref="1389924602"/>
    <tag k="addr:city" v="München"/>
    <tag k="addr:housenumber" v="17"/>
    <tag k="addr:postcode" v="81825"/>
    <tag k="addr:street" v="Guffertstraße"/>
    <tag k="building" v="residential"/>
  </way>
  <way id="144256038" version="6" timestamp="2020-12-14T14:31:58Z" changeset="95811454" uid="536583" user="Strubbl">
    <nd ref="1578241572"/>
    <nd ref="1578241642"/>
    <nd ref="1578241587"/>
    <nd ref="1578241528"/>
    <nd ref="1578241572"/>
    <tag k="addr:city" v="München"/>
    <tag k="addr:country" v="DE"/>
    <tag k="addr:housenumber" v="19"/>
    <tag k="addr:postcode" v="81673"/>
    <tag k="addr:street" v="Sankt-Veit-Straße"/>
    <tag k="building" v="residential"/>
    <tag k="building:levels" v="3"/>
    <tag k="roof:levels" v="1"/>
    <tag k="roof:shape" v="gabled"/>
  </way>
  <way id="144435600" version="21" timestamp="2025-02-13T10:57:34Z" changeset="162461790" uid="8748" user="ToniE">
    <nd ref="11598328"/>
    <nd ref="540321565"/>
    <nd ref="1015603455"/>
    <nd ref="8146727383"/>
    <nd ref="363108"/>
    <nd ref="3397235109"/>
    <nd ref="12584866858"/>
    <nd ref="12584866854"/>
    <nd ref="12584866860"/>
    <nd ref="3099137276"/>
    <nd ref="1985103879"/>
    <nd ref="12584866862"/>
    <nd ref="3397235111"/>
    <nd ref="12584866864"/>
    <nd ref="1579785735"/>
    <nd ref="12584866866"/>
    <nd ref="12584866869"/>
    <nd ref="1579785739"/>
    <nd ref="12584866871"/>
    <nd ref="1579785781"/>
    <tag k="bicycle" v="use_sidepath"/>
    <tag k="dual_carriageway" v="yes"/>
    <tag k="foot" v="use_sidepath"/>
    <tag k="highway" v="secondary"/>
    <tag k="lanes" v="2"/>
    <tag k="lit" v="yes"/>
    <tag k="maxspeed" v="50"/>
    <tag k="name" v="Bad-Schachener-Straße"/>
    <tag k="oneway" v="yes"/>
    <tag k="parking:lane:right" v="parallel"/>
    <tag k="sidewalk:left" v="no"/>
    <tag k="sidewalk:right" v="separate"/>
    <tag k="smoothness" v="excellent"/>
    <tag k="source:maxspeed" v="DE:urban"/>
    <tag k="surface" v="asphalt"/>
    <tag k="tmc" v="DE:35450/35451"/>
  </way>
  <way id="145128954" version="8" timestamp="2023-07-18T18:48:12Z" changeset="138683562" uid="19854238" user="Odisseues">
    <nd ref="1585757849"/>
    <nd ref="1585757876"/>
    <nd ref="1585757896"/>
    <nd ref="1585758074"/>
    <nd ref="2948539598"/>
    <nd ref="1585757849"/>
    <tag k="addr:city" v="München"/>
    <tag k="addr:country" v="DE"/>
    <tag k="addr:housenumber" v="8"/>
    <tag k="addr:postcode" v="81825"/>
    <tag k="addr:street" v="Siegsdorfer Straße"/>
    <tag k="amenity" v="place_of_worship"/>
    <tag k="building" v="residential"/>
    <tag k="building:levels" v="2"/>
    <tag k="check_date" v="2023-07-18"/>
    <tag k="denomination" v="jehovahs_witness"/>
    <tag k="name" v="Königreichssaal Jehovas Zeugen"/>
    <tag k="religion" v="christian"/>
    <tag k="roof:levels" v="1"/>
    <tag k="roof:shape" v="gabled"/>
    <tag k="website" v="https://www.jw.org/"/>
    <tag k="wheelchair" v="no"/>
  </way>
  <way id="145241254" version="6" timestamp="2020-12-14T14:30:41Z" changeset="95811454" uid="536583" user="Strubbl">
    <nd ref="1586772446"/>
    <nd ref="1586772771"/>
    <nd ref="1586772733"/>
    <nd ref="1586772787"/>
    <nd ref="1586772446"/>
    <tag k="addr:city" v="München"/>
    <tag k="addr:country" v="DE"/>
    <tag k="addr:housenumber" v="21"/>
    <tag k="addr:postcode" v="81673"/>
    <tag k="addr:street" v="Sankt-Veit-Straße"/>
    <tag k="building" v="residential"/>
    <tag k="building:levels" v="2"/>
    <tag k="roof:levels" v="2"/>
    <tag k="roof:shape" v="gabled"/>
  </way>
  <way id="145241255" version="4" timestamp="2020-12-14T14:26:58Z" changeset="95811454" uid="536583" user="Strubbl">
    <nd ref="1586772649"/>
    <nd ref="1586772701"/>
    <nd ref="1586772570"/>
    <nd ref="1586772740"/>
    <nd ref="1586772685"/>
    <nd ref="1586772765"/>
    <nd ref="1586772649"/>
    <tag k="addr:city" v="München"/>
    <tag k="addr:country" v="DE"/>
    <tag k="addr:housenumber" v="11"/>
    <tag k="addr:postcode" v="81825"/>
    <tag k="addr:street" v="Staudacher Straße"/>
    <tag k="building" v="residential"/>
    <tag k="building:levels" v="2"/>
    <tag k="roof:levels" v="1"/>
    <tag k="roof:shape" v="gabled"/>
  </way>
  <way id="145241260" version="4" timestamp="2020-12-14T14:28:44Z" changeset="95811454" uid="536583" user="Strubbl">
    <nd ref="1586772676"/>
    <nd ref="1586772745"/>
    <nd ref="1586772458"/>
    <nd ref="1586772513"/>
    <nd ref="1586772676"/>
    <tag k="addr:city" v="München"/>
    <tag k="addr:country" v="DE"/>
    <tag k="addr:housenumber" v="9"/>
    <tag k="addr:postcode" v="81825"/>
    <tag k="addr:street" v="Staudacher Straße"/>
    <tag k="building" v="residential"/>
    <tag k="building:levels" v="2"/>
    <tag k="roof:levels" v="1"/>
    <tag k="roof:shape" v="gabled"/>
  </way>
  <way id="145241264" version="5" timestamp="2020-12-14T14:30:00Z" changeset="95811454" uid="536583" user="Strubbl">
    <nd ref="2929966892"/>
    <nd ref="2929966890"/>
    <nd ref="1586772761"/>
    <nd ref="1586772655"/>
    <nd ref="2929966892"/>
    <tag k="addr:city" v="München"/>
    <tag k="addr:country" v="DE"/>
    <tag k="addr:housenumber" v="3b"/>
    <tag k="addr:postcode" v="81825"/>
    <tag k="addr:street" v="Staudacher Straße"/>
    <tag k="building" v="residential"/>
    <tag k="building:levels" v="1"/>
    <tag k="roof:levels" v="2"/>
    <tag k="roof:shape" v="gabled"/>
  </way>
  <way id="145241265" version="4" timestamp="2020-12-14T14:30:20Z" changeset="95811454" uid="536583" user="Strubbl">
    <nd ref="1586772638"/>
    <nd ref="1586772476"/>
    <nd ref="1586772538"/>
    <nd ref="1586772524"/>
    <nd ref="1586772638"/>
    <tag k="addr:city" v="München"/>
    <tag k="addr:country" v="DE"/>
    <tag k="addr:housenumber" v="1"/>
    <tag k="addr:postcode" v="81825"/>
    <tag k="addr:street" v="Staudacher Straße"/>
    <tag k="building" v="residential"/>
    <tag k="building:levels" v="1"/>
    <tag k="roof:levels" v="2"/>
    <tag k="roof:shape" v="gabled"/>
  </way>
  <way id="145241275" version="4" timestamp="2020-12-14T14:29:01Z" changeset="95811454" uid="536583" user="Strubbl">
    <nd ref="1586772547"/>
    <nd ref="1586772542"/>
    <nd ref="1586772551"/>
    <nd ref="1586772597"/>
    <nd ref="1586772631"/>
    <nd ref="1586772704"/>
    <nd ref="1586772547"/>
    <tag k="addr:city" v="München"/>
    <tag k="addr:country" v="DE"/>
    <tag k="addr:housenumber" v="5"/>
    <tag k="addr:postcode" v="81825"/>
    <tag k="addr:street" v="Staudacher Straße"/>
    <tag k="building" v="residential"/>
    <tag k="building:levels" v="1"/>
    <tag k="roof:levels" v="2"/>
    <tag k="roof:shape" v="gabled"/>
  </way>
  <way id="145787850" version="13" timestamp="2025-05-12T07:13:29Z" changeset="166136546" uid="16061279" user="YellowSoul">
    <nd ref="15487586"/>
    <nd ref="363058"/>
    <tag k="cycleway:both" v="no"/>
    <tag k="foot" v="use_sidepath"/>
    <tag k="highway" v="tertiary"/>
    <tag k="lanes" v="2"/>
    <tag k="lit" v="yes"/>
    <tag k="maxspeed" v="50"/>
    <tag k="name" v="Sankt-Veit-Straße"/>
    <tag k="sidewalk" v="separate"/>
    <tag k="smoothness" v="good"/>
    <tag k="source:maxspeed" v="DE:urban"/>
    <tag k="surface" v="asphalt"/>
  </way>
  <way id="146196243" version="6" timestamp="2022-12-24T10:59:54Z" changeset="130452056" uid="14211102" user="Kartographix">
    <nd ref="1594708557"/>
    <nd ref="1594708504"/>
    <nd ref="1594708555"/>
    <nd ref="1594708551"/>
    <nd ref="1594708557"/>
    <tag k="addr:housenumber" v="10"/>
    <tag k="addr:street" v="Wildenwarter Straße"/>
    <tag k="building" v="residential"/>
    <tag k="building:levels" v="1"/>
    <tag k="roof:levels" v="2"/>
    <tag k="roof:shape" v="gabled"/>
  </way>
  <way id="146198984" version="6" timestamp="2020-12-14T14:34:03Z" changeset="95811454" uid="536583" user="Strubbl">
    <nd ref="1594730117"/>
    <nd ref="1594730112"/>
    <nd ref="1594730156"/>
    <nd ref="1594729983"/>
    <nd ref="1594730117"/>
    <tag k="addr:city" v="München"/>
    <tag k="addr:country" v="DE"/>
    <tag k="addr:housenumber" v="27"/>
    <tag k="addr:postcode" v="81673"/>
    <tag k="addr:street" v="Sankt-Veit-Straße"/>
    <tag k="building" v="residential"/>
    <tag k="building:levels" v="2"/>
    <tag k="roof:levels" v="1"/>
    <tag k="roof:shape" v="gabled"/>
  </way>
  <way id="146198986" version="6" timestamp="2020-12-14T14:32:32Z" changeset="95811454" uid="536583" user="Strubbl">
    <nd ref="1594730144"/>
    <nd ref="1594730070"/>
    <nd ref="1594730012"/>
    <nd ref="1594730021"/>
    <nd ref="1594730144"/>
    <tag k="addr:city" v="München"/>
    <tag k="addr:country" v="DE"/>
    <tag k="addr:housenumber" v="23"/>
    <tag k="addr:postcode" v="81673"/>
    <tag k="addr:street" v="Sankt-Veit-Straße"/>
    <tag k="building" v="residential"/>
    <tag k="building:levels" v="2"/>
    <tag k="roof:levels" v="1"/>
    <tag k="roof:shape" v="gabled"/>
  </way>
  <way id="146198989" version="4" timestamp="2020-12-14T14:29:40Z" changeset="95811454" uid="536583" user="Strubbl">
    <nd ref="1594730016"/>
    <nd ref="1594730044"/>
    <nd ref="1594730072"/>
    <nd ref="1594730136"/>
    <nd ref="1594730057"/>
    <nd ref="1594730090"/>
    <nd ref="1594730016"/>
    <tag k="addr:city" v="München"/>
    <tag k="addr:country" v="DE"/>
    <tag k="addr:housenumber" v="6"/>
    <tag k="addr:postcode" v="81825"/>
    <tag k="addr:street" v="Staudacher Straße"/>
    <tag k="building" v="residential"/>
    <tag k="building:levels" v="1"/>
    <tag k="roof:levels" v="1"/>
    <tag k="roof:shape" v="gabled"/>
  </way>
  <way id="146198990" version="5" timestamp="2020-12-14T14:35:04Z" changeset="95811454" uid="536583" user="Strubbl">
    <nd ref="1594729979"/>
    <nd ref="1594730100"/>
    <nd ref="1594730121"/>
    <nd ref="1594730113"/>
    <nd ref="1594730110"/>
    <nd ref="1594730099"/>
    <nd ref="1594730061"/>
    <nd ref="1594730055"/>
    <nd ref="1594729990"/>
    <nd ref="1594730024"/>
    <nd ref="1594730036"/>
    <nd ref="1594730007"/>
    <nd ref="1594730000"/>
    <nd ref="2948475795"/>
    <nd ref="1594730116"/>
    <nd ref="1594730101"/>
    <nd ref="1594729992"/>
    <nd ref="1594729979"/>
    <tag k="addr:housenumber" v="1"/>
    <tag k="addr:street" v="Gronsdorfer Straße"/>
    <tag k="building" v="residential"/>
    <tag k="building:levels" v="3"/>
    <tag k="roof:levels" v="2"/>
    <tag k="roof:shape" v="half-hipped"/>
  </way>
  <way id="146198993" version="4" timestamp="2020-12-14T14:31:09Z" changeset="95811454" uid="536583" user="Strubbl">
    <nd ref="1594730040"/>
    <nd ref="1594730037"/>
    <nd ref="1594730033"/>
    <nd ref="1594730133"/>
    <nd ref="1594730040"/>
    <tag k="addr:city" v="München"/>
    <tag k="addr:country" v="DE"/>
    <tag k="addr:housenumber" v="2"/>
    <tag k="addr:postcode" v="81825"/>
    <tag k="addr:street" v="Staudacher Straße"/>
    <tag k="building" v="residential"/>
    <tag k="building:levels" v="1"/>
    <tag k="roof:levels" v="2"/>
    <tag k="roof:shape" v="gabled"/>
  </way>
  <way id="146198995" version="4" timestamp="2020-12-14T14:27:57Z" changeset="95811454" uid="536583" user="Strubbl">
    <nd ref="1594729982"/>
    <nd ref="1594730032"/>
    <nd ref="1594730023"/>
    <nd ref="1594730092"/>
    <nd ref="1594729982"/>
    <tag k="addr:city" v="München"/>
    <tag k="addr:country" v="DE"/>
    <tag k="addr:housenumber" v="10"/>
    <tag k="addr:postcode" v="81825"/>
    <tag k="addr:street" v="Staudacher Straße"/>
    <tag k="building" v="residential"/>
    <tag k="building:levels" v="2"/>
    <tag k="roof:levels" v="1"/>
    <tag k="roof:shape" v="gabled"/>
  </way>
  <way id="146198999" version="4" timestamp="2020-12-14T14:29:21Z" changeset="95811454" uid="536583" user="Strubbl">
    <nd ref="1594730149"/>
    <nd ref="1594730096"/>
    <nd ref="1594730093"/>
    <nd ref="1594730145"/>
    <nd ref="1594729972"/>
    <nd ref="1594730149"/>
    <tag k="addr:city" v="München"/>
    <tag k="addr:country" v="DE"/>
    <tag k="addr:housenumber" v="8"/>
    <tag k="addr:postcode" v="81825"/>
    <tag k="addr:street" v="Staudacher Straße"/>
    <tag k="building" v="residential"/>
    <tag k="building:levels" v="1"/>
    <tag k="roof:levels" v="1"/>
    <tag k="roof:shape" v="gabled"/>
  </way>
  <way id="146199002" version="4" timestamp="2020-12-14T14:30:27Z" changeset="95811454" uid="536583" user="Strubbl">
    <nd ref="1594730131"/>
    <nd ref="1594730064"/>
    <nd ref="1594730002"/>
    <nd ref="1594730046"/>
    <nd ref="1594730142"/>
    <nd ref="1594730131"/>
    <tag k="addr:city" v="München"/>
    <tag k="addr:country" v="DE"/>
    <tag k="addr:housenumber" v="4"/>
    <tag k="addr:postcode" v="81825"/>
    <tag k="addr:street" v="Staudacher Straße"/>
    <tag k="building" v="residential"/>
    <tag k="building:levels" v="2"/>
    <tag k="roof:levels" v="1"/>
    <tag k="roof:shape" v="gabled"/>
  </way>
  <way id="146199004" version="5" timestamp="2020-12-14T14:36:47Z" changeset="95811454" uid="536583" user="Strubbl">
    <nd ref="1594730127"/>
    <nd ref="1594730003"/>
    <nd ref="1594730048"/>
    <nd ref="1594730140"/>
    <nd ref="1594730127"/>
    <tag k="addr:city" v="München"/>
    <tag k="addr:country" v="DE"/>
    <tag k="addr:housenumber" v="1a"/>
    <tag k="addr:street" v="Gronsdorfer Straße"/>
    <tag k="building" v="residential"/>
    <tag k="building:levels" v="2"/>
    <tag k="roof:levels" v="1"/>
    <tag k="roof:shape" v="gabled"/>
  </way>
  <way id="146199006" version="8" timestamp="2020-12-14T14:33:02Z" changeset="95811454" uid="536583" user="Strubbl">
    <nd ref="2929907571"/>
    <nd ref="2929907572"/>
    <nd ref="1594730159"/>
    <nd ref="1594730060"/>
    <nd ref="1594730130"/>
    <nd ref="2929907571"/>
    <tag k="addr:city" v="München"/>
    <tag k="addr:country" v="DE"/>
    <tag k="addr:housenumber" v="25"/>
    <tag k="addr:postcode" v="81673"/>
    <tag k="addr:street" v="Sankt-Veit-Straße"/>
    <tag k="building" v="residential"/>
    <tag k="building:levels" v="2"/>
    <tag k="roof:levels" v="1"/>
    <tag k="roof:shape" v="gabled"/>
  </way>
  <way id="171378910" version="5" timestamp="2024-09-03T07:55:53Z" changeset="156129781" uid="88803" user="Rainer Jung">
    <nd ref="1824108968"/>
    <nd ref="1824108967"/>
    <nd ref="1824108964"/>
    <nd ref="1824108965"/>
    <nd ref="1824108968"/>
    <tag k="addr:city" v="München"/>
    <tag k="addr:country" v="DE"/>
    <tag k="addr:housenumber" v="24"/>
    <tag k="addr:street" v="Hachinger-Bach-Straße"/>
    <tag k="building" v="residential"/>
    <tag k="building:levels" v="2"/>
    <tag k="roof:levels" v="1"/>
    <tag k="roof:shape" v="gabled"/>
  </way>
  <way id="174960053" version="6" timestamp="2022-05-16T20:23:24Z" changeset="121068580" uid="137242" user="Rainero">
    <nd ref="290527984"/>
    <nd ref="987100128"/>
    <tag k="bicycle" v="use_sidepath"/>
    <tag k="foot" v="no"/>
    <tag k="highway" v="tertiary"/>
    <tag k="lanes" v="1"/>
    <tag k="lit" v="yes"/>
    <tag k="maxspeed" v="50"/>
    <tag k="name" v="Sankt-Michael-Straße"/>
    <tag k="oneway" v="yes"/>
    <tag k="overtaking" v="no"/>
    <tag k="sidewalk" v="separate"/>
    <tag k="smoothness" v="good"/>
    <tag k="surface" v="asphalt"/>
  </way>
  <way id="179789465" version="5" timestamp="2022-06-02T19:36:37Z" changeset="121866003" uid="12120321" user="bollyboll">
    <nd ref="1902263285"/>
    <nd ref="1902263126"/>
    <nd ref="1902263120"/>
    <nd ref="1902263264"/>
    <nd ref="1902263285"/>
    <tag k="addr:housenumber" v="58"/>
    <tag k="addr:street" v="Blombergstraße"/>
    <tag k="building" v="residential"/>
    <tag k="building:levels" v="1"/>
    <tag k="roof:levels" v="0"/>
    <tag k="roof:shape" v="gabled"/>
  </way>
  <way id="182994293" version="2" timestamp="2013-02-15T12:30:48Z" changeset="15039284" uid="289251" user="SAS6667">
    <nd ref="1933582180"/>
    <nd ref="1933581869"/>
    <nd ref="1933582002"/>
    <nd ref="1933582139"/>
    <nd ref="1933582180"/>
    <tag k="addr:city" v="München"/>
    <tag k="addr:country" v="DE"/>
    <tag k="addr:housenumber" v="9"/>
    <tag k="addr:street" v="Gratlspitzstraße"/>
    <tag k="building" v="residential"/>
  </way>
  <way id="182994296" version="2" timestamp="2013-02-15T12:18:59Z" changeset="15039284" uid="289251" user="SAS6667">
    <nd ref="1933581933"/>
    <nd ref="1933582172"/>
    <nd ref="1933581998"/>
    <nd ref="1933582170"/>
    <nd ref="1933581933"/>
    <tag k="addr:city" v="München"/>
    <tag k="addr:country" v="DE"/>
    <tag k="addr:housenumber" v="15"/>
    <tag k="addr:street" v="Gratlspitzstraße"/>
    <tag k="building" v="residential"/>
  </way>
  <way id="182994298" version="2" timestamp="2013-02-15T12:30:48Z" changeset="15039284" uid="289251" user="SAS6667">
    <nd ref="1933582009"/>
    <nd ref="1933581857"/>
    <nd ref="1933582019"/>
    <nd ref="1933582110"/>
    <nd ref="1933582009"/>
    <tag k="addr:city" v="München"/>
    <tag k="addr:country" v="DE"/>
    <tag k="addr:housenumber" v="11"/>
    <tag k="addr:street" v="Gratlspitzstraße"/>
    <tag k="building" v="residential"/>
  </way>
  <way id="182994299" version="2" timestamp="2013-02-15T12:14:56Z" changeset="15039284" uid="289251" user="SAS6667">
    <nd ref="1933582179"/>
    <nd ref="1933581949"/>
    <nd ref="1933581877"/>
    <nd ref="1933581893"/>
    <nd ref="1933582179"/>
    <tag k="addr:city" v="München"/>
    <tag k="addr:country" v="DE"/>
    <tag k="addr:housenumber" v="13"/>
    <tag k="addr:street" v="Gratlspitzstraße"/>
    <tag k="building" v="residential"/>
  </way>
  <way id="182994302" version="2" timestamp="2013-02-15T12:18:59Z" changeset="15039284" uid="289251" user="SAS6667">
    <nd ref="1933582114"/>
    <nd ref="1933581951"/>
    <nd ref="1933581887"/>
    <nd ref="1933581890"/>
    <nd ref="1933582089"/>
    <nd ref="1933582129"/>
    <nd ref="1933582068"/>
    <nd ref="1933582077"/>
    <nd ref="1933582114"/>
    <tag k="addr:city" v="München"/>
    <tag k="addr:country" v="DE"/>
    <tag k="addr:housenumber" v="66"/>
    <tag k="addr:street" v="Sonnwendjochstraße"/>
    <tag k="building" v="residential"/>
  </way>
  <way id="182994310" version="2" timestamp="2013-02-15T12:18:59Z" changeset="15039284" uid="289251" user="SAS6667">
    <nd ref="1933581833"/>
    <nd ref="1933582116"/>
    <nd ref="1933582052"/>
    <nd ref="1933582188"/>
    <nd ref="1933581833"/>
    <tag k="addr:city" v="München"/>
    <tag k="addr:country" v="DE"/>
    <tag k="addr:housenumber" v="21"/>
    <tag k="addr:street" v="Gratlspitzstraße"/>
    <tag k="building" v="residential"/>
  </way>
  <way id="182994311" version="2" timestamp="2013-02-15T12:30:48Z" changeset="15039284" uid="289251" user="SAS6667">
    <nd ref="1933582196"/>
    <nd ref="1933582056"/>
    <nd ref="1933581991"/>
    <nd ref="1933582177"/>
    <nd ref="1933582196"/>
    <tag k="addr:city" v="München"/>
    <tag k="addr:country" v="DE"/>
    <tag k="addr:housenumber" v="7"/>
    <tag k="addr:street" v="Gratlspitzstraße"/>
    <tag k="building" v="residential"/>
  </way>
  <way id="182994316" version="2" timestamp="2013-02-15T12:18:59Z" changeset="15039284" uid="289251" user="SAS6667">
    <nd ref="1933582083"/>
    <nd ref="1933581958"/>
    <nd ref="1933581866"/>
    <nd ref="1933581953"/>
    <nd ref="1933582083"/>
    <tag k="addr:city" v="München"/>
    <tag k="addr:country" v="DE"/>
    <tag k="addr:housenumber" v="70"/>
    <tag k="addr:street" v="Sonnwendjochstraße"/>
    <tag k="building" v="residential"/>
  </way>
  <way id="182994322" version="2" timestamp="2013-02-15T12:18:59Z" changeset="15039284" uid="289251" user="SAS6667">
    <nd ref="1933582119"/>
    <nd ref="1933581936"/>
    <nd ref="1933581860"/>
    <nd ref="1933581837"/>
    <nd ref="1933582119"/>
    <tag k="addr:city" v="München"/>
    <tag k="addr:country" v="DE"/>
    <tag k="addr:housenumber" v="23"/>
    <tag k="addr:street" v="Gratlspitzstraße"/>
    <tag k="building" v="residential"/>
  </way>
  <way id="182994327" version="2" timestamp="2013-02-15T12:18:59Z" changeset="15039284" uid="289251" user="SAS6667">
    <nd ref="1933582148"/>
    <nd ref="1933581930"/>
    <nd ref="1933582185"/>
    <nd ref="1933582066"/>
    <nd ref="1933582148"/>
    <tag k="addr:city" v="München"/>
    <tag k="addr:country" v="DE"/>
    <tag k="addr:housenumber" v="19"/>
    <tag k="addr:street" v="Gratlspitzstraße"/>
    <tag k="building" v="residential"/>
  </way>
  <way id="182994328" version="2" timestamp="2013-02-15T12:30:48Z" changeset="15039284" uid="289251" user="SAS6667">
    <nd ref="1933581946"/>
    <nd ref="1933582194"/>
    <nd ref="1933582123"/>
    <nd ref="1933582184"/>
    <nd ref="1933581946"/>
    <tag k="addr:city" v="München"/>
    <tag k="addr:country" v="DE"/>
    <tag k="addr:housenumber" v="5"/>
    <tag k="addr:street" v="Gratlspitzstraße"/>
    <tag k="building" v="residential"/>
  </way>
  <way id="182994329" version="2" timestamp="2013-02-15T12:19:00Z" changeset="15039284" uid="289251" user="SAS6667">
    <nd ref="1933582070"/>
    <nd ref="1933582192"/>
    <nd ref="1933581924"/>
    <nd ref="1933581939"/>
    <nd ref="1933582070"/>
    <tag k="addr:city" v="München"/>
    <tag k="addr:country" v="DE"/>
    <tag k="addr:housenumber" v="17"/>
    <tag k="addr:street" v="Gratlspitzstraße"/>
    <tag k="building" v="residential"/>
  </way>
  <way id="184490254" version="3" timestamp="2013-10-21T13:59:53Z" changeset="18469463" uid="14390" user="BeKri">
    <nd ref="1949861849"/>
    <nd ref="1949861843"/>
    <nd ref="1949861833"/>
    <nd ref="1949861841"/>
    <nd ref="1949861849"/>
    <tag k="addr:city" v="München"/>
    <tag k="addr:country" v="DE"/>
    <tag k="addr:housenumber" v="1a"/>
    <tag k="addr:postcode" v="81825"/>
    <tag k="addr:street" v="Wildalpjochstraße"/>
    <tag k="building" v="residential"/>
  </way>
  <way id="184490256" version="2" timestamp="2013-02-20T13:41:03Z" changeset="15100317" uid="289251" user="SAS6667">
    <nd ref="1949861839"/>
    <nd ref="1949861830"/>
    <nd ref="1949861806"/>
    <nd ref="1949861816"/>
    <nd ref="1949861839"/>
    <tag k="addr:city" v="München"/>
    <tag k="addr:country" v="DE"/>
    <tag k="addr:housenumber" v="3"/>
    <tag k="addr:postcode" v="81825"/>
    <tag k="addr:street" v="Wildalpjochstraße"/>
    <tag k="building" v="residential"/>
  </way>
  <way id="184490263" version="2" timestamp="2013-02-20T13:43:51Z" changeset="15100317" uid="289251" user="SAS6667">
    <nd ref="1949861824"/>
    <nd ref="1949861810"/>
    <nd ref="1949861795"/>
    <nd ref="1949861801"/>
    <nd ref="1949861824"/>
    <tag k="addr:city" v="München"/>
    <tag k="addr:country" v="DE"/>
    <tag k="addr:housenumber" v="5"/>
    <tag k="addr:postcode" v="81825"/>
    <tag k="addr:street" v="Wildalpjochstraße"/>
    <tag k="building" v="residential"/>
  </way>
  <way id="184490265" version="4" timestamp="2025-05-16T10:35:30Z" changeset="166342833" uid="2052948" user="Maturi0n">
    <nd ref="1949861855"/>
    <nd ref="12841625766"/>
    <nd ref="12841625769"/>
    <nd ref="12841625765"/>
    <nd ref="12841625764"/>
    <nd ref="1949861851"/>
    <nd ref="1949861847"/>
    <nd ref="1949861853"/>
    <nd ref="12841625763"/>
    <nd ref="12841625762"/>
    <nd ref="1949861855"/>
    <tag k="addr:city" v="München"/>
    <tag k="addr:country" v="DE"/>
    <tag k="addr:housenumber" v="1"/>
    <tag k="addr:postcode" v="81825"/>
    <tag k="addr:street" v="Wildalpjochstraße"/>
    <tag k="building" v="residential"/>
  </way>
  <way id="184490266" version="2" timestamp="2013-02-20T13:52:05Z" changeset="15100317" uid="289251" user="SAS6667">
    <nd ref="1949861845"/>
    <nd ref="1949861837"/>
    <nd ref="1949861822"/>
    <nd ref="1949861835"/>
    <nd ref="1949861845"/>
    <tag k="addr:city" v="München"/>
    <tag k="addr:country" v="DE"/>
    <tag k="addr:housenumber" v="2"/>
    <tag k="addr:postcode" v="81825"/>
    <tag k="addr:street" v="Wildalpjochstraße"/>
    <tag k="building" v="residential"/>
  </way>
  <way id="205459042" version="5" timestamp="2020-09-04T15:28:21Z" changeset="90422967" uid="26299" user="uboot">
    <nd ref="2154311022"/>
    <nd ref="2154311026"/>
    <nd ref="2154311019"/>
    <nd ref="2154311020"/>
    <nd ref="2154311022"/>
    <tag k="addr:city" v="München"/>
    <tag k="addr:country" v="DE"/>
    <tag k="addr:housenumber" v="16"/>
    <tag k="addr:street" v="Hachinger-Bach-Straße"/>
    <tag k="building" v="residential"/>
    <tag k="building:levels" v="2"/>
    <tag k="roof:colour" v="brown"/>
    <tag k="roof:levels" v="2"/>
    <tag k="roof:shape" v="gabled"/>
  </way>
  <way id="205459429" version="5" timestamp="2021-03-29T19:50:46Z" changeset="101937702" uid="133822" user="schoffer">
    <nd ref="2154312956"/>
    <nd ref="2154312962"/>
    <nd ref="2154312961"/>
    <nd ref="2154312954"/>
    <nd ref="2154312956"/>
    <tag k="addr:city" v="München"/>
    <tag k="addr:country" v="DE"/>
    <tag k="addr:housenumber" v="2"/>
    <tag k="addr:street" v="Hochriesstraße"/>
    <tag k="building" v="residential"/>
    <tag k="building:levels" v="2"/>
    <tag k="roof:levels" v="1"/>
    <tag k="roof:shape" v="gabled"/>
  </way>
  <way id="205459434" version="4" timestamp="2020-09-04T15:28:21Z" changeset="90422967" uid="26299" user="uboot">
    <nd ref="2154312959"/>
    <nd ref="2154312958"/>
    <nd ref="2154312955"/>
    <nd ref="2154312957"/>
    <nd ref="2154312959"/>
    <tag k="addr:city" v="München"/>
    <tag k="addr:country" v="DE"/>
    <tag k="addr:housenumber" v="18a"/>
    <tag k="addr:street" v="Hachinger-Bach-Straße"/>
    <tag k="building" v="residential"/>
    <tag k="building:levels" v="2"/>
    <tag k="roof:colour" v="brown"/>
    <tag k="roof:levels" v="1"/>
    <tag k="roof:shape" v="gabled"/>
  </way>
  <way id="205459436" version="3" timestamp="2020-09-04T15:28:21Z" changeset="90422967" uid="26299" user="uboot">
    <nd ref="2154312950"/>
    <nd ref="2154312963"/>
    <nd ref="2154312949"/>
    <nd ref="2154312960"/>
    <nd ref="2154312950"/>
    <tag k="addr:city" v="München"/>
    <tag k="addr:country" v="DE"/>
    <tag k="addr:housenumber" v="18"/>
    <tag k="addr:street" v="Hachinger-Bach-Straße"/>
    <tag k="building" v="residential"/>
    <tag k="building:levels" v="2"/>
    <tag k="roof:colour" v="brown"/>
    <tag k="roof:levels" v="2"/>
    <tag k="roof:shape" v="gabled"/>
  </way>
  <way id="205459906" version="4" timestamp="2021-08-31T16:54:34Z" changeset="110524095" uid="133822" user="schoffer">
    <nd ref="2154314615"/>
    <nd ref="2154314623"/>
    <nd ref="2154314625"/>
    <nd ref="2154314640"/>
    <nd ref="2154314615"/>
    <tag k="addr:city" v="München"/>
    <tag k="addr:country" v="DE"/>
    <tag k="addr:housenumber" v="6"/>
    <tag k="addr:street" v="Hochriesstraße"/>
    <tag k="building" v="residential"/>
    <tag k="building:levels" v="2"/>
    <tag k="roof:levels" v="1"/>
    <tag k="roof:shape" v="gabled"/>
  </way>
  <way id="205459974" version="11" timestamp="2024-12-08T10:59:05Z" changeset="160052451" uid="6096599" user="mrboombasti">
    <nd ref="2154317001"/>
    <nd ref="5871996003"/>
    <nd ref="2154317000"/>
    <nd ref="10648258067"/>
    <nd ref="2154317002"/>
    <nd ref="2154316999"/>
    <nd ref="2154317001"/>
    <tag k="addr:city" v="München"/>
    <tag k="addr:country" v="DE"/>
    <tag k="addr:housenumber" v="11"/>
    <tag k="addr:postcode" v="81735"/>
    <tag k="addr:street" v="Heinrich-Wieland-Straße"/>
    <tag k="amenity" v="restaurant"/>
    <tag k="brewery" v="Ayinger"/>
    <tag k="building" v="yes"/>
    <tag k="capacity:biergarten" v="300"/>
    <tag k="capacity:pub" v="100"/>
    <tag k="check_date" v="2024-12-08"/>
    <tag k="check_date:opening_hours" v="2024-12-08"/>
    <tag k="contact:email" v="info@dickermann.eu"/>
    <tag k="contact:fax" v="+49 89 403935"/>
    <tag k="contact:phone" v="+49 89 407898"/>
    <tag k="cuisine" v="german;regional"/>
    <tag k="description" v="Biergarten mit 300 Plätzen"/>
    <tag k="diet:vegetarian" v="no"/>
    <tag k="food" v="yes"/>
    <tag k="indoor_seating" v="yes"/>
    <tag k="level" v="0"/>
    <tag k="name" v="Kleines Brauhaus Dicker Mann"/>
    <tag k="opening_hours" v="Mo-Sa 11:00-23:00; Su,PH 11:00-23:00"/>
    <tag k="operator" v="Eva-Maria Heigl"/>
    <tag k="outdoor_seating" v="yes"/>
    <tag k="payment:cash" v="yes"/>
    <tag k="payment:girocard" v="yes"/>
    <tag k="payment:maestro" v="yes"/>
    <tag k="payment:mastercard" v="yes"/>
    <tag k="payment:visa" v="yes"/>
    <tag k="smoking" v="outside"/>
    <tag k="source" v="website"/>
    <tag k="toilets" v="yes"/>
    <tag k="toilets:access" v="customers"/>
    <tag k="website" v="https://www.kleinesbrauhausdickermann.de/"/>
    <tag k="wheelchair" v="limited"/>
    <tag k="wikimedia_commons" v="Category:Heinrich-Wieland-Straße 11 (München)"/>
  </way>
  <way id="205460111" version="4" timestamp="2021-06-13T09:41:44Z" changeset="106276906" uid="26299" user="uboot">
    <nd ref="2154318559"/>
    <nd ref="2154318596"/>
    <nd ref="2154318665"/>
    <nd ref="2154318616"/>
    <nd ref="2154318559"/>
    <tag k="addr:city" v="München"/>
    <tag k="addr:country" v="DE"/>
    <tag k="addr:housenumber" v="8"/>
    <tag k="addr:street" v="Loferer Straße"/>
    <tag k="building" v="residential"/>
    <tag k="building:levels" v="2"/>
    <tag k="roof:shape" v="gabled"/>
  </way>
  <way id="205460113" version="5" timestamp="2021-06-13T09:41:39Z" changeset="106276906" uid="26299" user="uboot">
    <nd ref="2154318621"/>
    <nd ref="2154318664"/>
    <nd ref="2154318598"/>
    <nd ref="2154318668"/>
    <nd ref="2154318621"/>
    <tag k="addr:city" v="München"/>
    <tag k="addr:country" v="DE"/>
    <tag k="addr:housenumber" v="2"/>
    <tag k="addr:postcode" v="81671"/>
    <tag k="addr:street" v="Loferer Straße"/>
    <tag k="building" v="residential"/>
    <tag k="building:levels" v="1"/>
    <tag k="roof:levels" v="1"/>
    <tag k="roof:shape" v="gabled"/>
  </way>
  <way id="205460117" version="4" timestamp="2021-06-13T09:41:42Z" changeset="106276906" uid="26299" user="uboot">
    <nd ref="2154318555"/>
    <nd ref="2154318560"/>
    <nd ref="2154318556"/>
    <nd ref="2154318659"/>
    <nd ref="2154318555"/>
    <tag k="addr:city" v="München"/>
    <tag k="addr:country" v="DE"/>
    <tag k="addr:housenumber" v="6"/>
    <tag k="addr:street" v="Loferer Straße"/>
    <tag k="building" v="residential"/>
    <tag k="building:levels" v="1"/>
    <tag k="roof:shape" v="hipped"/>
  </way>
  <way id="205460118" version="6" timestamp="2020-10-04T15:54:30Z" changeset="91937834" uid="536583" user="Strubbl">
    <nd ref="2154318570"/>
    <nd ref="2154318582"/>
    <nd ref="2154318571"/>
    <nd ref="2154318624"/>
    <nd ref="2154318570"/>
    <tag k="addr:city" v="München"/>
    <tag k="addr:country" v="DE"/>
    <tag k="addr:housenumber" v="5a"/>
    <tag k="addr:postcode" v="81671"/>
    <tag k="addr:street" v="Kampenwandstraße"/>
    <tag k="building" v="residential"/>
    <tag k="building:levels" v="2"/>
    <tag k="roof:levels" v="1"/>
    <tag k="roof:shape" v="gabled"/>
  </way>
  <way id="205460129" version="4" timestamp="2021-06-13T09:41:45Z" changeset="106276906" uid="26299" user="uboot">
    <nd ref="2154318635"/>
    <nd ref="2154318617"/>
    <nd ref="2154318643"/>
    <nd ref="2154318642"/>
    <nd ref="2154318635"/>
    <tag k="addr:city" v="München"/>
    <tag k="addr:country" v="DE"/>
    <tag k="addr:housenumber" v="10"/>
    <tag k="addr:street" v="Loferer Straße"/>
    <tag k="building" v="residential"/>
    <tag k="building:levels" v="2"/>
    <tag k="roof:shape" v="gabled"/>
  </way>
  <way id="205460131" version="5" timestamp="2021-06-13T09:41:41Z" changeset="106276906" uid="26299" user="uboot">
    <nd ref="2154318567"/>
    <nd ref="2154318657"/>
    <nd ref="2154318641"/>
    <nd ref="2154318554"/>
    <nd ref="2154318567"/>
    <tag k="addr:city" v="München"/>
    <tag k="addr:country" v="DE"/>
    <tag k="addr:housenumber" v="4"/>
    <tag k="addr:postcode" v="81671"/>
    <tag k="addr:street" v="Loferer Straße"/>
    <tag k="building" v="residential"/>
    <tag k="building:levels" v="2"/>
    <tag k="roof:levels" v="1"/>
    <tag k="roof:shape" v="half-hipped"/>
  </way>
  <way id="205477454" version="4" timestamp="2021-06-13T09:41:45Z" changeset="106276906" uid="26299" user="uboot">
    <nd ref="2154433367"/>
    <nd ref="2154433379"/>
    <nd ref="2154433363"/>
    <nd ref="2154433402"/>
    <nd ref="2154433367"/>
    <tag k="addr:city" v="München"/>
    <tag k="addr:country" v="DE"/>
    <tag k="addr:housenumber" v="9"/>
    <tag k="addr:street" v="Loferer Straße"/>
    <tag k="building" v="residential"/>
    <tag k="building:levels" v="2"/>
    <tag k="roof:levels" v="1"/>
    <tag k="roof:shape" v="gabled"/>
  </way>
  <way id="205477455" version="4" timestamp="2021-06-13T09:41:24Z" changeset="106276906" uid="26299" user="uboot">
    <nd ref="2154433398"/>
    <nd ref="2154433418"/>
    <nd ref="290528281"/>
    <nd ref="2154433354"/>
    <nd ref="2154433398"/>
    <tag k="addr:city" v="München"/>
    <tag k="addr:country" v="DE"/>
    <tag k="addr:housenumber" v="2"/>
    <tag k="addr:street" v="Hochfellnstraße"/>
    <tag k="building" v="residential"/>
    <tag k="building:levels" v="2"/>
    <tag k="roof:levels" v="1"/>
    <tag k="roof:shape" v="gabled"/>
  </way>
  <way id="205477457" version="5" timestamp="2021-06-13T09:41:39Z" changeset="106276906" uid="26299" user="uboot">
    <nd ref="2154433361"/>
    <nd ref="2154433362"/>
    <nd ref="2154433416"/>
    <nd ref="2154433406"/>
    <nd ref="2154433361"/>
    <tag k="addr:city" v="München"/>
    <tag k="addr:country" v="DE"/>
    <tag k="addr:housenumber" v="2"/>
    <tag k="addr:postcode" v="81671"/>
    <tag k="addr:street" v="Geigelsteinstraße"/>
    <tag k="building" v="residential"/>
    <tag k="building:levels" v="2"/>
    <tag k="roof:levels" v="1"/>
    <tag k="roof:shape" v="gabled"/>
  </way>
  <way id="205477462" version="2" timestamp="2013-02-14T12:42:29Z" changeset="15028615" uid="289251" user="SAS6667">
    <nd ref="2154433384"/>
    <nd ref="2154433403"/>
    <nd ref="2154433423"/>
    <nd ref="2154433396"/>
    <nd ref="2154433384"/>
    <tag k="addr:city" v="München"/>
    <tag k="addr:country" v="DE"/>
    <tag k="addr:housenumber" v="4"/>
    <tag k="addr:street" v="Geigelsteinstraße"/>
    <tag k="building" v="residential"/>
  </way>
  <way id="205477464" version="2" timestamp="2013-02-14T12:42:30Z" changeset="15028615" uid="289251" user="SAS6667">
    <nd ref="2154433376"/>
    <nd ref="2154433364"/>
    <nd ref="2154433380"/>
    <nd ref="2154433421"/>
    <nd ref="2154433376"/>
    <tag k="addr:city" v="München"/>
    <tag k="addr:country" v="DE"/>
    <tag k="addr:housenumber" v="6"/>
    <tag k="addr:street" v="Geigelsteinstraße"/>
    <tag k="building" v="residential"/>
  </way>
  <way id="205477465" version="4" timestamp="2021-06-13T09:41:23Z" changeset="106276906" uid="26299" user="uboot">
    <nd ref="2154433420"/>
    <nd ref="2154433375"/>
    <nd ref="2154433369"/>
    <nd ref="2154433391"/>
    <nd ref="2154433420"/>
    <tag k="addr:city" v="München"/>
    <tag k="addr:country" v="DE"/>
    <tag k="addr:housenumber" v="4"/>
    <tag k="addr:street" v="Hochfellnstraße"/>
    <tag k="building" v="residential"/>
    <tag k="building:levels" v="2"/>
    <tag k="roof:levels" v="1"/>
    <tag k="roof:shape" v="hipped"/>
  </way>
  <way id="205477467" version="5" timestamp="2021-06-13T09:41:24Z" changeset="106276906" uid="26299" user="uboot">
    <nd ref="2154433392"/>
    <nd ref="2154433368"/>
    <nd ref="2154433419"/>
    <nd ref="2154433352"/>
    <nd ref="2154433392"/>
    <tag k="addr:city" v="München"/>
    <tag k="addr:country" v="DE"/>
    <tag k="addr:housenumber" v="6a"/>
    <tag k="addr:street" v="Geigelsteinstraße"/>
    <tag k="building" v="residential"/>
    <tag k="building:levels" v="2"/>
    <tag k="roof:levels" v="1"/>
    <tag k="roof:shape" v="gabled"/>
  </way>
  <way id="205477478" version="3" timestamp="2021-06-13T09:41:28Z" changeset="106276906" uid="26299" user="uboot">
    <nd ref="2154433542"/>
    <nd ref="2154433543"/>
    <nd ref="2154433541"/>
    <nd ref="2154433540"/>
    <nd ref="2154433542"/>
    <tag k="addr:city" v="München"/>
    <tag k="addr:country" v="DE"/>
    <tag k="addr:housenumber" v="8"/>
    <tag k="addr:street" v="Geigelsteinstraße"/>
    <tag k="building" v="residential"/>
    <tag k="building:levels" v="2"/>
    <tag k="roof:levels" v="1"/>
    <tag k="roof:shape" v="hipped"/>
  </way>
  <way id="205477707" version="3" timestamp="2021-03-29T19:55:53Z" changeset="101937702" uid="133822" user="schoffer">
    <nd ref="2154434954"/>
    <nd ref="2154434952"/>
    <nd ref="2154434953"/>
    <nd ref="2154434955"/>
    <nd ref="2154434954"/>
    <tag k="addr:city" v="München"/>
    <tag k="addr:country" v="DE"/>
    <tag k="addr:housenumber" v="10"/>
    <tag k="addr:street" v="Geigelsteinstraße"/>
    <tag k="building" v="residential"/>
    <tag k="building:levels" v="2"/>
    <tag k="roof:levels" v="1"/>
    <tag k="roof:shape" v="gabled"/>
  </way>
  <way id="205478360" version="2" timestamp="2022-07-30T15:55:11Z" changeset="124273540" uid="88803" user="Rainer Jung">
    <nd ref="2154439443"/>
    <nd ref="2154439444"/>
    <nd ref="2154439445"/>
    <nd ref="2154439442"/>
    <nd ref="2154439443"/>
    <tag k="addr:city" v="München"/>
    <tag k="addr:country" v="DE"/>
    <tag k="addr:housenumber" v="10"/>
    <tag k="addr:street" v="Michaeliburgstraße"/>
    <tag k="building" v="residential"/>
    <tag k="building:levels" v="1"/>
    <tag k="roof:levels" v="1"/>
  </way>
  <way id="205478648" version="2" timestamp="2022-07-30T15:54:54Z" changeset="124273540" uid="88803" user="Rainer Jung">
    <nd ref="2154446681"/>
    <nd ref="2154446669"/>
    <nd ref="2154446690"/>
    <nd ref="2154446705"/>
    <nd ref="2154446681"/>
    <tag k="addr:city" v="München"/>
    <tag k="addr:country" v="DE"/>
    <tag k="addr:housenumber" v="12"/>
    <tag k="addr:street" v="Michaeliburgstraße"/>
    <tag k="building" v="residential"/>
    <tag k="building:levels" v="2"/>
  </way>
  <way id="205478649" version="3" timestamp="2022-07-30T15:54:34Z" changeset="124273540" uid="88803" user="Rainer Jung">
    <nd ref="2154446679"/>
    <nd ref="2154446691"/>
    <nd ref="2154446701"/>
    <nd ref="2154446659"/>
    <nd ref="2154446679"/>
    <tag k="addr:city" v="München"/>
    <tag k="addr:country" v="DE"/>
    <tag k="addr:housenumber" v="10a"/>
    <tag k="addr:street" v="Michaeliburgstraße"/>
    <tag k="building" v="residential"/>
    <tag k="building:levels" v="3"/>
  </way>
  <way id="205478650" version="2" timestamp="2021-04-03T14:37:14Z" changeset="102238800" uid="7327100" user="sgtbrobee">
    <nd ref="2154446663"/>
    <nd ref="2154446696"/>
    <nd ref="2154446703"/>
    <nd ref="2154446707"/>
    <nd ref="2154446663"/>
    <tag k="addr:city" v="München"/>
    <tag k="addr:country" v="DE"/>
    <tag k="addr:housenumber" v="20"/>
    <tag k="addr:street" v="Michaeliburgstraße"/>
    <tag k="building" v="residential"/>
    <tag k="building:levels" v="1"/>
    <tag k="roof:levels" v="2"/>
  </way>
  <way id="205478652" version="2" timestamp="2021-04-03T14:37:26Z" changeset="102238800" uid="7327100" user="sgtbrobee">
    <nd ref="2154446686"/>
    <nd ref="2154446661"/>
    <nd ref="2154446667"/>
    <nd ref="2154446682"/>
    <nd ref="2154446686"/>
    <tag k="addr:city" v="München"/>
    <tag k="addr:country" v="DE"/>
    <tag k="addr:housenumber" v="24"/>
    <tag k="addr:street" v="Michaeliburgstraße"/>
    <tag k="building" v="residential"/>
    <tag k="building:levels" v="2"/>
    <tag k="roof:levels" v="1"/>
  </way>
  <way id="205478653" version="2" timestamp="2021-04-03T14:37:22Z" changeset="102238800" uid="7327100" user="sgtbrobee">
    <nd ref="2154446698"/>
    <nd ref="2154446665"/>
    <nd ref="2154446682"/>
    <nd ref="2154446667"/>
    <nd ref="2154446698"/>
    <tag k="addr:city" v="München"/>
    <tag k="addr:country" v="DE"/>
    <tag k="addr:housenumber" v="22"/>
    <tag k="addr:street" v="Michaeliburgstraße"/>
    <tag k="building" v="residential"/>
    <tag k="building:levels" v="2"/>
    <tag k="roof:levels" v="1"/>
  </way>
  <way id="205485092" version="2" timestamp="2024-09-03T07:54:39Z" changeset="156129775" uid="88803" user="Rainer Jung">
    <nd ref="2154485758"/>
    <nd ref="2154485794"/>
    <nd ref="2154485771"/>
    <nd ref="2154485787"/>
    <nd ref="2154485758"/>
    <tag k="addr:city" v="München"/>
    <tag k="addr:country" v="DE"/>
    <tag k="addr:housenumber" v="42"/>
    <tag k="addr:street" v="Großvenedigerstraße"/>
    <tag k="building" v="residential"/>
    <tag k="building:levels" v="1"/>
    <tag k="roof:levels" v="1"/>
  </way>
  <way id="205485093" version="3" timestamp="2024-09-03T07:55:07Z" changeset="156129781" uid="88803" user="Rainer Jung">
    <nd ref="2154485762"/>
    <nd ref="2154485776"/>
    <nd ref="2154485783"/>
    <nd ref="2154485791"/>
    <nd ref="2154485762"/>
    <tag k="addr:city" v="München"/>
    <tag k="addr:country" v="DE"/>
    <tag k="addr:housenumber" v="38"/>
    <tag k="addr:street" v="Großvenedigerstraße"/>
    <tag k="building" v="residential"/>
    <tag k="building:levels" v="2"/>
    <tag k="roof:levels" v="1"/>
    <tag k="roof:shape" v="gabled"/>
  </way>
  <way id="205485094" version="3" timestamp="2024-09-03T07:54:58Z" changeset="156129781" uid="88803" user="Rainer Jung">
    <nd ref="2154485766"/>
    <nd ref="2154485779"/>
    <nd ref="2154485745"/>
    <nd ref="2154485799"/>
    <nd ref="2154485766"/>
    <tag k="addr:city" v="München"/>
    <tag k="addr:country" v="DE"/>
    <tag k="addr:housenumber" v="40"/>
    <tag k="addr:street" v="Großvenedigerstraße"/>
    <tag k="building" v="residential"/>
    <tag k="building:levels" v="1"/>
    <tag k="roof:levels" v="1"/>
    <tag k="roof:shape" v="gabled"/>
  </way>
  <way id="205485095" version="3" timestamp="2024-09-03T07:55:17Z" changeset="156129781" uid="88803" user="Rainer Jung">
    <nd ref="2154485752"/>
    <nd ref="2154485740"/>
    <nd ref="2154485801"/>
    <nd ref="2154485749"/>
    <nd ref="2154485752"/>
    <tag k="addr:city" v="München"/>
    <tag k="addr:country" v="DE"/>
    <tag k="addr:housenumber" v="36"/>
    <tag k="addr:street" v="Großvenedigerstraße"/>
    <tag k="building" v="residential"/>
    <tag k="building:levels" v="1"/>
    <tag k="roof:levels" v="1"/>
    <tag k="roof:shape" v="gabled"/>
  </way>
  <way id="205485219" version="4" timestamp="2024-09-03T07:54:24Z" changeset="156129781" uid="88803" user="Rainer Jung">
    <nd ref="2929877797"/>
    <nd ref="2929877796"/>
    <nd ref="2154486286"/>
    <nd ref="2154486294"/>
    <nd ref="2929877797"/>
    <tag k="addr:city" v="München"/>
    <tag k="addr:country" v="DE"/>
    <tag k="addr:housenumber" v="44"/>
    <tag k="addr:street" v="Großvenedigerstraße"/>
    <tag k="building" v="residential"/>
    <tag k="building:levels" v="2"/>
    <tag k="roof:levels" v="1"/>
    <tag k="roof:shape" v="gabled"/>
  </way>
  <way id="205485835" version="1" timestamp="2013-02-14T13:36:08Z" changeset="15028615" uid="289251" user="SAS6667">
    <nd ref="2154491465"/>
    <nd ref="2154491434"/>
    <nd ref="2154491466"/>
    <nd ref="2154491414"/>
    <nd ref="2154491465"/>
    <tag k="addr:city" v="München"/>
    <tag k="addr:country" v="DE"/>
    <tag k="addr:housenumber" v="35"/>
    <tag k="addr:street" v="Großvenedigerstraße"/>
    <tag k="building" v="residential"/>
  </way>
  <way id="205485837" version="8" timestamp="2025-04-29T18:48:17Z" changeset="165604877" uid="817113" user="santon">
    <nd ref="2154491421"/>
    <nd ref="2154491464"/>
    <nd ref="2154491452"/>
    <nd ref="2154491437"/>
    <nd ref="9442947532"/>
    <nd ref="2154491421"/>
    <tag k="addr:city" v="München"/>
    <tag k="addr:country" v="DE"/>
    <tag k="addr:housenumber" v="29"/>
    <tag k="addr:postcode" v="81671"/>
    <tag k="addr:street" v="Großvenedigerstraße"/>
    <tag k="amenity" v="place_of_worship"/>
    <tag k="building" v="church"/>
    <tag k="check_date" v="2025-04-29"/>
    <tag k="denomination" v="new_apostolic"/>
    <tag k="name" v="Neuapostolische Kirche"/>
    <tag k="religion" v="christian"/>
    <tag k="wheelchair" v="yes"/>
  </way>
  <way id="205485839" version="1" timestamp="2013-02-14T13:36:09Z" changeset="15028615" uid="289251" user="SAS6667">
    <nd ref="2154491461"/>
    <nd ref="2154491448"/>
    <nd ref="2154491424"/>
    <nd ref="2154491459"/>
    <nd ref="2154491461"/>
    <tag k="addr:city" v="München"/>
    <tag k="addr:country" v="DE"/>
    <tag k="addr:housenumber" v="33"/>
    <tag k="addr:street" v="Großvenedigerstraße"/>
    <tag k="building" v="residential"/>
  </way>
  <way id="205485842" version="2" timestamp="2013-10-21T13:59:54Z" changeset="18469463" uid="14390" user="BeKri">
    <nd ref="2154491405"/>
    <nd ref="2154491467"/>
    <nd ref="2154491450"/>
    <nd ref="2154491471"/>
    <nd ref="2154491405"/>
    <tag k="addr:city" v="München"/>
    <tag k="addr:country" v="DE"/>
    <tag k="addr:housenumber" v="33a"/>
    <tag k="addr:street" v="Großvenedigerstraße"/>
    <tag k="building" v="residential"/>
  </way>
  <way id="205485844" version="2" timestamp="2013-10-21T13:59:54Z" changeset="18469463" uid="14390" user="BeKri">
    <nd ref="2154491457"/>
    <nd ref="2154491470"/>
    <nd ref="2154491422"/>
    <nd ref="2154491463"/>
    <nd ref="2154491457"/>
    <tag k="addr:city" v="München"/>
    <tag k="addr:country" v="DE"/>
    <tag k="addr:housenumber" v="35a"/>
    <tag k="addr:street" v="Großvenedigerstraße"/>
    <tag k="building" v="residential"/>
  </way>
  <way id="205485845" version="3" timestamp="2024-09-03T07:55:46Z" changeset="156129781" uid="88803" user="Rainer Jung">
    <nd ref="2154491440"/>
    <nd ref="2154491468"/>
    <nd ref="2154491427"/>
    <nd ref="2154491417"/>
    <nd ref="2154491440"/>
    <tag k="addr:city" v="München"/>
    <tag k="addr:country" v="DE"/>
    <tag k="addr:housenumber" v="32"/>
    <tag k="addr:street" v="Großvenedigerstraße"/>
    <tag k="building" v="residential"/>
    <tag k="building:levels" v="2"/>
    <tag k="roof:levels" v="2"/>
    <tag k="roof:shape" v="gabled"/>
  </way>
  <way id="205485847" version="1" timestamp="2013-02-14T13:36:09Z" changeset="15028615" uid="289251" user="SAS6667">
    <nd ref="2154491472"/>
    <nd ref="2154491431"/>
    <nd ref="2154491454"/>
    <nd ref="2154491408"/>
    <nd ref="2154491472"/>
    <tag k="addr:city" v="München"/>
    <tag k="addr:country" v="DE"/>
    <tag k="addr:housenumber" v="49"/>
    <tag k="addr:street" v="Großvenedigerstraße"/>
    <tag k="building" v="residential"/>
  </way>
  <way id="205486094" version="2" timestamp="2013-10-21T13:59:56Z" changeset="18469463" uid="14390" user="BeKri">
    <nd ref="2154491944"/>
    <nd ref="2154491943"/>
    <nd ref="2154491945"/>
    <nd ref="2154491947"/>
    <nd ref="2154491944"/>
    <tag k="addr:city" v="München"/>
    <tag k="addr:country" v="DE"/>
    <tag k="addr:housenumber" v="41a"/>
    <tag k="addr:street" v="Großvenedigerstraße"/>
    <tag k="building" v="residential"/>
  </way>
  <way id="205486095" version="2" timestamp="2013-10-21T13:59:55Z" changeset="18469463" uid="14390" user="BeKri">
    <nd ref="2154491934"/>
    <nd ref="2154491936"/>
    <nd ref="2154491953"/>
    <nd ref="2154491942"/>
    <nd ref="2154491934"/>
    <tag k="addr:city" v="München"/>
    <tag k="addr:country" v="DE"/>
    <tag k="addr:housenumber" v="37a"/>
    <tag k="addr:street" v="Großvenedigerstraße"/>
    <tag k="building" v="residential"/>
  </way>
  <way id="205486096" version="1" timestamp="2013-02-14T13:37:52Z" changeset="15028615" uid="289251" user="SAS6667">
    <nd ref="2154491950"/>
    <nd ref="2154491937"/>
    <nd ref="2154491938"/>
    <nd ref="2154491952"/>
    <nd ref="2154491950"/>
    <tag k="addr:city" v="München"/>
    <tag k="addr:country" v="DE"/>
    <tag k="addr:housenumber" v="39"/>
    <tag k="addr:street" v="Großvenedigerstraße"/>
    <tag k="building" v="residential"/>
  </way>
  <way id="205486097" version="1" timestamp="2013-02-14T13:37:52Z" changeset="15028615" uid="289251" user="SAS6667">
    <nd ref="2154491948"/>
    <nd ref="2154491940"/>
    <nd ref="2154491941"/>
    <nd ref="2154491951"/>
    <nd ref="2154491948"/>
    <tag k="addr:city" v="München"/>
    <tag k="addr:country" v="DE"/>
    <tag k="addr:housenumber" v="37"/>
    <tag k="addr:street" v="Großvenedigerstraße"/>
    <tag k="building" v="residential"/>
  </way>
  <way id="205486098" version="1" timestamp="2013-02-14T13:37:53Z" changeset="15028615" uid="289251" user="SAS6667">
    <nd ref="2154491939"/>
    <nd ref="2154491935"/>
    <nd ref="2154491949"/>
    <nd ref="2154491946"/>
    <nd ref="2154491939"/>
    <tag k="addr:city" v="München"/>
    <tag k="addr:country" v="DE"/>
    <tag k="addr:housenumber" v="41"/>
    <tag k="addr:street" v="Großvenedigerstraße"/>
    <tag k="building" v="residential"/>
  </way>
  <way id="205486778" version="2" timestamp="2021-08-31T16:57:17Z" changeset="110524148" uid="133822" user="schoffer">
    <nd ref="2154497319"/>
    <nd ref="2154497311"/>
    <nd ref="2154497313"/>
    <nd ref="2154497316"/>
    <nd ref="2154497319"/>
    <tag k="addr:city" v="München"/>
    <tag k="addr:country" v="DE"/>
    <tag k="addr:housenumber" v="25"/>
    <tag k="addr:street" v="Michaeliburgstraße"/>
    <tag k="building" v="residential"/>
    <tag k="building:levels" v="1"/>
    <tag k="roof:levels" v="2"/>
  </way>
  <way id="205486779" version="3" timestamp="2021-08-31T16:57:00Z" changeset="110524095" uid="133822" user="schoffer">
    <nd ref="2154497310"/>
    <nd ref="2154497303"/>
    <nd ref="2154497317"/>
    <nd ref="2154497296"/>
    <nd ref="2154497310"/>
    <tag k="addr:city" v="München"/>
    <tag k="addr:country" v="DE"/>
    <tag k="addr:housenumber" v="23"/>
    <tag k="addr:street" v="Michaeliburgstraße"/>
    <tag k="building" v="residential"/>
    <tag k="building:levels" v="2"/>
    <tag k="roof:levels" v="1"/>
    <tag k="roof:shape" v="double_saltbox"/>
  </way>
  <way id="205486780" version="5" timestamp="2021-05-08T19:52:11Z" changeset="104377254" uid="137242" user="Rainero">
    <nd ref="2154497314"/>
    <nd ref="2154497305"/>
    <nd ref="2154497300"/>
    <nd ref="2154497299"/>
    <nd ref="2154497309"/>
    <nd ref="2154497301"/>
    <nd ref="2154497297"/>
    <nd ref="2154497306"/>
    <nd ref="2154497314"/>
    <tag k="addr:city" v="München"/>
    <tag k="addr:country" v="DE"/>
    <tag k="addr:housenumber" v="13"/>
    <tag k="addr:postcode" v="81671"/>
    <tag k="addr:street" v="Hochriesstraße"/>
    <tag k="building" v="apartments"/>
    <tag k="building:levels" v="3"/>
    <tag k="roof:levels" v="0"/>
  </way>
  <way id="205488611" version="1" timestamp="2013-02-14T14:03:44Z" changeset="15028615" uid="289251" user="SAS6667">
    <nd ref="2154510886"/>
    <nd ref="2154510903"/>
    <nd ref="2154510873"/>
    <nd ref="2154510927"/>
    <nd ref="2154510886"/>
    <tag k="addr:city" v="München"/>
    <tag k="addr:country" v="DE"/>
    <tag k="addr:housenumber" v="5"/>
    <tag k="addr:street" v="Hochriesstraße"/>
    <tag k="building" v="residential"/>
  </way>
  <way id="205488612" version="3" timestamp="2021-08-31T16:55:07Z" changeset="110524095" uid="133822" user="schoffer">
    <nd ref="2154510925"/>
    <nd ref="2154510920"/>
    <nd ref="2154510907"/>
    <nd ref="2154510929"/>
    <nd ref="2154510925"/>
    <tag k="addr:city" v="München"/>
    <tag k="addr:country" v="DE"/>
    <tag k="addr:housenumber" v="8"/>
    <tag k="addr:street" v="Hochriesstraße"/>
    <tag k="building" v="residential"/>
    <tag k="building:levels" v="2"/>
    <tag k="roof:levels" v="2"/>
    <tag k="roof:shape" v="double_saltbox"/>
  </way>
  <way id="205488613" version="2" timestamp="2024-07-08T20:45:13Z" changeset="153720697" uid="137242" user="Rainero">
    <nd ref="2154510932"/>
    <nd ref="2154510882"/>
    <nd ref="2154510880"/>
    <nd ref="2154510869"/>
    <nd ref="12042466255"/>
    <nd ref="2154510932"/>
    <tag k="addr:city" v="München"/>
    <tag k="addr:country" v="DE"/>
    <tag k="addr:housenumber" v="9"/>
    <tag k="addr:street" v="Hochriesstraße"/>
    <tag k="building" v="residential"/>
    <tag k="roof:colour" v="#a97f74"/>
    <tag k="roof:shape" v="hipped"/>
  </way>
  <way id="205488614" version="3" timestamp="2021-05-08T19:52:11Z" changeset="104377254" uid="137242" user="Rainero">
    <nd ref="2154510884"/>
    <nd ref="2154510890"/>
    <nd ref="2154510922"/>
    <nd ref="2154510878"/>
    <nd ref="2154510884"/>
    <tag k="addr:city" v="München"/>
    <tag k="addr:country" v="DE"/>
    <tag k="addr:housenumber" v="13a"/>
    <tag k="addr:postcode" v="81671"/>
    <tag k="addr:street" v="Hochriesstraße"/>
    <tag k="building" v="residential"/>
  </way>
  <way id="205488615" version="1" timestamp="2013-02-14T14:03:44Z" changeset="15028615" uid="289251" user="SAS6667">
    <nd ref="2154510901"/>
    <nd ref="2154510928"/>
    <nd ref="2154510867"/>
    <nd ref="2154510916"/>
    <nd ref="2154510901"/>
    <tag k="addr:city" v="München"/>
    <tag k="addr:country" v="DE"/>
    <tag k="addr:housenumber" v="7"/>
    <tag k="addr:street" v="Hochriesstraße"/>
    <tag k="building" v="residential"/>
  </way>
  <way id="205488616" version="1" timestamp="2013-02-14T14:03:44Z" changeset="15028615" uid="289251" user="SAS6667">
    <nd ref="2154510912"/>
    <nd ref="2154510865"/>
    <nd ref="2154510909"/>
    <nd ref="2154510871"/>
    <nd ref="2154510912"/>
    <tag k="addr:city" v="München"/>
    <tag k="addr:country" v="DE"/>
    <tag k="addr:housenumber" v="3"/>
    <tag k="addr:street" v="Hochriesstraße"/>
    <tag k="building" v="residential"/>
  </way>
  <way id="205488617" version="2" timestamp="2013-10-21T14:00:00Z" changeset="18469463" uid="14390" user="BeKri">
    <nd ref="2154510863"/>
    <nd ref="2154510861"/>
    <nd ref="2154510867"/>
    <nd ref="2154510916"/>
    <nd ref="2154510863"/>
    <tag k="addr:city" v="München"/>
    <tag k="addr:country" v="DE"/>
    <tag k="addr:housenumber" v="7a"/>
    <tag k="addr:street" v="Hochriesstraße"/>
    <tag k="building" v="residential"/>
  </way>
  <way id="205488618" version="3" timestamp="2021-03-29T19:52:50Z" changeset="101937702" uid="133822" user="schoffer">
    <nd ref="2154510875"/>
    <nd ref="2154510930"/>
    <nd ref="2154510918"/>
    <nd ref="2154510899"/>
    <nd ref="2154510875"/>
    <tag k="addr:city" v="München"/>
    <tag k="addr:country" v="DE"/>
    <tag k="addr:housenumber" v="4"/>
    <tag k="addr:street" v="Hochriesstraße"/>
    <tag k="building" v="residential"/>
    <tag k="building:levels" v="1"/>
    <tag k="roof:levels" v="1"/>
    <tag k="roof:shape" v="gabled"/>
  </way>
  <way id="205488619" version="4" timestamp="2021-03-29T19:52:31Z" changeset="101937702" uid="133822" user="schoffer">
    <nd ref="2154510856"/>
    <nd ref="2154510905"/>
    <nd ref="2154510859"/>
    <nd ref="2154510888"/>
    <nd ref="2154510856"/>
    <tag k="addr:city" v="München"/>
    <tag k="addr:country" v="DE"/>
    <tag k="addr:housenumber" v="1a"/>
    <tag k="addr:street" v="Hochriesstraße"/>
    <tag k="building" v="residential"/>
    <tag k="building:levels" v="2"/>
    <tag k="roof:levels" v="1"/>
    <tag k="roof:shape" v="hipped"/>
  </way>
  <way id="205489559" version="5" timestamp="2021-03-29T19:51:24Z" changeset="101937702" uid="133822" user="schoffer">
    <nd ref="2154519437"/>
    <nd ref="2154519448"/>
    <nd ref="2154519440"/>
    <nd ref="2154519445"/>
    <nd ref="2154519437"/>
    <tag k="addr:city" v="München"/>
    <tag k="addr:country" v="DE"/>
    <tag k="addr:housenumber" v="20b"/>
    <tag k="addr:street" v="Hachinger-Bach-Straße"/>
    <tag k="building" v="residential"/>
    <tag k="building:levels" v="2"/>
    <tag k="roof:levels" v="1"/>
    <tag k="roof:shape" v="hipped"/>
  </way>
  <way id="205489560" version="5" timestamp="2018-10-27T21:34:31Z" changeset="63938062" uid="8998605" user="tacist">
    <nd ref="2154519446"/>
    <nd ref="2154519443"/>
    <nd ref="5216003255"/>
    <nd ref="5216003256"/>
    <nd ref="2154519439"/>
    <nd ref="2154519441"/>
    <nd ref="5216003260"/>
    <nd ref="5216003259"/>
    <nd ref="2154519446"/>
    <tag k="addr:city" v="München"/>
    <tag k="addr:country" v="DE"/>
    <tag k="addr:housenumber" v="22"/>
    <tag k="addr:street" v="Hachinger-Bach-Straße"/>
    <tag k="building" v="residential"/>
    <tag k="building:levels" v="2"/>
    <tag k="roof:levels" v="0"/>
  </way>
  <way id="205489640" version="3" timestamp="2022-06-07T10:26:43Z" changeset="122065332" uid="88803" user="Rainer Jung">
    <nd ref="2154519998"/>
    <nd ref="2154520002"/>
    <nd ref="2154520000"/>
    <nd ref="2154520001"/>
    <nd ref="2154497312"/>
    <nd ref="2154520003"/>
    <nd ref="2154519999"/>
    <nd ref="2154519998"/>
    <tag k="addr:city" v="München"/>
    <tag k="addr:country" v="DE"/>
    <tag k="addr:housenumber" v="50"/>
    <tag k="addr:street" v="Großvenedigerstraße"/>
    <tag k="building" v="residential"/>
    <tag k="building:levels" v="2"/>
    <tag k="roof:levels" v="1"/>
  </way>
  <way id="205489970" version="4" timestamp="2022-05-28T13:10:43Z" changeset="121616541" uid="536583" user="Strubbl">
    <nd ref="2154523361"/>
    <nd ref="5216003253"/>
    <nd ref="2154523357"/>
    <nd ref="2154523358"/>
    <nd ref="2154523360"/>
    <nd ref="5216003252"/>
    <nd ref="2154486764"/>
    <nd ref="5216003254"/>
    <nd ref="2154523361"/>
    <tag k="addr:city" v="München"/>
    <tag k="addr:country" v="DE"/>
    <tag k="addr:housenumber" v="48"/>
    <tag k="addr:street" v="Großvenedigerstraße"/>
    <tag k="building" v="residential"/>
    <tag k="building:levels" v="1"/>
    <tag k="roof:levels" v="1"/>
    <tag k="roof:shape" v="gabled"/>
  </way>
  <way id="205490108" version="6" timestamp="2021-06-13T09:41:27Z" changeset="106276906" uid="26299" user="uboot">
    <nd ref="2154527255"/>
    <nd ref="2154527226"/>
    <nd ref="2154527230"/>
    <nd ref="2154527199"/>
    <nd ref="2154527255"/>
    <tag k="addr:housenumber" v="1"/>
    <tag k="addr:street" v="Hochfellnstraße"/>
    <tag k="building" v="detached"/>
    <tag k="building:levels" v="1"/>
    <tag k="roof:levels" v="1"/>
    <tag k="roof:shape" v="gabled"/>
  </way>
  <way id="205590207" version="2" timestamp="2014-06-23T19:37:00Z" changeset="23109059" uid="8703" user="rolandg">
    <nd ref="2155628263"/>
    <nd ref="2155628266"/>
    <nd ref="2155628267"/>
    <nd ref="2155628258"/>
    <nd ref="2155628263"/>
    <tag k="addr:city" v="München"/>
    <tag k="addr:country" v="DE"/>
    <tag k="addr:housenumber" v="45a"/>
    <tag k="addr:street" v="Großvenedigerstraße"/>
    <tag k="building" v="residential"/>
  </way>
  <way id="205590208" version="2" timestamp="2013-06-20T19:46:40Z" changeset="16634981" uid="8748" user="ToniE">
    <nd ref="2155628269"/>
    <nd ref="2155628270"/>
    <nd ref="2155628273"/>
    <nd ref="2155628256"/>
    <nd ref="2155628269"/>
    <tag k="addr:city" v="München"/>
    <tag k="addr:country" v="DE"/>
    <tag k="addr:housenumber" v="47"/>
    <tag k="addr:street" v="Großvenedigerstraße"/>
    <tag k="building" v="residential"/>
  </way>
  <way id="205590209" version="2" timestamp="2013-06-20T19:46:40Z" changeset="16634981" uid="8748" user="ToniE">
    <nd ref="2155628257"/>
    <nd ref="2155628278"/>
    <nd ref="2155628259"/>
    <nd ref="2155628277"/>
    <nd ref="2155628257"/>
    <tag k="addr:city" v="München"/>
    <tag k="addr:country" v="DE"/>
    <tag k="addr:housenumber" v="45"/>
    <tag k="addr:street" v="Großvenedigerstraße"/>
    <tag k="building" v="residential"/>
  </way>
  <way id="205590210" version="2" timestamp="2013-06-20T19:46:40Z" changeset="16634981" uid="8748" user="ToniE">
    <nd ref="2155628264"/>
    <nd ref="2155628268"/>
    <nd ref="2155628261"/>
    <nd ref="2155628279"/>
    <nd ref="2155628264"/>
    <tag k="addr:city" v="München"/>
    <tag k="addr:country" v="DE"/>
    <tag k="addr:housenumber" v="43"/>
    <tag k="addr:street" v="Großvenedigerstraße"/>
    <tag k="building" v="residential"/>
  </way>
  <way id="205590212" version="2" timestamp="2014-04-16T20:03:07Z" changeset="21737134" uid="930414" user="track_manuel">
    <nd ref="2155628276"/>
    <nd ref="2155628271"/>
    <nd ref="2155628275"/>
    <nd ref="2155628265"/>
    <nd ref="2155628276"/>
    <tag k="addr:city" v="München"/>
    <tag k="addr:country" v="DE"/>
    <tag k="addr:housenumber" v="43a"/>
    <tag k="addr:street" v="Großvenedigerstraße"/>
    <tag k="building" v="residential"/>
  </way>
  <way id="205590666" version="2" timestamp="2014-06-23T19:37:58Z" changeset="23109059" uid="8703" user="rolandg">
    <nd ref="2155635675"/>
    <nd ref="2155635619"/>
    <nd ref="2155635650"/>
    <nd ref="2155635615"/>
    <nd ref="2155635675"/>
    <tag k="addr:city" v="München"/>
    <tag k="addr:country" v="DE"/>
    <tag k="addr:housenumber" v="47a"/>
    <tag k="addr:street" v="Großvenedigerstraße"/>
    <tag k="building" v="residential"/>
  </way>
  <way id="205590680" version="2" timestamp="2014-06-23T19:37:00Z" changeset="23109059" uid="8703" user="rolandg">
    <nd ref="2155635624"/>
    <nd ref="2155635611"/>
    <nd ref="2155635663"/>
    <nd ref="2155635645"/>
    <nd ref="2155635624"/>
    <tag k="addr:city" v="München"/>
    <tag k="addr:country" v="DE"/>
    <tag k="addr:housenumber" v="39a"/>
    <tag k="addr:street" v="Großvenedigerstraße"/>
    <tag k="building" v="residential"/>
  </way>
  <way id="205593145" version="2" timestamp="2013-02-15T12:00:08Z" changeset="15039284" uid="289251" user="SAS6667">
    <nd ref="2155659170"/>
    <nd ref="2155659174"/>
    <nd ref="2155659182"/>
    <nd ref="2155659160"/>
    <nd ref="2155659170"/>
    <tag k="addr:city" v="München"/>
    <tag k="addr:country" v="DE"/>
    <tag k="addr:housenumber" v="4"/>
    <tag k="addr:street" v="Heubergstraße"/>
    <tag k="building" v="residential"/>
  </way>
  <way id="205593186" version="2" timestamp="2013-02-15T12:00:08Z" changeset="15039284" uid="289251" user="SAS6667">
    <nd ref="2155659795"/>
    <nd ref="2155659808"/>
    <nd ref="2155659799"/>
    <nd ref="2155659787"/>
    <nd ref="2155659795"/>
    <tag k="addr:city" v="München"/>
    <tag k="addr:country" v="DE"/>
    <tag k="addr:housenumber" v="6"/>
    <tag k="addr:street" v="Heubergstraße"/>
    <tag k="building" v="residential"/>
  </way>
  <way id="205593187" version="2" timestamp="2013-02-15T12:00:07Z" changeset="15039284" uid="289251" user="SAS6667">
    <nd ref="2155659781"/>
    <nd ref="2155659805"/>
    <nd ref="2155659806"/>
    <nd ref="2155659800"/>
    <nd ref="2155659781"/>
    <tag k="addr:city" v="München"/>
    <tag k="addr:country" v="DE"/>
    <tag k="addr:housenumber" v="20"/>
    <tag k="addr:street" v="Heubergstraße"/>
    <tag k="building" v="residential"/>
  </way>
  <way id="205593188" version="2" timestamp="2013-02-15T12:00:07Z" changeset="15039284" uid="289251" user="SAS6667">
    <nd ref="2155659782"/>
    <nd ref="2155659785"/>
    <nd ref="2155659796"/>
    <nd ref="2155659784"/>
    <nd ref="2155659782"/>
    <tag k="addr:city" v="München"/>
    <tag k="addr:country" v="DE"/>
    <tag k="addr:housenumber" v="16"/>
    <tag k="addr:street" v="Heubergstraße"/>
    <tag k="building" v="residential"/>
  </way>
  <way id="205593189" version="2" timestamp="2013-02-15T12:00:08Z" changeset="15039284" uid="289251" user="SAS6667">
    <nd ref="2155659804"/>
    <nd ref="2155659794"/>
    <nd ref="2155659792"/>
    <nd ref="2155659807"/>
    <nd ref="2155659804"/>
    <tag k="addr:city" v="München"/>
    <tag k="addr:country" v="DE"/>
    <tag k="addr:housenumber" v="14"/>
    <tag k="addr:street" v="Heubergstraße"/>
    <tag k="building" v="residential"/>
  </way>
  <way id="205593190" version="2" timestamp="2013-02-15T12:00:08Z" changeset="15039284" uid="289251" user="SAS6667">
    <nd ref="2155659802"/>
    <nd ref="2155659797"/>
    <nd ref="2155659798"/>
    <nd ref="2155659790"/>
    <nd ref="2155659802"/>
    <tag k="addr:city" v="München"/>
    <tag k="addr:country" v="DE"/>
    <tag k="addr:housenumber" v="12"/>
    <tag k="addr:street" v="Heubergstraße"/>
    <tag k="building" v="residential"/>
  </way>
  <way id="205593192" version="2" timestamp="2013-02-15T12:00:08Z" changeset="15039284" uid="289251" user="SAS6667">
    <nd ref="2155659811"/>
    <nd ref="2155659809"/>
    <nd ref="2155659791"/>
    <nd ref="2155659801"/>
    <nd ref="2155659811"/>
    <tag k="addr:city" v="München"/>
    <tag k="addr:country" v="DE"/>
    <tag k="addr:housenumber" v="10"/>
    <tag k="addr:street" v="Heubergstraße"/>
    <tag k="building" v="residential"/>
  </way>
  <way id="205618271" version="1" timestamp="2013-02-15T12:00:07Z" changeset="15039284" uid="289251" user="SAS6667">
    <nd ref="2155894320"/>
    <nd ref="2155659785"/>
    <nd ref="2155659782"/>
    <nd ref="2155894317"/>
    <nd ref="2155894320"/>
    <tag k="addr:city" v="München"/>
    <tag k="addr:country" v="DE"/>
    <tag k="addr:housenumber" v="18"/>
    <tag k="addr:street" v="Heubergstraße"/>
    <tag k="building" v="residential"/>
  </way>
  <way id="205618272" version="1" timestamp="2013-02-15T12:00:07Z" changeset="15039284" uid="289251" user="SAS6667">
    <nd ref="2155894319"/>
    <nd ref="2155659805"/>
    <nd ref="2155659781"/>
    <nd ref="2155894318"/>
    <nd ref="2155894319"/>
    <tag k="addr:city" v="München"/>
    <tag k="addr:country" v="DE"/>
    <tag k="addr:housenumber" v="22"/>
    <tag k="addr:street" v="Heubergstraße"/>
    <tag k="building" v="residential"/>
  </way>
  <way id="205619033" version="2" timestamp="2013-10-29T05:09:09Z" changeset="18595642" uid="14390" user="BeKri">
    <nd ref="2155901919"/>
    <nd ref="2155901918"/>
    <nd ref="2155901926"/>
    <nd ref="2155901922"/>
    <nd ref="2155901924"/>
    <nd ref="2155901919"/>
    <tag k="addr:city" v="München"/>
    <tag k="addr:country" v="DE"/>
    <tag k="addr:housenumber" v="15d"/>
    <tag k="addr:street" v="Heubergstraße"/>
    <tag k="building" v="residential"/>
  </way>
  <way id="205619756" version="1" timestamp="2013-02-15T12:10:22Z" changeset="15039284" uid="289251" user="SAS6667">
    <nd ref="2155904196"/>
    <nd ref="2155904195"/>
    <nd ref="2155904197"/>
    <nd ref="2155904194"/>
    <nd ref="2155904196"/>
    <tag k="addr:city" v="München"/>
    <tag k="addr:country" v="DE"/>
    <tag k="addr:housenumber" v="11"/>
    <tag k="addr:street" v="Heubergstraße"/>
    <tag k="building" v="residential"/>
  </way>
  <way id="205619757" version="2" timestamp="2013-10-29T05:09:08Z" changeset="18595642" uid="14390" user="BeKri">
    <nd ref="2155904195"/>
    <nd ref="2155904197"/>
    <nd ref="2155904183"/>
    <nd ref="2155904191"/>
    <nd ref="2155904195"/>
    <tag k="addr:city" v="München"/>
    <tag k="addr:country" v="DE"/>
    <tag k="addr:housenumber" v="11a"/>
    <tag k="addr:street" v="Heubergstraße"/>
    <tag k="building" v="residential"/>
  </way>
  <way id="205619759" version="2" timestamp="2013-10-29T05:09:09Z" changeset="18595642" uid="14390" user="BeKri">
    <nd ref="2155904184"/>
    <nd ref="2155904192"/>
    <nd ref="2155904198"/>
    <nd ref="2155904186"/>
    <nd ref="2155904184"/>
    <tag k="addr:city" v="München"/>
    <tag k="addr:country" v="DE"/>
    <tag k="addr:housenumber" v="15c"/>
    <tag k="addr:street" v="Heubergstraße"/>
    <tag k="building" v="residential"/>
  </way>
  <way id="205619760" version="1" timestamp="2013-02-15T12:10:23Z" changeset="15039284" uid="289251" user="SAS6667">
    <nd ref="2155904188"/>
    <nd ref="2155904187"/>
    <nd ref="2155904182"/>
    <nd ref="2155904190"/>
    <nd ref="2155904188"/>
    <tag k="addr:city" v="München"/>
    <tag k="addr:country" v="DE"/>
    <tag k="addr:housenumber" v="13"/>
    <tag k="addr:street" v="Heubergstraße"/>
    <tag k="building" v="residential"/>
  </way>
  <way id="205619904" version="1" timestamp="2013-02-15T12:13:48Z" changeset="15039284" uid="289251" user="SAS6667">
    <nd ref="2155905683"/>
    <nd ref="2155905694"/>
    <nd ref="2155905691"/>
    <nd ref="2155905684"/>
    <nd ref="2155905693"/>
    <nd ref="2155905683"/>
    <tag k="addr:city" v="München"/>
    <tag k="addr:country" v="DE"/>
    <tag k="addr:housenumber" v="7"/>
    <tag k="addr:street" v="Heubergstraße"/>
    <tag k="building" v="residential"/>
  </way>
  <way id="205619908" version="1" timestamp="2013-02-15T12:13:48Z" changeset="15039284" uid="289251" user="SAS6667">
    <nd ref="2155905690"/>
    <nd ref="2155905671"/>
    <nd ref="2155905670"/>
    <nd ref="2155905689"/>
    <nd ref="2155905690"/>
    <tag k="addr:city" v="München"/>
    <tag k="addr:country" v="DE"/>
    <tag k="addr:housenumber" v="9"/>
    <tag k="addr:street" v="Heubergstraße"/>
    <tag k="building" v="residential"/>
  </way>
  <way id="205619909" version="1" timestamp="2013-02-15T12:13:48Z" changeset="15039284" uid="289251" user="SAS6667">
    <nd ref="2155905668"/>
    <nd ref="2155905683"/>
    <nd ref="2155905693"/>
    <nd ref="2155905680"/>
    <nd ref="2155905668"/>
    <tag k="addr:city" v="München"/>
    <tag k="addr:country" v="DE"/>
    <tag k="addr:housenumber" v="5"/>
    <tag k="addr:street" v="Heubergstraße"/>
    <tag k="building" v="residential"/>
  </way>
  <way id="205620285" version="1" timestamp="2013-02-15T12:18:58Z" changeset="15039284" uid="289251" user="SAS6667">
    <nd ref="2155910351"/>
    <nd ref="1933581953"/>
    <nd ref="1933582083"/>
    <nd ref="2155910350"/>
    <nd ref="2155910351"/>
    <tag k="addr:city" v="München"/>
    <tag k="addr:country" v="DE"/>
    <tag k="addr:housenumber" v="68"/>
    <tag k="addr:street" v="Sonnwendjochstraße"/>
    <tag k="building" v="residential"/>
  </way>
  <way id="205622146" version="1" timestamp="2013-02-15T12:38:03Z" changeset="15039284" uid="289251" user="SAS6667">
    <nd ref="2155924990"/>
    <nd ref="2155924987"/>
    <nd ref="2155924980"/>
    <nd ref="2155924988"/>
    <nd ref="2155924990"/>
    <tag k="addr:city" v="München"/>
    <tag k="addr:country" v="DE"/>
    <tag k="addr:housenumber" v="18"/>
    <tag k="addr:street" v="Gratlspitzstraße"/>
    <tag k="building" v="residential"/>
  </way>
  <way id="205622150" version="1" timestamp="2013-02-15T12:38:03Z" changeset="15039284" uid="289251" user="SAS6667">
    <nd ref="2155924993"/>
    <nd ref="2155924994"/>
    <nd ref="2155924992"/>
    <nd ref="2155924989"/>
    <nd ref="2155924993"/>
    <tag k="addr:city" v="München"/>
    <tag k="addr:country" v="DE"/>
    <tag k="addr:housenumber" v="72"/>
    <tag k="addr:street" v="Sonnwendjochstraße"/>
    <tag k="building" v="residential"/>
  </way>
  <way id="205622326" version="1" timestamp="2013-02-15T12:40:48Z" changeset="15039284" uid="289251" user="SAS6667">
    <nd ref="2155926653"/>
    <nd ref="2155926648"/>
    <nd ref="2155926628"/>
    <nd ref="2155926637"/>
    <nd ref="2155926653"/>
    <tag k="addr:city" v="München"/>
    <tag k="addr:country" v="DE"/>
    <tag k="addr:housenumber" v="74"/>
    <tag k="addr:street" v="Sonnwendjochstraße"/>
    <tag k="building" v="residential"/>
  </way>
  <way id="205622328" version="1" timestamp="2013-02-15T12:40:48Z" changeset="15039284" uid="289251" user="SAS6667">
    <nd ref="2155926644"/>
    <nd ref="2155926630"/>
    <nd ref="2155926651"/>
    <nd ref="2155926646"/>
    <nd ref="2155926644"/>
    <tag k="addr:city" v="München"/>
    <tag k="addr:country" v="DE"/>
    <tag k="addr:housenumber" v="76"/>
    <tag k="addr:street" v="Sonnwendjochstraße"/>
    <tag k="building" v="residential"/>
  </way>
  <way id="206378832" version="2" timestamp="2013-10-21T13:59:55Z" changeset="18469463" uid="14390" user="BeKri">
    <nd ref="2163853835"/>
    <nd ref="1949861806"/>
    <nd ref="1949861830"/>
    <nd ref="2163853836"/>
    <nd ref="2163853835"/>
    <tag k="addr:city" v="München"/>
    <tag k="addr:country" v="DE"/>
    <tag k="addr:housenumber" v="3a"/>
    <tag k="addr:postcode" v="81825"/>
    <tag k="addr:street" v="Wildalpjochstraße"/>
    <tag k="building" v="residential"/>
  </way>
  <way id="206378885" version="2" timestamp="2024-04-14T20:37:35Z" changeset="150009178" uid="137242" user="Rainero">
    <nd ref="2163854682"/>
    <nd ref="2163854684"/>
    <nd ref="11817248010"/>
    <nd ref="11817248009"/>
    <nd ref="2163854683"/>
    <nd ref="2163854685"/>
    <nd ref="2163854682"/>
    <tag k="addr:city" v="München"/>
    <tag k="addr:country" v="DE"/>
    <tag k="addr:housenumber" v="9"/>
    <tag k="addr:postcode" v="81825"/>
    <tag k="addr:street" v="Wildalpjochstraße"/>
    <tag k="building" v="residential"/>
  </way>
  <way id="206378949" version="2" timestamp="2025-05-16T10:35:30Z" changeset="166342833" uid="2052948" user="Maturi0n">
    <nd ref="2163855437"/>
    <nd ref="12841625770"/>
    <nd ref="12841625771"/>
    <nd ref="2163855439"/>
    <nd ref="12841625772"/>
    <nd ref="12841625773"/>
    <nd ref="2163855440"/>
    <nd ref="2163855434"/>
    <nd ref="2163855437"/>
    <tag k="addr:city" v="München"/>
    <tag k="addr:country" v="DE"/>
    <tag k="addr:housenumber" v="13"/>
    <tag k="addr:postcode" v="81825"/>
    <tag k="addr:street" v="Wildalpjochstraße"/>
    <tag k="building" v="residential"/>
  </way>
  <way id="206378950" version="1" timestamp="2013-02-20T13:44:45Z" changeset="15100317" uid="289251" user="SAS6667">
    <nd ref="2163855435"/>
    <nd ref="2163855436"/>
    <nd ref="2163855438"/>
    <nd ref="2163855433"/>
    <nd ref="2163855435"/>
    <tag k="addr:city" v="München"/>
    <tag k="addr:country" v="DE"/>
    <tag k="addr:housenumber" v="15"/>
    <tag k="addr:postcode" v="81825"/>
    <tag k="addr:street" v="Wildalpjochstraße"/>
    <tag k="building" v="residential"/>
  </way>
  <way id="206378991" version="2" timestamp="2013-02-20T13:52:05Z" changeset="15100317" uid="289251" user="SAS6667">
    <nd ref="2163855822"/>
    <nd ref="2163855821"/>
    <nd ref="2163855815"/>
    <nd ref="2163855818"/>
    <nd ref="2163855822"/>
    <tag k="addr:city" v="München"/>
    <tag k="addr:country" v="DE"/>
    <tag k="addr:housenumber" v="8"/>
    <tag k="addr:postcode" v="81825"/>
    <tag k="addr:street" v="Wildalpjochstraße"/>
    <tag k="building" v="residential"/>
  </way>
  <way id="206379378" version="1" timestamp="2013-02-20T13:52:04Z" changeset="15100317" uid="289251" user="SAS6667">
    <nd ref="2163860748"/>
    <nd ref="2163860725"/>
    <nd ref="2163860708"/>
    <nd ref="2163860723"/>
    <nd ref="2163860748"/>
    <tag k="addr:city" v="München"/>
    <tag k="addr:country" v="DE"/>
    <tag k="addr:housenumber" v="10"/>
    <tag k="addr:postcode" v="81825"/>
    <tag k="addr:street" v="Wildalpjochstraße"/>
    <tag k="building" v="residential"/>
  </way>
  <way id="206650139" version="3" timestamp="2020-12-14T14:37:07Z" changeset="95811454" uid="536583" user="Strubbl">
    <nd ref="2166885654"/>
    <nd ref="1594730140"/>
    <nd ref="1594730127"/>
    <nd ref="2166885653"/>
    <nd ref="2166885654"/>
    <tag k="addr:city" v="München"/>
    <tag k="addr:country" v="DE"/>
    <tag k="addr:housenumber" v="3"/>
    <tag k="addr:street" v="Gronsdorfer Straße"/>
    <tag k="building" v="residential"/>
    <tag k="building:levels" v="2"/>
    <tag k="roof:levels" v="1"/>
    <tag k="roof:shape" v="gabled"/>
  </way>
  <way id="216868140" version="14" timestamp="2025-05-02T17:34:49Z" changeset="165730105" uid="2409957" user="firefoxinspace">
    <nd ref="15687480"/>
    <nd ref="242163118"/>
    <nd ref="411670626"/>
    <nd ref="1701767456"/>
    <tag k="bicycle" v="yes"/>
    <tag k="dual_carriageway" v="yes"/>
    <tag k="foot" v="use_sidepath"/>
    <tag k="highway" v="tertiary"/>
    <tag k="lanes" v="2"/>
    <tag k="lit" v="yes"/>
    <tag k="maxspeed" v="30"/>
    <tag k="name" v="Sankt-Veit-Straße"/>
    <tag k="oneway" v="yes"/>
    <tag k="sidewalk" v="separate"/>
    <tag k="smoothness" v="good"/>
    <tag k="source:maxspeed" v="sign"/>
    <tag k="surface" v="asphalt"/>
    <tag k="turn:lanes" v="left|through;right"/>
  </way>
  <way id="218907681" version="11" timestamp="2023-11-08T15:37:46Z" changeset="143786508" uid="18493611" user="MunichWays">
    <nd ref="2281107305"/>
    <nd ref="14658525"/>
    <nd ref="1982619998"/>
    <nd ref="2163866468"/>
    <nd ref="3450738743"/>
    <nd ref="2163866483"/>
    <nd ref="2163866477"/>
    <nd ref="14658524"/>
    <nd ref="2163866486"/>
    <nd ref="2950437432"/>
    <nd ref="2950437378"/>
    <nd ref="14658516"/>
    <nd ref="2950437395"/>
    <nd ref="14658515"/>
    <nd ref="3675457230"/>
    <nd ref="2950450943"/>
    <tag k="class:bicycle" v="1"/>
    <tag k="highway" v="residential"/>
    <tag k="lanes" v="2"/>
    <tag k="lit" v="yes"/>
    <tag k="maxspeed" v="30"/>
    <tag k="name" v="Zehntfeldstraße"/>
    <tag k="sidewalk" v="both"/>
    <tag k="smoothness" v="good"/>
    <tag k="source:maxspeed" v="DE:zone:30"/>
    <tag k="surface" v="asphalt"/>
  </way>
  <way id="218907682" version="8" timestamp="2023-11-08T15:37:46Z" changeset="143786508" uid="18493611" user="MunichWays">
    <nd ref="2281107307"/>
    <nd ref="2281107306"/>
    <nd ref="14658528"/>
    <tag k="class:bicycle" v="1"/>
    <tag k="cycleway:both" v="no"/>
    <tag k="highway" v="residential"/>
    <tag k="lane_markings" v="no"/>
    <tag k="lit" v="yes"/>
    <tag k="maxspeed" v="50"/>
    <tag k="name" v="Zehntfeldstraße"/>
    <tag k="sidewalk" v="left"/>
    <tag k="sidewalk:left:surface" v="asphalt"/>
    <tag k="smoothness" v="good"/>
    <tag k="source:maxspeed" v="DE:urban"/>
    <tag k="surface" v="asphalt"/>
  </way>
  <way id="226617501" version="3" timestamp="2024-09-03T07:55:30Z" changeset="156129781" uid="88803" user="Rainer Jung">
    <nd ref="2353913654"/>
    <nd ref="2154481512"/>
    <nd ref="2154481500"/>
    <nd ref="2353913650"/>
    <nd ref="2353913654"/>
    <tag k="addr:city" v="München"/>
    <tag k="addr:country" v="DE"/>
    <tag k="addr:housenumber" v="34"/>
    <tag k="addr:street" v="Großvenedigerstraße"/>
    <tag k="building" v="residential"/>
    <tag k="building:levels" v="2"/>
    <tag k="roof:levels" v="1"/>
    <tag k="roof:shape" v="gabled"/>
  </way>
  <way id="226617502" version="4" timestamp="2024-09-03T07:55:28Z" changeset="156129781" uid="88803" user="Rainer Jung">
    <nd ref="2154481510"/>
    <nd ref="2353913654"/>
    <nd ref="2353913650"/>
    <nd ref="2154481507"/>
    <nd ref="2154481510"/>
    <tag k="addr:city" v="München"/>
    <tag k="addr:country" v="DE"/>
    <tag k="addr:housenumber" v="34a"/>
    <tag k="addr:street" v="Großvenedigerstraße"/>
    <tag k="building" v="residential"/>
    <tag k="building:levels" v="2"/>
    <tag k="roof:levels" v="1"/>
    <tag k="roof:shape" v="gabled"/>
  </way>
  <way id="234810008" version="2" timestamp="2014-04-21T17:28:56Z" changeset="21843474" uid="58185" user="Midas">
    <nd ref="2429415106"/>
    <nd ref="2429415103"/>
    <nd ref="2429415093"/>
    <nd ref="2429415098"/>
    <nd ref="2429415106"/>
    <tag k="addr:city" v="München"/>
    <tag k="addr:housenumber" v="23"/>
    <tag k="addr:postcode" v="81825"/>
    <tag k="addr:street" v="Kranzhornstraße"/>
    <tag k="building" v="residential"/>
  </way>
  <way id="234810010" version="2" timestamp="2014-04-21T17:21:48Z" changeset="21843275" uid="58185" user="Midas">
    <nd ref="2429415053"/>
    <nd ref="2429415041"/>
    <nd ref="2429415032"/>
    <nd ref="2429415035"/>
    <nd ref="2429415053"/>
    <tag k="addr:city" v="München"/>
    <tag k="addr:housenumber" v="29"/>
    <tag k="addr:postcode" v="81825"/>
    <tag k="addr:street" v="Kranzhornstraße"/>
    <tag k="building" v="residential"/>
  </way>
  <way id="234810011" version="2" timestamp="2014-04-21T17:21:48Z" changeset="21843275" uid="58185" user="Midas">
    <nd ref="2429415104"/>
    <nd ref="2429415100"/>
    <nd ref="2429415090"/>
    <nd ref="2429415095"/>
    <nd ref="2429415104"/>
    <tag k="addr:city" v="München"/>
    <tag k="addr:housenumber" v="30"/>
    <tag k="addr:postcode" v="81825"/>
    <tag k="addr:street" v="Kranzhornstraße"/>
    <tag k="building" v="residential"/>
  </way>
  <way id="234810015" version="2" timestamp="2014-04-21T17:21:49Z" changeset="21843275" uid="58185" user="Midas">
    <nd ref="2429415045"/>
    <nd ref="2429415037"/>
    <nd ref="2429415028"/>
    <nd ref="2429415034"/>
    <nd ref="2429415045"/>
    <tag k="addr:city" v="München"/>
    <tag k="addr:housenumber" v="27a"/>
    <tag k="addr:postcode" v="81825"/>
    <tag k="addr:street" v="Kranzhornstraße"/>
    <tag k="building" v="residential"/>
  </way>
  <way id="234810016" version="2" timestamp="2014-04-21T17:21:48Z" changeset="21843275" uid="58185" user="Midas">
    <nd ref="2429415016"/>
    <nd ref="2429415010"/>
    <nd ref="2429415000"/>
    <nd ref="2429415006"/>
    <nd ref="2429415016"/>
    <tag k="addr:city" v="München"/>
    <tag k="addr:housenumber" v="31a"/>
    <tag k="addr:postcode" v="81825"/>
    <tag k="addr:street" v="Kranzhornstraße"/>
    <tag k="building" v="residential"/>
  </way>
  <way id="234810019" version="2" timestamp="2014-04-21T17:21:48Z" changeset="21843275" uid="58185" user="Midas">
    <nd ref="2429415030"/>
    <nd ref="2429415024"/>
    <nd ref="2429415012"/>
    <nd ref="2429415020"/>
    <nd ref="2429415030"/>
    <tag k="addr:city" v="München"/>
    <tag k="addr:housenumber" v="31"/>
    <tag k="addr:postcode" v="81825"/>
    <tag k="addr:street" v="Kranzhornstraße"/>
    <tag k="building" v="residential"/>
  </way>
  <way id="234810021" version="2" timestamp="2014-04-21T17:21:49Z" changeset="21843275" uid="58185" user="Midas">
    <nd ref="2429415026"/>
    <nd ref="2429415022"/>
    <nd ref="2429415014"/>
    <nd ref="2429415018"/>
    <nd ref="2429415026"/>
    <tag k="addr:city" v="München"/>
    <tag k="addr:housenumber" v="29a"/>
    <tag k="addr:postcode" v="81825"/>
    <tag k="addr:street" v="Kranzhornstraße"/>
    <tag k="building" v="residential"/>
  </way>
  <way id="234810022" version="2" timestamp="2014-04-21T17:21:49Z" changeset="21843275" uid="58185" user="Midas">
    <nd ref="2429415081"/>
    <nd ref="2429415067"/>
    <nd ref="2429415047"/>
    <nd ref="2429415057"/>
    <nd ref="2429415081"/>
    <tag k="addr:city" v="München"/>
    <tag k="addr:housenumber" v="27"/>
    <tag k="addr:postcode" v="81825"/>
    <tag k="addr:street" v="Kranzhornstraße"/>
    <tag k="building" v="residential"/>
  </way>
  <way id="234810023" version="2" timestamp="2014-04-21T17:21:48Z" changeset="21843275" uid="58185" user="Midas">
    <nd ref="2429415094"/>
    <nd ref="2429415088"/>
    <nd ref="2429415071"/>
    <nd ref="2429415082"/>
    <nd ref="2429415094"/>
    <tag k="addr:city" v="München"/>
    <tag k="addr:housenumber" v="32"/>
    <tag k="addr:postcode" v="81825"/>
    <tag k="addr:street" v="Kranzhornstraße"/>
    <tag k="building" v="residential"/>
  </way>
  <way id="275658226" version="3" timestamp="2014-04-21T09:46:31Z" changeset="21833416" uid="58185" user="Midas">
    <nd ref="2803146581"/>
    <nd ref="2805579018"/>
    <nd ref="2805578362"/>
    <nd ref="2805578363"/>
    <nd ref="2803146582"/>
    <nd ref="1163051638"/>
    <nd ref="1163051711"/>
    <nd ref="2805578364"/>
    <nd ref="2805578365"/>
    <nd ref="2803146581"/>
    <tag k="addr:city" v="München"/>
    <tag k="addr:housenumber" v="9"/>
    <tag k="addr:postcode" v="81825"/>
    <tag k="addr:street" v="Trainsjochstraße"/>
    <tag k="building" v="residential"/>
    <tag k="building:levels" v="2"/>
  </way>
  <way id="275658227" version="2" timestamp="2014-04-21T08:42:19Z" changeset="21832085" uid="58185" user="Midas">
    <nd ref="2803146583"/>
    <nd ref="2805578375"/>
    <nd ref="2803146584"/>
    <nd ref="1163051663"/>
    <nd ref="1163051688"/>
    <nd ref="2805578373"/>
    <nd ref="2803146583"/>
    <tag k="addr:city" v="München"/>
    <tag k="addr:housenumber" v="7"/>
    <tag k="addr:postcode" v="81825"/>
    <tag k="addr:street" v="Trainsjochstraße"/>
    <tag k="building" v="residential"/>
  </way>
  <way id="275921784" version="1" timestamp="2014-04-21T09:56:58Z" changeset="21833667" uid="58185" user="Midas">
    <nd ref="1389924717"/>
    <nd ref="2805759001"/>
    <nd ref="2805759002"/>
    <nd ref="1389924704"/>
    <nd ref="1389924717"/>
    <tag k="addr:city" v="München"/>
    <tag k="addr:housenumber" v="24a"/>
    <tag k="addr:postcode" v="81825"/>
    <tag k="addr:street" v="Guffertstraße"/>
    <tag k="building" v="residential"/>
    <tag k="building:levels" v="2"/>
  </way>
  <way id="275921787" version="1" timestamp="2014-04-21T09:56:58Z" changeset="21833667" uid="58185" user="Midas">
    <nd ref="2805759003"/>
    <nd ref="2805759004"/>
    <nd ref="2805759005"/>
    <nd ref="1389753606"/>
    <nd ref="2805759006"/>
    <nd ref="2805759007"/>
    <nd ref="2805759003"/>
    <tag k="addr:city" v="München"/>
    <tag k="addr:housenumber" v="21"/>
    <tag k="addr:postcode" v="81825"/>
    <tag k="addr:street" v="Guffertstraße"/>
    <tag k="building" v="residential"/>
    <tag k="building:levels" v="2"/>
  </way>
  <way id="275921791" version="1" timestamp="2014-04-21T09:56:58Z" changeset="21833667" uid="58185" user="Midas">
    <nd ref="2805759008"/>
    <nd ref="2805759009"/>
    <nd ref="2805759010"/>
    <nd ref="2805759011"/>
    <nd ref="2805759012"/>
    <nd ref="2805759013"/>
    <nd ref="2805759014"/>
    <nd ref="1389924645"/>
    <nd ref="2805759008"/>
    <tag k="addr:city" v="München"/>
    <tag k="addr:housenumber" v="32a"/>
    <tag k="addr:postcode" v="81825"/>
    <tag k="addr:street" v="Guffertstraße"/>
    <tag k="building" v="residential"/>
    <tag k="building:levels" v="1"/>
  </way>
  <way id="275925089" version="1" timestamp="2014-04-21T10:12:23Z" changeset="21833991" uid="58185" user="Midas">
    <nd ref="2805796927"/>
    <nd ref="1389924622"/>
    <nd ref="1389924661"/>
    <nd ref="2805796928"/>
    <nd ref="2805796927"/>
    <tag k="addr:city" v="München"/>
    <tag k="addr:housenumber" v="33a"/>
    <tag k="addr:postcode" v="81825"/>
    <tag k="addr:street" v="Gratlspitzstraße"/>
    <tag k="building" v="residential"/>
  </way>
  <way id="275928608" version="1" timestamp="2014-04-21T10:21:03Z" changeset="21834200" uid="58185" user="Midas">
    <nd ref="2805808213"/>
    <nd ref="2805808214"/>
    <nd ref="1389753746"/>
    <nd ref="1389753703"/>
    <nd ref="2805808213"/>
    <tag k="addr:city" v="München"/>
    <tag k="addr:housenumber" v="26a"/>
    <tag k="addr:postcode" v="81825"/>
    <tag k="addr:street" v="Gratlspitzstraße"/>
    <tag k="building" v="residential"/>
  </way>
  <way id="276036183" version="1" timestamp="2014-04-21T17:21:47Z" changeset="21843275" uid="58185" user="Midas">
    <nd ref="1209068184"/>
    <nd ref="2806805573"/>
    <nd ref="2806805574"/>
    <nd ref="1209067972"/>
    <nd ref="1209068184"/>
    <tag k="addr:city" v="München"/>
    <tag k="addr:housenumber" v="25a"/>
    <tag k="addr:postcode" v="81825"/>
    <tag k="addr:street" v="Kranzhornstraße"/>
    <tag k="building" v="residential"/>
  </way>
  <way id="289433478" version="3" timestamp="2024-09-03T07:54:17Z" changeset="156129781" uid="88803" user="Rainer Jung">
    <nd ref="2929877797"/>
    <nd ref="2154486298"/>
    <nd ref="2154486304"/>
    <nd ref="2929877796"/>
    <nd ref="2929877797"/>
    <tag k="addr:city" v="München"/>
    <tag k="addr:country" v="DE"/>
    <tag k="addr:housenumber" v="44a"/>
    <tag k="addr:street" v="Großvenedigerstraße"/>
    <tag k="building" v="residential"/>
    <tag k="building:levels" v="2"/>
    <tag k="roof:levels" v="1"/>
    <tag k="roof:shape" v="gabled"/>
  </way>
  <way id="289436801" version="5" timestamp="2020-12-14T14:33:06Z" changeset="95811454" uid="536583" user="Strubbl">
    <nd ref="2929907571"/>
    <nd ref="1594730056"/>
    <nd ref="1594730074"/>
    <nd ref="2929907572"/>
    <nd ref="2929907571"/>
    <tag k="addr:city" v="München"/>
    <tag k="addr:country" v="DE"/>
    <tag k="addr:housenumber" v="25a"/>
    <tag k="addr:postcode" v="81673"/>
    <tag k="addr:street" v="Sankt-Veit-Straße"/>
    <tag k="building" v="residential"/>
    <tag k="building:levels" v="2"/>
    <tag k="roof:levels" v="1"/>
    <tag k="roof:shape" v="gabled"/>
  </way>
  <way id="289451402" version="3" timestamp="2020-12-14T14:30:02Z" changeset="95811454" uid="536583" user="Strubbl">
    <nd ref="2929966892"/>
    <nd ref="1586772651"/>
    <nd ref="2166870238"/>
    <nd ref="2929966891"/>
    <nd ref="2929966892"/>
    <tag k="addr:city" v="München"/>
    <tag k="addr:country" v="DE"/>
    <tag k="addr:housenumber" v="3a"/>
    <tag k="addr:postcode" v="81825"/>
    <tag k="addr:street" v="Staudacher Straße"/>
    <tag k="building" v="residential"/>
    <tag k="building:levels" v="1"/>
    <tag k="roof:levels" v="2"/>
    <tag k="roof:shape" v="gabled"/>
  </way>
  <way id="289451403" version="3" timestamp="2020-12-14T14:30:04Z" changeset="95811454" uid="536583" user="Strubbl">
    <nd ref="2929966892"/>
    <nd ref="1586772651"/>
    <nd ref="1586772708"/>
    <nd ref="2929966890"/>
    <nd ref="2929966892"/>
    <tag k="addr:city" v="München"/>
    <tag k="addr:country" v="DE"/>
    <tag k="addr:housenumber" v="3"/>
    <tag k="addr:postcode" v="81825"/>
    <tag k="addr:street" v="Staudacher Straße"/>
    <tag k="building" v="residential"/>
    <tag k="building:levels" v="1"/>
    <tag k="roof:levels" v="2"/>
    <tag k="roof:shape" v="gabled"/>
  </way>
  <way id="289451404" version="4" timestamp="2020-12-14T14:30:06Z" changeset="95811454" uid="536583" user="Strubbl">
    <nd ref="2166870237"/>
    <nd ref="1586772655"/>
    <nd ref="2929966892"/>
    <nd ref="2929966891"/>
    <nd ref="2166870237"/>
    <tag k="addr:city" v="München"/>
    <tag k="addr:country" v="DE"/>
    <tag k="addr:housenumber" v="3c"/>
    <tag k="addr:postcode" v="81825"/>
    <tag k="addr:street" v="Staudacher Straße"/>
    <tag k="building" v="residential"/>
    <tag k="building:levels" v="1"/>
    <tag k="roof:levels" v="2"/>
    <tag k="roof:shape" v="gabled"/>
  </way>
  <way id="291380761" version="5" timestamp="2023-12-03T09:23:56Z" changeset="144714690" uid="18493611" user="MunichWays">
    <nd ref="15687481"/>
    <nd ref="1287684019"/>
    <nd ref="1287684018"/>
    <nd ref="2019363488"/>
    <nd ref="15431543"/>
    <tag k="class:bicycle" v="1"/>
    <tag k="highway" v="residential"/>
    <tag k="lit" v="yes"/>
    <tag k="maxspeed" v="30"/>
    <tag k="name" v="Wildenwarter Straße"/>
    <tag k="sidewalk" v="both"/>
    <tag k="smoothness" v="good"/>
    <tag k="source:maxspeed" v="DE:zone:30"/>
    <tag k="surface" v="asphalt"/>
  </way>
  <way id="291779832" version="2" timestamp="2014-07-07T17:30:29Z" changeset="24007908" uid="8703" user="rolandg">
    <nd ref="2952806087"/>
    <nd ref="2952806085"/>
    <nd ref="2952806088"/>
    <nd ref="2952806086"/>
    <nd ref="2952806087"/>
    <tag k="addr:city" v="München"/>
    <tag k="addr:country" v="DE"/>
    <tag k="addr:housenumber" v="15"/>
    <tag k="addr:street" v="Heubergstraße"/>
    <tag k="building" v="residential"/>
  </way>
  <way id="337993107" version="7" timestamp="2025-01-12T12:27:23Z" changeset="161268959" uid="2815653" user="DaxServer">
    <nd ref="1077037365"/>
    <nd ref="3450607531"/>
    <nd ref="363058"/>
    <tag k="bicycle" v="use_sidepath"/>
    <tag k="dual_carriageway" v="yes"/>
    <tag k="foot" v="use_sidepath"/>
    <tag k="highway" v="secondary"/>
    <tag k="lanes" v="3"/>
    <tag k="lit" v="yes"/>
    <tag k="maxspeed" v="50"/>
    <tag k="name" v="Heinrich-Wieland-Straße"/>
    <tag k="oneway" v="yes"/>
    <tag k="sidewalk:left" v="no"/>
    <tag k="sidewalk:right" v="separate"/>
    <tag k="smoothness" v="good"/>
    <tag k="source:maxspeed" v="DE:urban"/>
    <tag k="surface" v="asphalt"/>
    <tag k="tmc" v="DE:35451/35452"/>
    <tag k="wikidata" v="Q117471700"/>
  </way>
  <way id="377972368" version="5" timestamp="2025-01-05T17:37:56Z" changeset="161030081" uid="2815653" user="DaxServer">
    <nd ref="3813800226"/>
    <nd ref="13570828"/>
    <tag k="bicycle" v="use_sidepath"/>
    <tag k="dual_carriageway" v="yes"/>
    <tag k="hgv" v="destination"/>
    <tag k="highway" v="primary"/>
    <tag k="lanes" v="3"/>
    <tag k="lit" v="yes"/>
    <tag k="maxspeed" v="50"/>
    <tag k="name" v="Kreillerstraße"/>
    <tag k="oneway" v="yes"/>
    <tag k="ref" v="B 304"/>
    <tag k="sidewalk:left" v="no"/>
    <tag k="sidewalk:right" v="separate"/>
    <tag k="smoothness" v="good"/>
    <tag k="surface" v="asphalt"/>
    <tag k="tmc" v="DE:22868/22869"/>
    <tag k="turn:lanes" v="left|none|none"/>
    <tag k="wikidata" v="Q117205858"/>
  </way>
  <way id="377972375" version="7" timestamp="2025-01-05T17:37:56Z" changeset="161030081" uid="2815653" user="DaxServer">
    <nd ref="428727"/>
    <nd ref="2333546751"/>
    <nd ref="804039487"/>
    <nd ref="13346739"/>
    <tag k="bicycle" v="use_sidepath"/>
    <tag k="dual_carriageway" v="yes"/>
    <tag k="foot" v="use_sidepath"/>
    <tag k="hgv" v="destination"/>
    <tag k="highway" v="primary"/>
    <tag k="lanes" v="3"/>
    <tag k="lit" v="yes"/>
    <tag k="maxspeed" v="50"/>
    <tag k="name" v="Kreillerstraße"/>
    <tag k="oneway" v="yes"/>
    <tag k="ref" v="B 304"/>
    <tag k="sidewalk:left" v="no"/>
    <tag k="sidewalk:right" v="separate"/>
    <tag k="smoothness" v="good"/>
    <tag k="surface" v="asphalt"/>
    <tag k="tmc" v="DE:22868/22869"/>
    <tag k="turn:lanes" v="left|through|none"/>
    <tag k="wikidata" v="Q117205858"/>
  </way>
  <way id="377972379" version="7" timestamp="2025-01-05T17:37:56Z" changeset="161030081" uid="2815653" user="DaxServer">
    <nd ref="13570828"/>
    <nd ref="3813800225"/>
    <nd ref="428728"/>
    <nd ref="15247069"/>
    <nd ref="428727"/>
    <tag k="bicycle" v="use_sidepath"/>
    <tag k="dual_carriageway" v="yes"/>
    <tag k="hgv" v="destination"/>
    <tag k="highway" v="primary"/>
    <tag k="lanes" v="2"/>
    <tag k="lit" v="yes"/>
    <tag k="maxspeed" v="50"/>
    <tag k="name" v="Kreillerstraße"/>
    <tag k="oneway" v="yes"/>
    <tag k="ref" v="B 304"/>
    <tag k="sidewalk:left" v="no"/>
    <tag k="sidewalk:right" v="separate"/>
    <tag k="smoothness" v="good"/>
    <tag k="source:maxspeed" v="DE:urban"/>
    <tag k="surface" v="asphalt"/>
    <tag k="tmc" v="DE:22868/22869"/>
    <tag k="wikidata" v="Q117205858"/>
  </way>
  <way id="460402165" version="7" timestamp="2025-04-03T15:23:59Z" changeset="164470427" uid="16061279" user="YellowSoul">
    <nd ref="11598328"/>
    <nd ref="269943156"/>
    <tag k="cycleway:right" v="separate"/>
    <tag k="foot" v="no"/>
    <tag k="highway" v="tertiary"/>
    <tag k="lanes" v="1"/>
    <tag k="lit" v="yes"/>
    <tag k="maxspeed" v="50"/>
    <tag k="name" v="Sankt-Michael-Straße"/>
    <tag k="oneway" v="yes"/>
    <tag k="overtaking" v="no"/>
    <tag k="sidewalk" v="separate"/>
    <tag k="smoothness" v="good"/>
    <tag k="source:maxspeed" v="DE:urban"/>
    <tag k="surface" v="asphalt"/>
  </way>
  <way id="460402173" version="6" timestamp="2022-05-28T20:03:17Z" changeset="121630920" uid="137242" user="Rainero">
    <nd ref="1077015329"/>
    <nd ref="11598328"/>
    <tag k="bicycle" v="use_sidepath"/>
    <tag k="foot" v="no"/>
    <tag k="highway" v="tertiary"/>
    <tag k="lanes" v="2"/>
    <tag k="lit" v="yes"/>
    <tag k="maxspeed" v="50"/>
    <tag k="name" v="Sankt-Michael-Straße"/>
    <tag k="oneway" v="yes"/>
    <tag k="overtaking" v="no"/>
    <tag k="sidewalk" v="separate"/>
    <tag k="smoothness" v="good"/>
    <tag k="source:maxspeed" v="DE:urban"/>
    <tag k="surface" v="asphalt"/>
    <tag k="turn:lanes" v="left|through;right"/>
  </way>
  <way id="463422401" version="6" timestamp="2025-01-12T12:27:23Z" changeset="161268959" uid="2815653" user="DaxServer">
    <nd ref="3450607525"/>
    <nd ref="1077037365"/>
    <tag k="bicycle" v="use_sidepath"/>
    <tag k="dual_carriageway" v="yes"/>
    <tag k="foot" v="use_sidepath"/>
    <tag k="highway" v="secondary"/>
    <tag k="lanes" v="3"/>
    <tag k="lit" v="yes"/>
    <tag k="maxspeed" v="50"/>
    <tag k="name" v="Heinrich-Wieland-Straße"/>
    <tag k="oneway" v="yes"/>
    <tag k="sidewalk:left" v="no"/>
    <tag k="sidewalk:right" v="separate"/>
    <tag k="smoothness" v="good"/>
    <tag k="source:maxspeed" v="DE:urban"/>
    <tag k="surface" v="asphalt"/>
    <tag k="tmc" v="DE:35451/35452"/>
    <tag k="turn:lanes" v="none|none|right"/>
    <tag k="wikidata" v="Q117471700"/>
  </way>
  <way id="482542909" version="9" timestamp="2025-05-02T17:34:49Z" changeset="165730105" uid="2409957" user="firefoxinspace">
    <nd ref="1701767456"/>
    <nd ref="8044567947"/>
    <tag k="bicycle" v="yes"/>
    <tag k="cycleway:right" v="separate"/>
    <tag k="dual_carriageway" v="yes"/>
    <tag k="foot" v="use_sidepath"/>
    <tag k="highway" v="tertiary"/>
    <tag k="lanes" v="2"/>
    <tag k="lit" v="yes"/>
    <tag k="maxspeed" v="50"/>
    <tag k="name" v="Sankt-Veit-Straße"/>
    <tag k="oneway" v="yes"/>
    <tag k="smoothness" v="good"/>
    <tag k="source:maxspeed" v="DE:urban"/>
    <tag k="surface" v="asphalt"/>
    <tag k="turn:lanes" v="left|through;right"/>
  </way>
  <way id="482542910" version="5" timestamp="2025-04-06T16:40:45Z" changeset="164600107" uid="137242" user="Rainero">
    <nd ref="1701767462"/>
    <nd ref="1701767459"/>
    <nd ref="1701767456"/>
    <tag k="bicycle" v="use_sidepath"/>
    <tag k="dual_carriageway" v="yes"/>
    <tag k="hgv" v="destination"/>
    <tag k="highway" v="primary"/>
    <tag k="lanes" v="2"/>
    <tag k="lit" v="yes"/>
    <tag k="maxspeed" v="50"/>
    <tag k="name" v="Kreillerstraße"/>
    <tag k="oneway" v="yes"/>
    <tag k="ref" v="B 304"/>
    <tag k="smoothness" v="good"/>
    <tag k="source:maxspeed" v="DE:urban"/>
    <tag k="surface" v="asphalt"/>
    <tag k="tmc" v="DE:22868/22869"/>
    <tag k="wikidata" v="Q117205858"/>
  </way>
  <way id="512877751" version="5" timestamp="2025-05-02T17:34:49Z" changeset="165730105" uid="2409957" user="firefoxinspace">
    <nd ref="363058"/>
    <nd ref="269943145"/>
    <tag k="bicycle" v="use_sidepath"/>
    <tag k="highway" v="tertiary"/>
    <tag k="lanes" v="2"/>
    <tag k="lit" v="yes"/>
    <tag k="maxspeed" v="50"/>
    <tag k="name" v="Sankt-Veit-Straße"/>
    <tag k="sidewalk" v="separate"/>
    <tag k="smoothness" v="good"/>
    <tag k="source:maxspeed" v="DE:urban"/>
    <tag k="surface" v="asphalt"/>
  </way>
  <way id="513387307" version="10" timestamp="2023-12-03T09:23:56Z" changeset="144714690" uid="18493611" user="MunichWays">
    <nd ref="5018645695"/>
    <nd ref="363064"/>
    <tag k="class:bicycle" v="1"/>
    <tag k="cycleway:both" v="no"/>
    <tag k="highway" v="tertiary"/>
    <tag k="lane_markings" v="no"/>
    <tag k="lit" v="yes"/>
    <tag k="maxspeed" v="30"/>
    <tag k="name" v="Waldstraße"/>
    <tag k="parking:lane:right" v="parallel"/>
    <tag k="sidewalk" v="left"/>
    <tag k="sidewalk:left:surface" v="asphalt"/>
    <tag k="smoothness" v="excellent"/>
    <tag k="surface" v="asphalt"/>
    <tag k="width" v="6"/>
  </way>
  <way id="513387308" version="8" timestamp="2022-11-24T20:37:50Z" changeset="129342944" uid="12120321" user="bollyboll">
    <nd ref="363063"/>
    <nd ref="1961547653"/>
    <nd ref="5018645695"/>
    <tag k="cycleway:both" v="no"/>
    <tag k="highway" v="tertiary"/>
    <tag k="lane_markings" v="no"/>
    <tag k="lit" v="yes"/>
    <tag k="maxspeed" v="30"/>
    <tag k="name" v="Waldstraße"/>
    <tag k="parking:lane:right" v="parallel"/>
    <tag k="sidewalk" v="left"/>
    <tag k="sidewalk:left:surface" v="paving_stones"/>
    <tag k="smoothness" v="excellent"/>
    <tag k="surface" v="asphalt"/>
    <tag k="width" v="6"/>
  </way>
  <way id="539659136" version="7" timestamp="2025-01-12T12:27:23Z" changeset="161268959" uid="2815653" user="DaxServer">
    <nd ref="269570905"/>
    <nd ref="2281107318"/>
    <nd ref="1077037344"/>
    <nd ref="15487585"/>
    <nd ref="3450607496"/>
    <nd ref="1077037201"/>
    <nd ref="363079"/>
    <nd ref="1077037190"/>
    <nd ref="3450607525"/>
    <tag k="bicycle" v="use_sidepath"/>
    <tag k="dual_carriageway" v="yes"/>
    <tag k="foot" v="use_sidepath"/>
    <tag k="highway" v="secondary"/>
    <tag k="lanes" v="2"/>
    <tag k="lit" v="yes"/>
    <tag k="maxspeed" v="50"/>
    <tag k="name" v="Heinrich-Wieland-Straße"/>
    <tag k="oneway" v="yes"/>
    <tag k="sidewalk:left" v="no"/>
    <tag k="sidewalk:right" v="separate"/>
    <tag k="smoothness" v="good"/>
    <tag k="source:maxspeed" v="DE:urban"/>
    <tag k="surface" v="asphalt"/>
    <tag k="tmc" v="DE:35451/35452"/>
    <tag k="wikidata" v="Q117471700"/>
  </way>
  <way id="539659140" version="7" timestamp="2025-01-12T12:27:23Z" changeset="161268959" uid="2815653" user="DaxServer">
    <nd ref="14658527"/>
    <nd ref="269570905"/>
    <tag k="bicycle" v="use_sidepath"/>
    <tag k="dual_carriageway" v="yes"/>
    <tag k="foot" v="use_sidepath"/>
    <tag k="highway" v="secondary"/>
    <tag k="lanes" v="2"/>
    <tag k="lit" v="yes"/>
    <tag k="maxspeed" v="50"/>
    <tag k="name" v="Heinrich-Wieland-Straße"/>
    <tag k="oneway" v="yes"/>
    <tag k="sidewalk:left" v="no"/>
    <tag k="sidewalk:right" v="separate"/>
    <tag k="smoothness" v="good"/>
    <tag k="source:maxspeed" v="DE:urban"/>
    <tag k="surface" v="asphalt"/>
    <tag k="tmc" v="DE:35451/35452"/>
    <tag k="wikidata" v="Q117471700"/>
  </way>
  <way id="746633778" version="1" timestamp="2019-11-18T12:49:01Z" changeset="77227132" uid="10476812" user="F_L_o">
    <nd ref="6987138493"/>
    <nd ref="6987138494"/>
    <nd ref="6987138495"/>
    <nd ref="6987138496"/>
    <nd ref="6987138493"/>
    <tag k="building" v="shed"/>
    <tag k="building:levels" v="1"/>
    <tag k="height" v="2"/>
    <tag k="lockable" v="no"/>
    <tag k="name" v="Himbier-Bar (Gartenhäuschen)"/>
    <tag k="roof:colour" v="black"/>
  </way>
  <way id="808077976" version="11" timestamp="2025-05-02T17:34:49Z" changeset="165730105" uid="2409957" user="firefoxinspace">
    <nd ref="7556465348"/>
    <nd ref="12779876621"/>
    <nd ref="7636555785"/>
    <nd ref="1237837418"/>
    <nd ref="1237837584"/>
    <nd ref="15687477"/>
    <tag k="bicycle" v="yes"/>
    <tag k="dual_carriageway" v="yes"/>
    <tag k="foot" v="use_sidepath"/>
    <tag k="highway" v="tertiary"/>
    <tag k="lanes" v="2"/>
    <tag k="lit" v="yes"/>
    <tag k="maxspeed" v="30"/>
    <tag k="name" v="Sankt-Veit-Straße"/>
    <tag k="oneway" v="yes"/>
    <tag k="overtaking" v="no"/>
    <tag k="sidewalk" v="separate"/>
    <tag k="smoothness" v="good"/>
    <tag k="source:maxspeed" v="sign"/>
    <tag k="surface" v="asphalt"/>
    <tag k="turn:lanes" v="right|left;through"/>
  </way>
  <way id="808323512" version="4" timestamp="2025-04-03T15:23:59Z" changeset="164470427" uid="16061279" user="YellowSoul">
    <nd ref="4560721613"/>
    <nd ref="27239362"/>
    <nd ref="290527984"/>
    <tag k="bicycle" v="use_sidepath"/>
    <tag k="cycleway:right" v="separate"/>
    <tag k="foot" v="no"/>
    <tag k="highway" v="tertiary"/>
    <tag k="lanes" v="2"/>
    <tag k="lit" v="yes"/>
    <tag k="maxspeed" v="50"/>
    <tag k="name" v="Sankt-Michael-Straße"/>
    <tag k="oneway" v="yes"/>
    <tag k="sidewalk" v="separate"/>
    <tag k="smoothness" v="good"/>
    <tag k="source:maxspeed" v="DE:urban"/>
    <tag k="surface" v="asphalt"/>
  </way>
  <way id="844323102" version="5" timestamp="2025-05-08T18:42:03Z" changeset="165998163" uid="3199858" user="Mateusz Konieczny - bot account">
    <nd ref="18289679"/>
    <nd ref="1077037359"/>
    <nd ref="18289667"/>
    <nd ref="1077037255"/>
    <nd ref="18289665"/>
    <nd ref="2923642345"/>
    <nd ref="1077037208"/>
    <nd ref="269943147"/>
    <nd ref="18289663"/>
    <tag k="class:bicycle" v="2"/>
    <tag k="highway" v="residential"/>
    <tag k="lit" v="yes"/>
    <tag k="maxspeed" v="30"/>
    <tag k="name" v="Michaeliburgstraße"/>
    <tag k="sidewalk" v="no"/>
    <tag k="smoothness" v="good"/>
    <tag k="source:maxspeed" v="DE:zone:30"/>
    <tag k="source:width" v="ARCore"/>
    <tag k="surface" v="asphalt"/>
    <tag k="width" v="6"/>
  </way>
  <way id="963624744" version="3" timestamp="2021-08-31T16:56:36Z" changeset="110524095" uid="133822" user="schoffer">
    <nd ref="8913534401"/>
    <nd ref="8913534402"/>
    <nd ref="8913534403"/>
    <nd ref="8913534404"/>
    <nd ref="8913534401"/>
    <tag k="addr:city" v="München"/>
    <tag k="addr:housenumber" v="21"/>
    <tag k="addr:postcode" v="81671"/>
    <tag k="addr:street" v="Michaeliburgstraße"/>
    <tag k="building" v="residential"/>
    <tag k="building:levels" v="2"/>
    <tag k="roof:levels" v="2"/>
    <tag k="roof:shape" v="gabled"/>
  </way>
  <way id="1011225581" version="6" timestamp="2025-01-12T12:27:23Z" changeset="161268959" uid="2815653" user="DaxServer">
    <nd ref="1077037303"/>
    <nd ref="8146727381"/>
    <nd ref="649255806"/>
    <nd ref="1856132972"/>
    <nd ref="11598328"/>
    <tag k="bicycle" v="use_sidepath"/>
    <tag k="dual_carriageway" v="yes"/>
    <tag k="foot" v="no"/>
    <tag k="highway" v="secondary"/>
    <tag k="lanes" v="3"/>
    <tag k="lit" v="yes"/>
    <tag k="maxspeed" v="50"/>
    <tag k="name" v="Heinrich-Wieland-Straße"/>
    <tag k="oneway" v="yes"/>
    <tag k="psv" v="yes"/>
    <tag k="sidewalk:left" v="no"/>
    <tag k="sidewalk:right" v="separate"/>
    <tag k="smoothness" v="good"/>
    <tag k="surface" v="asphalt"/>
    <tag k="tmc" v="DE:35451/35452"/>
    <tag k="turn:lanes" v="left|through|through;right"/>
    <tag k="wikidata" v="Q117471700"/>
  </way>
  <way id="1082575779" version="8" timestamp="2024-04-14T06:36:59Z" changeset="149977887" uid="817113" user="santon">
    <nd ref="9921439325"/>
    <nd ref="2155883056"/>
    <nd ref="2155883048"/>
    <nd ref="9921449983"/>
    <nd ref="9921449984"/>
    <nd ref="9921439327"/>
    <nd ref="11244419103"/>
    <nd ref="11816053605"/>
    <nd ref="9921439328"/>
    <nd ref="9921439329"/>
    <nd ref="9921439330"/>
    <nd ref="9921439325"/>
    <tag k="addr:city" v="München"/>
    <tag k="addr:housenumber" v="89"/>
    <tag k="addr:postcode" v="81673"/>
    <tag k="addr:street" v="Sankt-Veit-Straße"/>
    <tag k="building" v="apartments"/>
  </way>
  <way id="1113421805" version="5" timestamp="2025-01-12T12:27:23Z" changeset="161268959" uid="2815653" user="DaxServer">
    <nd ref="10186515256"/>
    <nd ref="410968444"/>
    <tag k="bicycle" v="use_sidepath"/>
    <tag k="dual_carriageway" v="yes"/>
    <tag k="foot" v="use_sidepath"/>
    <tag k="highway" v="secondary"/>
    <tag k="lanes" v="3"/>
    <tag k="lit" v="yes"/>
    <tag k="maxspeed" v="50"/>
    <tag k="name" v="Heinrich-Wieland-Straße"/>
    <tag k="oneway" v="yes"/>
    <tag k="parking:lane:right" v="marked"/>
    <tag k="psv" v="yes"/>
    <tag k="sidewalk:left" v="no"/>
    <tag k="sidewalk:right" v="separate"/>
    <tag k="smoothness" v="good"/>
    <tag k="source:maxspeed" v="DE:urban"/>
    <tag k="surface" v="asphalt"/>
    <tag k="tmc" v="DE:35451/35452"/>
    <tag k="turn:lanes" v="left|through|through;right"/>
    <tag k="wikidata" v="Q117471700"/>
  </way>
  <way id="1116981482" version="4" timestamp="2022-11-24T20:36:50Z" changeset="129342944" uid="12120321" user="bollyboll">
    <nd ref="287540355"/>
    <nd ref="1931997893"/>
    <nd ref="10215595080"/>
    <tag k="highway" v="residential"/>
    <tag k="lanes" v="1"/>
    <tag k="lit" v="yes"/>
    <tag k="maxspeed" v="30"/>
    <tag k="name" v="Blombergstraße"/>
    <tag k="oneway" v="no"/>
    <tag k="sidewalk" v="both"/>
    <tag k="sidewalk:both:surface" v="paving_stones"/>
    <tag k="smoothness" v="excellent"/>
    <tag k="source:maxspeed" v="DE:zone30"/>
    <tag k="surface" v="asphalt"/>
    <tag k="width" v="5.2"/>
  </way>
  <way id="1116981912" version="8" timestamp="2025-04-29T18:59:55Z" changeset="165604894" uid="817113" user="santon">
    <nd ref="363098"/>
    <nd ref="886125682"/>
    <nd ref="4697384951"/>
    <nd ref="13569900"/>
    <nd ref="1860509209"/>
    <nd ref="13569902"/>
    <tag k="class:bicycle" v="1"/>
    <tag k="cycleway:both" v="no"/>
    <tag k="highway" v="tertiary"/>
    <tag k="lane_markings" v="no"/>
    <tag k="lanes" v="2"/>
    <tag k="lit" v="yes"/>
    <tag k="maxspeed" v="30"/>
    <tag k="name" v="Waldstraße"/>
    <tag k="parking:lane:right" v="parallel"/>
    <tag k="sidewalk" v="left"/>
    <tag k="smoothness" v="excellent"/>
    <tag k="surface" v="asphalt"/>
    <tag k="width" v="6"/>
  </way>
  <way id="1175984495" version="6" timestamp="2024-09-15T16:55:46Z" changeset="156656301" uid="18493611" user="MunichWays">
    <nd ref="10926883582"/>
    <nd ref="2333546743"/>
    <nd ref="5809320471"/>
    <nd ref="411670599"/>
    <nd ref="13346739"/>
    <tag k="class:bicycle" v="1"/>
    <tag k="cycleway:left" v="lane"/>
    <tag k="cycleway:left:lane" v="exclusive"/>
    <tag k="cycleway:right" v="no"/>
    <tag k="highway" v="residential"/>
    <tag k="lit" v="yes"/>
    <tag k="maxspeed" v="30"/>
    <tag k="name" v="Talerweg"/>
    <tag k="note" v="Talerweg ist keine Einbahnstraße; es ist die Einfahrt von der Kreillerstraße her verboten außer für Fahrräder (Zeichen DE:267), am südlichen Ende weist ZeichenDE:125 auf Zweirichtungsverkehr hin."/>
    <tag k="oneway" v="no"/>
    <tag k="parking:lane:both" v="parallel"/>
    <tag k="parking:lane:both:parallel" v="on_street"/>
    <tag k="sidewalk" v="both"/>
    <tag k="sidewalk:left:surface" v="paving_stones"/>
    <tag k="sidewalk:right:surface" v="asphalt"/>
    <tag k="smoothness" v="good"/>
    <tag k="source:maxspeed" v="DE:zone:30"/>
    <tag k="surface" v="asphalt"/>
    <tag k="width" v="5.5"/>
  </way>
  <way id="1175984602" version="4" timestamp="2023-05-25T19:02:32Z" changeset="136556396" uid="12120321" user="bollyboll">
    <nd ref="10926879248"/>
    <nd ref="15247068"/>
    <tag k="highway" v="residential"/>
    <tag k="lit" v="yes"/>
    <tag k="maxspeed" v="30"/>
    <tag k="name" v="Maria-Eck-Platz"/>
    <tag k="sidewalk" v="both"/>
    <tag k="sidewalk:both:surface" v="asphalt"/>
    <tag k="smoothness" v="good"/>
    <tag k="source:maxspeed" v="DE:zone:30"/>
    <tag k="surface" v="asphalt"/>
    <tag k="width" v="5.5"/>
  </way>
  <way id="1175984647" version="5" timestamp="2023-05-25T19:02:41Z" changeset="136556396" uid="12120321" user="bollyboll">
    <nd ref="15247068"/>
    <nd ref="13346738"/>
    <nd ref="13569903"/>
    <tag k="highway" v="residential"/>
    <tag k="lit" v="yes"/>
    <tag k="maxspeed" v="30"/>
    <tag k="name" v="Böcklerweg"/>
    <tag k="sidewalk" v="both"/>
    <tag k="sidewalk:both:surface" v="asphalt"/>
    <tag k="smoothness" v="good"/>
    <tag k="source:maxspeed" v="DE:zone:30"/>
    <tag k="surface" v="asphalt"/>
    <tag k="width" v="5.5"/>
  </way>
  <way id="1194464327" version="7" timestamp="2024-09-15T16:55:46Z" changeset="156656301" uid="18493611" user="MunichWays">
    <nd ref="2948527809"/>
    <nd ref="13569903"/>
    <tag k="class:bicycle" v="1"/>
    <tag k="cycleway:both" v="no"/>
    <tag k="highway" v="residential"/>
    <tag k="lit" v="yes"/>
    <tag k="maxspeed" v="30"/>
    <tag k="name" v="Weißpfennigweg"/>
    <tag k="parking:both" v="lane"/>
    <tag k="parking:both:orientation" v="parallel"/>
    <tag k="parking:both:staggered" v="yes"/>
    <tag k="sidewalk" v="both"/>
    <tag k="sidewalk:left:surface" v="asphalt"/>
    <tag k="sidewalk:right:surface" v="paving_stones"/>
    <tag k="smoothness" v="good"/>
    <tag k="surface" v="asphalt"/>
    <tag k="width" v="5.3"/>
  </way>
  <way id="1317643239" version="2" timestamp="2024-09-23T17:20:12Z" changeset="157006049" uid="13190781" user="TheCrazyMaffin">
    <nd ref="12195090301"/>
    <nd ref="1389831782"/>
    <nd ref="1389831784"/>
    <nd ref="15431215"/>
    <tag k="class:bicycle" v="1"/>
    <tag k="highway" v="residential"/>
    <tag k="lit" v="yes"/>
    <tag k="maxspeed" v="30"/>
    <tag k="name" v="Guffertstraße"/>
    <tag k="parking:left" v="no"/>
    <tag k="parking:right" v="lane"/>
    <tag k="parking:right:orientation" v="parallel"/>
    <tag k="sidewalk" v="both"/>
    <tag k="source:maxspeed" v="DE:zone:30"/>
    <tag k="source:width" v="ARCore"/>
    <tag k="surface" v="asphalt"/>
    <tag k="width" v="5.7"/>
  </way>
  <way id="1354205579" version="4" timestamp="2025-05-02T17:34:49Z" changeset="165730105" uid="2409957" user="firefoxinspace">
    <nd ref="15687477"/>
    <nd ref="1961547677"/>
    <nd ref="12531942315"/>
    <nd ref="12531942322"/>
    <tag k="bicycle" v="yes"/>
    <tag k="cycleway:right" v="lane"/>
    <tag k="cycleway:right:lane" v="exclusive"/>
    <tag k="dual_carriageway" v="yes"/>
    <tag k="foot" v="use_sidepath"/>
    <tag k="highway" v="tertiary"/>
    <tag k="lanes" v="1"/>
    <tag k="lit" v="yes"/>
    <tag k="maxspeed" v="30"/>
    <tag k="name" v="Sankt-Veit-Straße"/>
    <tag k="oneway" v="yes"/>
    <tag k="sidewalk" v="separate"/>
    <tag k="smoothness" v="good"/>
    <tag k="source:maxspeed" v="sign"/>
    <tag k="surface" v="asphalt"/>
  </way>

</osm>
