<?xml version="1.0" encoding="UTF-8"?>
<osm version="0.6" generator="Overpass API 0.7.62.5 1bd436f1">
<note>The data included in this document is from www.openstreetmap.org. The data is made available under ODbL.</note>
<meta osm_base="2025-05-18T03:25:02Z" areas="2024-12-31T00:49:33Z"/>

  <node id="1954309" lat="48.1540458" lon="11.5721703" version="6" timestamp="2012-03-30T16:36:17Z" changeset="11156994" uid="8748" user="ToniE">
    <tag k="highway" v="traffic_signals"/>
    <tag k="odbl" v="clean"/>
  </node>
  <node id="1954400" lat="48.1522168" lon="11.5649463" version="7" timestamp="2012-10-18T19:59:10Z" changeset="13549284" uid="367380" user="Mloni"/>
  <node id="1954431" lat="48.1545205" lon="11.5754691" version="14" timestamp="2018-11-02T16:12:17Z" changeset="64118608" uid="8748" user="ToniE"/>
  <node id="1955500" lat="48.1531849" lon="11.5686070" version="4" timestamp="2012-03-14T19:09:32Z" changeset="10981127" uid="13832" user="Peter14"/>
  <node id="1955508" lat="48.1557359" lon="11.5732708" version="9" timestamp="2022-04-17T19:51:53Z" changeset="119829893" uid="11895847" user="rigilk3nt"/>
  <node id="1955535" lat="48.1542885" lon="11.5680415" version="7" timestamp="2016-02-22T13:02:26Z" changeset="37366423" uid="371369" user="mucx"/>
  <node id="7983325" lat="48.1539980" lon="11.5751781" version="12" timestamp="2012-03-18T14:01:40Z" changeset="11019144" uid="64536" user="Michael Forster"/>
  <node id="7983331" lat="48.1572554" lon="11.5712365" version="5" timestamp="2010-12-16T12:25:36Z" changeset="6676191" uid="42393" user="mawi42"/>
  <node id="20835174" lat="48.1533374" lon="11.5680934" version="6" timestamp="2012-10-20T18:19:38Z" changeset="13570974" uid="8748" user="ToniE"/>
  <node id="25576122" lat="48.1564819" lon="11.5707258" version="8" timestamp="2016-09-09T12:08:25Z" changeset="42023363" uid="367380" user="Mloni"/>
  <node id="258890820" lat="48.1532535" lon="11.5716548" version="3" timestamp="2012-03-30T16:36:18Z" changeset="11156994" uid="8748" user="ToniE"/>
  <node id="315667013" lat="48.1515107" lon="11.5674950" version="4" timestamp="2011-10-27T17:58:02Z" changeset="9669984" uid="367380" user="Mloni"/>
  <node id="618697480" lat="48.1504275" lon="11.5713237" version="3" timestamp="2016-01-25T14:50:14Z" changeset="36797909" uid="360562" user="haytigran"/>
  <node id="618697482" lat="48.1510312" lon="11.5732752" version="4" timestamp="2015-10-12T15:24:32Z" changeset="34592727" uid="2290263" user="soemisch"/>
  <node id="967091764" lat="48.1496887" lon="11.5693512" version="6" timestamp="2014-12-06T22:59:35Z" changeset="27301612" uid="233768" user="f-andreas">
    <tag k="highway" v="traffic_signals"/>
  </node>
  <node id="1039459595" lat="48.1554012" lon="11.5753110" version="2" timestamp="2012-03-18T14:01:36Z" changeset="11019144" uid="64536" user="Michael Forster"/>
  <node id="4264359095" lat="48.1551165" lon="11.5680483" version="2" timestamp="2018-04-07T13:22:13Z" changeset="57891409" uid="367380" user="Mloni"/>
  <node id="4956834108" lat="48.1551519" lon="11.5753528" version="1" timestamp="2017-07-07T13:35:07Z" changeset="50109091" uid="367380" user="Mloni"/>
  <node id="8748896852" lat="48.1536534" lon="11.5680644" version="1" timestamp="2021-05-20T08:34:58Z" changeset="105011927" uid="531886" user="drlellinger"/>
  <node id="9508370962" lat="48.1523946" lon="11.5684351" version="1" timestamp="2022-02-15T18:09:27Z" changeset="117446551" uid="13496000" user="geo-d"/>
  <way id="4071766" version="22" timestamp="2025-05-05T18:16:18Z" changeset="165859249" uid="16061279" user="YellowSoul">
    <nd ref="4956834108"/>
    <nd ref="1679831985"/>
    <nd ref="985216334"/>
    <nd ref="1894222367"/>
    <nd ref="675088767"/>
    <nd ref="7983333"/>
    <tag k="class:bicycle" v="1"/>
    <tag k="cycleway:both" v="no"/>
    <tag k="highway" v="residential"/>
    <tag k="lit" v="yes"/>
    <tag k="maxspeed" v="30"/>
    <tag k="name" v="Georgenstraße"/>
    <tag k="oneway" v="no"/>
    <tag k="parking:both" v="lane"/>
    <tag k="parking:both:orientation" v="parallel"/>
    <tag k="parking:condition:both:1" v="residents"/>
    <tag k="parking:condition:both:1:residents" v="Akademieviertel"/>
    <tag k="parking:condition:both:2" v="ticket"/>
    <tag k="parking:condition:both:2:ticket" v="1h=1€;1d=6€"/>
    <tag k="sidewalk" v="separate"/>
    <tag k="surface" v="asphalt"/>
  </way>
  <way id="4071768" version="21" timestamp="2025-03-22T21:16:15Z" changeset="163964538" uid="44217" user="kjon">
    <nd ref="1954309"/>
    <nd ref="922879370"/>
    <nd ref="7983328"/>
    <nd ref="1679831959"/>
    <nd ref="1954430"/>
    <tag k="bicycle_road" v="yes"/>
    <tag k="class:bicycle" v="1"/>
    <tag k="cycleway:both" v="no"/>
    <tag k="highway" v="residential"/>
    <tag k="lane_markings" v="no"/>
    <tag k="lit" v="yes"/>
    <tag k="maxspeed" v="30"/>
    <tag k="motor_vehicle" v="yes"/>
    <tag k="name" v="Adalbertstraße"/>
    <tag k="name:etymology:wikidata" v="Q60610"/>
    <tag k="oneway" v="yes"/>
    <tag k="oneway:bicycle" v="no"/>
    <tag k="parking:left" v="yes"/>
    <tag k="parking:left:orientation" v="diagonal"/>
    <tag k="parking:right" v="yes"/>
    <tag k="parking:right:orientation" v="parallel"/>
    <tag k="sidewalk" v="both"/>
    <tag k="smoothness" v="good"/>
    <tag k="source:maxspeed" v="DE:bicycle_road"/>
    <tag k="surface" v="asphalt"/>
    <tag k="zone:maxspeed" v="DE:30"/>
    <tag k="zone:traffic" v="DE:urban"/>
  </way>
  <way id="4262211" version="25" timestamp="2025-02-28T13:52:26Z" changeset="163053706" uid="18850925" user="cableway">
    <nd ref="618697480"/>
    <nd ref="3966267737"/>
    <nd ref="2844759599"/>
    <nd ref="3966143623"/>
    <nd ref="25576274"/>
    <nd ref="9508320101"/>
    <nd ref="25576273"/>
    <nd ref="25575942"/>
    <nd ref="7983328"/>
    <nd ref="8748721479"/>
    <nd ref="7983327"/>
    <nd ref="3580259850"/>
    <nd ref="25575939"/>
    <tag k="class:bicycle" v="-1"/>
    <tag k="cycleway:both" v="no"/>
    <tag k="highway" v="residential"/>
    <tag k="lit" v="yes"/>
    <tag k="maxspeed" v="30"/>
    <tag k="name" v="Schraudolphstraße"/>
    <tag k="name:etymology:wikidata" v="Q1405588"/>
    <tag k="oneway" v="yes"/>
    <tag k="oneway:bicycle" v="no"/>
    <tag k="parking:both" v="lane"/>
    <tag k="parking:both:orientation" v="parallel"/>
    <tag k="sidewalk" v="both"/>
    <tag k="sidewalk:both:surface" v="paving_stones"/>
    <tag k="smoothness" v="good"/>
    <tag k="source:width" v="ARCore"/>
    <tag k="surface" v="asphalt"/>
    <tag k="width" v="7.1"/>
  </way>
  <way id="4262221" version="17" timestamp="2024-10-01T12:47:49Z" changeset="157338074" uid="6544565" user="Flarm">
    <nd ref="3906092200"/>
    <nd ref="358561211"/>
    <nd ref="2440548596"/>
    <nd ref="922831100"/>
    <tag k="bicycle_road" v="yes"/>
    <tag k="class:bicycle" v="2"/>
    <tag k="highway" v="residential"/>
    <tag k="lane_markings" v="no"/>
    <tag k="lit" v="yes"/>
    <tag k="maxspeed" v="30"/>
    <tag k="motor_vehicle" v="yes"/>
    <tag k="name" v="Adalbertstraße"/>
    <tag k="name:etymology:wikidata" v="Q60610"/>
    <tag k="sidewalk" v="both"/>
    <tag k="smoothness" v="excellent"/>
    <tag k="source:maxspeed" v="DE:bicycle_road"/>
    <tag k="surface" v="asphalt"/>
    <tag k="traffic_sign" v="DE:244.1"/>
  </way>
  <way id="4262225" version="15" timestamp="2025-04-27T19:39:31Z" changeset="165521129" uid="18850925" user="cableway">
    <nd ref="258890820"/>
    <nd ref="967091728"/>
    <nd ref="27487424"/>
    <nd ref="25575942"/>
    <nd ref="1679831952"/>
    <nd ref="25575941"/>
    <tag k="cycleway:both" v="no"/>
    <tag k="highway" v="residential"/>
    <tag k="lit" v="yes"/>
    <tag k="maxspeed" v="30"/>
    <tag k="name" v="Schnorrstraße"/>
    <tag k="name:etymology:wikidata" v="Q703458"/>
    <tag k="parking:both" v="yes"/>
    <tag k="parking:both:orientation" v="parallel"/>
    <tag k="sidewalk" v="both"/>
    <tag k="smoothness" v="good"/>
    <tag k="surface" v="asphalt"/>
  </way>
  <way id="4262228" version="19" timestamp="2024-04-21T18:18:12Z" changeset="150313736" uid="20785072" user="Herbart1906">
    <nd ref="1955535"/>
    <nd ref="1088755488"/>
    <nd ref="1362826058"/>
    <nd ref="1954405"/>
    <tag k="class:bicycle" v="1"/>
    <tag k="cycleway:both" v="separate"/>
    <tag k="foot" v="use_sidepath"/>
    <tag k="highway" v="residential"/>
    <tag k="lit" v="yes"/>
    <tag k="maxspeed" v="30"/>
    <tag k="name" v="Görresstraße"/>
    <tag k="name:etymology:wikidata" v="Q215730"/>
    <tag k="sidewalk:both" v="separate"/>
    <tag k="smoothness" v="good"/>
    <tag k="surface" v="asphalt"/>
  </way>
  <way id="4498577" version="15" timestamp="2025-04-27T19:39:32Z" changeset="165521125" uid="18850925" user="cableway">
    <nd ref="27487423"/>
    <nd ref="967091799"/>
    <nd ref="3953738575"/>
    <nd ref="27479756"/>
    <nd ref="3953738573"/>
    <nd ref="3953738574"/>
    <nd ref="3953738576"/>
    <nd ref="27479757"/>
    <nd ref="3953738577"/>
    <nd ref="3953738578"/>
    <nd ref="27487424"/>
    <nd ref="3953738579"/>
    <nd ref="3953738580"/>
    <nd ref="27479758"/>
    <nd ref="3953738581"/>
    <nd ref="3953738582"/>
    <nd ref="3953738583"/>
    <nd ref="27479759"/>
    <nd ref="3953738584"/>
    <nd ref="967091831"/>
    <nd ref="27487425"/>
    <tag k="cycleway:both" v="no"/>
    <tag k="highway" v="residential"/>
    <tag k="lit" v="yes"/>
    <tag k="maxspeed" v="30"/>
    <tag k="name" v="Arcisstraße"/>
    <tag k="oneway" v="yes"/>
    <tag k="sidewalk" v="right"/>
    <tag k="sidewalk:right:surface" v="paving_stones"/>
    <tag k="smoothness" v="excellent"/>
    <tag k="surface" v="asphalt"/>
  </way>
  <way id="4645398" version="17" timestamp="2023-10-28T15:41:56Z" changeset="143268904" uid="6285042" user="Biclmont">
    <nd ref="315667013"/>
    <nd ref="8748896829"/>
    <nd ref="3946157840"/>
    <tag k="class:bicycle" v="-2"/>
    <tag k="class:bicycle:non_experienced" v="-2"/>
    <tag k="highway" v="residential"/>
    <tag k="lit" v="yes"/>
    <tag k="maxspeed" v="30"/>
    <tag k="name" v="Luisenstraße"/>
    <tag k="name:etymology:wikidata" v="Q57531"/>
    <tag k="sidewalk:both" v="separate"/>
    <tag k="sidewalk:both:surface" v="paving_stones"/>
    <tag k="smoothness" v="excellent"/>
    <tag k="surface" v="asphalt"/>
  </way>
  <way id="4673749" version="18" timestamp="2024-11-12T20:44:52Z" changeset="159067599" uid="11758604" user="map per">
    <nd ref="1955504"/>
    <nd ref="1088755412"/>
    <nd ref="25576121"/>
    <tag k="class:bicycle" v="1"/>
    <tag k="cycleway:both" v="no"/>
    <tag k="highway" v="residential"/>
    <tag k="lane_markings" v="no"/>
    <tag k="lanes" v="2"/>
    <tag k="lit" v="yes"/>
    <tag k="maxspeed" v="30"/>
    <tag k="name" v="Adalbertstraße"/>
    <tag k="name:etymology:wikidata" v="Q60610"/>
    <tag k="parking:both" v="lane"/>
    <tag k="parking:both:orientation" v="parallel"/>
    <tag k="sidewalk" v="both"/>
    <tag k="sidewalk:both:surface" v="paving_stones"/>
    <tag k="smoothness" v="excellent"/>
    <tag k="source:width" v="ARCore"/>
    <tag k="surface" v="asphalt"/>
    <tag k="width" v="8.1"/>
  </way>
  <way id="16786179" version="39" timestamp="2025-03-22T20:41:43Z" changeset="163963753" uid="44217" user="kjon">
    <nd ref="1954400"/>
    <nd ref="1362751409"/>
    <nd ref="2440498757"/>
    <nd ref="2836367314"/>
    <nd ref="1954403"/>
    <nd ref="8748896834"/>
    <nd ref="315667013"/>
    <nd ref="8748896836"/>
    <nd ref="2836367318"/>
    <nd ref="2836367313"/>
    <nd ref="12401100453"/>
    <nd ref="8057974437"/>
    <nd ref="8132043575"/>
    <nd ref="639077142"/>
    <nd ref="922831058"/>
    <nd ref="83870461"/>
    <tag k="class:bicycle" v="1"/>
    <tag k="cycleway:both" v="no"/>
    <tag k="highway" v="residential"/>
    <tag k="lanes" v="1"/>
    <tag k="lit" v="yes"/>
    <tag k="maxspeed" v="30"/>
    <tag k="name" v="Heßstraße"/>
    <tag k="oneway" v="yes"/>
    <tag k="oneway:bicycle" v="no"/>
    <tag k="parking:both" v="yes"/>
    <tag k="parking:both:orientation" v="parallel"/>
    <tag k="parking:lane:both:parallel" v="parallel"/>
    <tag k="sidewalk:both" v="separate"/>
    <tag k="sidewalk:both:surface" v="paving_stones"/>
    <tag k="smoothness" v="excellent"/>
    <tag k="surface" v="asphalt"/>
    <tag k="width" v="9.0"/>
  </way>
  <way id="27822839" version="32" timestamp="2024-04-21T16:57:15Z" changeset="150310625" uid="20785072" user="Herbart1906">
    <nd ref="1955535"/>
    <nd ref="4019702608"/>
    <nd ref="647081880"/>
    <nd ref="647081897"/>
    <nd ref="647081896"/>
    <nd ref="1955504"/>
    <nd ref="1955505"/>
    <nd ref="647081908"/>
    <nd ref="6788465247"/>
    <nd ref="27161285"/>
    <nd ref="6788465248"/>
    <nd ref="3586813593"/>
    <nd ref="21090904"/>
    <nd ref="3586792944"/>
    <nd ref="1041077314"/>
    <nd ref="1955512"/>
    <nd ref="1088755390"/>
    <nd ref="21457585"/>
    <nd ref="1384982960"/>
    <nd ref="1088755358"/>
    <nd ref="8867266359"/>
    <nd ref="10291535069"/>
    <nd ref="21090905"/>
    <nd ref="3556184926"/>
    <nd ref="696983740"/>
    <tag k="bicycle" v="designated"/>
    <tag k="bicycle_road" v="yes"/>
    <tag k="class:bicycle" v="1"/>
    <tag k="highway" v="residential"/>
    <tag k="lane_markings" v="no"/>
    <tag k="lit" v="yes"/>
    <tag k="maxspeed" v="30"/>
    <tag k="name" v="Tengstraße"/>
    <tag k="name:etymology:wikidata" v="Q1351689"/>
    <tag k="parking:both" v="street_side"/>
    <tag k="parking:both:orientation" v="perpendicular"/>
    <tag k="sidewalk" v="separate"/>
    <tag k="smoothness" v="good"/>
    <tag k="source:maxspeed" v="DE:bicycle_road"/>
    <tag k="surface" v="asphalt"/>
    <tag k="traffic_sign" v="DE:244.1"/>
  </way>
  <way id="30603896" version="28" timestamp="2025-03-26T11:59:28Z" changeset="164118473" uid="12120321" user="bollyboll">
    <nd ref="1954431"/>
    <nd ref="1680052354"/>
    <nd ref="3580259836"/>
    <nd ref="4956834108"/>
    <tag k="bicycle" v="yes"/>
    <tag k="bus" v="opposite"/>
    <tag k="cycleway:both" v="separate"/>
    <tag k="highway" v="tertiary"/>
    <tag k="lanes" v="1"/>
    <tag k="lit" v="yes"/>
    <tag k="maxspeed" v="50"/>
    <tag k="name" v="Nordendstraße"/>
    <tag k="oneway" v="yes"/>
    <tag k="oneway:bicycle" v="no"/>
    <tag k="oneway:bus" v="no"/>
    <tag k="oneway:psv" v="no"/>
    <tag k="oneway:taxi" v="no"/>
    <tag k="oneway:tram" v="no"/>
    <tag k="parking:both" v="no"/>
    <tag k="postal_code" v="80799"/>
    <tag k="sidewalk" v="separate"/>
    <tag k="smoothness" v="excellent"/>
    <tag k="source:width" v="ARCore"/>
    <tag k="surface" v="asphalt"/>
    <tag k="taxi" v="opposite"/>
    <tag k="tram" v="opposite"/>
    <tag k="width" v="6.7"/>
  </way>
  <way id="31095498" version="7" timestamp="2023-05-26T15:13:21Z" changeset="136592544" uid="12657263" user="bascho">
    <nd ref="1134727545"/>
    <nd ref="1134727546"/>
    <nd ref="1134727552"/>
    <nd ref="345557711"/>
    <nd ref="1372082228"/>
    <nd ref="1134727545"/>
    <tag k="addr:city" v="München"/>
    <tag k="addr:country" v="DE"/>
    <tag k="addr:housename" v="Galerie Royal"/>
    <tag k="addr:housenumber" v="66"/>
    <tag k="addr:postcode" v="80798"/>
    <tag k="addr:street" v="Luisenstraße"/>
    <tag k="building" v="yes"/>
    <tag k="fee" v="no"/>
    <tag k="name" v="Galerie Royal"/>
    <tag k="roof:colour" v="#706666"/>
    <tag k="roof:orientation" v="across"/>
    <tag k="roof:shape" v="gabled"/>
    <tag k="shop" v="art"/>
    <tag k="tourism" v="gallery"/>
  </way>
  <way id="34130308" version="33" timestamp="2025-05-05T12:42:06Z" changeset="165844191" uid="19842223" user="randomly-generated-name">
    <nd ref="9508320100"/>
    <nd ref="2440489870"/>
    <nd ref="2440489881"/>
    <nd ref="9508370962"/>
    <tag k="class:bicycle" v="-1"/>
    <tag k="cycleway:both" v="no"/>
    <tag k="highway" v="residential"/>
    <tag k="lanes" v="2"/>
    <tag k="lit" v="yes"/>
    <tag k="maxspeed" v="30"/>
    <tag k="name" v="Schellingstraße"/>
    <tag k="name:etymology:wikidata" v="Q60070"/>
    <tag k="parking:both" v="yes"/>
    <tag k="parking:both:orientation" v="parallel"/>
    <tag k="sidewalk:both" v="separate"/>
    <tag k="smoothness" v="good"/>
    <tag k="surface" v="asphalt"/>
  </way>
  <way id="40526199" version="14" timestamp="2025-04-16T08:24:54Z" changeset="165016624" uid="11816441" user="CommanderStorm">
    <nd ref="1372082027"/>
    <nd ref="12759224347"/>
    <nd ref="491533806"/>
    <nd ref="491533785"/>
    <nd ref="491533826"/>
    <nd ref="491533790"/>
    <nd ref="1567305589"/>
    <nd ref="491533794"/>
    <nd ref="491533797"/>
    <nd ref="1372082033"/>
    <nd ref="4638819855"/>
    <nd ref="1372082027"/>
    <tag k="building" v="apartments"/>
    <tag k="building:levels" v="6"/>
    <tag k="name" v="Haus 1"/>
  </way>
  <way id="40526200" version="5" timestamp="2022-06-08T12:45:47Z" changeset="122117270" uid="16233673" user="nPULP">
    <nd ref="491533809"/>
    <nd ref="491533813"/>
    <nd ref="491533818"/>
    <nd ref="491533821"/>
    <nd ref="491533823"/>
    <nd ref="928314843"/>
    <nd ref="491533809"/>
    <tag k="addr:city" v="München"/>
    <tag k="addr:country" v="DE"/>
    <tag k="addr:housenumber" v="39"/>
    <tag k="addr:postcode" v="80799"/>
    <tag k="addr:street" v="Arcisstraße"/>
    <tag k="building" v="apartments"/>
    <tag k="building:colour" v="#F0F0F0"/>
    <tag k="building:levels" v="6"/>
  </way>
  <way id="40526201" version="3" timestamp="2012-01-02T08:32:35Z" changeset="10268228" uid="287306" user="Matthias Frank">
    <nd ref="491533828"/>
    <nd ref="491533830"/>
    <nd ref="491533833"/>
    <nd ref="491533834"/>
    <nd ref="491533836"/>
    <nd ref="491533837"/>
    <nd ref="491533828"/>
    <tag k="addr:city" v="München"/>
    <tag k="addr:country" v="DE"/>
    <tag k="addr:housenumber" v="24"/>
    <tag k="addr:postcode" v="80799"/>
    <tag k="addr:street" v="Heßstraße"/>
    <tag k="building" v="yes"/>
  </way>
  <way id="40526209" version="7" timestamp="2020-11-21T22:07:50Z" changeset="94563384" uid="43207" user="kdkeller">
    <nd ref="491533926"/>
    <nd ref="491533929"/>
    <nd ref="491533933"/>
    <nd ref="491533949"/>
    <nd ref="491533939"/>
    <nd ref="491533926"/>
    <tag k="addr:city" v="München"/>
    <tag k="addr:country" v="DE"/>
    <tag k="addr:housenumber" v="28"/>
    <tag k="addr:postcode" v="80799"/>
    <tag k="addr:street" v="Heßstraße"/>
    <tag k="architect" v="Sep Ruf"/>
    <tag k="building" v="yes"/>
    <tag k="building:colour" v="#BBBBBB"/>
    <tag k="historic" v="building"/>
    <tag k="roof:colour" v="#DDDDDD"/>
    <tag k="start_date" v="1952"/>
    <tag k="wikidata" v="Q41180657"/>
  </way>
  <way id="40527346" version="6" timestamp="2022-11-06T16:55:11Z" changeset="128559384" uid="1476473" user="HenryV">
    <nd ref="491543771"/>
    <nd ref="491543772"/>
    <nd ref="2440489859"/>
    <nd ref="491543774"/>
    <nd ref="491543768"/>
    <nd ref="491543766"/>
    <nd ref="491543777"/>
    <nd ref="491543771"/>
    <tag k="addr:city" v="München"/>
    <tag k="addr:housenumber" v="85"/>
    <tag k="addr:postcode" v="80799"/>
    <tag k="addr:street" v="Schellingstraße"/>
    <tag k="building" v="apartments"/>
    <tag k="building:levels" v="6"/>
  </way>
  <way id="40527348" version="5" timestamp="2022-03-14T06:56:24Z" changeset="118455998" uid="78613" user="heilbron">
    <nd ref="491543790"/>
    <nd ref="491543792"/>
    <nd ref="491543793"/>
    <nd ref="491543795"/>
    <nd ref="491543797"/>
    <nd ref="491543798"/>
    <nd ref="491543801"/>
    <nd ref="491543805"/>
    <nd ref="491543803"/>
    <nd ref="2836367327"/>
    <nd ref="491543790"/>
    <tag k="addr:city" v="München"/>
    <tag k="addr:country" v="DE"/>
    <tag k="addr:housenumber" v="30"/>
    <tag k="addr:postcode" v="80799"/>
    <tag k="addr:street" v="Heßstraße"/>
    <tag k="building" v="apartments"/>
  </way>
  <way id="51508352" version="26" timestamp="2025-03-31T09:16:44Z" changeset="164319938" uid="22537807" user="CityMappingSuperhero">
    <nd ref="967091764"/>
    <nd ref="12715535132"/>
    <nd ref="8748721318"/>
    <nd ref="618697472"/>
    <nd ref="83870461"/>
    <nd ref="6262887387"/>
    <nd ref="4638819851"/>
    <nd ref="3813915947"/>
    <nd ref="20835091"/>
    <tag k="bicycle" v="yes"/>
    <tag k="class:bicycle" v="1"/>
    <tag k="cycleway:both" v="separate"/>
    <tag k="foot" v="use_sidepath"/>
    <tag k="highway" v="secondary"/>
    <tag k="lanes" v="2"/>
    <tag k="lit" v="yes"/>
    <tag k="maxspeed" v="50"/>
    <tag k="name" v="Arcisstraße"/>
    <tag k="shoulder" v="no"/>
    <tag k="sidewalk:both" v="separate"/>
    <tag k="smoothness" v="good"/>
    <tag k="source:maxspeed" v="DE:urban"/>
    <tag k="surface" v="asphalt"/>
    <tag k="width" v="11.2"/>
  </way>
  <way id="51510850" version="5" timestamp="2023-02-17T20:50:41Z" changeset="132694287" uid="137242" user="Rainero">
    <nd ref="10101046962"/>
    <nd ref="1975523603"/>
    <nd ref="658546087"/>
    <nd ref="10101046971"/>
    <nd ref="10101046968"/>
    <nd ref="658546085"/>
    <nd ref="10101046965"/>
    <nd ref="10101046963"/>
    <nd ref="10101046962"/>
    <tag k="building" v="shed"/>
    <tag k="name" v="Arkadengräber"/>
    <tag k="source" v="Wikipedia"/>
  </way>
  <way id="53530907" version="15" timestamp="2024-07-25T13:29:11Z" changeset="154394456" uid="12120321" user="bollyboll">
    <nd ref="1955500"/>
    <nd ref="345548194"/>
    <nd ref="967091759"/>
    <nd ref="922831072"/>
    <nd ref="922879323"/>
    <nd ref="12073521501"/>
    <nd ref="4639828771"/>
    <nd ref="25576273"/>
    <nd ref="3580335731"/>
    <nd ref="1679831940"/>
    <nd ref="1954411"/>
    <tag k="class:bicycle" v="1"/>
    <tag k="cycleway:both" v="no"/>
    <tag k="highway" v="residential"/>
    <tag k="lit" v="yes"/>
    <tag k="maxspeed" v="30"/>
    <tag k="name" v="Zieblandstraße"/>
    <tag k="name:etymology:wikidata" v="Q84473"/>
    <tag k="sidewalk" v="both"/>
    <tag k="surface" v="asphalt"/>
  </way>
  <way id="53530910" version="13" timestamp="2024-10-05T14:32:36Z" changeset="157504012" uid="6544565" user="Flarm">
    <nd ref="20835174"/>
    <nd ref="658546081"/>
    <nd ref="1955500"/>
    <tag k="class:bicycle" v="1"/>
    <tag k="cycleway:both" v="no"/>
    <tag k="highway" v="residential"/>
    <tag k="lane_markings" v="no"/>
    <tag k="lanes" v="2"/>
    <tag k="lit" v="yes"/>
    <tag k="maxspeed" v="30"/>
    <tag k="name" v="Zieblandstraße"/>
    <tag k="name:etymology:wikidata" v="Q84473"/>
    <tag k="sidewalk" v="both"/>
    <tag k="sidewalk:both:surface" v="paving_stones"/>
    <tag k="smoothness" v="excellent"/>
    <tag k="surface" v="asphalt"/>
  </way>
  <way id="79518300" version="4" timestamp="2021-12-14T08:17:47Z" changeset="114911461" uid="78613" user="heilbron">
    <nd ref="928192639"/>
    <nd ref="928192579"/>
    <nd ref="928192662"/>
    <nd ref="928192622"/>
    <nd ref="928192639"/>
    <tag k="addr:city" v="München"/>
    <tag k="addr:country" v="DE"/>
    <tag k="addr:housenumber" v="1"/>
    <tag k="addr:postcode" v="80799"/>
    <tag k="addr:street" v="Zieblandstraße"/>
    <tag k="building" v="apartments"/>
  </way>
  <way id="79518302" version="10" timestamp="2023-05-04T14:35:35Z" changeset="135704235" uid="12120321" user="bollyboll">
    <nd ref="928192522"/>
    <nd ref="928192650"/>
    <nd ref="3757065559"/>
    <nd ref="928192548"/>
    <nd ref="928192695"/>
    <nd ref="928192522"/>
    <tag k="addr:city" v="München"/>
    <tag k="addr:country" v="DE"/>
    <tag k="addr:housenumber" v="33"/>
    <tag k="addr:postcode" v="80799"/>
    <tag k="addr:street" v="Barer Straße"/>
    <tag k="building" v="apartments"/>
    <tag k="building:colour" v="#C0E8B0"/>
    <tag k="building:levels" v="4"/>
    <tag k="roof:colour" v="#EEEEEE"/>
    <tag k="roof:levels" v="1"/>
    <tag k="roof:orientation" v="across"/>
    <tag k="roof:shape" v="gabled"/>
    <tag k="wikidata" v="Q41180356"/>
  </way>
  <way id="79518304" version="6" timestamp="2021-12-14T08:17:53Z" changeset="114911461" uid="78613" user="heilbron">
    <nd ref="928192567"/>
    <nd ref="928192674"/>
    <nd ref="928192573"/>
    <nd ref="928192530"/>
    <nd ref="928192567"/>
    <tag k="addr:city" v="München"/>
    <tag k="addr:country" v="DE"/>
    <tag k="addr:housenumber" v="8"/>
    <tag k="addr:postcode" v="80799"/>
    <tag k="addr:street" v="Schraudolphstraße"/>
    <tag k="building" v="apartments"/>
    <tag k="roof:colour" v="red"/>
    <tag k="roof:shape" v="gabled"/>
  </way>
  <way id="79518305" version="5" timestamp="2022-03-14T07:02:24Z" changeset="118455998" uid="78613" user="heilbron">
    <nd ref="928192630"/>
    <nd ref="1372082123"/>
    <nd ref="928192636"/>
    <nd ref="928192533"/>
    <nd ref="928192506"/>
    <nd ref="928192539"/>
    <nd ref="928192630"/>
    <tag k="addr:city" v="München"/>
    <tag k="addr:country" v="DE"/>
    <tag k="addr:housenumber" v="44"/>
    <tag k="addr:postcode" v="80799"/>
    <tag k="addr:street" v="Arcisstraße"/>
    <tag k="building" v="apartments"/>
  </way>
  <way id="79518306" version="4" timestamp="2022-03-14T07:02:26Z" changeset="118455998" uid="78613" user="heilbron">
    <nd ref="928192572"/>
    <nd ref="928192637"/>
    <nd ref="928192677"/>
    <nd ref="928192619"/>
    <nd ref="928192514"/>
    <nd ref="928192600"/>
    <nd ref="928192535"/>
    <nd ref="928192679"/>
    <nd ref="928192572"/>
    <tag k="addr:city" v="München"/>
    <tag k="addr:country" v="DE"/>
    <tag k="addr:housenumber" v="64"/>
    <tag k="addr:street" v="Schellingstraße"/>
    <tag k="building" v="apartments"/>
    <tag k="roof:colour" v="red"/>
  </way>
  <way id="79518309" version="6" timestamp="2021-12-14T08:17:27Z" changeset="114911461" uid="78613" user="heilbron">
    <nd ref="928192683"/>
    <nd ref="928192520"/>
    <nd ref="928192580"/>
    <nd ref="928192536"/>
    <nd ref="928192683"/>
    <tag k="addr:city" v="München"/>
    <tag k="addr:country" v="DE"/>
    <tag k="addr:housenumber" v="4"/>
    <tag k="addr:postcode" v="80799"/>
    <tag k="addr:street" v="Schraudolphstraße"/>
    <tag k="building" v="apartments"/>
    <tag k="roof:colour" v="red"/>
    <tag k="roof:shape" v="gabled"/>
  </way>
  <way id="79518310" version="6" timestamp="2021-12-14T08:17:17Z" changeset="114911461" uid="78613" user="heilbron">
    <nd ref="928192660"/>
    <nd ref="928192518"/>
    <nd ref="928192558"/>
    <nd ref="928192620"/>
    <nd ref="928192660"/>
    <tag k="addr:city" v="München"/>
    <tag k="addr:country" v="DE"/>
    <tag k="addr:housenumber" v="71"/>
    <tag k="addr:postcode" v="80799"/>
    <tag k="addr:street" v="Schellingstraße"/>
    <tag k="building" v="apartments"/>
    <tag k="building:levels" v="5"/>
    <tag k="roof:colour" v="red"/>
    <tag k="roof:shape" v="gabled"/>
  </way>
  <way id="79518313" version="5" timestamp="2021-12-14T08:17:12Z" changeset="114911461" uid="78613" user="heilbron">
    <nd ref="928192587"/>
    <nd ref="928192643"/>
    <nd ref="928192628"/>
    <nd ref="928192568"/>
    <nd ref="928192587"/>
    <tag k="addr:city" v="München"/>
    <tag k="addr:country" v="DE"/>
    <tag k="addr:housenumber" v="12"/>
    <tag k="addr:postcode" v="80799"/>
    <tag k="addr:street" v="Heßstraße"/>
    <tag k="building" v="apartments"/>
    <tag k="roof:colour" v="grey"/>
    <tag k="roof:shape" v="gabled"/>
  </way>
  <way id="79518314" version="7" timestamp="2021-11-15T07:19:31Z" changeset="113790997" uid="14462475" user="xtsudji">
    <nd ref="928192655"/>
    <nd ref="928192511"/>
    <nd ref="928192553"/>
    <nd ref="928192659"/>
    <nd ref="928192682"/>
    <nd ref="928192655"/>
    <tag k="addr:city" v="München"/>
    <tag k="addr:country" v="DE"/>
    <tag k="addr:housenumber" v="39"/>
    <tag k="addr:postcode" v="80799"/>
    <tag k="addr:street" v="Barer Straße"/>
    <tag k="building" v="apartments"/>
    <tag k="building:colour" v="#F8D090"/>
    <tag k="building:levels" v="5"/>
    <tag k="roof:colour" v="red"/>
    <tag k="roof:shape" v="gabled"/>
    <tag k="wikidata" v="Q98644176"/>
  </way>
  <way id="79518315" version="5" timestamp="2021-12-14T08:17:49Z" changeset="114911461" uid="78613" user="heilbron">
    <nd ref="928192647"/>
    <nd ref="928192607"/>
    <nd ref="928192544"/>
    <nd ref="928192693"/>
    <nd ref="928192647"/>
    <tag k="addr:city" v="München"/>
    <tag k="addr:country" v="DE"/>
    <tag k="addr:housenumber" v="5"/>
    <tag k="addr:postcode" v="80799"/>
    <tag k="addr:street" v="Zieblandstraße"/>
    <tag k="building" v="apartments"/>
    <tag k="roof:colour" v="red"/>
    <tag k="roof:shape" v="gabled"/>
  </way>
  <way id="79518317" version="8" timestamp="2022-04-08T13:15:36Z" changeset="119471283" uid="14982351" user="Edelnudel">
    <nd ref="3416589573"/>
    <nd ref="928192687"/>
    <nd ref="928192625"/>
    <nd ref="928192585"/>
    <nd ref="928192608"/>
    <nd ref="3416589573"/>
    <tag k="addr:city" v="München"/>
    <tag k="addr:country" v="DE"/>
    <tag k="addr:housenumber" v="2"/>
    <tag k="addr:postcode" v="80799"/>
    <tag k="addr:street" v="Heßstraße"/>
    <tag k="building" v="apartments"/>
    <tag k="building:levels" v="6"/>
    <tag k="roof:levels" v="1"/>
    <tag k="roof:shape" v="gabled"/>
  </way>
  <way id="79518319" version="6" timestamp="2021-12-14T08:17:52Z" changeset="114911461" uid="78613" user="heilbron">
    <nd ref="928192686"/>
    <nd ref="928192559"/>
    <nd ref="928192610"/>
    <nd ref="928192674"/>
    <nd ref="928192567"/>
    <nd ref="928192686"/>
    <tag k="addr:city" v="München"/>
    <tag k="addr:country" v="DE"/>
    <tag k="addr:housenumber" v="10"/>
    <tag k="addr:postcode" v="80799"/>
    <tag k="addr:street" v="Schraudolphstraße"/>
    <tag k="building" v="apartments"/>
    <tag k="roof:colour" v="red"/>
    <tag k="roof:shape" v="gabled"/>
  </way>
  <way id="79518321" version="7" timestamp="2021-12-14T08:17:21Z" changeset="114911461" uid="78613" user="heilbron">
    <nd ref="928192543"/>
    <nd ref="2377990923"/>
    <nd ref="2377990925"/>
    <nd ref="2377990927"/>
    <nd ref="2377990929"/>
    <nd ref="2377990930"/>
    <nd ref="928192606"/>
    <nd ref="928192543"/>
    <tag k="addr:city" v="München"/>
    <tag k="addr:country" v="DE"/>
    <tag k="addr:housenumber" v="40"/>
    <tag k="addr:postcode" v="80799"/>
    <tag k="addr:street" v="Arcisstraße"/>
    <tag k="building" v="apartments"/>
    <tag k="building:levels" v="6"/>
    <tag k="roof:shape" v="gabled"/>
  </way>
  <way id="79518322" version="5" timestamp="2021-12-14T08:17:29Z" changeset="114911461" uid="78613" user="heilbron">
    <nd ref="928192523"/>
    <nd ref="928192609"/>
    <nd ref="928192694"/>
    <nd ref="928192633"/>
    <nd ref="928192523"/>
    <tag k="addr:housenumber" v="61"/>
    <tag k="addr:street" v="Schellingstraße"/>
    <tag k="building" v="apartments"/>
    <tag k="building:levels" v="6"/>
    <tag k="roof:colour" v="red"/>
    <tag k="roof:shape" v="gabled"/>
    <tag k="source:addr:housenumber" v="interpolation"/>
  </way>
  <way id="79518324" version="4" timestamp="2011-08-24T21:32:24Z" changeset="9116860" uid="56526" user="JJ Rammerl">
    <nd ref="928192572"/>
    <nd ref="928192679"/>
    <nd ref="928192577"/>
    <nd ref="928192596"/>
    <nd ref="928192594"/>
    <nd ref="928192654"/>
    <nd ref="928192508"/>
    <nd ref="928192572"/>
    <tag k="addr:city" v="München"/>
    <tag k="addr:country" v="DE"/>
    <tag k="addr:housenumber" v="9"/>
    <tag k="addr:postcode" v="80799"/>
    <tag k="addr:street" v="Schraudolphstraße"/>
    <tag k="building" v="yes"/>
  </way>
  <way id="79518326" version="4" timestamp="2021-12-14T08:17:48Z" changeset="114911461" uid="78613" user="heilbron">
    <nd ref="928192647"/>
    <nd ref="928192579"/>
    <nd ref="928192639"/>
    <nd ref="928192607"/>
    <nd ref="928192647"/>
    <tag k="addr:city" v="München"/>
    <tag k="addr:country" v="DE"/>
    <tag k="addr:housenumber" v="3"/>
    <tag k="addr:postcode" v="80799"/>
    <tag k="addr:street" v="Zieblandstraße"/>
    <tag k="building" v="apartments"/>
  </way>
  <way id="79518328" version="8" timestamp="2021-12-14T08:17:43Z" changeset="114911461" uid="78613" user="heilbron">
    <nd ref="928192635"/>
    <nd ref="928192675"/>
    <nd ref="3608601613"/>
    <nd ref="3779694737"/>
    <nd ref="928192585"/>
    <nd ref="928192625"/>
    <nd ref="3608601610"/>
    <nd ref="928192635"/>
    <tag k="addr:city" v="München"/>
    <tag k="addr:country" v="DE"/>
    <tag k="addr:housenumber" v="4"/>
    <tag k="addr:postcode" v="80799"/>
    <tag k="addr:street" v="Heßstraße"/>
    <tag k="building" v="apartments"/>
    <tag k="roof:colour" v="#807070"/>
    <tag k="roof:shape" v="gabled"/>
  </way>
  <way id="79518332" version="6" timestamp="2021-11-15T07:19:01Z" changeset="113790997" uid="14462475" user="xtsudji">
    <nd ref="928192695"/>
    <nd ref="928192548"/>
    <nd ref="928192592"/>
    <nd ref="928192531"/>
    <nd ref="928192695"/>
    <tag k="addr:city" v="München"/>
    <tag k="addr:country" v="DE"/>
    <tag k="addr:housenumber" v="35"/>
    <tag k="addr:postcode" v="80799"/>
    <tag k="addr:street" v="Barer Straße"/>
    <tag k="building" v="apartments"/>
    <tag k="building:colour" v="#FFFF90"/>
    <tag k="building:levels" v="4"/>
    <tag k="roof:colour" v="grey"/>
    <tag k="roof:shape" v="gabled"/>
  </way>
  <way id="79518335" version="9" timestamp="2019-03-12T16:05:07Z" changeset="68068076" uid="9451067" user="b-jazz-bot">
    <nd ref="928192540"/>
    <nd ref="928192671"/>
    <nd ref="928192545"/>
    <nd ref="928192652"/>
    <nd ref="928192550"/>
    <nd ref="928192665"/>
    <nd ref="928192540"/>
    <tag k="addr:city" v="München"/>
    <tag k="addr:country" v="DE"/>
    <tag k="addr:housename" v="Ellen-Ammann-Haus"/>
    <tag k="addr:housenumber" v="1"/>
    <tag k="addr:postcode" v="80799"/>
    <tag k="addr:street" v="Schraudolphstraße"/>
    <tag k="building" v="house"/>
    <tag k="name" v="Familienpflegewerk"/>
    <tag k="roof:colour" v="red"/>
    <tag k="roof:shape" v="gabled"/>
    <tag k="website" v="https://familienpflegewerk.de/"/>
  </way>
  <way id="79518336" version="7" timestamp="2021-12-14T08:17:26Z" changeset="114911461" uid="78613" user="heilbron">
    <nd ref="928192580"/>
    <nd ref="928192520"/>
    <nd ref="928192642"/>
    <nd ref="928192603"/>
    <nd ref="928192561"/>
    <nd ref="928192580"/>
    <tag k="addr:city" v="München"/>
    <tag k="addr:country" v="DE"/>
    <tag k="addr:housenumber" v="2"/>
    <tag k="addr:postcode" v="80799"/>
    <tag k="addr:street" v="Schraudolphstraße"/>
    <tag k="building" v="apartments"/>
    <tag k="building:levels" v="5"/>
    <tag k="roof:colour" v="red"/>
    <tag k="roof:levels" v="1"/>
    <tag k="roof:shape" v="gabled"/>
  </way>
  <way id="79518338" version="4" timestamp="2021-12-14T08:17:45Z" changeset="114911461" uid="78613" user="heilbron">
    <nd ref="928192586"/>
    <nd ref="928192616"/>
    <nd ref="928192554"/>
    <nd ref="928192512"/>
    <nd ref="928192656"/>
    <nd ref="928192586"/>
    <tag k="addr:city" v="München"/>
    <tag k="addr:country" v="DE"/>
    <tag k="addr:housenumber" v="43"/>
    <tag k="addr:postcode" v="80799"/>
    <tag k="addr:street" v="Barer Straße"/>
    <tag k="building" v="apartments"/>
    <tag k="wikidata" v="Q41180362"/>
  </way>
  <way id="79518340" version="7" timestamp="2021-12-14T08:17:16Z" changeset="114911461" uid="78613" user="heilbron">
    <nd ref="928192620"/>
    <nd ref="928192558"/>
    <nd ref="928192515"/>
    <nd ref="928192556"/>
    <nd ref="928192658"/>
    <nd ref="928192620"/>
    <tag k="addr:housenumber" v="69"/>
    <tag k="addr:street" v="Schellingstraße"/>
    <tag k="building" v="apartments"/>
    <tag k="building:levels" v="5"/>
    <tag k="roof:colour" v="red"/>
    <tag k="roof:shape" v="gabled"/>
    <tag k="source:addr:housenumber" v="interpolation"/>
  </way>
  <way id="79518342" version="5" timestamp="2021-12-14T08:17:31Z" changeset="114911461" uid="78613" user="heilbron">
    <nd ref="928192557"/>
    <nd ref="928192684"/>
    <nd ref="928192538"/>
    <nd ref="928192668"/>
    <nd ref="928192557"/>
    <tag k="addr:city" v="München"/>
    <tag k="addr:country" v="DE"/>
    <tag k="addr:housenumber" v="57"/>
    <tag k="addr:postcode" v="80799"/>
    <tag k="addr:street" v="Schellingstraße"/>
    <tag k="building" v="apartments"/>
    <tag k="building:colour" v="#FFFFC0"/>
    <tag k="building:levels" v="5"/>
    <tag k="roof:colour" v="lightgrey"/>
    <tag k="roof:shape" v="gabled"/>
  </way>
  <way id="79518344" version="5" timestamp="2022-03-14T07:02:23Z" changeset="118455998" uid="78613" user="heilbron">
    <nd ref="928192539"/>
    <nd ref="928192688"/>
    <nd ref="4639828773"/>
    <nd ref="928192588"/>
    <nd ref="928192525"/>
    <nd ref="928192542"/>
    <nd ref="928192630"/>
    <nd ref="928192539"/>
    <tag k="addr:city" v="München"/>
    <tag k="addr:country" v="DE"/>
    <tag k="addr:housenumber" v="46"/>
    <tag k="addr:postcode" v="80799"/>
    <tag k="addr:street" v="Arcisstraße"/>
    <tag k="building" v="apartments"/>
  </way>
  <way id="79518345" version="5" timestamp="2021-12-14T08:17:50Z" changeset="114911461" uid="78613" user="heilbron">
    <nd ref="928192693"/>
    <nd ref="928192544"/>
    <nd ref="928192613"/>
    <nd ref="928192590"/>
    <nd ref="928192507"/>
    <nd ref="928192526"/>
    <nd ref="928192693"/>
    <tag k="addr:city" v="München"/>
    <tag k="addr:country" v="DE"/>
    <tag k="addr:housenumber" v="7"/>
    <tag k="addr:postcode" v="80799"/>
    <tag k="addr:street" v="Zieblandstraße"/>
    <tag k="building" v="apartments"/>
    <tag k="roof:shape" v="gabled"/>
  </way>
  <way id="79518347" version="7" timestamp="2025-04-16T08:59:28Z" changeset="165017992" uid="11816441" user="CommanderStorm">
    <nd ref="928192543"/>
    <nd ref="928192606"/>
    <nd ref="928192631"/>
    <nd ref="928192589"/>
    <nd ref="928192680"/>
    <nd ref="928192597"/>
    <nd ref="12759248844"/>
    <nd ref="928192543"/>
    <tag k="addr:city" v="München"/>
    <tag k="addr:country" v="DE"/>
    <tag k="addr:housenumber" v="75"/>
    <tag k="addr:postcode" v="80799"/>
    <tag k="addr:street" v="Schellingstraße"/>
    <tag k="building" v="apartments"/>
    <tag k="building:colour" v="#FFFFD0"/>
    <tag k="building:levels" v="7"/>
    <tag k="roof:colour" v="red"/>
    <tag k="roof:shape" v="gabled"/>
  </way>
  <way id="79518349" version="6" timestamp="2021-12-14T08:17:46Z" changeset="114911461" uid="78613" user="heilbron">
    <nd ref="928192541"/>
    <nd ref="928192690"/>
    <nd ref="928192644"/>
    <nd ref="928192663"/>
    <nd ref="928192662"/>
    <nd ref="928192622"/>
    <nd ref="928192541"/>
    <tag k="addr:city" v="München"/>
    <tag k="addr:country" v="DE"/>
    <tag k="addr:housenumber" v="47"/>
    <tag k="addr:postcode" v="80799"/>
    <tag k="addr:street" v="Barer Straße"/>
    <tag k="building" v="apartments"/>
    <tag k="roof:colour" v="red"/>
    <tag k="roof:shape" v="gabled"/>
  </way>
  <way id="79518350" version="7" timestamp="2015-09-22T12:13:18Z" changeset="34181937" uid="14390" user="BeKri">
    <nd ref="928192605"/>
    <nd ref="2844766616"/>
    <nd ref="3754440445"/>
    <nd ref="2844759593"/>
    <nd ref="928192671"/>
    <nd ref="928192545"/>
    <nd ref="2844766603"/>
    <nd ref="928192645"/>
    <nd ref="928192605"/>
    <tag k="addr:city" v="München"/>
    <tag k="addr:country" v="DE"/>
    <tag k="addr:housenumber" v="3"/>
    <tag k="addr:postcode" v="80799"/>
    <tag k="addr:street" v="Schraudolphstraße"/>
    <tag k="building" v="yes"/>
    <tag k="roof:colour" v="red"/>
    <tag k="roof:shape" v="gabled"/>
  </way>
  <way id="79518352" version="5" timestamp="2021-12-14T08:17:28Z" changeset="114911461" uid="78613" user="heilbron">
    <nd ref="928192633"/>
    <nd ref="928192694"/>
    <nd ref="928192527"/>
    <nd ref="928192672"/>
    <nd ref="928192633"/>
    <tag k="addr:housenumber" v="63"/>
    <tag k="addr:street" v="Schellingstraße"/>
    <tag k="building" v="apartments"/>
    <tag k="building:levels" v="6"/>
    <tag k="roof:colour" v="red"/>
    <tag k="roof:shape" v="gabled"/>
    <tag k="source:addr:housenumber" v="interpolation"/>
  </way>
  <way id="79518353" version="4" timestamp="2022-03-14T07:02:28Z" changeset="118455998" uid="78613" user="heilbron">
    <nd ref="928192602"/>
    <nd ref="928192532"/>
    <nd ref="928192616"/>
    <nd ref="928192586"/>
    <nd ref="928192626"/>
    <nd ref="928192537"/>
    <nd ref="928192602"/>
    <tag k="addr:city" v="München"/>
    <tag k="addr:country" v="DE"/>
    <tag k="addr:housenumber" v="54"/>
    <tag k="addr:postcode" v="80799"/>
    <tag k="addr:street" v="Schellingstraße"/>
    <tag k="building" v="apartments"/>
    <tag k="building:levels" v="5"/>
  </way>
  <way id="79518355" version="8" timestamp="2021-12-14T08:17:23Z" changeset="114911461" uid="78613" user="heilbron">
    <nd ref="928192676"/>
    <nd ref="928192549"/>
    <nd ref="928192575"/>
    <nd ref="7021685804"/>
    <nd ref="928192534"/>
    <nd ref="928192513"/>
    <nd ref="928192618"/>
    <nd ref="928192676"/>
    <tag k="addr:city" v="München"/>
    <tag k="addr:country" v="DE"/>
    <tag k="addr:housenumber" v="32"/>
    <tag k="addr:postcode" v="80799"/>
    <tag k="addr:street" v="Arcisstraße"/>
    <tag k="building" v="apartments"/>
    <tag k="building:colour" v="white"/>
    <tag k="building:levels" v="5"/>
    <tag k="roof:colour" v="red"/>
    <tag k="roof:shape" v="gabled"/>
  </way>
  <way id="79518357" version="7" timestamp="2023-10-04T19:58:17Z" changeset="142161819" uid="1717726" user="UKausch">
    <nd ref="928192682"/>
    <nd ref="928192659"/>
    <nd ref="928192601"/>
    <nd ref="928192684"/>
    <nd ref="928192557"/>
    <nd ref="4111277976"/>
    <nd ref="928192516"/>
    <nd ref="928192682"/>
    <tag k="addr:city" v="München"/>
    <tag k="addr:country" v="DE"/>
    <tag k="addr:housenumber" v="41"/>
    <tag k="addr:postcode" v="80799"/>
    <tag k="addr:street" v="Barer Straße"/>
    <tag k="building" v="apartments"/>
    <tag k="building:colour" v="#E05040"/>
    <tag k="building:levels" v="5"/>
    <tag k="roof:colour" v="red"/>
    <tag k="roof:shape" v="gabled"/>
  </way>
  <way id="79518358" version="5" timestamp="2021-12-14T08:17:45Z" changeset="114911461" uid="78613" user="heilbron">
    <nd ref="928192656"/>
    <nd ref="928192512"/>
    <nd ref="1133140882"/>
    <nd ref="928192690"/>
    <nd ref="928192644"/>
    <nd ref="928192656"/>
    <tag k="addr:city" v="München"/>
    <tag k="addr:country" v="DE"/>
    <tag k="addr:housenumber" v="45"/>
    <tag k="addr:postcode" v="80799"/>
    <tag k="addr:street" v="Barer Straße"/>
    <tag k="building" v="apartments"/>
    <tag k="wikidata" v="Q41180364"/>
  </way>
  <way id="79518361" version="7" timestamp="2021-12-14T08:17:25Z" changeset="114911461" uid="78613" user="heilbron">
    <nd ref="928192603"/>
    <nd ref="928192629"/>
    <nd ref="928192691"/>
    <nd ref="928192561"/>
    <nd ref="928192603"/>
    <tag k="addr:city" v="München"/>
    <tag k="addr:country" v="DE"/>
    <tag k="addr:housenumber" v="2a"/>
    <tag k="addr:postcode" v="80799"/>
    <tag k="addr:street" v="Schraudolphstraße"/>
    <tag k="building" v="apartments"/>
    <tag k="building:levels" v="5"/>
    <tag k="roof:colour" v="red"/>
    <tag k="roof:levels" v="1"/>
    <tag k="roof:shape" v="gabled"/>
  </way>
  <way id="79518364" version="6" timestamp="2022-06-09T12:18:24Z" changeset="122163163" uid="16233673" user="nPULP">
    <nd ref="928192651"/>
    <nd ref="928192569"/>
    <nd ref="928192549"/>
    <nd ref="928192676"/>
    <nd ref="928192651"/>
    <tag k="addr:city" v="München"/>
    <tag k="addr:country" v="DE"/>
    <tag k="addr:housenumber" v="16"/>
    <tag k="addr:postcode" v="80799"/>
    <tag k="addr:street" v="Heßstraße"/>
    <tag k="building" v="apartments"/>
    <tag k="building:levels" v="6"/>
    <tag k="roof:colour" v="grey"/>
    <tag k="roof:levels" v="1"/>
    <tag k="roof:shape" v="flat"/>
  </way>
  <way id="79518365" version="7" timestamp="2021-12-14T08:17:14Z" changeset="114911461" uid="78613" user="heilbron">
    <nd ref="928192641"/>
    <nd ref="928192605"/>
    <nd ref="928192645"/>
    <nd ref="3754440446"/>
    <nd ref="928192648"/>
    <nd ref="928192562"/>
    <nd ref="928192641"/>
    <tag k="addr:city" v="München"/>
    <tag k="addr:country" v="DE"/>
    <tag k="addr:housenumber" v="5"/>
    <tag k="addr:postcode" v="80799"/>
    <tag k="addr:street" v="Schraudolphstraße"/>
    <tag k="building" v="apartments"/>
    <tag k="roof:colour" v="maroon"/>
    <tag k="roof:shape" v="gabled"/>
  </way>
  <way id="79518369" version="6" timestamp="2021-11-15T07:21:28Z" changeset="113790997" uid="14462475" user="xtsudji">
    <nd ref="928192672"/>
    <nd ref="928192527"/>
    <nd ref="928192640"/>
    <nd ref="928192571"/>
    <nd ref="928192657"/>
    <nd ref="928192672"/>
    <tag k="addr:city" v="München"/>
    <tag k="addr:country" v="DE"/>
    <tag k="addr:housenumber" v="65"/>
    <tag k="addr:street" v="Schellingstraße"/>
    <tag k="building" v="office"/>
    <tag k="building:levels" v="6"/>
    <tag k="roof:colour" v="red"/>
    <tag k="roof:shape" v="gabled"/>
  </way>
  <way id="79518377" version="6" timestamp="2021-12-14T08:17:28Z" changeset="114911461" uid="78613" user="heilbron">
    <nd ref="928192640"/>
    <nd ref="928192683"/>
    <nd ref="928192536"/>
    <nd ref="928192571"/>
    <nd ref="928192640"/>
    <tag k="addr:city" v="München"/>
    <tag k="addr:country" v="DE"/>
    <tag k="addr:housenumber" v="6"/>
    <tag k="addr:postcode" v="80799"/>
    <tag k="addr:street" v="Schraudolphstraße"/>
    <tag k="building" v="apartments"/>
    <tag k="roof:colour" v="red"/>
    <tag k="roof:shape" v="gabled"/>
  </way>
  <way id="79518378" version="5" timestamp="2021-12-14T08:17:24Z" changeset="114911461" uid="78613" user="heilbron">
    <nd ref="928192629"/>
    <nd ref="928192696"/>
    <nd ref="928192593"/>
    <nd ref="928192611"/>
    <nd ref="928192669"/>
    <nd ref="928192691"/>
    <nd ref="928192629"/>
    <tag k="addr:city" v="München"/>
    <tag k="addr:country" v="DE"/>
    <tag k="addr:housenumber" v="8"/>
    <tag k="addr:postcode" v="80799"/>
    <tag k="addr:street" v="Heßstraße"/>
    <tag k="building" v="apartments"/>
    <tag k="roof:colour" v="red"/>
    <tag k="roof:shape" v="gabled"/>
  </way>
  <way id="79518382" version="5" timestamp="2021-12-14T08:17:13Z" changeset="114911461" uid="78613" user="heilbron">
    <nd ref="928192689"/>
    <nd ref="928192643"/>
    <nd ref="928192587"/>
    <nd ref="928192583"/>
    <nd ref="928192665"/>
    <nd ref="928192540"/>
    <nd ref="928192689"/>
    <tag k="addr:city" v="München"/>
    <tag k="addr:country" v="DE"/>
    <tag k="addr:housenumber" v="10"/>
    <tag k="addr:postcode" v="80799"/>
    <tag k="addr:street" v="Heßstraße"/>
    <tag k="building" v="apartments"/>
    <tag k="roof:colour" v="red"/>
    <tag k="roof:shape" v="gabled"/>
  </way>
  <way id="79518385" version="6" timestamp="2021-12-14T08:17:44Z" changeset="114911461" uid="78613" user="heilbron">
    <nd ref="928192611"/>
    <nd ref="928192593"/>
    <nd ref="3608601617"/>
    <nd ref="928192675"/>
    <nd ref="928192635"/>
    <nd ref="3608601614"/>
    <nd ref="928192611"/>
    <tag k="addr:city" v="München"/>
    <tag k="addr:country" v="DE"/>
    <tag k="addr:housenumber" v="6"/>
    <tag k="addr:postcode" v="80799"/>
    <tag k="addr:street" v="Heßstraße"/>
    <tag k="building" v="apartments"/>
    <tag k="roof:colour" v="red"/>
    <tag k="roof:shape" v="gabled"/>
  </way>
  <way id="79518386" version="7" timestamp="2020-11-21T22:07:39Z" changeset="94563384" uid="43207" user="kdkeller">
    <nd ref="928192531"/>
    <nd ref="928192592"/>
    <nd ref="3757065560"/>
    <nd ref="928192511"/>
    <nd ref="928192655"/>
    <nd ref="928192531"/>
    <tag k="addr:city" v="München"/>
    <tag k="addr:country" v="DE"/>
    <tag k="addr:housenumber" v="37"/>
    <tag k="addr:postcode" v="80799"/>
    <tag k="addr:street" v="Barer Straße"/>
    <tag k="building" v="yes"/>
    <tag k="roof:colour" v="red"/>
    <tag k="roof:orientation" v="across"/>
    <tag k="roof:shape" v="gabled"/>
    <tag k="wikidata" v="Q41180358"/>
  </way>
  <way id="79518388" version="5" timestamp="2021-12-14T08:17:11Z" changeset="114911461" uid="78613" user="heilbron">
    <nd ref="928192628"/>
    <nd ref="928192569"/>
    <nd ref="928192651"/>
    <nd ref="928192612"/>
    <nd ref="928192568"/>
    <nd ref="928192628"/>
    <tag k="addr:city" v="München"/>
    <tag k="addr:country" v="DE"/>
    <tag k="addr:housenumber" v="14"/>
    <tag k="addr:postcode" v="80799"/>
    <tag k="addr:street" v="Heßstraße"/>
    <tag k="building" v="apartments"/>
    <tag k="roof:colour" v="red"/>
    <tag k="roof:shape" v="gabled"/>
  </way>
  <way id="79518391" version="6" timestamp="2021-12-14T08:17:22Z" changeset="114911461" uid="78613" user="heilbron">
    <nd ref="928192513"/>
    <nd ref="928192534"/>
    <nd ref="928192599"/>
    <nd ref="928192685"/>
    <nd ref="928192529"/>
    <nd ref="928192614"/>
    <nd ref="928192509"/>
    <nd ref="928192513"/>
    <tag k="addr:city" v="München"/>
    <tag k="addr:country" v="DE"/>
    <tag k="addr:housenumber" v="36"/>
    <tag k="addr:postcode" v="80799"/>
    <tag k="addr:street" v="Arcisstraße"/>
    <tag k="building" v="apartments"/>
    <tag k="building:levels" v="6"/>
    <tag k="roof:colour" v="red"/>
    <tag k="roof:shape" v="gabled"/>
  </way>
  <way id="79518392" version="5" timestamp="2021-12-14T08:17:16Z" changeset="114911461" uid="78613" user="heilbron">
    <nd ref="928192515"/>
    <nd ref="928192582"/>
    <nd ref="928192641"/>
    <nd ref="928192562"/>
    <nd ref="928192664"/>
    <nd ref="928192556"/>
    <nd ref="928192515"/>
    <tag k="addr:city" v="München"/>
    <tag k="addr:country" v="DE"/>
    <tag k="addr:housenumber" v="67"/>
    <tag k="addr:street" v="Schellingstraße"/>
    <tag k="building" v="apartments"/>
    <tag k="building:colour" v="#F0F0F0"/>
    <tag k="building:levels" v="6"/>
    <tag k="roof:colour" v="red"/>
    <tag k="roof:shape" v="gabled"/>
  </way>
  <way id="79518399" version="7" timestamp="2025-04-16T08:59:28Z" changeset="165017992" uid="11816441" user="CommanderStorm">
    <nd ref="928192680"/>
    <nd ref="928192589"/>
    <nd ref="928192518"/>
    <nd ref="928192660"/>
    <nd ref="12759248842"/>
    <nd ref="928192680"/>
    <tag k="addr:housenumber" v="73"/>
    <tag k="addr:street" v="Schellingstraße"/>
    <tag k="building" v="apartments"/>
    <tag k="building:colour" v="#FFFFD0"/>
    <tag k="building:levels" v="6"/>
    <tag k="roof:colour" v="red"/>
    <tag k="roof:shape" v="gabled"/>
    <tag k="source:addr:housenumber" v="interpolation"/>
  </way>
  <way id="79538086" version="5" timestamp="2022-03-14T06:56:25Z" changeset="118455998" uid="78613" user="heilbron">
    <nd ref="491533809"/>
    <nd ref="928314848"/>
    <nd ref="928314830"/>
    <nd ref="928314843"/>
    <nd ref="491533809"/>
    <tag k="addr:city" v="München"/>
    <tag k="addr:country" v="DE"/>
    <tag k="addr:housenumber" v="37"/>
    <tag k="addr:postcode" v="80799"/>
    <tag k="addr:street" v="Arcisstraße"/>
    <tag k="building" v="apartments"/>
    <tag k="building:levels" v="5"/>
  </way>
  <way id="79538091" version="9" timestamp="2025-04-16T08:24:54Z" changeset="165016624" uid="11816441" user="CommanderStorm">
    <nd ref="928314838"/>
    <nd ref="928314841"/>
    <nd ref="928314852"/>
    <nd ref="491533826"/>
    <nd ref="491533785"/>
    <nd ref="12759224337"/>
    <nd ref="928314838"/>
    <tag k="addr:city" v="München"/>
    <tag k="addr:country" v="DE"/>
    <tag k="addr:housenumber" v="31"/>
    <tag k="addr:postcode" v="80799"/>
    <tag k="addr:street" v="Arcisstraße"/>
    <tag k="building" v="dormitory"/>
    <tag k="building:levels" v="5"/>
    <tag k="name" v="Collegium Oecumenicum"/>
    <tag k="roof:colour" v="orange"/>
    <tag k="smoking" v="no"/>
    <tag k="website" v="https://coe-muenchen.de/"/>
  </way>
  <way id="79538092" version="7" timestamp="2022-03-14T06:56:24Z" changeset="118455998" uid="78613" user="heilbron">
    <nd ref="928314848"/>
    <nd ref="928314840"/>
    <nd ref="491543831"/>
    <nd ref="928314830"/>
    <nd ref="928314848"/>
    <tag k="addr:city" v="München"/>
    <tag k="addr:country" v="DE"/>
    <tag k="addr:housenumber" v="35"/>
    <tag k="addr:postcode" v="80799"/>
    <tag k="addr:street" v="Arcisstraße"/>
    <tag k="building" v="apartments"/>
    <tag k="building:levels" v="5"/>
  </way>
  <way id="79622353" version="3" timestamp="2011-08-24T21:32:14Z" changeset="9116860" uid="56526" user="JJ Rammerl">
    <nd ref="929149716"/>
    <nd ref="929149630"/>
    <nd ref="929149688"/>
    <nd ref="929149797"/>
    <nd ref="929149649"/>
    <nd ref="929149835"/>
    <nd ref="929149716"/>
    <tag k="addr:city" v="München"/>
    <tag k="addr:country" v="DE"/>
    <tag k="addr:housenumber" v="49"/>
    <tag k="addr:postcode" v="80799"/>
    <tag k="addr:street" v="Barer Straße"/>
    <tag k="building" v="yes"/>
  </way>
  <way id="79622364" version="3" timestamp="2023-08-15T16:39:56Z" changeset="139924541" uid="1717726" user="UKausch">
    <nd ref="929149758"/>
    <nd ref="929149850"/>
    <nd ref="929149810"/>
    <nd ref="929149694"/>
    <nd ref="929149758"/>
    <tag k="addr:city" v="München"/>
    <tag k="addr:housenumber" v="55"/>
    <tag k="addr:postcode" v="80799"/>
    <tag k="addr:street" v="Barer Straße"/>
    <tag k="building" v="apartments"/>
    <tag k="building:levels" v="5"/>
    <tag k="roof:colour" v="red"/>
    <tag k="roof:levels" v="2"/>
    <tag k="roof:shape" v="gabled"/>
  </way>
  <way id="79622366" version="4" timestamp="2017-01-28T15:06:31Z" changeset="45594882" uid="78613" user="heilbron">
    <nd ref="929149659"/>
    <nd ref="929149753"/>
    <nd ref="929149716"/>
    <nd ref="929149835"/>
    <nd ref="929149659"/>
    <tag k="addr:city" v="München"/>
    <tag k="addr:country" v="DE"/>
    <tag k="addr:housenumber" v="2"/>
    <tag k="addr:postcode" v="80799"/>
    <tag k="addr:street" v="Zieblandstraße"/>
    <tag k="building" v="yes"/>
    <tag k="roof:shape" v="gabled"/>
  </way>
  <way id="79622370" version="5" timestamp="2017-01-28T15:06:31Z" changeset="45594882" uid="78613" user="heilbron">
    <nd ref="929149843"/>
    <nd ref="929149825"/>
    <nd ref="1133141019"/>
    <nd ref="929149638"/>
    <nd ref="929149676"/>
    <nd ref="929149862"/>
    <nd ref="929149843"/>
    <tag k="addr:city" v="München"/>
    <tag k="addr:country" v="DE"/>
    <tag k="addr:housenumber" v="6"/>
    <tag k="addr:postcode" v="80799"/>
    <tag k="addr:street" v="Zieblandstraße"/>
    <tag k="building" v="yes"/>
    <tag k="roof:shape" v="gabled"/>
  </way>
  <way id="79622374" version="5" timestamp="2024-10-20T21:26:54Z" changeset="158146409" uid="8312062" user="Fadatag">
    <nd ref="929149774"/>
    <nd ref="929149868"/>
    <nd ref="929149824"/>
    <nd ref="3754440477"/>
    <nd ref="929149749"/>
    <nd ref="929149850"/>
    <nd ref="929149758"/>
    <nd ref="929149774"/>
    <tag k="addr:city" v="München"/>
    <tag k="addr:country" v="DE"/>
    <tag k="addr:housenumber" v="53"/>
    <tag k="addr:postcode" v="80799"/>
    <tag k="addr:street" v="Barer Straße"/>
    <tag k="building" v="apartments"/>
  </way>
  <way id="79622377" version="4" timestamp="2017-01-28T15:06:31Z" changeset="45594882" uid="78613" user="heilbron">
    <nd ref="929149862"/>
    <nd ref="929149676"/>
    <nd ref="929149753"/>
    <nd ref="929149659"/>
    <nd ref="929149862"/>
    <tag k="addr:city" v="München"/>
    <tag k="addr:country" v="DE"/>
    <tag k="addr:housenumber" v="4"/>
    <tag k="addr:postcode" v="80799"/>
    <tag k="addr:street" v="Zieblandstraße"/>
    <tag k="building" v="yes"/>
    <tag k="roof:shape" v="gabled"/>
  </way>
  <way id="79622389" version="5" timestamp="2021-09-28T17:54:10Z" changeset="111828902" uid="5491140" user="sokratis777">
    <nd ref="929149797"/>
    <nd ref="929149688"/>
    <nd ref="1133140924"/>
    <nd ref="929149868"/>
    <nd ref="929149774"/>
    <nd ref="929149797"/>
    <tag k="addr:city" v="München"/>
    <tag k="addr:country" v="DE"/>
    <tag k="addr:housenumber" v="51"/>
    <tag k="addr:postcode" v="80799"/>
    <tag k="addr:street" v="Barer Straße"/>
    <tag k="building" v="apartments"/>
  </way>
  <way id="80539355" version="10" timestamp="2024-11-29T14:47:06Z" changeset="159744728" uid="10225704" user="wogfar">
    <nd ref="939604755"/>
    <nd ref="939602342"/>
    <nd ref="2440548641"/>
    <nd ref="939602657"/>
    <nd ref="939605019"/>
    <nd ref="939605074"/>
    <nd ref="939603847"/>
    <nd ref="939604755"/>
    <tag k="amenity" v="bar"/>
    <tag k="building" v="residential"/>
    <tag k="indoor_seating" v="yes"/>
    <tag k="name" v="Ungewitter Bar"/>
    <tag k="opening_hours" v="Tu 20:00-03:00, We,Th 20:00-04:00, Fr,Sa,PH 20:00-05:30"/>
    <tag k="operator" v="Charlotte Gornig"/>
    <tag k="outdoor_seating" v="yes"/>
    <tag k="phone" v="+49 89 2715196"/>
    <tag k="roof:colour" v="#999999"/>
    <tag k="roof:shape" v="gabled"/>
    <tag k="start_date" v="1996-10-10"/>
    <tag k="website" v="https://www.ungewitter-bar.de/"/>
  </way>
  <way id="80539409" version="5" timestamp="2024-04-04T17:13:17Z" changeset="149580045" uid="536583" user="Strubbl">
    <nd ref="939603363"/>
    <nd ref="939604909"/>
    <nd ref="939602266"/>
    <nd ref="939603742"/>
    <nd ref="939605424"/>
    <nd ref="2440534866"/>
    <nd ref="939604464"/>
    <nd ref="939603363"/>
    <tag k="addr:city" v="München"/>
    <tag k="addr:housenumber" v="86"/>
    <tag k="addr:postcode" v="80799"/>
    <tag k="addr:street" v="Adalbertstraße"/>
    <tag k="amenity" v="community_centre"/>
    <tag k="building" v="residential"/>
    <tag k="community_centre" v="youth_centre"/>
    <tag k="name" v="Jugendhaus"/>
    <tag k="website" v="https://www.hpkj-ev.de/jugendhaus"/>
  </way>
  <way id="80539465" version="4" timestamp="2024-11-10T08:27:28Z" changeset="158958303" uid="13496000" user="geo-d">
    <nd ref="939604059"/>
    <nd ref="939602258"/>
    <nd ref="939605444"/>
    <nd ref="3642184774"/>
    <nd ref="3642184775"/>
    <nd ref="939602630"/>
    <nd ref="12328281221"/>
    <nd ref="939603736"/>
    <nd ref="3642184773"/>
    <nd ref="3642184778"/>
    <nd ref="939604059"/>
    <tag k="addr:city" v="München"/>
    <tag k="addr:country" v="DE"/>
    <tag k="addr:housenumber" v="79"/>
    <tag k="addr:postcode" v="80799"/>
    <tag k="addr:street" v="Barer Straße"/>
    <tag k="building" v="apartments"/>
    <tag k="building:levels" v="5"/>
    <tag k="roof:levels" v="1"/>
    <tag k="roof:shape" v="flat"/>
  </way>
  <way id="89699184" version="15" timestamp="2025-03-26T11:59:31Z" changeset="164118473" uid="12120321" user="bollyboll">
    <nd ref="1039459595"/>
    <nd ref="3580259847"/>
    <nd ref="3580259841"/>
    <nd ref="4956834108"/>
    <tag k="class:bicycle" v="-2"/>
    <tag k="cycleway:both" v="no"/>
    <tag k="highway" v="secondary"/>
    <tag k="lanes" v="2"/>
    <tag k="lit" v="yes"/>
    <tag k="maxspeed" v="50"/>
    <tag k="name" v="Nordendstraße"/>
    <tag k="oneway" v="no"/>
    <tag k="parking:both" v="no"/>
    <tag k="sidewalk" v="separate"/>
    <tag k="smoothness" v="excellent"/>
    <tag k="surface" v="asphalt"/>
  </way>
  <way id="89840548" version="17" timestamp="2024-04-21T17:02:40Z" changeset="150310873" uid="20785072" user="Herbart1906">
    <nd ref="7983325"/>
    <nd ref="1679831965"/>
    <nd ref="7983327"/>
    <nd ref="922879371"/>
    <nd ref="1955506"/>
    <nd ref="922831085"/>
    <nd ref="3906092204"/>
    <nd ref="3475248906"/>
    <nd ref="3475248907"/>
    <nd ref="2440534878"/>
    <nd ref="1088755403"/>
    <nd ref="1088755528"/>
    <nd ref="1955505"/>
    <tag k="cycleway:both" v="no"/>
    <tag k="highway" v="residential"/>
    <tag k="lanes" v="2"/>
    <tag k="lit" v="yes"/>
    <tag k="maxspeed" v="30"/>
    <tag k="name" v="Neureutherstraße"/>
    <tag k="name:etymology:wikidata" v="Q318886"/>
    <tag k="parking:both" v="lane"/>
    <tag k="parking:both:orientation" v="parallel"/>
    <tag k="sidewalk" v="both"/>
    <tag k="sidewalk:both:surface" v="paving_stones"/>
    <tag k="smoothness" v="excellent"/>
    <tag k="surface" v="asphalt"/>
  </way>
  <way id="96114058" version="7" timestamp="2024-10-15T17:32:44Z" changeset="157931502" uid="13496000" user="geo-d">
    <nd ref="2844766601"/>
    <nd ref="2844759590"/>
    <nd ref="1113634348"/>
    <nd ref="1113634924"/>
    <nd ref="3052054332"/>
    <nd ref="3088945902"/>
    <nd ref="1113634872"/>
    <nd ref="1113634386"/>
    <nd ref="1113634246"/>
    <nd ref="1113634575"/>
    <nd ref="2844766601"/>
    <tag k="addr:city" v="München"/>
    <tag k="addr:housenumber" v="1"/>
    <tag k="addr:postcode" v="80799"/>
    <tag k="addr:street" v="Schraudolphstraße"/>
    <tag k="building" v="house"/>
    <tag k="name" v="Haus der Familie"/>
    <tag k="website" v="https://hausderfamilie.de/"/>
  </way>
  <way id="116605398" version="4" timestamp="2024-09-30T14:51:50Z" changeset="157301730" uid="6544565" user="Flarm">
    <nd ref="1314151575"/>
    <nd ref="1314151590"/>
    <nd ref="1314151577"/>
    <nd ref="1314151539"/>
    <nd ref="1314151708"/>
    <nd ref="1314151566"/>
    <nd ref="1314151575"/>
    <tag k="addr:housenumber" v="63"/>
    <tag k="addr:street" v="Georgenstraße"/>
    <tag k="building" v="apartments"/>
  </way>
  <way id="116687814" version="3" timestamp="2024-10-29T20:35:53Z" changeset="158516007" uid="13496000" user="geo-d">
    <nd ref="1314874529"/>
    <nd ref="1314874399"/>
    <nd ref="1314874598"/>
    <nd ref="1314151600"/>
    <nd ref="1314874537"/>
    <nd ref="1314874529"/>
    <tag k="addr:city" v="München"/>
    <tag k="addr:country" v="DE"/>
    <tag k="addr:housenumber" v="16b"/>
    <tag k="addr:postcode" v="80799"/>
    <tag k="addr:street" v="Neureutherstraße"/>
    <tag k="building" v="apartments"/>
    <tag k="building:levels" v="4"/>
    <tag k="roof:levels" v="1"/>
    <tag k="roof:shape" v="flat"/>
  </way>
  <way id="151996168" version="19" timestamp="2025-04-27T19:39:32Z" changeset="165521118" uid="18850925" user="cableway">
    <nd ref="1955508"/>
    <nd ref="9672760941"/>
    <nd ref="1648274945"/>
    <nd ref="1648274946"/>
    <nd ref="1648274947"/>
    <nd ref="4643099853"/>
    <nd ref="1648274948"/>
    <nd ref="3586813392"/>
    <tag k="bicycle" v="yes"/>
    <tag k="class:bicycle" v="1"/>
    <tag k="cycleway:both" v="no"/>
    <tag k="foot" v="use_sidepath"/>
    <tag k="highway" v="secondary"/>
    <tag k="lane_markings" v="no"/>
    <tag k="lit" v="yes"/>
    <tag k="maxspeed" v="30"/>
    <tag k="name" v="Arcisstraße"/>
    <tag k="parking:both" v="lane"/>
    <tag k="parking:left:orientation" v="parallel"/>
    <tag k="parking:right:orientation" v="perpendicular"/>
    <tag k="sidewalk" v="separate"/>
    <tag k="smoothness" v="excellent"/>
    <tag k="source:width" v="ARCore"/>
    <tag k="surface" v="asphalt"/>
    <tag k="width" v="10.5"/>
  </way>
  <way id="151996170" version="19" timestamp="2025-01-27T07:04:55Z" changeset="161805753" uid="18493611" user="MunichWays">
    <nd ref="4956834108"/>
    <nd ref="1679831987"/>
    <nd ref="985216336"/>
    <nd ref="25575939"/>
    <tag k="class:bicycle" v="1"/>
    <tag k="cycleway:both" v="no"/>
    <tag k="highway" v="secondary"/>
    <tag k="lane_markings" v="no"/>
    <tag k="lit" v="yes"/>
    <tag k="maxspeed" v="30"/>
    <tag k="name" v="Georgenstraße"/>
    <tag k="oneway" v="yes"/>
    <tag k="oneway:bicycle" v="no"/>
    <tag k="parking:both" v="lane"/>
    <tag k="parking:both:orientation" v="parallel"/>
    <tag k="sidewalk" v="separate"/>
    <tag k="source:width" v="ARCore"/>
    <tag k="surface" v="asphalt"/>
    <tag k="width" v="9.6"/>
  </way>
  <way id="152130806" version="19" timestamp="2025-03-22T20:41:43Z" changeset="163963753" uid="44217" user="kjon">
    <nd ref="658546068"/>
    <nd ref="658546069"/>
    <nd ref="658546079"/>
    <nd ref="1955500"/>
    <tag k="class:bicycle" v="-2"/>
    <tag k="class:bicycle:non_experienced" v="-2"/>
    <tag k="cycleway:both" v="no"/>
    <tag k="foot" v="use_sidepath"/>
    <tag k="highway" v="residential"/>
    <tag k="lane_markings" v="no"/>
    <tag k="lanes" v="2"/>
    <tag k="lit" v="yes"/>
    <tag k="maxspeed" v="30"/>
    <tag k="name" v="Luisenstraße"/>
    <tag k="name:etymology:wikidata" v="Q57531"/>
    <tag k="parking:both" v="yes"/>
    <tag k="parking:both:orientation" v="parallel"/>
    <tag k="sidewalk:both:surface" v="paving_stones"/>
    <tag k="sidewalk:left" v="yes"/>
    <tag k="sidewalk:right" v="separate"/>
    <tag k="smoothness" v="excellent"/>
    <tag k="surface" v="asphalt"/>
  </way>
  <way id="155040999" version="8" timestamp="2023-06-04T10:03:08Z" changeset="136926980" uid="12657263" user="bascho">
    <nd ref="8748896852"/>
    <nd ref="265280126"/>
    <tag k="highway" v="residential"/>
    <tag k="lanes" v="1"/>
    <tag k="lit" v="yes"/>
    <tag k="maxspeed" v="30"/>
    <tag k="name" v="Tengstraße"/>
    <tag k="sidewalk" v="right"/>
    <tag k="sidewalk:right:surface" v="paving_stones"/>
    <tag k="smoothness" v="excellent"/>
    <tag k="surface" v="asphalt"/>
  </way>
  <way id="155041000" version="11" timestamp="2024-07-28T07:45:00Z" changeset="154508732" uid="18493611" user="MunichWays">
    <nd ref="20835174"/>
    <nd ref="8748896852"/>
    <nd ref="2440511937"/>
    <nd ref="1674855130"/>
    <nd ref="4019702605"/>
    <nd ref="1955535"/>
    <tag k="bicycle" v="designated"/>
    <tag k="bicycle_road" v="yes"/>
    <tag k="class:bicycle" v="-1"/>
    <tag k="highway" v="residential"/>
    <tag k="lane_markings" v="no"/>
    <tag k="lanes" v="2"/>
    <tag k="lit" v="yes"/>
    <tag k="maxspeed" v="30"/>
    <tag k="name" v="Tengstraße"/>
    <tag k="smoothness" v="good"/>
    <tag k="source:maxspeed" v="DE:bicycle_road"/>
    <tag k="surface" v="asphalt"/>
    <tag k="traffic_sign" v="DE:244.1"/>
  </way>
  <way id="155055228" version="24" timestamp="2025-05-07T16:53:56Z" changeset="165948289" uid="18850925" user="cableway">
    <nd ref="1955508"/>
    <nd ref="922831098"/>
    <nd ref="9672760939"/>
    <nd ref="6902711247"/>
    <nd ref="4643099845"/>
    <nd ref="4393395955"/>
    <nd ref="25576122"/>
    <tag k="class:bicycle" v="1"/>
    <tag k="cycleway:both" v="no"/>
    <tag k="highway" v="residential"/>
    <tag k="lit" v="yes"/>
    <tag k="maxspeed" v="30"/>
    <tag k="name" v="Georgenstraße"/>
    <tag k="parking:both" v="lane"/>
    <tag k="parking:both:orientation" v="parallel"/>
    <tag k="sidewalk" v="both"/>
    <tag k="surface" v="asphalt"/>
  </way>
  <way id="155055230" version="11" timestamp="2025-03-22T21:16:15Z" changeset="163964538" uid="44217" user="kjon">
    <nd ref="4264359095"/>
    <nd ref="1088755383"/>
    <nd ref="1955504"/>
    <tag k="cycleway:both" v="no"/>
    <tag k="highway" v="residential"/>
    <tag k="lit" v="yes"/>
    <tag k="maxspeed" v="30"/>
    <tag k="name" v="Josephstraße"/>
    <tag k="parking:both" v="no"/>
    <tag k="sidewalk" v="both"/>
    <tag k="sidewalk:both:surface" v="paving_stones"/>
    <tag k="smoothness" v="good"/>
    <tag k="source:width" v="ARCore"/>
    <tag k="surface" v="asphalt"/>
    <tag k="width" v="6.9"/>
  </way>
  <way id="229171812" version="4" timestamp="2021-12-14T08:17:21Z" changeset="114911461" uid="78613" user="heilbron">
    <nd ref="2377990929"/>
    <nd ref="2377990927"/>
    <nd ref="928192685"/>
    <nd ref="928192599"/>
    <nd ref="2377990929"/>
    <tag k="addr:city" v="München"/>
    <tag k="addr:country" v="DE"/>
    <tag k="addr:housenumber" v="38"/>
    <tag k="addr:postcode" v="80799"/>
    <tag k="addr:street" v="Arcisstraße"/>
    <tag k="building" v="apartments"/>
    <tag k="building:levels" v="6"/>
    <tag k="roof:colour" v="red"/>
    <tag k="roof:shape" v="gabled"/>
    <tag k="source:addr:housenumber" v="interpolation"/>
  </way>
  <way id="316273517" version="7" timestamp="2023-06-04T09:54:48Z" changeset="136926492" uid="12657263" user="bascho">
    <nd ref="922831100"/>
    <nd ref="1954309"/>
    <tag k="bicycle_road" v="yes"/>
    <tag k="class:bicycle:non_experienced" v="1"/>
    <tag k="highway" v="residential"/>
    <tag k="lit" v="yes"/>
    <tag k="maxspeed" v="30"/>
    <tag k="name" v="Adalbertstraße"/>
    <tag k="name:etymology:wikidata" v="Q60610"/>
    <tag k="sidewalk" v="both"/>
    <tag k="smoothness" v="excellent"/>
    <tag k="surface" v="asphalt"/>
    <tag k="traffic_sign" v="DE:244.1"/>
  </way>
  <way id="392069508" version="10" timestamp="2023-11-11T19:45:36Z" changeset="143912941" uid="6285042" user="Biclmont">
    <nd ref="618697482"/>
    <nd ref="1562831710"/>
    <nd ref="3505015541"/>
    <nd ref="3580335715"/>
    <nd ref="3757402785"/>
    <tag k="cycleway:both" v="no"/>
    <tag k="foot" v="use_sidepath"/>
    <tag k="highway" v="residential"/>
    <tag k="lanes" v="2"/>
    <tag k="lit" v="yes"/>
    <tag k="maxspeed" v="50"/>
    <tag k="name" v="Schellingstraße"/>
    <tag k="name:etymology:wikidata" v="Q60070"/>
    <tag k="sidewalk:both" v="separate"/>
    <tag k="sidewalk:both:surface" v="paving_stones"/>
    <tag k="smoothness" v="excellent"/>
    <tag k="surface" v="asphalt"/>
  </way>
  <way id="392088974" version="13" timestamp="2025-03-22T20:41:43Z" changeset="163963753" uid="44217" user="kjon">
    <nd ref="3757402785"/>
    <nd ref="25576274"/>
    <nd ref="244213413"/>
    <nd ref="3813915949"/>
    <tag k="class:bicycle" v="-1"/>
    <tag k="cycleway:both" v="no"/>
    <tag k="highway" v="residential"/>
    <tag k="lanes" v="2"/>
    <tag k="lit" v="yes"/>
    <tag k="maxspeed" v="30"/>
    <tag k="name" v="Schellingstraße"/>
    <tag k="name:etymology:wikidata" v="Q60070"/>
    <tag k="parking:both" v="yes"/>
    <tag k="parking:both:orientation" v="parallel"/>
    <tag k="sidewalk:both" v="separate"/>
    <tag k="source:maxspeed" v="DE:urban"/>
    <tag k="surface" v="asphalt"/>
  </way>
  <way id="392088975" version="10" timestamp="2024-06-21T09:48:52Z" changeset="152984641" uid="8386616" user="the_jandroid">
    <nd ref="3813915949"/>
    <nd ref="922879322"/>
    <nd ref="20835091"/>
    <tag k="class:bicycle" v="-1"/>
    <tag k="foot" v="use_sidepath"/>
    <tag k="highway" v="residential"/>
    <tag k="lanes" v="2"/>
    <tag k="lit" v="yes"/>
    <tag k="maxspeed" v="50"/>
    <tag k="name" v="Schellingstraße"/>
    <tag k="name:etymology:wikidata" v="Q60070"/>
    <tag k="sidewalk" v="both"/>
    <tag k="sidewalk:both:surface" v="paving_stones"/>
    <tag k="source:maxspeed" v="DE:urban"/>
    <tag k="surface" v="asphalt"/>
  </way>
  <way id="392103886" version="10" timestamp="2023-11-09T05:10:13Z" changeset="143806163" uid="6285042" user="Biclmont">
    <nd ref="3946157840"/>
    <nd ref="7983343"/>
    <tag k="class:bicycle" v="-2"/>
    <tag k="class:bicycle:non_experienced" v="-2"/>
    <tag k="foot" v="use_sidepath"/>
    <tag k="highway" v="residential"/>
    <tag k="lanes" v="2"/>
    <tag k="lit" v="yes"/>
    <tag k="maxspeed" v="30"/>
    <tag k="name" v="Luisenstraße"/>
    <tag k="name:etymology:wikidata" v="Q57531"/>
    <tag k="sidewalk:both" v="separate"/>
    <tag k="sidewalk:both:surface" v="paving_stones"/>
    <tag k="smoothness" v="excellent"/>
    <tag k="surface" v="asphalt"/>
  </way>
  <way id="392103888" version="10" timestamp="2023-11-09T05:10:06Z" changeset="143806163" uid="6285042" user="Biclmont">
    <nd ref="7983343"/>
    <nd ref="658546068"/>
    <tag k="class:bicycle" v="-2"/>
    <tag k="class:bicycle:non_experienced" v="-2"/>
    <tag k="foot" v="use_sidepath"/>
    <tag k="highway" v="residential"/>
    <tag k="lanes" v="2"/>
    <tag k="lit" v="yes"/>
    <tag k="maxspeed" v="30"/>
    <tag k="name" v="Luisenstraße"/>
    <tag k="name:etymology:wikidata" v="Q57531"/>
    <tag k="sidewalk:both" v="separate"/>
    <tag k="sidewalk:both:surface" v="paving_stones"/>
    <tag k="smoothness" v="bad"/>
    <tag k="surface" v="sett"/>
  </way>
  <way id="392103891" version="16" timestamp="2024-12-12T13:38:15Z" changeset="160208458" uid="19001249" user="SaschaFilimon">
    <nd ref="9508370962"/>
    <nd ref="8748896817"/>
    <nd ref="7983343"/>
    <nd ref="3946157843"/>
    <nd ref="3811913159"/>
    <nd ref="244213414"/>
    <tag k="bicycle" v="yes"/>
    <tag k="class:bicycle" v="-1"/>
    <tag k="cycleway:both" v="no"/>
    <tag k="highway" v="residential"/>
    <tag k="lanes" v="2"/>
    <tag k="lit" v="yes"/>
    <tag k="maxspeed" v="30"/>
    <tag k="name" v="Schellingstraße"/>
    <tag k="name:etymology:wikidata" v="Q60070"/>
    <tag k="oneway" v="no"/>
    <tag k="sidewalk:both" v="separate"/>
    <tag k="sidewalk:both:surface" v="paving_stones"/>
    <tag k="smoothness" v="excellent"/>
    <tag k="surface" v="asphalt"/>
  </way>
  <way id="679007428" version="7" timestamp="2024-01-31T08:20:25Z" changeset="146892881" uid="19001249" user="SaschaFilimon">
    <nd ref="922831081"/>
    <nd ref="3811556859"/>
    <nd ref="9508320100"/>
    <tag k="class:bicycle" v="-1"/>
    <tag k="highway" v="residential"/>
    <tag k="lanes" v="2"/>
    <tag k="lit" v="yes"/>
    <tag k="maxspeed" v="30"/>
    <tag k="name" v="Schellingstraße"/>
    <tag k="name:etymology:wikidata" v="Q60070"/>
    <tag k="sidewalk" v="both"/>
    <tag k="source:maxspeed" v="DE:urban"/>
    <tag k="surface" v="asphalt"/>
  </way>
  <way id="851113025" version="5" timestamp="2024-06-27T12:16:13Z" changeset="153245042" uid="18493611" user="MunichWays">
    <nd ref="25576122"/>
    <nd ref="1674957761"/>
    <nd ref="1674957765"/>
    <nd ref="3475248908"/>
    <nd ref="258551976"/>
    <nd ref="3475248909"/>
    <nd ref="1088755530"/>
    <nd ref="27161285"/>
    <nd ref="1088755472"/>
    <tag k="class:bicycle" v="1"/>
    <tag k="highway" v="residential"/>
    <tag k="maxspeed" v="30"/>
    <tag k="name" v="Georgenstraße"/>
    <tag k="parking:left" v="street_side"/>
    <tag k="parking:left:orientation" v="parallel"/>
    <tag k="parking:right" v="half_on_kerb"/>
    <tag k="parking:right:orientation" v="diagonal"/>
    <tag k="sidewalk" v="both"/>
    <tag k="source:width" v="ARCore"/>
    <tag k="surface" v="asphalt"/>
    <tag k="width" v="8.4"/>
  </way>
  <way id="851113026" version="6" timestamp="2025-05-09T11:40:55Z" changeset="166023995" uid="18850925" user="cableway">
    <nd ref="25576122"/>
    <nd ref="3906092204"/>
    <nd ref="3906092200"/>
    <tag k="class:bicycle" v="1"/>
    <tag k="cycleway:both" v="no"/>
    <tag k="highway" v="residential"/>
    <tag k="lit" v="yes"/>
    <tag k="maxspeed" v="30"/>
    <tag k="name" v="Isabellastraße"/>
    <tag k="name:etymology:wikidata" v="Q62994"/>
    <tag k="parking:both" v="street_side"/>
    <tag k="parking:both:orientation" v="perpendicular"/>
    <tag k="sidewalk" v="both"/>
    <tag k="source:width" v="ARCore"/>
    <tag k="surface" v="asphalt"/>
    <tag k="width" v="5.5"/>
  </way>
  <way id="851115542" version="7" timestamp="2024-04-21T17:56:58Z" changeset="150311000" uid="20785072" user="Herbart1906">
    <nd ref="7983331"/>
    <nd ref="3586813595"/>
    <nd ref="10245508415"/>
    <nd ref="25576122"/>
    <tag k="class:bicycle" v="1"/>
    <tag k="highway" v="residential"/>
    <tag k="lit" v="yes"/>
    <tag k="maxspeed" v="30"/>
    <tag k="name" v="Isabellastraße"/>
    <tag k="name:etymology:wikidata" v="Q62994"/>
    <tag k="parking:both" v="street_side"/>
    <tag k="parking:both:orientation" v="perpendicular"/>
    <tag k="sidewalk" v="both"/>
    <tag k="sidewalk:both:surface" v="paving_stones"/>
    <tag k="source:width" v="ARCore"/>
    <tag k="surface" v="asphalt"/>
    <tag k="width" v="4.5"/>
  </way>
  <way id="1093404772" version="9" timestamp="2025-01-27T07:04:55Z" changeset="161805753" uid="18493611" user="MunichWays">
    <nd ref="25575939"/>
    <nd ref="9672760940"/>
    <nd ref="4957396987"/>
    <nd ref="1955508"/>
    <tag k="class:bicycle" v="1"/>
    <tag k="cycleway:both" v="no"/>
    <tag k="highway" v="secondary"/>
    <tag k="lane_markings" v="no"/>
    <tag k="lit" v="yes"/>
    <tag k="maxspeed" v="30"/>
    <tag k="name" v="Georgenstraße"/>
    <tag k="oneway" v="yes"/>
    <tag k="oneway:bicycle" v="no"/>
    <tag k="parking:both" v="lane"/>
    <tag k="parking:both:orientation" v="parallel"/>
    <tag k="sidewalk" v="both"/>
    <tag k="sidewalk:both:surface" v="paving_stones"/>
    <tag k="source:width" v="ARCore"/>
    <tag k="surface" v="asphalt"/>
    <tag k="width" v="9.4"/>
  </way>
  <way id="1093404773" version="5" timestamp="2024-07-28T10:09:24Z" changeset="154513369" uid="18493611" user="MunichWays">
    <nd ref="1954309"/>
    <nd ref="1955506"/>
    <nd ref="9672760942"/>
    <nd ref="1955508"/>
    <tag k="bicycle" v="yes"/>
    <tag k="class:bicycle" v="1"/>
    <tag k="cycleway:both" v="separate"/>
    <tag k="foot" v="use_sidepath"/>
    <tag k="highway" v="secondary"/>
    <tag k="lanes" v="2"/>
    <tag k="lit" v="yes"/>
    <tag k="maxspeed" v="50"/>
    <tag k="name" v="Arcisstraße"/>
    <tag k="parking:both" v="lane"/>
    <tag k="parking:both:orientation" v="parallel"/>
    <tag k="sidewalk" v="separate"/>
    <tag k="smoothness" v="good"/>
    <tag k="source:maxspeed" v="DE:urban"/>
    <tag k="surface" v="asphalt"/>
  </way>
  <way id="1294707327" version="1" timestamp="2024-06-21T09:48:52Z" changeset="152984641" uid="8386616" user="the_jandroid">
    <nd ref="20835091"/>
    <nd ref="922831081"/>
    <tag k="class:bicycle" v="-1"/>
    <tag k="foot" v="use_sidepath"/>
    <tag k="highway" v="residential"/>
    <tag k="lanes" v="2"/>
    <tag k="lit" v="yes"/>
    <tag k="maxspeed" v="50"/>
    <tag k="name" v="Schellingstraße"/>
    <tag k="name:etymology:wikidata" v="Q60070"/>
    <tag k="sidewalk" v="both"/>
    <tag k="sidewalk:both:surface" v="paving_stones"/>
    <tag k="source:maxspeed" v="DE:urban"/>
    <tag k="surface" v="asphalt"/>
  </way>
  <way id="1294707328" version="1" timestamp="2024-06-21T09:48:52Z" changeset="152984641" uid="8386616" user="the_jandroid">
    <nd ref="20835091"/>
    <nd ref="3813915952"/>
    <nd ref="922831072"/>
    <nd ref="27487423"/>
    <nd ref="258890820"/>
    <nd ref="27487425"/>
    <nd ref="1954309"/>
    <tag k="bicycle" v="yes"/>
    <tag k="class:bicycle" v="1"/>
    <tag k="cycleway:both" v="separate"/>
    <tag k="foot" v="use_sidepath"/>
    <tag k="highway" v="secondary"/>
    <tag k="lanes" v="2"/>
    <tag k="lit" v="yes"/>
    <tag k="maxspeed" v="50"/>
    <tag k="name" v="Arcisstraße"/>
    <tag k="shoulder" v="no"/>
    <tag k="sidewalk:both" v="separate"/>
    <tag k="smoothness" v="good"/>
    <tag k="source:maxspeed" v="DE:urban"/>
    <tag k="surface" v="asphalt"/>
  </way>
  <way id="1324169601" version="3" timestamp="2025-04-16T08:59:28Z" changeset="165017992" uid="11816441" user="CommanderStorm">
    <nd ref="491543846"/>
    <nd ref="12759248833"/>
    <nd ref="491543844"/>
    <nd ref="491543843"/>
    <nd ref="12759248834"/>
    <nd ref="12759224229"/>
    <nd ref="491543836"/>
    <nd ref="12759224306"/>
    <nd ref="491543835"/>
    <nd ref="491543833"/>
    <nd ref="491543831"/>
    <nd ref="928314840"/>
    <nd ref="4638819852"/>
    <nd ref="928314841"/>
    <nd ref="928314838"/>
    <nd ref="4638819853"/>
    <nd ref="491543841"/>
    <nd ref="491543839"/>
    <nd ref="491543838"/>
    <nd ref="1372082044"/>
    <nd ref="491543837"/>
    <nd ref="12759224309"/>
    <nd ref="491543852"/>
    <nd ref="12759224320"/>
    <nd ref="491543850"/>
    <nd ref="491543849"/>
    <nd ref="491543848"/>
    <nd ref="491543823"/>
    <nd ref="491543846"/>
    <tag k="addr:city" v="München"/>
    <tag k="addr:country" v="DE"/>
    <tag k="addr:housenumber" v="33"/>
    <tag k="addr:postcode" v="80799"/>
    <tag k="addr:street" v="Arcisstraße"/>
    <tag k="building" v="yes"/>
    <tag k="check_date" v="2024-10-15"/>
    <tag k="note" v="fehlt in Adressenliste Stadt München, blaues Hausnummernschild vorhanden #Adressenabgleich"/>
  </way>
  <way id="1324178208" version="2" timestamp="2024-11-17T16:27:41Z" changeset="159249968" uid="13496000" user="geo-d">
    <nd ref="2844766611"/>
    <nd ref="2844766601"/>
    <nd ref="1113634575"/>
    <nd ref="12253473886"/>
    <nd ref="12253473880"/>
    <nd ref="12253473885"/>
    <nd ref="2844766611"/>
    <tag k="addr:housenumber" v="14a"/>
    <tag k="addr:street" v="Heßstraße"/>
    <tag k="building" v="apartments"/>
  </way>
  <way id="1324326863" version="1" timestamp="2024-10-16T10:02:10Z" changeset="157956809" uid="137242" user="Rainero">
    <nd ref="12254739678"/>
    <nd ref="1134727546"/>
    <nd ref="1134727545"/>
    <nd ref="12254739677"/>
    <nd ref="12254739678"/>
    <tag k="addr:city" v="München"/>
    <tag k="addr:housenumber" v="64"/>
    <tag k="addr:postcode" v="80798"/>
    <tag k="addr:street" v="Luisenstraße"/>
    <tag k="building" v="yes"/>
  </way>
  <way id="1324326864" version="2" timestamp="2025-04-16T08:24:54Z" changeset="165016624" uid="11816441" user="CommanderStorm">
    <nd ref="12254739677"/>
    <nd ref="12759224219"/>
    <nd ref="12254739679"/>
    <nd ref="1372082104"/>
    <nd ref="12254739678"/>
    <nd ref="12254739677"/>
    <tag k="addr:city" v="München"/>
    <tag k="addr:country" v="DE"/>
    <tag k="addr:housenumber" v="62"/>
    <tag k="addr:postcode" v="80798"/>
    <tag k="addr:street" v="Luisenstraße"/>
    <tag k="building" v="yes"/>
  </way>
  <way id="1332569860" version="1" timestamp="2024-11-10T08:18:08Z" changeset="158958143" uid="13496000" user="geo-d">
    <nd ref="1133140816"/>
    <nd ref="12328255950"/>
    <nd ref="1133140731"/>
    <nd ref="1133141165"/>
    <nd ref="1133141030"/>
    <nd ref="1133140816"/>
    <tag k="addr:city" v="München"/>
    <tag k="addr:country" v="DE"/>
    <tag k="addr:housenumber" v="49a"/>
    <tag k="addr:postcode" v="80799"/>
    <tag k="addr:street" v="Adalbertstraße"/>
    <tag k="building" v="apartments"/>
    <tag k="building:levels" v="4"/>
    <tag k="roof:shape" v="flat"/>
  </way>
  <relation id="18270757" version="1" timestamp="2024-11-10T08:40:55Z" changeset="158958620" uid="13496000" user="geo-d">
    <member type="way" ref="80539453" role="outer"/>
    <member type="way" ref="359526459" role="outer"/>
    <tag k="addr:city" v="München"/>
    <tag k="addr:country" v="DE"/>
    <tag k="addr:housenumber" v="38"/>
    <tag k="addr:postcode" v="80799"/>
    <tag k="addr:street" v="Schraudolphstraße"/>
    <tag k="building" v="yes"/>
    <tag k="type" v="multipolygon"/>
  </relation>

</osm>
