<?xml version="1.0" encoding="UTF-8"?>
<osm version="0.6" generator="Overpass API 0.7.62.5 1bd436f1">
<note>The data included in this document is from www.openstreetmap.org. The data is made available under ODbL.</note>
<meta osm_base="2025-05-18T03:21:02Z" areas="2024-12-31T00:49:33Z"/>

  <node id="398813" lat="48.1356254" lon="11.6053324" version="8" timestamp="2023-09-21T10:45:04Z" changeset="141552491" uid="11758604" user="map per">
    <tag k="railway" v="tram_level_crossing"/>
  </node>
  <node id="564164" lat="48.1381238" lon="11.6159073" version="10" timestamp="2011-12-13T20:12:37Z" changeset="10110449" uid="64164" user="osmkurt"/>
  <node id="564165" lat="48.1380857" lon="11.6184604" version="10" timestamp="2010-12-22T10:04:31Z" changeset="6733750" uid="29061" user="KPG"/>
  <node id="564512" lat="48.1389695" lon="11.6076575" version="16" timestamp="2022-03-22T16:49:15Z" changeset="118786600" uid="11895847" user="rigilk3nt"/>
  <node id="2039384" lat="48.1424790" lon="11.6153613" version="12" timestamp="2015-05-01T00:33:17Z" changeset="30677725" uid="354141" user="Anoniman"/>
  <node id="2039393" lat="48.1382450" lon="11.6130899" version="11" timestamp="2012-12-01T16:36:19Z" changeset="14113787" uid="8748" user="ToniE"/>
  <node id="18292348" lat="48.1356300" lon="11.5978968" version="20" timestamp="2023-10-09T00:38:26Z" changeset="142324451" uid="206929" user="Supt_of_Printing">
    <tag k="TMC:cid_58:tabcd_1:Class" v="Point"/>
    <tag k="TMC:cid_58:tabcd_1:Direction" v="positive"/>
    <tag k="TMC:cid_58:tabcd_1:LCLversion" v="9.00"/>
    <tag k="TMC:cid_58:tabcd_1:LocationCode" v="27987"/>
    <tag k="TMC:cid_58:tabcd_1:NextLocationCode" v="27988"/>
    <tag k="TMC:cid_58:tabcd_1:PrevLocationCode" v="27986"/>
    <tag k="tmc" v="DE:35423"/>
  </node>
  <node id="18292352" lat="48.1356805" lon="11.6025002" version="10" timestamp="2023-04-19T20:18:59Z" changeset="135120668" uid="2024658" user="filbro"/>
  <node id="21119113" lat="48.1445736" lon="11.6155496" version="8" timestamp="2014-06-25T21:34:43Z" changeset="23166548" uid="13194" user="Chumwa">
    <tag k="TMC:cid_58:tabcd_1:Class" v="Point"/>
    <tag k="TMC:cid_58:tabcd_1:Direction" v="positive"/>
    <tag k="TMC:cid_58:tabcd_1:LCLversion" v="8.00"/>
    <tag k="TMC:cid_58:tabcd_1:LocationCode" v="60923"/>
    <tag k="TMC:cid_58:tabcd_1:NextLocationCode" v="22678"/>
    <tag k="TMC:cid_58:tabcd_1:PrevLocationCode" v="35322"/>
  </node>
  <node id="21133234" lat="48.1379791" lon="11.6147526" version="5" timestamp="2011-10-30T00:20:37Z" changeset="9689792" uid="64164" user="osmkurt">
    <tag k="TMC:cid_58:tabcd_1:Class" v="Point"/>
    <tag k="TMC:cid_58:tabcd_1:Direction" v="negative"/>
    <tag k="TMC:cid_58:tabcd_1:LCLversion" v="8.00"/>
    <tag k="TMC:cid_58:tabcd_1:LocationCode" v="22678"/>
    <tag k="TMC:cid_58:tabcd_1:NextLocationCode" v="22679"/>
    <tag k="TMC:cid_58:tabcd_1:PrevLocationCode" v="60923"/>
  </node>
  <node id="21133235" lat="48.1379994" lon="11.6145950" version="7" timestamp="2013-03-26T18:01:31Z" changeset="15506621" uid="775277" user="roland_g">
    <tag k="TMC:cid_58:tabcd_1:Class" v="Point"/>
    <tag k="TMC:cid_58:tabcd_1:Direction" v="positive"/>
    <tag k="TMC:cid_58:tabcd_1:LCLversion" v="8.00"/>
    <tag k="TMC:cid_58:tabcd_1:LocationCode" v="22678"/>
    <tag k="TMC:cid_58:tabcd_1:NextLocationCode" v="22679"/>
    <tag k="TMC:cid_58:tabcd_1:PrevLocationCode" v="60923"/>
  </node>
  <node id="27483129" lat="48.1397034" lon="11.6094900" version="5" timestamp="2021-12-09T14:30:04Z" changeset="114746862" uid="531886" user="drlellinger"/>
  <node id="27486186" lat="48.1387296" lon="11.6016961" version="6" timestamp="2011-06-11T06:03:19Z" changeset="8402488" uid="64164" user="osmkurt"/>
  <node id="27486188" lat="48.1373309" lon="11.6046513" version="3" timestamp="2011-06-16T04:18:14Z" changeset="8452652" uid="64164" user="osmkurt"/>
  <node id="28096452" lat="48.1380995" lon="11.6048678" version="4" timestamp="2011-06-16T04:18:14Z" changeset="8452652" uid="64164" user="osmkurt"/>
  <node id="28096906" lat="48.1383774" lon="11.6117058" version="10" timestamp="2012-12-01T16:36:20Z" changeset="14113787" uid="8748" user="ToniE"/>
  <node id="28096910" lat="48.1381124" lon="11.6200190" version="9" timestamp="2015-05-01T00:33:19Z" changeset="30677725" uid="354141" user="Anoniman"/>
  <node id="28096916" lat="48.1401215" lon="11.6029582" version="6" timestamp="2011-07-09T05:03:04Z" changeset="8671455" uid="64164" user="osmkurt"/>
  <node id="241788941" lat="48.1367805" lon="11.6150784" version="11" timestamp="2015-05-01T00:33:18Z" changeset="30677725" uid="354141" user="Anoniman">
    <tag k="TMC:cid_58:tabcd_1:Class" v="Point"/>
    <tag k="TMC:cid_58:tabcd_1:Direction" v="positive"/>
    <tag k="TMC:cid_58:tabcd_1:LCLversion" v="9.00"/>
    <tag k="TMC:cid_58:tabcd_1:LocationCode" v="27989"/>
    <tag k="TMC:cid_58:tabcd_1:NextLocationCode" v="30130"/>
  </node>
  <node id="424275442" lat="48.1368339" lon="11.5966920" version="3" timestamp="2012-03-17T17:13:43Z" changeset="11010218" uid="13832" user="Peter14"/>
  <node id="429609930" lat="48.1364382" lon="11.6150720" version="6" timestamp="2014-11-25T19:01:26Z" changeset="27028657" uid="8748" user="ToniE">
    <tag k="TMC:cid_58:tabcd_1:Class" v="Point"/>
    <tag k="TMC:cid_58:tabcd_1:Direction" v="negative"/>
    <tag k="TMC:cid_58:tabcd_1:LCLversion" v="8.00"/>
    <tag k="TMC:cid_58:tabcd_1:LocationCode" v="22679"/>
    <tag k="TMC:cid_58:tabcd_1:NextLocationCode" v="35323"/>
    <tag k="TMC:cid_58:tabcd_1:PrevLocationCode" v="22678"/>
  </node>
  <node id="430234724" lat="48.1366777" lon="11.5981307" version="4" timestamp="2012-03-24T13:24:09Z" changeset="11084269" uid="64536" user="Michael Forster"/>
  <node id="430234728" lat="48.1373162" lon="11.5984305" version="5" timestamp="2012-03-24T13:24:09Z" changeset="11084269" uid="64536" user="Michael Forster"/>
  <node id="430234730" lat="48.1365502" lon="11.5966371" version="4" timestamp="2013-11-08T18:29:53Z" changeset="18787167" uid="8748" user="ToniE"/>
  <node id="516132832" lat="48.1381993" lon="11.6170877" version="8" timestamp="2025-02-09T16:46:23Z" changeset="162321589" uid="16061279" user="YellowSoul">
    <tag k="crossing:signals" v="no"/>
    <tag k="cycleway:crossing:markings" v="dashes"/>
    <tag k="footway:crossing:markings" v="no"/>
    <tag k="highway" v="crossing"/>
    <tag k="tactile_paving" v="no"/>
  </node>
  <node id="637877338" lat="48.1356748" lon="11.5978922" version="15" timestamp="2024-04-22T21:32:57Z" changeset="150367022" uid="137242" user="Rainero">
    <tag k="TMC:cid_58:tabcd_1:Class" v="Point"/>
    <tag k="TMC:cid_58:tabcd_1:Direction" v="both"/>
    <tag k="TMC:cid_58:tabcd_1:LCLversion" v="9.00"/>
    <tag k="TMC:cid_58:tabcd_1:LocationCode" v="35423"/>
    <tag k="TMC:cid_58:tabcd_1:PrevLocationCode" v="35422"/>
    <tag k="railway" v="tram_level_crossing"/>
  </node>
  <node id="1078912401" lat="48.1363671" lon="11.6089898" version="4" timestamp="2014-10-17T18:03:51Z" changeset="26152566" uid="8748" user="ToniE"/>
  <node id="1365085558" lat="48.1374650" lon="11.6205616" version="4" timestamp="2023-10-06T03:32:06Z" changeset="142213088" uid="206929" user="Supt_of_Printing"/>
  <node id="1598988784" lat="48.1394926" lon="11.6066223" version="2" timestamp="2017-02-10T14:52:49Z" changeset="45975796" uid="360562" user="haytigran"/>
  <node id="1623971085" lat="48.1362658" lon="11.6092532" version="4" timestamp="2014-10-17T18:03:51Z" changeset="26152566" uid="8748" user="ToniE">
    <tag k="TMC:cid_58:tabcd_1:Class" v="Point"/>
    <tag k="TMC:cid_58:tabcd_1:Direction" v="positive"/>
    <tag k="TMC:cid_58:tabcd_1:LCLversion" v="9.00"/>
    <tag k="TMC:cid_58:tabcd_1:LocationCode" v="27988"/>
    <tag k="TMC:cid_58:tabcd_1:NextLocationCode" v="27989"/>
    <tag k="TMC:cid_58:tabcd_1:PrevLocationCode" v="27987"/>
  </node>
  <node id="1623971133" lat="48.1369478" lon="11.6147939" version="7" timestamp="2015-05-01T00:33:15Z" changeset="30677725" uid="354141" user="Anoniman"/>
  <node id="1688588916" lat="48.1357271" lon="11.5978875" version="6" timestamp="2024-04-22T21:32:57Z" changeset="150367022" uid="137242" user="Rainero">
    <tag k="TMC:cid_58:tabcd_1:Class" v="Point"/>
    <tag k="TMC:cid_58:tabcd_1:Direction" v="negative"/>
    <tag k="TMC:cid_58:tabcd_1:LCLversion" v="9.00"/>
    <tag k="TMC:cid_58:tabcd_1:LocationCode" v="27987"/>
    <tag k="TMC:cid_58:tabcd_1:NextLocationCode" v="27988"/>
    <tag k="TMC:cid_58:tabcd_1:PrevLocationCode" v="27986"/>
  </node>
  <node id="1688588969" lat="48.1360820" lon="11.5979339" version="1" timestamp="2012-03-24T13:23:22Z" changeset="11084269" uid="64536" user="Michael Forster"/>
  <node id="2881736602" lat="48.1374283" lon="11.6196794" version="16" timestamp="2024-05-01T11:20:58Z" changeset="150744998" uid="11758604" user="map per">
    <tag k="bus" v="yes"/>
    <tag k="name" v="Vogelweideplatz"/>
    <tag k="public_transport" v="stop_position"/>
    <tag k="ref_name" v="Vogelweideplatz, München"/>
  </node>
  <node id="4427961043" lat="48.1357205" lon="11.5986228" version="2" timestamp="2023-10-09T00:38:26Z" changeset="142324451" uid="206929" user="Supt_of_Printing"/>
  <node id="11242731015" lat="48.1375209" lon="11.6146304" version="1" timestamp="2023-10-06T03:32:06Z" changeset="142213088" uid="206929" user="Supt_of_Printing"/>
  <way id="3819263" version="20" timestamp="2025-05-08T18:39:58Z" changeset="165998163" uid="3199858" user="Mateusz Konieczny - bot account">
    <nd ref="398813"/>
    <nd ref="1769891381"/>
    <nd ref="1078912455"/>
    <tag k="bicycle" v="yes"/>
    <tag k="check_date:cycleway" v="2025-02-02"/>
    <tag k="cycleway:both" v="no"/>
    <tag k="highway" v="residential"/>
    <tag k="lane_markings" v="no"/>
    <tag k="lit" v="yes"/>
    <tag k="maxspeed" v="50"/>
    <tag k="name" v="Flurstraße"/>
    <tag k="sidewalk" v="no"/>
    <tag k="smoothness" v="good"/>
    <tag k="surface" v="asphalt"/>
  </way>
  <way id="3819282" version="12" timestamp="2024-07-26T15:20:59Z" changeset="154448287" uid="14742734" user="The_Nickname">
    <nd ref="27483524"/>
    <nd ref="259828287"/>
    <tag k="class:bicycle" v="1"/>
    <tag k="highway" v="residential"/>
    <tag k="lit" v="yes"/>
    <tag k="maxspeed" v="30"/>
    <tag k="name" v="Kuglerstraße"/>
    <tag k="sidewalk:left" v="separate"/>
    <tag k="sidewalk:right" v="yes"/>
    <tag k="sidewalk:right:surface" v="asphalt"/>
    <tag k="smoothness" v="excellent"/>
    <tag k="surface" v="asphalt"/>
  </way>
  <way id="4087641" version="26" timestamp="2025-04-12T16:46:49Z" changeset="164864406" uid="18850925" user="cableway">
    <nd ref="18292348"/>
    <nd ref="1769891459"/>
    <nd ref="637877338"/>
    <tag k="cycleway:both" v="no"/>
    <tag k="highway" v="secondary"/>
    <tag k="lanes" v="4"/>
    <tag k="lit" v="yes"/>
    <tag k="maxspeed" v="50"/>
    <tag k="name" v="Ismaninger Straße"/>
    <tag k="sidewalk" v="separate"/>
    <tag k="surface" v="asphalt"/>
  </way>
  <way id="4088177" version="21" timestamp="2025-02-02T11:45:05Z" changeset="162042388" uid="16061279" user="YellowSoul">
    <nd ref="398811"/>
    <nd ref="1078912472"/>
    <nd ref="6816818772"/>
    <nd ref="10825165148"/>
    <tag k="class:bicycle" v="2"/>
    <tag k="cycleway:both" v="no"/>
    <tag k="highway" v="residential"/>
    <tag k="lane_markings" v="no"/>
    <tag k="lit" v="yes"/>
    <tag k="maxspeed" v="50"/>
    <tag k="name" v="Trogerstraße"/>
    <tag k="name:etymology:wikidata" v="Q1768014"/>
    <tag k="sidewalk:both" v="separate"/>
    <tag k="source:maxspeed" v="DE:urban"/>
    <tag k="surface" v="asphalt"/>
  </way>
  <way id="4631498" version="19" timestamp="2024-07-03T12:40:38Z" changeset="153500559" uid="21241366" user="QuercusRoba">
    <nd ref="2039383"/>
    <nd ref="592577035"/>
    <nd ref="1201579230"/>
    <nd ref="3100656126"/>
    <nd ref="10567236938"/>
    <tag k="cycleway:both" v="no"/>
    <tag k="highway" v="residential"/>
    <tag k="lane_markings" v="no"/>
    <tag k="lit" v="yes"/>
    <tag k="maxspeed" v="50"/>
    <tag k="name" v="Steinhauser Straße"/>
    <tag k="parking:left" v="no"/>
    <tag k="parking:right" v="on_street"/>
    <tag k="parking:right:orientation" v="parallel"/>
    <tag k="sidewalk" v="both"/>
    <tag k="sidewalk:both:surface" v="paving_stones"/>
    <tag k="smoothness" v="excellent"/>
    <tag k="surface" v="asphalt"/>
    <tag k="width" v="6"/>
  </way>
  <way id="4631499" version="14" timestamp="2023-08-03T17:59:16Z" changeset="139406618" uid="12120321" user="bollyboll">
    <nd ref="564164"/>
    <nd ref="516132813"/>
    <nd ref="4439926295"/>
    <nd ref="1587258612"/>
    <nd ref="4812268859"/>
    <nd ref="9531780297"/>
    <nd ref="2316446614"/>
    <tag k="cycleway:both" v="no"/>
    <tag k="highway" v="residential"/>
    <tag k="lit" v="yes"/>
    <tag k="maxspeed" v="30"/>
    <tag k="name" v="Pfistermeisterstraße"/>
    <tag k="name:etymology:wikidata" v="Q112968"/>
    <tag k="sidewalk" v="separate"/>
    <tag k="surface" v="asphalt"/>
  </way>
  <way id="4705444" version="12" timestamp="2022-09-04T22:26:36Z" changeset="125789853" uid="536583" user="Strubbl">
    <nd ref="27483129"/>
    <nd ref="8842511681"/>
    <nd ref="1244543953"/>
    <nd ref="660710819"/>
    <nd ref="28096904"/>
    <tag k="highway" v="residential"/>
    <tag k="lit" v="yes"/>
    <tag k="maxspeed" v="30"/>
    <tag k="name" v="Wilhelm-Tell-Straße"/>
    <tag k="name:etymology:wikidata" v="Q30908"/>
    <tag k="oneway" v="yes"/>
    <tag k="sidewalk" v="separate"/>
    <tag k="source:maxspeed" v="DE:zone:30"/>
    <tag k="surface" v="asphalt"/>
  </way>
  <way id="4705463" version="9" timestamp="2022-10-21T08:48:42Z" changeset="127870665" uid="536583" user="Strubbl">
    <nd ref="2039393"/>
    <nd ref="592577151"/>
    <nd ref="660707028"/>
    <nd ref="1623971130"/>
    <tag k="highway" v="residential"/>
    <tag k="lit" v="yes"/>
    <tag k="maxspeed" v="30"/>
    <tag k="name" v="Saint-Privat-Straße"/>
    <tag k="name:etymology:wikidata" v="Q155247"/>
    <tag k="sidewalk" v="separate"/>
    <tag k="surface" v="asphalt"/>
  </way>
  <way id="4705465" version="12" timestamp="2025-02-02T11:07:18Z" changeset="162041206" uid="16061279" user="YellowSoul">
    <nd ref="2044194512"/>
    <nd ref="592577159"/>
    <nd ref="1609509359"/>
    <nd ref="27483454"/>
    <nd ref="27483455"/>
    <nd ref="660707031"/>
    <nd ref="1623971124"/>
    <tag k="highway" v="residential"/>
    <tag k="lit" v="yes"/>
    <tag k="maxspeed" v="30"/>
    <tag k="name" v="Braystraße"/>
    <tag k="name:etymology:wikidata" v="Q70596"/>
    <tag k="sidewalk:left" v="yes"/>
    <tag k="sidewalk:left:surface" v="paving_stones"/>
    <tag k="sidewalk:right" v="separate"/>
    <tag k="surface" v="asphalt"/>
  </way>
  <way id="4705489" version="17" timestamp="2025-02-09T16:46:23Z" changeset="162321589" uid="16061279" user="YellowSoul">
    <nd ref="28096906"/>
    <nd ref="660710814"/>
    <nd ref="4812296121"/>
    <nd ref="1244543993"/>
    <nd ref="1244544159"/>
    <nd ref="4812296122"/>
    <nd ref="8842511685"/>
    <nd ref="27483126"/>
    <nd ref="9871793053"/>
    <nd ref="27483188"/>
    <tag k="highway" v="residential"/>
    <tag k="lit" v="yes"/>
    <tag k="maxspeed" v="30"/>
    <tag k="name" v="Brucknerstraße"/>
    <tag k="name:etymology:wikidata" v="Q81752"/>
    <tag k="parking:both" v="yes"/>
    <tag k="parking:both:orientation" v="parallel"/>
    <tag k="sidewalk" v="separate"/>
    <tag k="source:maxspeed" v="DE:zone:30"/>
    <tag k="surface" v="asphalt"/>
  </way>
  <way id="4817294" version="13" timestamp="2022-09-04T22:26:42Z" changeset="125789853" uid="536583" user="Strubbl">
    <nd ref="1955004"/>
    <nd ref="592577075"/>
    <nd ref="1075810920"/>
    <nd ref="1955000"/>
    <nd ref="1609509368"/>
    <nd ref="312395081"/>
    <nd ref="4439926205"/>
    <nd ref="660707035"/>
    <nd ref="1623971117"/>
    <tag k="highway" v="residential"/>
    <tag k="lit" v="yes"/>
    <tag k="maxspeed" v="30"/>
    <tag k="name" v="Versailler Straße"/>
    <tag k="sidewalk" v="separate"/>
    <tag k="surface" v="sett"/>
  </way>
  <way id="4817295" version="20" timestamp="2023-07-23T07:21:32Z" changeset="138881288" uid="18493611" user="MunichWays">
    <nd ref="1955000"/>
    <nd ref="8862662914"/>
    <nd ref="542688581"/>
    <nd ref="1075810917"/>
    <nd ref="1955001"/>
    <nd ref="592569824"/>
    <nd ref="1955003"/>
    <nd ref="592573472"/>
    <nd ref="8872347059"/>
    <nd ref="27483469"/>
    <nd ref="8872347057"/>
    <nd ref="1075814033"/>
    <nd ref="1075814031"/>
    <nd ref="27483524"/>
    <tag k="class:bicycle" v="1"/>
    <tag k="highway" v="residential"/>
    <tag k="lit" v="yes"/>
    <tag k="maxspeed" v="30"/>
    <tag k="name" v="Schneckenburgerstraße"/>
    <tag k="name:etymology:wikidata" v="Q71399"/>
    <tag k="sidewalk" v="separate"/>
    <tag k="surface" v="asphalt"/>
  </way>
  <way id="4817296" version="12" timestamp="2024-07-26T15:21:00Z" changeset="154448284" uid="14742734" user="The_Nickname">
    <nd ref="27486188"/>
    <nd ref="7655546266"/>
    <nd ref="258681062"/>
    <nd ref="28096452"/>
    <tag k="highway" v="residential"/>
    <tag k="lit" v="yes"/>
    <tag k="maxspeed" v="30"/>
    <tag k="name" v="Nigerstraße"/>
    <tag k="sidewalk:both" v="separate"/>
    <tag k="smoothness" v="excellent"/>
    <tag k="surface" v="asphalt"/>
  </way>
  <way id="4817298" version="14" timestamp="2025-01-18T20:50:02Z" changeset="161505470" uid="16061279" user="YellowSoul">
    <nd ref="28096452"/>
    <nd ref="8749807867"/>
    <nd ref="464468361"/>
    <nd ref="28096453"/>
    <nd ref="464468353"/>
    <nd ref="7903052363"/>
    <nd ref="2031431087"/>
    <nd ref="4676307288"/>
    <nd ref="4676309289"/>
    <nd ref="12512884995"/>
    <nd ref="27483477"/>
    <tag k="highway" v="residential"/>
    <tag k="lit" v="yes"/>
    <tag k="maxspeed" v="30"/>
    <tag k="name" v="Zumpestraße"/>
    <tag k="name:etymology:wikidata" v="Q66467"/>
    <tag k="sidewalk:both" v="separate"/>
    <tag k="surface" v="asphalt"/>
  </way>
  <way id="4817302" version="10" timestamp="2023-07-30T09:38:51Z" changeset="139201873" uid="57645" user="KartoGrapHiti">
    <nd ref="27486195"/>
    <nd ref="27486186"/>
    <tag k="cycleway" v="opposite"/>
    <tag k="highway" v="residential"/>
    <tag k="lit" v="yes"/>
    <tag k="maxspeed" v="30"/>
    <tag k="name" v="Perfallstraße"/>
    <tag k="name:etymology:wikidata" v="Q1733655"/>
    <tag k="oneway" v="yes"/>
    <tag k="oneway:bicycle" v="no"/>
    <tag k="sidewalk" v="both"/>
    <tag k="surface" v="asphalt"/>
  </way>
  <way id="4817303" version="10" timestamp="2022-05-11T21:52:49Z" changeset="120859747" uid="12419129" user="Suny Kim">
    <nd ref="28096916"/>
    <nd ref="592573415"/>
    <nd ref="27486195"/>
    <tag k="highway" v="residential"/>
    <tag k="lit" v="yes"/>
    <tag k="maxspeed" v="30"/>
    <tag k="name" v="Neherstraße"/>
    <tag k="name:etymology:wikidata" v="Q74508"/>
    <tag k="oneway" v="yes"/>
    <tag k="sidewalk" v="both"/>
    <tag k="surface" v="asphalt"/>
  </way>
  <way id="4817304" version="17" timestamp="2025-02-09T16:46:23Z" changeset="162321589" uid="16061279" user="YellowSoul">
    <nd ref="2039393"/>
    <nd ref="660710812"/>
    <nd ref="4812310218"/>
    <nd ref="4812310216"/>
    <nd ref="8842511686"/>
    <nd ref="27483127"/>
    <nd ref="9871782803"/>
    <nd ref="9871782797"/>
    <nd ref="27483184"/>
    <nd ref="9871793057"/>
    <nd ref="1486433161"/>
    <nd ref="1486433118"/>
    <nd ref="1485399072"/>
    <nd ref="1486433193"/>
    <nd ref="27483185"/>
    <tag k="highway" v="residential"/>
    <tag k="maxspeed" v="30"/>
    <tag k="name" v="Brahmsstraße"/>
    <tag k="name:etymology:wikidata" v="Q7294"/>
    <tag k="parking:left" v="yes"/>
    <tag k="parking:left:orientation" v="parallel"/>
    <tag k="parking:right" v="yes"/>
    <tag k="parking:right:orientation" v="parallel"/>
    <tag k="sidewalk" v="separate"/>
    <tag k="surface" v="asphalt"/>
  </way>
  <way id="19901815" version="17" timestamp="2015-05-15T12:13:17Z" changeset="31170472" uid="2415107" user="tklug">
    <nd ref="208826592"/>
    <nd ref="208826738"/>
    <nd ref="208827011"/>
    <nd ref="208826703"/>
    <nd ref="1319711778"/>
    <nd ref="208826950"/>
    <nd ref="1319712093"/>
    <nd ref="1319712095"/>
    <nd ref="890029038"/>
    <nd ref="1319713447"/>
    <nd ref="208826932"/>
    <nd ref="1319713452"/>
    <nd ref="208826923"/>
    <nd ref="208826906"/>
    <nd ref="1319713451"/>
    <nd ref="208826898"/>
    <nd ref="3519327880"/>
    <nd ref="208826888"/>
    <nd ref="3519327881"/>
    <nd ref="208826882"/>
    <nd ref="3519327883"/>
    <nd ref="208826872"/>
    <nd ref="3519327885"/>
    <nd ref="208826867"/>
    <nd ref="3519327886"/>
    <nd ref="208826858"/>
    <nd ref="3519327884"/>
    <nd ref="3519327882"/>
    <nd ref="890028811"/>
    <nd ref="1319713444"/>
    <nd ref="1319713448"/>
    <nd ref="208826839"/>
    <nd ref="208826789"/>
    <nd ref="890028782"/>
    <nd ref="890028798"/>
    <nd ref="208826765"/>
    <nd ref="208826579"/>
    <nd ref="890028481"/>
    <nd ref="890029125"/>
    <nd ref="208826592"/>
    <tag k="building" v="hospital"/>
    <tag k="name" v="501"/>
    <tag k="source" v="Bing"/>
  </way>
  <way id="23684068" version="24" timestamp="2024-09-01T07:48:11Z" changeset="156042352" uid="46618" user="winterschlaefer">
    <nd ref="1319711778"/>
    <nd ref="208826711"/>
    <nd ref="208826721"/>
    <nd ref="208826738"/>
    <nd ref="208826592"/>
    <nd ref="1872159404"/>
    <nd ref="890028988"/>
    <nd ref="890028328"/>
    <nd ref="9048025548"/>
    <nd ref="890029215"/>
    <nd ref="1872161266"/>
    <nd ref="1872161264"/>
    <nd ref="7903099886"/>
    <nd ref="7902976282"/>
    <nd ref="7903099885"/>
    <nd ref="2923399581"/>
    <nd ref="1872161265"/>
    <nd ref="1872161269"/>
    <nd ref="1872161268"/>
    <nd ref="1872161267"/>
    <nd ref="1872161270"/>
    <nd ref="890028621"/>
    <nd ref="890029154"/>
    <nd ref="890028511"/>
    <nd ref="7903064733"/>
    <nd ref="7903064734"/>
    <nd ref="7903064735"/>
    <nd ref="7903064736"/>
    <nd ref="1319711779"/>
    <nd ref="1319711784"/>
    <nd ref="7903064737"/>
    <nd ref="3519327876"/>
    <nd ref="1319711777"/>
    <nd ref="1319711776"/>
    <nd ref="1319711786"/>
    <nd ref="1319711778"/>
    <tag k="amenity" v="university"/>
    <tag k="building" v="university"/>
    <tag k="check_date" v="2024-05-10"/>
    <tag k="name" v="551 - Hörsäle der TUM"/>
    <tag k="ref" v="551"/>
    <tag k="source" v="Bing"/>
    <tag k="wheelchair" v="yes"/>
  </way>
  <way id="23967238" version="10" timestamp="2025-02-02T11:40:04Z" changeset="162041206" uid="16061279" user="YellowSoul">
    <nd ref="259828288"/>
    <nd ref="7903064773"/>
    <nd ref="259828753"/>
    <nd ref="259828318"/>
    <tag k="bicycle" v="yes"/>
    <tag k="highway" v="residential"/>
    <tag k="lit" v="yes"/>
    <tag k="maxspeed" v="30"/>
    <tag k="name" v="Schneckenburgerstraße"/>
    <tag k="name:etymology:wikidata" v="Q71399"/>
    <tag k="sidewalk:left" v="yes"/>
    <tag k="sidewalk:left:surface" v="paving_stones"/>
    <tag k="sidewalk:right" v="separate"/>
    <tag k="smoothness" v="good"/>
    <tag k="surface" v="asphalt"/>
  </way>
  <way id="23967272" version="14" timestamp="2024-07-27T17:25:53Z" changeset="154493696" uid="14742734" user="The_Nickname">
    <nd ref="28096452"/>
    <nd ref="7903052369"/>
    <tag k="highway" v="residential"/>
    <tag k="lit" v="yes"/>
    <tag k="maxspeed" v="30"/>
    <tag k="name" v="Nigerstraße"/>
    <tag k="parking:left" v="on_kerb"/>
    <tag k="parking:left:orientation" v="diagonal"/>
    <tag k="sidewalk:both" v="separate"/>
    <tag k="sidewalk:left:surface" v="asphalt"/>
    <tag k="smoothness" v="excellent"/>
    <tag k="surface" v="asphalt"/>
  </way>
  <way id="23967360" version="15" timestamp="2023-08-12T15:14:54Z" changeset="139791914" uid="18493611" user="MunichWays">
    <nd ref="27486186"/>
    <nd ref="1319713954"/>
    <nd ref="2526303977"/>
    <nd ref="27486196"/>
    <nd ref="27486197"/>
    <nd ref="1020933193"/>
    <nd ref="564533"/>
    <tag k="bicycle" v="yes"/>
    <tag k="class:bicycle" v="1"/>
    <tag k="highway" v="residential"/>
    <tag k="lit" v="yes"/>
    <tag k="maxspeed" v="30"/>
    <tag k="name" v="Trogerstraße"/>
    <tag k="name:etymology:wikidata" v="Q1768014"/>
    <tag k="sidewalk" v="both"/>
    <tag k="smoothness" v="good"/>
    <tag k="surface" v="asphalt"/>
  </way>
  <way id="25191210" version="14" timestamp="2023-07-23T07:21:32Z" changeset="138881288" uid="18493611" user="MunichWays">
    <nd ref="259828365"/>
    <nd ref="19224205"/>
    <nd ref="7903025859"/>
    <nd ref="6816818771"/>
    <nd ref="1078912409"/>
    <tag k="bicycle" v="yes"/>
    <tag k="class:bicycle" v="2"/>
    <tag k="highway" v="residential"/>
    <tag k="lit" v="yes"/>
    <tag k="maxspeed" v="30"/>
    <tag k="name" v="Kuglerstraße"/>
    <tag k="noexit" v="yes"/>
    <tag k="sidewalk" v="separate"/>
    <tag k="smoothness" v="good"/>
    <tag k="surface" v="asphalt"/>
  </way>
  <way id="28433135" version="9" timestamp="2023-03-06T06:54:43Z" changeset="133350179" uid="4376164" user="redweizn">
    <nd ref="312395081"/>
    <nd ref="8862662915"/>
    <nd ref="1020909922"/>
    <nd ref="542688579"/>
    <nd ref="1020909856"/>
    <nd ref="592569793"/>
    <nd ref="312395082"/>
    <tag k="highway" v="residential"/>
    <tag k="maxspeed" v="30"/>
    <tag k="name" v="Hackländerstraße"/>
    <tag k="name:etymology:wikidata" v="Q74465"/>
    <tag k="oneway" v="yes"/>
    <tag k="sidewalk" v="separate"/>
    <tag k="surface" v="asphalt"/>
  </way>
  <way id="31175345" version="23" timestamp="2025-04-03T21:44:18Z" changeset="164484291" uid="16061279" user="YellowSoul">
    <nd ref="28096910"/>
    <nd ref="11061386000"/>
    <nd ref="3489915211"/>
    <nd ref="247682442"/>
    <nd ref="3225495670"/>
    <tag k="bicycle" v="use_sidepath"/>
    <tag k="cycleway:both" v="separate"/>
    <tag k="foot" v="use_sidepath"/>
    <tag k="highway" v="secondary"/>
    <tag k="lanes:backward" v="2"/>
    <tag k="lanes:forward" v="2"/>
    <tag k="maxspeed" v="50"/>
    <tag k="name" v="Prinzregentenstraße"/>
    <tag k="name:etymology:wikidata" v="Q44785"/>
    <tag k="sidewalk" v="separate"/>
    <tag k="surface" v="asphalt"/>
    <tag k="tmc" v="DE:27983/27984"/>
    <tag k="turn:lanes:backward" v="left;through|right"/>
    <tag k="wikipedia" v="de:Prinzregentenstraße"/>
  </way>
  <way id="31175540" version="32" timestamp="2024-10-05T13:39:06Z" changeset="157501711" uid="536583" user="Strubbl">
    <nd ref="564512"/>
    <nd ref="2213493619"/>
    <nd ref="4678580645"/>
    <nd ref="1078859913"/>
    <nd ref="4676307279"/>
    <nd ref="1020909813"/>
    <nd ref="21118772"/>
    <nd ref="3769568267"/>
    <nd ref="4678580653"/>
    <nd ref="21118771"/>
    <nd ref="3789797794"/>
    <nd ref="4678580650"/>
    <nd ref="4678580652"/>
    <nd ref="4678580651"/>
    <nd ref="2254759228"/>
    <nd ref="4678580648"/>
    <nd ref="1020942868"/>
    <tag k="bicycle" v="use_sidepath"/>
    <tag k="destination" v="Zentrum"/>
    <tag k="dual_carriageway" v="yes"/>
    <tag k="foot" v="use_sidepath"/>
    <tag k="highway" v="secondary"/>
    <tag k="lanes" v="2"/>
    <tag k="lit" v="yes"/>
    <tag k="maxspeed" v="50"/>
    <tag k="name" v="Prinzregentenstraße"/>
    <tag k="name:etymology:wikidata" v="Q44785"/>
    <tag k="oneway" v="yes"/>
    <tag k="psv" v="yes"/>
    <tag k="sidewalk:left" v="no"/>
    <tag k="sidewalk:right" v="separate"/>
    <tag k="smoothness" v="good"/>
    <tag k="surface" v="asphalt"/>
    <tag k="tmc" v="DE:27982/27983"/>
  </way>
  <way id="35078624" version="24" timestamp="2025-01-18T19:52:33Z" changeset="161504094" uid="16061279" user="YellowSoul">
    <nd ref="241788941"/>
    <nd ref="2591671709"/>
    <nd ref="3185127966"/>
    <nd ref="436470498"/>
    <nd ref="398831"/>
    <tag k="bicycle" v="use_sidepath"/>
    <tag k="cycleway:right" v="separate"/>
    <tag k="dual_carriageway" v="yes"/>
    <tag k="highway" v="secondary"/>
    <tag k="lanes" v="2"/>
    <tag k="level" v="0"/>
    <tag k="maxspeed" v="50"/>
    <tag k="name" v="Leuchtenbergring"/>
    <tag k="name:etymology:wikidata" v="Q155545"/>
    <tag k="oneway" v="yes"/>
    <tag k="parking:both" v="no"/>
    <tag k="ref" v="B 2R"/>
    <tag k="sidewalk" v="both"/>
    <tag k="sidewalk:both:surface" v="paving_stones"/>
    <tag k="smoothness" v="excellent"/>
    <tag k="source" v="survey"/>
    <tag k="surface" v="asphalt"/>
    <tag k="wikidata" v="Q1303041"/>
  </way>
  <way id="35078631" version="24" timestamp="2025-01-12T12:10:02Z" changeset="161268959" uid="2815653" user="DaxServer">
    <nd ref="1623971133"/>
    <nd ref="659613568"/>
    <nd ref="3185128363"/>
    <nd ref="1769891397"/>
    <nd ref="1623971127"/>
    <tag k="bicycle" v="use_sidepath"/>
    <tag k="dual_carriageway" v="yes"/>
    <tag k="foot" v="use_sidepath"/>
    <tag k="highway" v="primary"/>
    <tag k="lanes" v="2"/>
    <tag k="level" v="0"/>
    <tag k="lit" v="yes"/>
    <tag k="maxspeed" v="50"/>
    <tag k="name" v="Leuchtenbergring"/>
    <tag k="name:etymology:wikidata" v="Q155545"/>
    <tag k="oneway" v="yes"/>
    <tag k="ref" v="B 2R"/>
    <tag k="smoothness" v="excellent"/>
    <tag k="source" v="survey"/>
    <tag k="surface" v="asphalt"/>
    <tag k="wikidata" v="Q1303041"/>
  </way>
  <way id="36945709" version="27" timestamp="2025-01-12T11:58:41Z" changeset="161268959" uid="2815653" user="DaxServer">
    <nd ref="429609930"/>
    <nd ref="9684129773"/>
    <nd ref="2267950475"/>
    <nd ref="9684129774"/>
    <nd ref="21133234"/>
    <tag k="hgv" v="delivery"/>
    <tag k="highway" v="trunk"/>
    <tag k="lanes" v="2"/>
    <tag k="layer" v="-1"/>
    <tag k="length" v="1495m"/>
    <tag k="level" v="-1"/>
    <tag k="maxheight" v="default"/>
    <tag k="maxspeed" v="60"/>
    <tag k="maxspeed:variable" v="yes"/>
    <tag k="motorroad" v="yes"/>
    <tag k="name" v="Richard-Strauss-Tunnel"/>
    <tag k="name:etymology:wikidata" v="Q13894"/>
    <tag k="oneway" v="yes"/>
    <tag k="ref" v="B 2R"/>
    <tag k="shoulder" v="no"/>
    <tag k="surface" v="asphalt"/>
    <tag k="tmc" v="DE:22678/22679"/>
    <tag k="tunnel" v="yes"/>
    <tag k="wikidata" v="Q2148895"/>
  </way>
  <way id="36993743" version="9" timestamp="2023-11-07T07:04:51Z" changeset="143721855" uid="6285042" user="Biclmont">
    <nd ref="424275442"/>
    <nd ref="9048025537"/>
    <nd ref="2262670275"/>
    <nd ref="1688589008"/>
    <nd ref="430234724"/>
    <tag k="highway" v="residential"/>
    <tag k="lit" v="yes"/>
    <tag k="maxspeed" v="30"/>
    <tag k="name" v="Untere Feldstraße"/>
    <tag k="oneway" v="yes"/>
    <tag k="sidewalk:both" v="separate"/>
    <tag k="source:maxspeed" v="DE:zone:30"/>
    <tag k="surface" v="asphalt"/>
  </way>
  <way id="36993745" version="12" timestamp="2025-03-22T20:57:57Z" changeset="163964101" uid="44217" user="kjon">
    <nd ref="430234730"/>
    <nd ref="3691186029"/>
    <nd ref="1688589002"/>
    <nd ref="430234731"/>
    <tag k="highway" v="residential"/>
    <tag k="lit" v="yes"/>
    <tag k="maxspeed" v="30"/>
    <tag k="name" v="Bogenstraße"/>
    <tag k="oneway" v="yes"/>
    <tag k="parking:right" v="yes"/>
    <tag k="parking:right:orientation" v="parallel"/>
    <tag k="sidewalk:both" v="separate"/>
    <tag k="source:maxspeed" v="DE:zone:30"/>
    <tag k="surface" v="asphalt"/>
  </way>
  <way id="37665125" version="26" timestamp="2025-02-02T08:12:40Z" changeset="162036254" uid="536583" user="Strubbl">
    <nd ref="1078912401"/>
    <nd ref="21101353"/>
    <nd ref="3185127962"/>
    <nd ref="1769891372"/>
    <nd ref="2584578106"/>
    <nd ref="1078912645"/>
    <tag k="bicycle" v="use_sidepath"/>
    <tag k="dual_carriageway" v="yes"/>
    <tag k="foot" v="use_sidepath"/>
    <tag k="highway" v="secondary"/>
    <tag k="lanes" v="1"/>
    <tag k="lit" v="yes"/>
    <tag k="maxspeed" v="50"/>
    <tag k="name" v="Grillparzerstraße"/>
    <tag k="name:etymology:wikidata" v="Q154438"/>
    <tag k="oneway" v="yes"/>
    <tag k="sidewalk:left" v="no"/>
    <tag k="sidewalk:right" v="separate"/>
    <tag k="smoothness" v="good"/>
    <tag k="surface" v="asphalt"/>
  </way>
  <way id="40991923" version="16" timestamp="2024-10-05T13:39:09Z" changeset="157501711" uid="536583" user="Strubbl">
    <nd ref="1623971101"/>
    <nd ref="592574758"/>
    <nd ref="3170118702"/>
    <nd ref="564445"/>
    <tag k="bicycle" v="use_sidepath"/>
    <tag k="dual_carriageway" v="yes"/>
    <tag k="foot" v="use_sidepath"/>
    <tag k="highway" v="secondary"/>
    <tag k="lanes" v="1"/>
    <tag k="lit" v="yes"/>
    <tag k="maxspeed" v="50"/>
    <tag k="name" v="Grillparzerstraße"/>
    <tag k="name:etymology:wikidata" v="Q154438"/>
    <tag k="oneway" v="yes"/>
    <tag k="sidewalk:left" v="no"/>
    <tag k="sidewalk:right" v="separate"/>
    <tag k="smoothness" v="good"/>
    <tag k="surface" v="asphalt"/>
  </way>
  <way id="49074839" version="19" timestamp="2025-01-12T12:10:02Z" changeset="161268959" uid="2815653" user="DaxServer">
    <nd ref="398831"/>
    <nd ref="638932766"/>
    <nd ref="3172795862"/>
    <nd ref="436470512"/>
    <tag k="bicycle" v="use_sidepath"/>
    <tag k="dual_carriageway" v="yes"/>
    <tag k="foot" v="use_sidepath"/>
    <tag k="highway" v="secondary"/>
    <tag k="lanes" v="2"/>
    <tag k="level" v="0"/>
    <tag k="lit" v="yes"/>
    <tag k="maxspeed" v="40"/>
    <tag k="name" v="Leuchtenbergring"/>
    <tag k="name:etymology:wikidata" v="Q155545"/>
    <tag k="oneway" v="yes"/>
    <tag k="parking:both" v="no"/>
    <tag k="ref" v="B 2R"/>
    <tag k="sidewalk:left" v="no"/>
    <tag k="sidewalk:right" v="separate"/>
    <tag k="smoothness" v="good"/>
    <tag k="source" v="survey"/>
    <tag k="surface" v="asphalt"/>
    <tag k="wikidata" v="Q1303041"/>
  </way>
  <way id="51776621" version="29" timestamp="2025-04-12T16:46:50Z" changeset="164864406" uid="18850925" user="cableway">
    <nd ref="1688588916"/>
    <nd ref="11250084167"/>
    <nd ref="11250084168"/>
    <nd ref="1079043023"/>
    <nd ref="6816818775"/>
    <nd ref="3189158461"/>
    <nd ref="3189158462"/>
    <nd ref="5390989480"/>
    <nd ref="3189158463"/>
    <nd ref="1688588969"/>
    <tag k="class:bicycle" v="-2"/>
    <tag k="cycleway:both" v="no"/>
    <tag k="foot" v="use_sidepath"/>
    <tag k="highway" v="tertiary"/>
    <tag k="lanes" v="3"/>
    <tag k="lanes:backward" v="2"/>
    <tag k="lanes:forward" v="1"/>
    <tag k="lit" v="yes"/>
    <tag k="maxspeed" v="30"/>
    <tag k="name" v="Ismaninger Straße"/>
    <tag k="sidewalk" v="separate"/>
    <tag k="source:maxspeed" v="sign"/>
    <tag k="surface" v="asphalt"/>
    <tag k="turn:lanes:backward" v="|through;right"/>
  </way>
  <way id="53442538" version="16" timestamp="2025-04-03T21:44:18Z" changeset="164484291" uid="16061279" user="YellowSoul">
    <nd ref="592569762"/>
    <nd ref="564512"/>
    <tag k="bicycle" v="use_sidepath"/>
    <tag k="cycleway:both" v="separate"/>
    <tag k="foot" v="use_sidepath"/>
    <tag k="hgv" v="delivery"/>
    <tag k="highway" v="secondary"/>
    <tag k="lanes" v="4"/>
    <tag k="lit" v="yes"/>
    <tag k="maxspeed" v="50"/>
    <tag k="name" v="Prinzregentenstraße"/>
    <tag k="name:etymology:wikidata" v="Q44785"/>
    <tag k="sidewalk" v="separate"/>
    <tag k="smoothness" v="good"/>
    <tag k="surface" v="asphalt"/>
    <tag k="tmc" v="DE:27982/27983"/>
    <tag k="wikipedia" v="de:Prinzregentenstraße"/>
  </way>
  <way id="72858748" version="6" timestamp="2022-03-27T11:13:16Z" changeset="118976664" uid="4376164" user="redweizn">
    <nd ref="864659824"/>
    <nd ref="1670877490"/>
    <nd ref="864659818"/>
    <nd ref="1670877519"/>
    <nd ref="1670877488"/>
    <nd ref="864659824"/>
    <tag k="addr:housenumber" v="110"/>
    <tag k="addr:postcode" v="81677"/>
    <tag k="addr:street" v="Prinzregentenstraße"/>
    <tag k="building" v="apartments"/>
    <tag k="building:levels" v="5"/>
    <tag k="roof:shape" v="gabled"/>
  </way>
  <way id="72858750" version="6" timestamp="2022-03-27T11:13:12Z" changeset="118976664" uid="4376164" user="redweizn">
    <nd ref="864659824"/>
    <nd ref="1670877490"/>
    <nd ref="1670877473"/>
    <nd ref="1670877476"/>
    <nd ref="864659824"/>
    <tag k="addr:housenumber" v="18"/>
    <tag k="addr:street" v="Saint-Privat-Straße"/>
    <tag k="building" v="apartments"/>
    <tag k="building:levels" v="5"/>
    <tag k="roof:shape" v="gabled"/>
  </way>
  <way id="75249749" version="5" timestamp="2021-09-25T08:09:31Z" changeset="111677271" uid="78613" user="heilbron">
    <nd ref="888590439"/>
    <nd ref="888590437"/>
    <nd ref="888590436"/>
    <nd ref="888590442"/>
    <nd ref="888590439"/>
    <tag k="building" v="hospital"/>
    <tag k="building:levels" v="2"/>
    <tag k="name" v="507"/>
    <tag k="source" v="Bing"/>
  </way>
  <way id="75376166" version="6" timestamp="2016-10-10T02:03:02Z" changeset="42766844" uid="14390" user="BeKri">
    <nd ref="890028577"/>
    <nd ref="890029322"/>
    <nd ref="890029100"/>
    <nd ref="3377607423"/>
    <nd ref="3377607424"/>
    <nd ref="890028813"/>
    <nd ref="890028577"/>
    <tag k="building" v="hospital"/>
    <tag k="name" v="515"/>
  </way>
  <way id="75376176" version="10" timestamp="2023-07-15T16:24:09Z" changeset="138551214" uid="8748" user="ToniE">
    <nd ref="890028692"/>
    <nd ref="890028752"/>
    <nd ref="890029011"/>
    <nd ref="890028310"/>
    <nd ref="10589865175"/>
    <nd ref="10589865176"/>
    <nd ref="890029148"/>
    <nd ref="890028505"/>
    <nd ref="890028934"/>
    <nd ref="890028692"/>
    <tag k="building" v="hospital"/>
    <tag k="name" v="506 - OP Zentrum Nord"/>
  </way>
  <way id="75376177" version="4" timestamp="2022-01-23T20:42:10Z" changeset="116514511" uid="4238158" user="RiderOnTheStorm">
    <nd ref="890028364"/>
    <nd ref="890029167"/>
    <nd ref="890028867"/>
    <nd ref="890028634"/>
    <nd ref="890028364"/>
    <tag k="building" v="yes"/>
    <tag k="name" v="527"/>
  </way>
  <way id="75376183" version="6" timestamp="2022-07-29T09:58:44Z" changeset="124222870" uid="4238158" user="RiderOnTheStorm">
    <nd ref="890028863"/>
    <nd ref="3377607422"/>
    <nd ref="890028258"/>
    <nd ref="1410376940"/>
    <nd ref="890028759"/>
    <nd ref="890028990"/>
    <nd ref="890028818"/>
    <nd ref="890028863"/>
    <tag k="building" v="yes"/>
    <tag k="name" v="543"/>
  </way>
  <way id="75376200" version="10" timestamp="2021-07-02T18:41:02Z" changeset="107326592" uid="4238158" user="RiderOnTheStorm">
    <nd ref="890028334"/>
    <nd ref="890028601"/>
    <nd ref="890028842"/>
    <nd ref="1319730267"/>
    <nd ref="1319730262"/>
    <nd ref="1319730263"/>
    <nd ref="1319730265"/>
    <nd ref="890029130"/>
    <nd ref="890028334"/>
    <tag k="addr:housenumber" v="3"/>
    <tag k="addr:street" v="Nigerstraße"/>
    <tag k="building" v="university"/>
    <tag k="name" v="713"/>
  </way>
  <way id="75376205" version="5" timestamp="2016-10-10T02:03:02Z" changeset="42766844" uid="14390" user="BeKri">
    <nd ref="890028796"/>
    <nd ref="890029067"/>
    <nd ref="890029292"/>
    <nd ref="890028420"/>
    <nd ref="890028796"/>
    <tag k="building" v="hospital"/>
    <tag k="name" v="514"/>
  </way>
  <way id="75376213" version="12" timestamp="2022-12-10T12:35:50Z" changeset="129932249" uid="4238158" user="RiderOnTheStorm">
    <nd ref="890028491"/>
    <nd ref="890028245"/>
    <nd ref="1319730297"/>
    <nd ref="1319730295"/>
    <nd ref="890028734"/>
    <nd ref="1319730268"/>
    <nd ref="890029006"/>
    <nd ref="890029238"/>
    <nd ref="2499918340"/>
    <nd ref="890028491"/>
    <tag k="building" v="yes"/>
    <tag k="name" v="555 - Klinikumapotheke"/>
  </way>
  <way id="75376215" version="3" timestamp="2010-11-13T21:23:28Z" changeset="6362118" uid="342705" user="KonB">
    <nd ref="890028828"/>
    <nd ref="890028475"/>
    <nd ref="890028846"/>
    <nd ref="890028910"/>
    <nd ref="890029338"/>
    <nd ref="890029114"/>
    <nd ref="890028828"/>
    <tag k="building" v="yes"/>
    <tag k="name" v="535"/>
  </way>
  <way id="75376229" version="8" timestamp="2016-10-10T02:03:03Z" changeset="42766844" uid="14390" user="BeKri">
    <nd ref="890028915"/>
    <nd ref="890028569"/>
    <nd ref="890028303"/>
    <nd ref="1319730269"/>
    <nd ref="1319730268"/>
    <nd ref="890028734"/>
    <nd ref="1319730295"/>
    <nd ref="890028915"/>
    <tag k="building" v="yes"/>
    <tag k="name" v="555"/>
  </way>
  <way id="75376253" version="8" timestamp="2023-07-14T12:24:25Z" changeset="138505713" uid="4238158" user="RiderOnTheStorm">
    <nd ref="890028339"/>
    <nd ref="890029136"/>
    <nd ref="5451255632"/>
    <nd ref="5451255630"/>
    <nd ref="890029027"/>
    <nd ref="890028498"/>
    <nd ref="890028847"/>
    <nd ref="11046368431"/>
    <nd ref="11046368430"/>
    <nd ref="890028612"/>
    <nd ref="11046368438"/>
    <nd ref="11046368439"/>
    <nd ref="5451255647"/>
    <nd ref="5451255645"/>
    <nd ref="890028339"/>
    <tag k="building" v="hospital"/>
    <tag k="name" v="561 - Urologie"/>
    <tag k="source" v="Bing"/>
  </way>
  <way id="75376256" version="5" timestamp="2016-10-10T02:03:02Z" changeset="42766844" uid="14390" user="BeKri">
    <nd ref="890029335"/>
    <nd ref="890028982"/>
    <nd ref="890028721"/>
    <nd ref="890028465"/>
    <nd ref="1319713377"/>
    <nd ref="1319713376"/>
    <nd ref="890029335"/>
    <tag k="building" v="yes"/>
    <tag k="name" v="523"/>
  </way>
  <way id="75376261" version="9" timestamp="2023-11-08T09:47:34Z" changeset="143771386" uid="8748" user="ToniE">
    <nd ref="890028931"/>
    <nd ref="890029204"/>
    <nd ref="890028410"/>
    <nd ref="890092627"/>
    <nd ref="890028781"/>
    <nd ref="890028540"/>
    <nd ref="1319733536"/>
    <nd ref="1319733540"/>
    <nd ref="1319733539"/>
    <nd ref="1319733537"/>
    <nd ref="890028528"/>
    <nd ref="890029059"/>
    <nd ref="890028931"/>
    <tag k="building" v="hospital"/>
    <tag k="name" v="516 - Psychiatrie"/>
  </way>
  <way id="75376262" version="10" timestamp="2022-01-23T20:42:10Z" changeset="116514511" uid="4238158" user="RiderOnTheStorm">
    <nd ref="2249178877"/>
    <nd ref="2249178880"/>
    <nd ref="890028243"/>
    <nd ref="1319718297"/>
    <nd ref="1319718302"/>
    <nd ref="1319718300"/>
    <nd ref="1319718296"/>
    <nd ref="1319718298"/>
    <nd ref="890029075"/>
    <nd ref="1319718301"/>
    <nd ref="890110631"/>
    <nd ref="2249178912"/>
    <nd ref="2249178910"/>
    <nd ref="1319718303"/>
    <nd ref="890029210"/>
    <nd ref="2249178906"/>
    <nd ref="2249178904"/>
    <nd ref="2249178888"/>
    <nd ref="2249178894"/>
    <nd ref="2249178889"/>
    <nd ref="2249178884"/>
    <nd ref="1319718299"/>
    <nd ref="890029221"/>
    <nd ref="890028325"/>
    <nd ref="890029266"/>
    <nd ref="890028523"/>
    <nd ref="9443034666"/>
    <nd ref="9443034667"/>
    <nd ref="2249178877"/>
    <tag k="building" v="hospital"/>
    <tag k="name" v="502"/>
    <tag k="source" v="Bing"/>
  </way>
  <way id="75376265" version="17" timestamp="2020-09-14T16:46:51Z" changeset="90876897" uid="26299" user="uboot">
    <nd ref="890028670"/>
    <nd ref="7905893717"/>
    <nd ref="1319694768"/>
    <nd ref="7905893720"/>
    <nd ref="890028912"/>
    <nd ref="2249178885"/>
    <nd ref="3519327889"/>
    <nd ref="2249178897"/>
    <nd ref="3519327891"/>
    <nd ref="2249178901"/>
    <nd ref="3519334293"/>
    <nd ref="2249178903"/>
    <nd ref="3519327892"/>
    <nd ref="2249178900"/>
    <nd ref="3519327890"/>
    <nd ref="2249178892"/>
    <nd ref="3519327888"/>
    <nd ref="2249178882"/>
    <nd ref="3519327887"/>
    <nd ref="2249178879"/>
    <nd ref="890029194"/>
    <nd ref="890029240"/>
    <nd ref="890029320"/>
    <nd ref="890028300"/>
    <nd ref="890028670"/>
    <tag k="building" v="hospital"/>
    <tag k="name" v="Klinik Haupteingang"/>
    <tag k="note" v="Haus 511"/>
    <tag k="ref" v="511"/>
    <tag k="source" v="Bing"/>
    <tag k="wheelchair" v="yes"/>
  </way>
  <way id="75376266" version="5" timestamp="2024-01-16T00:30:16Z" changeset="146302556" uid="20888308" user="MaXxGrr">
    <nd ref="890028870"/>
    <nd ref="890028526"/>
    <nd ref="890028263"/>
    <nd ref="890029171"/>
    <nd ref="9442262484"/>
    <nd ref="890028870"/>
    <tag k="building" v="hospital"/>
    <tag k="name" v="548"/>
  </way>
  <way id="75376268" version="5" timestamp="2023-01-22T01:59:58Z" changeset="131558479" uid="4238158" user="RiderOnTheStorm">
    <nd ref="890029050"/>
    <nd ref="890028818"/>
    <nd ref="890028990"/>
    <nd ref="9918844995"/>
    <nd ref="890028362"/>
    <nd ref="890028579"/>
    <nd ref="10573770480"/>
    <nd ref="890028483"/>
    <nd ref="890029324"/>
    <nd ref="890028320"/>
    <nd ref="890029273"/>
    <nd ref="890029050"/>
    <tag k="building" v="yes"/>
    <tag k="name" v="559"/>
  </way>
  <way id="75376269" version="5" timestamp="2014-06-28T22:05:35Z" changeset="23260042" uid="16217" user="MrBean">
    <nd ref="890028801"/>
    <nd ref="890028437"/>
    <nd ref="890029311"/>
    <nd ref="890028595"/>
    <nd ref="890028956"/>
    <nd ref="890029084"/>
    <nd ref="890028801"/>
    <tag k="building" v="yes"/>
    <tag k="name" v="Hörsaalpavillon"/>
    <tag k="source" v="Bing"/>
  </way>
  <way id="75376273" version="6" timestamp="2023-04-21T18:43:24Z" changeset="135206089" uid="4376164" user="redweizn">
    <nd ref="890028730"/>
    <nd ref="890028993"/>
    <nd ref="890029236"/>
    <nd ref="890029247"/>
    <nd ref="890028730"/>
    <tag k="building" v="hospital"/>
    <tag k="name" v="510"/>
    <tag k="nohousenumber" v="yes"/>
    <tag k="roof:shape" v="flat"/>
    <tag k="source" v="Bing"/>
  </way>
  <way id="75376275" version="9" timestamp="2021-06-30T12:16:05Z" changeset="107205618" uid="4238158" user="RiderOnTheStorm">
    <nd ref="890029221"/>
    <nd ref="890028445"/>
    <nd ref="890029317"/>
    <nd ref="890028241"/>
    <nd ref="890028599"/>
    <nd ref="890029088"/>
    <nd ref="8880038864"/>
    <nd ref="8880038860"/>
    <nd ref="890028325"/>
    <nd ref="890029221"/>
    <tag k="building" v="hospital"/>
    <tag k="name" v="509"/>
  </way>
  <way id="75376278" version="5" timestamp="2016-10-10T02:03:03Z" changeset="42766844" uid="14390" user="BeKri">
    <nd ref="890028599"/>
    <nd ref="890028241"/>
    <nd ref="890029126"/>
    <nd ref="890028840"/>
    <nd ref="890028599"/>
    <tag k="building" v="hospital"/>
    <tag k="name" v="556"/>
  </way>
  <way id="75376281" version="6" timestamp="2022-01-23T20:53:42Z" changeset="116514783" uid="4238158" user="RiderOnTheStorm">
    <nd ref="890028894"/>
    <nd ref="890029180"/>
    <nd ref="890028281"/>
    <nd ref="890028286"/>
    <nd ref="890028894"/>
    <tag k="building" v="apartments"/>
    <tag k="name" v="512"/>
  </way>
  <way id="75376287" version="3" timestamp="2022-01-23T10:32:14Z" changeset="116493141" uid="4238158" user="RiderOnTheStorm">
    <nd ref="890029263"/>
    <nd ref="890029305"/>
    <nd ref="890028649"/>
    <nd ref="890028387"/>
    <nd ref="890029263"/>
    <tag k="building" v="yes"/>
    <tag k="name" v="544"/>
    <tag k="roof:shape" v="gabled"/>
  </way>
  <way id="75380883" version="6" timestamp="2014-09-07T17:07:58Z" changeset="25291028" uid="77389" user="eho">
    <nd ref="208826950"/>
    <nd ref="890092623"/>
    <nd ref="1319711785"/>
    <nd ref="1319711781"/>
    <nd ref="1319711777"/>
    <nd ref="1319711776"/>
    <nd ref="1319711786"/>
    <nd ref="1319711778"/>
    <nd ref="208826950"/>
    <tag k="building" v="hospital"/>
    <tag k="name" v="552"/>
    <tag k="source" v="Bing"/>
  </way>
  <way id="76179060" version="3" timestamp="2011-07-09T00:39:41Z" changeset="8670813" uid="64164" user="osmkurt">
    <nd ref="890029273"/>
    <nd ref="890029050"/>
    <nd ref="1354346497"/>
    <nd ref="1354346501"/>
    <nd ref="1354346490"/>
    <nd ref="1354346499"/>
    <nd ref="890029273"/>
    <tag k="building" v="yes"/>
    <tag k="name" v="542"/>
  </way>
  <way id="76179061" version="4" timestamp="2011-07-09T00:44:30Z" changeset="8670813" uid="64164" user="osmkurt">
    <nd ref="890028638"/>
    <nd ref="890028877"/>
    <nd ref="890028408"/>
    <nd ref="890028774"/>
    <nd ref="898894161"/>
    <nd ref="898894149"/>
    <nd ref="898894156"/>
    <nd ref="898894174"/>
    <nd ref="890029175"/>
    <nd ref="890028277"/>
    <nd ref="890028623"/>
    <nd ref="890028638"/>
    <tag k="building" v="yes"/>
    <tag k="name" v="538"/>
  </way>
  <way id="76179062" version="4" timestamp="2012-07-21T10:29:41Z" changeset="12405917" uid="8748" user="ToniE">
    <nd ref="1319728133"/>
    <nd ref="1354349203"/>
    <nd ref="1354349205"/>
    <nd ref="898894161"/>
    <nd ref="898894149"/>
    <nd ref="1319728136"/>
    <nd ref="1319728133"/>
    <tag k="building" v="yes"/>
    <tag k="name" v="539"/>
  </way>
  <way id="76179066" version="3" timestamp="2022-07-29T10:16:07Z" changeset="124223607" uid="4238158" user="RiderOnTheStorm">
    <nd ref="890028697"/>
    <nd ref="890028326"/>
    <nd ref="9918881589"/>
    <nd ref="9918881588"/>
    <nd ref="9918881587"/>
    <nd ref="9918881586"/>
    <nd ref="898894158"/>
    <nd ref="898894165"/>
    <nd ref="2499918334"/>
    <nd ref="890028697"/>
    <tag k="building" v="yes"/>
    <tag k="name" v="537"/>
  </way>
  <way id="76179067" version="2" timestamp="2013-10-17T19:18:41Z" changeset="18408799" uid="8703" user="rolandg">
    <nd ref="890028943"/>
    <nd ref="898894165"/>
    <nd ref="898894158"/>
    <nd ref="2499918346"/>
    <nd ref="890029211"/>
    <nd ref="890028943"/>
    <tag k="building" v="yes"/>
    <tag k="name" v="536"/>
  </way>
  <way id="78036559" version="15" timestamp="2025-01-12T12:10:02Z" changeset="161268959" uid="2815653" user="DaxServer">
    <nd ref="564163"/>
    <nd ref="931902089"/>
    <nd ref="2949447365"/>
    <tag k="bicycle" v="use_sidepath"/>
    <tag k="dual_carriageway" v="yes"/>
    <tag k="foot" v="use_sidepath"/>
    <tag k="highway" v="secondary"/>
    <tag k="lanes" v="2"/>
    <tag k="maxspeed" v="40"/>
    <tag k="name" v="Leuchtenbergring"/>
    <tag k="name:etymology:wikidata" v="Q155545"/>
    <tag k="oneway" v="yes"/>
    <tag k="ref" v="B 2R"/>
    <tag k="sidewalk:left" v="no"/>
    <tag k="sidewalk:right" v="separate"/>
    <tag k="source" v="survey"/>
    <tag k="surface" v="asphalt"/>
    <tag k="wikidata" v="Q1303041"/>
  </way>
  <way id="78036567" version="19" timestamp="2025-04-03T21:44:18Z" changeset="164484291" uid="16061279" user="YellowSoul">
    <nd ref="564163"/>
    <nd ref="918868206"/>
    <nd ref="3489915213"/>
    <nd ref="2039393"/>
    <tag k="bicycle" v="use_sidepath"/>
    <tag k="cycleway:both" v="separate"/>
    <tag k="foot" v="use_sidepath"/>
    <tag k="hgv" v="delivery"/>
    <tag k="highway" v="secondary"/>
    <tag k="lanes:backward" v="2"/>
    <tag k="lanes:forward" v="2"/>
    <tag k="lit" v="yes"/>
    <tag k="maxspeed" v="50"/>
    <tag k="name" v="Prinzregentenstraße"/>
    <tag k="name:etymology:wikidata" v="Q44785"/>
    <tag k="sidewalk" v="separate"/>
    <tag k="smoothness" v="good"/>
    <tag k="surface" v="asphalt"/>
    <tag k="tmc" v="DE:27982/27983"/>
    <tag k="turn:lanes:backward" v="through|through;right"/>
    <tag k="wikipedia" v="de:Prinzregentenstraße"/>
  </way>
  <way id="79418808" version="9" timestamp="2020-11-27T15:31:31Z" changeset="94904183" uid="2066394" user="wurzelast">
    <nd ref="927191335"/>
    <nd ref="1319732163"/>
    <nd ref="927191309"/>
    <nd ref="2869161275"/>
    <nd ref="2869161264"/>
    <nd ref="2869161276"/>
    <nd ref="1319732157"/>
    <nd ref="1319732159"/>
    <nd ref="927191352"/>
    <nd ref="927191290"/>
    <nd ref="2869161271"/>
    <nd ref="927191335"/>
    <tag k="addr:housenumber" v="71"/>
    <tag k="addr:street" v="Einsteinstraße"/>
    <tag k="building" v="apartments"/>
    <tag k="building:levels" v="7"/>
    <tag k="roof:levels" v="1"/>
    <tag k="roof:shape" v="flat"/>
  </way>
  <way id="79834591" version="22" timestamp="2025-01-20T22:45:05Z" changeset="161580915" uid="16061279" user="YellowSoul">
    <nd ref="2039384"/>
    <nd ref="2562870148"/>
    <nd ref="3489915261"/>
    <nd ref="4596853183"/>
    <nd ref="872620872"/>
    <nd ref="12519351929"/>
    <nd ref="877147135"/>
    <nd ref="3770273224"/>
    <nd ref="1774782801"/>
    <nd ref="8844578932"/>
    <nd ref="878278701"/>
    <nd ref="8844578929"/>
    <nd ref="878278700"/>
    <nd ref="564162"/>
    <nd ref="3489915217"/>
    <nd ref="919619389"/>
    <nd ref="564163"/>
    <tag k="bicycle" v="use_sidepath"/>
    <tag k="highway" v="secondary"/>
    <tag k="lanes" v="2"/>
    <tag k="lit" v="yes"/>
    <tag k="maxspeed" v="50"/>
    <tag k="name" v="Richard-Strauss-Straße"/>
    <tag k="name:etymology:wikidata" v="Q13894"/>
    <tag k="oneway" v="no"/>
    <tag k="sidewalk:both" v="separate"/>
    <tag k="smoothness" v="good"/>
    <tag k="source" v="survey"/>
    <tag k="surface" v="asphalt"/>
    <tag k="turn:lanes:forward" v="through;right"/>
  </way>
  <way id="82494455" version="9" timestamp="2025-02-02T11:46:18Z" changeset="162042433" uid="16061279" user="YellowSoul">
    <nd ref="18292352"/>
    <nd ref="1769891428"/>
    <nd ref="203169706"/>
    <nd ref="398811"/>
    <tag k="class:bicycle" v="1"/>
    <tag k="cycleway:both" v="no"/>
    <tag k="highway" v="residential"/>
    <tag k="lane_markings" v="no"/>
    <tag k="lit" v="yes"/>
    <tag k="maxspeed" v="50"/>
    <tag k="name" v="Seeriederstraße"/>
    <tag k="sidewalk:both" v="separate"/>
    <tag k="source:maxspeed" v="DE:urban"/>
    <tag k="surface" v="asphalt"/>
  </way>
  <way id="85213211" version="6" timestamp="2021-09-01T05:59:19Z" changeset="110543514" uid="78613" user="heilbron">
    <nd ref="988188313"/>
    <nd ref="7905695837"/>
    <nd ref="7905695835"/>
    <nd ref="7905695834"/>
    <nd ref="7905695832"/>
    <nd ref="7905695833"/>
    <nd ref="7905695836"/>
    <nd ref="988188520"/>
    <nd ref="988188779"/>
    <nd ref="988188357"/>
    <nd ref="988188313"/>
    <tag k="addr:housenumber" v="4"/>
    <tag k="addr:street" v="Ismaninger Straße"/>
    <tag k="building" v="apartments"/>
    <tag k="building:levels" v="5"/>
    <tag k="roof:levels" v="1"/>
    <tag k="source" v="Bing"/>
    <tag k="wikidata" v="Q41185041"/>
  </way>
  <way id="85213228" version="5" timestamp="2021-09-01T05:59:20Z" changeset="110543514" uid="78613" user="heilbron">
    <nd ref="988188779"/>
    <nd ref="988188520"/>
    <nd ref="988188568"/>
    <nd ref="988188519"/>
    <nd ref="988188779"/>
    <tag k="addr:housenumber" v="2"/>
    <tag k="addr:street" v="Ismaninger Straße"/>
    <tag k="building" v="apartments"/>
    <tag k="building:levels" v="5"/>
    <tag k="roof:levels" v="1"/>
    <tag k="source" v="Bing"/>
    <tag k="wikidata" v="Q41185036"/>
  </way>
  <way id="107741911" version="10" timestamp="2025-04-12T16:46:49Z" changeset="164864406" uid="18850925" user="cableway">
    <nd ref="637877338"/>
    <nd ref="11250084170"/>
    <nd ref="1688588916"/>
    <tag k="cycleway:both" v="no"/>
    <tag k="highway" v="secondary"/>
    <tag k="lanes" v="4"/>
    <tag k="lit" v="yes"/>
    <tag k="maxspeed" v="50"/>
    <tag k="name" v="Ismaninger Straße"/>
    <tag k="sidewalk" v="separate"/>
    <tag k="surface" v="asphalt"/>
  </way>
  <way id="116625003" version="23" timestamp="2025-04-01T13:02:17Z" changeset="164374233" uid="9244608" user="LittleJoeMuc">
    <nd ref="430234731"/>
    <nd ref="7905695788"/>
    <nd ref="676011921"/>
    <nd ref="1319688661"/>
    <nd ref="430234724"/>
    <tag k="class:bicycle" v="-2"/>
    <tag k="cycleway:both" v="no"/>
    <tag k="highway" v="tertiary"/>
    <tag k="lanes" v="2"/>
    <tag k="lit" v="yes"/>
    <tag k="maxspeed" v="30"/>
    <tag k="name" v="Ismaninger Straße"/>
    <tag k="sidewalk:left" v="separate"/>
    <tag k="sidewalk:right" v="yes"/>
    <tag k="source:maxspeed" v="sign"/>
    <tag k="surface" v="asphalt"/>
  </way>
  <way id="117156865" version="7" timestamp="2018-03-03T14:39:33Z" changeset="56848806" uid="77389" user="eho">
    <nd ref="890029053"/>
    <nd ref="3519334300"/>
    <nd ref="3519334299"/>
    <nd ref="3519334301"/>
    <nd ref="3519334302"/>
    <nd ref="1319719608"/>
    <nd ref="1319719618"/>
    <nd ref="1319719611"/>
    <nd ref="1319719622"/>
    <nd ref="1319719619"/>
    <nd ref="1319719615"/>
    <nd ref="1319719603"/>
    <nd ref="1319719614"/>
    <nd ref="5451255646"/>
    <nd ref="1319719609"/>
    <nd ref="1319719606"/>
    <nd ref="1319719604"/>
    <nd ref="1319719620"/>
    <nd ref="5451255641"/>
    <nd ref="5451255640"/>
    <nd ref="1319719612"/>
    <nd ref="1319719625"/>
    <nd ref="1319719613"/>
    <nd ref="1319719616"/>
    <nd ref="1319719605"/>
    <nd ref="1319719607"/>
    <nd ref="1319720515"/>
    <nd ref="1319720516"/>
    <nd ref="3519334298"/>
    <nd ref="3519334297"/>
    <nd ref="1319719624"/>
    <nd ref="1319719623"/>
    <nd ref="1319719617"/>
    <nd ref="1319719610"/>
    <nd ref="890028776"/>
    <nd ref="890029053"/>
    <tag k="building" v="hospital"/>
    <tag k="name" v="503"/>
    <tag k="source" v="Bing"/>
  </way>
  <way id="117156988" version="7" timestamp="2016-10-10T02:03:03Z" changeset="42766844" uid="14390" user="BeKri">
    <nd ref="1319719624"/>
    <nd ref="1319720074"/>
    <nd ref="1319720067"/>
    <nd ref="1319720069"/>
    <nd ref="1319720081"/>
    <nd ref="1319720072"/>
    <nd ref="1319720080"/>
    <nd ref="3519334296"/>
    <nd ref="890028840"/>
    <nd ref="890029126"/>
    <nd ref="1319720086"/>
    <nd ref="1319719623"/>
    <nd ref="1319719624"/>
    <tag k="building" v="hospital"/>
    <tag k="name" v="558"/>
  </way>
  <way id="117158563" version="3" timestamp="2022-07-29T10:16:07Z" changeset="124223607" uid="4238158" user="RiderOnTheStorm">
    <nd ref="1319731600"/>
    <nd ref="1319731593"/>
    <nd ref="1319731595"/>
    <nd ref="1319731601"/>
    <nd ref="1319731592"/>
    <nd ref="1319731599"/>
    <nd ref="1319731591"/>
    <nd ref="1319731597"/>
    <nd ref="1319731596"/>
    <nd ref="9918881582"/>
    <nd ref="1319731598"/>
    <nd ref="1319731602"/>
    <nd ref="1319731594"/>
    <nd ref="1319731600"/>
    <tag k="building" v="yes"/>
    <tag k="name" v="532"/>
  </way>
  <way id="117159469" version="5" timestamp="2022-01-23T20:49:44Z" changeset="116514696" uid="4238158" user="RiderOnTheStorm">
    <nd ref="1319722067"/>
    <nd ref="890028604"/>
    <nd ref="890029133"/>
    <nd ref="890029336"/>
    <nd ref="890029109"/>
    <nd ref="890092624"/>
    <nd ref="9443065018"/>
    <nd ref="9443065017"/>
    <nd ref="9443033516"/>
    <nd ref="1319737608"/>
    <nd ref="1319737611"/>
    <nd ref="3377607420"/>
    <nd ref="1319737612"/>
    <nd ref="1319737607"/>
    <nd ref="1319737613"/>
    <nd ref="1319737610"/>
    <nd ref="1319722067"/>
    <tag k="building" v="hospital"/>
    <tag k="name" v="504"/>
  </way>
  <way id="117159506" version="3" timestamp="2015-03-01T10:44:05Z" changeset="29174090" uid="161619" user="FvGordon">
    <nd ref="3377607421"/>
    <nd ref="3377607419"/>
    <nd ref="3377607418"/>
    <nd ref="1319720515"/>
    <nd ref="1319720516"/>
    <nd ref="1319737747"/>
    <nd ref="1319737608"/>
    <nd ref="1319737611"/>
    <nd ref="3377607420"/>
    <nd ref="1319737612"/>
    <nd ref="1319737607"/>
    <nd ref="1319737613"/>
    <nd ref="3377607421"/>
    <tag k="building" v="hospital"/>
    <tag k="name" v="520"/>
  </way>
  <way id="117601382" version="9" timestamp="2023-04-16T19:11:56Z" changeset="134988663" uid="8312062" user="Fadatag">
    <nd ref="1324545808"/>
    <nd ref="1324545810"/>
    <nd ref="3758839901"/>
    <nd ref="1324545811"/>
    <nd ref="1324545805"/>
    <nd ref="1353383446"/>
    <nd ref="1353383445"/>
    <nd ref="1324545813"/>
    <nd ref="1324545807"/>
    <nd ref="1324545808"/>
    <tag k="addr:housenumber" v="64"/>
    <tag k="addr:street" v="Prinzregentenstraße"/>
    <tag k="building" v="apartments"/>
    <tag k="building:levels" v="4"/>
    <tag k="roof:levels" v="2"/>
    <tag k="roof:shape" v="hipped"/>
    <tag k="source" v="Bing"/>
    <tag k="wikidata" v="Q41185826"/>
  </way>
  <way id="117601808" version="6" timestamp="2018-03-03T14:39:34Z" changeset="56848806" uid="77389" user="eho">
    <nd ref="1324545811"/>
    <nd ref="486031979"/>
    <nd ref="1324546016"/>
    <nd ref="1324546952"/>
    <nd ref="1324546018"/>
    <nd ref="1324546019"/>
    <nd ref="1324546021"/>
    <nd ref="1324546020"/>
    <nd ref="1324546017"/>
    <nd ref="1324545805"/>
    <nd ref="1324545811"/>
    <tag k="addr:housenumber" v="66"/>
    <tag k="addr:street" v="Prinzregentenstraße"/>
    <tag k="building" v="yes"/>
    <tag k="building:levels" v="4"/>
    <tag k="roof:shape" v="gabled"/>
  </way>
  <way id="117602301" version="7" timestamp="2023-01-17T08:35:21Z" changeset="131367524" uid="12120321" user="bollyboll">
    <nd ref="1324546016"/>
    <nd ref="1324546954"/>
    <nd ref="6223296852"/>
    <nd ref="1324546953"/>
    <nd ref="1324546950"/>
    <nd ref="1324546951"/>
    <nd ref="1324546956"/>
    <nd ref="1324546955"/>
    <nd ref="1324546957"/>
    <nd ref="1324546952"/>
    <nd ref="1324546016"/>
    <tag k="addr:housenumber" v="68"/>
    <tag k="addr:street" v="Prinzregentenstraße"/>
    <tag k="building" v="apartments"/>
    <tag k="building:levels" v="4"/>
    <tag k="wikidata" v="Q41185831"/>
  </way>
  <way id="117602302" version="6" timestamp="2022-03-19T13:51:48Z" changeset="118666601" uid="4376164" user="redweizn">
    <nd ref="1324546966"/>
    <nd ref="1324546970"/>
    <nd ref="1324546971"/>
    <nd ref="1324546969"/>
    <nd ref="1324546965"/>
    <nd ref="1324546967"/>
    <nd ref="1324546968"/>
    <nd ref="1324546966"/>
    <tag k="addr:housenumber" v="70"/>
    <tag k="addr:street" v="Prinzregentenstraße"/>
    <tag k="building" v="apartments"/>
    <tag k="building:levels" v="4"/>
    <tag k="roof:levels" v="2"/>
    <tag k="roof:shape" v="hipped"/>
  </way>
  <way id="117602342" version="4" timestamp="2016-10-10T02:04:59Z" changeset="42766844" uid="14390" user="BeKri">
    <nd ref="1324547557"/>
    <nd ref="1324547556"/>
    <nd ref="1324547555"/>
    <nd ref="1324547554"/>
    <nd ref="1324547557"/>
    <tag k="addr:housenumber" v="78"/>
    <tag k="addr:street" v="Prinzregentenstraße"/>
    <tag k="building" v="yes"/>
    <tag k="building:levels" v="5"/>
    <tag k="roof:colour" v="grey"/>
    <tag k="roof:shape" v="flat"/>
  </way>
  <way id="117896937" version="7" timestamp="2021-07-02T18:21:30Z" changeset="107325846" uid="4238158" user="RiderOnTheStorm">
    <nd ref="1327087976"/>
    <nd ref="1327087979"/>
    <nd ref="1327087990"/>
    <nd ref="1327087988"/>
    <nd ref="1327087980"/>
    <nd ref="1327087978"/>
    <nd ref="1363070051"/>
    <nd ref="3555352549"/>
    <nd ref="1327087977"/>
    <nd ref="1327087976"/>
    <tag k="addr:housenumber" v="14"/>
    <tag k="addr:street" v="Prinzregentenplatz"/>
    <tag k="building" v="office"/>
    <tag k="wikidata" v="Q41185820"/>
  </way>
  <way id="118840285" version="10" timestamp="2024-08-08T21:37:30Z" changeset="154998393" uid="137242" user="Rainero">
    <nd ref="1335920015"/>
    <nd ref="6924269941"/>
    <nd ref="1335920021"/>
    <nd ref="12099599434"/>
    <nd ref="1335920023"/>
    <nd ref="9511584391"/>
    <nd ref="9511584392"/>
    <nd ref="1335920024"/>
    <nd ref="1335920015"/>
    <tag k="addr:housenumber" v="91"/>
    <tag k="addr:street" v="Einsteinstraße"/>
    <tag k="building" v="service"/>
    <tag k="roof:colour" v="grey"/>
    <tag k="roof:shape" v="flat"/>
    <tag k="source" v="Bing"/>
  </way>
  <way id="118844326" version="9" timestamp="2021-05-15T09:06:44Z" changeset="104722298" uid="5737406" user="Siderit">
    <nd ref="1335948563"/>
    <nd ref="1335948553"/>
    <nd ref="1335948554"/>
    <nd ref="1335948556"/>
    <nd ref="1361884229"/>
    <nd ref="1335948561"/>
    <nd ref="4439925983"/>
    <nd ref="1335948563"/>
    <tag k="addr:housenumber" v="25"/>
    <tag k="addr:street" v="Lucile-Grahn-Straße"/>
    <tag k="building" v="apartments"/>
    <tag k="wikidata" v="Q98644586"/>
  </way>
  <way id="118846450" version="3" timestamp="2016-10-10T02:04:30Z" changeset="42766844" uid="14390" user="BeKri">
    <nd ref="1335953988"/>
    <nd ref="1335954000"/>
    <nd ref="1335953992"/>
    <nd ref="1335954018"/>
    <nd ref="1335953988"/>
    <tag k="addr:housenumber" v="31a"/>
    <tag k="addr:street" v="Lucile-Grahn-Straße"/>
    <tag k="building" v="yes"/>
  </way>
  <way id="118846456" version="8" timestamp="2016-10-10T02:03:58Z" changeset="42766844" uid="14390" user="BeKri">
    <nd ref="1335953987"/>
    <nd ref="4439925984"/>
    <nd ref="1361831753"/>
    <nd ref="1361831757"/>
    <nd ref="4224183472"/>
    <nd ref="1361831759"/>
    <nd ref="1335954016"/>
    <nd ref="4224183471"/>
    <nd ref="1361831755"/>
    <nd ref="1335953981"/>
    <nd ref="1335953987"/>
    <tag k="addr:city" v="München"/>
    <tag k="addr:country" v="DE"/>
    <tag k="addr:housenumber" v="111"/>
    <tag k="addr:postcode" v="81675"/>
    <tag k="addr:street" v="Einsteinstraße"/>
    <tag k="building" v="yes"/>
  </way>
  <way id="118846466" version="8" timestamp="2021-05-15T09:06:49Z" changeset="104722298" uid="5737406" user="Siderit">
    <nd ref="1335954016"/>
    <nd ref="1361831759"/>
    <nd ref="1335953955"/>
    <nd ref="1335953961"/>
    <nd ref="1335953949"/>
    <nd ref="1335953995"/>
    <nd ref="1335948554"/>
    <nd ref="1335948553"/>
    <nd ref="1335954016"/>
    <tag k="addr:city" v="München"/>
    <tag k="addr:country" v="DE"/>
    <tag k="addr:housenumber" v="113"/>
    <tag k="addr:postcode" v="81675"/>
    <tag k="addr:street" v="Einsteinstraße"/>
    <tag k="building" v="apartments"/>
  </way>
  <way id="118847292" version="6" timestamp="2022-08-11T13:47:30Z" changeset="124777580" uid="8312062" user="Fadatag">
    <nd ref="1335954019"/>
    <nd ref="1335959775"/>
    <nd ref="1335948561"/>
    <nd ref="1361884229"/>
    <nd ref="1335953979"/>
    <nd ref="1335954019"/>
    <tag k="addr:housenumber" v="27"/>
    <tag k="addr:street" v="Lucile-Grahn-Straße"/>
    <tag k="building" v="apartments"/>
  </way>
  <way id="118847417" version="4" timestamp="2021-07-20T08:21:08Z" changeset="108299817" uid="4238158" user="RiderOnTheStorm">
    <nd ref="1335960909"/>
    <nd ref="1335962066"/>
    <nd ref="1335962076"/>
    <nd ref="1335962077"/>
    <nd ref="1335960911"/>
    <nd ref="1335960909"/>
    <tag k="addr:housenumber" v="31"/>
    <tag k="addr:street" v="Lucile-Grahn-Straße"/>
    <tag k="building" v="apartments"/>
  </way>
  <way id="118847418" version="4" timestamp="2021-07-20T08:21:06Z" changeset="108299817" uid="4238158" user="RiderOnTheStorm">
    <nd ref="1335959775"/>
    <nd ref="1335962066"/>
    <nd ref="1335962076"/>
    <nd ref="1335962068"/>
    <nd ref="1335954019"/>
    <nd ref="1335959775"/>
    <tag k="addr:housenumber" v="29"/>
    <tag k="addr:street" v="Lucile-Grahn-Straße"/>
    <tag k="building" v="apartments"/>
  </way>
  <way id="118848033" version="6" timestamp="2022-02-11T11:39:50Z" changeset="117284421" uid="999279" user="mc64">
    <nd ref="1335968422"/>
    <nd ref="1335969817"/>
    <nd ref="1335969717"/>
    <nd ref="1335969722"/>
    <nd ref="1335969822"/>
    <nd ref="1335969810"/>
    <nd ref="1335969827"/>
    <nd ref="1335968426"/>
    <nd ref="1335968422"/>
    <tag k="addr:housenumber" v="20"/>
    <tag k="addr:street" v="Schneckenburgerstraße"/>
    <tag k="building" v="apartments"/>
    <tag k="building:levels" v="4"/>
    <tag k="roof:levels" v="1"/>
    <tag k="wikidata" v="Q41185965"/>
  </way>
  <way id="118848724" version="7" timestamp="2021-09-11T15:12:50Z" changeset="111066567" uid="78613" user="heilbron">
    <nd ref="1335980149"/>
    <nd ref="1335980118"/>
    <nd ref="1335980186"/>
    <nd ref="1335980184"/>
    <nd ref="1335980124"/>
    <nd ref="1335980149"/>
    <tag k="addr:city" v="München"/>
    <tag k="addr:country" v="DE"/>
    <tag k="addr:housenumber" v="107"/>
    <tag k="addr:postcode" v="81675"/>
    <tag k="addr:street" v="Einsteinstraße"/>
    <tag k="building" v="apartments"/>
    <tag k="building:levels" v="4"/>
  </way>
  <way id="118848726" version="6" timestamp="2016-10-10T02:03:52Z" changeset="42766844" uid="14390" user="BeKri">
    <nd ref="1335980114"/>
    <nd ref="1335980145"/>
    <nd ref="1335980156"/>
    <nd ref="1335982722"/>
    <nd ref="1335980158"/>
    <nd ref="1335980114"/>
    <tag k="addr:city" v="München"/>
    <tag k="addr:country" v="DE"/>
    <tag k="addr:housenumber" v="103"/>
    <tag k="addr:postcode" v="81675"/>
    <tag k="addr:street" v="Einsteinstraße"/>
    <tag k="building" v="yes"/>
  </way>
  <way id="118848728" version="7" timestamp="2021-09-11T15:12:49Z" changeset="111066567" uid="78613" user="heilbron">
    <nd ref="1335980118"/>
    <nd ref="1335953981"/>
    <nd ref="1335953987"/>
    <nd ref="1335980151"/>
    <nd ref="1335980186"/>
    <nd ref="1335980118"/>
    <tag k="addr:city" v="München"/>
    <tag k="addr:country" v="DE"/>
    <tag k="addr:housenumber" v="109"/>
    <tag k="addr:postcode" v="81675"/>
    <tag k="addr:street" v="Einsteinstraße"/>
    <tag k="building" v="apartments"/>
    <tag k="building:levels" v="4"/>
  </way>
  <way id="118848730" version="8" timestamp="2020-11-21T22:16:43Z" changeset="94563384" uid="43207" user="kdkeller">
    <nd ref="1335947905"/>
    <nd ref="1335980120"/>
    <nd ref="1335980110"/>
    <nd ref="1335980183"/>
    <nd ref="1335980147"/>
    <nd ref="1335980152"/>
    <nd ref="1335980180"/>
    <nd ref="1335980154"/>
    <nd ref="1335947897"/>
    <nd ref="1335947905"/>
    <tag k="addr:city" v="München"/>
    <tag k="addr:country" v="DE"/>
    <tag k="addr:housenumber" v="99"/>
    <tag k="addr:postcode" v="81675"/>
    <tag k="addr:street" v="Einsteinstraße"/>
    <tag k="building" v="apartments"/>
    <tag k="building:levels" v="4"/>
    <tag k="wikidata" v="Q98644151"/>
  </way>
  <way id="118848731" version="9" timestamp="2020-11-08T10:00:53Z" changeset="93732965" uid="26299" user="uboot">
    <nd ref="1335980120"/>
    <nd ref="1335980114"/>
    <nd ref="1335980158"/>
    <nd ref="1335982716"/>
    <nd ref="1335980110"/>
    <nd ref="1335980120"/>
    <tag k="addr:city" v="München"/>
    <tag k="addr:country" v="DE"/>
    <tag k="addr:housenumber" v="101"/>
    <tag k="addr:postcode" v="81675"/>
    <tag k="addr:street" v="Einsteinstraße"/>
    <tag k="building" v="apartments"/>
    <tag k="building:levels" v="4"/>
    <tag k="roof:levels" v="1"/>
    <tag k="roof:shape" v="gabled"/>
  </way>
  <way id="118848732" version="7" timestamp="2021-09-11T15:12:52Z" changeset="111066567" uid="78613" user="heilbron">
    <nd ref="1335980145"/>
    <nd ref="1335980149"/>
    <nd ref="1335980124"/>
    <nd ref="1335980189"/>
    <nd ref="1335980156"/>
    <nd ref="1335980145"/>
    <tag k="addr:city" v="München"/>
    <tag k="addr:country" v="DE"/>
    <tag k="addr:housenumber" v="105"/>
    <tag k="addr:postcode" v="81675"/>
    <tag k="addr:street" v="Einsteinstraße"/>
    <tag k="building" v="apartments"/>
    <tag k="building:levels" v="4"/>
  </way>
  <way id="119416796" version="6" timestamp="2021-02-28T18:07:17Z" changeset="100149687" uid="12689428" user="harmonize kettle">
    <nd ref="1341926208"/>
    <nd ref="1341926211"/>
    <nd ref="1341926207"/>
    <nd ref="1361921098"/>
    <nd ref="1341926209"/>
    <nd ref="1341926212"/>
    <nd ref="1341926215"/>
    <nd ref="1341926208"/>
    <tag k="addr:housenumber" v="127"/>
    <tag k="addr:street" v="Einsteinstraße"/>
    <tag k="building" v="apartments"/>
    <tag k="wikidata" v="Q41184898"/>
  </way>
  <way id="120769921" version="9" timestamp="2023-04-16T19:11:56Z" changeset="134988663" uid="8312062" user="Fadatag">
    <nd ref="1324545807"/>
    <nd ref="1353383193"/>
    <nd ref="1353383201"/>
    <nd ref="1353383192"/>
    <nd ref="1353383194"/>
    <nd ref="1324545808"/>
    <nd ref="1324545807"/>
    <tag k="addr:housenumber" v="50"/>
    <tag k="addr:street" v="Ismaninger Straße"/>
    <tag k="building" v="apartments"/>
    <tag k="building:levels" v="4"/>
    <tag k="roof:levels" v="1"/>
    <tag k="roof:shape" v="gabled"/>
    <tag k="wikidata" v="Q41185055"/>
  </way>
  <way id="120769922" version="7" timestamp="2023-04-16T19:11:56Z" changeset="134988663" uid="8312062" user="Fadatag">
    <nd ref="1353383194"/>
    <nd ref="1353383199"/>
    <nd ref="7809455245"/>
    <nd ref="1353383200"/>
    <nd ref="1353383196"/>
    <nd ref="1353383190"/>
    <nd ref="1353383192"/>
    <nd ref="1353383194"/>
    <tag k="addr:housenumber" v="48"/>
    <tag k="addr:street" v="Ismaninger Straße"/>
    <tag k="building" v="apartments"/>
    <tag k="building:levels" v="4"/>
    <tag k="roof:levels" v="1"/>
  </way>
  <way id="120770096" version="6" timestamp="2017-12-09T18:47:38Z" changeset="54493701" uid="77389" user="eho">
    <nd ref="1324546950"/>
    <nd ref="1353384219"/>
    <nd ref="1353384218"/>
    <nd ref="1353387481"/>
    <nd ref="1324546951"/>
    <nd ref="1324546950"/>
    <tag k="addr:housenumber" v="21"/>
    <tag k="addr:street" v="Trogerstraße"/>
    <tag k="building" v="hotel"/>
    <tag k="building:levels" v="4"/>
    <tag k="roof:colour" v="grey"/>
    <tag k="roof:shape" v="gabled"/>
  </way>
  <way id="120878683" version="7" timestamp="2021-09-01T05:59:17Z" changeset="110543514" uid="78613" user="heilbron">
    <nd ref="1354266208"/>
    <nd ref="988188792"/>
    <nd ref="7905695814"/>
    <nd ref="988188313"/>
    <nd ref="988188357"/>
    <nd ref="7905695815"/>
    <nd ref="2557333837"/>
    <nd ref="7905695790"/>
    <nd ref="988188708"/>
    <nd ref="1354266208"/>
    <tag k="addr:housenumber" v="6"/>
    <tag k="addr:street" v="Ismaninger Straße"/>
    <tag k="building" v="apartments"/>
    <tag k="building:levels" v="6"/>
    <tag k="roof:colour" v="grey"/>
    <tag k="roof:levels" v="1"/>
    <tag k="source" v="Bing"/>
  </way>
  <way id="120879026" version="10" timestamp="2020-09-14T15:59:37Z" changeset="90875220" uid="26299" user="uboot">
    <nd ref="3446584479"/>
    <nd ref="988188666"/>
    <nd ref="2557333818"/>
    <nd ref="988188519"/>
    <nd ref="988188568"/>
    <nd ref="988188742"/>
    <nd ref="2557333816"/>
    <nd ref="2557333819"/>
    <nd ref="2557333820"/>
    <nd ref="2557333822"/>
    <nd ref="988188594"/>
    <nd ref="2557333824"/>
    <nd ref="2557333826"/>
    <nd ref="1320475600"/>
    <nd ref="2557333830"/>
    <nd ref="2557333833"/>
    <nd ref="2557333832"/>
    <nd ref="2557333831"/>
    <nd ref="2557333828"/>
    <nd ref="988188226"/>
    <nd ref="2557333825"/>
    <nd ref="2557333823"/>
    <nd ref="1320451451"/>
    <nd ref="2557333821"/>
    <nd ref="988188291"/>
    <nd ref="988188566"/>
    <nd ref="988188343"/>
    <nd ref="1354284441"/>
    <nd ref="1354284445"/>
    <nd ref="1354284443"/>
    <nd ref="3704999059"/>
    <nd ref="3446584479"/>
    <tag k="addr:housenumber" v="1"/>
    <tag k="addr:street" v="Einsteinstraße"/>
    <tag k="building" v="commercial"/>
    <tag k="layer" v="1"/>
    <tag k="roof:colour" v="grey"/>
  </way>
  <way id="120879027" version="8" timestamp="2024-04-01T08:17:53Z" changeset="149421629" uid="513434" user="whellmut">
    <nd ref="988188538"/>
    <nd ref="1354284445"/>
    <nd ref="1354284441"/>
    <nd ref="4427961045"/>
    <nd ref="1354289788"/>
    <nd ref="2557333834"/>
    <nd ref="988188475"/>
    <nd ref="988188538"/>
    <tag k="addr:housenumber" v="3"/>
    <tag k="addr:street" v="Einsteinstraße"/>
    <tag k="building" v="commercial"/>
    <tag k="building:levels" v="5"/>
    <tag k="roof:colour" v="grey"/>
    <tag k="roof:levels" v="1"/>
    <tag k="roof:shape" v="flat"/>
    <tag k="source" v="Bing"/>
  </way>
  <way id="120880254" version="2" timestamp="2014-09-07T17:07:58Z" changeset="25291028" uid="77389" user="eho">
    <nd ref="890029178"/>
    <nd ref="890028883"/>
    <nd ref="1354333636"/>
    <nd ref="1354333637"/>
    <nd ref="890029178"/>
    <tag k="building" v="hospital"/>
    <tag k="name" v="508"/>
    <tag k="source" v="Bing"/>
  </way>
  <way id="120880374" version="2" timestamp="2012-07-21T10:29:42Z" changeset="12405917" uid="8748" user="ToniE">
    <nd ref="898894138"/>
    <nd ref="898894136"/>
    <nd ref="1319727245"/>
    <nd ref="898894164"/>
    <nd ref="898894168"/>
    <nd ref="1354346501"/>
    <nd ref="1354346497"/>
    <nd ref="898894138"/>
    <tag k="building" v="yes"/>
    <tag k="name" v="541"/>
  </way>
  <way id="120880396" version="2" timestamp="2012-07-21T10:29:41Z" changeset="12405917" uid="8748" user="ToniE">
    <nd ref="1319728134"/>
    <nd ref="1319728132"/>
    <nd ref="898894173"/>
    <nd ref="898894159"/>
    <nd ref="898894136"/>
    <nd ref="898894138"/>
    <nd ref="1354349205"/>
    <nd ref="1354349203"/>
    <nd ref="1319728134"/>
    <tag k="building" v="yes"/>
    <tag k="name" v="540"/>
  </way>
  <way id="120904527" version="6" timestamp="2022-01-25T08:34:21Z" changeset="116574212" uid="4238158" user="RiderOnTheStorm">
    <nd ref="1324546967"/>
    <nd ref="1354444346"/>
    <nd ref="1354444347"/>
    <nd ref="1324546965"/>
    <nd ref="1324546967"/>
    <tag k="addr:housenumber" v="46"/>
    <tag k="addr:street" v="Trogerstraße"/>
    <tag k="building" v="apartments"/>
    <tag k="roof:shape" v="gabled"/>
    <tag k="wikidata" v="Q98643089"/>
  </way>
  <way id="120904561" version="8" timestamp="2022-01-25T08:34:19Z" changeset="116574212" uid="4238158" user="RiderOnTheStorm">
    <nd ref="1354444346"/>
    <nd ref="1354444710"/>
    <nd ref="1354444708"/>
    <nd ref="1354464926"/>
    <nd ref="1354464925"/>
    <nd ref="1354444347"/>
    <nd ref="1354444346"/>
    <tag k="addr:housenumber" v="44"/>
    <tag k="addr:street" v="Trogerstraße"/>
    <tag k="building" v="apartments"/>
    <tag k="roof:shape" v="gabled"/>
    <tag k="wikidata" v="Q41186152"/>
  </way>
  <way id="120904617" version="6" timestamp="2022-01-25T08:34:17Z" changeset="116574212" uid="4238158" user="RiderOnTheStorm">
    <nd ref="1354444708"/>
    <nd ref="1354445082"/>
    <nd ref="1354445083"/>
    <nd ref="1354444710"/>
    <nd ref="1354444708"/>
    <tag k="addr:housenumber" v="42"/>
    <tag k="addr:street" v="Trogerstraße"/>
    <tag k="building" v="apartments"/>
    <tag k="roof:shape" v="gabled"/>
    <tag k="wikidata" v="Q41186150"/>
  </way>
  <way id="120904631" version="4" timestamp="2022-01-25T08:34:18Z" changeset="116574212" uid="4238158" user="RiderOnTheStorm">
    <nd ref="1354445083"/>
    <nd ref="1354445149"/>
    <nd ref="1354445148"/>
    <nd ref="1354445082"/>
    <nd ref="1354445083"/>
    <tag k="addr:housenumber" v="40"/>
    <tag k="addr:street" v="Trogerstraße"/>
    <tag k="building" v="apartments"/>
    <tag k="roof:shape" v="gabled"/>
  </way>
  <way id="120904696" version="5" timestamp="2021-11-24T10:15:03Z" changeset="114175299" uid="4238158" user="RiderOnTheStorm">
    <nd ref="1354445149"/>
    <nd ref="1354445456"/>
    <nd ref="1354445455"/>
    <nd ref="1354445148"/>
    <nd ref="1354445149"/>
    <tag k="addr:housenumber" v="38"/>
    <tag k="addr:street" v="Trogerstraße"/>
    <tag k="building" v="apartments"/>
    <tag k="roof:shape" v="gabled"/>
  </way>
  <way id="120904781" version="4" timestamp="2021-06-29T20:42:29Z" changeset="107169966" uid="4238158" user="RiderOnTheStorm">
    <nd ref="1354445456"/>
    <nd ref="1354446380"/>
    <nd ref="1354446379"/>
    <nd ref="1354446383"/>
    <nd ref="1354446378"/>
    <nd ref="1354445455"/>
    <nd ref="1354445456"/>
    <tag k="addr:housenumber" v="1"/>
    <tag k="addr:street" v="Perfallstraße"/>
    <tag k="building" v="apartments"/>
  </way>
  <way id="120904782" version="4" timestamp="2021-06-29T20:42:34Z" changeset="107169966" uid="4238158" user="RiderOnTheStorm">
    <nd ref="1354446383"/>
    <nd ref="1354446384"/>
    <nd ref="1354446381"/>
    <nd ref="1354446382"/>
    <nd ref="1354446377"/>
    <nd ref="1354446379"/>
    <nd ref="1354446383"/>
    <tag k="addr:housenumber" v="1"/>
    <tag k="addr:street" v="Neherstraße"/>
    <tag k="building" v="apartments"/>
    <tag k="roof:colour" v="grey"/>
    <tag k="roof:shape" v="flat"/>
  </way>
  <way id="120904784" version="4" timestamp="2021-11-24T10:14:57Z" changeset="114175299" uid="4238158" user="RiderOnTheStorm">
    <nd ref="1354446397"/>
    <nd ref="1354446398"/>
    <nd ref="1354446399"/>
    <nd ref="1354446396"/>
    <nd ref="1354446397"/>
    <tag k="addr:housenumber" v="7"/>
    <tag k="addr:street" v="Neherstraße"/>
    <tag k="building" v="apartments"/>
    <tag k="roof:colour" v="grey"/>
    <tag k="roof:shape" v="flat"/>
  </way>
  <way id="120904785" version="4" timestamp="2021-06-29T20:42:37Z" changeset="107169966" uid="4238158" user="RiderOnTheStorm">
    <nd ref="1354446381"/>
    <nd ref="1354446397"/>
    <nd ref="1354446396"/>
    <nd ref="1354446382"/>
    <nd ref="1354446381"/>
    <tag k="addr:housenumber" v="5"/>
    <tag k="addr:street" v="Neherstraße"/>
    <tag k="building" v="apartments"/>
    <tag k="roof:colour" v="grey"/>
    <tag k="roof:shape" v="flat"/>
  </way>
  <way id="120904808" version="3" timestamp="2016-10-10T02:05:03Z" changeset="42766844" uid="14390" user="BeKri">
    <nd ref="1354446398"/>
    <nd ref="1324547555"/>
    <nd ref="1324547556"/>
    <nd ref="1354446399"/>
    <nd ref="1354446398"/>
    <tag k="addr:housenumber" v="9"/>
    <tag k="addr:street" v="Neherstraße"/>
    <tag k="building" v="yes"/>
    <tag k="roof:colour" v="grey"/>
    <tag k="roof:shape" v="flat"/>
  </way>
  <way id="120905501" version="6" timestamp="2022-03-19T13:51:13Z" changeset="118666601" uid="4376164" user="redweizn">
    <nd ref="1324546970"/>
    <nd ref="1354455501"/>
    <nd ref="1354455503"/>
    <nd ref="1324546971"/>
    <nd ref="1324546970"/>
    <tag k="addr:housenumber" v="72"/>
    <tag k="addr:street" v="Prinzregentenstraße"/>
    <tag k="building" v="apartments"/>
    <tag k="building:levels" v="4"/>
    <tag k="roof:shape" v="gabled"/>
    <tag k="wikidata" v="Q41185837"/>
  </way>
  <way id="120905502" version="8" timestamp="2022-03-19T13:51:31Z" changeset="118666601" uid="4376164" user="redweizn">
    <nd ref="1354455501"/>
    <nd ref="1354455504"/>
    <nd ref="1354455769"/>
    <nd ref="1354455500"/>
    <nd ref="1354463126"/>
    <nd ref="1354455502"/>
    <nd ref="1354455499"/>
    <nd ref="1354455503"/>
    <nd ref="1354455501"/>
    <tag k="addr:housenumber" v="74"/>
    <tag k="addr:street" v="Prinzregentenstraße"/>
    <tag k="building" v="apartments"/>
    <tag k="building:levels" v="4"/>
    <tag k="roof:levels" v="2"/>
    <tag k="roof:shape" v="gabled"/>
    <tag k="wikidata" v="Q41185840"/>
  </way>
  <way id="120905530" version="5" timestamp="2022-03-19T13:50:47Z" changeset="118666601" uid="4376164" user="redweizn">
    <nd ref="1354455504"/>
    <nd ref="1354455770"/>
    <nd ref="1354455768"/>
    <nd ref="1354455769"/>
    <nd ref="1354455504"/>
    <tag k="addr:housenumber" v="76"/>
    <tag k="addr:street" v="Prinzregentenstraße"/>
    <tag k="building" v="apartments"/>
    <tag k="building:levels" v="7"/>
    <tag k="roof:levels" v="0"/>
    <tag k="roof:shape" v="flat"/>
  </way>
  <way id="120908458" version="4" timestamp="2024-01-16T00:27:55Z" changeset="146302556" uid="20888308" user="MaXxGrr">
    <nd ref="1341926046"/>
    <nd ref="1354486701"/>
    <nd ref="1354486700"/>
    <nd ref="1341926044"/>
    <nd ref="1341926046"/>
    <tag k="addr:housenumber" v="32"/>
    <tag k="addr:street" v="Schneckenburgerstraße"/>
    <tag k="building" v="apartments"/>
  </way>
  <way id="120908459" version="4" timestamp="2024-01-16T00:27:59Z" changeset="146302556" uid="20888308" user="MaXxGrr">
    <nd ref="1341926045"/>
    <nd ref="1362076462"/>
    <nd ref="1341926047"/>
    <nd ref="1354486700"/>
    <nd ref="1354486701"/>
    <nd ref="1341926045"/>
    <tag k="addr:housenumber" v="30"/>
    <tag k="addr:street" v="Schneckenburgerstraße"/>
    <tag k="building" v="apartments"/>
  </way>
  <way id="120909730" version="7" timestamp="2022-03-13T12:59:15Z" changeset="118428554" uid="8312062" user="Fadatag">
    <nd ref="1327087990"/>
    <nd ref="1354526903"/>
    <nd ref="1354526904"/>
    <nd ref="3555352543"/>
    <nd ref="3555352545"/>
    <nd ref="3555352544"/>
    <nd ref="3555352546"/>
    <nd ref="3555352547"/>
    <nd ref="3555352548"/>
    <nd ref="1327087988"/>
    <nd ref="1327087990"/>
    <tag k="addr:housenumber" v="48"/>
    <tag k="addr:street" v="Lucile-Grahn-Straße"/>
    <tag k="building" v="apartments"/>
    <tag k="roof:shape" v="gabled"/>
    <tag k="wikidata" v="Q41185368"/>
  </way>
  <way id="120910388" version="5" timestamp="2022-03-13T12:59:15Z" changeset="118428554" uid="8312062" user="Fadatag">
    <nd ref="1354528966"/>
    <nd ref="1354528962"/>
    <nd ref="1354528961"/>
    <nd ref="1354528995"/>
    <nd ref="1354528996"/>
    <nd ref="1354528990"/>
    <nd ref="1354528958"/>
    <nd ref="1354528965"/>
    <nd ref="1354528966"/>
    <tag k="addr:housenumber" v="44"/>
    <tag k="addr:street" v="Lucile-Grahn-Straße"/>
    <tag k="building" v="apartments"/>
    <tag k="wikidata" v="Q41185357"/>
  </way>
  <way id="120910389" version="8" timestamp="2023-02-08T13:53:43Z" changeset="132257807" uid="531886" user="drlellinger">
    <nd ref="1327087976"/>
    <nd ref="1354528994"/>
    <nd ref="1354528981"/>
    <nd ref="1354528960"/>
    <nd ref="1354528993"/>
    <nd ref="1354528986"/>
    <nd ref="1354528985"/>
    <nd ref="1327087977"/>
    <nd ref="1327087976"/>
    <tag k="addr:housenumber" v="16"/>
    <tag k="addr:street" v="Prinzregentenplatz"/>
    <tag k="building" v="government"/>
    <tag k="building:levels" v="4"/>
    <tag k="note" v="In diesem Haus lebte von 1930-1945 Adolf Hitler, seine 9-Zimmer 320qm Wohnung im zweiten Obergeschoss ist nun Teil der Polizeiinspektion 22"/>
    <tag k="wikidata" v="Q41185822"/>
    <tag k="wikimedia_commons" v="File:Prinzregentenplatz 16 Muenchen-1.jpg"/>
  </way>
  <way id="120910390" version="5" timestamp="2022-03-13T12:59:15Z" changeset="118428554" uid="8312062" user="Fadatag">
    <nd ref="1354526903"/>
    <nd ref="1354528966"/>
    <nd ref="1354528965"/>
    <nd ref="1354528997"/>
    <nd ref="1354528975"/>
    <nd ref="1354528992"/>
    <nd ref="1354528970"/>
    <nd ref="1354526904"/>
    <nd ref="1354526903"/>
    <tag k="addr:housenumber" v="46"/>
    <tag k="addr:street" v="Lucile-Grahn-Straße"/>
    <tag k="building" v="apartments"/>
    <tag k="wikidata" v="Q41185363"/>
  </way>
  <way id="120910391" version="5" timestamp="2022-03-13T12:59:16Z" changeset="118428554" uid="8312062" user="Fadatag">
    <nd ref="1354528962"/>
    <nd ref="1354528972"/>
    <nd ref="1354528998"/>
    <nd ref="1354528971"/>
    <nd ref="1354528999"/>
    <nd ref="1354528979"/>
    <nd ref="1354529000"/>
    <nd ref="1354528961"/>
    <nd ref="1354528962"/>
    <tag k="addr:housenumber" v="42"/>
    <tag k="addr:street" v="Lucile-Grahn-Straße"/>
    <tag k="building" v="apartments"/>
    <tag k="wikidata" v="Q41185348"/>
  </way>
  <way id="120910392" version="6" timestamp="2021-02-28T18:07:01Z" changeset="100149687" uid="12689428" user="harmonize kettle">
    <nd ref="1354528973"/>
    <nd ref="1354528993"/>
    <nd ref="1354528960"/>
    <nd ref="1354528989"/>
    <nd ref="1354529130"/>
    <nd ref="1363070053"/>
    <nd ref="1354528974"/>
    <nd ref="1354528959"/>
    <nd ref="1354528973"/>
    <tag k="addr:housenumber" v="53"/>
    <tag k="addr:street" v="Grillparzerstraße"/>
    <tag k="building" v="apartments"/>
  </way>
  <way id="120910394" version="7" timestamp="2022-03-13T12:59:16Z" changeset="118428554" uid="8312062" user="Fadatag">
    <nd ref="1354528972"/>
    <nd ref="1354528984"/>
    <nd ref="5519262122"/>
    <nd ref="1354528987"/>
    <nd ref="1354528982"/>
    <nd ref="1354528980"/>
    <nd ref="1354528969"/>
    <nd ref="1354528991"/>
    <nd ref="3555352542"/>
    <nd ref="1354528983"/>
    <nd ref="1354528998"/>
    <nd ref="1354528972"/>
    <tag k="addr:city" v="München"/>
    <tag k="addr:country" v="DE"/>
    <tag k="addr:housenumber" v="40"/>
    <tag k="addr:postcode" v="81675"/>
    <tag k="addr:street" v="Lucile-Grahn-Straße"/>
    <tag k="building" v="apartments"/>
    <tag k="wikidata" v="Q98644581"/>
  </way>
  <way id="120910421" version="5" timestamp="2021-02-28T18:07:01Z" changeset="100149687" uid="12689428" user="harmonize kettle">
    <nd ref="1327089389"/>
    <nd ref="1354529226"/>
    <nd ref="1354529225"/>
    <nd ref="1354529230"/>
    <nd ref="1354529229"/>
    <nd ref="1354529227"/>
    <nd ref="1354529127"/>
    <nd ref="1327089385"/>
    <nd ref="1327089389"/>
    <tag k="addr:housenumber" v="49"/>
    <tag k="addr:street" v="Grillparzerstraße"/>
    <tag k="building" v="apartments"/>
  </way>
  <way id="121040206" version="7" timestamp="2023-08-12T15:14:54Z" changeset="139791914" uid="18493611" user="MunichWays">
    <nd ref="1239098583"/>
    <nd ref="27486186"/>
    <tag k="bicycle" v="yes"/>
    <tag k="class:bicycle" v="1"/>
    <tag k="highway" v="residential"/>
    <tag k="lit" v="yes"/>
    <tag k="maxspeed" v="30"/>
    <tag k="name" v="Trogerstraße"/>
    <tag k="name:etymology:wikidata" v="Q1768014"/>
    <tag k="sidewalk" v="both"/>
    <tag k="smoothness" v="good"/>
    <tag k="surface" v="asphalt"/>
  </way>
  <way id="121743404" version="5" timestamp="2021-07-20T08:21:05Z" changeset="108299817" uid="4238158" user="RiderOnTheStorm">
    <nd ref="1341926218"/>
    <nd ref="1361895738"/>
    <nd ref="1361895737"/>
    <nd ref="1361895739"/>
    <nd ref="1361895741"/>
    <nd ref="1361895740"/>
    <nd ref="1361895742"/>
    <nd ref="1341926213"/>
    <nd ref="1341926218"/>
    <tag k="addr:housenumber" v="121"/>
    <tag k="addr:street" v="Einsteinstraße"/>
    <tag k="building" v="apartments"/>
    <tag k="source" v="Bing"/>
    <tag k="wikidata" v="Q98643879"/>
  </way>
  <way id="121744275" version="4" timestamp="2016-10-10T02:04:01Z" changeset="42766844" uid="14390" user="BeKri">
    <nd ref="1341926208"/>
    <nd ref="1361921076"/>
    <nd ref="1361921112"/>
    <nd ref="1361921091"/>
    <nd ref="1341926215"/>
    <nd ref="1341926208"/>
    <tag k="addr:city" v="München"/>
    <tag k="addr:country" v="DE"/>
    <tag k="addr:housenumber" v="125"/>
    <tag k="addr:postcode" v="81675"/>
    <tag k="addr:street" v="Einsteinstraße"/>
    <tag k="building" v="yes"/>
  </way>
  <way id="121744276" version="5" timestamp="2021-02-28T18:07:17Z" changeset="100149687" uid="12689428" user="harmonize kettle">
    <nd ref="1341926207"/>
    <nd ref="1361921093"/>
    <nd ref="1361921027"/>
    <nd ref="1361921070"/>
    <nd ref="1361921049"/>
    <nd ref="1361921039"/>
    <nd ref="1361921098"/>
    <nd ref="1341926207"/>
    <tag k="addr:city" v="München"/>
    <tag k="addr:country" v="DE"/>
    <tag k="addr:housenumber" v="35"/>
    <tag k="addr:postcode" v="81675"/>
    <tag k="addr:street" v="Grillparzerstraße"/>
    <tag k="building" v="apartments"/>
    <tag k="wikidata" v="Q41184941"/>
  </way>
  <way id="121744279" version="5" timestamp="2024-08-14T17:02:18Z" changeset="155250934" uid="13496000" user="geo-d">
    <nd ref="1361921093"/>
    <nd ref="1361921050"/>
    <nd ref="1361921087"/>
    <nd ref="1361921027"/>
    <nd ref="1361921093"/>
    <tag k="addr:city" v="München"/>
    <tag k="addr:country" v="DE"/>
    <tag k="addr:housenumber" v="37"/>
    <tag k="addr:postcode" v="81675"/>
    <tag k="addr:street" v="Grillparzerstraße"/>
    <tag k="building" v="apartments"/>
    <tag k="building:levels" v="6"/>
    <tag k="roof:levels" v="1"/>
    <tag k="roof:shape" v="gabled"/>
  </way>
  <way id="121744281" version="5" timestamp="2016-10-10T02:04:01Z" changeset="42766844" uid="14390" user="BeKri">
    <nd ref="1361895737"/>
    <nd ref="1361921054"/>
    <nd ref="1361921041"/>
    <nd ref="1361921075"/>
    <nd ref="1361921018"/>
    <nd ref="1361921095"/>
    <nd ref="1361921112"/>
    <nd ref="1361921076"/>
    <nd ref="1361895738"/>
    <nd ref="1361895737"/>
    <tag k="addr:housenumber" v="123"/>
    <tag k="addr:street" v="Einsteinstraße"/>
    <tag k="building" v="yes"/>
  </way>
  <way id="121744426" version="6" timestamp="2021-02-28T18:07:02Z" changeset="100149687" uid="12689428" user="harmonize kettle">
    <nd ref="1361926388"/>
    <nd ref="1361926411"/>
    <nd ref="1361926396"/>
    <nd ref="1361926393"/>
    <nd ref="1361926390"/>
    <nd ref="1361926395"/>
    <nd ref="1361926414"/>
    <nd ref="1361926413"/>
    <nd ref="1362071532"/>
    <nd ref="1361926388"/>
    <tag k="addr:city" v="München"/>
    <tag k="addr:country" v="DE"/>
    <tag k="addr:housenumber" v="43"/>
    <tag k="addr:postcode" v="81675"/>
    <tag k="addr:street" v="Grillparzerstraße"/>
    <tag k="building" v="apartments"/>
    <tag k="wikidata" v="Q41184949"/>
  </way>
  <way id="121748930" version="7" timestamp="2025-01-20T22:41:21Z" changeset="161580808" uid="16061279" user="YellowSoul">
    <nd ref="1361921050"/>
    <nd ref="1361921087"/>
    <nd ref="4439251255"/>
    <nd ref="4439251258"/>
    <nd ref="1361926396"/>
    <nd ref="1361926411"/>
    <nd ref="12519292398"/>
    <nd ref="1361921050"/>
    <tag k="addr:city" v="München"/>
    <tag k="addr:country" v="DE"/>
    <tag k="addr:housenumber" v="39"/>
    <tag k="addr:postcode" v="81675"/>
    <tag k="addr:street" v="Grillparzerstraße"/>
    <tag k="building" v="apartments"/>
    <tag k="building:levels" v="6"/>
    <tag k="roof:levels" v="1"/>
    <tag k="roof:shape" v="flat"/>
  </way>
  <way id="121757777" version="3" timestamp="2021-02-28T18:07:03Z" changeset="100149687" uid="12689428" user="harmonize kettle">
    <nd ref="1361926388"/>
    <nd ref="1362071537"/>
    <nd ref="1341926044"/>
    <nd ref="1341926046"/>
    <nd ref="1362071534"/>
    <nd ref="1362071535"/>
    <nd ref="1362071540"/>
    <nd ref="1362071536"/>
    <nd ref="1362071538"/>
    <nd ref="1362071532"/>
    <nd ref="1361926388"/>
    <tag k="addr:city" v="München"/>
    <tag k="addr:country" v="DE"/>
    <tag k="addr:housenumber" v="34"/>
    <tag k="addr:postcode" v="81675"/>
    <tag k="addr:street" v="Schneckenburgerstraße"/>
    <tag k="building" v="apartments"/>
  </way>
  <way id="121758041" version="6" timestamp="2022-08-11T13:47:29Z" changeset="124777580" uid="8312062" user="Fadatag">
    <nd ref="1341926047"/>
    <nd ref="1362076458"/>
    <nd ref="1362076467"/>
    <nd ref="1362076465"/>
    <nd ref="1362076468"/>
    <nd ref="1362076462"/>
    <nd ref="1341926047"/>
    <tag k="addr:housenumber" v="36a"/>
    <tag k="addr:street" v="Lucile-Grahn-Straße"/>
    <tag k="building" v="apartments"/>
  </way>
  <way id="121840907" version="7" timestamp="2022-02-11T11:39:46Z" changeset="117284421" uid="999279" user="mc64">
    <nd ref="1335969717"/>
    <nd ref="1335969817"/>
    <nd ref="1362971523"/>
    <nd ref="1362971525"/>
    <nd ref="1335969717"/>
    <tag k="addr:housenumber" v="22"/>
    <tag k="addr:street" v="Schneckenburgerstraße"/>
    <tag k="building" v="apartments"/>
    <tag k="building:levels" v="5"/>
    <tag k="roof:levels" v="1"/>
  </way>
  <way id="121844338" version="4" timestamp="2022-01-25T08:34:29Z" changeset="116574212" uid="4238158" user="RiderOnTheStorm">
    <nd ref="1362076467"/>
    <nd ref="1362992379"/>
    <nd ref="1362992377"/>
    <nd ref="1362992375"/>
    <nd ref="1362992378"/>
    <nd ref="1362992376"/>
    <nd ref="1362992374"/>
    <nd ref="1362992373"/>
    <nd ref="1362076465"/>
    <nd ref="1362076467"/>
    <tag k="addr:housenumber" v="36"/>
    <tag k="addr:street" v="Lucile-Grahn-Straße"/>
    <tag k="building" v="apartments"/>
  </way>
  <way id="121849698" version="7" timestamp="2023-07-01T21:07:37Z" changeset="138005896" uid="4238158" user="RiderOnTheStorm">
    <nd ref="1363033398"/>
    <nd ref="1365455476"/>
    <nd ref="1363033397"/>
    <nd ref="1363033401"/>
    <nd ref="1363033396"/>
    <nd ref="3015889315"/>
    <nd ref="1363033395"/>
    <nd ref="1363033400"/>
    <nd ref="1363033399"/>
    <nd ref="1363033421"/>
    <nd ref="3015889317"/>
    <nd ref="11018738113"/>
    <nd ref="3015889318"/>
    <nd ref="1363033398"/>
    <tag k="addr:city" v="München"/>
    <tag k="addr:housenumber" v="129"/>
    <tag k="addr:postcode" v="81675"/>
    <tag k="addr:street" v="Einsteinstraße"/>
    <tag k="building" v="apartments"/>
    <tag k="building:levels" v="6"/>
  </way>
  <way id="121851177" version="6" timestamp="2022-02-04T10:48:43Z" changeset="117000583" uid="14742734" user="The_Nickname">
    <nd ref="1363040644"/>
    <nd ref="1363040642"/>
    <nd ref="1363033396"/>
    <nd ref="3015889315"/>
    <nd ref="1363033395"/>
    <nd ref="1363040643"/>
    <nd ref="1363040641"/>
    <nd ref="1365455477"/>
    <nd ref="1363040644"/>
    <tag k="addr:housenumber" v="131"/>
    <tag k="addr:street" v="Einsteinstraße"/>
    <tag k="building" v="apartments"/>
    <tag k="wikidata" v="Q41184899"/>
  </way>
  <way id="121852368" version="4" timestamp="2021-02-18T18:11:38Z" changeset="99541994" uid="12689428" user="harmonize kettle">
    <nd ref="1363051429"/>
    <nd ref="1363051430"/>
    <nd ref="1363051432"/>
    <nd ref="1363051434"/>
    <nd ref="1363051433"/>
    <nd ref="1363051431"/>
    <nd ref="1363051429"/>
    <tag k="addr:housenumber" v="34"/>
    <tag k="addr:street" v="Grillparzerstraße"/>
    <tag k="building" v="apartments"/>
  </way>
  <way id="121852549" version="4" timestamp="2021-09-11T15:12:37Z" changeset="111066562" uid="78613" user="heilbron">
    <nd ref="1363052076"/>
    <nd ref="1363052074"/>
    <nd ref="1363051429"/>
    <nd ref="1363051430"/>
    <nd ref="1363052076"/>
    <tag k="addr:housenumber" v="1"/>
    <tag k="addr:postcode" v="81677"/>
    <tag k="addr:street" v="Hackländerstraße"/>
    <tag k="building" v="apartments"/>
  </way>
  <way id="121852550" version="4" timestamp="2021-09-11T15:12:36Z" changeset="111066562" uid="78613" user="heilbron">
    <nd ref="1363052075"/>
    <nd ref="1363052073"/>
    <nd ref="1363052074"/>
    <nd ref="1363052076"/>
    <nd ref="1363052075"/>
    <tag k="addr:housenumber" v="3"/>
    <tag k="addr:postcode" v="81677"/>
    <tag k="addr:street" v="Hackländerstraße"/>
    <tag k="building" v="apartments"/>
  </way>
  <way id="121852584" version="4" timestamp="2021-09-11T15:12:33Z" changeset="111066562" uid="78613" user="heilbron">
    <nd ref="1363052334"/>
    <nd ref="1363052333"/>
    <nd ref="1363052073"/>
    <nd ref="1363052075"/>
    <nd ref="1363052334"/>
    <tag k="addr:housenumber" v="5"/>
    <tag k="addr:postcode" v="81677"/>
    <tag k="addr:street" v="Hackländerstraße"/>
    <tag k="building" v="apartments"/>
  </way>
  <way id="121852990" version="4" timestamp="2021-09-11T15:12:29Z" changeset="111066562" uid="78613" user="heilbron">
    <nd ref="1363054119"/>
    <nd ref="1363054117"/>
    <nd ref="1363054118"/>
    <nd ref="1363054121"/>
    <nd ref="1363054120"/>
    <nd ref="1363054122"/>
    <nd ref="1363054119"/>
    <tag k="addr:housenumber" v="17"/>
    <tag k="addr:postcode" v="81677"/>
    <tag k="addr:street" v="Versailler Straße"/>
    <tag k="building" v="apartments"/>
  </way>
  <way id="121852991" version="4" timestamp="2021-09-11T15:12:31Z" changeset="111066562" uid="78613" user="heilbron">
    <nd ref="1363054118"/>
    <nd ref="1363054121"/>
    <nd ref="1363052333"/>
    <nd ref="1363052334"/>
    <nd ref="1363054118"/>
    <tag k="addr:housenumber" v="7"/>
    <tag k="addr:postcode" v="81677"/>
    <tag k="addr:street" v="Hackländerstraße"/>
    <tag k="building" v="apartments"/>
  </way>
  <way id="121853291" version="4" timestamp="2021-02-18T18:11:38Z" changeset="99541994" uid="12689428" user="harmonize kettle">
    <nd ref="1363051434"/>
    <nd ref="1363056211"/>
    <nd ref="1363056215"/>
    <nd ref="1363056212"/>
    <nd ref="1363056213"/>
    <nd ref="1363056214"/>
    <nd ref="1363051433"/>
    <nd ref="1363051434"/>
    <tag k="addr:housenumber" v="38"/>
    <tag k="addr:street" v="Grillparzerstraße"/>
    <tag k="building" v="apartments"/>
    <tag k="wikidata" v="Q41184947"/>
  </way>
  <way id="121853393" version="5" timestamp="2021-02-18T18:11:38Z" changeset="99541994" uid="12689428" user="harmonize kettle">
    <nd ref="1363056854"/>
    <nd ref="1363056851"/>
    <nd ref="1363056850"/>
    <nd ref="1363056849"/>
    <nd ref="1363056853"/>
    <nd ref="1363056852"/>
    <nd ref="1363056854"/>
    <tag k="addr:housenumber" v="31"/>
    <tag k="addr:street" v="Schneckenburgerstraße"/>
    <tag k="building" v="apartments"/>
  </way>
  <way id="121853441" version="5" timestamp="2021-02-18T18:11:38Z" changeset="99541994" uid="12689428" user="harmonize kettle">
    <nd ref="1363056854"/>
    <nd ref="1363056980"/>
    <nd ref="1363056982"/>
    <nd ref="1363056981"/>
    <nd ref="1363056851"/>
    <nd ref="1363056854"/>
    <tag k="addr:city" v="München"/>
    <tag k="addr:country" v="DE"/>
    <tag k="addr:housenumber" v="40"/>
    <tag k="addr:postcode" v="81675"/>
    <tag k="addr:street" v="Grillparzerstraße"/>
    <tag k="building" v="apartments"/>
    <tag k="roof:shape" v="gabled"/>
  </way>
  <way id="121853463" version="4" timestamp="2021-02-18T18:11:39Z" changeset="99541994" uid="12689428" user="harmonize kettle">
    <nd ref="1363057254"/>
    <nd ref="1363056982"/>
    <nd ref="1363056981"/>
    <nd ref="1363057253"/>
    <nd ref="1363057254"/>
    <tag k="addr:housenumber" v="42"/>
    <tag k="addr:street" v="Grillparzerstraße"/>
    <tag k="building" v="apartments"/>
    <tag k="roof:shape" v="gabled"/>
  </way>
  <way id="121853587" version="4" timestamp="2021-02-18T18:11:39Z" changeset="99541994" uid="12689428" user="harmonize kettle">
    <nd ref="1363057254"/>
    <nd ref="1363057937"/>
    <nd ref="1363057926"/>
    <nd ref="1363057939"/>
    <nd ref="1363057940"/>
    <nd ref="1363057944"/>
    <nd ref="1363057925"/>
    <nd ref="1363057253"/>
    <nd ref="1363057254"/>
    <tag k="addr:housenumber" v="44"/>
    <tag k="addr:postcode" v="81675"/>
    <tag k="addr:street" v="Grillparzerstraße"/>
    <tag k="building" v="apartments"/>
    <tag k="building:levels" v="5"/>
  </way>
  <way id="121853588" version="6" timestamp="2024-05-19T16:44:44Z" changeset="151542777" uid="9244608" user="LittleJoeMuc">
    <nd ref="1363057925"/>
    <nd ref="1363057930"/>
    <nd ref="1363057938"/>
    <nd ref="1363057943"/>
    <nd ref="1363057928"/>
    <nd ref="1363057941"/>
    <nd ref="1363057944"/>
    <nd ref="1363057925"/>
    <tag k="addr:housenumber" v="46"/>
    <tag k="addr:street" v="Grillparzerstraße"/>
    <tag k="building" v="apartments"/>
    <tag k="building:levels" v="4"/>
    <tag k="roof:levels" v="1"/>
    <tag k="roof:shape" v="mansard"/>
    <tag k="wikidata" v="Q41184952"/>
  </way>
  <way id="121855074" version="5" timestamp="2021-02-28T18:07:03Z" changeset="100149687" uid="12689428" user="harmonize kettle">
    <nd ref="1354529127"/>
    <nd ref="1354528989"/>
    <nd ref="1354529130"/>
    <nd ref="1354529131"/>
    <nd ref="1354529129"/>
    <nd ref="1354529128"/>
    <nd ref="1363070052"/>
    <nd ref="1354529227"/>
    <nd ref="1354529127"/>
    <tag k="addr:housenumber" v="51"/>
    <tag k="addr:street" v="Grillparzerstraße"/>
    <tag k="building" v="apartments"/>
    <tag k="wikidata" v="Q41184957"/>
  </way>
  <way id="121855167" version="5" timestamp="2021-02-28T18:07:04Z" changeset="100149687" uid="12689428" user="harmonize kettle">
    <nd ref="1327089389"/>
    <nd ref="1327089385"/>
    <nd ref="1363071263"/>
    <nd ref="1363071264"/>
    <nd ref="1327089389"/>
    <tag k="addr:housenumber" v="47"/>
    <tag k="addr:street" v="Grillparzerstraße"/>
    <tag k="building" v="apartments"/>
    <tag k="roof:shape" v="gabled"/>
  </way>
  <way id="121857639" version="3" timestamp="2021-09-11T15:12:39Z" changeset="111066562" uid="78613" user="heilbron">
    <nd ref="1363098561"/>
    <nd ref="1363098557"/>
    <nd ref="1363098556"/>
    <nd ref="1363098559"/>
    <nd ref="1363098561"/>
    <tag k="addr:housenumber" v="40"/>
    <tag k="addr:street" v="Schneckenburgerstraße"/>
    <tag k="building" v="apartments"/>
  </way>
  <way id="121857640" version="3" timestamp="2021-09-11T15:12:38Z" changeset="111066562" uid="78613" user="heilbron">
    <nd ref="1363098561"/>
    <nd ref="1363098559"/>
    <nd ref="1363098565"/>
    <nd ref="1363098566"/>
    <nd ref="1363056212"/>
    <nd ref="1363056215"/>
    <nd ref="1363098561"/>
    <tag k="addr:housenumber" v="38"/>
    <tag k="addr:street" v="Schneckenburgerstraße"/>
    <tag k="building" v="apartments"/>
  </way>
  <way id="121857641" version="3" timestamp="2021-09-11T15:12:41Z" changeset="111066562" uid="78613" user="heilbron">
    <nd ref="1363098562"/>
    <nd ref="1363098560"/>
    <nd ref="1363098555"/>
    <nd ref="1363098564"/>
    <nd ref="1363098563"/>
    <nd ref="1363098558"/>
    <nd ref="1363098556"/>
    <nd ref="1363098557"/>
    <nd ref="1363098562"/>
    <tag k="addr:housenumber" v="42"/>
    <tag k="addr:street" v="Schneckenburgerstraße"/>
    <tag k="building" v="apartments"/>
  </way>
  <way id="121857758" version="6" timestamp="2021-09-11T15:12:42Z" changeset="111066562" uid="78613" user="heilbron">
    <nd ref="1363098562"/>
    <nd ref="1363099631"/>
    <nd ref="1363099630"/>
    <nd ref="1363099628"/>
    <nd ref="1363054119"/>
    <nd ref="1363054122"/>
    <nd ref="1363099629"/>
    <nd ref="1363098560"/>
    <nd ref="1363098562"/>
    <tag k="addr:housenumber" v="44"/>
    <tag k="addr:street" v="Schneckenburgerstraße"/>
    <tag k="building" v="apartments"/>
    <tag k="wikidata" v="Q41185968"/>
  </way>
  <way id="121859528" version="12" timestamp="2024-05-22T19:24:59Z" changeset="151693949" uid="1717726" user="UKausch">
    <nd ref="1363113323"/>
    <nd ref="1363113312"/>
    <nd ref="1363113336"/>
    <nd ref="1363113319"/>
    <nd ref="1363113316"/>
    <nd ref="1363113326"/>
    <nd ref="331500619"/>
    <nd ref="331500620"/>
    <nd ref="331500621"/>
    <nd ref="331500622"/>
    <nd ref="331500623"/>
    <nd ref="1363111381"/>
    <nd ref="1363111990"/>
    <nd ref="1363111988"/>
    <nd ref="1363111989"/>
    <nd ref="1363111986"/>
    <nd ref="1363111992"/>
    <nd ref="1363111991"/>
    <nd ref="1363111993"/>
    <nd ref="1363105985"/>
    <nd ref="1363105986"/>
    <nd ref="331500624"/>
    <nd ref="331500625"/>
    <nd ref="331500626"/>
    <nd ref="331500627"/>
    <nd ref="331500628"/>
    <nd ref="10651370520"/>
    <nd ref="331500629"/>
    <nd ref="331500630"/>
    <nd ref="331500631"/>
    <nd ref="331500632"/>
    <nd ref="331500615"/>
    <nd ref="331500616"/>
    <nd ref="1381482439"/>
    <nd ref="9808068856"/>
    <nd ref="1363113323"/>
    <tag k="addr:city" v="München"/>
    <tag k="addr:country" v="DE"/>
    <tag k="addr:housenumber" v="20"/>
    <tag k="addr:postcode" v="81677"/>
    <tag k="addr:street" v="Versailler Straße"/>
    <tag k="amenity" v="place_of_worship"/>
    <tag k="architect" v="Otho Orlando Kurz, Eduard Herbert"/>
    <tag k="architect:wikidata" v="Q120095"/>
    <tag k="building" v="church"/>
    <tag k="contact:fax" v="+49 89 419 501-99"/>
    <tag k="contact:website" v="https://www.sanktgabriel.de/"/>
    <tag k="denomination" v="roman_catholic"/>
    <tag k="description" v="+49 89 419501-0"/>
    <tag k="diocese" v="Erzbistum München und Freising"/>
    <tag k="heritage" v="4"/>
    <tag k="heritage:operator" v="BLfD"/>
    <tag k="name" v="St. Gabriel"/>
    <tag k="ref:BLfD" v="D-1-62-000-5608"/>
    <tag k="religion" v="christian"/>
    <tag k="start_date" v="1926"/>
    <tag k="wheelchair" v="limited"/>
    <tag k="wikidata" v="Q2318278"/>
    <tag k="wikimedia_commons" v="Category:St. Gabriel (Munich)"/>
    <tag k="wikipedia" v="de:St. Gabriel (München)"/>
  </way>
  <way id="121860004" version="6" timestamp="2021-09-11T15:12:45Z" changeset="111066567" uid="78613" user="heilbron">
    <nd ref="1363117302"/>
    <nd ref="1363117317"/>
    <nd ref="1363117321"/>
    <nd ref="1363117324"/>
    <nd ref="1363117309"/>
    <nd ref="1363117322"/>
    <nd ref="1363117302"/>
    <tag k="addr:city" v="München"/>
    <tag k="addr:housenumber" v="133"/>
    <tag k="addr:street" v="Einsteinstraße"/>
    <tag k="building" v="apartments"/>
    <tag k="building:levels" v="5"/>
  </way>
  <way id="121860007" version="9" timestamp="2022-02-04T10:48:42Z" changeset="117000583" uid="14742734" user="The_Nickname">
    <nd ref="6126502323"/>
    <nd ref="1363117326"/>
    <nd ref="1363117314"/>
    <nd ref="1363117324"/>
    <nd ref="1363117321"/>
    <nd ref="1363117311"/>
    <nd ref="6126502324"/>
    <nd ref="6126502323"/>
    <tag k="addr:city" v="München"/>
    <tag k="addr:housenumber" v="135"/>
    <tag k="addr:street" v="Einsteinstraße"/>
    <tag k="building" v="apartments"/>
    <tag k="wikidata" v="Q98643875"/>
  </way>
  <way id="121903604" version="2" timestamp="2016-10-10T02:04:22Z" changeset="42766844" uid="14390" user="BeKri">
    <nd ref="1362971525"/>
    <nd ref="1362969521"/>
    <nd ref="1363486776"/>
    <nd ref="1363486777"/>
    <nd ref="1362969519"/>
    <nd ref="1362971523"/>
    <nd ref="1362971525"/>
    <tag k="addr:housenumber" v="26"/>
    <tag k="addr:street" v="Schneckenburgerstraße"/>
    <tag k="building" v="yes"/>
  </way>
  <way id="122128416" version="4" timestamp="2021-09-11T15:12:35Z" changeset="111066562" uid="78613" user="heilbron">
    <nd ref="1365455495"/>
    <nd ref="1365455501"/>
    <nd ref="1365455520"/>
    <nd ref="1365455519"/>
    <nd ref="1365455518"/>
    <nd ref="1365455495"/>
    <tag k="addr:housenumber" v="2"/>
    <tag k="addr:postcode" v="81677"/>
    <tag k="addr:street" v="Hackländerstraße"/>
    <tag k="building" v="apartments"/>
  </way>
  <way id="122128419" version="5" timestamp="2024-05-19T16:44:25Z" changeset="151542777" uid="9244608" user="LittleJoeMuc">
    <nd ref="1365455484"/>
    <nd ref="1365455481"/>
    <nd ref="1363033397"/>
    <nd ref="1365455476"/>
    <nd ref="1365455484"/>
    <tag k="addr:city" v="München"/>
    <tag k="addr:country" v="DE"/>
    <tag k="addr:housenumber" v="28"/>
    <tag k="addr:street" v="Grillparzerstraße"/>
    <tag k="building" v="apartments"/>
    <tag k="building:levels" v="4"/>
    <tag k="roof:levels" v="1"/>
    <tag k="roof:shape" v="mansard"/>
  </way>
  <way id="122128421" version="5" timestamp="2024-05-19T16:44:30Z" changeset="151542777" uid="9244608" user="LittleJoeMuc">
    <nd ref="1365455484"/>
    <nd ref="1365455490"/>
    <nd ref="1365455488"/>
    <nd ref="1365455481"/>
    <nd ref="1365455484"/>
    <tag k="addr:city" v="München"/>
    <tag k="addr:country" v="DE"/>
    <tag k="addr:housenumber" v="30"/>
    <tag k="addr:street" v="Grillparzerstraße"/>
    <tag k="building" v="apartments"/>
    <tag k="building:levels" v="4"/>
    <tag k="roof:levels" v="1"/>
    <tag k="roof:shape" v="mansard"/>
  </way>
  <way id="122128422" version="3" timestamp="2021-02-18T18:11:39Z" changeset="99541994" uid="12689428" user="harmonize kettle">
    <nd ref="1365455490"/>
    <nd ref="1365455492"/>
    <nd ref="1365455495"/>
    <nd ref="1365455518"/>
    <nd ref="1365455499"/>
    <nd ref="1365455488"/>
    <nd ref="1365455490"/>
    <tag k="addr:city" v="München"/>
    <tag k="addr:country" v="DE"/>
    <tag k="addr:housenumber" v="32"/>
    <tag k="addr:street" v="Grillparzerstraße"/>
    <tag k="building" v="apartments"/>
  </way>
  <way id="122128425" version="4" timestamp="2021-09-11T15:12:34Z" changeset="111066562" uid="78613" user="heilbron">
    <nd ref="1365455501"/>
    <nd ref="1365455520"/>
    <nd ref="1365455523"/>
    <nd ref="1365455526"/>
    <nd ref="1365455505"/>
    <nd ref="1365455501"/>
    <tag k="addr:housenumber" v="4"/>
    <tag k="addr:postcode" v="81677"/>
    <tag k="addr:street" v="Hackländerstraße"/>
    <tag k="building" v="apartments"/>
  </way>
  <way id="122128429" version="4" timestamp="2021-09-11T15:12:32Z" changeset="111066562" uid="78613" user="heilbron">
    <nd ref="1365455505"/>
    <nd ref="1365455526"/>
    <nd ref="1365455527"/>
    <nd ref="1365455528"/>
    <nd ref="1365455511"/>
    <nd ref="1365455516"/>
    <nd ref="1365455505"/>
    <tag k="addr:housenumber" v="6"/>
    <tag k="addr:postcode" v="81677"/>
    <tag k="addr:street" v="Hackländerstraße"/>
    <tag k="building" v="apartments"/>
  </way>
  <way id="122164494" version="4" timestamp="2021-07-20T08:21:01Z" changeset="108299817" uid="4238158" user="RiderOnTheStorm">
    <nd ref="1365939213"/>
    <nd ref="1365939216"/>
    <nd ref="1383881407"/>
    <nd ref="1365939224"/>
    <nd ref="1365939222"/>
    <nd ref="1365939227"/>
    <nd ref="1365939220"/>
    <nd ref="1365939213"/>
    <tag k="addr:housenumber" v="30b"/>
    <tag k="addr:street" v="Lucile-Grahn-Straße"/>
    <tag k="building" v="apartments"/>
  </way>
  <way id="122190130" version="3" timestamp="2022-03-13T12:59:18Z" changeset="118428554" uid="8312062" user="Fadatag">
    <nd ref="1341926210"/>
    <nd ref="1341926213"/>
    <nd ref="1341926218"/>
    <nd ref="1341926216"/>
    <nd ref="1366128208"/>
    <nd ref="1366128209"/>
    <nd ref="1341926210"/>
    <tag k="addr:housenumber" v="119"/>
    <tag k="addr:street" v="Einsteinstraße"/>
    <tag k="building" v="apartments"/>
  </way>
  <way id="122190131" version="2" timestamp="2021-07-20T08:21:03Z" changeset="108299817" uid="4238158" user="RiderOnTheStorm">
    <nd ref="1341926217"/>
    <nd ref="1366128209"/>
    <nd ref="1366128208"/>
    <nd ref="1341926214"/>
    <nd ref="1341926217"/>
    <tag k="addr:housenumber" v="30"/>
    <tag k="addr:street" v="Lucile-Grahn-Straße"/>
    <tag k="building" v="apartments"/>
    <tag k="source" v="Bing"/>
  </way>
  <way id="124297856" version="3" timestamp="2016-10-10T02:04:37Z" changeset="42766844" uid="14390" user="BeKri">
    <nd ref="1383881409"/>
    <nd ref="1383881398"/>
    <nd ref="1383881395"/>
    <nd ref="1383881406"/>
    <nd ref="1383881407"/>
    <nd ref="1365939224"/>
    <nd ref="1383881396"/>
    <nd ref="4439251252"/>
    <nd ref="1383881409"/>
    <tag k="addr:city" v="München"/>
    <tag k="addr:country" v="DE"/>
    <tag k="addr:housenumber" v="41a"/>
    <tag k="addr:postcode" v="81675"/>
    <tag k="addr:street" v="Grillparzerstraße"/>
    <tag k="building" v="yes"/>
  </way>
  <way id="124297857" version="3" timestamp="2016-10-10T02:04:37Z" changeset="42766844" uid="14390" user="BeKri">
    <nd ref="1365939216"/>
    <nd ref="1383881392"/>
    <nd ref="4439251256"/>
    <nd ref="4439251257"/>
    <nd ref="1383881404"/>
    <nd ref="1383881405"/>
    <nd ref="1383881402"/>
    <nd ref="4439251254"/>
    <nd ref="4439251253"/>
    <nd ref="1383881394"/>
    <nd ref="1383881406"/>
    <nd ref="1383881407"/>
    <nd ref="1365939216"/>
    <tag k="addr:city" v="München"/>
    <tag k="addr:country" v="DE"/>
    <tag k="addr:housenumber" v="41"/>
    <tag k="addr:postcode" v="81675"/>
    <tag k="addr:street" v="Grillparzerstraße"/>
    <tag k="building" v="yes"/>
  </way>
  <way id="144410972" version="25" timestamp="2025-01-11T18:31:59Z" changeset="161248961" uid="2815653" user="DaxServer">
    <nd ref="1078912401"/>
    <nd ref="1078912414"/>
    <nd ref="1078912692"/>
    <nd ref="11245576744"/>
    <nd ref="11245576743"/>
    <nd ref="11245576742"/>
    <nd ref="11245576741"/>
    <nd ref="1078912433"/>
    <nd ref="11245576740"/>
    <nd ref="2587713414"/>
    <nd ref="2587713412"/>
    <nd ref="1078912601"/>
    <tag k="class:bicycle" v="-1"/>
    <tag k="cycleway:left" v="no"/>
    <tag k="cycleway:right" v="lane"/>
    <tag k="cycleway:right:lane" v="exclusive"/>
    <tag k="dual_carriageway" v="yes"/>
    <tag k="highway" v="secondary"/>
    <tag k="lanes" v="2"/>
    <tag k="lit" v="yes"/>
    <tag k="maxspeed" v="50"/>
    <tag k="maxspeed:conditional" v="30 @ (Mo-Fr 07:00-18:00; PH off)"/>
    <tag k="name" v="Einsteinstraße"/>
    <tag k="name:etymology:wikidata" v="Q937"/>
    <tag k="old_ref" v="B 12"/>
    <tag k="oneway" v="yes"/>
    <tag k="sidewalk:left" v="no"/>
    <tag k="sidewalk:right" v="separate"/>
    <tag k="surface" v="asphalt"/>
    <tag k="tmc" v="DE:27987/27988"/>
    <tag k="wikidata" v="Q44652763"/>
  </way>
  <way id="144410974" version="13" timestamp="2024-10-05T13:39:09Z" changeset="157501711" uid="536583" user="Strubbl">
    <nd ref="564445"/>
    <nd ref="1579565842"/>
    <nd ref="3789797789"/>
    <nd ref="592574761"/>
    <nd ref="1078912401"/>
    <tag k="bicycle" v="use_sidepath"/>
    <tag k="dual_carriageway" v="yes"/>
    <tag k="foot" v="use_sidepath"/>
    <tag k="highway" v="secondary"/>
    <tag k="lanes" v="2"/>
    <tag k="lit" v="yes"/>
    <tag k="maxspeed" v="50"/>
    <tag k="name" v="Grillparzerstraße"/>
    <tag k="name:etymology:wikidata" v="Q154438"/>
    <tag k="oneway" v="yes"/>
    <tag k="sidewalk:left" v="no"/>
    <tag k="sidewalk:right" v="separate"/>
    <tag k="smoothness" v="good"/>
    <tag k="surface" v="asphalt"/>
    <tag k="turn:lanes" v="left|through"/>
  </way>
  <way id="144412085" version="18" timestamp="2025-01-20T22:41:21Z" changeset="161580808" uid="16061279" user="YellowSoul">
    <nd ref="12519292397"/>
    <nd ref="8872347054"/>
    <nd ref="1955003"/>
    <nd ref="8872347056"/>
    <nd ref="4676776896"/>
    <nd ref="1078912453"/>
    <nd ref="564446"/>
    <nd ref="4676776894"/>
    <nd ref="1078912418"/>
    <nd ref="4676776895"/>
    <nd ref="3789797790"/>
    <nd ref="1117105411"/>
    <nd ref="564512"/>
    <tag k="bicycle" v="use_sidepath"/>
    <tag k="cycleway:both" v="separate"/>
    <tag k="foot" v="use_sidepath"/>
    <tag k="highway" v="secondary"/>
    <tag k="lanes" v="2"/>
    <tag k="lit" v="yes"/>
    <tag k="maxspeed" v="50"/>
    <tag k="name" v="Grillparzerstraße"/>
    <tag k="name:etymology:wikidata" v="Q154438"/>
    <tag k="parking:lane:both" v="parallel"/>
    <tag k="psv" v="yes"/>
    <tag k="sidewalk" v="separate"/>
    <tag k="smoothness" v="good"/>
    <tag k="surface" v="asphalt"/>
  </way>
  <way id="147856213" version="22" timestamp="2025-05-12T20:26:52Z" changeset="166171947" uid="11385732" user="jakrill">
    <nd ref="430234728"/>
    <nd ref="7905893707"/>
    <nd ref="1688589049"/>
    <nd ref="7905730383"/>
    <nd ref="7905867265"/>
    <nd ref="7905867263"/>
    <nd ref="10960117106"/>
    <nd ref="1354260546"/>
    <nd ref="7905867230"/>
    <nd ref="7905867257"/>
    <nd ref="7905867248"/>
    <nd ref="1688589057"/>
    <nd ref="4244407785"/>
    <nd ref="1325213299"/>
    <nd ref="7905867231"/>
    <nd ref="1688589084"/>
    <nd ref="4589764361"/>
    <nd ref="1688589093"/>
    <nd ref="1688589104"/>
    <nd ref="1020933107"/>
    <nd ref="335664152"/>
    <tag k="class:bicycle" v="-2"/>
    <tag k="cycleway:both" v="no"/>
    <tag k="highway" v="tertiary"/>
    <tag k="lanes" v="2"/>
    <tag k="lit" v="yes"/>
    <tag k="maxspeed" v="30"/>
    <tag k="name" v="Ismaninger Straße"/>
    <tag k="parking:both" v="yes"/>
    <tag k="parking:both:orientation" v="parallel"/>
    <tag k="sidewalk" v="both"/>
    <tag k="sidewalk:both:surface" v="paving_stones"/>
    <tag k="source:maxspeed" v="sign"/>
    <tag k="surface" v="asphalt"/>
  </way>
  <way id="149415539" version="21" timestamp="2025-01-11T18:31:59Z" changeset="161248961" uid="2815653" user="DaxServer">
    <nd ref="398831"/>
    <nd ref="1623971133"/>
    <tag k="bicycle" v="use_sidepath"/>
    <tag k="dual_carriageway" v="yes"/>
    <tag k="foot" v="use_sidepath"/>
    <tag k="hgv" v="delivery"/>
    <tag k="highway" v="primary"/>
    <tag k="lanes" v="3"/>
    <tag k="level" v="0"/>
    <tag k="lit" v="yes"/>
    <tag k="maxspeed" v="50"/>
    <tag k="name" v="Einsteinstraße"/>
    <tag k="name:etymology:wikidata" v="Q937"/>
    <tag k="old_ref" v="B 12"/>
    <tag k="oneway" v="yes"/>
    <tag k="sidewalk:left" v="no"/>
    <tag k="sidewalk:right" v="separate"/>
    <tag k="smoothness" v="excellent"/>
    <tag k="surface" v="asphalt"/>
    <tag k="tmc" v="DE:27989"/>
    <tag k="turn:lanes" v="left|left|through;right"/>
    <tag k="wikidata" v="Q44652763"/>
  </way>
  <way id="152972063" version="21" timestamp="2025-01-12T11:58:41Z" changeset="161268959" uid="2815653" user="DaxServer">
    <nd ref="11242731015"/>
    <nd ref="1657331564"/>
    <nd ref="21133241"/>
    <nd ref="3135638760"/>
    <nd ref="3172815676"/>
    <nd ref="1657331551"/>
    <nd ref="3172815675"/>
    <nd ref="1657331550"/>
    <nd ref="3172815674"/>
    <nd ref="1657331546"/>
    <nd ref="1657331543"/>
    <nd ref="11242731019"/>
    <nd ref="11242731018"/>
    <nd ref="11242731017"/>
    <nd ref="11242731016"/>
    <nd ref="1657331549"/>
    <nd ref="1782366340"/>
    <nd ref="1657331552"/>
    <nd ref="1782366343"/>
    <nd ref="1782366341"/>
    <nd ref="3135638766"/>
    <nd ref="6561404799"/>
    <nd ref="1657331565"/>
    <nd ref="11242679721"/>
    <nd ref="6561404800"/>
    <nd ref="1657331566"/>
    <tag k="cycleway:both" v="no"/>
    <tag k="foot" v="no"/>
    <tag k="highway" v="trunk_link"/>
    <tag k="lanes" v="1"/>
    <tag k="layer" v="-2"/>
    <tag k="level" v="-2"/>
    <tag k="maxspeed" v="50"/>
    <tag k="name" v="Richard-Strauss-Tunnel"/>
    <tag k="name:etymology:wikidata" v="Q13894"/>
    <tag k="oneway" v="yes"/>
    <tag k="sidewalk" v="no"/>
    <tag k="surface" v="asphalt"/>
    <tag k="tunnel" v="yes"/>
    <tag k="wikidata" v="Q2148895"/>
  </way>
  <way id="154552768" version="6" timestamp="2023-11-24T21:32:21Z" changeset="144422291" uid="513434" user="whellmut">
    <nd ref="1670877391"/>
    <nd ref="864659826"/>
    <nd ref="1670877383"/>
    <nd ref="1670877395"/>
    <nd ref="1670877391"/>
    <tag k="addr:city" v="München"/>
    <tag k="addr:country" v="DE"/>
    <tag k="addr:housenumber" v="10"/>
    <tag k="addr:postcode" v="81677"/>
    <tag k="addr:street" v="Leuchtenbergring"/>
    <tag k="building" v="apartments"/>
    <tag k="building:levels" v="5"/>
    <tag k="roof:levels" v="1"/>
    <tag k="roof:shape" v="gabled"/>
  </way>
  <way id="154552770" version="5" timestamp="2022-03-27T11:13:31Z" changeset="118976664" uid="4376164" user="redweizn">
    <nd ref="1670877385"/>
    <nd ref="1670877422"/>
    <nd ref="1670877399"/>
    <nd ref="1670877387"/>
    <nd ref="1670877385"/>
    <tag k="addr:city" v="München"/>
    <tag k="addr:country" v="DE"/>
    <tag k="addr:housenumber" v="10"/>
    <tag k="addr:postcode" v="81677"/>
    <tag k="addr:street" v="Saint-Privat-Straße"/>
    <tag k="building" v="apartments"/>
    <tag k="building:levels" v="5"/>
    <tag k="roof:shape" v="gabled"/>
  </way>
  <way id="154552771" version="4" timestamp="2022-03-27T11:13:17Z" changeset="118976664" uid="4376164" user="redweizn">
    <nd ref="1670877517"/>
    <nd ref="1670877486"/>
    <nd ref="1670877488"/>
    <nd ref="1670877519"/>
    <nd ref="1670877517"/>
    <tag k="addr:housenumber" v="112"/>
    <tag k="addr:postcode" v="81677"/>
    <tag k="addr:street" v="Prinzregentenstraße"/>
    <tag k="building" v="apartments"/>
    <tag k="building:levels" v="5"/>
    <tag k="roof:shape" v="gabled"/>
  </way>
  <way id="154552772" version="4" timestamp="2022-03-27T11:13:37Z" changeset="118976664" uid="4376164" user="redweizn">
    <nd ref="1670877513"/>
    <nd ref="1670877483"/>
    <nd ref="1670877486"/>
    <nd ref="1670877517"/>
    <nd ref="1670877513"/>
    <tag k="addr:housenumber" v="114"/>
    <tag k="addr:postcode" v="81677"/>
    <tag k="addr:street" v="Prinzregentenstraße"/>
    <tag k="building" v="apartments"/>
    <tag k="building:levels" v="5"/>
    <tag k="roof:shape" v="gabled"/>
  </way>
  <way id="154552773" version="3" timestamp="2022-01-10T11:19:46Z" changeset="115977282" uid="14742734" user="The_Nickname">
    <nd ref="1670877512"/>
    <nd ref="1670877513"/>
    <nd ref="1670877483"/>
    <nd ref="1670877482"/>
    <nd ref="1670877512"/>
    <tag k="addr:housenumber" v="116"/>
    <tag k="addr:postcode" v="81677"/>
    <tag k="addr:street" v="Prinzregentenstraße"/>
    <tag k="building" v="apartments"/>
    <tag k="building:levels" v="5"/>
  </way>
  <way id="154552775" version="6" timestamp="2023-08-02T06:55:18Z" changeset="139330659" uid="12120321" user="bollyboll">
    <nd ref="1670877482"/>
    <nd ref="864659825"/>
    <nd ref="1670877480"/>
    <nd ref="1670877478"/>
    <nd ref="864659816"/>
    <nd ref="1670877512"/>
    <nd ref="1670877482"/>
    <tag k="addr:housenumber" v="118"/>
    <tag k="addr:postcode" v="81677"/>
    <tag k="addr:street" v="Prinzregentenstraße"/>
    <tag k="building" v="apartments"/>
    <tag k="building:levels" v="5"/>
    <tag k="roof:colour" v="red"/>
    <tag k="roof:levels" v="2"/>
    <tag k="roof:shape" v="gabled"/>
  </way>
  <way id="154552776" version="5" timestamp="2022-03-27T11:13:32Z" changeset="118976664" uid="4376164" user="redweizn">
    <nd ref="1670877431"/>
    <nd ref="1670877434"/>
    <nd ref="1670877399"/>
    <nd ref="1670877422"/>
    <nd ref="1670877431"/>
    <tag k="addr:city" v="München"/>
    <tag k="addr:country" v="DE"/>
    <tag k="addr:housenumber" v="12"/>
    <tag k="addr:postcode" v="81677"/>
    <tag k="addr:street" v="Saint-Privat-Straße"/>
    <tag k="building" v="apartments"/>
    <tag k="building:levels" v="5"/>
    <tag k="roof:shape" v="gabled"/>
  </way>
  <way id="154552777" version="4" timestamp="2022-03-27T11:13:11Z" changeset="118976664" uid="4376164" user="redweizn">
    <nd ref="1670877446"/>
    <nd ref="1670877450"/>
    <nd ref="1670877434"/>
    <nd ref="1670877431"/>
    <nd ref="1670877446"/>
    <tag k="addr:housenumber" v="14"/>
    <tag k="addr:street" v="Saint-Privat-Straße"/>
    <tag k="building" v="apartments"/>
    <tag k="building:levels" v="5"/>
    <tag k="roof:shape" v="gabled"/>
  </way>
  <way id="154552778" version="4" timestamp="2014-09-28T17:56:02Z" changeset="25730753" uid="78613" user="heilbron">
    <nd ref="1670877341"/>
    <nd ref="864659814"/>
    <nd ref="1670877385"/>
    <nd ref="1670877387"/>
    <nd ref="864659828"/>
    <nd ref="1670877373"/>
    <nd ref="1670877341"/>
    <tag k="addr:city" v="München"/>
    <tag k="addr:country" v="DE"/>
    <tag k="addr:housenumber" v="151"/>
    <tag k="addr:postcode" v="81675"/>
    <tag k="addr:street" v="Einsteinstraße"/>
    <tag k="building" v="yes"/>
    <tag k="building:levels" v="5"/>
  </way>
  <way id="154552779" version="7" timestamp="2023-11-24T21:32:20Z" changeset="144422291" uid="513434" user="whellmut">
    <nd ref="1670877349"/>
    <nd ref="1670877378"/>
    <nd ref="1670877373"/>
    <nd ref="1670877341"/>
    <nd ref="1670877349"/>
    <tag k="addr:city" v="München"/>
    <tag k="addr:country" v="DE"/>
    <tag k="addr:housenumber" v="153"/>
    <tag k="addr:postcode" v="81675"/>
    <tag k="addr:street" v="Einsteinstraße"/>
    <tag k="building" v="apartments"/>
    <tag k="building:levels" v="5"/>
    <tag k="roof:levels" v="1"/>
    <tag k="roof:shape" v="gabled"/>
  </way>
  <way id="154552780" version="7" timestamp="2023-11-24T21:32:21Z" changeset="144422291" uid="513434" user="whellmut">
    <nd ref="1670877351"/>
    <nd ref="1670877379"/>
    <nd ref="1670877378"/>
    <nd ref="1670877349"/>
    <nd ref="1670877351"/>
    <tag k="addr:city" v="München"/>
    <tag k="addr:country" v="DE"/>
    <tag k="addr:housenumber" v="155"/>
    <tag k="addr:postcode" v="81675"/>
    <tag k="addr:street" v="Einsteinstraße"/>
    <tag k="building" v="apartments"/>
    <tag k="building:levels" v="5"/>
    <tag k="roof:levels" v="1"/>
    <tag k="roof:shape" v="gabled"/>
  </way>
  <way id="154552781" version="7" timestamp="2023-11-24T21:32:21Z" changeset="144422291" uid="513434" user="whellmut">
    <nd ref="1670877355"/>
    <nd ref="1670877381"/>
    <nd ref="1670877379"/>
    <nd ref="1670877351"/>
    <nd ref="1670877355"/>
    <tag k="addr:city" v="München"/>
    <tag k="addr:country" v="DE"/>
    <tag k="addr:housenumber" v="157"/>
    <tag k="addr:postcode" v="81675"/>
    <tag k="addr:street" v="Einsteinstraße"/>
    <tag k="building" v="apartments"/>
    <tag k="building:levels" v="5"/>
    <tag k="roof:levels" v="1"/>
    <tag k="roof:shape" v="gabled"/>
  </way>
  <way id="154552783" version="7" timestamp="2023-11-24T21:32:21Z" changeset="144422291" uid="513434" user="whellmut">
    <nd ref="1670877383"/>
    <nd ref="864659826"/>
    <nd ref="1670877381"/>
    <nd ref="1670877355"/>
    <nd ref="864659815"/>
    <nd ref="1670877383"/>
    <tag k="addr:city" v="München"/>
    <tag k="addr:country" v="DE"/>
    <tag k="addr:housenumber" v="159"/>
    <tag k="addr:postcode" v="81675"/>
    <tag k="addr:street" v="Einsteinstraße"/>
    <tag k="building" v="apartments"/>
    <tag k="building:levels" v="5"/>
    <tag k="roof:levels" v="1"/>
    <tag k="roof:shape" v="gabled"/>
  </way>
  <way id="154552785" version="4" timestamp="2022-03-27T11:13:09Z" changeset="118976664" uid="4376164" user="redweizn">
    <nd ref="1670877473"/>
    <nd ref="1670877476"/>
    <nd ref="1670877450"/>
    <nd ref="1670877446"/>
    <nd ref="1670877473"/>
    <tag k="addr:housenumber" v="16"/>
    <tag k="addr:street" v="Saint-Privat-Straße"/>
    <tag k="building" v="apartments"/>
    <tag k="building:levels" v="5"/>
    <tag k="roof:shape" v="gabled"/>
  </way>
  <way id="154552786" version="5" timestamp="2022-03-27T11:13:04Z" changeset="118976664" uid="4376164" user="redweizn">
    <nd ref="1670877441"/>
    <nd ref="1670877470"/>
    <nd ref="1670877452"/>
    <nd ref="1670877438"/>
    <nd ref="1670877441"/>
    <tag k="addr:housenumber" v="4"/>
    <tag k="addr:postcode" v="81677"/>
    <tag k="addr:street" v="Leuchtenbergring"/>
    <tag k="building" v="apartments"/>
    <tag k="building:levels" v="5"/>
    <tag k="roof:shape" v="gabled"/>
  </way>
  <way id="154552787" version="4" timestamp="2022-03-27T11:13:35Z" changeset="118976664" uid="4376164" user="redweizn">
    <nd ref="1670877470"/>
    <nd ref="1670877478"/>
    <nd ref="1670877480"/>
    <nd ref="1670877452"/>
    <nd ref="1670877470"/>
    <tag k="addr:housenumber" v="2"/>
    <tag k="addr:postcode" v="81677"/>
    <tag k="addr:street" v="Leuchtenbergring"/>
    <tag k="building" v="apartments"/>
    <tag k="building:levels" v="5"/>
    <tag k="roof:shape" v="gabled"/>
  </way>
  <way id="154552788" version="5" timestamp="2022-03-27T11:12:50Z" changeset="118976664" uid="4376164" user="redweizn">
    <nd ref="1670877429"/>
    <nd ref="1670877441"/>
    <nd ref="1670877438"/>
    <nd ref="1670877424"/>
    <nd ref="1670877429"/>
    <tag k="addr:city" v="München"/>
    <tag k="addr:country" v="DE"/>
    <tag k="addr:housenumber" v="6"/>
    <tag k="addr:postcode" v="81677"/>
    <tag k="addr:street" v="Leuchtenbergring"/>
    <tag k="building" v="apartments"/>
    <tag k="building:levels" v="5"/>
    <tag k="roof:shape" v="gabled"/>
  </way>
  <way id="154552789" version="5" timestamp="2022-03-27T11:12:47Z" changeset="118976664" uid="4376164" user="redweizn">
    <nd ref="1670877395"/>
    <nd ref="1670877429"/>
    <nd ref="1670877424"/>
    <nd ref="1670877391"/>
    <nd ref="1670877395"/>
    <tag k="addr:city" v="München"/>
    <tag k="addr:country" v="DE"/>
    <tag k="addr:housenumber" v="8"/>
    <tag k="addr:postcode" v="81677"/>
    <tag k="addr:street" v="Leuchtenbergring"/>
    <tag k="building" v="apartments"/>
    <tag k="building:levels" v="5"/>
    <tag k="roof:shape" v="gabled"/>
  </way>
  <way id="160820503" version="19" timestamp="2025-01-11T18:31:59Z" changeset="161248961" uid="2815653" user="DaxServer">
    <nd ref="398811"/>
    <nd ref="1337649744"/>
    <nd ref="1728378678"/>
    <nd ref="1337649754"/>
    <nd ref="676011917"/>
    <nd ref="7903064739"/>
    <nd ref="4580404877"/>
    <nd ref="1097998421"/>
    <nd ref="2587029249"/>
    <tag k="bicycle" v="use_sidepath"/>
    <tag k="dual_carriageway" v="yes"/>
    <tag k="foot" v="use_sidepath"/>
    <tag k="highway" v="secondary"/>
    <tag k="lanes" v="2"/>
    <tag k="lit" v="yes"/>
    <tag k="maxspeed" v="50"/>
    <tag k="name" v="Einsteinstraße"/>
    <tag k="name:etymology:wikidata" v="Q937"/>
    <tag k="old_ref" v="B 12"/>
    <tag k="oneway" v="yes"/>
    <tag k="sidewalk:left" v="no"/>
    <tag k="sidewalk:right" v="separate"/>
    <tag k="source:maxspeed" v="DE:urban"/>
    <tag k="surface" v="asphalt"/>
    <tag k="tmc" v="DE:27987/27988"/>
    <tag k="wikidata" v="Q44652763"/>
  </way>
  <way id="161659943" version="4" timestamp="2022-08-11T13:47:28Z" changeset="124777574" uid="8312062" user="Fadatag">
    <nd ref="259828288"/>
    <nd ref="259828287"/>
    <tag k="bicycle" v="yes"/>
    <tag k="highway" v="residential"/>
    <tag k="lit" v="yes"/>
    <tag k="maxspeed" v="30"/>
    <tag k="name" v="Schneckenburgerstraße"/>
    <tag k="name:etymology:wikidata" v="Q71399"/>
    <tag k="sidewalk:left" v="no"/>
    <tag k="sidewalk:right" v="separate"/>
    <tag k="smoothness" v="good"/>
    <tag k="surface" v="asphalt"/>
  </way>
  <way id="164072899" version="13" timestamp="2024-09-02T19:31:13Z" changeset="156114102" uid="137242" user="Rainero">
    <nd ref="564165"/>
    <nd ref="516132841"/>
    <nd ref="1587307725"/>
    <nd ref="1587258360"/>
    <nd ref="1774677280"/>
    <nd ref="9531810023"/>
    <nd ref="27483306"/>
    <tag k="class:bicycle" v="1"/>
    <tag k="highway" v="residential"/>
    <tag k="maxspeed" v="30"/>
    <tag k="motor_vehicle" v="destination"/>
    <tag k="name" v="Wagenbauerstraße"/>
    <tag k="name:etymology:wikidata" v="Q1912779"/>
    <tag k="oneway" v="no"/>
    <tag k="sidewalk" v="separate"/>
    <tag k="surface" v="asphalt"/>
  </way>
  <way id="168734093" version="7" timestamp="2025-05-08T18:41:25Z" changeset="165998163" uid="3199858" user="Mateusz Konieczny - bot account">
    <nd ref="1078912409"/>
    <nd ref="398813"/>
    <tag k="bicycle" v="yes"/>
    <tag k="check_date:cycleway" v="2025-02-02"/>
    <tag k="cycleway:both" v="no"/>
    <tag k="highway" v="residential"/>
    <tag k="lane_markings" v="no"/>
    <tag k="lit" v="yes"/>
    <tag k="maxspeed" v="50"/>
    <tag k="name" v="Kuglerstraße"/>
    <tag k="noexit" v="yes"/>
    <tag k="sidewalk" v="no"/>
    <tag k="smoothness" v="good"/>
    <tag k="surface" v="asphalt"/>
  </way>
  <way id="171507872" version="21" timestamp="2025-01-18T20:50:02Z" changeset="161505470" uid="16061279" user="YellowSoul">
    <nd ref="27483469"/>
    <nd ref="8749807871"/>
    <nd ref="4676309292"/>
    <nd ref="8749807926"/>
    <nd ref="4676309291"/>
    <nd ref="27483474"/>
    <nd ref="4676309290"/>
    <nd ref="12512884993"/>
    <nd ref="27483477"/>
    <tag k="class:bicycle" v="1"/>
    <tag k="highway" v="residential"/>
    <tag k="lit" v="yes"/>
    <tag k="maxspeed" v="30"/>
    <tag k="name" v="Lucile-Grahn-Straße"/>
    <tag k="name:etymology:wikidata" v="Q272482"/>
    <tag k="parking:lane:both" v="perpendicular"/>
    <tag k="sidewalk:both" v="separate"/>
    <tag k="surface" v="asphalt"/>
  </way>
  <way id="190821365" version="20" timestamp="2025-01-11T18:31:59Z" changeset="161248961" uid="2815653" user="DaxServer">
    <nd ref="1078912376"/>
    <nd ref="6816818768"/>
    <nd ref="12077200431"/>
    <nd ref="1078912409"/>
    <tag k="class:bicycle" v="-1"/>
    <tag k="cycleway:right" v="lane"/>
    <tag k="cycleway:right:lane" v="exclusive"/>
    <tag k="dual_carriageway" v="yes"/>
    <tag k="highway" v="secondary"/>
    <tag k="lanes" v="2"/>
    <tag k="lit" v="yes"/>
    <tag k="maxspeed" v="50"/>
    <tag k="maxspeed:conditional" v="30 @ (Mo-Fr 07:00-18:00; PH off)"/>
    <tag k="name" v="Einsteinstraße"/>
    <tag k="name:etymology:wikidata" v="Q937"/>
    <tag k="old_ref" v="B 12"/>
    <tag k="oneway" v="yes"/>
    <tag k="sidewalk:left" v="no"/>
    <tag k="sidewalk:right" v="separate"/>
    <tag k="surface" v="asphalt"/>
    <tag k="tmc" v="DE:27987/27988"/>
    <tag k="wikidata" v="Q44652763"/>
  </way>
  <way id="205357854" version="17" timestamp="2023-07-27T20:56:36Z" changeset="139107115" uid="137242" user="Rainero">
    <nd ref="1598988784"/>
    <nd ref="4678580654"/>
    <nd ref="4676250465"/>
    <nd ref="1598988781"/>
    <nd ref="1890546635"/>
    <nd ref="564515"/>
    <nd ref="5736185932"/>
    <nd ref="4676307280"/>
    <nd ref="4678580646"/>
    <nd ref="4678580643"/>
    <nd ref="1598988780"/>
    <nd ref="4678580644"/>
    <nd ref="4678580647"/>
    <nd ref="1598988779"/>
    <nd ref="2213493594"/>
    <nd ref="564512"/>
    <tag k="bicycle" v="use_sidepath"/>
    <tag k="dual_carriageway" v="yes"/>
    <tag k="foot" v="use_sidepath"/>
    <tag k="highway" v="secondary"/>
    <tag k="lanes" v="2"/>
    <tag k="lit" v="yes"/>
    <tag k="maxspeed" v="50"/>
    <tag k="name" v="Prinzregentenstraße"/>
    <tag k="name:etymology:wikidata" v="Q44785"/>
    <tag k="oneway" v="yes"/>
    <tag k="psv" v="yes"/>
    <tag k="sidewalk:left" v="no"/>
    <tag k="sidewalk:right" v="separate"/>
    <tag k="smoothness" v="excellent"/>
    <tag k="surface" v="asphalt"/>
    <tag k="tmc" v="DE:27982/27983"/>
  </way>
  <way id="230701031" version="9" timestamp="2025-01-12T11:58:41Z" changeset="161268959" uid="2815653" user="DaxServer">
    <nd ref="1365085558"/>
    <nd ref="11242679683"/>
    <nd ref="1083841480"/>
    <nd ref="1365085562"/>
    <nd ref="1079918849"/>
    <nd ref="1782366344"/>
    <nd ref="21133247"/>
    <nd ref="1782366342"/>
    <nd ref="436470487"/>
    <nd ref="21133246"/>
    <nd ref="11242731021"/>
    <nd ref="11242731022"/>
    <nd ref="11242731020"/>
    <nd ref="21133245"/>
    <nd ref="11242731023"/>
    <nd ref="1485260642"/>
    <nd ref="11242731035"/>
    <nd ref="11242731034"/>
    <nd ref="1485261655"/>
    <nd ref="11242731033"/>
    <nd ref="21133244"/>
    <nd ref="436470489"/>
    <nd ref="436470511"/>
    <nd ref="21133234"/>
    <tag k="foot" v="no"/>
    <tag k="highway" v="trunk_link"/>
    <tag k="lanes" v="1"/>
    <tag k="layer" v="-1"/>
    <tag k="level" v="-1"/>
    <tag k="maxspeed" v="50"/>
    <tag k="name" v="Richard-Strauss-Tunnel"/>
    <tag k="name:etymology:wikidata" v="Q13894"/>
    <tag k="oneway" v="yes"/>
    <tag k="sidewalk" v="no"/>
    <tag k="surface" v="asphalt"/>
    <tag k="tunnel" v="yes"/>
    <tag k="wikidata" v="Q2148895"/>
  </way>
  <way id="252366887" version="13" timestamp="2025-02-02T08:12:19Z" changeset="162036254" uid="536583" user="Strubbl">
    <nd ref="1623971101"/>
    <nd ref="1078912401"/>
    <tag k="class:bicycle" v="-1"/>
    <tag k="cycleway:left" v="no"/>
    <tag k="cycleway:right" v="lane"/>
    <tag k="cycleway:right:lane" v="exclusive"/>
    <tag k="dual_carriageway" v="yes"/>
    <tag k="foot" v="use_sidepath"/>
    <tag k="hgv" v="delivery"/>
    <tag k="highway" v="secondary"/>
    <tag k="lanes" v="2"/>
    <tag k="lit" v="yes"/>
    <tag k="maxspeed" v="50"/>
    <tag k="name" v="Einsteinstraße"/>
    <tag k="name:etymology:wikidata" v="Q937"/>
    <tag k="old_ref" v="B 12"/>
    <tag k="oneway" v="yes"/>
    <tag k="sidewalk:left" v="no"/>
    <tag k="sidewalk:right" v="separate"/>
    <tag k="smoothness" v="good"/>
    <tag k="surface" v="asphalt"/>
    <tag k="tmc" v="DE:27988"/>
    <tag k="turn:lanes" v="left|through"/>
    <tag k="wikidata" v="Q44652763"/>
  </way>
  <way id="252661693" version="16" timestamp="2025-01-11T18:31:59Z" changeset="161248961" uid="2815653" user="DaxServer">
    <nd ref="2587029249"/>
    <nd ref="3882243065"/>
    <nd ref="2587029253"/>
    <nd ref="6816818774"/>
    <nd ref="3856358041"/>
    <nd ref="676011919"/>
    <nd ref="2587029255"/>
    <nd ref="4427961043"/>
    <tag k="bicycle" v="use_sidepath"/>
    <tag k="dual_carriageway" v="yes"/>
    <tag k="foot" v="use_sidepath"/>
    <tag k="highway" v="secondary"/>
    <tag k="lanes" v="2"/>
    <tag k="lit" v="yes"/>
    <tag k="maxspeed" v="50"/>
    <tag k="name" v="Einsteinstraße"/>
    <tag k="name:etymology:wikidata" v="Q937"/>
    <tag k="old_ref" v="B 12"/>
    <tag k="oneway" v="yes"/>
    <tag k="sidewalk:left" v="no"/>
    <tag k="sidewalk:right" v="separate"/>
    <tag k="surface" v="asphalt"/>
    <tag k="tmc" v="DE:27987/27988"/>
    <tag k="wikidata" v="Q44652763"/>
  </way>
  <way id="258467431" version="9" timestamp="2024-09-01T07:48:11Z" changeset="156042352" uid="46618" user="winterschlaefer">
    <nd ref="2638178513"/>
    <nd ref="2638178515"/>
    <nd ref="2638178517"/>
    <nd ref="2638178516"/>
    <nd ref="10758579316"/>
    <nd ref="2638178519"/>
    <nd ref="2638178518"/>
    <nd ref="2638178512"/>
    <nd ref="11681536603"/>
    <nd ref="10589865175"/>
    <nd ref="890028310"/>
    <nd ref="11048174502"/>
    <nd ref="2638178509"/>
    <nd ref="2638178510"/>
    <nd ref="2638178508"/>
    <nd ref="5451255631"/>
    <nd ref="2638178511"/>
    <nd ref="2638178513"/>
    <tag k="building" v="hospital"/>
    <tag k="name" v="562 - OP Zentrum Nord"/>
  </way>
  <way id="280614995" version="14" timestamp="2025-01-11T18:31:59Z" changeset="161248961" uid="2815653" user="DaxServer">
    <nd ref="1078912467"/>
    <nd ref="1335940720"/>
    <nd ref="9597729190"/>
    <nd ref="10825165152"/>
    <nd ref="398811"/>
    <tag k="bicycle" v="use_sidepath"/>
    <tag k="dual_carriageway" v="yes"/>
    <tag k="foot" v="use_sidepath"/>
    <tag k="highway" v="secondary"/>
    <tag k="lanes" v="2"/>
    <tag k="lit" v="yes"/>
    <tag k="maxspeed" v="50"/>
    <tag k="name" v="Einsteinstraße"/>
    <tag k="name:etymology:wikidata" v="Q937"/>
    <tag k="old_ref" v="B 12"/>
    <tag k="oneway" v="yes"/>
    <tag k="sidewalk:left" v="no"/>
    <tag k="sidewalk:right" v="separate"/>
    <tag k="source:maxspeed" v="DE:urban"/>
    <tag k="surface" v="asphalt"/>
    <tag k="tmc" v="DE:27987/27988"/>
    <tag k="wikidata" v="Q44652763"/>
  </way>
  <way id="287621651" version="6" timestamp="2024-09-01T07:48:11Z" changeset="156042352" uid="46618" user="winterschlaefer">
    <nd ref="2911974530"/>
    <nd ref="9442252793"/>
    <nd ref="890029292"/>
    <nd ref="890029067"/>
    <nd ref="9918845004"/>
    <nd ref="2911974533"/>
    <nd ref="2911974530"/>
    <tag k="building" v="hospital"/>
    <tag k="name" v="513"/>
  </way>
  <way id="289927158" version="16" timestamp="2025-01-11T18:31:59Z" changeset="161248961" uid="2815653" user="DaxServer">
    <nd ref="1623971124"/>
    <nd ref="12042496640"/>
    <nd ref="12042496644"/>
    <nd ref="12042496641"/>
    <nd ref="1623971122"/>
    <nd ref="2352688118"/>
    <nd ref="1623971119"/>
    <nd ref="1623971117"/>
    <nd ref="3135691379"/>
    <nd ref="1623971115"/>
    <nd ref="3789797788"/>
    <nd ref="3170118699"/>
    <nd ref="4678575481"/>
    <nd ref="1758334712"/>
    <nd ref="1623971101"/>
    <tag k="bicycle" v="use_sidepath"/>
    <tag k="dual_carriageway" v="yes"/>
    <tag k="foot" v="use_sidepath"/>
    <tag k="hgv" v="delivery"/>
    <tag k="highway" v="secondary"/>
    <tag k="lanes" v="2"/>
    <tag k="lit" v="yes"/>
    <tag k="maxspeed" v="50"/>
    <tag k="name" v="Einsteinstraße"/>
    <tag k="name:etymology:wikidata" v="Q937"/>
    <tag k="old_ref" v="B 12"/>
    <tag k="oneway" v="yes"/>
    <tag k="sidewalk:left" v="no"/>
    <tag k="sidewalk:right" v="separate"/>
    <tag k="surface" v="asphalt"/>
    <tag k="tmc" v="DE:27988/27989"/>
    <tag k="turn:lanes" v="left|through;right"/>
    <tag k="wikidata" v="Q44652763"/>
  </way>
  <way id="291481086" version="10" timestamp="2025-01-12T12:10:02Z" changeset="161268959" uid="2815653" user="DaxServer">
    <nd ref="2949447365"/>
    <nd ref="436470513"/>
    <nd ref="3489915203"/>
    <nd ref="660707024"/>
    <nd ref="1623971133"/>
    <tag k="bicycle" v="use_sidepath"/>
    <tag k="dual_carriageway" v="yes"/>
    <tag k="foot" v="use_sidepath"/>
    <tag k="highway" v="secondary"/>
    <tag k="lanes" v="3"/>
    <tag k="level" v="0"/>
    <tag k="lit" v="yes"/>
    <tag k="maxspeed" v="40"/>
    <tag k="name" v="Leuchtenbergring"/>
    <tag k="name:etymology:wikidata" v="Q155545"/>
    <tag k="oneway" v="yes"/>
    <tag k="ref" v="B 2R"/>
    <tag k="sidewalk:left" v="no"/>
    <tag k="sidewalk:right" v="separate"/>
    <tag k="source" v="survey"/>
    <tag k="surface" v="asphalt"/>
    <tag k="turn:lanes" v="left|through|through;right"/>
    <tag k="wikidata" v="Q1303041"/>
  </way>
  <way id="292781210" version="6" timestamp="2025-01-12T11:58:41Z" changeset="161268959" uid="2815653" user="DaxServer">
    <nd ref="21133235"/>
    <nd ref="429609929"/>
    <tag k="hgv" v="delivery"/>
    <tag k="highway" v="trunk"/>
    <tag k="lanes" v="2"/>
    <tag k="layer" v="-1"/>
    <tag k="level" v="-1"/>
    <tag k="maxheight" v="default"/>
    <tag k="maxspeed" v="60"/>
    <tag k="maxspeed:variable" v="yes"/>
    <tag k="motorroad" v="yes"/>
    <tag k="name" v="Richard-Strauss-Tunnel"/>
    <tag k="name:etymology:wikidata" v="Q13894"/>
    <tag k="oneway" v="yes"/>
    <tag k="ref" v="B 2R"/>
    <tag k="surface" v="asphalt"/>
    <tag k="tmc" v="DE:22678/22679"/>
    <tag k="tunnel" v="yes"/>
    <tag k="wikidata" v="Q2148895"/>
  </way>
  <way id="292781215" version="6" timestamp="2025-01-12T11:58:41Z" changeset="161268959" uid="2815653" user="DaxServer">
    <nd ref="21133234"/>
    <nd ref="1485259271"/>
    <nd ref="21133232"/>
    <nd ref="21119110"/>
    <tag k="hgv" v="delivery"/>
    <tag k="highway" v="trunk"/>
    <tag k="jams" v="07:00-09:00"/>
    <tag k="lanes" v="3"/>
    <tag k="layer" v="-1"/>
    <tag k="maxspeed" v="60"/>
    <tag k="maxspeed:variable" v="yes"/>
    <tag k="motorroad" v="yes"/>
    <tag k="name" v="Richard-Strauss-Tunnel"/>
    <tag k="name:etymology:wikidata" v="Q13894"/>
    <tag k="oneway" v="yes"/>
    <tag k="ref" v="B 2R"/>
    <tag k="surface" v="asphalt"/>
    <tag k="tmc" v="DE:60923/22678"/>
    <tag k="tunnel" v="yes"/>
    <tag k="turn:lanes" v="none|none|merge_to_left;slight_right"/>
    <tag k="wikidata" v="Q2148895"/>
  </way>
  <way id="292781221" version="5" timestamp="2025-01-12T11:58:41Z" changeset="161268959" uid="2815653" user="DaxServer">
    <nd ref="21119113"/>
    <nd ref="21119114"/>
    <nd ref="21133233"/>
    <nd ref="1485259272"/>
    <nd ref="2225741415"/>
    <nd ref="21133235"/>
    <tag k="hgv" v="delivery"/>
    <tag k="highway" v="trunk"/>
    <tag k="lanes" v="2"/>
    <tag k="layer" v="-1"/>
    <tag k="maxspeed" v="60"/>
    <tag k="maxspeed:variable" v="yes"/>
    <tag k="motorroad" v="yes"/>
    <tag k="name" v="Richard-Strauss-Tunnel"/>
    <tag k="name:etymology:wikidata" v="Q13894"/>
    <tag k="oneway" v="yes"/>
    <tag k="ref" v="B 2R"/>
    <tag k="sidewalk" v="no"/>
    <tag k="surface" v="asphalt"/>
    <tag k="tmc" v="DE:60923/22678"/>
    <tag k="tunnel" v="yes"/>
    <tag k="wikidata" v="Q2148895"/>
  </way>
  <way id="292953660" version="14" timestamp="2025-01-11T18:31:59Z" changeset="161248961" uid="2815653" user="DaxServer">
    <nd ref="1623971133"/>
    <nd ref="1623971132"/>
    <nd ref="3135638758"/>
    <nd ref="11245576739"/>
    <nd ref="3135638755"/>
    <nd ref="3135691388"/>
    <nd ref="11245576738"/>
    <nd ref="3135691384"/>
    <nd ref="1623971130"/>
    <nd ref="11245576737"/>
    <nd ref="3135691382"/>
    <nd ref="2352688120"/>
    <nd ref="1623971124"/>
    <tag k="bicycle" v="use_sidepath"/>
    <tag k="dual_carriageway" v="yes"/>
    <tag k="foot" v="use_sidepath"/>
    <tag k="hgv" v="delivery"/>
    <tag k="highway" v="secondary"/>
    <tag k="lanes" v="2"/>
    <tag k="level" v="0"/>
    <tag k="lit" v="yes"/>
    <tag k="maxspeed" v="50"/>
    <tag k="name" v="Einsteinstraße"/>
    <tag k="name:etymology:wikidata" v="Q937"/>
    <tag k="old_ref" v="B 12"/>
    <tag k="oneway" v="yes"/>
    <tag k="sidewalk:left" v="no"/>
    <tag k="sidewalk:right" v="separate"/>
    <tag k="surface" v="asphalt"/>
    <tag k="tmc" v="DE:27988/27989"/>
    <tag k="wikidata" v="Q44652763"/>
  </way>
  <way id="312644222" version="17" timestamp="2025-01-11T18:31:59Z" changeset="161248961" uid="2815653" user="DaxServer">
    <nd ref="1078912601"/>
    <nd ref="2587713411"/>
    <nd ref="1078912637"/>
    <nd ref="4224183470"/>
    <nd ref="1078912374"/>
    <nd ref="2587713410"/>
    <nd ref="1078912376"/>
    <tag k="class:bicycle" v="-1"/>
    <tag k="cycleway:left" v="no"/>
    <tag k="cycleway:right" v="lane"/>
    <tag k="cycleway:right:lane" v="exclusive"/>
    <tag k="dual_carriageway" v="yes"/>
    <tag k="highway" v="secondary"/>
    <tag k="lanes" v="2"/>
    <tag k="lit" v="yes"/>
    <tag k="maxspeed" v="50"/>
    <tag k="maxspeed:conditional" v="30 @ (Mo-Fr 07:00-18:00;PH off)"/>
    <tag k="name" v="Einsteinstraße"/>
    <tag k="name:etymology:wikidata" v="Q937"/>
    <tag k="old_ref" v="B 12"/>
    <tag k="oneway" v="yes"/>
    <tag k="sidewalk:left" v="no"/>
    <tag k="sidewalk:right" v="separate"/>
    <tag k="surface" v="asphalt"/>
    <tag k="tmc" v="DE:27987/27988"/>
    <tag k="wikidata" v="Q44652763"/>
  </way>
  <way id="312644223" version="13" timestamp="2025-01-11T18:31:59Z" changeset="161248961" uid="2815653" user="DaxServer">
    <nd ref="3185110464"/>
    <nd ref="1937928521"/>
    <nd ref="11242731030"/>
    <nd ref="398834"/>
    <tag k="bicycle" v="use_sidepath"/>
    <tag k="dual_carriageway" v="yes"/>
    <tag k="foot" v="use_sidepath"/>
    <tag k="highway" v="primary"/>
    <tag k="lanes" v="2"/>
    <tag k="lit" v="yes"/>
    <tag k="maxspeed" v="50"/>
    <tag k="maxspeed:conditional" v="30 @ (Mo-Fr 07:00-18:00;PH off)"/>
    <tag k="name" v="Einsteinstraße"/>
    <tag k="name:etymology:wikidata" v="Q937"/>
    <tag k="old_ref" v="B 12"/>
    <tag k="oneway" v="yes"/>
    <tag k="sidewalk:left" v="no"/>
    <tag k="sidewalk:right" v="separate"/>
    <tag k="surface" v="asphalt"/>
    <tag k="tmc" v="DE:27989/30130"/>
    <tag k="turn:lanes" v="left|through;right"/>
    <tag k="wikidata" v="Q44652763"/>
  </way>
  <way id="312644224" version="15" timestamp="2025-01-11T18:31:59Z" changeset="161248961" uid="2815653" user="DaxServer">
    <nd ref="1078912409"/>
    <nd ref="3784409814"/>
    <nd ref="2587713409"/>
    <nd ref="1728378577"/>
    <nd ref="1728378673"/>
    <nd ref="398812"/>
    <nd ref="259828949"/>
    <nd ref="1335940713"/>
    <nd ref="1078912467"/>
    <tag k="class:bicycle" v="-1"/>
    <tag k="cycleway:left" v="no"/>
    <tag k="cycleway:right" v="lane"/>
    <tag k="cycleway:right:lane" v="exclusive"/>
    <tag k="dual_carriageway" v="yes"/>
    <tag k="highway" v="secondary"/>
    <tag k="lanes" v="2"/>
    <tag k="lit" v="yes"/>
    <tag k="maxspeed" v="50"/>
    <tag k="name" v="Einsteinstraße"/>
    <tag k="name:etymology:wikidata" v="Q937"/>
    <tag k="old_ref" v="B 12"/>
    <tag k="oneway" v="yes"/>
    <tag k="sidewalk:left" v="no"/>
    <tag k="sidewalk:right" v="separate"/>
    <tag k="surface" v="asphalt"/>
    <tag k="tmc" v="DE:27987/27988"/>
    <tag k="wikidata" v="Q44652763"/>
  </way>
  <way id="316433709" version="8" timestamp="2025-01-12T12:10:02Z" changeset="161268959" uid="2815653" user="DaxServer">
    <nd ref="436470512"/>
    <nd ref="3489915210"/>
    <nd ref="592577051"/>
    <nd ref="564163"/>
    <tag k="bicycle" v="use_sidepath"/>
    <tag k="dual_carriageway" v="yes"/>
    <tag k="foot" v="use_sidepath"/>
    <tag k="highway" v="secondary"/>
    <tag k="lanes" v="3"/>
    <tag k="maxspeed" v="40"/>
    <tag k="name" v="Leuchtenbergring"/>
    <tag k="name:etymology:wikidata" v="Q155545"/>
    <tag k="oneway" v="yes"/>
    <tag k="ref" v="B 2R"/>
    <tag k="sidewalk:left" v="no"/>
    <tag k="sidewalk:right" v="separate"/>
    <tag k="source" v="survey"/>
    <tag k="surface" v="asphalt"/>
    <tag k="turn:lanes" v="left|left|through;right"/>
    <tag k="wikidata" v="Q1303041"/>
  </way>
  <way id="316433711" version="11" timestamp="2025-04-03T21:44:18Z" changeset="164484291" uid="16061279" user="YellowSoul">
    <nd ref="28096906"/>
    <nd ref="12512899637"/>
    <nd ref="12512899636"/>
    <nd ref="1955004"/>
    <nd ref="28096904"/>
    <nd ref="3789797791"/>
    <nd ref="3789797792"/>
    <nd ref="592569762"/>
    <tag k="bicycle" v="use_sidepath"/>
    <tag k="cycleway:both" v="separate"/>
    <tag k="foot" v="use_sidepath"/>
    <tag k="hgv" v="delivery"/>
    <tag k="highway" v="secondary"/>
    <tag k="lanes" v="2"/>
    <tag k="lit" v="yes"/>
    <tag k="maxspeed" v="50"/>
    <tag k="name" v="Prinzregentenstraße"/>
    <tag k="name:etymology:wikidata" v="Q44785"/>
    <tag k="sidewalk" v="separate"/>
    <tag k="surface" v="asphalt"/>
    <tag k="tmc" v="DE:27982/27983"/>
    <tag k="wikipedia" v="de:Prinzregentenstraße"/>
  </way>
  <way id="316433712" version="12" timestamp="2025-04-03T21:44:18Z" changeset="164484291" uid="16061279" user="YellowSoul">
    <nd ref="3100660746"/>
    <nd ref="10730383103"/>
    <nd ref="2039383"/>
    <nd ref="564164"/>
    <nd ref="3489915212"/>
    <nd ref="918870219"/>
    <nd ref="564163"/>
    <tag k="bicycle" v="use_sidepath"/>
    <tag k="cycleway:both" v="separate"/>
    <tag k="foot" v="use_sidepath"/>
    <tag k="highway" v="secondary"/>
    <tag k="lanes:backward" v="2"/>
    <tag k="lanes:forward" v="2"/>
    <tag k="lit" v="yes"/>
    <tag k="maxspeed" v="50"/>
    <tag k="name" v="Prinzregentenstraße"/>
    <tag k="name:etymology:wikidata" v="Q44785"/>
    <tag k="sidewalk" v="separate"/>
    <tag k="smoothness" v="excellent"/>
    <tag k="surface" v="asphalt"/>
    <tag k="tmc" v="DE:27983/27984"/>
    <tag k="turn:lanes:forward" v="through|through;right"/>
    <tag k="wikipedia" v="de:Prinzregentenstraße"/>
  </way>
  <way id="333466641" version="3" timestamp="2024-08-08T21:37:30Z" changeset="154998393" uid="137242" user="Rainero">
    <nd ref="12099599436"/>
    <nd ref="1335980181"/>
    <nd ref="1335980116"/>
    <nd ref="4439925987"/>
    <nd ref="3405754509"/>
    <nd ref="3405754510"/>
    <nd ref="12099599437"/>
    <nd ref="12099599436"/>
    <tag k="addr:city" v="München"/>
    <tag k="addr:housenumber" v="107a"/>
    <tag k="addr:postcode" v="81675"/>
    <tag k="addr:street" v="Einsteinstraße"/>
    <tag k="building" v="yes"/>
  </way>
  <way id="337042239" version="8" timestamp="2024-10-05T13:39:09Z" changeset="157501711" uid="536583" user="Strubbl">
    <nd ref="1623971085"/>
    <nd ref="1769891451"/>
    <nd ref="1769891387"/>
    <nd ref="3185127963"/>
    <nd ref="398819"/>
    <nd ref="1623971101"/>
    <tag k="bicycle" v="use_sidepath"/>
    <tag k="dual_carriageway" v="yes"/>
    <tag k="foot" v="use_sidepath"/>
    <tag k="highway" v="secondary"/>
    <tag k="lanes" v="2"/>
    <tag k="lit" v="yes"/>
    <tag k="maxspeed" v="50"/>
    <tag k="name" v="Grillparzerstraße"/>
    <tag k="name:etymology:wikidata" v="Q154438"/>
    <tag k="oneway" v="yes"/>
    <tag k="sidewalk:left" v="no"/>
    <tag k="sidewalk:right" v="separate"/>
    <tag k="smoothness" v="good"/>
    <tag k="surface" v="asphalt"/>
  </way>
  <way id="341931170" version="13" timestamp="2025-01-11T18:31:59Z" changeset="161248961" uid="2815653" user="DaxServer">
    <nd ref="398834"/>
    <nd ref="11242731029"/>
    <nd ref="11242731025"/>
    <nd ref="3135638764"/>
    <nd ref="11242731028"/>
    <nd ref="11242731027"/>
    <nd ref="11242731026"/>
    <nd ref="11242731024"/>
    <nd ref="3135638763"/>
    <nd ref="6807862194"/>
    <nd ref="3135638762"/>
    <nd ref="3489915202"/>
    <nd ref="918870232"/>
    <nd ref="398831"/>
    <tag k="bicycle" v="use_sidepath"/>
    <tag k="dual_carriageway" v="yes"/>
    <tag k="foot" v="use_sidepath"/>
    <tag k="highway" v="primary"/>
    <tag k="lanes" v="3"/>
    <tag k="level" v="0"/>
    <tag k="lit" v="yes"/>
    <tag k="maxspeed" v="50"/>
    <tag k="maxspeed:conditional" v="30 @ (Mo-Fr 07:00-18:00;PH off)"/>
    <tag k="name" v="Einsteinstraße"/>
    <tag k="name:etymology:wikidata" v="Q937"/>
    <tag k="old_ref" v="B 12"/>
    <tag k="oneway" v="yes"/>
    <tag k="sidewalk:left" v="no"/>
    <tag k="sidewalk:right" v="separate"/>
    <tag k="surface" v="asphalt"/>
    <tag k="tmc" v="DE:27989/30130"/>
    <tag k="turn:lanes" v="left|left|through;right"/>
    <tag k="wikidata" v="Q44652763"/>
  </way>
  <way id="445350799" version="10" timestamp="2025-01-11T18:31:59Z" changeset="161248961" uid="2815653" user="DaxServer">
    <nd ref="4427961043"/>
    <nd ref="398809"/>
    <nd ref="6816818778"/>
    <nd ref="1097998376"/>
    <nd ref="3328852911"/>
    <nd ref="1688788304"/>
    <nd ref="1688588916"/>
    <tag k="bicycle" v="use_sidepath"/>
    <tag k="dual_carriageway" v="yes"/>
    <tag k="foot" v="use_sidepath"/>
    <tag k="highway" v="secondary"/>
    <tag k="lanes" v="3"/>
    <tag k="lit" v="yes"/>
    <tag k="maxspeed" v="50"/>
    <tag k="name" v="Einsteinstraße"/>
    <tag k="name:etymology:wikidata" v="Q937"/>
    <tag k="old_ref" v="B 12"/>
    <tag k="oneway" v="yes"/>
    <tag k="sidewalk:left" v="no"/>
    <tag k="sidewalk:right" v="separate"/>
    <tag k="surface" v="asphalt"/>
    <tag k="tmc" v="DE:27987/27988"/>
    <tag k="turn:lanes" v="left|through|right"/>
    <tag k="wikidata" v="Q44652763"/>
  </way>
  <way id="445350800" version="9" timestamp="2025-04-12T16:46:50Z" changeset="164864406" uid="18850925" user="cableway">
    <nd ref="1688588969"/>
    <nd ref="3189158464"/>
    <nd ref="7905695817"/>
    <nd ref="1688588996"/>
    <nd ref="430234731"/>
    <tag k="class:bicycle" v="-2"/>
    <tag k="cycleway:both" v="no"/>
    <tag k="foot" v="use_sidepath"/>
    <tag k="highway" v="tertiary"/>
    <tag k="lanes" v="3"/>
    <tag k="lanes:backward" v="2"/>
    <tag k="lanes:forward" v="1"/>
    <tag k="lit" v="yes"/>
    <tag k="maxspeed" v="30"/>
    <tag k="name" v="Ismaninger Straße"/>
    <tag k="sidewalk" v="separate"/>
    <tag k="source:maxspeed" v="sign"/>
    <tag k="surface" v="asphalt"/>
  </way>
  <way id="446686680" version="4" timestamp="2024-08-14T23:38:43Z" changeset="155262657" uid="13496000" user="geo-d">
    <nd ref="1383881396"/>
    <nd ref="4439251252"/>
    <nd ref="4439251249"/>
    <nd ref="1365935811"/>
    <nd ref="1383881396"/>
    <tag k="addr:city" v="München"/>
    <tag k="addr:country" v="DE"/>
    <tag k="addr:housenumber" v="37a"/>
    <tag k="addr:postcode" v="81675"/>
    <tag k="addr:street" v="Grillparzerstraße"/>
    <tag k="building" v="apartments"/>
    <tag k="building:levels" v="4"/>
    <tag k="roof:shape" v="flat"/>
  </way>
  <way id="512886979" version="6" timestamp="2025-01-19T22:31:11Z" changeset="161542502" uid="16061279" user="YellowSoul">
    <nd ref="516132832"/>
    <nd ref="2039383"/>
    <tag k="highway" v="residential"/>
    <tag k="maxspeed" v="30"/>
    <tag k="name" v="Steinhauser Straße"/>
    <tag k="oneway" v="yes"/>
    <tag k="oneway:bicycle" v="no"/>
    <tag k="sidewalk" v="no"/>
    <tag k="smoothness" v="good"/>
    <tag k="surface" v="asphalt"/>
  </way>
  <way id="545711286" version="4" timestamp="2024-08-14T23:38:43Z" changeset="155262657" uid="13496000" user="geo-d">
    <nd ref="1385352861"/>
    <nd ref="1353387518"/>
    <nd ref="7809455244"/>
    <nd ref="1385352859"/>
    <nd ref="5274001851"/>
    <nd ref="5274001848"/>
    <nd ref="5274001850"/>
    <nd ref="1385352861"/>
    <tag k="addr:city" v="München"/>
    <tag k="addr:country" v="DE"/>
    <tag k="addr:housenumber" v="19a"/>
    <tag k="addr:postcode" v="81675"/>
    <tag k="addr:street" v="Trogerstraße"/>
    <tag k="building" v="apartments"/>
  </way>
  <way id="575121622" version="2" timestamp="2022-03-13T12:59:17Z" changeset="118428554" uid="8312062" user="Fadatag">
    <nd ref="1354528984"/>
    <nd ref="5519262122"/>
    <nd ref="5519257820"/>
    <nd ref="5519262123"/>
    <nd ref="5519262124"/>
    <nd ref="1354528984"/>
    <tag k="addr:city" v="München"/>
    <tag k="addr:country" v="DE"/>
    <tag k="addr:housenumber" v="38"/>
    <tag k="addr:postcode" v="81675"/>
    <tag k="addr:street" v="Lucile-Grahn-Straße"/>
    <tag k="building" v="apartments"/>
  </way>
  <way id="710577603" version="3" timestamp="2019-11-14T10:49:39Z" changeset="77066832" uid="3011980" user="helli⁥">
    <nd ref="6680717838"/>
    <nd ref="6680717839"/>
    <nd ref="6680717840"/>
    <nd ref="6680717841"/>
    <nd ref="6680717842"/>
    <nd ref="6680717843"/>
    <nd ref="6680717844"/>
    <nd ref="6680717845"/>
    <nd ref="6680717846"/>
    <nd ref="6680717847"/>
    <nd ref="6680717848"/>
    <nd ref="6680717849"/>
    <nd ref="6680717850"/>
    <nd ref="6680717851"/>
    <nd ref="6680717852"/>
    <nd ref="6680717853"/>
    <nd ref="6680717854"/>
    <nd ref="6680717855"/>
    <nd ref="6680717856"/>
    <nd ref="6680717857"/>
    <nd ref="6680717858"/>
    <nd ref="6680717859"/>
    <nd ref="6680717860"/>
    <nd ref="6680717861"/>
    <nd ref="6680717862"/>
    <nd ref="6976355872"/>
    <nd ref="6976355873"/>
    <nd ref="6680717863"/>
    <nd ref="6680717864"/>
    <nd ref="6680717865"/>
    <nd ref="6680717866"/>
    <nd ref="6680717867"/>
    <nd ref="6680717868"/>
    <nd ref="6680717869"/>
    <nd ref="6680717870"/>
    <nd ref="6680717871"/>
    <nd ref="6680717838"/>
    <tag k="building" v="yes"/>
    <tag k="name" v="522"/>
  </way>
  <way id="739516543" version="6" timestamp="2024-07-26T15:20:58Z" changeset="154448294" uid="14742734" user="The_Nickname">
    <nd ref="1335920016"/>
    <nd ref="6924269945"/>
    <nd ref="6924269944"/>
    <nd ref="1335920033"/>
    <nd ref="1335920016"/>
    <tag k="addr:housenumber" v="7"/>
    <tag k="addr:street" v="Kuglerstraße"/>
    <tag k="building" v="apartments"/>
    <tag k="building:levels" v="4"/>
    <tag k="roof:levels" v="2"/>
    <tag k="roof:shape" v="gabled"/>
  </way>
  <way id="739522132" version="5" timestamp="2025-01-11T18:31:59Z" changeset="161248961" uid="2815653" user="DaxServer">
    <nd ref="247682614"/>
    <nd ref="6561398711"/>
    <nd ref="6561398710"/>
    <nd ref="3185110464"/>
    <tag k="bicycle" v="use_sidepath"/>
    <tag k="dual_carriageway" v="yes"/>
    <tag k="foot" v="use_sidepath"/>
    <tag k="highway" v="primary"/>
    <tag k="lanes" v="2"/>
    <tag k="lit" v="yes"/>
    <tag k="maxspeed" v="50"/>
    <tag k="maxspeed:conditional" v="30 @ (Mo-Fr 07:00-18:00;PH off)"/>
    <tag k="name" v="Einsteinstraße"/>
    <tag k="name:etymology:wikidata" v="Q937"/>
    <tag k="old_ref" v="B 12"/>
    <tag k="oneway" v="yes"/>
    <tag k="sidewalk:left" v="no"/>
    <tag k="sidewalk:right" v="separate"/>
    <tag k="surface" v="asphalt"/>
    <tag k="tmc" v="DE:27989/30130"/>
    <tag k="turn:lanes" v="left|through;right"/>
    <tag k="wikidata" v="Q44652763"/>
  </way>
  <way id="847235966" version="8" timestamp="2025-05-12T20:21:43Z" changeset="166171947" uid="11385732" user="jakrill">
    <nd ref="430234724"/>
    <nd ref="7905893697"/>
    <tag k="class:bicycle" v="-2"/>
    <tag k="cycleway:both" v="no"/>
    <tag k="highway" v="tertiary"/>
    <tag k="lanes" v="2"/>
    <tag k="lit" v="yes"/>
    <tag k="maxspeed" v="30"/>
    <tag k="name" v="Ismaninger Straße"/>
    <tag k="sidewalk:left" v="separate"/>
    <tag k="sidewalk:right" v="yes"/>
    <tag k="sidewalk:right:surface" v="paving_stones"/>
    <tag k="source:maxspeed" v="sign"/>
    <tag k="surface" v="asphalt"/>
  </way>
  <way id="926205696" version="7" timestamp="2025-02-09T16:46:23Z" changeset="162321589" uid="16061279" user="YellowSoul">
    <nd ref="8595161106"/>
    <nd ref="398834"/>
    <tag k="bicycle" v="no"/>
    <tag k="cycleway:both" v="no"/>
    <tag k="foot" v="no"/>
    <tag k="highway" v="residential"/>
    <tag k="lane_markings" v="no"/>
    <tag k="lit" v="yes"/>
    <tag k="maxspeed" v="50"/>
    <tag k="name" v="Steinhauser Straße"/>
    <tag k="parking:lane:left:parallel" v="on_street"/>
    <tag k="parking:left" v="yes"/>
    <tag k="parking:left:orientation" v="parallel"/>
    <tag k="parking:right" v="no"/>
    <tag k="sidewalk" v="both"/>
    <tag k="sidewalk:both:surface" v="paving_stones"/>
    <tag k="smoothness" v="excellent"/>
    <tag k="surface" v="asphalt"/>
    <tag k="width" v="6"/>
  </way>
  <way id="959755783" version="2" timestamp="2024-09-01T07:48:11Z" changeset="156042352" uid="46618" user="winterschlaefer">
    <nd ref="8880038868"/>
    <nd ref="8880038867"/>
    <nd ref="8880038866"/>
    <nd ref="8880038865"/>
    <nd ref="8880038861"/>
    <nd ref="8880038862"/>
    <nd ref="8880038868"/>
    <tag k="building" v="hospital"/>
    <tag k="name" v="524"/>
  </way>
  <way id="1085611095" version="2" timestamp="2022-08-11T13:47:27Z" changeset="124777574" uid="8312062" user="Fadatag">
    <nd ref="1078912601"/>
    <nd ref="8842578491"/>
    <nd ref="21746852"/>
    <nd ref="8872347058"/>
    <nd ref="27483469"/>
    <tag k="highway" v="residential"/>
    <tag k="lit" v="yes"/>
    <tag k="maxspeed" v="30"/>
    <tag k="name" v="Lucile-Grahn-Straße"/>
    <tag k="name:etymology:wikidata" v="Q272482"/>
    <tag k="parking:lane:both" v="perpendicular"/>
    <tag k="sidewalk" v="separate"/>
    <tag k="surface" v="asphalt"/>
  </way>
  <way id="1085611096" version="3" timestamp="2025-02-02T11:39:36Z" changeset="162041206" uid="16061279" user="YellowSoul">
    <nd ref="27483524"/>
    <nd ref="464468306"/>
    <nd ref="464468350"/>
    <nd ref="27486188"/>
    <nd ref="259828288"/>
    <tag k="highway" v="residential"/>
    <tag k="lit" v="yes"/>
    <tag k="maxspeed" v="30"/>
    <tag k="name" v="Schneckenburgerstraße"/>
    <tag k="name:etymology:wikidata" v="Q71399"/>
    <tag k="sidewalk:left" v="yes"/>
    <tag k="sidewalk:left:surface" v="asphalt"/>
    <tag k="sidewalk:right" v="separate"/>
    <tag k="surface" v="asphalt"/>
  </way>
  <way id="1085611109" version="2" timestamp="2025-01-18T20:50:02Z" changeset="161505470" uid="16061279" user="YellowSoul">
    <nd ref="27483477"/>
    <nd ref="2557413451"/>
    <nd ref="12512884987"/>
    <tag k="highway" v="residential"/>
    <tag k="lit" v="yes"/>
    <tag k="maxspeed" v="30"/>
    <tag k="name" v="Lucile-Grahn-Straße"/>
    <tag k="name:etymology:wikidata" v="Q272482"/>
    <tag k="parking:lane:both" v="perpendicular"/>
    <tag k="sidewalk:both" v="separate"/>
    <tag k="surface" v="asphalt"/>
  </way>
  <way id="1133402392" version="3" timestamp="2025-02-09T16:46:23Z" changeset="162321589" uid="16061279" user="YellowSoul">
    <nd ref="10567236938"/>
    <nd ref="8595161106"/>
    <tag k="cycleway:both" v="no"/>
    <tag k="highway" v="residential"/>
    <tag k="lane_markings" v="no"/>
    <tag k="lit" v="yes"/>
    <tag k="maxspeed" v="50"/>
    <tag k="name" v="Steinhauser Straße"/>
    <tag k="parking:lane:left:parallel" v="on_street"/>
    <tag k="parking:left" v="yes"/>
    <tag k="parking:left:orientation" v="parallel"/>
    <tag k="parking:right" v="no"/>
    <tag k="sidewalk" v="both"/>
    <tag k="sidewalk:both:surface" v="paving_stones"/>
    <tag k="smoothness" v="excellent"/>
    <tag k="surface" v="asphalt"/>
    <tag k="width" v="6"/>
  </way>
  <way id="1147633969" version="5" timestamp="2025-01-12T12:32:20Z" changeset="161268959" uid="2815653" user="DaxServer">
    <nd ref="2881736602"/>
    <nd ref="11242679710"/>
    <nd ref="247682614"/>
    <tag k="bicycle" v="use_sidepath"/>
    <tag k="dual_carriageway" v="yes"/>
    <tag k="foot" v="use_sidepath"/>
    <tag k="highway" v="primary"/>
    <tag k="lanes" v="2"/>
    <tag k="lit" v="yes"/>
    <tag k="maxspeed" v="50"/>
    <tag k="name" v="Einsteinstraße"/>
    <tag k="name:etymology:wikidata" v="Q937"/>
    <tag k="old_ref" v="B 12"/>
    <tag k="oneway" v="yes"/>
    <tag k="sidewalk:left" v="no"/>
    <tag k="sidewalk:right" v="separate"/>
    <tag k="surface" v="asphalt"/>
    <tag k="tmc" v="DE:27989/30130"/>
    <tag k="turn:lanes" v="left|through;right"/>
    <tag k="wikidata" v="Q44652763"/>
  </way>
  <way id="1213493162" version="3" timestamp="2025-01-12T11:58:41Z" changeset="161268959" uid="2815653" user="DaxServer">
    <nd ref="21133235"/>
    <nd ref="2225741412"/>
    <nd ref="1657331571"/>
    <nd ref="11242731015"/>
    <tag k="destination" v="Passau"/>
    <tag k="destination:ref" v="A 94"/>
    <tag k="foot" v="no"/>
    <tag k="highway" v="trunk_link"/>
    <tag k="lanes" v="1"/>
    <tag k="layer" v="-1"/>
    <tag k="level" v="-2"/>
    <tag k="maxspeed" v="50"/>
    <tag k="name" v="Richard-Strauss-Tunnel"/>
    <tag k="name:etymology:wikidata" v="Q13894"/>
    <tag k="oneway" v="yes"/>
    <tag k="sidewalk" v="no"/>
    <tag k="surface" v="asphalt"/>
    <tag k="tunnel" v="yes"/>
    <tag k="wikidata" v="Q2148895"/>
  </way>
  <way id="1352399727" version="2" timestamp="2025-04-03T21:44:18Z" changeset="164484291" uid="16061279" user="YellowSoul">
    <nd ref="2039393"/>
    <nd ref="2044194510"/>
    <nd ref="2044194512"/>
    <tag k="bicycle" v="use_sidepath"/>
    <tag k="cycleway:both" v="separate"/>
    <tag k="foot" v="use_sidepath"/>
    <tag k="hgv" v="delivery"/>
    <tag k="highway" v="secondary"/>
    <tag k="lanes" v="2"/>
    <tag k="lit" v="yes"/>
    <tag k="maxspeed" v="50"/>
    <tag k="name" v="Prinzregentenstraße"/>
    <tag k="name:etymology:wikidata" v="Q44785"/>
    <tag k="sidewalk" v="separate"/>
    <tag k="surface" v="asphalt"/>
    <tag k="tmc" v="DE:27982/27983"/>
    <tag k="wikipedia" v="de:Prinzregentenstraße"/>
  </way>
  <way id="1352399728" version="2" timestamp="2025-04-03T21:44:18Z" changeset="164484291" uid="16061279" user="YellowSoul">
    <nd ref="2044194512"/>
    <nd ref="12512899638"/>
    <nd ref="28096906"/>
    <tag k="bicycle" v="yes"/>
    <tag k="cycleway:both" v="separate"/>
    <tag k="foot" v="use_sidepath"/>
    <tag k="hgv" v="delivery"/>
    <tag k="highway" v="secondary"/>
    <tag k="lanes" v="2"/>
    <tag k="lit" v="yes"/>
    <tag k="maxspeed" v="50"/>
    <tag k="name" v="Prinzregentenstraße"/>
    <tag k="name:etymology:wikidata" v="Q44785"/>
    <tag k="sidewalk" v="separate"/>
    <tag k="surface" v="asphalt"/>
    <tag k="tmc" v="DE:27982/27983"/>
    <tag k="wikipedia" v="de:Prinzregentenstraße"/>
  </way>
  <way id="1352399729" version="2" timestamp="2025-04-03T21:44:18Z" changeset="164484291" uid="16061279" user="YellowSoul">
    <nd ref="3225495670"/>
    <nd ref="10730383104"/>
    <nd ref="10730452705"/>
    <nd ref="564165"/>
    <tag k="bicycle" v="use_sidepath"/>
    <tag k="cycleway:both" v="separate"/>
    <tag k="foot" v="use_sidepath"/>
    <tag k="highway" v="secondary"/>
    <tag k="lanes:backward" v="2"/>
    <tag k="lanes:forward" v="2"/>
    <tag k="lit" v="yes"/>
    <tag k="maxspeed" v="50"/>
    <tag k="name" v="Prinzregentenstraße"/>
    <tag k="name:etymology:wikidata" v="Q44785"/>
    <tag k="sidewalk" v="separate"/>
    <tag k="smoothness" v="excellent"/>
    <tag k="surface" v="asphalt"/>
    <tag k="tmc" v="DE:27983/27984"/>
    <tag k="turn:lanes:forward" v="through|through;right"/>
    <tag k="wikipedia" v="de:Prinzregentenstraße"/>
  </way>
  <way id="1352399730" version="2" timestamp="2025-04-03T21:44:18Z" changeset="164484291" uid="16061279" user="YellowSoul">
    <nd ref="564165"/>
    <nd ref="3100660746"/>
    <tag k="bicycle" v="yes"/>
    <tag k="cycleway:both" v="separate"/>
    <tag k="foot" v="use_sidepath"/>
    <tag k="highway" v="secondary"/>
    <tag k="lanes:backward" v="2"/>
    <tag k="lanes:forward" v="2"/>
    <tag k="lit" v="yes"/>
    <tag k="maxspeed" v="50"/>
    <tag k="name" v="Prinzregentenstraße"/>
    <tag k="name:etymology:wikidata" v="Q44785"/>
    <tag k="sidewalk" v="separate"/>
    <tag k="smoothness" v="excellent"/>
    <tag k="surface" v="asphalt"/>
    <tag k="tmc" v="DE:27983/27984"/>
    <tag k="turn:lanes:forward" v="through|through;right"/>
    <tag k="wikipedia" v="de:Prinzregentenstraße"/>
  </way>
  <way id="1353025269" version="1" timestamp="2025-01-20T22:41:21Z" changeset="161580808" uid="16061279" user="YellowSoul">
    <nd ref="564445"/>
    <nd ref="1579571145"/>
    <nd ref="312395082"/>
    <tag k="bicycle" v="use_sidepath"/>
    <tag k="cycleway:both" v="separate"/>
    <tag k="foot" v="use_sidepath"/>
    <tag k="highway" v="secondary"/>
    <tag k="lanes" v="2"/>
    <tag k="lit" v="yes"/>
    <tag k="maxspeed" v="50"/>
    <tag k="name" v="Grillparzerstraße"/>
    <tag k="name:etymology:wikidata" v="Q154438"/>
    <tag k="parking:lane:both" v="parallel"/>
    <tag k="psv" v="yes"/>
    <tag k="sidewalk" v="separate"/>
    <tag k="smoothness" v="good"/>
    <tag k="surface" v="asphalt"/>
  </way>
  <way id="1353025270" version="1" timestamp="2025-01-20T22:41:21Z" changeset="161580808" uid="16061279" user="YellowSoul">
    <nd ref="312395082"/>
    <nd ref="12519292397"/>
    <tag k="bicycle" v="yes"/>
    <tag k="cycleway:both" v="separate"/>
    <tag k="foot" v="use_sidepath"/>
    <tag k="highway" v="secondary"/>
    <tag k="lanes" v="2"/>
    <tag k="lit" v="yes"/>
    <tag k="maxspeed" v="50"/>
    <tag k="name" v="Grillparzerstraße"/>
    <tag k="name:etymology:wikidata" v="Q154438"/>
    <tag k="parking:lane:both" v="parallel"/>
    <tag k="psv" v="yes"/>
    <tag k="sidewalk" v="separate"/>
    <tag k="smoothness" v="good"/>
    <tag k="surface" v="asphalt"/>
  </way>
  <way id="1356143130" version="4" timestamp="2025-02-02T11:44:18Z" changeset="162041206" uid="16061279" user="YellowSoul">
    <nd ref="10825165148"/>
    <nd ref="7903064760"/>
    <nd ref="19224214"/>
    <tag k="class:bicycle" v="2"/>
    <tag k="cycleway:both" v="no"/>
    <tag k="highway" v="residential"/>
    <tag k="lane_markings" v="no"/>
    <tag k="lit" v="yes"/>
    <tag k="maxspeed" v="50"/>
    <tag k="name" v="Trogerstraße"/>
    <tag k="name:etymology:wikidata" v="Q1768014"/>
    <tag k="sidewalk" v="both"/>
    <tag k="sidewalk:both:surface" v="paving_stones"/>
    <tag k="source:maxspeed" v="DE:urban"/>
    <tag k="surface" v="asphalt"/>
  </way>
  <relation id="1155799" version="12" timestamp="2025-04-01T23:04:01Z" changeset="164396642" uid="2567902" user="SnejPro">
    <member type="way" ref="75381693" role="inner"/>
    <member type="way" ref="75376263" role="outer"/>
    <member type="way" ref="172387690" role="inner"/>
    <tag k="building" v="hospital"/>
    <tag k="name" v="560 - Neuro-Kopf-Zentrum"/>
    <tag k="roof:shape" v="flat"/>
    <tag k="type" v="multipolygon"/>
    <tag k="wheelchair" v="yes"/>
  </relation>
  <relation id="1528062" version="5" timestamp="2023-12-21T12:37:18Z" changeset="145369358" uid="14742734" user="The_Nickname">
    <member type="way" ref="107282419" role="outer"/>
    <member type="way" ref="107282422" role="inner"/>
    <member type="way" ref="107283038" role="inner"/>
    <tag k="building" v="apartments"/>
    <tag k="name" v="Prinzregentenhof"/>
    <tag k="type" v="multipolygon"/>
  </relation>
  <relation id="1656443" version="4" timestamp="2016-10-10T02:02:52Z" changeset="42766844" uid="14390" user="BeKri">
    <member type="way" ref="117681790" role="outer"/>
    <member type="way" ref="120880581" role="inner"/>
    <tag k="building" v="hospital"/>
    <tag k="name" v="557"/>
    <tag k="type" v="multipolygon"/>
  </relation>
  <relation id="6972692" version="3" timestamp="2021-07-20T08:21:00Z" changeset="108299817" uid="4238158" user="RiderOnTheStorm">
    <member type="way" ref="122163752" role="outer"/>
    <tag k="addr:housenumber" v="30a"/>
    <tag k="addr:street" v="Lucile-Grahn-Straße"/>
    <tag k="building" v="apartments"/>
    <tag k="type" v="multipolygon"/>
  </relation>

</osm>
