<?xml version="1.0" encoding="UTF-8"?>
<osm version="0.6" generator="Overpass API 0.7.62.5 1bd436f1">
<note>The data included in this document is from www.openstreetmap.org. The data is made available under ODbL.</note>
<meta osm_base="2025-05-18T03:31:15Z" areas="2024-12-31T00:49:33Z"/>

  <node id="363211" lat="48.1594466" lon="11.5475783" version="7" timestamp="2015-10-12T11:07:38Z" changeset="34587606" uid="2290263" user="soemisch">
    <tag k="TMC:cid_58:tabcd_1:Class" v="Point"/>
    <tag k="TMC:cid_58:tabcd_1:Direction" v="positive"/>
    <tag k="TMC:cid_58:tabcd_1:LCLversion" v="9.00"/>
    <tag k="TMC:cid_58:tabcd_1:LocationCode" v="27960"/>
    <tag k="TMC:cid_58:tabcd_1:NextLocationCode" v="27961"/>
    <tag k="TMC:cid_58:tabcd_1:PrevLocationCode" v="27959"/>
  </node>
  <node id="363213" lat="48.1627880" lon="11.5421925" version="8" timestamp="2015-01-10T17:57:36Z" changeset="28045997" uid="29061" user="KPG"/>
  <node id="15752382" lat="48.1705712" lon="11.5481871" version="18" timestamp="2023-02-11T06:36:13Z" changeset="132391372" uid="3473843" user="jakaxyz">
    <tag k="crossing" v="uncontrolled"/>
    <tag k="crossing:island" v="no"/>
    <tag k="crossing_ref" v="zebra"/>
    <tag k="highway" v="crossing"/>
    <tag k="tactile_paving" v="no"/>
  </node>
  <node id="16259472" lat="48.1595803" lon="11.5474359" version="7" timestamp="2015-10-12T11:07:37Z" changeset="34587606" uid="2290263" user="soemisch"/>
  <node id="16527735" lat="48.1650611" lon="11.5529241" version="10" timestamp="2022-04-17T19:37:15Z" changeset="119829512" uid="11895847" user="rigilk3nt"/>
  <node id="20925124" lat="48.1694727" lon="11.5381422" version="8" timestamp="2022-06-11T11:18:38Z" changeset="122245278" uid="262291" user="Andi_Voss">
    <tag k="highway" v="motorway_junction"/>
    <tag k="noname" v="yes"/>
    <tag k="noref" v="yes"/>
  </node>
  <node id="21035971" lat="48.1615125" lon="11.5528430" version="6" timestamp="2015-10-14T09:28:22Z" changeset="34629028" uid="2290263" user="soemisch"/>
  <node id="21035975" lat="48.1615152" lon="11.5530490" version="6" timestamp="2015-10-14T09:28:22Z" changeset="34629028" uid="2290263" user="soemisch"/>
  <node id="21035977" lat="48.1677800" lon="11.5544638" version="8" timestamp="2022-04-17T19:36:20Z" changeset="119829492" uid="11895847" user="rigilk3nt"/>
  <node id="21042285" lat="48.1682351" lon="11.5382879" version="8" timestamp="2022-08-05T22:51:58Z" changeset="124542083" uid="2554996" user="Nanoilite"/>
  <node id="21042290" lat="48.1659070" lon="11.5377107" version="9" timestamp="2021-02-08T16:43:47Z" changeset="98921402" uid="11895847" user="rigilk3nt">
    <tag k="TMC:cid_58:tabcd_1:Class" v="Point"/>
    <tag k="TMC:cid_58:tabcd_1:Direction" v="negative"/>
    <tag k="TMC:cid_58:tabcd_1:LCLversion" v="9.00"/>
    <tag k="TMC:cid_58:tabcd_1:LocationCode" v="27961"/>
    <tag k="TMC:cid_58:tabcd_1:NextLocationCode" v="46568"/>
    <tag k="TMC:cid_58:tabcd_1:PrevLocationCode" v="27960"/>
  </node>
  <node id="30631578" lat="48.1681946" lon="11.5381403" version="7" timestamp="2022-08-05T22:51:58Z" changeset="124542083" uid="2554996" user="Nanoilite"/>
  <node id="30631580" lat="48.1629792" lon="11.5377607" version="6" timestamp="2012-01-21T15:12:50Z" changeset="10456435" uid="13832" user="Peter14"/>
  <node id="186181395" lat="48.1686565" lon="11.5396882" version="15" timestamp="2022-08-05T22:51:58Z" changeset="124542083" uid="2554996" user="Nanoilite"/>
  <node id="354436783" lat="48.1675076" lon="11.5364834" version="4" timestamp="2022-08-05T22:51:58Z" changeset="124542083" uid="2554996" user="Nanoilite"/>
  <node id="1371997712" lat="48.1655284" lon="11.5380883" version="2" timestamp="2014-07-13T14:22:34Z" changeset="24121304" uid="2675" user="Eckhart Wörner"/>
  <node id="1391221749" lat="48.1662527" lon="11.5377343" version="2" timestamp="2014-07-13T14:22:34Z" changeset="24121304" uid="2675" user="Eckhart Wörner"/>
  <node id="1555429497" lat="48.1604883" lon="11.5491093" version="1" timestamp="2011-12-20T10:10:21Z" changeset="10162208" uid="367380" user="Mloni"/>
  <node id="2786152398" lat="48.1604553" lon="11.5496033" version="2" timestamp="2017-04-09T14:42:54Z" changeset="47594767" uid="367380" user="Mloni"/>
  <node id="9934668460" lat="48.1667133" lon="11.5379103" version="1" timestamp="2022-08-05T22:51:58Z" changeset="124542083" uid="2554996" user="Nanoilite"/>
  <way id="4305432" version="23" timestamp="2025-03-23T08:58:30Z" changeset="163976651" uid="44217" user="kjon">
    <nd ref="20925124"/>
    <nd ref="1038302983"/>
    <nd ref="433271152"/>
    <nd ref="21042286"/>
    <tag k="bicycle" v="no"/>
    <tag k="destination" v="Dachau;Zentrum"/>
    <tag k="foot" v="use_sidepath"/>
    <tag k="highway" v="trunk_link"/>
    <tag k="maxspeed" v="50"/>
    <tag k="name" v="Landshuter Allee"/>
    <tag k="name:etymology:wikidata" v="Q3974"/>
    <tag k="oneway" v="yes"/>
    <tag k="parking:both" v="no"/>
    <tag k="sidewalk" v="no"/>
    <tag k="surface" v="asphalt"/>
    <tag k="wikidata" v="Q1604867"/>
  </way>
  <way id="4822645" version="19" timestamp="2025-03-22T21:16:15Z" changeset="163964538" uid="44217" user="kjon">
    <nd ref="28105187"/>
    <nd ref="1046424309"/>
    <nd ref="10743680270"/>
    <nd ref="3163132935"/>
    <tag k="class:bicycle" v="2"/>
    <tag k="hgv" v="no"/>
    <tag k="highway" v="residential"/>
    <tag k="lit" v="yes"/>
    <tag k="maxspeed" v="30"/>
    <tag k="name" v="Dachauer Straße"/>
    <tag k="parking:both" v="no"/>
    <tag k="sidewalk:both" v="separate"/>
    <tag k="smoothness" v="good"/>
    <tag k="surface" v="asphalt"/>
  </way>
  <way id="4822646" version="22" timestamp="2025-03-22T21:16:15Z" changeset="163964538" uid="44217" user="kjon">
    <nd ref="361814"/>
    <nd ref="502086560"/>
    <nd ref="3266970827"/>
    <nd ref="500345379"/>
    <nd ref="28100211"/>
    <tag k="bicycle" v="yes"/>
    <tag k="cycleway:both" v="no"/>
    <tag k="foot" v="yes"/>
    <tag k="hgv" v="no"/>
    <tag k="highway" v="residential"/>
    <tag k="lit" v="yes"/>
    <tag k="maxspeed" v="30"/>
    <tag k="name" v="Dachauer Straße"/>
    <tag k="oneway" v="no"/>
    <tag k="parking:both" v="no"/>
    <tag k="sidewalk" v="no"/>
    <tag k="surface" v="asphalt"/>
  </way>
  <way id="5215037" version="17" timestamp="2025-03-22T21:16:15Z" changeset="163964538" uid="44217" user="kjon">
    <nd ref="36662764"/>
    <nd ref="529279069"/>
    <nd ref="3896855941"/>
    <nd ref="36663645"/>
    <tag k="highway" v="residential"/>
    <tag k="lit" v="yes"/>
    <tag k="maxspeed" v="30"/>
    <tag k="name" v="Anita-Augspurg-Allee"/>
    <tag k="name:etymology:wikidata" v="Q71410"/>
    <tag k="parking:lane:left:parallel" v="street_side"/>
    <tag k="parking:lane:right:perpendicular" v="street_side"/>
    <tag k="parking:left" v="yes"/>
    <tag k="parking:left:orientation" v="parallel"/>
    <tag k="parking:right" v="yes"/>
    <tag k="parking:right:orientation" v="perpendicular"/>
    <tag k="sidewalk" v="separate"/>
    <tag k="surface" v="asphalt"/>
  </way>
  <way id="5215165" version="19" timestamp="2024-12-17T18:59:14Z" changeset="160316587" uid="8353937" user="Helge Kreutzmannn">
    <nd ref="36663367"/>
    <nd ref="3280469302"/>
    <nd ref="500346276"/>
    <nd ref="3280467875"/>
    <nd ref="11462739239"/>
    <nd ref="11462739240"/>
    <nd ref="1037481311"/>
    <nd ref="11462739242"/>
    <nd ref="11462739241"/>
    <nd ref="3263098123"/>
    <nd ref="36663366"/>
    <tag k="class:bicycle" v="2"/>
    <tag k="cycleway:both" v="no"/>
    <tag k="highway" v="residential"/>
    <tag k="lit" v="yes"/>
    <tag k="maxspeed" v="30"/>
    <tag k="name" v="Hedwig-Dransfeld-Allee"/>
    <tag k="oneway" v="no"/>
    <tag k="parking:left" v="no"/>
    <tag k="sidewalk:left" v="no"/>
    <tag k="sidewalk:right" v="separate"/>
    <tag k="smoothness" v="good"/>
    <tag k="surface" v="asphalt"/>
  </way>
  <way id="5215173" version="25" timestamp="2024-05-22T15:40:26Z" changeset="151682724" uid="14742734" user="The_Nickname">
    <nd ref="36662810"/>
    <nd ref="2786299536"/>
    <nd ref="1578220514"/>
    <nd ref="36662811"/>
    <nd ref="433435637"/>
    <nd ref="36662812"/>
    <nd ref="1629468084"/>
    <nd ref="36662813"/>
    <nd ref="36662814"/>
    <nd ref="7939034077"/>
    <nd ref="7939034078"/>
    <nd ref="7939034079"/>
    <nd ref="1046355263"/>
    <tag k="class:bicycle" v="-1"/>
    <tag k="highway" v="residential"/>
    <tag k="lit" v="yes"/>
    <tag k="maxspeed" v="30"/>
    <tag k="name" v="Rosa-Luxemburg-Platz"/>
    <tag k="name:etymology:wikidata" v="Q7231"/>
    <tag k="oneway" v="yes"/>
    <tag k="parking:left" v="no"/>
    <tag k="parking:right" v="lane"/>
    <tag k="parking:right:orientation" v="parallel"/>
    <tag k="sidewalk" v="separate"/>
    <tag k="smoothness" v="intermediate"/>
    <tag k="surface" v="sett"/>
  </way>
  <way id="5215225" version="24" timestamp="2025-03-22T21:16:15Z" changeset="163964538" uid="44217" user="kjon">
    <nd ref="36663644"/>
    <nd ref="1578220556"/>
    <nd ref="1578220371"/>
    <nd ref="253233915"/>
    <tag k="class:bicycle" v="1"/>
    <tag k="cycleway:both" v="no"/>
    <tag k="highway" v="residential"/>
    <tag k="lit" v="yes"/>
    <tag k="maxspeed" v="30"/>
    <tag k="name" v="Helene-Weber-Allee"/>
    <tag k="name:etymology" v="Helene Weber"/>
    <tag k="name:etymology:wikidata" v="Q95851"/>
    <tag k="name:etymology:wikipedia" v="de:Helene Weber"/>
    <tag k="parking:both" v="no"/>
    <tag k="sidewalk:both" v="separate"/>
    <tag k="smoothness" v="good"/>
    <tag k="surface" v="asphalt"/>
  </way>
  <way id="5215292" version="21" timestamp="2024-07-28T08:57:48Z" changeset="154510946" uid="18493611" user="MunichWays">
    <nd ref="4313265919"/>
    <nd ref="4313265918"/>
    <nd ref="4313265920"/>
    <nd ref="4313265924"/>
    <nd ref="4313265928"/>
    <nd ref="4313265930"/>
    <nd ref="4313265931"/>
    <nd ref="4313265929"/>
    <nd ref="4313265927"/>
    <nd ref="4313265923"/>
    <nd ref="4313265919"/>
    <tag k="class:bicycle" v="2"/>
    <tag k="cycleway:both" v="no"/>
    <tag k="highway" v="residential"/>
    <tag k="lit" v="yes"/>
    <tag k="maxspeed" v="30"/>
    <tag k="name" v="Gertrud-Bäumer-Straße"/>
    <tag k="name:etymology:wikidata" v="Q71416"/>
    <tag k="sidewalk:left" v="no"/>
    <tag k="sidewalk:right" v="separate"/>
    <tag k="surface" v="sett"/>
  </way>
  <way id="5215398" version="16" timestamp="2025-03-22T21:16:15Z" changeset="163964538" uid="44217" user="kjon">
    <nd ref="363213"/>
    <nd ref="348276926"/>
    <nd ref="348276851"/>
    <nd ref="363212"/>
    <tag k="class:bicycle" v="1"/>
    <tag k="cycleway:both" v="separate"/>
    <tag k="highway" v="residential"/>
    <tag k="lanes" v="2"/>
    <tag k="lit" v="yes"/>
    <tag k="maxspeed" v="50"/>
    <tag k="name" v="Hedwig-Dransfeld-Allee"/>
    <tag k="parking:both" v="no"/>
    <tag k="sidewalk" v="separate"/>
    <tag k="smoothness" v="good"/>
    <tag k="surface" v="asphalt"/>
  </way>
  <way id="5215538" version="12" timestamp="2023-03-18T15:09:42Z" changeset="133826796" uid="14742734" user="The_Nickname">
    <nd ref="36663269"/>
    <nd ref="537706735"/>
    <nd ref="1361240530"/>
    <nd ref="1361240531"/>
    <nd ref="1361240543"/>
    <nd ref="537706195"/>
    <nd ref="3280469451"/>
    <nd ref="36663173"/>
    <tag k="highway" v="residential"/>
    <tag k="lit" v="no"/>
    <tag k="maxspeed" v="30"/>
    <tag k="name" v="Hedwig-Dransfeld-Allee"/>
    <tag k="oneway" v="no"/>
    <tag k="sidewalk" v="no"/>
    <tag k="surface" v="asphalt"/>
  </way>
  <way id="9361125" version="21" timestamp="2024-09-22T07:14:29Z" changeset="156938061" uid="21834785" user="Moschie">
    <nd ref="3263004924"/>
    <nd ref="3263004923"/>
    <nd ref="70886548"/>
    <nd ref="3274612466"/>
    <nd ref="2286207583"/>
    <nd ref="2727469319"/>
    <nd ref="3140338932"/>
    <nd ref="3140338929"/>
    <nd ref="3263007247"/>
    <nd ref="70886550"/>
    <nd ref="1105565629"/>
    <nd ref="70885727"/>
    <nd ref="70886551"/>
    <nd ref="1105565691"/>
    <nd ref="1105565680"/>
    <nd ref="1105565658"/>
    <nd ref="1105565666"/>
    <nd ref="1105565685"/>
    <nd ref="1105565624"/>
    <nd ref="3263004924"/>
    <tag k="addr:city" v="München"/>
    <tag k="addr:country" v="DE"/>
    <tag k="addr:housenumber" v="21-23"/>
    <tag k="addr:postcode" v="80637"/>
    <tag k="addr:street" v="Helene-Weber-Allee"/>
    <tag k="building" v="office"/>
    <tag k="building:colour" v="silver"/>
    <tag k="contact:email" v="dwd.muenchen@dwd.de"/>
    <tag k="contact:fax" v="+49 69 8062-9170"/>
    <tag k="contact:phone" v="+49 69 8062-0"/>
    <tag k="contact:website" v="https://www.dwd.de/DE/Home/home_node.html"/>
    <tag k="name" v="Deutscher Wetterdienst - Niederlassung München"/>
    <tag k="office" v="government"/>
    <tag k="opening_hours" v="Mo-Th 08:00-15:30; Fr 08:00-14:30"/>
    <tag k="roof:colour" v="lightgrey"/>
    <tag k="short_name:de" v="DWD München"/>
  </way>
  <way id="17984616" version="23" timestamp="2023-12-28T12:55:49Z" changeset="145618349" uid="14742734" user="The_Nickname">
    <nd ref="28100211"/>
    <nd ref="500347745"/>
    <nd ref="500347048"/>
    <nd ref="1361240527"/>
    <nd ref="3300017941"/>
    <nd ref="1361240529"/>
    <nd ref="1014521842"/>
    <nd ref="1361240542"/>
    <nd ref="3300017940"/>
    <nd ref="1361240546"/>
    <nd ref="1014521836"/>
    <nd ref="28100215"/>
    <tag k="class:bicycle" v="-1"/>
    <tag k="cycleway:both" v="no"/>
    <tag k="foot" v="no"/>
    <tag k="hgv" v="no"/>
    <tag k="highway" v="unclassified"/>
    <tag k="lane_markings" v="no"/>
    <tag k="lit" v="yes"/>
    <tag k="maxspeed" v="30"/>
    <tag k="name" v="Dachauer Straße"/>
    <tag k="parking:left" v="separate"/>
    <tag k="parking:right" v="no"/>
    <tag k="sidewalk:left" v="no"/>
    <tag k="sidewalk:right" v="separate"/>
    <tag k="surface" v="paving_stones"/>
  </way>
  <way id="17990172" version="23" timestamp="2024-05-16T15:28:36Z" changeset="151414303" uid="14742734" user="The_Nickname">
    <nd ref="30860507"/>
    <nd ref="3158021591"/>
    <nd ref="516435072"/>
    <tag k="cycleway:both" v="shared_lane"/>
    <tag k="cycleway:both:lane" v="pictogram"/>
    <tag k="highway" v="unclassified"/>
    <tag k="lane_markings" v="no"/>
    <tag k="lit" v="yes"/>
    <tag k="motorcar" v="private"/>
    <tag k="name" v="Toni-Merkens-Weg"/>
    <tag k="sidewalk" v="right"/>
    <tag k="sidewalk:right:surface" v="asphalt"/>
    <tag k="surface" v="asphalt"/>
  </way>
  <way id="22718141" version="13" timestamp="2025-01-11T18:34:03Z" changeset="161248961" uid="2815653" user="DaxServer">
    <nd ref="243667950"/>
    <nd ref="21042285"/>
    <tag k="bicycle" v="no"/>
    <tag k="bridge" v="yes"/>
    <tag k="foot" v="use_sidepath"/>
    <tag k="highway" v="secondary"/>
    <tag k="layer" v="1"/>
    <tag k="maxspeed" v="50"/>
    <tag k="maxweight:signed" v="no"/>
    <tag k="name" v="Landshuter Allee"/>
    <tag k="name:etymology:wikidata" v="Q3974"/>
    <tag k="oneway" v="yes"/>
    <tag k="sidewalk" v="no"/>
    <tag k="surface" v="asphalt"/>
    <tag k="wikidata" v="Q1604867"/>
  </way>
  <way id="22718143" version="18" timestamp="2025-03-23T08:58:30Z" changeset="163976651" uid="44217" user="kjon">
    <nd ref="21042286"/>
    <nd ref="243667949"/>
    <tag k="bicycle" v="no"/>
    <tag k="bridge" v="yes"/>
    <tag k="foot" v="use_sidepath"/>
    <tag k="highway" v="trunk_link"/>
    <tag k="layer" v="1"/>
    <tag k="maxspeed" v="50"/>
    <tag k="maxweight:signed" v="no"/>
    <tag k="name" v="Landshuter Allee"/>
    <tag k="name:etymology:wikidata" v="Q3974"/>
    <tag k="oneway" v="yes"/>
    <tag k="parking:both" v="no"/>
    <tag k="sidewalk" v="no"/>
    <tag k="surface" v="asphalt"/>
    <tag k="wikidata" v="Q1604867"/>
  </way>
  <way id="22718144" version="19" timestamp="2025-03-23T08:58:30Z" changeset="163976651" uid="44217" user="kjon">
    <nd ref="21042285"/>
    <nd ref="433271155"/>
    <nd ref="295588"/>
    <tag k="bicycle" v="no"/>
    <tag k="foot" v="use_sidepath"/>
    <tag k="highway" v="trunk_link"/>
    <tag k="lane_markings" v="no"/>
    <tag k="lit" v="yes"/>
    <tag k="maxspeed" v="50"/>
    <tag k="oneway" v="yes"/>
    <tag k="parking:both" v="no"/>
    <tag k="sidewalk" v="no"/>
    <tag k="surface" v="asphalt"/>
  </way>
  <way id="22919447" version="36" timestamp="2024-11-24T09:10:15Z" changeset="159525116" uid="20085156" user="map per StreetComplete">
    <nd ref="15752382"/>
    <nd ref="6032184690"/>
    <nd ref="331036086"/>
    <nd ref="1021285770"/>
    <nd ref="5837932480"/>
    <nd ref="16259438"/>
    <nd ref="16259241"/>
    <nd ref="5837932479"/>
    <nd ref="1351686613"/>
    <nd ref="10172985753"/>
    <nd ref="1343779943"/>
    <nd ref="16259417"/>
    <nd ref="1021285808"/>
    <nd ref="5853146208"/>
    <nd ref="1680153091"/>
    <nd ref="5853146211"/>
    <nd ref="16259366"/>
    <nd ref="5853146212"/>
    <nd ref="1021285610"/>
    <nd ref="5853146210"/>
    <nd ref="16259362"/>
    <nd ref="5853146209"/>
    <nd ref="1021285613"/>
    <nd ref="9953511690"/>
    <nd ref="16259284"/>
    <nd ref="9953511691"/>
    <nd ref="16259394"/>
    <nd ref="9953511692"/>
    <nd ref="16259316"/>
    <nd ref="9953511693"/>
    <nd ref="9953511694"/>
    <nd ref="4549493342"/>
    <nd ref="9953511695"/>
    <nd ref="9953511696"/>
    <nd ref="1680153084"/>
    <nd ref="7417251831"/>
    <nd ref="158713111"/>
    <nd ref="9953511697"/>
    <nd ref="1077715246"/>
    <nd ref="9672719292"/>
    <nd ref="427749818"/>
    <tag k="bicycle" v="yes"/>
    <tag k="bus" v="yes"/>
    <tag k="class:bicycle" v="2"/>
    <tag k="cycleway:both" v="no"/>
    <tag k="highway" v="unclassified"/>
    <tag k="lanes" v="2"/>
    <tag k="motor_vehicle" v="private"/>
    <tag k="name" v="Spiridon-Louis-Ring"/>
    <tag k="name:etymology:wikidata" v="Q202424"/>
    <tag k="psv" v="yes"/>
    <tag k="sidewalk" v="no"/>
    <tag k="smoothness" v="excellent"/>
    <tag k="surface" v="asphalt"/>
  </way>
  <way id="24049305" version="35" timestamp="2024-11-12T14:20:34Z" changeset="159052490" uid="18493611" user="MunichWays">
    <nd ref="30860507"/>
    <nd ref="16259542"/>
    <nd ref="36664676"/>
    <nd ref="36664678"/>
    <nd ref="15752367"/>
    <nd ref="16259541"/>
    <nd ref="15752369"/>
    <nd ref="9934667829"/>
    <nd ref="1590649709"/>
    <nd ref="15752372"/>
    <nd ref="1364755339"/>
    <nd ref="15752376"/>
    <nd ref="1342607575"/>
    <tag k="bicycle" v="official"/>
    <tag k="bicycle_road" v="yes"/>
    <tag k="class:bicycle" v="3"/>
    <tag k="highway" v="unclassified"/>
    <tag k="lane_markings" v="no"/>
    <tag k="lit" v="yes"/>
    <tag k="motor_vehicle" v="destination"/>
    <tag k="name" v="Willi-Gebhardt-Ufer"/>
    <tag k="name:etymology:wikidata" v="Q1803767"/>
    <tag k="sidewalk" v="separate"/>
    <tag k="smoothness" v="excellent"/>
    <tag k="surface" v="asphalt"/>
  </way>
  <way id="24057067" version="23" timestamp="2025-03-23T08:58:30Z" changeset="163976651" uid="44217" user="kjon">
    <nd ref="260967529"/>
    <nd ref="1038302992"/>
    <nd ref="9934668597"/>
    <nd ref="9934668598"/>
    <nd ref="260967570"/>
    <nd ref="9934668599"/>
    <nd ref="260967572"/>
    <nd ref="529345992"/>
    <nd ref="260967573"/>
    <tag k="cycleway:both" v="no"/>
    <tag k="foot" v="no"/>
    <tag k="highway" v="trunk_link"/>
    <tag k="lanes" v="1"/>
    <tag k="lit" v="yes"/>
    <tag k="maxspeed" v="50"/>
    <tag k="name" v="Dachauer Straße"/>
    <tag k="oneway" v="yes"/>
    <tag k="parking:both" v="no"/>
    <tag k="sidewalk" v="no"/>
    <tag k="surface" v="asphalt"/>
  </way>
  <way id="27822841" version="10" timestamp="2025-03-22T21:16:15Z" changeset="163964538" uid="44217" user="kjon">
    <nd ref="21035975"/>
    <nd ref="21035971"/>
    <nd ref="241778638"/>
    <tag k="bicycle" v="use_sidepath"/>
    <tag k="foot" v="use_sidepath"/>
    <tag k="highway" v="secondary"/>
    <tag k="lit" v="yes"/>
    <tag k="maxspeed" v="50"/>
    <tag k="name" v="Schwere-Reiter-Straße"/>
    <tag k="name:etymology:wikidata" v="Q1660893"/>
    <tag k="oneway" v="yes"/>
    <tag k="parking:both" v="no"/>
    <tag k="surface" v="asphalt"/>
  </way>
  <way id="27822842" version="23" timestamp="2025-03-22T21:16:15Z" changeset="163964538" uid="44217" user="kjon">
    <nd ref="241778638"/>
    <nd ref="16259420"/>
    <nd ref="16259331"/>
    <nd ref="401307393"/>
    <nd ref="1021203784"/>
    <nd ref="1021203753"/>
    <nd ref="36662875"/>
    <nd ref="16259237"/>
    <nd ref="36662816"/>
    <nd ref="3865520248"/>
    <nd ref="1555429497"/>
    <nd ref="342010613"/>
    <tag k="bicycle" v="use_sidepath"/>
    <tag k="foot" v="use_sidepath"/>
    <tag k="highway" v="secondary"/>
    <tag k="lanes" v="3"/>
    <tag k="lit" v="yes"/>
    <tag k="maxspeed" v="50"/>
    <tag k="name" v="Schwere-Reiter-Straße"/>
    <tag k="name:etymology:wikidata" v="Q1660893"/>
    <tag k="oneway" v="yes"/>
    <tag k="parking:both" v="no"/>
    <tag k="sidewalk:left" v="no"/>
    <tag k="sidewalk:right" v="separate"/>
    <tag k="source" v="Bing"/>
    <tag k="surface" v="asphalt"/>
  </way>
  <way id="27822844" version="12" timestamp="2023-11-08T23:47:26Z" changeset="143801725" uid="3075580" user="Linda89">
    <nd ref="21035971"/>
    <nd ref="401305165"/>
    <nd ref="3348497397"/>
    <nd ref="1078756839"/>
    <nd ref="1021203724"/>
    <nd ref="266740994"/>
    <tag k="cycleway:both" v="separate"/>
    <tag k="foot" v="use_sidepath"/>
    <tag k="highway" v="secondary"/>
    <tag k="lit" v="yes"/>
    <tag k="maxspeed" v="50"/>
    <tag k="name" v="Ackermannstraße"/>
    <tag k="oneway" v="yes"/>
    <tag k="surface" v="asphalt"/>
  </way>
  <way id="30816698" version="36" timestamp="2025-03-22T21:16:15Z" changeset="163964538" uid="44217" user="kjon">
    <nd ref="16259472"/>
    <nd ref="1813187114"/>
    <nd ref="342010621"/>
    <tag k="bicycle" v="use_sidepath"/>
    <tag k="foot" v="use_sidepath"/>
    <tag k="highway" v="secondary"/>
    <tag k="lanes" v="3"/>
    <tag k="lit" v="yes"/>
    <tag k="maxspeed" v="50"/>
    <tag k="name" v="Dachauer Straße"/>
    <tag k="oneway" v="yes"/>
    <tag k="parking:both" v="no"/>
    <tag k="sidewalk:left" v="no"/>
    <tag k="sidewalk:right" v="separate"/>
    <tag k="surface" v="asphalt"/>
    <tag k="tmc" v="DE:27960/27961"/>
    <tag k="turn:lanes" v="through|through|through"/>
  </way>
  <way id="30816699" version="26" timestamp="2025-03-22T21:16:15Z" changeset="163964538" uid="44217" user="kjon">
    <nd ref="16259472"/>
    <nd ref="1971287938"/>
    <nd ref="5478938795"/>
    <nd ref="774448426"/>
    <nd ref="401307390"/>
    <nd ref="16259287"/>
    <tag k="bicycle" v="use_sidepath"/>
    <tag k="foot" v="use_sidepath"/>
    <tag k="highway" v="secondary"/>
    <tag k="lanes" v="3"/>
    <tag k="lit" v="yes"/>
    <tag k="maxspeed" v="50"/>
    <tag k="name" v="Leonrodstraße"/>
    <tag k="oneway" v="yes"/>
    <tag k="parking:both" v="no"/>
    <tag k="sidewalk:left" v="no"/>
    <tag k="sidewalk:right" v="separate"/>
    <tag k="surface" v="asphalt"/>
    <tag k="turn:lanes" v="left|through|through"/>
  </way>
  <way id="31567915" version="13" timestamp="2023-12-26T19:28:07Z" changeset="145546446" uid="14742734" user="The_Nickname">
    <nd ref="1046355263"/>
    <nd ref="353231900"/>
    <tag k="class:bicycle" v="1"/>
    <tag k="cycleway" v="opposite_track"/>
    <tag k="highway" v="residential"/>
    <tag k="lit" v="yes"/>
    <tag k="maxspeed" v="30"/>
    <tag k="name" v="Emma-Ihrer-Straße"/>
    <tag k="name:etymology:wikidata" v="Q108635"/>
    <tag k="oneway" v="yes"/>
    <tag k="sidewalk" v="both"/>
    <tag k="surface" v="asphalt"/>
  </way>
  <way id="31568181" version="13" timestamp="2024-05-22T23:01:36Z" changeset="151699428" uid="14742734" user="The_Nickname">
    <nd ref="36662809"/>
    <nd ref="4292255229"/>
    <nd ref="1021285858"/>
    <nd ref="4292255228"/>
    <nd ref="36662810"/>
    <tag k="class:bicycle" v="-1"/>
    <tag k="highway" v="residential"/>
    <tag k="lit" v="yes"/>
    <tag k="maxspeed" v="30"/>
    <tag k="name" v="Rosa-Luxemburg-Platz"/>
    <tag k="name:etymology:wikidata" v="Q7231"/>
    <tag k="sidewalk:both" v="separate"/>
    <tag k="smoothness" v="intermediate"/>
    <tag k="surface" v="sett"/>
  </way>
  <way id="32562146" version="10" timestamp="2024-05-31T05:28:01Z" changeset="152062266" uid="4327126" user="roho27283">
    <nd ref="366229990"/>
    <nd ref="366229991"/>
    <nd ref="366229992"/>
    <nd ref="366229994"/>
    <nd ref="366229995"/>
    <nd ref="366229996"/>
    <nd ref="3280469455"/>
    <nd ref="366229997"/>
    <nd ref="366229999"/>
    <nd ref="366230000"/>
    <nd ref="366230001"/>
    <nd ref="366230003"/>
    <nd ref="366230004"/>
    <nd ref="366229990"/>
    <tag k="addr:housename" v="Gebäude 1"/>
    <tag k="building" v="government"/>
    <tag k="name" v="Karriereberatung der Bundeswehr &amp; Bundeswehr Verwaltungszentrum"/>
  </way>
  <way id="32562183" version="17" timestamp="2024-06-14T13:02:10Z" changeset="152677542" uid="14742734" user="The_Nickname">
    <nd ref="366230890"/>
    <nd ref="366230891"/>
    <nd ref="366230892"/>
    <nd ref="366230894"/>
    <nd ref="366230896"/>
    <nd ref="366230898"/>
    <nd ref="366230901"/>
    <nd ref="366230903"/>
    <nd ref="366230905"/>
    <nd ref="366230908"/>
    <nd ref="366230910"/>
    <nd ref="366230912"/>
    <nd ref="366230915"/>
    <nd ref="366230847"/>
    <nd ref="6048526792"/>
    <nd ref="6048526790"/>
    <nd ref="6048526789"/>
    <nd ref="6048526788"/>
    <nd ref="6048526791"/>
    <nd ref="366230848"/>
    <nd ref="6048526809"/>
    <nd ref="6048526808"/>
    <nd ref="6048526807"/>
    <nd ref="6048526806"/>
    <nd ref="6048526805"/>
    <nd ref="6048526804"/>
    <nd ref="6048526803"/>
    <nd ref="6048526802"/>
    <nd ref="366230850"/>
    <nd ref="366230852"/>
    <nd ref="6048526801"/>
    <nd ref="6048526800"/>
    <nd ref="366230854"/>
    <nd ref="6048526799"/>
    <nd ref="366230857"/>
    <nd ref="6048526798"/>
    <nd ref="366230860"/>
    <nd ref="366230862"/>
    <nd ref="366230864"/>
    <nd ref="366230866"/>
    <nd ref="366230868"/>
    <nd ref="366230871"/>
    <nd ref="366230873"/>
    <nd ref="366230875"/>
    <nd ref="366230876"/>
    <nd ref="1166680514"/>
    <nd ref="6048526797"/>
    <nd ref="6048526796"/>
    <nd ref="6048526795"/>
    <nd ref="366230878"/>
    <nd ref="366230879"/>
    <nd ref="366230880"/>
    <nd ref="366230881"/>
    <nd ref="366230883"/>
    <nd ref="366230884"/>
    <nd ref="1014521828"/>
    <nd ref="366230885"/>
    <nd ref="366230886"/>
    <nd ref="6048526794"/>
    <nd ref="6048526793"/>
    <nd ref="366230888"/>
    <nd ref="366230890"/>
    <tag k="addr:housename" v="Gebäude 2"/>
    <tag k="addr:street" v="Dachauer Straße"/>
    <tag k="amenity" v="public_building"/>
    <tag k="building" v="government"/>
    <tag k="name" v="Bundeswehr Sozialdienst &amp; BWI &amp; Bundesamt für Infrastruktur, Umweltschutz und Dienstleistungen der Bundeswehr"/>
  </way>
  <way id="32562239" version="16" timestamp="2023-03-27T16:35:46Z" changeset="134186169" uid="14742734" user="The_Nickname">
    <nd ref="6048526828"/>
    <nd ref="1037458442"/>
    <nd ref="537703580"/>
    <nd ref="10159114865"/>
    <nd ref="1361247542"/>
    <nd ref="366233147"/>
    <nd ref="1361247547"/>
    <nd ref="366233145"/>
    <nd ref="3266981249"/>
    <nd ref="6048526828"/>
    <tag k="access" v="private"/>
    <tag k="addr:city" v="München"/>
    <tag k="addr:country" v="DE"/>
    <tag k="addr:housename" v="Gebäude 3"/>
    <tag k="addr:housenumber" v="128"/>
    <tag k="addr:postcode" v="80637"/>
    <tag k="addr:street" v="Dachauer Straße"/>
    <tag k="amenity" v="parking"/>
    <tag k="building" v="parking"/>
    <tag k="parking" v="multi-storey"/>
  </way>
  <way id="32562254" version="15" timestamp="2022-08-08T10:40:22Z" changeset="124632675" uid="14742734" user="The_Nickname">
    <nd ref="366233580"/>
    <nd ref="1014521837"/>
    <nd ref="3267078145"/>
    <nd ref="366233583"/>
    <nd ref="1014521763"/>
    <nd ref="1014521771"/>
    <nd ref="1014521776"/>
    <nd ref="1014521783"/>
    <nd ref="366233584"/>
    <nd ref="366233585"/>
    <nd ref="366233586"/>
    <nd ref="366233588"/>
    <nd ref="366233589"/>
    <nd ref="366233580"/>
    <tag k="addr:housename" v="Gebäude 4"/>
    <tag k="addr:housenumber" v="128"/>
    <tag k="addr:street" v="Dachauer Straße"/>
    <tag k="building" v="government"/>
  </way>
  <way id="32885349" version="12" timestamp="2024-12-17T18:57:54Z" changeset="160316587" uid="8353937" user="Helge Kreutzmannn">
    <nd ref="36663271"/>
    <nd ref="500348116"/>
    <nd ref="3274614028"/>
    <nd ref="6070747964"/>
    <nd ref="1021285685"/>
    <nd ref="28105175"/>
    <tag k="class:bicycle" v="1"/>
    <tag k="highway" v="residential"/>
    <tag k="lit" v="yes"/>
    <tag k="maxspeed" v="30"/>
    <tag k="name" v="Hedwig-Dransfeld-Allee"/>
    <tag k="oneway" v="no"/>
    <tag k="sidewalk:left" v="separate"/>
    <tag k="sidewalk:right" v="no"/>
    <tag k="smoothness" v="good"/>
    <tag k="surface" v="asphalt"/>
  </way>
  <way id="37295461" version="14" timestamp="2023-10-22T16:43:00Z" changeset="142976478" uid="18493611" user="MunichWays">
    <nd ref="36663269"/>
    <nd ref="3280469449"/>
    <nd ref="36663367"/>
    <tag k="class:bicycle" v="2"/>
    <tag k="cycleway:both" v="no"/>
    <tag k="highway" v="residential"/>
    <tag k="lit" v="yes"/>
    <tag k="maxspeed" v="30"/>
    <tag k="name" v="Hedwig-Dransfeld-Allee"/>
    <tag k="oneway" v="no"/>
    <tag k="parking:both" v="no"/>
    <tag k="sidewalk:left" v="no"/>
    <tag k="sidewalk:right" v="separate"/>
    <tag k="smoothness" v="good"/>
    <tag k="surface" v="asphalt"/>
  </way>
  <way id="37808127" version="10" timestamp="2023-03-31T15:58:19Z" changeset="134351662" uid="14742734" user="The_Nickname">
    <nd ref="443455034"/>
    <nd ref="443455036"/>
    <nd ref="443455037"/>
    <nd ref="443455039"/>
    <nd ref="443455040"/>
    <nd ref="443455041"/>
    <nd ref="443455043"/>
    <nd ref="443455046"/>
    <nd ref="443455048"/>
    <nd ref="443455050"/>
    <nd ref="443455052"/>
    <nd ref="443455053"/>
    <nd ref="443455055"/>
    <nd ref="2090525264"/>
    <nd ref="2090525266"/>
    <nd ref="443455056"/>
    <nd ref="443455057"/>
    <nd ref="1021285762"/>
    <nd ref="1021285833"/>
    <nd ref="2727500252"/>
    <nd ref="1021285612"/>
    <nd ref="1021285659"/>
    <nd ref="443455034"/>
    <tag k="addr:city" v="München"/>
    <tag k="addr:housenumber" v="19"/>
    <tag k="addr:postcode" v="80637"/>
    <tag k="addr:street" v="Gertrud-Bäumer-Straße"/>
    <tag k="building" v="school"/>
    <tag k="roof:colour" v="grey"/>
    <tag k="roof:shape" v="flat"/>
  </way>
  <way id="40617587" version="10" timestamp="2023-03-19T15:31:47Z" changeset="133862750" uid="14742734" user="The_Nickname">
    <nd ref="493316540"/>
    <nd ref="493316545"/>
    <nd ref="493316553"/>
    <nd ref="1110597462"/>
    <nd ref="493316559"/>
    <nd ref="1401067053"/>
    <nd ref="493316574"/>
    <nd ref="493316577"/>
    <nd ref="527829428"/>
    <nd ref="493316580"/>
    <nd ref="1401067040"/>
    <nd ref="1110597453"/>
    <nd ref="493316583"/>
    <nd ref="493316587"/>
    <nd ref="1401067035"/>
    <nd ref="1401067037"/>
    <nd ref="493316591"/>
    <nd ref="3699237109"/>
    <nd ref="3699237114"/>
    <nd ref="1401067044"/>
    <nd ref="493316594"/>
    <nd ref="1401067046"/>
    <nd ref="493316540"/>
    <tag k="addr:housename" v="Gebäude 14"/>
    <tag k="building" v="government"/>
    <tag k="name" v="Behördenkantine"/>
  </way>
  <way id="40680721" version="20" timestamp="2023-06-29T20:54:34Z" changeset="137934032" uid="14742734" user="The_Nickname">
    <nd ref="354436783"/>
    <nd ref="4958676728"/>
    <tag k="bicycle" v="use_sidepath"/>
    <tag k="bridge" v="yes"/>
    <tag k="foot" v="use_sidepath"/>
    <tag k="highway" v="secondary"/>
    <tag k="lanes" v="3"/>
    <tag k="layer" v="1"/>
    <tag k="lit" v="yes"/>
    <tag k="maxspeed" v="60"/>
    <tag k="maxweight:signed" v="no"/>
    <tag k="name" v="Dachauer Straße"/>
    <tag k="oneway" v="yes"/>
    <tag k="parking:both" v="no"/>
    <tag k="shoulder" v="no"/>
    <tag k="sidewalk:left" v="no"/>
    <tag k="sidewalk:right" v="separate"/>
    <tag k="smoothness" v="good"/>
    <tag k="surface" v="asphalt"/>
    <tag k="tmc" v="DE:27961/46568"/>
    <tag k="traffic_sign" v="DE:114"/>
    <tag k="turn:lanes" v="slight_left|none|none"/>
  </way>
  <way id="41186310" version="19" timestamp="2025-03-22T21:16:15Z" changeset="163964538" uid="44217" user="kjon">
    <nd ref="36663204"/>
    <nd ref="3280485293"/>
    <nd ref="3267014431"/>
    <nd ref="10761650568"/>
    <nd ref="28100211"/>
    <tag k="class:bicycle" v="2"/>
    <tag k="foot" v="yes"/>
    <tag k="hgv" v="no"/>
    <tag k="highway" v="residential"/>
    <tag k="lit" v="yes"/>
    <tag k="maxspeed" v="30"/>
    <tag k="name" v="Dachauer Straße"/>
    <tag k="oneway" v="no"/>
    <tag k="parking:lane:left:perpendicular" v="on_kerb"/>
    <tag k="parking:lane:right:parallel" v="on_kerb"/>
    <tag k="parking:left" v="yes"/>
    <tag k="parking:left:orientation" v="perpendicular"/>
    <tag k="parking:right" v="yes"/>
    <tag k="parking:right:orientation" v="parallel"/>
    <tag k="service" v="parking_aisle"/>
    <tag k="sidewalk:left" v="no"/>
    <tag k="sidewalk:right" v="separate"/>
    <tag k="smoothness" v="good"/>
    <tag k="surface" v="asphalt"/>
  </way>
  <way id="41821252" version="11" timestamp="2024-05-16T15:28:36Z" changeset="151414303" uid="14742734" user="The_Nickname">
    <nd ref="186181395"/>
    <nd ref="516435072"/>
    <tag k="bridge" v="yes"/>
    <tag k="class:bicycle" v="1"/>
    <tag k="cycleway:both" v="no"/>
    <tag k="highway" v="unclassified"/>
    <tag k="lane_markings" v="no"/>
    <tag k="layer" v="1"/>
    <tag k="maxweight:signed" v="no"/>
    <tag k="name" v="Toni-Merkens-Weg"/>
    <tag k="sidewalk" v="left"/>
    <tag k="sidewalk:left:surface" v="concrete"/>
    <tag k="smoothness" v="good"/>
    <tag k="surface" v="asphalt"/>
  </way>
  <way id="42299454" version="9" timestamp="2024-05-16T15:29:16Z" changeset="151414296" uid="14742734" user="The_Nickname">
    <nd ref="527829418"/>
    <nd ref="1038199368"/>
    <nd ref="527829285"/>
    <nd ref="500345972"/>
    <tag k="cycleway:both" v="no"/>
    <tag k="highway" v="residential"/>
    <tag k="lane_markings" v="no"/>
    <tag k="name" v="Hedwig-Dransfeld-Allee"/>
    <tag k="sidewalk" v="no"/>
    <tag k="surface" v="asphalt"/>
  </way>
  <way id="42750092" version="10" timestamp="2023-12-26T19:39:56Z" changeset="145547426" uid="14742734" user="The_Nickname">
    <nd ref="534592691"/>
    <nd ref="534592693"/>
    <nd ref="4583816275"/>
    <nd ref="2727479301"/>
    <nd ref="534592695"/>
    <nd ref="534592697"/>
    <nd ref="11456414423"/>
    <nd ref="2727479341"/>
    <nd ref="2727479283"/>
    <nd ref="534592700"/>
    <nd ref="534592702"/>
    <nd ref="11456414422"/>
    <nd ref="534592705"/>
    <nd ref="1138011578"/>
    <nd ref="1138011595"/>
    <nd ref="10776055782"/>
    <nd ref="4583816274"/>
    <nd ref="534592706"/>
    <nd ref="1138011570"/>
    <nd ref="534592707"/>
    <nd ref="10776055777"/>
    <nd ref="534592708"/>
    <nd ref="534592709"/>
    <nd ref="534592691"/>
    <tag k="building" v="apartments"/>
    <tag k="name" v="Helios-Center"/>
    <tag k="roof:colour" v="grey"/>
    <tag k="roof:shape" v="hipped"/>
  </way>
  <way id="42750221" version="22" timestamp="2025-03-22T21:16:15Z" changeset="163964538" uid="44217" user="kjon">
    <nd ref="363212"/>
    <nd ref="1038199307"/>
    <nd ref="3163219269"/>
    <tag k="bicycle" v="use_sidepath"/>
    <tag k="foot" v="use_sidepath"/>
    <tag k="highway" v="secondary"/>
    <tag k="lanes" v="2"/>
    <tag k="lit" v="yes"/>
    <tag k="maxspeed" v="60"/>
    <tag k="name" v="Dachauer Straße"/>
    <tag k="oneway" v="yes"/>
    <tag k="parking:both" v="no"/>
    <tag k="shoulder" v="no"/>
    <tag k="sidewalk:left" v="no"/>
    <tag k="sidewalk:right" v="separate"/>
    <tag k="smoothness" v="excellent"/>
    <tag k="surface" v="asphalt"/>
    <tag k="tmc" v="DE:27960/27961"/>
    <tag k="turn:lanes" v="through|through"/>
  </way>
  <way id="42929448" version="11" timestamp="2023-03-27T16:35:46Z" changeset="134186169" uid="14742734" user="The_Nickname">
    <nd ref="537703580"/>
    <nd ref="10159114867"/>
    <nd ref="537705152"/>
    <nd ref="537705155"/>
    <nd ref="537705159"/>
    <nd ref="10748954933"/>
    <nd ref="537705165"/>
    <nd ref="537705168"/>
    <nd ref="3266981247"/>
    <nd ref="537705171"/>
    <nd ref="537705179"/>
    <nd ref="537705186"/>
    <nd ref="537705191"/>
    <nd ref="1037458442"/>
    <nd ref="537703580"/>
    <tag k="access" v="private"/>
    <tag k="addr:city" v="München"/>
    <tag k="addr:country" v="DE"/>
    <tag k="addr:housename" v="Parkhaus"/>
    <tag k="addr:housenumber" v="128"/>
    <tag k="addr:postcode" v="80637"/>
    <tag k="addr:street" v="Dachauer Straße"/>
    <tag k="amenity" v="parking"/>
    <tag k="building" v="parking"/>
    <tag k="parking" v="multi-storey"/>
  </way>
  <way id="42929831" version="13" timestamp="2023-12-28T12:52:38Z" changeset="145618341" uid="14742734" user="The_Nickname">
    <nd ref="36663693"/>
    <nd ref="3263082762"/>
    <nd ref="3257833653"/>
    <nd ref="2495330052"/>
    <nd ref="3263082797"/>
    <nd ref="28105175"/>
    <tag k="cycleway:both" v="no"/>
    <tag k="highway" v="residential"/>
    <tag k="lit" v="yes"/>
    <tag k="maxspeed" v="30"/>
    <tag k="name" v="Hedwig-Dransfeld-Allee"/>
    <tag k="sidewalk:both" v="separate"/>
    <tag k="surface" v="asphalt"/>
  </way>
  <way id="43131310" version="14" timestamp="2024-05-16T15:28:44Z" changeset="151414318" uid="14742734" user="The_Nickname">
    <nd ref="540359486"/>
    <nd ref="1494528577"/>
    <nd ref="1494528580"/>
    <nd ref="2727469318"/>
    <nd ref="2727469315"/>
    <nd ref="540359487"/>
    <nd ref="540359494"/>
    <nd ref="540359498"/>
    <nd ref="540359486"/>
    <tag k="addr:city" v="München"/>
    <tag k="addr:country" v="DE"/>
    <tag k="addr:housenumber" v="7"/>
    <tag k="addr:postcode" v="80637"/>
    <tag k="addr:street" v="Helene-Weber-Allee"/>
    <tag k="amenity" v="dormitory"/>
    <tag k="building" v="dormitory"/>
    <tag k="building:colour" v="yellow"/>
    <tag k="building:levels" v="5"/>
    <tag k="historic" v="building"/>
    <tag k="name" v="Pionierkaserne"/>
    <tag k="old_name" v="Ehem. Militärgebäude des Eisenbahn-Bataillons"/>
    <tag k="roof:colour" v="grey"/>
    <tag k="roof:levels" v="1"/>
    <tag k="roof:shape" v="gabled"/>
    <tag k="start_date" v="late C19"/>
  </way>
  <way id="43131324" version="9" timestamp="2023-12-28T13:36:40Z" changeset="145620287" uid="14742734" user="The_Nickname">
    <nd ref="1361240576"/>
    <nd ref="1361240577"/>
    <nd ref="540359612"/>
    <nd ref="11462739230"/>
    <nd ref="540359611"/>
    <nd ref="2495329999"/>
    <nd ref="1361240576"/>
    <tag k="addr:city" v="München"/>
    <tag k="addr:country" v="DE"/>
    <tag k="addr:housename" v="Gebäude 16"/>
    <tag k="addr:housenumber" v="25"/>
    <tag k="addr:postcode" v="80637"/>
    <tag k="addr:street" v="Hedwig-Dransfeld-Allee"/>
    <tag k="building" v="apartments"/>
    <tag k="building:levels" v="3"/>
    <tag k="historic" v="building"/>
    <tag k="old_name" v="Ehem. Militärgebäude des Eisenbahn-Bataillons"/>
    <tag k="roof:levels" v="2"/>
    <tag k="roof:shape" v="hipped"/>
    <tag k="start_date" v="1913..1914"/>
  </way>
  <way id="43131331" version="12" timestamp="2024-05-16T15:28:44Z" changeset="151414320" uid="14742734" user="The_Nickname">
    <nd ref="540359615"/>
    <nd ref="10743666899"/>
    <nd ref="2495330065"/>
    <nd ref="540359616"/>
    <nd ref="540359617"/>
    <nd ref="540359618"/>
    <nd ref="540359615"/>
    <tag k="addr:housename" v="Gebäude 17"/>
    <tag k="addr:street" v="Hedwig-Dransfeld-Allee"/>
    <tag k="building" v="government"/>
    <tag k="building:colour" v="yellow"/>
    <tag k="name" v="Bundeswehr Dienstleistungszentrum"/>
    <tag k="old_name" v="Ehem. Militärgebäude des Eisenbahn-Bataillons"/>
    <tag k="roof:colour" v="maroon"/>
    <tag k="roof:shape" v="gabled"/>
    <tag k="start_date" v="1913..1914"/>
  </way>
  <way id="89455510" version="5" timestamp="2023-03-25T16:29:42Z" changeset="134110061" uid="14742734" user="The_Nickname">
    <nd ref="1037458409"/>
    <nd ref="1037458447"/>
    <nd ref="1037458439"/>
    <nd ref="1037458427"/>
    <nd ref="1037458409"/>
    <tag k="addr:housename" v="Gebäude 6"/>
    <tag k="building" v="guardhouse"/>
    <tag k="name" v="Wache"/>
  </way>
  <way id="89457142" version="12" timestamp="2024-05-16T17:07:24Z" changeset="151418669" uid="14742734" user="The_Nickname">
    <nd ref="1037481357"/>
    <nd ref="1037481387"/>
    <nd ref="11910332687"/>
    <nd ref="1037481294"/>
    <nd ref="1037481282"/>
    <nd ref="1037481341"/>
    <nd ref="1037481265"/>
    <nd ref="1037481257"/>
    <nd ref="1037481365"/>
    <nd ref="1037481361"/>
    <nd ref="1037481390"/>
    <nd ref="1037481278"/>
    <nd ref="1037481276"/>
    <nd ref="1037481309"/>
    <nd ref="1037481334"/>
    <nd ref="1037481357"/>
    <tag k="amenity" v="public_building"/>
    <tag k="building" v="government"/>
    <tag k="building:colour" v="tan"/>
    <tag k="historic" v="building"/>
    <tag k="name" v="Truppendienstgericht und Bundeswehr Dienstleistungszentrum"/>
    <tag k="old_name" v="Ehem. Militärgebäude des Eisenbahn-Bataillons"/>
    <tag k="roof:colour" v="black"/>
    <tag k="roof:shape" v="gabled"/>
    <tag k="start_date" v="1914"/>
    <tag k="wikimedia_commons" v="File:Truppendienstgericht Süd.jpg"/>
    <tag k="wikipedia" v="de:Truppendienstgericht Süd"/>
  </way>
  <way id="89457146" version="29" timestamp="2024-12-17T19:04:03Z" changeset="160316923" uid="8353937" user="Helge Kreutzmannn">
    <nd ref="1037481336"/>
    <nd ref="1037481389"/>
    <nd ref="1037481301"/>
    <nd ref="2727469316"/>
    <nd ref="1037481352"/>
    <nd ref="1037481336"/>
    <tag k="addr:city" v="München"/>
    <tag k="addr:country" v="DE"/>
    <tag k="addr:housename" v="Gebäude 19"/>
    <tag k="addr:housenumber" v="11"/>
    <tag k="addr:postcode" v="80637"/>
    <tag k="addr:street" v="Hedwig-Dransfeld-Allee"/>
    <tag k="building" v="government"/>
    <tag k="building:colour" v="#eecfaf"/>
    <tag k="check_date:opening_hours" v="2024-12-17"/>
    <tag k="contact:email" v="poststelle.lvby@thw.de"/>
    <tag k="contact:fax" v="+49 228 994531180"/>
    <tag k="contact:phone" v="+49 228 9945310"/>
    <tag k="contact:website" v="https://www.lv-by.thw.de/"/>
    <tag k="fixme" v="old_name=* klingt nicht wirklich nach einem Namen. Ist das nicht eher eine description=*?"/>
    <tag k="government" v="emergency"/>
    <tag k="historic" v="building"/>
    <tag k="name" v="THW Landesverband Bayern"/>
    <tag k="office" v="government"/>
    <tag k="old_name" v="Ehem. Militärgebäude des Eisenbahn-Bataillons"/>
    <tag k="opening_hours:signed" v="no"/>
    <tag k="operator" v="Bundesanstalt Technisches Hilfswerk"/>
    <tag k="operator:short" v="THW"/>
    <tag k="operator:wikidata" v="Q697698"/>
    <tag k="ref:thw" v="LVBY"/>
    <tag k="roof:colour" v="grey"/>
    <tag k="roof:shape" v="hipped"/>
    <tag k="start_date" v="late C19"/>
    <tag k="thw:lv" v="THW Landesverband Bayern"/>
    <tag k="wheelchair" v="no"/>
    <tag k="wikidata" v="Q121438076"/>
  </way>
  <way id="95305531" version="5" timestamp="2022-12-11T13:35:53Z" changeset="129962777" uid="14742734" user="The_Nickname">
    <nd ref="1105502732"/>
    <nd ref="1105502704"/>
    <nd ref="1105502755"/>
    <nd ref="1105502656"/>
    <nd ref="1105502740"/>
    <nd ref="1105502635"/>
    <nd ref="1105502732"/>
    <tag k="addr:city" v="München"/>
    <tag k="addr:housenumber" v="8"/>
    <tag k="addr:street" v="Helene-Lange-Weg"/>
    <tag k="amenity" v="kindergarten"/>
    <tag k="building" v="yes"/>
    <tag k="description:de" v="Städtische Kindertagesstätte"/>
    <tag k="roof:colour" v="grey"/>
    <tag k="roof:height" v="1"/>
    <tag k="roof:shape" v="gabled"/>
  </way>
  <way id="96685755" version="14" timestamp="2025-03-23T08:58:30Z" changeset="163976651" uid="44217" user="kjon">
    <nd ref="21042290"/>
    <nd ref="3659266604"/>
    <nd ref="3659266603"/>
    <nd ref="21042288"/>
    <tag k="bicycle" v="use_sidepath"/>
    <tag k="cycleway:both" v="no"/>
    <tag k="foot" v="use_sidepath"/>
    <tag k="highway" v="secondary_link"/>
    <tag k="lanes:backward" v="2"/>
    <tag k="lanes:forward" v="2"/>
    <tag k="maxheight" v="4.2"/>
    <tag k="maxspeed" v="50"/>
    <tag k="oneway" v="no"/>
    <tag k="parking:both" v="no"/>
    <tag k="sidewalk" v="no"/>
    <tag k="smoothness" v="intermediate"/>
    <tag k="surface" v="asphalt"/>
  </way>
  <way id="121663005" version="7" timestamp="2023-12-28T12:52:40Z" changeset="145618347" uid="14742734" user="The_Nickname">
    <nd ref="1361240574"/>
    <nd ref="540359613"/>
    <nd ref="540359614"/>
    <nd ref="2495329989"/>
    <nd ref="1361240572"/>
    <nd ref="1361240574"/>
    <tag k="addr:city" v="München"/>
    <tag k="addr:country" v="DE"/>
    <tag k="addr:housename" v="Gebäude 16"/>
    <tag k="addr:housenumber" v="21"/>
    <tag k="addr:postcode" v="80637"/>
    <tag k="addr:street" v="Hedwig-Dransfeld-Allee"/>
    <tag k="building" v="apartments"/>
    <tag k="building:levels" v="3"/>
    <tag k="historic" v="building"/>
    <tag k="old_name" v="Ehem. Militärgebäude des Eisenbahn-Bataillons"/>
    <tag k="roof:levels" v="2"/>
    <tag k="roof:shape" v="hipped"/>
    <tag k="start_date" v="1913..1914"/>
    <tag k="wikidata" v="Q98739147"/>
  </way>
  <way id="121663006" version="6" timestamp="2023-12-28T12:52:40Z" changeset="145618347" uid="14742734" user="The_Nickname">
    <nd ref="1361240572"/>
    <nd ref="2495329996"/>
    <nd ref="1361240576"/>
    <nd ref="1361240577"/>
    <nd ref="1361240574"/>
    <nd ref="1361240572"/>
    <tag k="addr:city" v="München"/>
    <tag k="addr:country" v="DE"/>
    <tag k="addr:housename" v="Gebäude 16"/>
    <tag k="addr:housenumber" v="23"/>
    <tag k="addr:postcode" v="80637"/>
    <tag k="addr:street" v="Hedwig-Dransfeld-Allee"/>
    <tag k="building" v="apartments"/>
    <tag k="building:levels" v="4"/>
    <tag k="historic" v="building"/>
    <tag k="old_name" v="Ehem. Militärgebäude des Eisenbahn-Bataillons"/>
    <tag k="roof:levels" v="1"/>
    <tag k="roof:shape" v="hipped"/>
    <tag k="start_date" v="1913..1914"/>
  </way>
  <way id="121663007" version="8" timestamp="2022-08-10T18:29:17Z" changeset="124744128" uid="14742734" user="The_Nickname">
    <nd ref="36663367"/>
    <nd ref="1110621812"/>
    <nd ref="1361240549"/>
    <nd ref="1361240563"/>
    <nd ref="28105179"/>
    <nd ref="500345508"/>
    <nd ref="1361240564"/>
    <nd ref="3280479089"/>
    <nd ref="1361240562"/>
    <nd ref="28105177"/>
    <nd ref="1578227675"/>
    <nd ref="36663173"/>
    <nd ref="1037481270"/>
    <nd ref="1479192179"/>
    <nd ref="28100211"/>
    <tag k="highway" v="residential"/>
    <tag k="maxspeed" v="30"/>
    <tag k="maxspeed:type" v="DE:zone30"/>
    <tag k="noname" v="yes"/>
    <tag k="oneway" v="yes"/>
    <tag k="sidewalk" v="separate"/>
    <tag k="surface" v="asphalt"/>
  </way>
  <way id="126760931" version="13" timestamp="2025-03-23T08:58:30Z" changeset="163976651" uid="44217" user="kjon">
    <nd ref="1391221749"/>
    <nd ref="553413202"/>
    <nd ref="260967573"/>
    <nd ref="361829"/>
    <nd ref="3761479193"/>
    <nd ref="354436783"/>
    <tag k="bicycle" v="use_sidepath"/>
    <tag k="foot" v="use_sidepath"/>
    <tag k="highway" v="secondary"/>
    <tag k="lanes" v="3"/>
    <tag k="maxspeed" v="60"/>
    <tag k="name" v="Dachauer Straße"/>
    <tag k="oneway" v="yes"/>
    <tag k="parking:both" v="no"/>
    <tag k="sidewalk:left" v="no"/>
    <tag k="sidewalk:right" v="separate"/>
    <tag k="surface" v="asphalt"/>
    <tag k="tmc" v="DE:27961/46568"/>
    <tag k="turn:lanes" v="slight_left|none|none"/>
  </way>
  <way id="126760942" version="11" timestamp="2025-01-11T18:34:03Z" changeset="161248961" uid="2815653" user="DaxServer">
    <nd ref="21042288"/>
    <nd ref="546144842"/>
    <nd ref="9934668459"/>
    <nd ref="243667950"/>
    <tag k="bicycle" v="use_sidepath"/>
    <tag k="foot" v="use_sidepath"/>
    <tag k="highway" v="secondary"/>
    <tag k="lanes" v="3"/>
    <tag k="maxspeed" v="30"/>
    <tag k="name" v="Landshuter Allee"/>
    <tag k="name:etymology:wikidata" v="Q3974"/>
    <tag k="oneway" v="yes"/>
    <tag k="sidewalk:left" v="no"/>
    <tag k="sidewalk:right" v="separate"/>
    <tag k="surface" v="asphalt"/>
    <tag k="wikidata" v="Q1604867"/>
  </way>
  <way id="126760943" version="11" timestamp="2025-01-11T18:34:03Z" changeset="161248961" uid="2815653" user="DaxServer">
    <nd ref="1391221749"/>
    <nd ref="348276861"/>
    <nd ref="348276882"/>
    <nd ref="21042290"/>
    <tag k="bicycle" v="use_sidepath"/>
    <tag k="foot" v="use_sidepath"/>
    <tag k="highway" v="secondary"/>
    <tag k="lanes" v="3"/>
    <tag k="lit" v="yes"/>
    <tag k="maxspeed" v="50"/>
    <tag k="name" v="Landshuter Allee"/>
    <tag k="name:etymology:wikidata" v="Q3974"/>
    <tag k="oneway" v="yes"/>
    <tag k="parking:both" v="no"/>
    <tag k="sidewalk:left" v="no"/>
    <tag k="sidewalk:right" v="separate"/>
    <tag k="smoothness" v="intermediate"/>
    <tag k="surface" v="asphalt"/>
    <tag k="wikidata" v="Q1604867"/>
  </way>
  <way id="126760944" version="12" timestamp="2025-03-23T08:58:30Z" changeset="163976651" uid="44217" user="kjon">
    <nd ref="1371997712"/>
    <nd ref="348276913"/>
    <nd ref="348276859"/>
    <nd ref="21042288"/>
    <tag k="bicycle" v="use_sidepath"/>
    <tag k="foot" v="use_sidepath"/>
    <tag k="highway" v="secondary"/>
    <tag k="lanes" v="3"/>
    <tag k="lit" v="yes"/>
    <tag k="maxspeed" v="50"/>
    <tag k="name" v="Landshuter Allee"/>
    <tag k="name:etymology:wikidata" v="Q3974"/>
    <tag k="oneway" v="yes"/>
    <tag k="parking:both" v="no"/>
    <tag k="sidewalk:left" v="no"/>
    <tag k="sidewalk:right" v="separate"/>
    <tag k="surface" v="asphalt"/>
    <tag k="turn:lanes" v="left|left|through"/>
    <tag k="wikidata" v="Q1604867"/>
  </way>
  <way id="135213847" version="19" timestamp="2025-03-23T08:58:30Z" changeset="163976651" uid="44217" user="kjon">
    <nd ref="20925124"/>
    <nd ref="1485148185"/>
    <nd ref="30631579"/>
    <tag k="bicycle" v="no"/>
    <tag k="destination" v="Lindau;Garmisch-Partenkirchen"/>
    <tag k="destination:ref" v="A 96;A 95"/>
    <tag k="foot" v="use_sidepath"/>
    <tag k="hgv" v="delivery"/>
    <tag k="highway" v="trunk"/>
    <tag k="lanes" v="2"/>
    <tag k="lit" v="yes"/>
    <tag k="maxspeed" v="50"/>
    <tag k="motorroad" v="no"/>
    <tag k="oneway" v="yes"/>
    <tag k="parking:both" v="no"/>
    <tag k="ref" v="B 2R"/>
    <tag k="sidewalk" v="no"/>
    <tag k="surface" v="asphalt"/>
    <tag k="tmc" v="DE:22697"/>
    <tag k="traffic_sign" v="DE:114"/>
  </way>
  <way id="138096037" version="9" timestamp="2023-11-24T16:46:41Z" changeset="144415163" uid="4238158" user="RiderOnTheStorm">
    <nd ref="1513951864"/>
    <nd ref="1513951859"/>
    <nd ref="11305970363"/>
    <nd ref="1513951862"/>
    <nd ref="1513951868"/>
    <nd ref="1513951872"/>
    <nd ref="1513951866"/>
    <nd ref="11305970357"/>
    <nd ref="1513951870"/>
    <nd ref="1513951877"/>
    <nd ref="1513951881"/>
    <nd ref="1513951874"/>
    <nd ref="11305970358"/>
    <nd ref="1513951879"/>
    <nd ref="1513951885"/>
    <nd ref="1513951889"/>
    <nd ref="1513951883"/>
    <nd ref="11305970362"/>
    <nd ref="1513951887"/>
    <nd ref="1513951893"/>
    <nd ref="1513951898"/>
    <nd ref="1513951891"/>
    <nd ref="11305970360"/>
    <nd ref="1513951895"/>
    <nd ref="1513951902"/>
    <nd ref="1513951905"/>
    <nd ref="1513951896"/>
    <nd ref="11305970355"/>
    <nd ref="1513951901"/>
    <nd ref="1513951908"/>
    <nd ref="1513951907"/>
    <nd ref="1513951906"/>
    <nd ref="1513951903"/>
    <nd ref="1513951904"/>
    <nd ref="1513951900"/>
    <nd ref="1513951899"/>
    <nd ref="11305970354"/>
    <nd ref="1513951894"/>
    <nd ref="1513951897"/>
    <nd ref="1513951892"/>
    <nd ref="1513951890"/>
    <nd ref="1513951886"/>
    <nd ref="1513951888"/>
    <nd ref="1513951884"/>
    <nd ref="1513951882"/>
    <nd ref="1513951878"/>
    <nd ref="1513951880"/>
    <nd ref="1513951875"/>
    <nd ref="1513951873"/>
    <nd ref="1513951869"/>
    <nd ref="1513951871"/>
    <nd ref="1513951867"/>
    <nd ref="1513951865"/>
    <nd ref="1513951861"/>
    <nd ref="1513951863"/>
    <nd ref="293900369"/>
    <nd ref="293900370"/>
    <nd ref="1513951858"/>
    <nd ref="1513951860"/>
    <nd ref="1513951864"/>
    <tag k="addr:city" v="München"/>
    <tag k="addr:country" v="DE"/>
    <tag k="addr:housenumber" v="32"/>
    <tag k="addr:postcode" v="80809"/>
    <tag k="addr:street" v="Willi-Gebhardt-Ufer"/>
    <tag k="amenity" v="school"/>
    <tag k="building" v="school"/>
    <tag k="name" v="Montessori-Schule im Olympiapark"/>
    <tag k="name:en" v="Montessori School in the Olympic Park"/>
    <tag k="operator" v="Montessori München e.V."/>
    <tag k="roof:colour" v="grey"/>
    <tag k="roof:shape" v="flat"/>
    <tag k="website" v="https://monte-muenchen.de/"/>
  </way>
  <way id="142109383" version="9" timestamp="2024-04-27T14:07:13Z" changeset="150581734" uid="4376164" user="redweizn">
    <nd ref="1555429497"/>
    <nd ref="1555429483"/>
    <nd ref="3348495799"/>
    <nd ref="1555429469"/>
    <nd ref="1555429447"/>
    <nd ref="1555429383"/>
    <tag k="cycleway:both" v="no"/>
    <tag k="highway" v="unclassified"/>
    <tag k="lane_markings" v="no"/>
    <tag k="maxspeed" v="50"/>
    <tag k="name" v="Schwere-Reiter-Straße"/>
    <tag k="name:etymology:wikidata" v="Q1660893"/>
    <tag k="sidewalk" v="no"/>
    <tag k="surface" v="asphalt"/>
  </way>
  <way id="146258682" version="20" timestamp="2025-03-23T08:58:30Z" changeset="163976651" uid="44217" user="kjon">
    <nd ref="30631580"/>
    <nd ref="643899398"/>
    <nd ref="9934668461"/>
    <tag k="bicycle" v="no"/>
    <tag k="bridge" v="yes"/>
    <tag k="foot" v="no"/>
    <tag k="hgv" v="delivery"/>
    <tag k="highway" v="trunk"/>
    <tag k="lanes" v="2"/>
    <tag k="layer" v="2"/>
    <tag k="lit" v="yes"/>
    <tag k="maxspeed" v="50"/>
    <tag k="name" v="Landshuter Allee"/>
    <tag k="name:etymology:wikidata" v="Q3974"/>
    <tag k="oneway" v="yes"/>
    <tag k="parking:both" v="no"/>
    <tag k="ref" v="B 2R"/>
    <tag k="shoulder" v="no"/>
    <tag k="sidewalk" v="no"/>
    <tag k="surface" v="asphalt"/>
    <tag k="tmc" v="DE:22697"/>
    <tag k="wikidata" v="Q1604867"/>
  </way>
  <way id="146258685" version="19" timestamp="2025-03-23T08:58:30Z" changeset="163976651" uid="44217" user="kjon">
    <nd ref="9934668462"/>
    <nd ref="7435583392"/>
    <nd ref="9934668460"/>
    <tag k="bicycle" v="no"/>
    <tag k="foot" v="no"/>
    <tag k="hgv" v="delivery"/>
    <tag k="highway" v="trunk"/>
    <tag k="lanes" v="2"/>
    <tag k="lit" v="yes"/>
    <tag k="maxspeed" v="50"/>
    <tag k="motorroad" v="no"/>
    <tag k="name" v="Landshuter Allee"/>
    <tag k="name:etymology:wikidata" v="Q3974"/>
    <tag k="oneway" v="yes"/>
    <tag k="parking:both" v="no"/>
    <tag k="ref" v="B 2R"/>
    <tag k="shoulder" v="no"/>
    <tag k="sidewalk" v="no"/>
    <tag k="surface" v="asphalt"/>
    <tag k="tmc" v="DE:22697"/>
    <tag k="traffic_sign" v="DE:114"/>
    <tag k="wikidata" v="Q1604867"/>
  </way>
  <way id="146980094" version="14" timestamp="2025-03-23T08:58:30Z" changeset="163976651" uid="44217" user="kjon">
    <nd ref="30631578"/>
    <nd ref="1601733905"/>
    <nd ref="295588"/>
    <tag k="bicycle" v="no"/>
    <tag k="foot" v="use_sidepath"/>
    <tag k="hgv" v="delivery"/>
    <tag k="highway" v="trunk"/>
    <tag k="lanes" v="2"/>
    <tag k="lit" v="yes"/>
    <tag k="maxspeed" v="50"/>
    <tag k="motorroad" v="no"/>
    <tag k="oneway" v="yes"/>
    <tag k="parking:both" v="no"/>
    <tag k="ref" v="B 2R"/>
    <tag k="sidewalk" v="no"/>
    <tag k="surface" v="asphalt"/>
    <tag k="tmc" v="DE:22697"/>
  </way>
  <way id="146980096" version="13" timestamp="2025-03-23T08:58:30Z" changeset="163976651" uid="44217" user="kjon">
    <nd ref="243667949"/>
    <nd ref="1653528114"/>
    <tag k="bicycle" v="use_sidepath"/>
    <tag k="foot" v="use_sidepath"/>
    <tag k="highway" v="trunk_link"/>
    <tag k="maxspeed" v="50"/>
    <tag k="name" v="Landshuter Allee"/>
    <tag k="name:etymology:wikidata" v="Q3974"/>
    <tag k="oneway" v="yes"/>
    <tag k="parking:both" v="no"/>
    <tag k="sidewalk" v="no"/>
    <tag k="surface" v="asphalt"/>
    <tag k="wikidata" v="Q1604867"/>
  </way>
  <way id="152524923" version="14" timestamp="2025-05-09T17:02:12Z" changeset="166037871" uid="12164053" user="barefootstache">
    <nd ref="342010621"/>
    <nd ref="361812"/>
    <nd ref="1629477214"/>
    <nd ref="36662764"/>
    <nd ref="1578220454"/>
    <nd ref="36663647"/>
    <nd ref="1038305022"/>
    <nd ref="1578220387"/>
    <nd ref="1038199349"/>
    <tag k="bicycle" v="use_sidepath"/>
    <tag k="foot" v="use_sidepath"/>
    <tag k="highway" v="secondary"/>
    <tag k="lanes" v="3"/>
    <tag k="lit" v="yes"/>
    <tag k="maxspeed" v="60"/>
    <tag k="name" v="Dachauer Straße"/>
    <tag k="oneway" v="yes"/>
    <tag k="parking:both" v="no"/>
    <tag k="sidewalk:left" v="no"/>
    <tag k="sidewalk:right" v="separate"/>
    <tag k="smoothness" v="good"/>
    <tag k="surface" v="asphalt"/>
    <tag k="tmc" v="DE:27960/27961"/>
    <tag k="turn:lanes" v="slight_left|none|none"/>
  </way>
  <way id="152539291" version="8" timestamp="2025-03-22T21:16:15Z" changeset="163964538" uid="44217" user="kjon">
    <nd ref="363212"/>
    <nd ref="502086559"/>
    <tag k="class:bicycle" v="1"/>
    <tag k="cycleway:both" v="separate"/>
    <tag k="highway" v="residential"/>
    <tag k="lit" v="yes"/>
    <tag k="maxspeed" v="30"/>
    <tag k="name" v="Hedwig-Dransfeld-Allee"/>
    <tag k="parking:both" v="no"/>
    <tag k="sidewalk" v="separate"/>
    <tag k="surface" v="asphalt"/>
  </way>
  <way id="152541394" version="13" timestamp="2025-01-12T12:17:08Z" changeset="161268959" uid="2815653" user="DaxServer">
    <nd ref="260967529"/>
    <nd ref="8405561867"/>
    <nd ref="529345972"/>
    <nd ref="1391221749"/>
    <tag k="bicycle" v="use_sidepath"/>
    <tag k="foot" v="use_sidepath"/>
    <tag k="highway" v="trunk_link"/>
    <tag k="lanes" v="3"/>
    <tag k="maxspeed" v="50"/>
    <tag k="name" v="Landshuter Allee"/>
    <tag k="name:etymology:wikidata" v="Q3974"/>
    <tag k="oneway" v="yes"/>
    <tag k="sidewalk:left" v="no"/>
    <tag k="sidewalk:right" v="separate"/>
    <tag k="surface" v="asphalt"/>
    <tag k="wikidata" v="Q1604867"/>
  </way>
  <way id="152547045" version="11" timestamp="2022-04-03T20:54:51Z" changeset="119278538" uid="12419129" user="Suny Kim">
    <nd ref="16527735"/>
    <nd ref="16259352"/>
    <tag k="highway" v="residential"/>
    <tag k="lit" v="yes"/>
    <tag k="maxspeed" v="30"/>
    <tag k="name" v="Elisabeth-Kohn-Straße"/>
    <tag k="name:etymology:wikidata" v="Q1330061"/>
    <tag k="surface" v="asphalt"/>
    <tag k="zone:maxspeed" v="DE:30"/>
    <tag k="zone:traffic" v="DE:urban"/>
  </way>
  <way id="157067001" version="13" timestamp="2024-10-28T06:46:46Z" changeset="158441410" uid="1928791" user="biker-2">
    <nd ref="186181395"/>
    <nd ref="8769389971"/>
    <nd ref="12252234374"/>
    <nd ref="186182841"/>
    <nd ref="10702385645"/>
    <nd ref="10702385664"/>
    <nd ref="7985910932"/>
    <nd ref="28099933"/>
    <tag k="access" v="destination"/>
    <tag k="class:bicycle" v="1"/>
    <tag k="cycleway:both" v="no"/>
    <tag k="highway" v="unclassified"/>
    <tag k="lane_markings" v="no"/>
    <tag k="lit" v="yes"/>
    <tag k="sidewalk:right" v="yes"/>
    <tag k="smoothness" v="good"/>
    <tag k="surface" v="asphalt"/>
  </way>
  <way id="198989840" version="3" timestamp="2023-12-26T22:19:49Z" changeset="145551313" uid="14742734" user="The_Nickname">
    <nd ref="2090525285"/>
    <nd ref="2090525290"/>
    <nd ref="2495330045"/>
    <nd ref="2090525298"/>
    <nd ref="2090525294"/>
    <nd ref="2090525285"/>
    <tag k="addr:city" v="München"/>
    <tag k="addr:housenumber" v="15"/>
    <tag k="addr:street" v="Lily-Braun-Weg"/>
    <tag k="building" v="apartments"/>
    <tag k="building:levels" v="5"/>
    <tag k="roof:colour" v="grey"/>
    <tag k="roof:levels" v="1"/>
    <tag k="roof:shape" v="gabled"/>
  </way>
  <way id="198989867" version="5" timestamp="2022-01-22T17:01:06Z" changeset="116473404" uid="14742734" user="The_Nickname">
    <nd ref="2090525224"/>
    <nd ref="2090525228"/>
    <nd ref="2495330017"/>
    <nd ref="2495330020"/>
    <nd ref="2090525240"/>
    <nd ref="2090525232"/>
    <nd ref="2495330015"/>
    <nd ref="2495330012"/>
    <nd ref="2090525224"/>
    <tag k="addr:city" v="München"/>
    <tag k="addr:country" v="DE"/>
    <tag k="addr:housenumber" v="3"/>
    <tag k="addr:postcode" v="80637"/>
    <tag k="addr:street" v="Lily-Braun-Weg"/>
    <tag k="building" v="apartments"/>
    <tag k="building:levels" v="5"/>
    <tag k="roof:colour" v="grey"/>
    <tag k="roof:levels" v="1"/>
    <tag k="roof:shape" v="gabled"/>
  </way>
  <way id="198989871" version="5" timestamp="2022-01-22T17:01:07Z" changeset="116473404" uid="14742734" user="The_Nickname">
    <nd ref="2090525245"/>
    <nd ref="2090525255"/>
    <nd ref="2090525263"/>
    <nd ref="2090525258"/>
    <nd ref="2090525245"/>
    <tag k="addr:city" v="München"/>
    <tag k="addr:country" v="DE"/>
    <tag k="addr:housenumber" v="11"/>
    <tag k="addr:postcode" v="80637"/>
    <tag k="addr:street" v="Lily-Braun-Weg"/>
    <tag k="building" v="apartments"/>
    <tag k="building:levels" v="5"/>
    <tag k="roof:colour" v="grey"/>
    <tag k="roof:levels" v="1"/>
    <tag k="roof:shape" v="gabled"/>
  </way>
  <way id="198989880" version="3" timestamp="2021-11-20T14:06:48Z" changeset="114028048" uid="2487211" user="m_wip">
    <nd ref="2090525308"/>
    <nd ref="2090525311"/>
    <nd ref="2495330059"/>
    <nd ref="2090525320"/>
    <nd ref="2090525316"/>
    <nd ref="2090525308"/>
    <tag k="addr:city" v="München"/>
    <tag k="addr:housenumber" v="21"/>
    <tag k="addr:street" v="Lily-Braun-Weg"/>
    <tag k="building" v="apartments"/>
    <tag k="building:levels" v="5"/>
    <tag k="roof:colour" v="grey"/>
    <tag k="roof:levels" v="1"/>
    <tag k="roof:shape" v="gabled"/>
  </way>
  <way id="198989885" version="3" timestamp="2023-12-26T22:19:48Z" changeset="145551313" uid="14742734" user="The_Nickname">
    <nd ref="2090525298"/>
    <nd ref="2495330047"/>
    <nd ref="2090525306"/>
    <nd ref="2090525301"/>
    <nd ref="2090525294"/>
    <nd ref="2090525298"/>
    <tag k="addr:city" v="München"/>
    <tag k="addr:housenumber" v="17"/>
    <tag k="addr:street" v="Lily-Braun-Weg"/>
    <tag k="building" v="apartments"/>
    <tag k="building:levels" v="5"/>
    <tag k="roof:colour" v="grey"/>
    <tag k="roof:levels" v="1"/>
    <tag k="roof:shape" v="gabled"/>
  </way>
  <way id="198989894" version="5" timestamp="2022-01-22T17:01:07Z" changeset="116473404" uid="14742734" user="The_Nickname">
    <nd ref="2090525263"/>
    <nd ref="2495330037"/>
    <nd ref="2090525277"/>
    <nd ref="2090525269"/>
    <nd ref="2495330035"/>
    <nd ref="2090525258"/>
    <nd ref="2090525263"/>
    <tag k="addr:city" v="München"/>
    <tag k="addr:country" v="DE"/>
    <tag k="addr:housenumber" v="9"/>
    <tag k="addr:postcode" v="80637"/>
    <tag k="addr:street" v="Lily-Braun-Weg"/>
    <tag k="building" v="apartments"/>
    <tag k="building:levels" v="5"/>
    <tag k="roof:colour" v="grey"/>
    <tag k="roof:levels" v="1"/>
    <tag k="roof:shape" v="gabled"/>
  </way>
  <way id="198989903" version="3" timestamp="2023-12-26T22:19:48Z" changeset="145551313" uid="14742734" user="The_Nickname">
    <nd ref="2090525306"/>
    <nd ref="2495330051"/>
    <nd ref="2495330054"/>
    <nd ref="2090525311"/>
    <nd ref="2090525308"/>
    <nd ref="2495330048"/>
    <nd ref="2090525301"/>
    <nd ref="2090525306"/>
    <tag k="addr:city" v="München"/>
    <tag k="addr:housenumber" v="19"/>
    <tag k="addr:street" v="Lily-Braun-Weg"/>
    <tag k="building" v="apartments"/>
    <tag k="building:levels" v="5"/>
    <tag k="roof:colour" v="grey"/>
    <tag k="roof:levels" v="1"/>
    <tag k="roof:shape" v="gabled"/>
  </way>
  <way id="198989912" version="5" timestamp="2022-01-22T16:57:33Z" changeset="116473404" uid="14742734" user="The_Nickname">
    <nd ref="2090525218"/>
    <nd ref="2090525221"/>
    <nd ref="2495330009"/>
    <nd ref="2090525228"/>
    <nd ref="2090525224"/>
    <nd ref="2495330008"/>
    <nd ref="2090525218"/>
    <tag k="addr:city" v="München"/>
    <tag k="addr:country" v="DE"/>
    <tag k="addr:housenumber" v="5"/>
    <tag k="addr:postcode" v="80637"/>
    <tag k="addr:street" v="Lily-Braun-Weg"/>
    <tag k="building" v="apartments"/>
    <tag k="building:levels" v="5"/>
    <tag k="roof:colour" v="grey"/>
    <tag k="roof:levels" v="1"/>
    <tag k="roof:shape" v="gabled"/>
  </way>
  <way id="206009048" version="6" timestamp="2024-11-16T18:31:00Z" changeset="159218822" uid="13496000" user="geo-d">
    <nd ref="1046355706"/>
    <nd ref="12346476508"/>
    <nd ref="429925138"/>
    <nd ref="36662816"/>
    <tag k="class:bicycle" v="1"/>
    <tag k="highway" v="residential"/>
    <tag k="lit" v="yes"/>
    <tag k="maxspeed" v="30"/>
    <tag k="name" v="Emma-Ihrer-Straße"/>
    <tag k="name:etymology:wikidata" v="Q108635"/>
    <tag k="oneway" v="no"/>
    <tag k="sidewalk:left" v="separate"/>
    <tag k="sidewalk:right" v="yes"/>
    <tag k="smoothness" v="good"/>
    <tag k="surface" v="asphalt"/>
  </way>
  <way id="206837827" version="6" timestamp="2023-12-26T19:28:07Z" changeset="145546446" uid="14742734" user="The_Nickname">
    <nd ref="353231900"/>
    <nd ref="1046355706"/>
    <tag k="class:bicycle" v="1"/>
    <tag k="highway" v="residential"/>
    <tag k="lit" v="yes"/>
    <tag k="maxspeed" v="30"/>
    <tag k="name" v="Emma-Ihrer-Straße"/>
    <tag k="name:etymology:wikidata" v="Q108635"/>
    <tag k="note" v="Dieser Abschnitt ist keine Einbahnstraße!"/>
    <tag k="oneway" v="no"/>
    <tag k="sidewalk:left" v="separate"/>
    <tag k="sidewalk:right" v="yes"/>
    <tag k="surface" v="asphalt"/>
  </way>
  <way id="273803056" version="12" timestamp="2024-04-27T14:07:17Z" changeset="150581734" uid="4376164" user="redweizn">
    <nd ref="2786152398"/>
    <nd ref="2786152450"/>
    <nd ref="3865520246"/>
    <nd ref="3934311757"/>
    <nd ref="3865520247"/>
    <nd ref="3865520248"/>
    <tag k="class:bicycle" v="-2"/>
    <tag k="cycleway:both" v="no"/>
    <tag k="highway" v="unclassified"/>
    <tag k="lane_markings" v="no"/>
    <tag k="lit" v="yes"/>
    <tag k="maxspeed:type" v="DE:urban"/>
    <tag k="name" v="Schwere-Reiter-Straße"/>
    <tag k="name:etymology:wikidata" v="Q1660893"/>
    <tag k="sidewalk" v="no"/>
    <tag k="surface" v="asphalt"/>
  </way>
  <way id="292598632" version="8" timestamp="2025-03-23T08:58:30Z" changeset="163976651" uid="44217" user="kjon">
    <nd ref="21042288"/>
    <nd ref="1391221749"/>
    <tag k="bicycle" v="use_sidepath"/>
    <tag k="foot" v="use_sidepath"/>
    <tag k="highway" v="secondary"/>
    <tag k="lanes" v="3"/>
    <tag k="maxheight" v="4.2"/>
    <tag k="maxspeed" v="60"/>
    <tag k="name" v="Dachauer Straße"/>
    <tag k="oneway" v="yes"/>
    <tag k="parking:both" v="no"/>
    <tag k="sidewalk:left" v="no"/>
    <tag k="sidewalk:right" v="separate"/>
    <tag k="surface" v="asphalt"/>
    <tag k="tmc" v="DE:27961"/>
    <tag k="turn:lanes" v="none|none|none"/>
  </way>
  <way id="292598638" version="9" timestamp="2025-03-22T21:16:15Z" changeset="163964538" uid="44217" user="kjon">
    <nd ref="363211"/>
    <nd ref="5478938798"/>
    <nd ref="5478938799"/>
    <nd ref="1813187099"/>
    <nd ref="3348494997"/>
    <nd ref="5478938796"/>
    <nd ref="1813187096"/>
    <nd ref="5478938794"/>
    <nd ref="16259472"/>
    <tag k="bicycle" v="use_sidepath"/>
    <tag k="foot" v="use_sidepath"/>
    <tag k="highway" v="secondary"/>
    <tag k="lanes" v="3"/>
    <tag k="lit" v="yes"/>
    <tag k="maxspeed" v="50"/>
    <tag k="name" v="Dachauer Straße"/>
    <tag k="oneway" v="yes"/>
    <tag k="parking:both" v="no"/>
    <tag k="sidewalk:left" v="no"/>
    <tag k="sidewalk:right" v="separate"/>
    <tag k="surface" v="asphalt"/>
    <tag k="tmc" v="DE:27960"/>
  </way>
  <way id="310819642" version="8" timestamp="2025-03-22T21:16:15Z" changeset="163964538" uid="44217" user="kjon">
    <nd ref="1038199349"/>
    <nd ref="363212"/>
    <tag k="bicycle" v="use_sidepath"/>
    <tag k="foot" v="use_sidepath"/>
    <tag k="highway" v="secondary"/>
    <tag k="lanes" v="3"/>
    <tag k="lit" v="yes"/>
    <tag k="maxspeed" v="60"/>
    <tag k="name" v="Dachauer Straße"/>
    <tag k="oneway" v="yes"/>
    <tag k="parking:both" v="no"/>
    <tag k="shoulder" v="no"/>
    <tag k="sidewalk:left" v="no"/>
    <tag k="sidewalk:right" v="separate"/>
    <tag k="surface" v="asphalt"/>
    <tag k="tmc" v="DE:27960/27961"/>
    <tag k="turn:lanes" v="left|through|through;right"/>
  </way>
  <way id="310821941" version="9" timestamp="2025-03-22T21:16:15Z" changeset="163964538" uid="44217" user="kjon">
    <nd ref="342010613"/>
    <nd ref="3163106086"/>
    <tag k="bicycle" v="use_sidepath"/>
    <tag k="foot" v="use_sidepath"/>
    <tag k="highway" v="secondary"/>
    <tag k="lanes" v="4"/>
    <tag k="lit" v="yes"/>
    <tag k="maxspeed" v="50"/>
    <tag k="name" v="Schwere-Reiter-Straße"/>
    <tag k="name:etymology:wikidata" v="Q1660893"/>
    <tag k="oneway" v="yes"/>
    <tag k="parking:both" v="no"/>
    <tag k="sidewalk:left" v="no"/>
    <tag k="sidewalk:right" v="separate"/>
    <tag k="source" v="Bing"/>
    <tag k="surface" v="asphalt"/>
    <tag k="turn:lanes" v="slight_left|through|through|slight_right"/>
  </way>
  <way id="310823111" version="9" timestamp="2025-03-22T21:16:15Z" changeset="163964538" uid="44217" user="kjon">
    <nd ref="3163106086"/>
    <nd ref="8404361678"/>
    <nd ref="1813187120"/>
    <nd ref="16259472"/>
    <tag k="bicycle" v="use_sidepath"/>
    <tag k="foot" v="use_sidepath"/>
    <tag k="highway" v="secondary"/>
    <tag k="lanes" v="3"/>
    <tag k="lit" v="yes"/>
    <tag k="maxspeed" v="50"/>
    <tag k="name" v="Schwere-Reiter-Straße"/>
    <tag k="name:etymology:wikidata" v="Q1660893"/>
    <tag k="oneway" v="yes"/>
    <tag k="parking:both" v="no"/>
    <tag k="sidewalk:left" v="no"/>
    <tag k="sidewalk:right" v="separate"/>
    <tag k="source" v="Bing"/>
    <tag k="surface" v="asphalt"/>
    <tag k="turn:lanes" v="slight_left|through|through"/>
  </way>
  <way id="310825724" version="9" timestamp="2025-03-22T21:16:15Z" changeset="163964538" uid="44217" user="kjon">
    <nd ref="3163132935"/>
    <nd ref="1038199302"/>
    <nd ref="36663204"/>
    <tag k="class:bicycle" v="2"/>
    <tag k="foot:left" v="no"/>
    <tag k="hgv" v="no"/>
    <tag k="highway" v="residential"/>
    <tag k="lit" v="yes"/>
    <tag k="maxspeed" v="30"/>
    <tag k="name" v="Dachauer Straße"/>
    <tag k="parking:both" v="no"/>
    <tag k="sidewalk:left" v="no"/>
    <tag k="sidewalk:right" v="separate"/>
    <tag k="smoothness" v="good"/>
    <tag k="surface" v="asphalt"/>
  </way>
  <way id="310832978" version="9" timestamp="2025-03-23T08:58:30Z" changeset="163976651" uid="44217" user="kjon">
    <nd ref="361823"/>
    <nd ref="8405561868"/>
    <nd ref="553414963"/>
    <nd ref="21042288"/>
    <tag k="bicycle" v="use_sidepath"/>
    <tag k="foot" v="use_sidepath"/>
    <tag k="highway" v="secondary"/>
    <tag k="lanes" v="5"/>
    <tag k="lit" v="yes"/>
    <tag k="maxspeed" v="60"/>
    <tag k="name" v="Dachauer Straße"/>
    <tag k="oneway" v="yes"/>
    <tag k="parking:both" v="no"/>
    <tag k="shoulder" v="no"/>
    <tag k="sidewalk:left" v="no"/>
    <tag k="sidewalk:right" v="separate"/>
    <tag k="surface" v="asphalt"/>
    <tag k="tmc" v="DE:27960/27961"/>
    <tag k="turn:lanes" v="slight_left|slight_left|through|through|right"/>
  </way>
  <way id="310832979" version="8" timestamp="2025-03-23T08:58:30Z" changeset="163976651" uid="44217" user="kjon">
    <nd ref="1021176531"/>
    <nd ref="361823"/>
    <tag k="bicycle" v="use_sidepath"/>
    <tag k="foot" v="use_sidepath"/>
    <tag k="highway" v="secondary"/>
    <tag k="lanes" v="4"/>
    <tag k="lit" v="yes"/>
    <tag k="maxspeed" v="60"/>
    <tag k="name" v="Dachauer Straße"/>
    <tag k="oneway" v="yes"/>
    <tag k="parking:both" v="no"/>
    <tag k="shoulder" v="no"/>
    <tag k="sidewalk:left" v="no"/>
    <tag k="sidewalk:right" v="separate"/>
    <tag k="surface" v="asphalt"/>
    <tag k="tmc" v="DE:27960/27961"/>
    <tag k="turn:lanes" v="slight_left|slight_left|through|through;right"/>
  </way>
  <way id="310832982" version="9" timestamp="2023-12-28T12:55:49Z" changeset="145618349" uid="14742734" user="The_Nickname">
    <nd ref="1404359684"/>
    <nd ref="9081829556"/>
    <nd ref="36664752"/>
    <nd ref="3163219271"/>
    <tag k="class:bicycle" v="2"/>
    <tag k="cycleway:both" v="no"/>
    <tag k="foot" v="yes"/>
    <tag k="hgv" v="no"/>
    <tag k="highway" v="unclassified"/>
    <tag k="lane_markings" v="no"/>
    <tag k="lit" v="yes"/>
    <tag k="maxspeed" v="30"/>
    <tag k="name" v="Dachauer Straße"/>
    <tag k="sidewalk" v="no"/>
    <tag k="smoothness" v="good"/>
    <tag k="surface" v="asphalt"/>
  </way>
  <way id="310832987" version="12" timestamp="2023-12-28T12:55:49Z" changeset="145618349" uid="14742734" user="The_Nickname">
    <nd ref="3163219271"/>
    <nd ref="10761338260"/>
    <nd ref="9081829558"/>
    <nd ref="5667494977"/>
    <nd ref="30860507"/>
    <tag k="class:bicycle" v="2"/>
    <tag k="cycleway:both" v="no"/>
    <tag k="foot" v="no"/>
    <tag k="hgv" v="no"/>
    <tag k="highway" v="unclassified"/>
    <tag k="lane_markings" v="no"/>
    <tag k="maxspeed" v="30"/>
    <tag k="name" v="Dachauer Straße"/>
    <tag k="sidewalk:left" v="separate"/>
    <tag k="sidewalk:right" v="no"/>
    <tag k="smoothness" v="good"/>
    <tag k="surface" v="asphalt"/>
  </way>
  <way id="310832991" version="8" timestamp="2023-03-20T17:26:17Z" changeset="133908569" uid="14742734" user="The_Nickname">
    <nd ref="3163219269"/>
    <nd ref="361814"/>
    <nd ref="361822"/>
    <nd ref="1021176531"/>
    <tag k="bicycle" v="use_sidepath"/>
    <tag k="foot" v="use_sidepath"/>
    <tag k="highway" v="secondary"/>
    <tag k="lanes" v="3"/>
    <tag k="lit" v="yes"/>
    <tag k="maxspeed" v="60"/>
    <tag k="name" v="Dachauer Straße"/>
    <tag k="oneway" v="yes"/>
    <tag k="parking:both" v="no"/>
    <tag k="shoulder" v="no"/>
    <tag k="sidewalk:left" v="no"/>
    <tag k="sidewalk:right" v="separate"/>
    <tag k="surface" v="asphalt"/>
    <tag k="tmc" v="DE:27960/27961"/>
    <tag k="turn:lanes" v="slight_left|through|through;right"/>
  </way>
  <way id="319838843" version="6" timestamp="2024-05-16T08:00:22Z" changeset="151394575" uid="14742734" user="The_Nickname">
    <nd ref="36663366"/>
    <nd ref="1038199328"/>
    <nd ref="3263098125"/>
    <nd ref="36663365"/>
    <nd ref="3263098129"/>
    <nd ref="11909332550"/>
    <nd ref="36663271"/>
    <tag k="cycleway:both" v="no"/>
    <tag k="highway" v="residential"/>
    <tag k="maxspeed" v="30"/>
    <tag k="name" v="Hedwig-Dransfeld-Allee"/>
    <tag k="oneway" v="no"/>
    <tag k="parking:left" v="no"/>
    <tag k="sidewalk" v="right"/>
    <tag k="sidewalk:right:surface" v="paving_stones"/>
    <tag k="surface" v="asphalt"/>
  </way>
  <way id="394489292" version="10" timestamp="2025-03-22T21:16:15Z" changeset="163964538" uid="44217" user="kjon">
    <nd ref="1629426081"/>
    <nd ref="9672762142"/>
    <nd ref="529277566"/>
    <nd ref="21035971"/>
    <tag k="bicycle" v="use_sidepath"/>
    <tag k="highway" v="secondary"/>
    <tag k="lanes" v="4"/>
    <tag k="lit" v="yes"/>
    <tag k="maxspeed" v="50"/>
    <tag k="maxspeed:conditional" v="30 @ (Mo-Fr 07:00 - 18:00;PH off)"/>
    <tag k="name" v="Ackermannstraße"/>
    <tag k="oneway" v="yes"/>
    <tag k="parking:both" v="no"/>
    <tag k="sidewalk:left" v="no"/>
    <tag k="sidewalk:right" v="separate"/>
    <tag k="surface" v="asphalt"/>
    <tag k="turn:lanes" v="left|through|right|right"/>
  </way>
  <way id="432170629" version="9" timestamp="2024-05-22T16:49:07Z" changeset="151686172" uid="14742734" user="The_Nickname">
    <nd ref="36664008"/>
    <nd ref="1578220469"/>
    <nd ref="2727495343"/>
    <nd ref="3273285985"/>
    <nd ref="36664005"/>
    <nd ref="11926169396"/>
    <nd ref="4313265917"/>
    <tag k="class:bicycle" v="2"/>
    <tag k="cycleway:both" v="no"/>
    <tag k="highway" v="residential"/>
    <tag k="lit" v="yes"/>
    <tag k="maxspeed" v="30"/>
    <tag k="name" v="Gertrud-Bäumer-Straße"/>
    <tag k="name:etymology:wikidata" v="Q71416"/>
    <tag k="sidewalk:both" v="separate"/>
    <tag k="smoothness" v="good"/>
    <tag k="surface" v="asphalt"/>
  </way>
  <way id="459027216" version="7" timestamp="2023-11-01T12:23:03Z" changeset="143466852" uid="6285042" user="Biclmont">
    <nd ref="21035977"/>
    <nd ref="1077714847"/>
    <nd ref="1038235821"/>
    <nd ref="13890468"/>
    <nd ref="1038236089"/>
    <nd ref="1038236103"/>
    <nd ref="13890466"/>
    <nd ref="1038236085"/>
    <nd ref="13890467"/>
    <tag k="bicycle" v="use_sidepath"/>
    <tag k="highway" v="secondary"/>
    <tag k="lanes" v="2"/>
    <tag k="lit" v="yes"/>
    <tag k="maxspeed" v="50"/>
    <tag k="name" v="Ackermannstraße"/>
    <tag k="name:etymology:wikidata" v="Q119495"/>
    <tag k="oneway" v="yes"/>
    <tag k="sidewalk:left" v="no"/>
    <tag k="sidewalk:right" v="separate"/>
    <tag k="surface" v="asphalt"/>
  </way>
  <way id="550333230" version="10" timestamp="2025-03-23T08:58:30Z" changeset="163976651" uid="44217" user="kjon">
    <nd ref="1653528114"/>
    <nd ref="260967529"/>
    <tag k="bicycle" v="use_sidepath"/>
    <tag k="foot" v="use_sidepath"/>
    <tag k="highway" v="trunk_link"/>
    <tag k="lanes" v="3"/>
    <tag k="lit" v="yes"/>
    <tag k="maxspeed" v="50"/>
    <tag k="name" v="Landshuter Allee"/>
    <tag k="name:etymology:wikidata" v="Q3974"/>
    <tag k="oneway" v="yes"/>
    <tag k="parking:both" v="no"/>
    <tag k="sidewalk" v="no"/>
    <tag k="surface" v="asphalt"/>
    <tag k="wikidata" v="Q1604867"/>
  </way>
  <way id="762463926" version="3" timestamp="2024-04-11T17:00:08Z" changeset="149873852" uid="20474714" user="Köbbel">
    <nd ref="16527735"/>
    <nd ref="1866984669"/>
    <nd ref="21035976"/>
    <nd ref="1629426081"/>
    <tag k="bicycle" v="use_sidepath"/>
    <tag k="highway" v="secondary"/>
    <tag k="lanes" v="2"/>
    <tag k="lit" v="yes"/>
    <tag k="maxheight:signed" v="no"/>
    <tag k="maxspeed" v="50"/>
    <tag k="maxspeed:conditional" v="30 @ (Mo-Fr 07:00 - 18:00;PH off)"/>
    <tag k="name" v="Ackermannstraße"/>
    <tag k="oneway" v="yes"/>
    <tag k="sidewalk:left" v="no"/>
    <tag k="sidewalk:right" v="separate"/>
    <tag k="surface" v="asphalt"/>
  </way>
  <way id="981958821" version="8" timestamp="2024-10-15T05:40:12Z" changeset="157904452" uid="11758604" user="map per">
    <nd ref="21042285"/>
    <nd ref="433271154"/>
    <nd ref="1479183717"/>
    <nd ref="28099933"/>
    <tag k="cycleway:right" v="no"/>
    <tag k="foot" v="no"/>
    <tag k="highway" v="unclassified"/>
    <tag k="lanes" v="2"/>
    <tag k="name" v="Toni-Merkens-Weg"/>
    <tag k="name:etymology:wikidata" v="Q571504"/>
    <tag k="oneway" v="yes"/>
    <tag k="sidewalk:both" v="no"/>
    <tag k="surface" v="asphalt"/>
  </way>
  <way id="1084125306" version="9" timestamp="2025-03-23T08:58:30Z" changeset="163976651" uid="44217" user="kjon">
    <nd ref="9934668460"/>
    <nd ref="643899403"/>
    <nd ref="30631581"/>
    <tag k="bicycle" v="no"/>
    <tag k="bridge" v="yes"/>
    <tag k="foot" v="no"/>
    <tag k="hgv" v="delivery"/>
    <tag k="highway" v="trunk"/>
    <tag k="lanes" v="2"/>
    <tag k="layer" v="2"/>
    <tag k="lit" v="yes"/>
    <tag k="maxspeed" v="30"/>
    <tag k="motorroad" v="no"/>
    <tag k="name" v="Landshuter Allee"/>
    <tag k="name:etymology:wikidata" v="Q3974"/>
    <tag k="oneway" v="yes"/>
    <tag k="parking:both" v="no"/>
    <tag k="ref" v="B 2R"/>
    <tag k="shoulder" v="no"/>
    <tag k="sidewalk" v="no"/>
    <tag k="surface" v="asphalt"/>
    <tag k="tmc" v="DE:22697"/>
    <tag k="traffic_sign" v="DE:114"/>
    <tag k="wikidata" v="Q1604867"/>
  </way>
  <way id="1084125307" version="8" timestamp="2025-03-23T08:58:30Z" changeset="163976651" uid="44217" user="kjon">
    <nd ref="30631579"/>
    <nd ref="9934668462"/>
    <tag k="bicycle" v="no"/>
    <tag k="bridge" v="yes"/>
    <tag k="foot" v="no"/>
    <tag k="hgv" v="delivery"/>
    <tag k="highway" v="trunk"/>
    <tag k="lanes" v="2"/>
    <tag k="layer" v="2"/>
    <tag k="lit" v="yes"/>
    <tag k="maxspeed" v="50"/>
    <tag k="motorroad" v="no"/>
    <tag k="name" v="Landshuter Allee"/>
    <tag k="name:etymology:wikidata" v="Q3974"/>
    <tag k="oneway" v="yes"/>
    <tag k="parking:both" v="no"/>
    <tag k="ref" v="B 2R"/>
    <tag k="shoulder" v="no"/>
    <tag k="sidewalk" v="no"/>
    <tag k="surface" v="asphalt"/>
    <tag k="tmc" v="DE:22697"/>
    <tag k="traffic_sign" v="DE:114"/>
    <tag k="wikidata" v="Q1604867"/>
  </way>
  <way id="1084125308" version="8" timestamp="2025-03-23T08:58:30Z" changeset="163976651" uid="44217" user="kjon">
    <nd ref="9934668463"/>
    <nd ref="30631578"/>
    <tag k="bicycle" v="no"/>
    <tag k="bridge" v="yes"/>
    <tag k="foot" v="no"/>
    <tag k="hgv" v="delivery"/>
    <tag k="highway" v="trunk"/>
    <tag k="lanes" v="2"/>
    <tag k="layer" v="2"/>
    <tag k="lit" v="yes"/>
    <tag k="maxspeed" v="50"/>
    <tag k="name" v="Landshuter Allee"/>
    <tag k="name:etymology:wikidata" v="Q3974"/>
    <tag k="oneway" v="yes"/>
    <tag k="parking:both" v="no"/>
    <tag k="ref" v="B 2R"/>
    <tag k="shoulder" v="no"/>
    <tag k="sidewalk" v="no"/>
    <tag k="surface" v="asphalt"/>
    <tag k="tmc" v="DE:22697"/>
    <tag k="wikidata" v="Q1604867"/>
  </way>
  <way id="1084125309" version="9" timestamp="2025-03-24T23:39:57Z" changeset="164055390" uid="62338" user="Weltenbummler">
    <nd ref="9934668461"/>
    <nd ref="9934668463"/>
    <tag k="bicycle" v="no"/>
    <tag k="foot" v="no"/>
    <tag k="hgv" v="delivery"/>
    <tag k="highway" v="trunk"/>
    <tag k="lanes" v="2"/>
    <tag k="lit" v="yes"/>
    <tag k="maxspeed" v="30"/>
    <tag k="name" v="Landshuter Allee"/>
    <tag k="name:etymology:wikidata" v="Q3974"/>
    <tag k="oneway" v="yes"/>
    <tag k="parking:both" v="no"/>
    <tag k="ref" v="B 2R"/>
    <tag k="shoulder" v="no"/>
    <tag k="sidewalk" v="no"/>
    <tag k="surface" v="asphalt"/>
    <tag k="tmc" v="DE:22697"/>
    <tag k="wikidata" v="Q1604867"/>
  </way>
  <way id="1091375341" version="2" timestamp="2023-11-01T12:23:07Z" changeset="143466852" uid="6285042" user="Biclmont">
    <nd ref="13890467"/>
    <nd ref="1038236001"/>
    <nd ref="9672752024"/>
    <nd ref="16527735"/>
    <tag k="bicycle" v="use_sidepath"/>
    <tag k="highway" v="secondary"/>
    <tag k="lanes" v="3"/>
    <tag k="lit" v="yes"/>
    <tag k="maxspeed" v="50"/>
    <tag k="name" v="Ackermannstraße"/>
    <tag k="name:etymology:wikidata" v="Q119495"/>
    <tag k="oneway" v="yes"/>
    <tag k="sidewalk:left" v="no"/>
    <tag k="sidewalk:right" v="separate"/>
    <tag k="surface" v="asphalt"/>
    <tag k="turn:lanes" v="left|through|through"/>
  </way>
  <way id="1119418566" version="11" timestamp="2025-03-22T21:16:15Z" changeset="163964538" uid="44217" user="kjon">
    <nd ref="10238653609"/>
    <nd ref="1578220432"/>
    <nd ref="36663645"/>
    <tag k="class:bicycle" v="1"/>
    <tag k="cycleway:both" v="no"/>
    <tag k="highway" v="residential"/>
    <tag k="lit" v="yes"/>
    <tag k="maxspeed" v="30"/>
    <tag k="name" v="Helene-Weber-Allee"/>
    <tag k="name:etymology" v="Helene Weber"/>
    <tag k="name:etymology:wikidata" v="Q95851"/>
    <tag k="name:etymology:wikipedia" v="de:Helene Weber"/>
    <tag k="panoramax:streetsign" v="77b480d2-1ed7-4c00-a21e-c06d9312dac0"/>
    <tag k="parking:both" v="yes"/>
    <tag k="parking:both:orientation" v="perpendicular"/>
    <tag k="parking:lane:both:perpendicular" v="street_side"/>
    <tag k="sidewalk:both" v="separate"/>
    <tag k="smoothness" v="good"/>
    <tag k="surface" v="asphalt"/>
  </way>
  <way id="1119418567" version="10" timestamp="2025-03-22T21:16:15Z" changeset="163964538" uid="44217" user="kjon">
    <nd ref="10238653342"/>
    <nd ref="11456423391"/>
    <nd ref="36664008"/>
    <nd ref="6480382051"/>
    <nd ref="10238653609"/>
    <tag k="class:bicycle" v="1"/>
    <tag k="cycleway:both" v="no"/>
    <tag k="highway" v="residential"/>
    <tag k="lit" v="yes"/>
    <tag k="maxspeed" v="30"/>
    <tag k="name" v="Helene-Weber-Allee"/>
    <tag k="name:etymology" v="Helene Weber"/>
    <tag k="name:etymology:wikidata" v="Q95851"/>
    <tag k="name:etymology:wikipedia" v="de:Helene Weber"/>
    <tag k="parking:left" v="no"/>
    <tag k="parking:right" v="lane"/>
    <tag k="parking:right:orientation" v="parallel"/>
    <tag k="sidewalk:both" v="separate"/>
    <tag k="smoothness" v="good"/>
    <tag k="surface" v="asphalt"/>
  </way>
  <way id="1119418568" version="7" timestamp="2024-08-20T09:04:51Z" changeset="155497651" uid="13207978" user="univalence">
    <nd ref="36663663"/>
    <nd ref="10238653342"/>
    <tag k="class:bicycle" v="1"/>
    <tag k="cycleway:both" v="no"/>
    <tag k="highway" v="residential"/>
    <tag k="lit" v="yes"/>
    <tag k="maxspeed" v="30"/>
    <tag k="name" v="Helene-Weber-Allee"/>
    <tag k="name:etymology" v="Helene Weber"/>
    <tag k="name:etymology:wikidata" v="Q95851"/>
    <tag k="name:etymology:wikipedia" v="de:Helene Weber"/>
    <tag k="sidewalk:both" v="separate"/>
    <tag k="smoothness" v="good"/>
    <tag k="surface" v="asphalt"/>
  </way>
  <way id="1119418569" version="10" timestamp="2025-03-22T21:16:15Z" changeset="163964538" uid="44217" user="kjon">
    <nd ref="36663693"/>
    <nd ref="538853473"/>
    <nd ref="10238602169"/>
    <tag k="class:bicycle" v="1"/>
    <tag k="cycleway:both" v="no"/>
    <tag k="highway" v="residential"/>
    <tag k="lit" v="yes"/>
    <tag k="maxspeed" v="30"/>
    <tag k="name" v="Helene-Weber-Allee"/>
    <tag k="name:etymology" v="Helene Weber"/>
    <tag k="name:etymology:wikidata" v="Q95851"/>
    <tag k="name:etymology:wikipedia" v="de:Helene Weber"/>
    <tag k="parking:both" v="no"/>
    <tag k="sidewalk:both" v="separate"/>
    <tag k="smoothness" v="good"/>
    <tag k="surface" v="asphalt"/>
  </way>
  <way id="1119418570" version="9" timestamp="2025-03-22T21:16:15Z" changeset="163964538" uid="44217" user="kjon">
    <nd ref="253233915"/>
    <nd ref="36663663"/>
    <tag k="class:bicycle" v="1"/>
    <tag k="cycleway:both" v="no"/>
    <tag k="highway" v="residential"/>
    <tag k="lit" v="yes"/>
    <tag k="maxspeed" v="30"/>
    <tag k="name" v="Helene-Weber-Allee"/>
    <tag k="name:etymology" v="Helene Weber"/>
    <tag k="name:etymology:wikidata" v="Q95851"/>
    <tag k="name:etymology:wikipedia" v="de:Helene Weber"/>
    <tag k="parking:lane:left:perpendicular" v="street_side"/>
    <tag k="parking:lane:right:parallel" v="street_side"/>
    <tag k="parking:left" v="yes"/>
    <tag k="parking:left:orientation" v="perpendicular"/>
    <tag k="parking:right" v="yes"/>
    <tag k="parking:right:orientation" v="parallel"/>
    <tag k="sidewalk:both" v="separate"/>
    <tag k="smoothness" v="good"/>
    <tag k="surface" v="asphalt"/>
  </way>
  <way id="1119418571" version="9" timestamp="2025-03-22T21:16:15Z" changeset="163964538" uid="44217" user="kjon">
    <nd ref="10238602169"/>
    <nd ref="36663644"/>
    <tag k="class:bicycle" v="1"/>
    <tag k="cycleway:both" v="no"/>
    <tag k="highway" v="residential"/>
    <tag k="lit" v="yes"/>
    <tag k="maxspeed" v="30"/>
    <tag k="name" v="Helene-Weber-Allee"/>
    <tag k="name:etymology" v="Helene Weber"/>
    <tag k="name:etymology:wikidata" v="Q95851"/>
    <tag k="name:etymology:wikipedia" v="de:Helene Weber"/>
    <tag k="parking:lane:left:parallel" v="on_street"/>
    <tag k="parking:left" v="yes"/>
    <tag k="parking:left:orientation" v="parallel"/>
    <tag k="parking:right" v="no"/>
    <tag k="sidewalk:both" v="separate"/>
    <tag k="smoothness" v="good"/>
    <tag k="surface" v="asphalt"/>
  </way>
  <way id="1119418582" version="5" timestamp="2025-03-22T21:16:15Z" changeset="163964538" uid="44217" user="kjon">
    <nd ref="502086559"/>
    <nd ref="1021176515"/>
    <nd ref="28105187"/>
    <tag k="class:bicycle" v="1"/>
    <tag k="highway" v="residential"/>
    <tag k="lit" v="yes"/>
    <tag k="maxspeed" v="30"/>
    <tag k="name" v="Hedwig-Dransfeld-Allee"/>
    <tag k="parking:lane:right:parallel" v="on_kerb"/>
    <tag k="parking:left" v="no"/>
    <tag k="parking:right" v="yes"/>
    <tag k="parking:right:orientation" v="parallel"/>
    <tag k="sidewalk:both" v="separate"/>
    <tag k="surface" v="asphalt"/>
  </way>
  <way id="1155245881" version="6" timestamp="2024-05-16T16:11:41Z" changeset="151416271" uid="14742734" user="The_Nickname">
    <nd ref="10743438466"/>
    <nd ref="1361247572"/>
    <nd ref="28100235"/>
    <nd ref="1404359684"/>
    <tag k="class:bicycle" v="2"/>
    <tag k="cycleway:both" v="no"/>
    <tag k="foot" v="no"/>
    <tag k="hgv" v="no"/>
    <tag k="highway" v="unclassified"/>
    <tag k="lane_markings" v="no"/>
    <tag k="lit" v="yes"/>
    <tag k="maxspeed" v="30"/>
    <tag k="name" v="Dachauer Straße"/>
    <tag k="sidewalk:left" v="yes"/>
    <tag k="sidewalk:left:surface" v="paving_stones"/>
    <tag k="sidewalk:right" v="separate"/>
    <tag k="surface" v="asphalt"/>
  </way>
  <way id="1155245883" version="6" timestamp="2024-05-16T16:11:41Z" changeset="151416271" uid="14742734" user="The_Nickname">
    <nd ref="28100215"/>
    <nd ref="10748954934"/>
    <nd ref="1014521844"/>
    <nd ref="10159114864"/>
    <nd ref="16259430"/>
    <nd ref="10743438466"/>
    <tag k="class:bicycle" v="2"/>
    <tag k="cycleway:both" v="no"/>
    <tag k="foot" v="no"/>
    <tag k="hgv" v="no"/>
    <tag k="highway" v="unclassified"/>
    <tag k="lane_markings" v="no"/>
    <tag k="lit" v="yes"/>
    <tag k="maxspeed" v="30"/>
    <tag k="name" v="Dachauer Straße"/>
    <tag k="sidewalk:left" v="no"/>
    <tag k="sidewalk:right" v="separate"/>
    <tag k="surface" v="asphalt"/>
  </way>
  <way id="1155245890" version="6" timestamp="2023-12-28T12:52:41Z" changeset="145618351" uid="14742734" user="The_Nickname">
    <nd ref="500345972"/>
    <nd ref="500345967"/>
    <nd ref="36663271"/>
    <tag k="class:bicycle" v="1"/>
    <tag k="cycleway:both" v="no"/>
    <tag k="highway" v="residential"/>
    <tag k="lane_markings" v="no"/>
    <tag k="name" v="Hedwig-Dransfeld-Allee"/>
    <tag k="sidewalk:left" v="separate"/>
    <tag k="sidewalk:right" v="no"/>
    <tag k="smoothness" v="good"/>
    <tag k="surface" v="asphalt"/>
  </way>
  <way id="1155245892" version="8" timestamp="2024-07-28T08:57:48Z" changeset="154510946" uid="18493611" user="MunichWays">
    <nd ref="36663204"/>
    <nd ref="1038199323"/>
    <nd ref="36663269"/>
    <tag k="class:bicycle" v="2"/>
    <tag k="cycleway:both" v="no"/>
    <tag k="highway" v="residential"/>
    <tag k="lit" v="no"/>
    <tag k="maxspeed" v="30"/>
    <tag k="name" v="Hedwig-Dransfeld-Allee"/>
    <tag k="oneway" v="yes"/>
    <tag k="parking:left" v="no"/>
    <tag k="parking:right" v="lane"/>
    <tag k="parking:right:orientation" v="parallel"/>
    <tag k="sidewalk:left" v="no"/>
    <tag k="sidewalk:right" v="separate"/>
    <tag k="surface" v="asphalt"/>
  </way>
  <way id="1159580665" version="3" timestamp="2025-03-22T21:16:15Z" changeset="163964538" uid="44217" user="kjon">
    <nd ref="36663645"/>
    <nd ref="1578220592"/>
    <nd ref="1021285789"/>
    <nd ref="4292255230"/>
    <nd ref="36662809"/>
    <tag k="class:bicycle" v="1"/>
    <tag k="highway" v="residential"/>
    <tag k="lit" v="yes"/>
    <tag k="maxspeed" v="30"/>
    <tag k="name" v="Anita-Augspurg-Allee"/>
    <tag k="name:etymology:wikidata" v="Q71410"/>
    <tag k="parking:lane:left:parallel" v="street_side"/>
    <tag k="parking:lane:right:perpendicular" v="street_side"/>
    <tag k="parking:left" v="yes"/>
    <tag k="parking:left:orientation" v="parallel"/>
    <tag k="parking:right" v="yes"/>
    <tag k="parking:right:orientation" v="perpendicular"/>
    <tag k="sidewalk" v="separate"/>
    <tag k="smoothness" v="good"/>
    <tag k="surface" v="asphalt"/>
  </way>
  <way id="1159580666" version="1" timestamp="2023-04-04T07:11:19Z" changeset="134481752" uid="18493611" user="MunichWays">
    <nd ref="28105187"/>
    <nd ref="3263082789"/>
    <nd ref="36663693"/>
    <tag k="class:bicycle" v="1"/>
    <tag k="highway" v="residential"/>
    <tag k="lit" v="yes"/>
    <tag k="maxspeed" v="30"/>
    <tag k="name" v="Hedwig-Dransfeld-Allee"/>
    <tag k="sidewalk:both" v="separate"/>
    <tag k="smoothness" v="good"/>
    <tag k="surface" v="asphalt"/>
  </way>
  <way id="1234650668" version="3" timestamp="2024-05-22T16:49:07Z" changeset="151686172" uid="14742734" user="The_Nickname">
    <nd ref="4313265917"/>
    <nd ref="4313265919"/>
    <tag k="cycleway:both" v="no"/>
    <tag k="highway" v="residential"/>
    <tag k="lit" v="yes"/>
    <tag k="maxspeed" v="30"/>
    <tag k="name" v="Gertrud-Bäumer-Straße"/>
    <tag k="name:etymology:wikidata" v="Q71416"/>
    <tag k="sidewalk:both" v="separate"/>
    <tag k="surface" v="sett"/>
  </way>
  <way id="1283659641" version="2" timestamp="2024-05-16T15:29:17Z" changeset="151414296" uid="14742734" user="The_Nickname">
    <nd ref="527829420"/>
    <nd ref="527829418"/>
    <tag k="cycleway:both" v="no"/>
    <tag k="highway" v="residential"/>
    <tag k="lane_markings" v="no"/>
    <tag k="name" v="Hedwig-Dransfeld-Allee"/>
    <tag k="sidewalk" v="no"/>
    <tag k="surface" v="paving_stones"/>
  </way>
  <relation id="13557435" version="1" timestamp="2021-12-16T13:44:19Z" changeset="115010760" uid="11758604" user="map per">
    <member type="way" ref="1012783032" role="outer"/>
    <member type="way" ref="1012783035" role="inner"/>
    <member type="way" ref="1012783034" role="inner"/>
    <member type="way" ref="1012783033" role="inner"/>
    <tag k="building" v="construction"/>
    <tag k="name" v="Strafjustizzentrum"/>
    <tag k="type" v="multipolygon"/>
  </relation>

</osm>
