<?xml version="1.0" encoding="UTF-8"?>
<osm version="0.6" generator="Overpass API 0.7.62.5 1bd436f1">
<note>The data included in this document is from www.openstreetmap.org. The data is made available under ODbL.</note>
<meta osm_base="2025-05-18T03:31:15Z" areas="2024-12-31T00:49:33Z"/>

  <node id="363200" lat="48.1519028" lon="11.5463996" version="3" timestamp="2011-06-09T13:55:35Z" changeset="8388754" uid="342705" user="KonB"/>
  <node id="363206" lat="48.1542311" lon="11.5537524" version="6" timestamp="2015-05-19T14:22:34Z" changeset="31285543" uid="354141" user="Anoniman"/>
  <node id="363211" lat="48.1594466" lon="11.5475783" version="7" timestamp="2015-10-12T11:07:38Z" changeset="34587606" uid="2290263" user="soemisch">
    <tag k="TMC:cid_58:tabcd_1:Class" v="Point"/>
    <tag k="TMC:cid_58:tabcd_1:Direction" v="positive"/>
    <tag k="TMC:cid_58:tabcd_1:LCLversion" v="9.00"/>
    <tag k="TMC:cid_58:tabcd_1:LocationCode" v="27960"/>
    <tag k="TMC:cid_58:tabcd_1:NextLocationCode" v="27961"/>
    <tag k="TMC:cid_58:tabcd_1:PrevLocationCode" v="27959"/>
  </node>
  <node id="1955547" lat="48.1512630" lon="11.5483120" version="3" timestamp="2012-08-14T20:07:20Z" changeset="12731175" uid="367380" user="Mloni"/>
  <node id="1956125" lat="48.1518194" lon="11.5494115" version="4" timestamp="2012-08-14T20:23:29Z" changeset="12731175" uid="367380" user="Mloni"/>
  <node id="16259287" lat="48.1594470" lon="11.5472220" version="8" timestamp="2015-10-12T11:07:37Z" changeset="34587606" uid="2290263" user="soemisch">
    <tag k="TMC:cid_58:tabcd_1:Class" v="Point"/>
    <tag k="TMC:cid_58:tabcd_1:Direction" v="negative"/>
    <tag k="TMC:cid_58:tabcd_1:LCLversion" v="9.00"/>
    <tag k="TMC:cid_58:tabcd_1:LocationCode" v="27960"/>
    <tag k="TMC:cid_58:tabcd_1:NextLocationCode" v="27961"/>
    <tag k="TMC:cid_58:tabcd_1:PrevLocationCode" v="27959"/>
  </node>
  <node id="16527625" lat="48.1523351" lon="11.5526162" version="4" timestamp="2011-06-09T13:56:12Z" changeset="8388754" uid="342705" user="KonB"/>
  <node id="16527627" lat="48.1525261" lon="11.5506161" version="4" timestamp="2011-06-15T07:28:06Z" changeset="8444587" uid="68974" user="Broky"/>
  <node id="21499988" lat="48.1529011" lon="11.5513052" version="11" timestamp="2024-05-17T13:27:32Z" changeset="151454695" uid="531886" user="drlellinger">
    <tag k="barrier" v="lift_gate"/>
    <tag k="bicycle" v="yes"/>
    <tag k="bus" v="yes"/>
    <tag k="description" v="Öffnet sich nur für Busse der MVG. Radfahrer können und dürfen laut Markierung an den Schranken vorbeifahren"/>
    <tag k="foot" v="yes"/>
    <tag k="lift_gate:type" v="double"/>
    <tag k="locked" v="yes"/>
    <tag k="motor_vehicle" v="no"/>
  </node>
  <node id="28094209" lat="48.1532876" lon="11.5424048" version="4" timestamp="2012-05-17T19:47:42Z" changeset="11626985" uid="72235" user="Basstoelpel"/>
  <node id="30975895" lat="48.1574021" lon="11.5434451" version="3" timestamp="2010-12-01T13:55:36Z" changeset="6503985" uid="29061" user="KPG"/>
  <node id="1078717644" lat="48.1553472" lon="11.5398787" version="8" timestamp="2024-11-11T23:14:19Z" changeset="159029852" uid="22146345" user="eeshi">
    <tag k="button_operated" v="yes"/>
    <tag k="check_date:crossing" v="2022-11-28"/>
    <tag k="crossing" v="traffic_signals"/>
    <tag k="crossing_ref" v="toucan"/>
    <tag k="highway" v="crossing"/>
  </node>
  <node id="1555429497" lat="48.1604883" lon="11.5491093" version="1" timestamp="2011-12-20T10:10:21Z" changeset="10162208" uid="367380" user="Mloni"/>
  <node id="1756521379" lat="48.1544072" lon="11.5444403" version="1" timestamp="2012-05-17T19:47:31Z" changeset="11626985" uid="72235" user="Basstoelpel"/>
  <node id="1852212455" lat="48.1517483" lon="11.5493257" version="3" timestamp="2024-05-05T21:28:26Z" changeset="150939810" uid="137242" user="Rainero"/>
  <node id="2786152398" lat="48.1604553" lon="11.5496033" version="2" timestamp="2017-04-09T14:42:54Z" changeset="47594767" uid="367380" user="Mloni"/>
  <node id="2828788601" lat="48.1546273" lon="11.5545168" version="8" timestamp="2024-04-10T19:11:47Z" changeset="149835544" uid="11758604" user="map per">
    <tag k="bus" v="yes"/>
    <tag k="mvv:zone" v="M"/>
    <tag k="name" v="Hochschule München (Lothstraße)"/>
    <tag k="network" v="Münchner Verkehrs- und Tarifverbund"/>
    <tag k="network:guid" v="DE-BY-MVV"/>
    <tag k="network:short" v="MVV"/>
    <tag k="network:wikidata" v="Q259000"/>
    <tag k="operator" v="MVG"/>
    <tag k="public_transport" v="stop_position"/>
    <tag k="ref" v="5"/>
    <tag k="ref:IFOPT" v="de:09162:12:5:5"/>
  </node>
  <node id="3163106088" lat="48.1601548" lon="11.5488777" version="1" timestamp="2014-11-02T16:46:48Z" changeset="26506689" uid="29061" user="KPG"/>
  <node id="3195741456" lat="48.1536665" lon="11.5547289" version="3" timestamp="2023-02-01T14:20:27Z" changeset="131965744" uid="531886" user="drlellinger">
    <tag k="highway" v="traffic_signals"/>
    <tag k="traffic_signals:direction" v="forward"/>
  </node>
  <node id="3195741457" lat="48.1545667" lon="11.5532790" version="2" timestamp="2015-11-22T15:18:40Z" changeset="35510406" uid="29061" user="KPG"/>
  <way id="4003243" version="37" timestamp="2025-03-22T21:16:15Z" changeset="163964538" uid="44217" user="kjon">
    <nd ref="363211"/>
    <nd ref="1813187122"/>
    <nd ref="3163106088"/>
    <tag k="bicycle" v="use_sidepath"/>
    <tag k="foot" v="use_sidepath"/>
    <tag k="highway" v="secondary"/>
    <tag k="lanes" v="2"/>
    <tag k="lit" v="yes"/>
    <tag k="maxspeed" v="50"/>
    <tag k="name" v="Schwere-Reiter-Straße"/>
    <tag k="name:etymology:wikidata" v="Q1660893"/>
    <tag k="oneway" v="yes"/>
    <tag k="parking:left" v="no"/>
    <tag k="sidewalk:left" v="no"/>
    <tag k="sidewalk:right" v="separate"/>
    <tag k="smoothness" v="good"/>
    <tag k="surface" v="asphalt"/>
  </way>
  <way id="4060426" version="27" timestamp="2024-10-09T15:26:54Z" changeset="157677694" uid="531886" user="drlellinger">
    <nd ref="21499988"/>
    <nd ref="363205"/>
    <nd ref="3344658974"/>
    <nd ref="3344658978"/>
    <nd ref="4282213449"/>
    <nd ref="1282722740"/>
    <tag k="bicycle" v="yes"/>
    <tag k="class:bicycle" v="2"/>
    <tag k="highway" v="residential"/>
    <tag k="lanes" v="2"/>
    <tag k="lit" v="yes"/>
    <tag k="maxspeed" v="30"/>
    <tag k="name" v="Lothstraße"/>
    <tag k="name:etymology:wikidata" v="Q1696418"/>
    <tag k="parking:condition:both" v="ticket"/>
    <tag k="parking:condition:both:default" v="free"/>
    <tag k="parking:condition:both:residents" v="St.-Benno-Viertel"/>
    <tag k="parking:condition:both:time_interval" v="Mo-Sa 09:00-23:00"/>
    <tag k="sidewalk:both" v="separate"/>
    <tag k="smoothness" v="excellent"/>
    <tag k="source:width" v="ARCore"/>
    <tag k="surface" v="asphalt"/>
    <tag k="width" v="9.5"/>
  </way>
  <way id="4060427" version="34" timestamp="2025-04-01T16:21:45Z" changeset="164383136" uid="170763" user="SoulCover">
    <nd ref="21499988"/>
    <nd ref="4263093715"/>
    <nd ref="16527627"/>
    <nd ref="5403764627"/>
    <nd ref="5403764626"/>
    <nd ref="4263092945"/>
    <nd ref="4689459221"/>
    <nd ref="1317215320"/>
    <nd ref="1956125"/>
    <nd ref="6562222629"/>
    <nd ref="1852212455"/>
    <tag k="class:bicycle" v="2"/>
    <tag k="highway" v="residential"/>
    <tag k="lit" v="yes"/>
    <tag k="maxspeed" v="30"/>
    <tag k="name" v="Lothstraße"/>
    <tag k="name:etymology:wikidata" v="Q1696418"/>
    <tag k="parking:both" v="yes"/>
    <tag k="parking:both:orientation" v="parallel"/>
    <tag k="parking:condition:both" v="ticket"/>
    <tag k="parking:condition:both:default" v="free"/>
    <tag k="parking:condition:both:residents" v="St.-Benno-Viertel"/>
    <tag k="parking:condition:both:time_interval" v="Mo-Sa 09:00-23:00"/>
    <tag k="sidewalk:both" v="separate"/>
    <tag k="sidewalk:both:surface" v="paving_stones"/>
    <tag k="smoothness" v="good"/>
    <tag k="surface" v="asphalt"/>
  </way>
  <way id="4651499" version="14" timestamp="2025-02-24T17:58:49Z" changeset="162903292" uid="22146345" user="eeshi">
    <nd ref="1756521379"/>
    <nd ref="11619582582"/>
    <nd ref="7249117972"/>
    <nd ref="7249117968"/>
    <nd ref="1326540623"/>
    <nd ref="11619582584"/>
    <nd ref="28094209"/>
    <tag k="class:bicycle" v="1"/>
    <tag k="cycleway:both" v="no"/>
    <tag k="highway" v="residential"/>
    <tag k="maxspeed" v="30"/>
    <tag k="name" v="Kapschstraße"/>
    <tag k="sidewalk:both" v="separate"/>
    <tag k="surface" v="asphalt"/>
  </way>
  <way id="4673738" version="24" timestamp="2025-03-22T21:16:15Z" changeset="163964538" uid="44217" user="kjon">
    <nd ref="1955547"/>
    <nd ref="8565928129"/>
    <nd ref="1317214604"/>
    <nd ref="1327712879"/>
    <nd ref="1852212455"/>
    <tag k="class:bicycle" v="1"/>
    <tag k="highway" v="residential"/>
    <tag k="lit" v="yes"/>
    <tag k="maxspeed" v="30"/>
    <tag k="name" v="Lothstraße"/>
    <tag k="name:etymology:wikidata" v="Q1696418"/>
    <tag k="oneway" v="no"/>
    <tag k="parking:both" v="yes"/>
    <tag k="parking:both:orientation" v="parallel"/>
    <tag k="parking:condition:both" v="ticket"/>
    <tag k="parking:condition:both:default" v="free"/>
    <tag k="parking:condition:both:residents" v="St.-Benno-Viertel"/>
    <tag k="parking:condition:both:time_interval" v="Mo-Sa 09:00-23:00"/>
    <tag k="sidewalk" v="separate"/>
    <tag k="smoothness" v="excellent"/>
    <tag k="surface" v="asphalt"/>
    <tag k="width" v="10"/>
  </way>
  <way id="4673739" version="20" timestamp="2025-03-22T21:16:15Z" changeset="163964538" uid="44217" user="kjon">
    <nd ref="16527625"/>
    <nd ref="11014173183"/>
    <nd ref="7532956514"/>
    <nd ref="4228852984"/>
    <nd ref="4261040846"/>
    <nd ref="11014173182"/>
    <nd ref="363205"/>
    <tag k="bicycle" v="yes"/>
    <tag k="class:bicycle" v="1"/>
    <tag k="cycleway:both" v="no"/>
    <tag k="highway" v="residential"/>
    <tag k="lit" v="yes"/>
    <tag k="maxspeed" v="30"/>
    <tag k="name" v="Kreittmayrstraße"/>
    <tag k="name:etymology:wikidata" v="Q27583996"/>
    <tag k="oneway" v="yes"/>
    <tag k="oneway:bicycle" v="no"/>
    <tag k="parking:both" v="yes"/>
    <tag k="parking:both:orientation" v="parallel"/>
    <tag k="parking:condition:both" v="residents_or_ticket"/>
    <tag k="parking:condition:both:residents" v="St.-Benno-Viertel"/>
    <tag k="sidewalk:both" v="separate"/>
    <tag k="smoothness" v="good"/>
    <tag k="source:width" v="ARCore"/>
    <tag k="surface" v="asphalt"/>
    <tag k="width" v="8.9"/>
  </way>
  <way id="4820281" version="18" timestamp="2024-06-14T16:50:33Z" changeset="152689349" uid="14742734" user="The_Nickname">
    <nd ref="30996694"/>
    <nd ref="429925159"/>
    <nd ref="3124079787"/>
    <nd ref="335741160"/>
    <nd ref="11981282912"/>
    <nd ref="30976052"/>
    <nd ref="30976053"/>
    <nd ref="1014521835"/>
    <nd ref="773287642"/>
    <nd ref="30976055"/>
    <tag k="highway" v="residential"/>
    <tag k="lit" v="yes"/>
    <tag k="maxspeed" v="50"/>
    <tag k="name" v="Leonrodplatz"/>
    <tag k="parking:left" v="separate"/>
    <tag k="parking:right" v="lane"/>
    <tag k="parking:right:orientation" v="parallel"/>
    <tag k="sidewalk:left" v="no"/>
    <tag k="sidewalk:right" v="separate"/>
    <tag k="surface" v="asphalt"/>
  </way>
  <way id="25626268" version="22" timestamp="2024-03-27T13:38:48Z" changeset="149226429" uid="531886" user="drlellinger">
    <nd ref="279302713"/>
    <nd ref="4521483568"/>
    <nd ref="4521483565"/>
    <nd ref="279302178"/>
    <nd ref="4261040826"/>
    <nd ref="4261040048"/>
    <nd ref="1317214615"/>
    <nd ref="1317215753"/>
    <nd ref="436585125"/>
    <nd ref="1327712962"/>
    <nd ref="1317215246"/>
    <nd ref="1327712884"/>
    <nd ref="279302270"/>
    <nd ref="2441898180"/>
    <nd ref="1327712967"/>
    <nd ref="436585124"/>
    <nd ref="1317215462"/>
    <nd ref="4521253738"/>
    <nd ref="436585122"/>
    <nd ref="1327712912"/>
    <nd ref="1327712969"/>
    <nd ref="1317215683"/>
    <nd ref="279302713"/>
    <tag k="addr:city" v="München"/>
    <tag k="addr:country" v="DE"/>
    <tag k="addr:housenumber" v="13d"/>
    <tag k="addr:postcode" v="80335"/>
    <tag k="addr:street" v="Lothstraße"/>
    <tag k="building" v="university"/>
    <tag k="building:colour" v="white"/>
    <tag k="building:levels" v="4"/>
    <tag k="name" v="Gebäude H"/>
    <tag k="ref" v="H"/>
    <tag k="roof:colour" v="grey"/>
  </way>
  <way id="30405357" version="5" timestamp="2017-10-19T03:05:24Z" changeset="53056677" uid="14390" user="BeKri">
    <nd ref="3134223591"/>
    <nd ref="335559926"/>
    <nd ref="335559904"/>
    <nd ref="3134223596"/>
    <nd ref="3134223594"/>
    <nd ref="3134223591"/>
    <tag k="building" v="university"/>
    <tag k="building:levels" v="6"/>
    <tag k="name" v="Zentrum für Holocaust-Studien am Institut für Zeitgeschichte"/>
  </way>
  <way id="30405400" version="5" timestamp="2014-07-16T19:43:59Z" changeset="24188634" uid="78613" user="heilbron">
    <nd ref="335560272"/>
    <nd ref="335560273"/>
    <nd ref="335560274"/>
    <nd ref="335560275"/>
    <nd ref="335560272"/>
    <tag k="addr:city" v="München"/>
    <tag k="addr:country" v="DE"/>
    <tag k="addr:housenumber" v="10"/>
    <tag k="addr:postcode" v="80636"/>
    <tag k="addr:street" v="Pfänderstraße"/>
    <tag k="building" v="yes"/>
    <tag k="roof:colour" v="grey"/>
  </way>
  <way id="30405401" version="7" timestamp="2014-10-17T19:05:37Z" changeset="26153616" uid="78613" user="heilbron">
    <nd ref="335560277"/>
    <nd ref="335560280"/>
    <nd ref="335560292"/>
    <nd ref="335560283"/>
    <nd ref="335560285"/>
    <nd ref="335560277"/>
    <tag k="addr:city" v="München"/>
    <tag k="addr:country" v="DE"/>
    <tag k="addr:housenumber" v="8"/>
    <tag k="addr:postcode" v="80636"/>
    <tag k="addr:street" v="Pfänderstraße"/>
    <tag k="building" v="yes"/>
    <tag k="roof:colour" v="#DDDDDD"/>
    <tag k="roof:shape" v="gabled"/>
  </way>
  <way id="30405402" version="9" timestamp="2024-04-12T07:35:21Z" changeset="149896697" uid="531886" user="drlellinger">
    <nd ref="335560287"/>
    <nd ref="335560290"/>
    <nd ref="2773358013"/>
    <nd ref="335560283"/>
    <nd ref="335560292"/>
    <nd ref="335560294"/>
    <nd ref="2773358112"/>
    <nd ref="2773358101"/>
    <nd ref="2773358028"/>
    <nd ref="2773357946"/>
    <nd ref="335560287"/>
    <tag k="addr:city" v="München"/>
    <tag k="addr:country" v="DE"/>
    <tag k="addr:housenumber" v="6"/>
    <tag k="addr:postcode" v="80636"/>
    <tag k="addr:street" v="Pfänderstraße"/>
    <tag k="building" v="yes"/>
    <tag k="roof:colour" v="grey"/>
    <tag k="roof:shape" v="flat"/>
  </way>
  <way id="30423186" version="8" timestamp="2023-03-25T00:22:50Z" changeset="134088666" uid="14742734" user="The_Nickname">
    <nd ref="335741209"/>
    <nd ref="335741232"/>
    <nd ref="335741216"/>
    <nd ref="335741215"/>
    <nd ref="2773358068"/>
    <nd ref="2773357869"/>
    <nd ref="2773358011"/>
    <nd ref="2773358063"/>
    <nd ref="335741244"/>
    <nd ref="335741207"/>
    <nd ref="335741208"/>
    <nd ref="335741209"/>
    <tag k="addr:city" v="München"/>
    <tag k="addr:country" v="DE"/>
    <tag k="addr:housenumber" v="20"/>
    <tag k="addr:postcode" v="80636"/>
    <tag k="addr:street" v="Maria-Luiko-Straße"/>
    <tag k="building" v="industrial"/>
  </way>
  <way id="30816697" version="30" timestamp="2023-12-07T17:01:22Z" changeset="144874238" uid="14742734" user="The_Nickname">
    <nd ref="20980541"/>
    <nd ref="2063858700"/>
    <nd ref="9047606080"/>
    <nd ref="2961663672"/>
    <nd ref="4184324341"/>
    <nd ref="2773594144"/>
    <nd ref="1077566256"/>
    <nd ref="3085198429"/>
    <nd ref="546198880"/>
    <tag k="bicycle" v="use_sidepath"/>
    <tag k="highway" v="secondary"/>
    <tag k="lanes" v="2"/>
    <tag k="lit" v="yes"/>
    <tag k="maxspeed" v="50"/>
    <tag k="name" v="Dachauer Straße"/>
    <tag k="oneway" v="yes"/>
    <tag k="parking:left" v="no"/>
    <tag k="parking:right" v="lane"/>
    <tag k="parking:right:orientation" v="parallel"/>
    <tag k="sidewalk:left" v="no"/>
    <tag k="sidewalk:right" v="separate"/>
    <tag k="surface" v="asphalt"/>
    <tag k="tmc" v="DE:27959/27960"/>
  </way>
  <way id="37280969" version="20" timestamp="2025-05-09T12:30:35Z" changeset="166026032" uid="16061279" user="YellowSoul">
    <nd ref="363206"/>
    <nd ref="1077566373"/>
    <nd ref="1077566226"/>
    <nd ref="20980542"/>
    <tag k="bicycle" v="yes"/>
    <tag k="class:bicycle" v="1"/>
    <tag k="cycleway:both" v="separate"/>
    <tag k="foot" v="use_sidepath"/>
    <tag k="highway" v="tertiary"/>
    <tag k="lanes" v="2"/>
    <tag k="lit" v="yes"/>
    <tag k="maxspeed" v="50"/>
    <tag k="name" v="Lothstraße"/>
    <tag k="name:etymology:wikidata" v="Q1696418"/>
    <tag k="parking:both" v="no"/>
    <tag k="sidewalk" v="separate"/>
    <tag k="smoothness" v="good"/>
    <tag k="surface" v="asphalt"/>
  </way>
  <way id="38349616" version="20" timestamp="2025-03-22T21:16:15Z" changeset="163964538" uid="44217" user="kjon">
    <nd ref="363204"/>
    <nd ref="3851776171"/>
    <nd ref="1078732553"/>
    <nd ref="3195741457"/>
    <tag k="bicycle" v="use_sidepath"/>
    <tag k="foot" v="use_sidepath"/>
    <tag k="highway" v="secondary"/>
    <tag k="lanes" v="2"/>
    <tag k="lit" v="yes"/>
    <tag k="maxspeed" v="50"/>
    <tag k="name" v="Dachauer Straße"/>
    <tag k="oneway" v="yes"/>
    <tag k="parking:both" v="no"/>
    <tag k="sidewalk:left" v="no"/>
    <tag k="sidewalk:right" v="separate"/>
    <tag k="smoothness" v="excellent"/>
    <tag k="surface" v="asphalt"/>
    <tag k="tmc" v="DE:27959/27960"/>
  </way>
  <way id="38349617" version="25" timestamp="2025-05-09T12:30:35Z" changeset="166026032" uid="16061279" user="YellowSoul">
    <nd ref="2828788601"/>
    <nd ref="12823396373"/>
    <nd ref="1737273389"/>
    <nd ref="773275894"/>
    <nd ref="20980542"/>
    <tag k="class:bicycle" v="2"/>
    <tag k="cycleway:both" v="lane"/>
    <tag k="cycleway:both:lane" v="exclusive"/>
    <tag k="foot" v="use_sidepath"/>
    <tag k="highway" v="tertiary"/>
    <tag k="lanes" v="3"/>
    <tag k="lanes:backward" v="1"/>
    <tag k="lanes:forward" v="2"/>
    <tag k="lit" v="yes"/>
    <tag k="maxspeed" v="50"/>
    <tag k="name" v="Lothstraße"/>
    <tag k="name:etymology:wikidata" v="Q1696418"/>
    <tag k="parking:left" v="street_side"/>
    <tag k="parking:left:orientation" v="parallel"/>
    <tag k="parking:right" v="no"/>
    <tag k="sidewalk" v="separate"/>
    <tag k="smoothness" v="excellent"/>
    <tag k="surface" v="asphalt"/>
    <tag k="turn:lanes:forward" v="left|through;right"/>
  </way>
  <way id="38376540" version="26" timestamp="2025-03-22T21:16:15Z" changeset="163964538" uid="44217" user="kjon">
    <nd ref="1852212455"/>
    <nd ref="1317215088"/>
    <nd ref="6562222625"/>
    <nd ref="8565928132"/>
    <nd ref="1866318703"/>
    <tag k="bicycle" v="yes"/>
    <tag k="class:bicycle" v="2"/>
    <tag k="highway" v="residential"/>
    <tag k="lit" v="yes"/>
    <tag k="maxspeed" v="30"/>
    <tag k="name" v="Lothstraße"/>
    <tag k="name:etymology:wikidata" v="Q1696418"/>
    <tag k="oneway" v="yes"/>
    <tag k="oneway:bicycle" v="no"/>
    <tag k="parking:both" v="yes"/>
    <tag k="parking:both:orientation" v="parallel"/>
    <tag k="sidewalk" v="separate"/>
    <tag k="smoothness" v="good"/>
    <tag k="source:maxspeed" v="DE:zone30"/>
    <tag k="surface" v="asphalt"/>
    <tag k="width" v="8.3"/>
  </way>
  <way id="38759699" version="27" timestamp="2025-03-22T21:16:15Z" changeset="163964538" uid="44217" user="kjon">
    <nd ref="2063858677"/>
    <nd ref="4322460028"/>
    <nd ref="2773665352"/>
    <nd ref="8404369592"/>
    <nd ref="20980541"/>
    <tag k="bicycle" v="use_sidepath"/>
    <tag k="foot" v="use_sidepath"/>
    <tag k="highway" v="secondary"/>
    <tag k="lanes" v="2"/>
    <tag k="lit" v="yes"/>
    <tag k="maxspeed" v="50"/>
    <tag k="name" v="Dachauer Straße"/>
    <tag k="oneway" v="yes"/>
    <tag k="parking:both" v="no"/>
    <tag k="sidewalk:left" v="no"/>
    <tag k="sidewalk:right" v="separate"/>
    <tag k="smoothness" v="good"/>
    <tag k="surface" v="asphalt"/>
    <tag k="tmc" v="DE:27959/27960"/>
  </way>
  <way id="42750258" version="25" timestamp="2025-03-22T21:16:15Z" changeset="163964538" uid="44217" user="kjon">
    <nd ref="534594386"/>
    <nd ref="8532074809"/>
    <nd ref="2773594163"/>
    <nd ref="8404361677"/>
    <nd ref="1813187113"/>
    <nd ref="363211"/>
    <tag k="bicycle" v="use_sidepath"/>
    <tag k="highway" v="secondary"/>
    <tag k="lanes" v="3"/>
    <tag k="lit" v="yes"/>
    <tag k="maxspeed" v="50"/>
    <tag k="name" v="Dachauer Straße"/>
    <tag k="oneway" v="yes"/>
    <tag k="parking:both" v="no"/>
    <tag k="sidewalk:left" v="no"/>
    <tag k="sidewalk:right" v="separate"/>
    <tag k="surface" v="asphalt"/>
    <tag k="tmc" v="DE:27959/27960"/>
    <tag k="turn:lanes" v="through|through|through;right"/>
  </way>
  <way id="58312556" version="35" timestamp="2025-03-22T21:16:15Z" changeset="163964538" uid="44217" user="kjon">
    <nd ref="3344658964"/>
    <nd ref="4261040792"/>
    <nd ref="4261040865"/>
    <nd ref="1317215300"/>
    <nd ref="4261040850"/>
    <nd ref="2300979127"/>
    <nd ref="30976785"/>
    <nd ref="4263092986"/>
    <nd ref="30976789"/>
    <nd ref="3016197267"/>
    <nd ref="2300979133"/>
    <nd ref="2773282888"/>
    <nd ref="2300979136"/>
    <nd ref="30989153"/>
    <tag k="class:bicycle" v="1"/>
    <tag k="cycleway" v="track"/>
    <tag k="highway" v="residential"/>
    <tag k="lit" v="yes"/>
    <tag k="maxspeed" v="30"/>
    <tag k="name" v="Lazarettstraße"/>
    <tag k="parking:both" v="yes"/>
    <tag k="parking:both:orientation" v="parallel"/>
    <tag k="parking:condition:both:residents" v="St.-Benno-Viertel"/>
    <tag k="parking:condition:left" v="disc"/>
    <tag k="parking:condition:left:maxstay" v="4 hours"/>
    <tag k="parking:condition:left:time_interval" v="Mo-Fr 09:00-18:00"/>
    <tag k="parking:condition:right" v="ticket"/>
    <tag k="parking:condition:right:default" v="free"/>
    <tag k="parking:condition:right:time_interval" v="Mo-Sa 09:00-23:00"/>
    <tag k="parking:lane:left:parallel" v="half_on_kerb"/>
    <tag k="parking:right" v="lane"/>
    <tag k="sidewalk:left" v="yes"/>
    <tag k="sidewalk:left:surface" v="paving_stones"/>
    <tag k="sidewalk:right" v="separate"/>
    <tag k="smoothness" v="good"/>
    <tag k="surface" v="asphalt"/>
  </way>
  <way id="68353491" version="11" timestamp="2025-01-16T09:24:46Z" changeset="161409849" uid="11758604" user="map per">
    <nd ref="822949511"/>
    <nd ref="2773282985"/>
    <nd ref="2773282894"/>
    <nd ref="2773283034"/>
    <nd ref="2773283041"/>
    <nd ref="822949508"/>
    <nd ref="822949500"/>
    <nd ref="2773283068"/>
    <nd ref="2773283049"/>
    <nd ref="2773283096"/>
    <nd ref="2773282857"/>
    <nd ref="822949504"/>
    <nd ref="822949511"/>
    <tag k="addr:city" v="München"/>
    <tag k="addr:housenumber" v="35"/>
    <tag k="addr:postcode" v="80636"/>
    <tag k="addr:street" v="Schachenmeierstraße"/>
    <tag k="building" v="university"/>
    <tag k="building:levels" v="4"/>
    <tag k="image" v="https://upload.wikimedia.org/wikipedia/commons/c/cf/Schachenmeierstr35_M%C3%BCnchen.jpg"/>
    <tag k="name" v="Gebäude S"/>
    <tag k="roof:colour" v="red"/>
    <tag k="wikimedia_commons" v="File:Schachenmeierstr35 München.jpg"/>
  </way>
  <way id="90247246" version="8" timestamp="2025-01-03T20:28:59Z" changeset="160965462" uid="137242" user="Rainero">
    <nd ref="1046355507"/>
    <nd ref="1046355754"/>
    <nd ref="2773722339"/>
    <nd ref="1046355761"/>
    <nd ref="1046355644"/>
    <nd ref="1046355507"/>
    <tag k="addr:city" v="München"/>
    <tag k="addr:housenumber" v="116"/>
    <tag k="addr:postcode" v="80636"/>
    <tag k="addr:street" v="Dachauer Straße"/>
    <tag k="building" v="yes"/>
    <tag k="building:colour" v="#FFFFC0"/>
    <tag k="building:levels" v="3"/>
    <tag k="contact:phone" v="+49 178 8100335"/>
    <tag k="contact:website" v="https://www.leonrod-haus.de/"/>
    <tag k="name" v="Leonrodhaus für Kunst"/>
    <tag k="roof:colour" v="brown"/>
    <tag k="roof:shape" v="gabled"/>
    <tag k="shop" v="art"/>
    <tag k="tourism" v="gallery"/>
  </way>
  <way id="93064954" version="10" timestamp="2024-06-20T16:15:30Z" changeset="152954192" uid="11040791" user="PendlerMa">
    <nd ref="30975895"/>
    <nd ref="401305161"/>
    <nd ref="3348494597"/>
    <nd ref="1519557025"/>
    <nd ref="330652384"/>
    <tag k="highway" v="residential"/>
    <tag k="lane_markings" v="no"/>
    <tag k="lit" v="yes"/>
    <tag k="maxspeed" v="50"/>
    <tag k="name" v="Leonrodstraße"/>
    <tag k="sidewalk:both" v="separate"/>
    <tag k="surface" v="asphalt"/>
  </way>
  <way id="96213999" version="18" timestamp="2024-05-01T14:07:16Z" changeset="150752758" uid="14742734" user="The_Nickname">
    <nd ref="384529643"/>
    <nd ref="28093505"/>
    <nd ref="2773358040"/>
    <nd ref="335743359"/>
    <nd ref="2100483992"/>
    <nd ref="2773357826"/>
    <nd ref="606107558"/>
    <nd ref="2100483994"/>
    <nd ref="3344660041"/>
    <nd ref="2773357744"/>
    <nd ref="2786290428"/>
    <nd ref="2773357867"/>
    <nd ref="3344660032"/>
    <nd ref="1756521380"/>
    <nd ref="2773423436"/>
    <nd ref="1115250127"/>
    <nd ref="11871871462"/>
    <nd ref="28093531"/>
    <tag k="class:bicycle" v="1"/>
    <tag k="highway" v="residential"/>
    <tag k="lit" v="yes"/>
    <tag k="maxspeed" v="30"/>
    <tag k="name" v="Maria-Luiko-Straße"/>
    <tag k="old_name" v="Hilblestraße"/>
    <tag k="oneway" v="no"/>
    <tag k="sidewalk" v="both"/>
    <tag k="sidewalk:both:surface" v="paving_stones"/>
    <tag k="surface" v="asphalt"/>
  </way>
  <way id="96972976" version="7" timestamp="2024-03-12T12:53:21Z" changeset="148548506" uid="14742734" user="The_Nickname">
    <nd ref="1123675579"/>
    <nd ref="1123675618"/>
    <nd ref="1123675609"/>
    <nd ref="1123675575"/>
    <nd ref="1123675579"/>
    <tag k="addr:city" v="München"/>
    <tag k="addr:country" v="DE"/>
    <tag k="addr:housenumber" v="3"/>
    <tag k="addr:postcode" v="80636"/>
    <tag k="addr:street" v="Leonrodplatz"/>
    <tag k="building" v="yes"/>
    <tag k="building:colour" v="silver"/>
    <tag k="building:levels" v="1"/>
    <tag k="power" v="substation"/>
    <tag k="roof:colour" v="grey"/>
    <tag k="roof:shape" v="flat"/>
  </way>
  <way id="96999577" version="21" timestamp="2025-04-11T05:15:55Z" changeset="164796947" uid="3199858" user="Mateusz Konieczny - bot account">
    <nd ref="1123858964"/>
    <nd ref="1123858966"/>
    <nd ref="7841433023"/>
    <nd ref="3106252316"/>
    <nd ref="1123858968"/>
    <nd ref="3106252317"/>
    <nd ref="4690273606"/>
    <nd ref="4690273605"/>
    <nd ref="7543374912"/>
    <nd ref="4690273604"/>
    <nd ref="1123858970"/>
    <nd ref="1123858973"/>
    <nd ref="1123858976"/>
    <nd ref="2773594145"/>
    <nd ref="1123858964"/>
    <tag k="addr:city" v="München"/>
    <tag k="addr:country" v="DE"/>
    <tag k="addr:housename" v="Alte Feuerwehr"/>
    <tag k="addr:housenumber" v="112h"/>
    <tag k="addr:postcode" v="80636"/>
    <tag k="addr:street" v="Dachauer Straße"/>
    <tag k="building" v="yes"/>
    <tag k="name" v="Gebäude 8"/>
    <tag k="roof:shape" v="gabled"/>
  </way>
  <way id="97455686" version="6" timestamp="2024-09-01T18:55:12Z" changeset="156068421" uid="11758604" user="map per">
    <nd ref="1128569769"/>
    <nd ref="1128569709"/>
    <nd ref="1128569694"/>
    <nd ref="1128569698"/>
    <nd ref="1128569769"/>
    <tag k="building" v="yes"/>
    <tag k="building:levels" v="2"/>
    <tag k="historic" v="yes"/>
    <tag k="name" v="Rohrlagerhalle"/>
    <tag k="roof:shape" v="round"/>
  </way>
  <way id="97455700" version="7" timestamp="2024-09-01T18:55:12Z" changeset="156068421" uid="11758604" user="map per">
    <nd ref="1128569728"/>
    <nd ref="1128569773"/>
    <nd ref="1128569708"/>
    <nd ref="1128569767"/>
    <nd ref="1128569728"/>
    <tag k="addr:city" v="München"/>
    <tag k="addr:housenumber" v="110"/>
    <tag k="addr:postcode" v="80636"/>
    <tag k="addr:street" v="Dachauer Straße"/>
    <tag k="architect" v="Ernst Henle"/>
    <tag k="building" v="industrial"/>
    <tag k="height" v="17"/>
    <tag k="heritage" v="4"/>
    <tag k="heritage:operator" v="BLfD"/>
    <tag k="historic" v="heritage"/>
    <tag k="name" v="Jutierhalle"/>
    <tag k="ref:BLfD" v="D-1-62-000-7824"/>
    <tag k="start_date" v="1926"/>
    <tag k="wikidata" v="Q15056910"/>
  </way>
  <way id="97459558" version="11" timestamp="2023-04-20T17:34:07Z" changeset="135160836" uid="137242" user="Rainero">
    <nd ref="10123868189"/>
    <nd ref="10123868191"/>
    <nd ref="1128588917"/>
    <nd ref="2773594149"/>
    <nd ref="3038060251"/>
    <nd ref="1128588928"/>
    <nd ref="1128588957"/>
    <nd ref="10123868189"/>
    <tag k="addr:city" v="München"/>
    <tag k="addr:housenumber" v="2c"/>
    <tag k="addr:postcode" v="80637"/>
    <tag k="addr:street" v="Schwere-Reiter-Straße"/>
    <tag k="building" v="yes"/>
    <tag k="name" v="MUCCA31"/>
    <tag k="roof:colour" v="#AAAAAA"/>
    <tag k="roof:orientation" v="across"/>
    <tag k="roof:shape" v="gabled"/>
  </way>
  <way id="97459563" version="7" timestamp="2023-04-20T17:34:07Z" changeset="135160836" uid="137242" user="Rainero">
    <nd ref="1128588912"/>
    <nd ref="1128588936"/>
    <nd ref="1128588959"/>
    <nd ref="1128588903"/>
    <nd ref="1128588912"/>
    <tag k="addr:city" v="München"/>
    <tag k="addr:housename" v="Haus 35"/>
    <tag k="addr:housenumber" v="2s"/>
    <tag k="addr:postcode" v="80637"/>
    <tag k="addr:street" v="Schwere-Reiter-Straße"/>
    <tag k="building" v="yes"/>
    <tag k="name" v="Empfangshalle"/>
    <tag k="roof:shape" v="gabled"/>
  </way>
  <way id="97459565" version="11" timestamp="2024-05-14T22:23:27Z" changeset="151334191" uid="9244608" user="LittleJoeMuc">
    <nd ref="1128588951"/>
    <nd ref="1322201758"/>
    <nd ref="1128588909"/>
    <nd ref="1128588956"/>
    <nd ref="1128588921"/>
    <nd ref="1128588962"/>
    <nd ref="2773594153"/>
    <nd ref="1128588954"/>
    <nd ref="2773594160"/>
    <nd ref="1128588905"/>
    <nd ref="1128588948"/>
    <nd ref="2773594098"/>
    <nd ref="2773594038"/>
    <nd ref="2773594130"/>
    <nd ref="1322201720"/>
    <nd ref="1128588951"/>
    <tag k="addr:city" v="München"/>
    <tag k="addr:country" v="DE"/>
    <tag k="addr:housenumber" v="112d"/>
    <tag k="addr:postcode" v="80636"/>
    <tag k="addr:street" v="Dachauer Straße"/>
    <tag k="building" v="yes"/>
    <tag k="building:colour" v="#FFFFB0"/>
    <tag k="building:levels" v="2"/>
    <tag k="name" v="Halle 6"/>
    <tag k="opening_hours" v="Mo-We 12:00-15:00"/>
    <tag k="website" v="https://www.halle6.net"/>
  </way>
  <way id="114425277" version="6" timestamp="2014-07-16T19:43:59Z" changeset="24188634" uid="78613" user="heilbron">
    <nd ref="1296202152"/>
    <nd ref="1296202184"/>
    <nd ref="2773358083"/>
    <nd ref="1296202101"/>
    <nd ref="1296202140"/>
    <nd ref="1296202120"/>
    <nd ref="1296202152"/>
    <tag k="addr:city" v="München"/>
    <tag k="addr:country" v="DE"/>
    <tag k="addr:housenumber" v="2"/>
    <tag k="addr:postcode" v="80636"/>
    <tag k="addr:street" v="Pfänderstraße"/>
    <tag k="building" v="yes"/>
    <tag k="roof:shape" v="gabled"/>
  </way>
  <way id="116232372" version="6" timestamp="2024-10-24T21:20:06Z" changeset="158314202" uid="137242" user="Rainero">
    <nd ref="1310972987"/>
    <nd ref="1310972979"/>
    <nd ref="1310972983"/>
    <nd ref="1310972978"/>
    <nd ref="1310972987"/>
    <tag k="addr:housenumber" v="35a"/>
    <tag k="addr:street" v="Schachenmeierstraße"/>
    <tag k="building" v="yes"/>
    <tag k="operator" v="Deutsche Telekom"/>
    <tag k="roof:colour" v="grey"/>
    <tag k="roof:shape" v="flat"/>
  </way>
  <way id="116940810" version="7" timestamp="2021-03-22T14:31:35Z" changeset="101511730" uid="531886" user="drlellinger">
    <nd ref="1317215636"/>
    <nd ref="1317214997"/>
    <nd ref="1317214750"/>
    <nd ref="1852212725"/>
    <nd ref="2773282869"/>
    <nd ref="1317215636"/>
    <tag k="addr:city" v="München"/>
    <tag k="addr:housenumber" v="40"/>
    <tag k="addr:postcode" v="80636"/>
    <tag k="addr:street" v="Lazarettstraße"/>
    <tag k="building" v="residential"/>
    <tag k="building:flats" v="24"/>
    <tag k="building:levels" v="3"/>
    <tag k="smoking" v="no"/>
  </way>
  <way id="117383033" version="6" timestamp="2020-06-24T16:59:32Z" changeset="87096892" uid="1926531" user="antabeer">
    <nd ref="1322201031"/>
    <nd ref="1322200903"/>
    <nd ref="1322200890"/>
    <nd ref="1322200852"/>
    <nd ref="1322200831"/>
    <nd ref="1322200981"/>
    <nd ref="1322200965"/>
    <nd ref="1322200921"/>
    <nd ref="1322200884"/>
    <nd ref="1322200799"/>
    <nd ref="1322200790"/>
    <nd ref="1322200802"/>
    <nd ref="1322200794"/>
    <nd ref="1322200792"/>
    <nd ref="1322200779"/>
    <nd ref="2773282900"/>
    <nd ref="2773282983"/>
    <nd ref="1322200940"/>
    <nd ref="1322200966"/>
    <nd ref="1322201026"/>
    <nd ref="1322201042"/>
    <nd ref="1322201033"/>
    <nd ref="1322201036"/>
    <nd ref="1322201043"/>
    <nd ref="1322201044"/>
    <nd ref="1322200983"/>
    <nd ref="1322200992"/>
    <nd ref="1322201004"/>
    <nd ref="1322201031"/>
    <tag k="addr:city" v="München"/>
    <tag k="addr:housenumber" v="67"/>
    <tag k="addr:postcode" v="80636"/>
    <tag k="addr:street" v="Lazarettstraße"/>
    <tag k="building" v="yes"/>
    <tag k="office" v="government"/>
    <tag k="roof:colour" v="grey"/>
    <tag k="roof:shape" v="flat"/>
  </way>
  <way id="117383070" version="5" timestamp="2022-08-23T11:07:02Z" changeset="125265797" uid="9333062" user="zorae">
    <nd ref="1322201538"/>
    <nd ref="1322201506"/>
    <nd ref="1322201475"/>
    <nd ref="1322201524"/>
    <nd ref="1322201538"/>
    <tag k="addr:city" v="München"/>
    <tag k="addr:country" v="DE"/>
    <tag k="addr:housenumber" v="110c"/>
    <tag k="addr:postcode" v="80636"/>
    <tag k="addr:street" v="Dachauer Straße"/>
    <tag k="building" v="yes"/>
    <tag k="name" v="Hausmeister Kreativlabor"/>
    <tag k="roof:shape" v="gabled"/>
  </way>
  <way id="117383093" version="9" timestamp="2015-03-24T11:08:56Z" changeset="29700697" uid="2140314" user="MichaelMuehlhaus">
    <nd ref="1322201074"/>
    <nd ref="1322201135"/>
    <nd ref="1322201217"/>
    <nd ref="2773357964"/>
    <nd ref="1322201191"/>
    <nd ref="1322201074"/>
    <tag k="addr:city" v="München"/>
    <tag k="addr:country" v="DE"/>
    <tag k="addr:housenumber" v="2"/>
    <tag k="addr:postcode" v="80636"/>
    <tag k="addr:street" v="Schachenmeierstraße"/>
    <tag k="building" v="apartments"/>
    <tag k="building:levels" v="4"/>
    <tag k="roof:levels" v="1"/>
    <tag k="roof:shape" v="gabled"/>
  </way>
  <way id="117383098" version="7" timestamp="2015-03-24T11:08:56Z" changeset="29700697" uid="2140314" user="MichaelMuehlhaus">
    <nd ref="1322201311"/>
    <nd ref="1322201244"/>
    <nd ref="2773357928"/>
    <nd ref="1322201224"/>
    <nd ref="1322201290"/>
    <nd ref="1322201311"/>
    <tag k="addr:city" v="München"/>
    <tag k="addr:country" v="DE"/>
    <tag k="addr:housenumber" v="21"/>
    <tag k="addr:postcode" v="80636"/>
    <tag k="addr:street" v="Pfänderstraße"/>
    <tag k="building" v="apartments"/>
    <tag k="building:levels" v="4"/>
    <tag k="roof:levels" v="1"/>
    <tag k="roof:shape" v="gabled"/>
  </way>
  <way id="117383112" version="9" timestamp="2024-05-13T11:51:38Z" changeset="151263348" uid="14742734" user="The_Nickname">
    <nd ref="1322201409"/>
    <nd ref="1322201398"/>
    <nd ref="1322201392"/>
    <nd ref="1714170384"/>
    <nd ref="1714170372"/>
    <nd ref="2773357850"/>
    <nd ref="2773358030"/>
    <nd ref="1714170381"/>
    <nd ref="1714170408"/>
    <nd ref="1322201402"/>
    <nd ref="1322201409"/>
    <tag k="addr:city" v="München"/>
    <tag k="addr:country" v="DE"/>
    <tag k="addr:housenumber" v="171"/>
    <tag k="addr:postcode" v="80636"/>
    <tag k="addr:street" v="Dachauer Straße"/>
    <tag k="building" v="apartments"/>
    <tag k="building:levels" v="3"/>
    <tag k="roof:levels" v="2"/>
    <tag k="roof:shape" v="mansard"/>
  </way>
  <way id="117383113" version="7" timestamp="2023-01-19T16:31:55Z" changeset="131474806" uid="10362413" user="FooFooBar">
    <nd ref="1322201620"/>
    <nd ref="1322201446"/>
    <nd ref="1322201434"/>
    <nd ref="1326965865"/>
    <nd ref="10568237110"/>
    <nd ref="1322201598"/>
    <nd ref="1322201620"/>
    <tag k="addr:city" v="München"/>
    <tag k="addr:housenumber" v="110c"/>
    <tag k="addr:postcode" v="80636"/>
    <tag k="addr:street" v="Dachauer Straße"/>
    <tag k="building" v="yes"/>
    <tag k="ref" v="27"/>
    <tag k="roof:shape" v="gabled"/>
  </way>
  <way id="117383117" version="9" timestamp="2025-01-03T20:28:59Z" changeset="160965462" uid="137242" user="Rainero">
    <nd ref="3134223605"/>
    <nd ref="1046355754"/>
    <nd ref="1046355507"/>
    <nd ref="3134223606"/>
    <nd ref="3134223605"/>
    <tag k="addr:city" v="München"/>
    <tag k="addr:country" v="DE"/>
    <tag k="addr:housenumber" v="116a"/>
    <tag k="addr:postcode" v="80636"/>
    <tag k="addr:street" v="Dachauer Straße"/>
    <tag k="building" v="apartments"/>
    <tag k="building:colour" v="beige"/>
    <tag k="building:levels" v="1"/>
    <tag k="image" v="https://schwerereiter.de/wp-content/uploads/2024/04/334_LM_DSC7693_Oliver-Jaist_Architekten-Mahlknecht-Herrle-Architektur-e1713894990242.png"/>
    <tag k="name" v="Schwere Reiter"/>
    <tag k="roof:colour" v="grey"/>
    <tag k="roof:shape" v="flat"/>
  </way>
  <way id="117383122" version="6" timestamp="2022-08-23T10:36:15Z" changeset="125264639" uid="9333062" user="zorae">
    <nd ref="1322201684"/>
    <nd ref="1322201575"/>
    <nd ref="1322201530"/>
    <nd ref="2773722324"/>
    <nd ref="1322201628"/>
    <nd ref="1322201684"/>
    <tag k="addr:city" v="München"/>
    <tag k="addr:housenumber" v="110g"/>
    <tag k="addr:postcode" v="80636"/>
    <tag k="addr:street" v="Dachauer Straße"/>
    <tag k="building" v="yes"/>
    <tag k="name" v="Atelierhaus"/>
    <tag k="operator" v="Dachauer Straße e.V."/>
    <tag k="roof:shape" v="gabled"/>
    <tag k="strapline" v="Mehrgenerationenhaus"/>
    <tag k="tourism" v="gallery"/>
    <tag k="website" v="https://www.atelierhausdachauerstrasse.de"/>
  </way>
  <way id="117383127" version="7" timestamp="2024-10-26T06:21:06Z" changeset="158362639" uid="137242" user="Rainero">
    <nd ref="1322201249"/>
    <nd ref="1322201282"/>
    <nd ref="1322201333"/>
    <nd ref="2773357900"/>
    <nd ref="2773357882"/>
    <nd ref="1322201297"/>
    <nd ref="1322201249"/>
    <tag k="addr:city" v="München"/>
    <tag k="addr:country" v="DE"/>
    <tag k="addr:housenumber" v="23"/>
    <tag k="addr:postcode" v="80636"/>
    <tag k="addr:street" v="Pfänderstraße"/>
    <tag k="building" v="apartments"/>
    <tag k="building:levels" v="2"/>
  </way>
  <way id="117383147" version="10" timestamp="2021-11-23T12:51:44Z" changeset="114139349" uid="999279" user="mc64">
    <nd ref="1322200649"/>
    <nd ref="1852212711"/>
    <nd ref="1322200668"/>
    <nd ref="1322200662"/>
    <nd ref="4261040872"/>
    <nd ref="1322200647"/>
    <nd ref="1322200640"/>
    <nd ref="1322200639"/>
    <nd ref="4261040068"/>
    <nd ref="4261040837"/>
    <nd ref="1322200649"/>
    <tag k="addr:city" v="München"/>
    <tag k="addr:housenumber" v="33"/>
    <tag k="addr:postcode" v="80636"/>
    <tag k="addr:street" v="Lazarettstraße"/>
    <tag k="building" v="office"/>
    <tag k="building:levels" v="5"/>
    <tag k="roof:colour" v="#DDDDDD"/>
    <tag k="roof:shape" v="flat"/>
  </way>
  <way id="117386570" version="7" timestamp="2015-03-19T17:53:58Z" changeset="29597450" uid="59819" user="Fuss-im-Ohr">
    <nd ref="1594981118"/>
    <nd ref="1322200723"/>
    <nd ref="1322200719"/>
    <nd ref="1594981120"/>
    <nd ref="1310972986"/>
    <nd ref="1310972988"/>
    <nd ref="1594981118"/>
    <tag k="addr:city" v="München"/>
    <tag k="addr:country" v="DE"/>
    <tag k="addr:housenumber" v="37"/>
    <tag k="addr:postcode" v="80636"/>
    <tag k="addr:street" v="Schachenmeierstraße"/>
    <tag k="building" v="yes"/>
    <tag k="contact:phone" v="+49 89 126802 0"/>
    <tag k="name" v="Schweisstechnische Lehr-und Versuchsanstalt"/>
    <tag k="roof:colour" v="grey"/>
    <tag k="roof:shape" v="flat"/>
  </way>
  <way id="142109383" version="9" timestamp="2024-04-27T14:07:13Z" changeset="150581734" uid="4376164" user="redweizn">
    <nd ref="1555429497"/>
    <nd ref="1555429483"/>
    <nd ref="3348495799"/>
    <nd ref="1555429469"/>
    <nd ref="1555429447"/>
    <nd ref="1555429383"/>
    <tag k="cycleway:both" v="no"/>
    <tag k="highway" v="unclassified"/>
    <tag k="lane_markings" v="no"/>
    <tag k="maxspeed" v="50"/>
    <tag k="name" v="Schwere-Reiter-Straße"/>
    <tag k="name:etymology:wikidata" v="Q1660893"/>
    <tag k="sidewalk" v="no"/>
    <tag k="surface" v="asphalt"/>
  </way>
  <way id="151636221" version="24" timestamp="2025-03-22T21:16:15Z" changeset="163964538" uid="44217" user="kjon">
    <nd ref="1078717644"/>
    <nd ref="4669341949"/>
    <nd ref="2280854861"/>
    <nd ref="1644728032"/>
    <nd ref="2280854862"/>
    <nd ref="4339055776"/>
    <nd ref="1644728038"/>
    <nd ref="2727736966"/>
    <nd ref="11981820746"/>
    <nd ref="2286207246"/>
    <nd ref="330652384"/>
    <nd ref="1608406670"/>
    <nd ref="2727736953"/>
    <nd ref="3134223598"/>
    <nd ref="3134223601"/>
    <nd ref="1644728041"/>
    <nd ref="1680077919"/>
    <nd ref="1644728052"/>
    <tag k="bicycle" v="use_sidepath"/>
    <tag k="dual_carriageway" v="yes"/>
    <tag k="foot" v="use_sidepath"/>
    <tag k="highway" v="secondary"/>
    <tag k="lanes" v="2"/>
    <tag k="lit" v="yes"/>
    <tag k="maxspeed" v="50"/>
    <tag k="name" v="Leonrodstraße"/>
    <tag k="oneway" v="yes"/>
    <tag k="parking:left" v="no"/>
    <tag k="parking:left:restriction" v="no_stopping"/>
    <tag k="parking:right" v="yes"/>
    <tag k="parking:right:orientation" v="parallel"/>
    <tag k="sidewalk:left" v="no"/>
    <tag k="sidewalk:right" v="separate"/>
    <tag k="source:maxspeed" v="DE:urban"/>
    <tag k="surface" v="asphalt"/>
  </way>
  <way id="151850904" version="16" timestamp="2023-12-07T17:01:21Z" changeset="144874238" uid="14742734" user="The_Nickname">
    <nd ref="363219"/>
    <nd ref="1813187118"/>
    <nd ref="30976055"/>
    <nd ref="28094206"/>
    <nd ref="2773357942"/>
    <nd ref="28094200"/>
    <nd ref="2773282859"/>
    <nd ref="1077566444"/>
    <nd ref="8404369591"/>
    <nd ref="2961663671"/>
    <nd ref="363204"/>
    <tag k="bicycle" v="use_sidepath"/>
    <tag k="highway" v="secondary"/>
    <tag k="lanes" v="2"/>
    <tag k="lit" v="yes"/>
    <tag k="maxspeed" v="50"/>
    <tag k="name" v="Dachauer Straße"/>
    <tag k="oneway" v="yes"/>
    <tag k="parking:left" v="no"/>
    <tag k="sidewalk:left" v="no"/>
    <tag k="sidewalk:right" v="separate"/>
    <tag k="smoothness" v="good"/>
    <tag k="surface" v="asphalt"/>
    <tag k="tmc" v="DE:27959/27960"/>
  </way>
  <way id="163989133" version="11" timestamp="2024-10-31T23:38:18Z" changeset="158601535" uid="61876" user="W001">
    <nd ref="28094200"/>
    <nd ref="773287691"/>
    <nd ref="335559777"/>
    <nd ref="2773358081"/>
    <nd ref="2773358082"/>
    <nd ref="28093518"/>
    <nd ref="2773358051"/>
    <nd ref="2773358048"/>
    <nd ref="8027733426"/>
    <nd ref="2773357989"/>
    <nd ref="28093514"/>
    <tag k="highway" v="residential"/>
    <tag k="lit" v="yes"/>
    <tag k="maxspeed" v="30"/>
    <tag k="name" v="Funkerstraße"/>
    <tag k="old_name" v="Barbarastraße"/>
    <tag k="oneway" v="yes"/>
    <tag k="sidewalk:left" v="separate"/>
    <tag k="sidewalk:right" v="yes"/>
    <tag k="sidewalk:right:surface" v="paving_stones"/>
    <tag k="surface" v="asphalt"/>
  </way>
  <way id="163989138" version="19" timestamp="2025-03-31T14:28:17Z" changeset="164332890" uid="170763" user="SoulCover">
    <nd ref="16527627"/>
    <nd ref="11014173185"/>
    <nd ref="4208491068"/>
    <nd ref="7532956510"/>
    <nd ref="16527626"/>
    <tag k="class:bicycle" v="1"/>
    <tag k="highway" v="residential"/>
    <tag k="lit" v="yes"/>
    <tag k="maxspeed" v="30"/>
    <tag k="motor_vehicle" v="destination"/>
    <tag k="name" v="Gaiglstraße"/>
    <tag k="name:etymology:wikidata" v="Q2262726"/>
    <tag k="parking:both" v="yes"/>
    <tag k="parking:both:orientation" v="parallel"/>
    <tag k="parking:condition:both" v="residents"/>
    <tag k="parking:condition:both:residents" v="St.-Benno-Viertel"/>
    <tag k="sidewalk:both" v="separate"/>
    <tag k="sidewalk:both:surface" v="paving_stones"/>
    <tag k="smoothness" v="good"/>
    <tag k="surface" v="asphalt"/>
    <tag k="width" v="8"/>
  </way>
  <way id="163989140" version="10" timestamp="2022-10-20T15:10:28Z" changeset="127843593" uid="536583" user="Strubbl">
    <nd ref="3344511191"/>
    <nd ref="2773282842"/>
    <nd ref="2773282999"/>
    <nd ref="2773282855"/>
    <nd ref="2773357878"/>
    <nd ref="2773283058"/>
    <nd ref="1115250089"/>
    <nd ref="1115250084"/>
    <nd ref="2773357855"/>
    <nd ref="28093518"/>
    <tag k="highway" v="residential"/>
    <tag k="lit" v="yes"/>
    <tag k="maxspeed" v="30"/>
    <tag k="name" v="Heldstraße"/>
    <tag k="sidewalk" v="separate"/>
    <tag k="surface" v="asphalt"/>
  </way>
  <way id="163989141" version="13" timestamp="2025-03-22T21:16:15Z" changeset="163964538" uid="44217" user="kjon">
    <nd ref="384529643"/>
    <nd ref="2773357939"/>
    <nd ref="335741164"/>
    <nd ref="2773746522"/>
    <nd ref="773287674"/>
    <nd ref="28094206"/>
    <tag k="class:bicycle" v="1"/>
    <tag k="cycleway:both" v="no"/>
    <tag k="highway" v="residential"/>
    <tag k="maxspeed" v="30"/>
    <tag k="name" v="Maria-Luiko-Straße"/>
    <tag k="old_name" v="Hilblestraße"/>
    <tag k="oneway" v="yes"/>
    <tag k="oneway:bicycle" v="no"/>
    <tag k="parking:both" v="lane"/>
    <tag k="parking:both:orientation" v="parallel"/>
    <tag k="sidewalk" v="both"/>
    <tag k="sidewalk:both:surface" v="paving_stones"/>
    <tag k="surface" v="sett"/>
  </way>
  <way id="163989142" version="19" timestamp="2025-05-17T21:35:49Z" changeset="166409637" uid="170763" user="SoulCover">
    <nd ref="1956125"/>
    <nd ref="11014173187"/>
    <nd ref="7664047146"/>
    <nd ref="7664047157"/>
    <nd ref="7606081139"/>
    <nd ref="7606081137"/>
    <nd ref="12224292975"/>
    <nd ref="7933801347"/>
    <nd ref="20980550"/>
    <tag k="class:bicycle" v="1"/>
    <tag k="highway" v="residential"/>
    <tag k="lit" v="yes"/>
    <tag k="maxspeed" v="30"/>
    <tag k="name" v="Linprunstraße"/>
    <tag k="name:etymology:wikidata" v="Q1693803"/>
    <tag k="oneway" v="yes"/>
    <tag k="oneway:bicycle" v="no"/>
    <tag k="parking:both" v="yes"/>
    <tag k="parking:both:orientation" v="parallel"/>
    <tag k="parking:condition:both" v="residents"/>
    <tag k="parking:condition:both:residents" v="St.-Benno-Viertel"/>
    <tag k="sidewalk:both" v="separate"/>
    <tag k="smoothness" v="good"/>
    <tag k="source:maxspeed" v="DE:zone30"/>
    <tag k="surface" v="asphalt"/>
    <tag k="width" v="7.9"/>
  </way>
  <way id="163989145" version="10" timestamp="2024-10-24T21:20:06Z" changeset="158314202" uid="137242" user="Rainero">
    <nd ref="28093514"/>
    <nd ref="28093505"/>
    <tag k="highway" v="residential"/>
    <tag k="lit" v="yes"/>
    <tag k="maxspeed" v="30"/>
    <tag k="name" v="Pfänderstraße"/>
    <tag k="oneway" v="yes"/>
    <tag k="sidewalk" v="both"/>
    <tag k="sidewalk:both:surface" v="paving_stones"/>
    <tag k="source:maxspeed" v="DE:zone30"/>
    <tag k="surface" v="asphalt"/>
  </way>
  <way id="163989146" version="9" timestamp="2024-10-24T21:20:06Z" changeset="158314202" uid="137242" user="Rainero">
    <nd ref="28093500"/>
    <nd ref="28093501"/>
    <nd ref="1296202192"/>
    <nd ref="2773282886"/>
    <nd ref="2773283048"/>
    <nd ref="3016197274"/>
    <nd ref="28093502"/>
    <nd ref="2773357890"/>
    <nd ref="2773358042"/>
    <nd ref="3415692283"/>
    <nd ref="3415692284"/>
    <nd ref="28093514"/>
    <tag k="highway" v="residential"/>
    <tag k="maxspeed" v="30"/>
    <tag k="name" v="Pfänderstraße"/>
    <tag k="sidewalk:right" v="separate"/>
    <tag k="source:maxspeed" v="DE:zone30"/>
    <tag k="surface" v="asphalt"/>
  </way>
  <way id="163989147" version="13" timestamp="2024-10-24T21:20:06Z" changeset="158314202" uid="137242" user="Rainero">
    <nd ref="1756521378"/>
    <nd ref="3344658983"/>
    <nd ref="3415692271"/>
    <nd ref="3344658988"/>
    <nd ref="3415692273"/>
    <nd ref="3344659993"/>
    <nd ref="3344659994"/>
    <nd ref="3415692275"/>
    <nd ref="3344659997"/>
    <nd ref="30996748"/>
    <tag k="class:bicycle" v="1"/>
    <tag k="highway" v="residential"/>
    <tag k="maxspeed" v="30"/>
    <tag k="name" v="Schachenmeierstraße"/>
    <tag k="source:maxspeed" v="DE:zone30"/>
    <tag k="surface" v="asphalt"/>
  </way>
  <way id="174549722" version="11" timestamp="2025-02-24T18:13:09Z" changeset="162903649" uid="22146345" user="eeshi">
    <nd ref="1852212832"/>
    <nd ref="1852212838"/>
    <nd ref="3134223589"/>
    <nd ref="3134223590"/>
    <nd ref="1852212834"/>
    <nd ref="1852212829"/>
    <nd ref="1852212830"/>
    <nd ref="1852212832"/>
    <tag k="addr:city" v="München"/>
    <tag k="addr:housenumber" v="44"/>
    <tag k="addr:postcode" v="80636"/>
    <tag k="addr:street" v="Leonrodstraße"/>
    <tag k="building" v="industrial"/>
    <tag k="building:levels" v="1"/>
  </way>
  <way id="196013324" version="12" timestamp="2024-12-09T07:27:42Z" changeset="160080763" uid="531886" user="drlellinger">
    <nd ref="2063858702"/>
    <nd ref="12406522528"/>
    <nd ref="4322460146"/>
    <nd ref="12406522524"/>
    <nd ref="2063858719"/>
    <nd ref="4322459585"/>
    <nd ref="4322460181"/>
    <nd ref="2063858710"/>
    <nd ref="11811171455"/>
    <nd ref="2063858692"/>
    <nd ref="2063858704"/>
    <nd ref="2063858708"/>
    <nd ref="2063858715"/>
    <nd ref="12406522523"/>
    <nd ref="4322460008"/>
    <nd ref="12406522525"/>
    <nd ref="2773594121"/>
    <nd ref="2063858698"/>
    <nd ref="2063858694"/>
    <nd ref="2063858689"/>
    <nd ref="2063858702"/>
    <tag k="building" v="university"/>
    <tag k="building:levels" v="6"/>
    <tag k="name" v="Gebäude T"/>
    <tag k="roof:shape" v="flat"/>
  </way>
  <way id="236015656" version="3" timestamp="2014-07-16T19:43:59Z" changeset="24188634" uid="78613" user="heilbron">
    <nd ref="1296202120"/>
    <nd ref="2773357727"/>
    <nd ref="1296202175"/>
    <nd ref="1296202165"/>
    <nd ref="1296202160"/>
    <nd ref="1296202152"/>
    <nd ref="1296202120"/>
    <tag k="addr:city" v="München"/>
    <tag k="addr:country" v="DE"/>
    <tag k="addr:housenumber" v="4"/>
    <tag k="addr:postcode" v="80636"/>
    <tag k="addr:street" v="Pfänderstraße"/>
    <tag k="building" v="yes"/>
    <tag k="roof:shape" v="gabled"/>
  </way>
  <way id="267303933" version="5" timestamp="2025-02-24T18:17:23Z" changeset="162903545" uid="22146345" user="eeshi">
    <nd ref="2727736965"/>
    <nd ref="2727736872"/>
    <nd ref="2727736831"/>
    <nd ref="2727736821"/>
    <nd ref="2727736816"/>
    <nd ref="335560012"/>
    <nd ref="2727736848"/>
    <nd ref="2727736852"/>
    <nd ref="2727736965"/>
    <tag k="addr:housenumber" v="46"/>
    <tag k="addr:street" v="Leonrodstraße"/>
    <tag k="building" v="retail"/>
    <tag k="building:levels" v="1"/>
    <tag k="roof:colour" v="grey"/>
    <tag k="roof:shape" v="flat"/>
  </way>
  <way id="267303934" version="5" timestamp="2025-02-24T18:17:19Z" changeset="162903545" uid="22146345" user="eeshi">
    <nd ref="2727736883"/>
    <nd ref="2727736924"/>
    <nd ref="2727736921"/>
    <nd ref="2727736929"/>
    <nd ref="2727736831"/>
    <nd ref="2727736872"/>
    <nd ref="2727736883"/>
    <tag k="addr:housenumber" v="46"/>
    <tag k="addr:street" v="Leonrodstraße"/>
    <tag k="building" v="retail"/>
    <tag k="building:levels" v="1"/>
    <tag k="roof:colour" v="grey"/>
    <tag k="roof:shape" v="flat"/>
  </way>
  <way id="272393812" version="4" timestamp="2022-11-02T21:04:43Z" changeset="128410595" uid="4419653" user="timmito">
    <nd ref="335741232"/>
    <nd ref="335741209"/>
    <nd ref="2773358066"/>
    <nd ref="335741210"/>
    <nd ref="2773357809"/>
    <nd ref="2773357812"/>
    <nd ref="335741211"/>
    <nd ref="335741212"/>
    <nd ref="335741213"/>
    <nd ref="335741214"/>
    <nd ref="2773358068"/>
    <nd ref="335741215"/>
    <nd ref="335741216"/>
    <nd ref="335741232"/>
    <tag k="addr:city" v="München"/>
    <tag k="addr:country" v="DE"/>
    <tag k="addr:housenumber" v="20"/>
    <tag k="addr:postcode" v="80636"/>
    <tag k="addr:street" v="Maria-Luiko-Straße"/>
    <tag k="building" v="apartments"/>
  </way>
  <way id="272429533" version="4" timestamp="2022-08-23T11:07:02Z" changeset="125265797" uid="9333062" user="zorae">
    <nd ref="2773594148"/>
    <nd ref="2773594145"/>
    <nd ref="2773594149"/>
    <nd ref="3038060251"/>
    <nd ref="2773594057"/>
    <nd ref="2773594148"/>
    <tag k="addr:city" v="München"/>
    <tag k="addr:housename" v="Zona Libre"/>
    <tag k="addr:housenumber" v="112j"/>
    <tag k="addr:postcode" v="80636"/>
    <tag k="addr:street" v="Dachauer Straße"/>
    <tag k="building" v="yes"/>
  </way>
  <way id="273803056" version="12" timestamp="2024-04-27T14:07:17Z" changeset="150581734" uid="4376164" user="redweizn">
    <nd ref="2786152398"/>
    <nd ref="2786152450"/>
    <nd ref="3865520246"/>
    <nd ref="3934311757"/>
    <nd ref="3865520247"/>
    <nd ref="3865520248"/>
    <tag k="class:bicycle" v="-2"/>
    <tag k="cycleway:both" v="no"/>
    <tag k="highway" v="unclassified"/>
    <tag k="lane_markings" v="no"/>
    <tag k="lit" v="yes"/>
    <tag k="maxspeed:type" v="DE:urban"/>
    <tag k="name" v="Schwere-Reiter-Straße"/>
    <tag k="name:etymology:wikidata" v="Q1660893"/>
    <tag k="sidewalk" v="no"/>
    <tag k="surface" v="asphalt"/>
  </way>
  <way id="278513971" version="20" timestamp="2024-05-09T09:26:55Z" changeset="151090132" uid="13987295" user="Arthur B E">
    <nd ref="2828788601"/>
    <nd ref="11273969843"/>
    <nd ref="1659064546"/>
    <nd ref="2773686872"/>
    <nd ref="2773686854"/>
    <nd ref="1659064558"/>
    <nd ref="442006470"/>
    <nd ref="4184324340"/>
    <nd ref="1737279708"/>
    <tag k="bicycle" v="yes"/>
    <tag k="class:bicycle" v="2"/>
    <tag k="cycleway:both" v="lane"/>
    <tag k="cycleway:both:lane" v="exclusive"/>
    <tag k="foot" v="use_sidepath"/>
    <tag k="highway" v="tertiary"/>
    <tag k="lanes" v="2"/>
    <tag k="lit" v="yes"/>
    <tag k="maxspeed" v="50"/>
    <tag k="name" v="Lothstraße"/>
    <tag k="parking:both:orientation" v="parallel"/>
    <tag k="parking:left" v="lane"/>
    <tag k="parking:right" v="street_side"/>
    <tag k="sidewalk" v="separate"/>
    <tag k="smoothness" v="excellent"/>
    <tag k="surface" v="asphalt"/>
  </way>
  <way id="292598636" version="9" timestamp="2025-03-22T21:16:15Z" changeset="163964538" uid="44217" user="kjon">
    <nd ref="16259287"/>
    <nd ref="1813187101"/>
    <nd ref="3348494996"/>
    <nd ref="1813187128"/>
    <nd ref="5478938790"/>
    <nd ref="5478938792"/>
    <nd ref="363219"/>
    <tag k="bicycle" v="use_sidepath"/>
    <tag k="foot" v="use_sidepath"/>
    <tag k="highway" v="secondary"/>
    <tag k="lanes" v="4"/>
    <tag k="lit" v="yes"/>
    <tag k="maxspeed" v="50"/>
    <tag k="name" v="Dachauer Straße"/>
    <tag k="oneway" v="yes"/>
    <tag k="parking:both" v="no"/>
    <tag k="sidewalk:left" v="no"/>
    <tag k="sidewalk:right" v="separate"/>
    <tag k="surface" v="asphalt"/>
    <tag k="tmc" v="DE:27960/27961"/>
    <tag k="turn:lanes" v="left|left|through|through"/>
  </way>
  <way id="292598638" version="9" timestamp="2025-03-22T21:16:15Z" changeset="163964538" uid="44217" user="kjon">
    <nd ref="363211"/>
    <nd ref="5478938798"/>
    <nd ref="5478938799"/>
    <nd ref="1813187099"/>
    <nd ref="3348494997"/>
    <nd ref="5478938796"/>
    <nd ref="1813187096"/>
    <nd ref="5478938794"/>
    <nd ref="16259472"/>
    <tag k="bicycle" v="use_sidepath"/>
    <tag k="foot" v="use_sidepath"/>
    <tag k="highway" v="secondary"/>
    <tag k="lanes" v="3"/>
    <tag k="lit" v="yes"/>
    <tag k="maxspeed" v="50"/>
    <tag k="name" v="Dachauer Straße"/>
    <tag k="oneway" v="yes"/>
    <tag k="parking:both" v="no"/>
    <tag k="sidewalk:left" v="no"/>
    <tag k="sidewalk:right" v="separate"/>
    <tag k="surface" v="asphalt"/>
    <tag k="tmc" v="DE:27960"/>
  </way>
  <way id="303513099" version="10" timestamp="2025-03-22T21:16:15Z" changeset="163964538" uid="44217" user="kjon">
    <nd ref="363204"/>
    <nd ref="3953674882"/>
    <nd ref="3953674883"/>
    <nd ref="3953674884"/>
    <nd ref="20980541"/>
    <tag k="class:bicycle" v="-1"/>
    <tag k="cycleway:both" v="separate"/>
    <tag k="highway" v="residential"/>
    <tag k="lanes" v="2"/>
    <tag k="lit" v="yes"/>
    <tag k="maxspeed" v="50"/>
    <tag k="name" v="Lazarettstraße"/>
    <tag k="parking:both" v="no"/>
    <tag k="sidewalk" v="separate"/>
    <tag k="surface" v="asphalt"/>
  </way>
  <way id="308136999" version="6" timestamp="2023-05-16T14:24:04Z" changeset="136172074" uid="14742734" user="The_Nickname">
    <nd ref="3134223606"/>
    <nd ref="1322202044"/>
    <nd ref="1322202009"/>
    <nd ref="3134223605"/>
    <nd ref="3134223606"/>
    <tag k="addr:city" v="München"/>
    <tag k="addr:housename" v="Haus 2"/>
    <tag k="addr:housenumber" v="2b"/>
    <tag k="addr:postcode" v="80637"/>
    <tag k="addr:street" v="Schwere-Reiter-Straße"/>
    <tag k="building" v="office"/>
    <tag k="building:colour" v="white"/>
    <tag k="building:levels" v="3"/>
    <tag k="roof:levels" v="1"/>
    <tag k="roof:shape" v="gabled"/>
  </way>
  <way id="310823110" version="8" timestamp="2022-10-20T15:10:03Z" changeset="127843593" uid="536583" user="Strubbl">
    <nd ref="3163106088"/>
    <nd ref="1555429447"/>
    <nd ref="4184324336"/>
    <nd ref="2786152450"/>
    <nd ref="3163106087"/>
    <tag k="bicycle" v="use_sidepath"/>
    <tag k="foot" v="use_sidepath"/>
    <tag k="highway" v="secondary"/>
    <tag k="lanes" v="3"/>
    <tag k="maxspeed" v="50"/>
    <tag k="name" v="Schwere-Reiter-Straße"/>
    <tag k="name:etymology:wikidata" v="Q1660893"/>
    <tag k="oneway" v="yes"/>
    <tag k="sidewalk:left" v="no"/>
    <tag k="sidewalk:right" v="separate"/>
    <tag k="surface" v="asphalt"/>
  </way>
  <way id="313576542" version="13" timestamp="2025-03-22T21:16:15Z" changeset="163964538" uid="44217" user="kjon">
    <nd ref="3195741457"/>
    <nd ref="3528517064"/>
    <nd ref="967126056"/>
    <nd ref="11818416144"/>
    <nd ref="363206"/>
    <tag k="bicycle" v="use_sidepath"/>
    <tag k="dual_carriageway" v="yes"/>
    <tag k="foot" v="use_sidepath"/>
    <tag k="highway" v="secondary"/>
    <tag k="lanes" v="2"/>
    <tag k="lit" v="yes"/>
    <tag k="maxspeed" v="50"/>
    <tag k="name" v="Dachauer Straße"/>
    <tag k="oneway" v="yes"/>
    <tag k="parking:both" v="no"/>
    <tag k="sidewalk:left" v="no"/>
    <tag k="sidewalk:right" v="separate"/>
    <tag k="smoothness" v="good"/>
    <tag k="surface" v="asphalt"/>
    <tag k="tmc" v="DE:27959/27960"/>
    <tag k="turn:lanes" v="through|through;right"/>
  </way>
  <way id="313576543" version="11" timestamp="2025-05-14T10:32:33Z" changeset="166248108" uid="170763" user="SoulCover">
    <nd ref="3195741456"/>
    <nd ref="3528516657"/>
    <nd ref="3528517035"/>
    <nd ref="967126082"/>
    <nd ref="20980542"/>
    <tag k="bicycle" v="use_sidepath"/>
    <tag k="foot" v="use_sidepath"/>
    <tag k="highway" v="secondary"/>
    <tag k="lanes" v="2"/>
    <tag k="lit" v="yes"/>
    <tag k="maxspeed" v="50"/>
    <tag k="name" v="Dachauer Straße"/>
    <tag k="oneway" v="yes"/>
    <tag k="parking:both" v="no"/>
    <tag k="sidewalk:left" v="no"/>
    <tag k="sidewalk:right" v="separate"/>
    <tag k="smoothness" v="good"/>
    <tag k="surface" v="asphalt"/>
    <tag k="tmc" v="DE:27959/27960"/>
    <tag k="turn:lanes" v="through|through;right"/>
  </way>
  <way id="316052842" version="7" timestamp="2025-03-22T21:16:15Z" changeset="163964538" uid="44217" user="kjon">
    <nd ref="363219"/>
    <nd ref="5478938793"/>
    <nd ref="5478938791"/>
    <nd ref="774448424"/>
    <nd ref="774448425"/>
    <nd ref="1971287920"/>
    <nd ref="5478938797"/>
    <nd ref="363211"/>
    <tag k="bicycle" v="use_sidepath"/>
    <tag k="foot" v="use_sidepath"/>
    <tag k="highway" v="secondary"/>
    <tag k="lanes" v="3"/>
    <tag k="lit" v="yes"/>
    <tag k="maxspeed" v="50"/>
    <tag k="name" v="Leonrodstraße"/>
    <tag k="oneway" v="yes"/>
    <tag k="parking:both" v="no"/>
    <tag k="sidewalk:left" v="no"/>
    <tag k="sidewalk:right" v="separate"/>
    <tag k="surface" v="asphalt"/>
  </way>
  <way id="316052843" version="8" timestamp="2025-03-22T21:16:15Z" changeset="163964538" uid="44217" user="kjon">
    <nd ref="1644728052"/>
    <nd ref="30996694"/>
    <nd ref="8404361680"/>
    <nd ref="1813187126"/>
    <nd ref="363219"/>
    <tag k="bicycle" v="use_sidepath"/>
    <tag k="foot" v="use_sidepath"/>
    <tag k="highway" v="secondary"/>
    <tag k="lanes" v="3"/>
    <tag k="lit" v="yes"/>
    <tag k="maxspeed" v="50"/>
    <tag k="name" v="Leonrodstraße"/>
    <tag k="oneway" v="yes"/>
    <tag k="parking:both" v="no"/>
    <tag k="sidewalk:left" v="no"/>
    <tag k="sidewalk:right" v="separate"/>
    <tag k="surface" v="asphalt"/>
    <tag k="turn:lanes" v="left|through|through;right"/>
  </way>
  <way id="333612516" version="2" timestamp="2019-03-11T16:56:59Z" changeset="68030180" uid="9451067" user="b-jazz-bot">
    <nd ref="3407341974"/>
    <nd ref="3407341976"/>
    <nd ref="3407341984"/>
    <nd ref="3407341982"/>
    <nd ref="3407341981"/>
    <nd ref="3407341980"/>
    <nd ref="3407341974"/>
    <tag k="addr:city" v="München"/>
    <tag k="addr:country" v="DE"/>
    <tag k="addr:housenumber" v="37"/>
    <tag k="addr:postcode" v="80636"/>
    <tag k="addr:street" v="Schachenmeierstraße"/>
    <tag k="building" v="yes"/>
    <tag k="fax" v="+49 89 89 181643"/>
    <tag k="name" v="GSI SLV"/>
    <tag k="operator" v="GSI Gesellschaft für Schweißtechnik International mbH Niederlassung SLV München"/>
    <tag k="phone" v="+49 89 1268020"/>
    <tag k="roof:colour" v="grey"/>
    <tag k="roof:shape" v="flat"/>
    <tag k="website" v="https://www.slv-muenchen.de/"/>
  </way>
  <way id="455776514" version="5" timestamp="2024-03-27T13:38:48Z" changeset="149226429" uid="531886" user="drlellinger">
    <nd ref="1706987038"/>
    <nd ref="1706987039"/>
    <nd ref="1706987037"/>
    <nd ref="4521483567"/>
    <nd ref="4521483568"/>
    <nd ref="4521483565"/>
    <nd ref="4521483566"/>
    <nd ref="4521641400"/>
    <nd ref="1706987038"/>
    <tag k="building" v="university"/>
    <tag k="name" v="Gebäude I"/>
    <tag k="ref" v="I"/>
  </way>
  <way id="501462498" version="9" timestamp="2025-03-22T21:16:15Z" changeset="163964538" uid="44217" user="kjon">
    <nd ref="2773358079"/>
    <nd ref="8404369590"/>
    <nd ref="773287547"/>
    <nd ref="363204"/>
    <tag k="class:bicycle" v="-1"/>
    <tag k="cycleway" v="track"/>
    <tag k="highway" v="residential"/>
    <tag k="lit" v="yes"/>
    <tag k="maxspeed" v="30"/>
    <tag k="name" v="Lazarettstraße"/>
    <tag k="parking:both" v="lane"/>
    <tag k="parking:both:orientation" v="parallel"/>
    <tag k="parking:condition:both" v="ticket"/>
    <tag k="parking:condition:both:default" v="free"/>
    <tag k="parking:condition:both:residents" v="St.-Benno-Viertel"/>
    <tag k="parking:condition:both:time_interval" v="Mo-Sa 09:00-23:00"/>
    <tag k="sidewalk:left" v="yes"/>
    <tag k="sidewalk:left:surface" v="paving_stones"/>
    <tag k="sidewalk:right" v="separate"/>
    <tag k="smoothness" v="excellent"/>
    <tag k="surface" v="asphalt"/>
  </way>
  <way id="560341945" version="6" timestamp="2025-03-22T21:16:15Z" changeset="163964538" uid="44217" user="kjon">
    <nd ref="363200"/>
    <nd ref="1317215288"/>
    <nd ref="3344658964"/>
    <tag k="class:bicycle" v="1"/>
    <tag k="cycleway" v="track"/>
    <tag k="highway" v="residential"/>
    <tag k="lit" v="yes"/>
    <tag k="maxspeed" v="30"/>
    <tag k="name" v="Lazarettstraße"/>
    <tag k="parking:both" v="lane"/>
    <tag k="parking:both:orientation" v="parallel"/>
    <tag k="parking:condition:both" v="ticket"/>
    <tag k="parking:condition:both:default" v="free"/>
    <tag k="parking:condition:both:residents" v="St.-Benno-Viertel"/>
    <tag k="parking:condition:both:time_interval" v="Mo-Sa 09:00-23:00"/>
    <tag k="sidewalk:left" v="yes"/>
    <tag k="sidewalk:left:surface" v="paving_stones"/>
    <tag k="sidewalk:right" v="separate"/>
    <tag k="smoothness" v="excellent"/>
    <tag k="surface" v="asphalt"/>
  </way>
  <way id="702126561" version="13" timestamp="2025-03-22T21:16:15Z" changeset="163964538" uid="44217" user="kjon">
    <nd ref="28094209"/>
    <nd ref="11619582573"/>
    <nd ref="21499189"/>
    <nd ref="1326540667"/>
    <nd ref="11871877770"/>
    <nd ref="3344658962"/>
    <nd ref="6593546827"/>
    <nd ref="12117479445"/>
    <nd ref="6206001866"/>
    <nd ref="6593546829"/>
    <nd ref="6593546828"/>
    <nd ref="8925783737"/>
    <nd ref="363199"/>
    <tag k="class:bicycle" v="1"/>
    <tag k="cycleway:both" v="no"/>
    <tag k="highway" v="residential"/>
    <tag k="lit" v="yes"/>
    <tag k="maxspeed" v="30"/>
    <tag k="name" v="Albrechtstraße"/>
    <tag k="parking:both" v="lane"/>
    <tag k="parking:both:orientation" v="parallel"/>
    <tag k="sidewalk" v="separate"/>
    <tag k="smoothness" v="good"/>
    <tag k="surface" v="asphalt"/>
  </way>
  <way id="923823559" version="8" timestamp="2024-05-04T09:34:42Z" changeset="150870884" uid="2487211" user="m_wip">
    <nd ref="8575532782"/>
    <nd ref="8575532783"/>
    <nd ref="10124186430"/>
    <nd ref="8575532784"/>
    <nd ref="8822946147"/>
    <nd ref="8822946146"/>
    <nd ref="10024900218"/>
    <nd ref="8822946145"/>
    <nd ref="8822946148"/>
    <nd ref="8575532785"/>
    <nd ref="8575532782"/>
    <tag k="building" v="commercial"/>
    <tag k="contact:email" v="welcome@munich-urban-colab.com"/>
    <tag k="contact:facebook" v="https://www.facebook.com/UnternehmerTUM/"/>
    <tag k="contact:instagram" v="https://www.instagram.com/unternehmertum_munich/"/>
    <tag k="contact:linkedin" v="https://www.linkedin.com/company/unternehmertum"/>
    <tag k="contact:phone" v="+49 89 541 9870000"/>
    <tag k="contact:twitter" v="https://twitter.com/utum_muc"/>
    <tag k="contact:website" v="https://www.munich-urban-colab.de"/>
    <tag k="contact:youtube" v="https://www.youtube.com/channel/UCLlv_6hEF9KoKqM9uLPKHDg"/>
    <tag k="name" v="Munich Urban Colab"/>
    <tag k="office" v="coworking"/>
    <tag k="opening_hours" v="Mo-Fr 08:00-18:00"/>
    <tag k="start_date" v="2021-06-28"/>
  </way>
  <way id="1088413731" version="3" timestamp="2024-08-02T13:48:11Z" changeset="154737638" uid="14742734" user="The_Nickname">
    <nd ref="9971972409"/>
    <nd ref="9971972410"/>
    <nd ref="9971972411"/>
    <nd ref="9971972412"/>
    <nd ref="9971972409"/>
    <tag k="addr:city" v="München"/>
    <tag k="addr:housenumber" v="114a"/>
    <tag k="addr:postcode" v="80636"/>
    <tag k="addr:street" v="Dachauer Straße"/>
    <tag k="building" v="yes"/>
    <tag k="building:colour" v="#85552e"/>
    <tag k="building:material" v="metal"/>
    <tag k="name" v="Schwere Reiter"/>
    <tag k="tourism" v="gallery"/>
  </way>
  <way id="1088413732" version="4" timestamp="2024-05-10T12:46:30Z" changeset="151144676" uid="14742734" user="The_Nickname">
    <nd ref="9971972413"/>
    <nd ref="9971972414"/>
    <nd ref="9971972415"/>
    <nd ref="9971972416"/>
    <nd ref="9971999317"/>
    <nd ref="9971999318"/>
    <nd ref="9971999349"/>
    <nd ref="9971972413"/>
    <tag k="addr:city" v="München"/>
    <tag k="addr:housenumber" v="114"/>
    <tag k="addr:postcode" v="80636"/>
    <tag k="addr:street" v="Dachauer Straße"/>
    <tag k="building" v="container"/>
    <tag k="building:material" v="metal"/>
    <tag k="roof:material" v="metal"/>
    <tag k="roof:shape" v="flat"/>
  </way>
  <way id="1088413733" version="3" timestamp="2024-05-10T12:46:31Z" changeset="151144676" uid="14742734" user="The_Nickname">
    <nd ref="9971999319"/>
    <nd ref="9971999320"/>
    <nd ref="9971999321"/>
    <nd ref="9971999322"/>
    <nd ref="9971999323"/>
    <nd ref="9971999324"/>
    <nd ref="9971999325"/>
    <nd ref="9971999326"/>
    <nd ref="9971999319"/>
    <tag k="addr:city" v="München"/>
    <tag k="addr:housenumber" v="114"/>
    <tag k="addr:postcode" v="80636"/>
    <tag k="addr:street" v="Dachauer Straße"/>
    <tag k="building" v="container"/>
    <tag k="building:material" v="metal"/>
    <tag k="roof:material" v="metal"/>
    <tag k="roof:shape" v="flat"/>
    <tag k="tourism" v="gallery"/>
  </way>
  <way id="1088413734" version="3" timestamp="2024-05-10T12:46:31Z" changeset="151144676" uid="14742734" user="The_Nickname">
    <nd ref="9971999327"/>
    <nd ref="9971999328"/>
    <nd ref="9971999329"/>
    <nd ref="9971999330"/>
    <nd ref="9971999331"/>
    <nd ref="9971999332"/>
    <nd ref="9971999333"/>
    <nd ref="9971999334"/>
    <nd ref="9971999327"/>
    <tag k="addr:city" v="München"/>
    <tag k="addr:housenumber" v="114"/>
    <tag k="addr:postcode" v="80636"/>
    <tag k="addr:street" v="Dachauer Straße"/>
    <tag k="building" v="container"/>
    <tag k="building:material" v="metal"/>
    <tag k="roof:material" v="metal"/>
    <tag k="roof:shape" v="flat"/>
  </way>
  <way id="1088413735" version="3" timestamp="2024-05-10T12:46:31Z" changeset="151144676" uid="14742734" user="The_Nickname">
    <nd ref="9971999335"/>
    <nd ref="9971999336"/>
    <nd ref="9971999337"/>
    <nd ref="9971999338"/>
    <nd ref="9971999339"/>
    <nd ref="9971999340"/>
    <nd ref="9971999335"/>
    <tag k="addr:city" v="München"/>
    <tag k="addr:housenumber" v="114"/>
    <tag k="addr:postcode" v="80636"/>
    <tag k="addr:street" v="Dachauer Straße"/>
    <tag k="building" v="container"/>
    <tag k="building:material" v="metal"/>
    <tag k="roof:material" v="metal"/>
    <tag k="roof:shape" v="flat"/>
    <tag k="tourism" v="gallery"/>
  </way>
  <way id="1105553618" version="4" timestamp="2025-03-22T21:16:15Z" changeset="163964538" uid="44217" user="kjon">
    <nd ref="30989153"/>
    <nd ref="1282722746"/>
    <nd ref="2773358079"/>
    <tag k="class:bicycle" v="1"/>
    <tag k="cycleway" v="track"/>
    <tag k="highway" v="residential"/>
    <tag k="lit" v="yes"/>
    <tag k="maxspeed" v="30"/>
    <tag k="name" v="Lazarettstraße"/>
    <tag k="parking:both" v="lane"/>
    <tag k="parking:both:orientation" v="parallel"/>
    <tag k="parking:condition:both" v="ticket"/>
    <tag k="parking:condition:both:default" v="free"/>
    <tag k="parking:condition:both:residents" v="St.-Benno-Viertel"/>
    <tag k="parking:condition:both:time_interval" v="Mo-Sa 09:00-23:00"/>
    <tag k="sidewalk" v="separate"/>
    <tag k="smoothness" v="excellent"/>
    <tag k="surface" v="asphalt"/>
  </way>
  <way id="1105553623" version="3" timestamp="2023-03-25T00:22:45Z" changeset="134088668" uid="14742734" user="The_Nickname">
    <nd ref="30989153"/>
    <nd ref="4521218427"/>
    <nd ref="2773357975"/>
    <nd ref="28093500"/>
    <tag k="highway" v="residential"/>
    <tag k="lit" v="yes"/>
    <tag k="maxspeed" v="30"/>
    <tag k="name" v="Heldstraße"/>
    <tag k="sidewalk:left" v="yes"/>
    <tag k="sidewalk:left:surface" v="paving_stones"/>
    <tag k="sidewalk:right" v="separate"/>
    <tag k="surface" v="asphalt"/>
  </way>
  <way id="1105553624" version="2" timestamp="2023-03-25T00:22:46Z" changeset="134088681" uid="14742734" user="The_Nickname">
    <nd ref="28093500"/>
    <nd ref="2773357973"/>
    <nd ref="3344511191"/>
    <tag k="highway" v="residential"/>
    <tag k="lit" v="yes"/>
    <tag k="maxspeed" v="30"/>
    <tag k="name" v="Heldstraße"/>
    <tag k="sidewalk:both" v="separate"/>
    <tag k="surface" v="asphalt"/>
  </way>
  <way id="1106336494" version="2" timestamp="2023-04-20T17:34:07Z" changeset="135160836" uid="137242" user="Rainero">
    <nd ref="1128588957"/>
    <nd ref="10123868184"/>
    <nd ref="10123868183"/>
    <nd ref="1128588963"/>
    <nd ref="10123868193"/>
    <nd ref="1128588922"/>
    <nd ref="10123868192"/>
    <nd ref="10123868189"/>
    <nd ref="1128588957"/>
    <tag k="addr:city" v="München"/>
    <tag k="addr:housenumber" v="2c"/>
    <tag k="addr:postcode" v="80637"/>
    <tag k="addr:street" v="Schwere-Reiter-Straße"/>
    <tag k="building" v="yes"/>
    <tag k="roof:colour" v="#AAAAAA"/>
    <tag k="roof:shape" v="gabled"/>
    <tag k="website" v="https://mucca.org/"/>
  </way>
  <way id="1114967668" version="7" timestamp="2025-03-22T21:16:15Z" changeset="163964538" uid="44217" user="kjon">
    <nd ref="20980542"/>
    <nd ref="11818416145"/>
    <nd ref="967126095"/>
    <nd ref="3528517074"/>
    <nd ref="11331030170"/>
    <nd ref="2063858677"/>
    <tag k="bicycle" v="use_sidepath"/>
    <tag k="foot" v="use_sidepath"/>
    <tag k="highway" v="secondary"/>
    <tag k="lanes" v="2"/>
    <tag k="lit" v="yes"/>
    <tag k="maxspeed" v="50"/>
    <tag k="name" v="Dachauer Straße"/>
    <tag k="oneway" v="yes"/>
    <tag k="parking:both" v="no"/>
    <tag k="sidewalk:left" v="no"/>
    <tag k="sidewalk:right" v="separate"/>
    <tag k="smoothness" v="excellent"/>
    <tag k="surface" v="asphalt"/>
    <tag k="tmc" v="DE:27959/27960"/>
  </way>
  <way id="1229492877" version="1" timestamp="2023-12-07T17:01:21Z" changeset="144874238" uid="14742734" user="The_Nickname">
    <nd ref="546198880"/>
    <nd ref="534594386"/>
    <tag k="bicycle" v="use_sidepath"/>
    <tag k="highway" v="secondary"/>
    <tag k="lanes" v="2"/>
    <tag k="lit" v="yes"/>
    <tag k="maxspeed" v="50"/>
    <tag k="name" v="Dachauer Straße"/>
    <tag k="oneway" v="yes"/>
    <tag k="parking:left" v="no"/>
    <tag k="sidewalk:left" v="no"/>
    <tag k="sidewalk:right" v="separate"/>
    <tag k="surface" v="asphalt"/>
    <tag k="tmc" v="DE:27959/27960"/>
  </way>
  <way id="1266629275" version="3" timestamp="2024-03-26T22:37:08Z" changeset="149197947" uid="14742734" user="The_Nickname">
    <nd ref="28093531"/>
    <nd ref="1115250186"/>
    <nd ref="1115250211"/>
    <nd ref="3344660001"/>
    <nd ref="2100484008"/>
    <nd ref="1756521379"/>
    <tag k="class:bicycle" v="1"/>
    <tag k="highway" v="residential"/>
    <tag k="maxspeed" v="30"/>
    <tag k="name" v="Schachenmeierstraße"/>
    <tag k="sidewalk" v="both"/>
    <tag k="sidewalk:both:surface" v="paving_stones"/>
    <tag k="surface" v="asphalt"/>
  </way>
  <way id="1266629314" version="2" timestamp="2024-03-26T22:37:10Z" changeset="149198002" uid="14742734" user="The_Nickname">
    <nd ref="1756521379"/>
    <nd ref="7359305704"/>
    <nd ref="1756521378"/>
    <tag k="class:bicycle" v="1"/>
    <tag k="highway" v="residential"/>
    <tag k="maxspeed" v="30"/>
    <tag k="name" v="Schachenmeierstraße"/>
    <tag k="sidewalk:right" v="separate"/>
    <tag k="surface" v="asphalt"/>
  </way>
  <way id="1282439221" version="3" timestamp="2024-05-13T11:51:33Z" changeset="151263351" uid="14742734" user="The_Nickname">
    <nd ref="30996748"/>
    <nd ref="3415692277"/>
    <nd ref="3344660002"/>
    <nd ref="3415692278"/>
    <nd ref="30976828"/>
    <nd ref="3344660006"/>
    <nd ref="3415692280"/>
    <nd ref="28093502"/>
    <tag k="class:bicycle" v="1"/>
    <tag k="highway" v="residential"/>
    <tag k="maxspeed" v="30"/>
    <tag k="name" v="Schachenmeierstraße"/>
    <tag k="sidewalk" v="left"/>
    <tag k="sidewalk:left:surface" v="paving_stones"/>
    <tag k="surface" v="asphalt"/>
  </way>
  <relation id="1075800" version="8" timestamp="2025-02-24T18:03:36Z" changeset="162903545" uid="22146345" user="eeshi">
    <member type="way" ref="68352709" role="inner"/>
    <member type="way" ref="68352708" role="outer"/>
    <tag k="addr:housenumber" v="14"/>
    <tag k="addr:street" v="Albrechtstraße"/>
    <tag k="building" v="office"/>
    <tag k="type" v="multipolygon"/>
  </relation>
  <relation id="1359570" version="5" timestamp="2022-02-08T21:37:45Z" changeset="117178108" uid="11758604" user="map per">
    <member type="way" ref="75279671" role="outer"/>
    <member type="way" ref="75279676" role="inner"/>
    <tag k="addr:city" v="München"/>
    <tag k="addr:country" v="DE"/>
    <tag k="addr:housenumber" v="4"/>
    <tag k="addr:postcode" v="80636"/>
    <tag k="addr:street" v="Kapschstraße"/>
    <tag k="building" v="yes"/>
    <tag k="type" v="multipolygon"/>
  </relation>
  <relation id="3634165" version="9" timestamp="2023-04-11T12:44:22Z" changeset="134772607" uid="531886" user="drlellinger">
    <member type="way" ref="37338539" role="outer"/>
    <tag k="addr:housename" v="Gebäude X"/>
    <tag k="addr:housenumber" v="17"/>
    <tag k="addr:street" v="Lothstraße"/>
    <tag k="building" v="university"/>
    <tag k="building:levels" v="3"/>
    <tag k="internet_access" v="wlan"/>
    <tag k="internet_access:fee" v="no"/>
    <tag k="internet_access:ssid" v="@BayernWLAN"/>
    <tag k="name" v="Zeughaus - Gebäude X"/>
    <tag k="operator" v="Hochschule München"/>
    <tag k="operator:type" v="public"/>
    <tag k="ref" v="X"/>
    <tag k="roof:levels" v="0"/>
    <tag k="type" v="multipolygon"/>
    <tag k="wikidata" v="Q196963"/>
    <tag k="wikipedia" v="de:Zeughaus München (Lothstraße)"/>
  </relation>

</osm>
