<?xml version="1.0" encoding="UTF-8"?>
<osm version="0.6" generator="Overpass API 0.7.62.5 1bd436f1">
<note>The data included in this document is from www.openstreetmap.org. The data is made available under ODbL.</note>
<meta osm_base="2025-05-18T03:17:56Z" areas="2024-12-31T00:49:33Z"/>

  <node id="1955427" lat="48.1257605" lon="11.5507481" version="6" timestamp="2012-02-05T18:19:50Z" changeset="10596544" uid="224490" user="Geo-Tobi"/>
  <node id="5071771" lat="48.1267076" lon="11.5527986" version="10" timestamp="2020-10-18T15:17:15Z" changeset="92660250" uid="26299" user="uboot"/>
  <node id="25876187" lat="48.1212522" lon="11.5538773" version="4" timestamp="2022-10-20T16:51:13Z" changeset="127847866" uid="8748" user="ToniE"/>
  <node id="27358787" lat="48.1251039" lon="11.5618388" version="10" timestamp="2025-01-24T16:53:59Z" changeset="161720515" uid="38546" user="wikimax"/>
  <node id="27470148" lat="48.1254333" lon="11.5608805" version="11" timestamp="2025-01-24T16:53:59Z" changeset="161720515" uid="38546" user="wikimax"/>
  <node id="27470266" lat="48.1282517" lon="11.5560681" version="8" timestamp="2015-05-04T23:26:38Z" changeset="30794039" uid="354141" user="Anoniman"/>
  <node id="27579741" lat="48.1274899" lon="11.5542186" version="6" timestamp="2012-03-03T16:02:13Z" changeset="10859210" uid="342705" user="KonB"/>
  <node id="27784294" lat="48.1226371" lon="11.5593262" version="10" timestamp="2024-08-07T19:02:36Z" changeset="154950262" uid="8748" user="ToniE"/>
  <node id="324697324" lat="48.1276379" lon="11.5512050" version="3" timestamp="2011-12-04T22:25:52Z" changeset="10038198" uid="367380" user="Mloni"/>
  <node id="1091413930" lat="48.1279650" lon="11.5550719" version="2" timestamp="2012-07-12T20:57:20Z" changeset="12200475" uid="8748" user="ToniE"/>
  <node id="1091830710" lat="48.1254923" lon="11.5502270" version="2" timestamp="2015-08-10T20:37:32Z" changeset="33250969" uid="354141" user="Anoniman"/>
  <node id="1147573035" lat="48.1237170" lon="11.5528570" version="5" timestamp="2024-05-01T18:27:21Z" changeset="150763558" uid="11758604" user="map per"/>
  <node id="1381612538" lat="48.1279345" lon="11.5560288" version="4" timestamp="2018-08-30T12:03:59Z" changeset="62137305" uid="8748" user="ToniE"/>
  <node id="1381612539" lat="48.1279926" lon="11.5563948" version="6" timestamp="2014-01-07T22:38:16Z" changeset="19873012" uid="354141" user="Anoniman"/>
  <node id="2450895114" lat="48.1273651" lon="11.5540033" version="1" timestamp="2013-09-08T19:29:20Z" changeset="17738634" uid="8703" user="rolandg"/>
  <node id="3116386848" lat="48.1215389" lon="11.5576251" version="3" timestamp="2024-07-24T17:05:17Z" changeset="154360261" uid="11758604" user="map per"/>
  <node id="5867898629" lat="48.1264101" lon="11.5583639" version="9" timestamp="2025-01-24T16:53:59Z" changeset="161720515" uid="38546" user="wikimax">
    <tag k="button_operated" v="no"/>
    <tag k="crossing" v="traffic_signals"/>
    <tag k="crossing:island" v="yes"/>
    <tag k="highway" v="crossing"/>
    <tag k="tactile_paving" v="no"/>
    <tag k="traffic_signals:sound" v="no"/>
    <tag k="traffic_signals:vibration" v="no"/>
  </node>
  <node id="5876562087" lat="48.1265681" lon="11.5579285" version="3" timestamp="2021-01-05T17:49:37Z" changeset="96997782" uid="8748" user="ToniE"/>
  <node id="9202134363" lat="48.1267359" lon="11.5630950" version="1" timestamp="2021-10-26T09:45:11Z" changeset="112985038" uid="930414" user="track_manuel"/>
  <node id="10116970758" lat="48.1220456" lon="11.5543689" version="2" timestamp="2024-06-03T10:31:28Z" changeset="152193953" uid="8748" user="ToniE"/>
  <node id="11252506900" lat="48.1250850" lon="11.5496422" version="3" timestamp="2024-05-01T18:27:21Z" changeset="150763558" uid="11758604" user="map per"/>
  <way id="4080104" version="27" timestamp="2025-03-22T20:57:57Z" changeset="163964101" uid="44217" user="kjon">
    <nd ref="1955356"/>
    <nd ref="9723570881"/>
    <tag k="class:bicycle" v="-1"/>
    <tag k="cycleway:both" v="no"/>
    <tag k="highway" v="tertiary"/>
    <tag k="lanes" v="3"/>
    <tag k="lanes:backward" v="2"/>
    <tag k="lanes:forward" v="1"/>
    <tag k="lit" v="yes"/>
    <tag k="maxspeed" v="30"/>
    <tag k="name" v="Tumblingerstraße"/>
    <tag k="parking:both" v="no"/>
    <tag k="parking:condition:both" v="no_stopping"/>
    <tag k="sidewalk" v="separate"/>
    <tag k="smoothness" v="good"/>
    <tag k="source:maxspeed" v="sign"/>
    <tag k="surface" v="asphalt"/>
  </way>
  <way id="4288068" version="21" timestamp="2023-11-08T22:51:43Z" changeset="143800692" uid="6285042" user="Biclmont">
    <nd ref="25876187"/>
    <nd ref="25876185"/>
    <tag k="bicycle" v="use_sidepath"/>
    <tag k="highway" v="tertiary"/>
    <tag k="lanes" v="1"/>
    <tag k="layer" v="-1"/>
    <tag k="lit" v="yes"/>
    <tag k="maxheight" v="3.6 m"/>
    <tag k="maxspeed" v="50"/>
    <tag k="name" v="Tumblingerstraße"/>
    <tag k="oneway" v="yes"/>
    <tag k="parking:both" v="no"/>
    <tag k="shoulder" v="no"/>
    <tag k="sidewalk:left" v="no"/>
    <tag k="sidewalk:right" v="separate"/>
    <tag k="surface" v="sett"/>
    <tag k="tunnel" v="yes"/>
  </way>
  <way id="4590986" version="9" timestamp="2024-11-22T12:16:34Z" changeset="159456377" uid="11758604" user="map per">
    <nd ref="27579741"/>
    <nd ref="255417913"/>
    <nd ref="27554985"/>
    <nd ref="27554993"/>
    <nd ref="324697326"/>
    <nd ref="1955360"/>
    <tag k="cycleway:both" v="no"/>
    <tag k="highway" v="residential"/>
    <tag k="lit" v="yes"/>
    <tag k="maxspeed" v="30"/>
    <tag k="name" v="Hermann-Schmid-Straße"/>
    <tag k="sidewalk" v="both"/>
    <tag k="surface" v="asphalt"/>
  </way>
  <way id="4590989" version="16" timestamp="2023-05-06T14:06:26Z" changeset="135777669" uid="29096" user="buergi">
    <nd ref="1955427"/>
    <nd ref="324550812"/>
    <nd ref="29030274"/>
    <nd ref="324697321"/>
    <nd ref="1955358"/>
    <tag k="highway" v="residential"/>
    <tag k="lit" v="yes"/>
    <tag k="maxspeed" v="30"/>
    <tag k="name" v="Güllstraße"/>
    <tag k="name:etymology:wikidata" v="Q92008"/>
    <tag k="parking:both:orientation" v="parallel"/>
    <tag k="sidewalk" v="both"/>
    <tag k="smoothness" v="good"/>
    <tag k="source:maxspeed" v="DE:zone30"/>
    <tag k="source:width" v="ARCore"/>
    <tag k="surface" v="asphalt"/>
    <tag k="width" v="8.5"/>
  </way>
  <way id="4590990" version="15" timestamp="2024-11-03T12:01:58Z" changeset="158695142" uid="20085156" user="map per StreetComplete">
    <nd ref="27554976"/>
    <nd ref="6976301465"/>
    <nd ref="5917931120"/>
    <nd ref="5917931097"/>
    <nd ref="6976301469"/>
    <nd ref="6976301463"/>
    <nd ref="6976301467"/>
    <nd ref="290826775"/>
    <nd ref="1619227639"/>
    <tag k="class:bicycle" v="1"/>
    <tag k="cycleway:both" v="no"/>
    <tag k="highway" v="residential"/>
    <tag k="lit" v="yes"/>
    <tag k="maxspeed" v="30"/>
    <tag k="name" v="Schmellerstraße"/>
    <tag k="parking:both" v="yes"/>
    <tag k="parking:both:orientation" v="parallel"/>
    <tag k="sidewalk" v="both"/>
    <tag k="smoothness" v="good"/>
    <tag k="surface" v="asphalt"/>
  </way>
  <way id="4590992" version="13" timestamp="2023-12-28T09:10:03Z" changeset="145608267" uid="18493611" user="MunichWays">
    <nd ref="27554976"/>
    <nd ref="8756622284"/>
    <nd ref="8756622286"/>
    <nd ref="6426765293"/>
    <nd ref="27579739"/>
    <tag k="class:bicycle" v="1"/>
    <tag k="cycleway:both" v="no"/>
    <tag k="highway" v="residential"/>
    <tag k="lit" v="yes"/>
    <tag k="maxspeed" v="30"/>
    <tag k="name" v="Schmellerstraße"/>
    <tag k="oneway" v="yes"/>
    <tag k="oneway:bicycle" v="no"/>
    <tag k="sidewalk" v="both"/>
    <tag k="smoothness" v="good"/>
    <tag k="surface" v="asphalt"/>
  </way>
  <way id="4590993" version="20" timestamp="2024-11-22T15:59:12Z" changeset="159464906" uid="20085156" user="map per StreetComplete">
    <nd ref="27470266"/>
    <nd ref="2614032084"/>
    <nd ref="2508899921"/>
    <nd ref="2614032018"/>
    <nd ref="1381612538"/>
    <tag k="class:bicycle" v="-1"/>
    <tag k="cycleway:both" v="no"/>
    <tag k="highway" v="residential"/>
    <tag k="lit" v="yes"/>
    <tag k="maxspeed" v="30"/>
    <tag k="name" v="Adlzreiterstraße"/>
    <tag k="oneway" v="yes"/>
    <tag k="parking:left" v="no"/>
    <tag k="parking:left:restriction" v="no_stopping"/>
    <tag k="parking:right" v="lane"/>
    <tag k="parking:right:orientation" v="parallel"/>
    <tag k="sidewalk" v="right"/>
    <tag k="sidewalk:right:surface" v="paving_stones"/>
    <tag k="surface" v="asphalt"/>
  </way>
  <way id="4645450" version="21" timestamp="2024-08-07T19:02:36Z" changeset="154950262" uid="8748" user="ToniE">
    <nd ref="1397017547"/>
    <nd ref="12097569683"/>
    <nd ref="1415783353"/>
    <nd ref="2450501222"/>
    <nd ref="1415783327"/>
    <nd ref="1415783389"/>
    <nd ref="9527559576"/>
    <nd ref="3127769730"/>
    <nd ref="1656071979"/>
    <nd ref="9330588583"/>
    <nd ref="9330588601"/>
    <tag k="bicycle" v="yes"/>
    <tag k="class:bicycle" v="-1"/>
    <tag k="cycleway" v="no"/>
    <tag k="highway" v="residential"/>
    <tag k="lane_markings" v="no"/>
    <tag k="lanes" v="2"/>
    <tag k="lit" v="yes"/>
    <tag k="maxspeed" v="30"/>
    <tag k="maxweight" v="40"/>
    <tag k="name" v="Zenettistraße"/>
    <tag k="oneway" v="no"/>
    <tag k="sidewalk" v="both"/>
    <tag k="smoothness" v="good"/>
    <tag k="surface" v="asphalt"/>
  </way>
  <way id="29883577" version="9" timestamp="2023-12-28T09:10:03Z" changeset="145608267" uid="18493611" user="MunichWays">
    <nd ref="27579740"/>
    <nd ref="27554974"/>
    <nd ref="7999276034"/>
    <nd ref="27554976"/>
    <nd ref="27358781"/>
    <tag k="class:bicycle" v="1"/>
    <tag k="highway" v="residential"/>
    <tag k="lit" v="yes"/>
    <tag k="maxspeed" v="30"/>
    <tag k="name" v="Fleischerstraße"/>
    <tag k="parking:both" v="lane"/>
    <tag k="parking:both:orientation" v="parallel"/>
    <tag k="smoothness" v="good"/>
    <tag k="surface" v="asphalt"/>
  </way>
  <way id="30648343" version="9" timestamp="2022-10-08T10:58:00Z" changeset="127194143" uid="8748" user="ToniE">
    <nd ref="338946149"/>
    <nd ref="9330588589"/>
    <nd ref="338946151"/>
    <nd ref="338946153"/>
    <nd ref="1129877542"/>
    <nd ref="1129877561"/>
    <nd ref="338946154"/>
    <nd ref="338946156"/>
    <nd ref="338946158"/>
    <nd ref="2450501231"/>
    <nd ref="338946160"/>
    <nd ref="1129877513"/>
    <nd ref="338946162"/>
    <nd ref="338946164"/>
    <nd ref="338946167"/>
    <nd ref="1656066180"/>
    <nd ref="1656066185"/>
    <nd ref="338946169"/>
    <nd ref="338946171"/>
    <nd ref="2449438246"/>
    <nd ref="338946173"/>
    <nd ref="1129877563"/>
    <nd ref="338946176"/>
    <nd ref="1129877488"/>
    <nd ref="1129877529"/>
    <nd ref="1129877409"/>
    <nd ref="338946178"/>
    <nd ref="2450501224"/>
    <nd ref="338946180"/>
    <nd ref="338946149"/>
    <tag k="addr:city" v="München"/>
    <tag k="addr:country" v="DE"/>
    <tag k="addr:housenumber" v="10"/>
    <tag k="addr:postcode" v="80337"/>
    <tag k="addr:street" v="Zenettistraße"/>
    <tag k="building" v="yes"/>
    <tag k="name" v="Schlachthof"/>
  </way>
  <way id="33125355" version="34" timestamp="2025-03-22T20:57:57Z" changeset="163964101" uid="44217" user="kjon">
    <nd ref="2508899957"/>
    <nd ref="5884985617"/>
    <nd ref="5874286775"/>
    <nd ref="5874286777"/>
    <tag k="bicycle:lanes:backward" v="yes|no|designated|yes"/>
    <tag k="class:bicycle" v="-1"/>
    <tag k="cycleway:left" v="lane"/>
    <tag k="cycleway:left:lane" v="exclusive"/>
    <tag k="cycleway:right" v="separate"/>
    <tag k="highway" v="secondary"/>
    <tag k="lanes" v="4"/>
    <tag k="lanes:backward" v="3"/>
    <tag k="lanes:bicycle:backward" v="1"/>
    <tag k="lanes:forward" v="1"/>
    <tag k="lit" v="yes"/>
    <tag k="maxspeed" v="50"/>
    <tag k="name" v="Kapuzinerstraße"/>
    <tag k="parking:both" v="no"/>
    <tag k="parking:condition:both" v="no_stopping"/>
    <tag k="sidewalk:both" v="separate"/>
    <tag k="smoothness" v="good"/>
    <tag k="surface" v="asphalt"/>
    <tag k="tmc" v="DE:27996/27997"/>
    <tag k="turn:lanes:backward" v="left|through|through|right"/>
    <tag k="vehicle:lanes:backward" v="yes|yes|no|yes"/>
  </way>
  <way id="33487045" version="24" timestamp="2025-01-24T16:53:59Z" changeset="161720515" uid="38546" user="wikimax">
    <nd ref="27784294"/>
    <nd ref="8071755150"/>
    <nd ref="12097569681"/>
    <nd ref="2815809814"/>
    <nd ref="12097569682"/>
    <nd ref="11112243946"/>
    <nd ref="2815809816"/>
    <nd ref="27784293"/>
    <nd ref="3332798190"/>
    <nd ref="1656066187"/>
    <nd ref="1656066195"/>
    <nd ref="9904498794"/>
    <nd ref="2614031667"/>
    <nd ref="1877959875"/>
    <nd ref="3498157174"/>
    <nd ref="776257446"/>
    <nd ref="27358787"/>
    <tag k="bicycle" v="use_sidepath"/>
    <tag k="highway" v="residential"/>
    <tag k="lanes" v="2"/>
    <tag k="lit" v="yes"/>
    <tag k="maxspeed" v="50"/>
    <tag k="name" v="Thalkirchner Straße"/>
    <tag k="sidewalk" v="separate"/>
    <tag k="smoothness" v="excellent"/>
    <tag k="surface" v="asphalt"/>
  </way>
  <way id="37665425" version="28" timestamp="2025-03-22T20:57:57Z" changeset="163964101" uid="44217" user="kjon">
    <nd ref="9202134363"/>
    <nd ref="3209282087"/>
    <nd ref="3209282065"/>
    <nd ref="6255585368"/>
    <nd ref="1877959876"/>
    <nd ref="3498157177"/>
    <nd ref="2614031753"/>
    <nd ref="27358787"/>
    <tag k="bicycle" v="use_sidepath"/>
    <tag k="bus" v="destination"/>
    <tag k="hgv" v="destination"/>
    <tag k="highway" v="residential"/>
    <tag k="lanes" v="2"/>
    <tag k="lit" v="yes"/>
    <tag k="maxspeed" v="30"/>
    <tag k="maxspeed:type" v="DE:urban"/>
    <tag k="motorcycle" v="destination"/>
    <tag k="name" v="Thalkirchner Straße"/>
    <tag k="oneway" v="no"/>
    <tag k="parking:lane:left:parallel" v="street_side"/>
    <tag k="parking:lane:right:diagonal" v="street_side"/>
    <tag k="parking:left" v="yes"/>
    <tag k="parking:left:orientation" v="parallel"/>
    <tag k="parking:right" v="yes"/>
    <tag k="parking:right:orientation" v="diagonal"/>
    <tag k="psv" v="yes"/>
    <tag k="sidewalk:both" v="separate"/>
    <tag k="smoothness" v="excellent"/>
    <tag k="surface" v="asphalt"/>
  </way>
  <way id="37665452" version="25" timestamp="2025-03-22T20:57:57Z" changeset="163964101" uid="44217" user="kjon">
    <nd ref="1955356"/>
    <nd ref="7938519857"/>
    <nd ref="2508899957"/>
    <tag k="bicycle:lanes:backward" v="yes|no|designated|yes"/>
    <tag k="class:bicycle" v="-1"/>
    <tag k="cycleway:both" v="lane"/>
    <tag k="cycleway:both:lane" v="exclusive"/>
    <tag k="highway" v="secondary"/>
    <tag k="lanes" v="4"/>
    <tag k="lanes:backward" v="3"/>
    <tag k="lanes:bicycle:backward" v="1"/>
    <tag k="lanes:forward" v="1"/>
    <tag k="lit" v="yes"/>
    <tag k="maxspeed" v="50"/>
    <tag k="name" v="Kapuzinerstraße"/>
    <tag k="parking:both" v="no"/>
    <tag k="parking:condition:both" v="no_stopping"/>
    <tag k="sidewalk" v="separate"/>
    <tag k="smoothness" v="good"/>
    <tag k="surface" v="asphalt"/>
    <tag k="tmc" v="DE:27996/27997"/>
    <tag k="turn:lanes:backward" v="left|through|through|right"/>
    <tag k="vehicle:lanes:backward" v="yes|yes|no|yes"/>
  </way>
  <way id="48624013" version="14" timestamp="2024-08-27T19:19:48Z" changeset="155848132" uid="13496000" user="geo-d">
    <nd ref="617505814"/>
    <nd ref="617505815"/>
    <nd ref="617505816"/>
    <nd ref="2449463940"/>
    <nd ref="617505817"/>
    <nd ref="617505818"/>
    <nd ref="617505819"/>
    <nd ref="617505820"/>
    <nd ref="617505821"/>
    <nd ref="617505822"/>
    <nd ref="2449463921"/>
    <nd ref="617505823"/>
    <nd ref="9367160712"/>
    <nd ref="617505824"/>
    <nd ref="4209102945"/>
    <nd ref="12140744125"/>
    <nd ref="617505825"/>
    <nd ref="2478920373"/>
    <nd ref="2478920370"/>
    <nd ref="2478920371"/>
    <nd ref="2478920369"/>
    <nd ref="1147573037"/>
    <nd ref="1147573034"/>
    <nd ref="489934218"/>
    <nd ref="617505814"/>
    <tag k="addr:city" v="München"/>
    <tag k="addr:housenumber" v="11"/>
    <tag k="addr:postcode" v="80337"/>
    <tag k="addr:street" v="Ruppertstraße"/>
    <tag k="building" v="public"/>
    <tag k="building:levels" v="5"/>
    <tag k="name" v="Kreisverwaltungsreferat"/>
    <tag k="roof:levels" v="0"/>
  </way>
  <way id="55546597" version="22" timestamp="2025-05-12T07:44:36Z" changeset="166137633" uid="16061279" user="YellowSoul">
    <nd ref="1132359889"/>
    <nd ref="7989019009"/>
    <nd ref="9497582789"/>
    <nd ref="9497582790"/>
    <tag k="bicycle:backward" v="use_sidepath"/>
    <tag k="class:bicycle" v="-1"/>
    <tag k="cycleway:left" v="separate"/>
    <tag k="cycleway:right" v="lane"/>
    <tag k="cycleway:right:lane" v="exclusive"/>
    <tag k="highway" v="tertiary"/>
    <tag k="lanes" v="3"/>
    <tag k="lanes:backward" v="2"/>
    <tag k="lanes:forward" v="1"/>
    <tag k="lit" v="yes"/>
    <tag k="maxspeed" v="50"/>
    <tag k="name" v="Tumblingerstraße"/>
    <tag k="parking:left" v="street_side"/>
    <tag k="parking:left:orientation" v="parallel"/>
    <tag k="parking:right" v="no"/>
    <tag k="sidewalk" v="separate"/>
    <tag k="surface" v="sett"/>
  </way>
  <way id="94696443" version="7" timestamp="2022-05-14T11:29:09Z" changeset="120975199" uid="78613" user="heilbron">
    <nd ref="1417402963"/>
    <nd ref="1417402980"/>
    <nd ref="1417402983"/>
    <nd ref="1417402979"/>
    <nd ref="1099429851"/>
    <nd ref="1417402963"/>
    <tag k="addr:city" v="München"/>
    <tag k="addr:country" v="DE"/>
    <tag k="addr:housenumber" v="133"/>
    <tag k="addr:postcode" v="80337"/>
    <tag k="addr:street" v="Lindwurmstraße"/>
    <tag k="building" v="apartments"/>
    <tag k="building:levels" v="5"/>
    <tag k="roof:levels" v="1"/>
    <tag k="roof:shape" v="gabled"/>
  </way>
  <way id="94696463" version="10" timestamp="2022-05-25T16:11:52Z" changeset="121483136" uid="78613" user="heilbron">
    <nd ref="2450895137"/>
    <nd ref="1099429950"/>
    <nd ref="1099429824"/>
    <nd ref="4660674257"/>
    <nd ref="4660674206"/>
    <nd ref="4660674207"/>
    <nd ref="4082478139"/>
    <nd ref="1099429936"/>
    <nd ref="1417402989"/>
    <nd ref="1417402995"/>
    <nd ref="4082478143"/>
    <nd ref="2450895137"/>
    <tag k="addr:city" v="München"/>
    <tag k="addr:country" v="DE"/>
    <tag k="addr:housenumber" v="127"/>
    <tag k="addr:postcode" v="80337"/>
    <tag k="addr:street" v="Lindwurmstraße"/>
    <tag k="building" v="apartments"/>
    <tag k="building:levels" v="6"/>
    <tag k="roof:levels" v="2"/>
    <tag k="roof:shape" v="gabled"/>
  </way>
  <way id="94717313" version="8" timestamp="2023-06-16T05:49:31Z" changeset="137397621" uid="78613" user="heilbron">
    <nd ref="1099752834"/>
    <nd ref="1099753284"/>
    <nd ref="1099753343"/>
    <nd ref="1099752794"/>
    <nd ref="1099752977"/>
    <nd ref="1099752759"/>
    <nd ref="1099752834"/>
    <tag k="addr:city" v="München"/>
    <tag k="addr:country" v="DE"/>
    <tag k="addr:housenumber" v="12"/>
    <tag k="addr:postcode" v="80337"/>
    <tag k="addr:street" v="Kapuzinerstraße"/>
    <tag k="building" v="apartments"/>
    <tag k="building:levels" v="5"/>
    <tag k="roof:levels" v="1"/>
    <tag k="roof:shape" v="gabled"/>
  </way>
  <way id="94717321" version="9" timestamp="2023-06-16T05:49:31Z" changeset="137397621" uid="78613" user="heilbron">
    <nd ref="4436862659"/>
    <nd ref="1099752566"/>
    <nd ref="1099752912"/>
    <nd ref="1099753101"/>
    <nd ref="5876562140"/>
    <nd ref="1099753301"/>
    <nd ref="1099752706"/>
    <nd ref="4436862659"/>
    <tag k="addr:city" v="München"/>
    <tag k="addr:country" v="DE"/>
    <tag k="addr:housenumber" v="8"/>
    <tag k="addr:postcode" v="80337"/>
    <tag k="addr:street" v="Kapuzinerstraße"/>
    <tag k="building" v="apartments"/>
    <tag k="building:levels" v="6"/>
    <tag k="roof:levels" v="1"/>
    <tag k="roof:shape" v="gabled"/>
  </way>
  <way id="94717326" version="5" timestamp="2018-09-16T16:49:35Z" changeset="62640689" uid="54265" user="bridgeburner">
    <nd ref="4660674254"/>
    <nd ref="4660674255"/>
    <nd ref="1099753504"/>
    <nd ref="4082478129"/>
    <nd ref="4082478130"/>
    <nd ref="4082478131"/>
    <nd ref="2450895126"/>
    <nd ref="1099752676"/>
    <nd ref="4660674256"/>
    <nd ref="1099752586"/>
    <nd ref="4082478127"/>
    <nd ref="1099753047"/>
    <nd ref="4660674254"/>
    <tag k="addr:city" v="München"/>
    <tag k="addr:country" v="DE"/>
    <tag k="addr:housenumber" v="125"/>
    <tag k="addr:postcode" v="80337"/>
    <tag k="addr:street" v="Lindwurmstraße"/>
    <tag k="building" v="yes"/>
  </way>
  <way id="94717328" version="8" timestamp="2023-06-18T20:35:13Z" changeset="137492505" uid="1704001" user="sam-089">
    <nd ref="2454545302"/>
    <nd ref="1099753179"/>
    <nd ref="1099753357"/>
    <nd ref="2454544260"/>
    <nd ref="10984951433"/>
    <nd ref="1099752709"/>
    <nd ref="2449484112"/>
    <nd ref="2822415824"/>
    <nd ref="4069240397"/>
    <nd ref="1099752562"/>
    <nd ref="2454545302"/>
    <tag k="addr:housenumber" v="27a"/>
    <tag k="addr:postcode" v="80337"/>
    <tag k="addr:street" v="Adlzreiterstraße"/>
    <tag k="building" v="yes"/>
  </way>
  <way id="94717330" version="7" timestamp="2024-12-06T15:00:43Z" changeset="159998193" uid="11758604" user="map per">
    <nd ref="1099753478"/>
    <nd ref="1099753186"/>
    <nd ref="5867898601"/>
    <nd ref="5867898602"/>
    <nd ref="5867898603"/>
    <nd ref="12400347098"/>
    <nd ref="12400347100"/>
    <nd ref="12400347099"/>
    <nd ref="5867898605"/>
    <nd ref="1099753292"/>
    <nd ref="2449487339"/>
    <nd ref="12400347094"/>
    <nd ref="12400347095"/>
    <nd ref="1099753478"/>
    <tag k="addr:city" v="München"/>
    <tag k="addr:country" v="DE"/>
    <tag k="addr:housenumber" v="16"/>
    <tag k="addr:street" v="Kapuzinerstraße"/>
    <tag k="building" v="apartments"/>
    <tag k="building:levels" v="4"/>
    <tag k="roof:shape" v="gabled"/>
  </way>
  <way id="94717338" version="9" timestamp="2021-03-28T14:32:18Z" changeset="101875957" uid="29096" user="buergi">
    <nd ref="4436862661"/>
    <nd ref="5876562149"/>
    <nd ref="5876562148"/>
    <nd ref="1099752968"/>
    <nd ref="1099753380"/>
    <nd ref="1099752975"/>
    <nd ref="2449487348"/>
    <nd ref="1099753513"/>
    <nd ref="4436862661"/>
    <tag k="addr:city" v="München"/>
    <tag k="addr:country" v="DE"/>
    <tag k="addr:housenumber" v="2"/>
    <tag k="addr:postcode" v="80337"/>
    <tag k="addr:street" v="Kapuzinerstraße"/>
    <tag k="building" v="apartments"/>
    <tag k="building:levels" v="6"/>
    <tag k="roof:levels" v="1"/>
  </way>
  <way id="97598048" version="3" timestamp="2016-02-07T22:17:47Z" changeset="37069714" uid="152074" user="beweta">
    <nd ref="1129877473"/>
    <nd ref="1129877465"/>
    <nd ref="1129877394"/>
    <nd ref="1129877491"/>
    <nd ref="1129877473"/>
    <tag k="addr:city" v="München"/>
    <tag k="addr:country" v="DE"/>
    <tag k="addr:housenumber" v="8"/>
    <tag k="addr:postcode" v="80337"/>
    <tag k="addr:street" v="Zenettistraße"/>
    <tag k="building" v="yes"/>
  </way>
  <way id="97598056" version="5" timestamp="2016-02-08T18:56:02Z" changeset="37086538" uid="14390" user="BeKri">
    <nd ref="1129877419"/>
    <nd ref="1656066182"/>
    <nd ref="1129877410"/>
    <nd ref="1129877543"/>
    <nd ref="1129877562"/>
    <nd ref="1129877511"/>
    <nd ref="1129877389"/>
    <nd ref="1129877419"/>
    <tag k="addr:city" v="München"/>
    <tag k="addr:country" v="DE"/>
    <tag k="addr:housenumber" v="10b"/>
    <tag k="addr:postcode" v="80337"/>
    <tag k="addr:street" v="Zenettistraße"/>
    <tag k="building" v="yes"/>
  </way>
  <way id="97598057" version="4" timestamp="2019-05-23T14:10:28Z" changeset="70553840" uid="999279" user="mc64">
    <nd ref="1129877560"/>
    <nd ref="2450501219"/>
    <nd ref="1129877412"/>
    <nd ref="1129877441"/>
    <nd ref="1129877547"/>
    <nd ref="1129877560"/>
    <tag k="addr:city" v="München"/>
    <tag k="addr:country" v="DE"/>
    <tag k="addr:housenumber" v="12"/>
    <tag k="addr:postcode" v="80337"/>
    <tag k="addr:street" v="Zenettistraße"/>
    <tag k="building" v="commercial"/>
    <tag k="building:levels" v="2"/>
    <tag k="roof:levels" v="1"/>
    <tag k="roof:shape" v="hipped"/>
  </way>
  <way id="97598065" version="3" timestamp="2016-02-07T22:17:39Z" changeset="37069714" uid="152074" user="beweta">
    <nd ref="1129877452"/>
    <nd ref="1129877461"/>
    <nd ref="1129877479"/>
    <nd ref="1129877443"/>
    <nd ref="1129877452"/>
    <tag k="addr:city" v="München"/>
    <tag k="addr:country" v="DE"/>
    <tag k="addr:housenumber" v="102"/>
    <tag k="addr:postcode" v="80337"/>
    <tag k="addr:street" v="Thalkirchner Straße"/>
    <tag k="building" v="yes"/>
  </way>
  <way id="115753774" version="5" timestamp="2020-11-25T13:29:55Z" changeset="94774565" uid="12122912" user="uvex04">
    <nd ref="1417402800"/>
    <nd ref="1306907747"/>
    <nd ref="1306907767"/>
    <nd ref="1306907394"/>
    <nd ref="1306907748"/>
    <nd ref="1306907427"/>
    <nd ref="1417402807"/>
    <nd ref="1417402800"/>
    <tag k="addr:housenumber" v="159a"/>
    <tag k="addr:street" v="Lindwurmstraße"/>
    <tag k="building" v="apartments"/>
    <tag k="building:levels" v="4"/>
  </way>
  <way id="115753775" version="5" timestamp="2022-03-21T18:43:30Z" changeset="118748122" uid="78613" user="heilbron">
    <nd ref="1417402821"/>
    <nd ref="2450930053"/>
    <nd ref="1417402820"/>
    <nd ref="1306907690"/>
    <nd ref="1306907726"/>
    <nd ref="1306907773"/>
    <nd ref="1306907790"/>
    <nd ref="1417402819"/>
    <nd ref="1417402821"/>
    <tag k="addr:housenumber" v="25"/>
    <tag k="addr:street" v="Schmellerstraße"/>
    <tag k="building" v="apartments"/>
    <tag k="building:levels" v="4"/>
    <tag k="roof:levels" v="1"/>
  </way>
  <way id="115756644" version="11" timestamp="2021-02-28T16:32:59Z" changeset="100145317" uid="1704001" user="sam-089">
    <nd ref="1306926261"/>
    <nd ref="4069240357"/>
    <nd ref="4069240358"/>
    <nd ref="1306926245"/>
    <nd ref="2618013510"/>
    <nd ref="1306926257"/>
    <nd ref="2449481163"/>
    <nd ref="1306926193"/>
    <nd ref="8467824858"/>
    <nd ref="8467824859"/>
    <nd ref="8467824860"/>
    <nd ref="8467824861"/>
    <nd ref="1306926261"/>
    <tag k="addr:housenumber" v="1"/>
    <tag k="addr:street" v="Zenettiplatz"/>
    <tag k="building" v="apartments"/>
    <tag k="building:levels" v="5"/>
    <tag k="roof:levels" v="1"/>
  </way>
  <way id="116037312" version="7" timestamp="2024-05-31T07:41:31Z" changeset="152066457" uid="536583" user="Strubbl">
    <nd ref="1309522545"/>
    <nd ref="1309522426"/>
    <nd ref="1309522377"/>
    <nd ref="1309522355"/>
    <nd ref="1309522545"/>
    <tag k="addr:city" v="München"/>
    <tag k="addr:country" v="DE"/>
    <tag k="addr:housenumber" v="110"/>
    <tag k="addr:postcode" v="80337"/>
    <tag k="addr:street" v="Thalkirchner Straße"/>
    <tag k="building" v="apartments"/>
    <tag k="building:levels" v="2"/>
    <tag k="roof:levels" v="1"/>
    <tag k="roof:shape" v="hipped"/>
  </way>
  <way id="116037323" version="3" timestamp="2016-02-07T22:17:46Z" changeset="37069714" uid="152074" user="beweta">
    <nd ref="1309522406"/>
    <nd ref="1309522529"/>
    <nd ref="1309522533"/>
    <nd ref="1309522565"/>
    <nd ref="2450501216"/>
    <nd ref="1309522406"/>
    <tag k="addr:city" v="München"/>
    <tag k="addr:country" v="DE"/>
    <tag k="addr:housenumber" v="7"/>
    <tag k="addr:postcode" v="80337"/>
    <tag k="addr:street" v="Zenettistraße"/>
    <tag k="building" v="yes"/>
  </way>
  <way id="116037334" version="3" timestamp="2016-02-07T22:17:40Z" changeset="37069714" uid="152074" user="beweta">
    <nd ref="1309522542"/>
    <nd ref="1309522480"/>
    <nd ref="1309522358"/>
    <nd ref="1309522399"/>
    <nd ref="1309522542"/>
    <tag k="addr:city" v="München"/>
    <tag k="addr:country" v="DE"/>
    <tag k="addr:housenumber" v="112"/>
    <tag k="addr:postcode" v="80337"/>
    <tag k="addr:street" v="Thalkirchner Straße"/>
    <tag k="building" v="yes"/>
    <tag k="roof:shape" v="hipped"/>
  </way>
  <way id="116037336" version="11" timestamp="2024-06-03T10:31:28Z" changeset="152193953" uid="8748" user="ToniE">
    <nd ref="1309522494"/>
    <nd ref="1309522345"/>
    <nd ref="11953582644"/>
    <nd ref="5252037326"/>
    <nd ref="1309522404"/>
    <nd ref="1309522494"/>
    <tag k="addr:city" v="München"/>
    <tag k="addr:country" v="DE"/>
    <tag k="addr:housenumber" v="45"/>
    <tag k="addr:postcode" v="80337"/>
    <tag k="addr:street" v="Tumblingerstraße"/>
    <tag k="building" v="detached"/>
    <tag k="building:levels" v="3"/>
    <tag k="roof:levels" v="1"/>
    <tag k="roof:material" v="roof_tiles"/>
    <tag k="roof:shape" v="hipped"/>
  </way>
  <way id="120333560" version="10" timestamp="2022-10-27T20:08:45Z" changeset="128145286" uid="11758604" user="map per">
    <nd ref="1955427"/>
    <nd ref="1619227639"/>
    <tag k="bicycle" v="use_sidepath"/>
    <tag k="foot" v="use_sidepath"/>
    <tag k="highway" v="secondary"/>
    <tag k="lanes" v="4"/>
    <tag k="lit" v="yes"/>
    <tag k="maxspeed" v="50"/>
    <tag k="name" v="Lindwurmstraße"/>
    <tag k="old_ref" v="B 2;B 11"/>
    <tag k="sidewalk" v="separate"/>
    <tag k="surface" v="asphalt"/>
    <tag k="tmc" v="DE:35410/28009"/>
  </way>
  <way id="124048251" version="14" timestamp="2024-11-22T15:59:12Z" changeset="159464906" uid="20085156" user="map per StreetComplete">
    <nd ref="1381612538"/>
    <nd ref="1381612537"/>
    <nd ref="1823329947"/>
    <nd ref="2614031984"/>
    <nd ref="2508899899"/>
    <nd ref="1381612532"/>
    <nd ref="2614032006"/>
    <nd ref="1381612539"/>
    <tag k="class:bicycle" v="-2"/>
    <tag k="cycleway:both" v="no"/>
    <tag k="highway" v="residential"/>
    <tag k="lit" v="yes"/>
    <tag k="maxspeed" v="30"/>
    <tag k="name" v="Adlzreiterstraße"/>
    <tag k="oneway" v="yes"/>
    <tag k="parking:left" v="no"/>
    <tag k="parking:left:restriction" v="no_stopping"/>
    <tag k="parking:right" v="lane"/>
    <tag k="parking:right:orientation" v="parallel"/>
    <tag k="sidewalk" v="right"/>
    <tag k="sidewalk:right:surface" v="paving_stones"/>
    <tag k="surface" v="asphalt"/>
  </way>
  <way id="128215915" version="8" timestamp="2022-05-14T11:29:09Z" changeset="120975199" uid="78613" user="heilbron">
    <nd ref="1417402950"/>
    <nd ref="4660674284"/>
    <nd ref="1099429851"/>
    <nd ref="1417402979"/>
    <nd ref="1417402969"/>
    <nd ref="1417402957"/>
    <nd ref="1417402950"/>
    <tag k="addr:city" v="München"/>
    <tag k="addr:country" v="DE"/>
    <tag k="addr:housenumber" v="135"/>
    <tag k="addr:postcode" v="80337"/>
    <tag k="addr:street" v="Lindwurmstraße"/>
    <tag k="building" v="apartments"/>
    <tag k="building:levels" v="5"/>
    <tag k="roof:levels" v="1"/>
    <tag k="roof:orientation" v="across"/>
    <tag k="roof:shape" v="gabled"/>
  </way>
  <way id="128215918" version="5" timestamp="2020-12-16T15:04:09Z" changeset="95948535" uid="11799774" user="Vinec">
    <nd ref="1417402859"/>
    <nd ref="1300887330"/>
    <nd ref="1300887425"/>
    <nd ref="1300887421"/>
    <nd ref="1417402859"/>
    <tag k="addr:city" v="München"/>
    <tag k="addr:country" v="DE"/>
    <tag k="addr:housenumber" v="143"/>
    <tag k="addr:postcode" v="80337"/>
    <tag k="addr:street" v="Lindwurmstraße"/>
    <tag k="building" v="apartments"/>
    <tag k="building:levels" v="4"/>
    <tag k="roof:levels" v="1"/>
  </way>
  <way id="128215919" version="6" timestamp="2020-12-16T15:04:21Z" changeset="95948535" uid="11799774" user="Vinec">
    <nd ref="1300887421"/>
    <nd ref="1300887350"/>
    <nd ref="1300887353"/>
    <nd ref="2971585874"/>
    <nd ref="1417402842"/>
    <nd ref="1417402854"/>
    <nd ref="1417402859"/>
    <nd ref="1300887421"/>
    <tag k="addr:city" v="München"/>
    <tag k="addr:country" v="DE"/>
    <tag k="addr:housenumber" v="145"/>
    <tag k="addr:postcode" v="80337"/>
    <tag k="addr:street" v="Lindwurmstraße"/>
    <tag k="building" v="apartments"/>
    <tag k="building:levels" v="5"/>
    <tag k="roof:levels" v="1"/>
  </way>
  <way id="128215920" version="5" timestamp="2022-03-21T18:43:30Z" changeset="118748122" uid="78613" user="heilbron">
    <nd ref="1417402833"/>
    <nd ref="1300887315"/>
    <nd ref="1417402832"/>
    <nd ref="1417402831"/>
    <nd ref="1417402833"/>
    <tag k="addr:city" v="München"/>
    <tag k="addr:country" v="DE"/>
    <tag k="addr:housenumber" v="151"/>
    <tag k="addr:postcode" v="80337"/>
    <tag k="addr:street" v="Lindwurmstraße"/>
    <tag k="building" v="apartments"/>
    <tag k="building:levels" v="6"/>
  </way>
  <way id="128215921" version="6" timestamp="2020-12-16T14:48:20Z" changeset="95948432" uid="11799774" user="Vinec">
    <nd ref="1417402819"/>
    <nd ref="1306907819"/>
    <nd ref="1306907195"/>
    <nd ref="1306907740"/>
    <nd ref="1306907158"/>
    <nd ref="1417402821"/>
    <nd ref="1417402819"/>
    <tag k="addr:city" v="München"/>
    <tag k="addr:country" v="DE"/>
    <tag k="addr:housenumber" v="155"/>
    <tag k="addr:postcode" v="80337"/>
    <tag k="addr:street" v="Lindwurmstraße"/>
    <tag k="building" v="apartments"/>
    <tag k="building:levels" v="6"/>
  </way>
  <way id="128215922" version="6" timestamp="2020-12-16T14:47:30Z" changeset="95948432" uid="11799774" user="Vinec">
    <nd ref="1417402807"/>
    <nd ref="1306907693"/>
    <nd ref="1306907223"/>
    <nd ref="1306907355"/>
    <nd ref="1306907127"/>
    <nd ref="1417402801"/>
    <nd ref="1306907053"/>
    <nd ref="1417402806"/>
    <nd ref="1417402804"/>
    <nd ref="1306907745"/>
    <nd ref="1417402799"/>
    <nd ref="1417402800"/>
    <nd ref="1417402807"/>
    <tag k="addr:housenumber" v="159"/>
    <tag k="addr:street" v="Lindwurmstraße"/>
    <tag k="building" v="apartments"/>
    <tag k="building:levels" v="4"/>
  </way>
  <way id="128215923" version="9" timestamp="2025-05-16T19:56:06Z" changeset="166367423" uid="2554996" user="Nanoilite">
    <nd ref="1417402823"/>
    <nd ref="1300887340"/>
    <nd ref="1300887359"/>
    <nd ref="1417402833"/>
    <nd ref="1417402831"/>
    <nd ref="1300887373"/>
    <nd ref="1417402829"/>
    <nd ref="1417402823"/>
    <tag k="addr:city" v="München"/>
    <tag k="addr:country" v="DE"/>
    <tag k="addr:housenumber" v="153"/>
    <tag k="addr:postcode" v="80337"/>
    <tag k="addr:street" v="Lindwurmstraße"/>
    <tag k="building" v="yes"/>
    <tag k="building:levels" v="5"/>
    <tag k="email" v="info@hotel-brack.de"/>
    <tag k="fax" v="+49 89 72015015"/>
    <tag k="name" v="Hotel Brack"/>
    <tag k="phone" v="+49 89 747255-0"/>
    <tag k="tourism" v="hotel"/>
    <tag k="website" v="https://hotel-brack.de/"/>
    <tag k="wheelchair" v="no"/>
  </way>
  <way id="133731307" version="14" timestamp="2025-01-24T16:53:59Z" changeset="161720515" uid="38546" user="wikimax">
    <nd ref="5867898629"/>
    <nd ref="12529707743"/>
    <nd ref="2508887248"/>
    <nd ref="1955356"/>
    <tag k="class:bicycle" v="-2"/>
    <tag k="cycleway:both" v="no"/>
    <tag k="highway" v="tertiary"/>
    <tag k="lanes" v="3"/>
    <tag k="lanes:backward" v="1"/>
    <tag k="lanes:forward" v="2"/>
    <tag k="lit" v="yes"/>
    <tag k="maxspeed" v="50"/>
    <tag k="name" v="Kapuzinerplatz"/>
    <tag k="sidewalk" v="separate"/>
    <tag k="smoothness" v="good"/>
    <tag k="surface" v="asphalt"/>
    <tag k="turn:lanes:forward" v="left|through;right"/>
  </way>
  <way id="139788273" version="10" timestamp="2025-04-19T13:23:01Z" changeset="165153748" uid="29096" user="buergi">
    <nd ref="324697324"/>
    <nd ref="5110996118"/>
    <nd ref="7320336423"/>
    <nd ref="8018721672"/>
    <nd ref="255417911"/>
    <nd ref="5071771"/>
    <tag k="bicycle" v="designated"/>
    <tag k="bicycle_road" v="yes"/>
    <tag k="bus:backward" v="no"/>
    <tag k="bus:forward" v="yes"/>
    <tag k="class:bicycle" v="-1"/>
    <tag k="highway" v="residential"/>
    <tag k="lit" v="no"/>
    <tag k="maxspeed" v="30"/>
    <tag k="motor_vehicle:backward" v="destination"/>
    <tag k="motor_vehicle:forward" v="yes"/>
    <tag k="name" v="Stielerstraße"/>
    <tag k="oneway" v="no"/>
    <tag k="sidewalk" v="both"/>
    <tag k="smoothness" v="good"/>
    <tag k="source:width" v="ARCore"/>
    <tag k="surface" v="asphalt"/>
    <tag k="width" v="8"/>
  </way>
  <way id="146506071" version="16" timestamp="2025-05-08T19:23:38Z" changeset="165999916" uid="3199858" user="Mateusz Konieczny - bot account">
    <nd ref="27579741"/>
    <nd ref="2449481207"/>
    <tag k="bicycle" v="use_sidepath"/>
    <tag k="foot" v="use_sidepath"/>
    <tag k="highway" v="secondary"/>
    <tag k="lanes" v="4"/>
    <tag k="lit" v="yes"/>
    <tag k="maxspeed" v="50"/>
    <tag k="name" v="Lindwurmstraße"/>
    <tag k="old_ref" v="B 2;B 11"/>
    <tag k="shoulder" v="no"/>
    <tag k="sidewalk" v="no"/>
    <tag k="surface" v="asphalt"/>
    <tag k="tmc" v="DE:35410/28009"/>
  </way>
  <way id="148857890" version="18" timestamp="2024-11-22T15:59:43Z" changeset="159465272" uid="11758604" user="map per">
    <nd ref="27358787"/>
    <nd ref="1397024475"/>
    <nd ref="3769791259"/>
    <nd ref="27470148"/>
    <tag k="class:bicycle" v="1"/>
    <tag k="cycleway:left" v="no"/>
    <tag k="cycleway:right" v="lane"/>
    <tag k="cycleway:right:lane" v="exclusive"/>
    <tag k="highway" v="secondary"/>
    <tag k="lanes" v="2"/>
    <tag k="lit" v="yes"/>
    <tag k="maxspeed" v="50"/>
    <tag k="name" v="Kapuzinerstraße"/>
    <tag k="oneway" v="yes"/>
    <tag k="sidewalk:left" v="no"/>
    <tag k="sidewalk:right" v="separate"/>
    <tag k="smoothness" v="excellent"/>
    <tag k="source:maxspeed" v="DE:urban"/>
    <tag k="surface" v="asphalt"/>
    <tag k="tmc" v="DE:27996/27997"/>
  </way>
  <way id="148859287" version="20" timestamp="2023-10-10T09:17:33Z" changeset="142383539" uid="12500175" user="Danfost">
    <nd ref="1619227639"/>
    <nd ref="3232323062"/>
    <nd ref="7947741664"/>
    <nd ref="7412997503"/>
    <nd ref="8018721669"/>
    <nd ref="11252506894"/>
    <nd ref="5071771"/>
    <tag k="bicycle" v="use_sidepath"/>
    <tag k="foot" v="use_sidepath"/>
    <tag k="highway" v="secondary"/>
    <tag k="lanes" v="4"/>
    <tag k="lit" v="yes"/>
    <tag k="maxspeed" v="50"/>
    <tag k="name" v="Lindwurmstraße"/>
    <tag k="old_ref" v="B 2;B 11"/>
    <tag k="psv" v="yes"/>
    <tag k="sidewalk" v="separate"/>
    <tag k="surface" v="asphalt"/>
    <tag k="tmc" v="DE:35410/28009"/>
  </way>
  <way id="155286727" version="21" timestamp="2024-12-17T17:25:32Z" changeset="160312269" uid="8353937" user="Helge Kreutzmannn">
    <nd ref="1955301"/>
    <nd ref="11927614822"/>
    <nd ref="11927614804"/>
    <nd ref="6426765288"/>
    <nd ref="1676878497"/>
    <nd ref="1725959693"/>
    <nd ref="1725959694"/>
    <nd ref="2449463943"/>
    <nd ref="1147573035"/>
    <tag k="class:bicycle" v="-1"/>
    <tag k="cycleway:both" v="no"/>
    <tag k="highway" v="residential"/>
    <tag k="lane_markings" v="no"/>
    <tag k="lit" v="yes"/>
    <tag k="maxspeed" v="30"/>
    <tag k="name" v="Ruppertstraße"/>
    <tag k="oneway" v="no"/>
    <tag k="parking:left" v="no"/>
    <tag k="parking:right" v="street_side"/>
    <tag k="parking:right:orientation" v="parallel"/>
    <tag k="sidewalk:left" v="separate"/>
    <tag k="sidewalk:right" v="yes"/>
    <tag k="sidewalk:right:surface" v="paving_stones"/>
    <tag k="source:maxspeed" v="sign"/>
    <tag k="surface" v="asphalt"/>
  </way>
  <way id="155286728" version="15" timestamp="2023-07-22T14:25:13Z" changeset="138856718" uid="9352598" user="JakobMunichways">
    <nd ref="5071773"/>
    <nd ref="6426765297"/>
    <nd ref="10083470669"/>
    <nd ref="4069240371"/>
    <nd ref="29030021"/>
    <tag k="bicycle" v="yes"/>
    <tag k="class:bicycle" v="-1"/>
    <tag k="highway" v="residential"/>
    <tag k="lit" v="yes"/>
    <tag k="maxspeed" v="30"/>
    <tag k="name" v="Zenettiplatz"/>
    <tag k="sidewalk" v="both"/>
    <tag k="smoothness" v="good"/>
    <tag k="surface" v="asphalt"/>
    <tag k="traffic_sign" v="DE:1022-10"/>
  </way>
  <way id="157798419" version="11" timestamp="2023-10-22T11:45:31Z" changeset="142964085" uid="11758604" user="map per">
    <nd ref="11252506900"/>
    <nd ref="11252506901"/>
    <nd ref="3690186223"/>
    <nd ref="1091830710"/>
    <tag k="bicycle" v="use_sidepath"/>
    <tag k="foot" v="use_sidepath"/>
    <tag k="highway" v="secondary"/>
    <tag k="lanes" v="6"/>
    <tag k="lanes:backward" v="3"/>
    <tag k="lit" v="yes"/>
    <tag k="maxspeed" v="50"/>
    <tag k="name" v="Lindwurmstraße"/>
    <tag k="old_ref" v="B 2;B 11"/>
    <tag k="sidewalk" v="separate"/>
    <tag k="surface" v="asphalt"/>
    <tag k="tmc" v="DE:35410/28009"/>
    <tag k="turn:lanes:backward" v="left|through|through|right"/>
  </way>
  <way id="168719671" version="18" timestamp="2024-02-28T05:46:52Z" changeset="147997772" uid="78613" user="heilbron">
    <nd ref="1381612538"/>
    <nd ref="8315299571"/>
    <nd ref="11035536242"/>
    <nd ref="9723598985"/>
    <nd ref="7218222752"/>
    <nd ref="4660674237"/>
    <nd ref="2451370712"/>
    <nd ref="6965372882"/>
    <nd ref="2454544266"/>
    <nd ref="8967927195"/>
    <nd ref="283142114"/>
    <nd ref="7218222756"/>
    <nd ref="8682555795"/>
    <nd ref="7218222750"/>
    <nd ref="4960091829"/>
    <nd ref="4069240391"/>
    <nd ref="4069240390"/>
    <nd ref="27469687"/>
    <nd ref="4069240386"/>
    <nd ref="4069240385"/>
    <nd ref="29030021"/>
    <tag k="highway" v="residential"/>
    <tag k="lit" v="yes"/>
    <tag k="maxspeed" v="30"/>
    <tag k="name" v="Adlzreiterstraße"/>
    <tag k="sidewalk" v="both"/>
    <tag k="sidewalk:both:surface" v="paving_stones"/>
    <tag k="surface" v="asphalt"/>
  </way>
  <way id="168719672" version="30" timestamp="2023-08-12T17:22:37Z" changeset="139796396" uid="18493611" user="MunichWays">
    <nd ref="1381612539"/>
    <nd ref="5740881393"/>
    <nd ref="2614031950"/>
    <nd ref="2508899922"/>
    <nd ref="2614031914"/>
    <nd ref="2614031905"/>
    <nd ref="5884460254"/>
    <nd ref="5884460250"/>
    <nd ref="1389393738"/>
    <nd ref="5884460240"/>
    <nd ref="5884460236"/>
    <nd ref="5876562088"/>
    <tag k="class:bicycle" v="-2"/>
    <tag k="cycleway" v="shared_lane"/>
    <tag k="cycleway:both" v="lane"/>
    <tag k="cycleway:both:lane" v="advisory"/>
    <tag k="highway" v="secondary"/>
    <tag k="lane_markings" v="yes"/>
    <tag k="lanes" v="2"/>
    <tag k="lit" v="yes"/>
    <tag k="maxspeed" v="50"/>
    <tag k="maxspeed:conditional" v="30 @ (Mo-Fr 07:00-17:00)"/>
    <tag k="name" v="Kapuzinerstraße"/>
    <tag k="note" v="Werktags 30 wegen Kindergarten"/>
    <tag k="parking:both" v="no"/>
    <tag k="parking:both:restriction" v="no_stopping"/>
    <tag k="sidewalk" v="both"/>
    <tag k="sidewalk:both:surface" v="paving_stones"/>
    <tag k="smoothness" v="good"/>
    <tag k="surface" v="asphalt"/>
    <tag k="tmc" v="DE:27996/27997"/>
  </way>
  <way id="173041358" version="25" timestamp="2025-03-22T20:57:57Z" changeset="163964101" uid="44217" user="kjon">
    <nd ref="5876562087"/>
    <nd ref="5884985615"/>
    <nd ref="3495881517"/>
    <nd ref="1955356"/>
    <tag k="bicycle:lanes:forward" v="no|designated|yes"/>
    <tag k="class:bicycle" v="-1"/>
    <tag k="cycleway:both" v="lane"/>
    <tag k="cycleway:both:lane" v="exclusive"/>
    <tag k="highway" v="secondary"/>
    <tag k="lanes" v="4"/>
    <tag k="lanes:backward" v="1"/>
    <tag k="lanes:bicycle:forward" v="1"/>
    <tag k="lanes:forward" v="3"/>
    <tag k="lit" v="yes"/>
    <tag k="maxspeed" v="50"/>
    <tag k="maxspeed:conditional" v="30 @ (Mo-Fr 07:00-17:00)"/>
    <tag k="name" v="Kapuzinerstraße"/>
    <tag k="parking:both" v="no"/>
    <tag k="parking:condition:both" v="no_stopping"/>
    <tag k="sidewalk" v="separate"/>
    <tag k="surface" v="asphalt"/>
    <tag k="tmc" v="DE:27996/27997"/>
    <tag k="turn:lanes:forward" v="through|through|right"/>
    <tag k="vehicle:lanes:forward" v="yes|no|yes"/>
  </way>
  <way id="173041359" version="12" timestamp="2024-11-22T15:51:20Z" changeset="159464906" uid="20085156" user="map per StreetComplete">
    <nd ref="728100987"/>
    <nd ref="4960091117"/>
    <nd ref="728100985"/>
    <tag k="class:bicycle" v="-1"/>
    <tag k="cycleway:both" v="no"/>
    <tag k="highway" v="tertiary"/>
    <tag k="lanes" v="2"/>
    <tag k="lit" v="yes"/>
    <tag k="maxspeed" v="30"/>
    <tag k="name" v="Tumblingerstraße"/>
    <tag k="note" v="Kein Verkehrszeichen für benutzungspflichtiger Radweg vorhanden"/>
    <tag k="sidewalk:both" v="separate"/>
    <tag k="source:maxspeed" v="sign"/>
    <tag k="surface" v="asphalt"/>
  </way>
  <way id="173041360" version="23" timestamp="2024-10-08T13:56:29Z" changeset="157628354" uid="13987295" user="Arthur B E">
    <nd ref="5071773"/>
    <nd ref="10083470666"/>
    <nd ref="10083470667"/>
    <nd ref="27579739"/>
    <tag k="class:bicycle" v="-1"/>
    <tag k="cycleway:left" v="shared_lane"/>
    <tag k="cycleway:left:lane" v="pictogram"/>
    <tag k="cycleway:right" v="no"/>
    <tag k="highway" v="tertiary"/>
    <tag k="lanes" v="2"/>
    <tag k="lit" v="yes"/>
    <tag k="maxspeed" v="30"/>
    <tag k="name" v="Tumblingerstraße"/>
    <tag k="parking:left" v="street_side"/>
    <tag k="parking:left:orientation" v="parallel"/>
    <tag k="sidewalk" v="separate"/>
    <tag k="smoothness" v="excellent"/>
    <tag k="source:maxspeed" v="sign"/>
    <tag k="surface" v="asphalt"/>
  </way>
  <way id="188119312" version="14" timestamp="2024-02-28T05:46:53Z" changeset="147997772" uid="78613" user="heilbron">
    <nd ref="29030021"/>
    <nd ref="10083470657"/>
    <nd ref="27358781"/>
    <nd ref="2449481232"/>
    <nd ref="2449481177"/>
    <nd ref="2449481190"/>
    <nd ref="283142110"/>
    <nd ref="7947741658"/>
    <nd ref="8018721671"/>
    <nd ref="290826814"/>
    <nd ref="5071771"/>
    <tag k="bicycle" v="yes"/>
    <tag k="class:bicycle" v="-1"/>
    <tag k="cycleway:left" v="lane"/>
    <tag k="cycleway:left:lane" v="advisory"/>
    <tag k="cycleway:right" v="no"/>
    <tag k="highway" v="residential"/>
    <tag k="lit" v="yes"/>
    <tag k="maxspeed" v="30"/>
    <tag k="name" v="Zenettistraße"/>
    <tag k="oneway" v="yes"/>
    <tag k="oneway:bicycle" v="no"/>
    <tag k="sidewalk" v="both"/>
    <tag k="sidewalk:both:surface" v="paving_stones"/>
    <tag k="smoothness" v="good"/>
    <tag k="surface" v="asphalt"/>
    <tag k="traffic_sign" v="DE:1022-10"/>
  </way>
  <way id="204589463" version="9" timestamp="2024-08-07T19:02:36Z" changeset="154950262" uid="8748" user="ToniE">
    <nd ref="3116386848"/>
    <nd ref="12071999931"/>
    <nd ref="1877959903"/>
    <nd ref="1877959906"/>
    <nd ref="12097569680"/>
    <nd ref="3943966262"/>
    <nd ref="27784294"/>
    <tag k="bicycle" v="use_sidepath"/>
    <tag k="highway" v="residential"/>
    <tag k="lanes" v="2"/>
    <tag k="maxspeed" v="50"/>
    <tag k="name" v="Thalkirchner Straße"/>
    <tag k="sidewalk" v="separate"/>
    <tag k="surface" v="asphalt"/>
  </way>
  <way id="221665400" version="5" timestamp="2023-06-16T05:49:31Z" changeset="137397621" uid="78613" user="heilbron">
    <nd ref="1099752759"/>
    <nd ref="1099752687"/>
    <nd ref="1099753058"/>
    <nd ref="1099752834"/>
    <nd ref="1099752759"/>
    <tag k="addr:city" v="München"/>
    <tag k="addr:country" v="DE"/>
    <tag k="addr:housenumber" v="14"/>
    <tag k="addr:street" v="Kapuzinerstraße"/>
    <tag k="building" v="apartments"/>
    <tag k="building:levels" v="5"/>
    <tag k="roof:levels" v="1"/>
    <tag k="roof:shape" v="gabled"/>
  </way>
  <way id="223251073" version="7" timestamp="2020-12-16T14:54:50Z" changeset="95948535" uid="11799774" user="Vinec">
    <nd ref="2321705626"/>
    <nd ref="2321705624"/>
    <nd ref="2450922629"/>
    <nd ref="2321705625"/>
    <nd ref="2321705623"/>
    <nd ref="2321705626"/>
    <tag k="addr:housenumber" v="6"/>
    <tag k="addr:postcode" v="80337"/>
    <tag k="addr:street" v="Schmellerstraße"/>
    <tag k="building" v="apartments"/>
    <tag k="building:levels" v="4"/>
    <tag k="roof:levels" v="1"/>
  </way>
  <way id="236998383" version="5" timestamp="2021-05-22T22:47:17Z" changeset="105149238" uid="1704001" user="sam-089">
    <nd ref="1306926297"/>
    <nd ref="3851531947"/>
    <nd ref="3851531946"/>
    <nd ref="1306926191"/>
    <nd ref="3851531952"/>
    <nd ref="3851531954"/>
    <nd ref="2449481221"/>
    <nd ref="3851531953"/>
    <nd ref="3851531951"/>
    <nd ref="2449481184"/>
    <nd ref="1306926217"/>
    <nd ref="1306926230"/>
    <nd ref="3851531950"/>
    <nd ref="3851531944"/>
    <nd ref="3851531945"/>
    <nd ref="1306926219"/>
    <nd ref="1306926250"/>
    <nd ref="1306926231"/>
    <nd ref="1306926263"/>
    <nd ref="3851531930"/>
    <nd ref="1306926297"/>
    <tag k="addr:housenumber" v="23"/>
    <tag k="addr:street" v="Zenettistraße"/>
    <tag k="building" v="yes"/>
  </way>
  <way id="236998390" version="6" timestamp="2021-05-22T22:47:17Z" changeset="105149238" uid="1704001" user="sam-089">
    <nd ref="1306926230"/>
    <nd ref="1306926217"/>
    <nd ref="2449481174"/>
    <nd ref="1306926243"/>
    <nd ref="1306926304"/>
    <nd ref="3851531961"/>
    <nd ref="3851531960"/>
    <nd ref="3851531955"/>
    <nd ref="3851531956"/>
    <nd ref="8467824848"/>
    <nd ref="8467824849"/>
    <nd ref="1306927956"/>
    <nd ref="3851531940"/>
    <nd ref="3851531942"/>
    <nd ref="3851531949"/>
    <nd ref="3851531950"/>
    <nd ref="1306926230"/>
    <tag k="addr:housenumber" v="23a"/>
    <tag k="addr:street" v="Zenettistraße"/>
    <tag k="building" v="yes"/>
  </way>
  <way id="236999299" version="6" timestamp="2023-06-16T05:49:30Z" changeset="137397621" uid="78613" user="heilbron">
    <nd ref="2449487348"/>
    <nd ref="1099752975"/>
    <nd ref="10087309759"/>
    <nd ref="1099752638"/>
    <nd ref="1099753351"/>
    <nd ref="1099753015"/>
    <nd ref="1099752841"/>
    <nd ref="2449487348"/>
    <tag k="addr:city" v="München"/>
    <tag k="addr:country" v="DE"/>
    <tag k="addr:housenumber" v="4"/>
    <tag k="addr:street" v="Kapuzinerstraße"/>
    <tag k="building" v="apartments"/>
    <tag k="building:levels" v="4"/>
    <tag k="roof:levels" v="2"/>
    <tag k="roof:shape" v="gabled"/>
  </way>
  <way id="237147448" version="3" timestamp="2020-12-16T14:55:02Z" changeset="95948535" uid="11799774" user="Vinec">
    <nd ref="2450922616"/>
    <nd ref="2321705625"/>
    <nd ref="2321705623"/>
    <nd ref="2450922636"/>
    <nd ref="2450922634"/>
    <nd ref="2450922616"/>
    <tag k="addr:housenumber" v="4"/>
    <tag k="addr:postcode" v="80337"/>
    <tag k="addr:street" v="Schmellerstraße"/>
    <tag k="building" v="apartments"/>
    <tag k="building:levels" v="4"/>
    <tag k="roof:levels" v="1"/>
  </way>
  <way id="237574711" version="3" timestamp="2021-01-12T11:56:23Z" changeset="97371396" uid="3681899" user="monatsend">
    <nd ref="2454545302"/>
    <nd ref="1099752914"/>
    <nd ref="1099752964"/>
    <nd ref="8314857509"/>
    <nd ref="1099753179"/>
    <nd ref="2454545302"/>
    <tag k="addr:housenumber" v="29a"/>
    <tag k="addr:postcode" v="80337"/>
    <tag k="addr:street" v="Adlzreiterstraße"/>
    <tag k="building" v="yes"/>
  </way>
  <way id="263733119" version="3" timestamp="2023-07-22T14:25:13Z" changeset="138856718" uid="9352598" user="JakobMunichways">
    <nd ref="27784294"/>
    <nd ref="1397017547"/>
    <tag k="bicycle" v="yes"/>
    <tag k="class:bicycle" v="-1"/>
    <tag k="cycleway" v="no"/>
    <tag k="highway" v="residential"/>
    <tag k="maxspeed" v="30"/>
    <tag k="maxweight" v="40"/>
    <tag k="name" v="Zenettistraße"/>
    <tag k="oneway" v="no"/>
    <tag k="sidewalk" v="separate"/>
    <tag k="smoothness" v="good"/>
    <tag k="surface" v="asphalt"/>
  </way>
  <way id="315202573" version="10" timestamp="2023-10-29T16:46:42Z" changeset="143320662" uid="6285042" user="Biclmont">
    <nd ref="1091413930"/>
    <nd ref="3498157179"/>
    <nd ref="2614032164"/>
    <nd ref="1955354"/>
    <tag k="bicycle" v="use_sidepath"/>
    <tag k="foot" v="use_sidepath"/>
    <tag k="highway" v="secondary"/>
    <tag k="lanes" v="5"/>
    <tag k="lanes:forward" v="3"/>
    <tag k="lit" v="yes"/>
    <tag k="maxspeed" v="50"/>
    <tag k="name" v="Lindwurmstraße"/>
    <tag k="old_ref" v="B 2;B 11"/>
    <tag k="parking:both" v="street_side"/>
    <tag k="parking:both:orientation" v="parallel"/>
    <tag k="sidewalk:both" v="separate"/>
    <tag k="surface" v="asphalt"/>
    <tag k="tmc" v="DE:35410/28009"/>
    <tag k="turn:lanes:forward" v="left|through|through;right"/>
  </way>
  <way id="342581285" version="3" timestamp="2016-02-08T18:56:03Z" changeset="37086538" uid="14390" user="BeKri">
    <nd ref="1129877428"/>
    <nd ref="1129877426"/>
    <nd ref="1129877479"/>
    <nd ref="1129877461"/>
    <nd ref="1129877526"/>
    <nd ref="1129877548"/>
    <nd ref="1129877474"/>
    <nd ref="1129877506"/>
    <nd ref="3994372224"/>
    <nd ref="1129877428"/>
    <tag k="addr:city" v="München"/>
    <tag k="addr:country" v="DE"/>
    <tag k="addr:housenumber" v="10d"/>
    <tag k="addr:postcode" v="80337"/>
    <tag k="addr:street" v="Zenettistraße"/>
    <tag k="building" v="yes"/>
  </way>
  <way id="364988570" version="6" timestamp="2022-07-15T09:58:36Z" changeset="123642639" uid="999279" user="mc64">
    <nd ref="1091830710"/>
    <nd ref="1955427"/>
    <tag k="bicycle" v="use_sidepath"/>
    <tag k="foot" v="use_sidepath"/>
    <tag k="highway" v="secondary"/>
    <tag k="lanes" v="5"/>
    <tag k="lanes:backward" v="3"/>
    <tag k="lit" v="yes"/>
    <tag k="maxspeed" v="50"/>
    <tag k="name" v="Lindwurmstraße"/>
    <tag k="old_ref" v="B 2;B 11"/>
    <tag k="sidewalk" v="separate"/>
    <tag k="surface" v="asphalt"/>
    <tag k="tmc" v="DE:35410/28009"/>
    <tag k="turn:lanes:backward" v="left|through|through;right"/>
  </way>
  <way id="373538980" version="12" timestamp="2025-01-24T16:53:59Z" changeset="161720515" uid="38546" user="wikimax">
    <nd ref="3769791197"/>
    <nd ref="3498157176"/>
    <nd ref="3769791295"/>
    <nd ref="27358787"/>
    <tag k="bicycle" v="use_sidepath"/>
    <tag k="highway" v="secondary"/>
    <tag k="lanes" v="2"/>
    <tag k="lit" v="yes"/>
    <tag k="maxspeed" v="50"/>
    <tag k="maxspeed:type" v="DE:urban"/>
    <tag k="name" v="Kapuzinerstraße"/>
    <tag k="oneway" v="yes"/>
    <tag k="sidewalk:left" v="no"/>
    <tag k="sidewalk:right" v="separate"/>
    <tag k="smoothness" v="good"/>
    <tag k="source:maxspeed" v="DE:urban"/>
    <tag k="surface" v="asphalt"/>
    <tag k="turn:lanes" v="through|right"/>
  </way>
  <way id="396618077" version="3" timestamp="2019-05-23T14:11:01Z" changeset="70553862" uid="999279" user="mc64">
    <nd ref="1309522344"/>
    <nd ref="1309522575"/>
    <nd ref="2450501213"/>
    <nd ref="1309522556"/>
    <nd ref="1309522405"/>
    <nd ref="2450501273"/>
    <nd ref="1309522577"/>
    <nd ref="1309522401"/>
    <nd ref="1309522376"/>
    <nd ref="1309522361"/>
    <nd ref="1309522447"/>
    <nd ref="1309522393"/>
    <nd ref="1309522563"/>
    <nd ref="1309522450"/>
    <nd ref="1309522359"/>
    <nd ref="1309522344"/>
    <tag k="addr:city" v="München"/>
    <tag k="addr:country" v="DE"/>
    <tag k="addr:housenumber" v="9"/>
    <tag k="addr:postcode" v="80337"/>
    <tag k="addr:street" v="Zenettistraße"/>
    <tag k="building" v="commercial"/>
    <tag k="building:levels" v="2"/>
    <tag k="name" v="Direktionsgebäude"/>
    <tag k="roof:levels" v="1"/>
    <tag k="roof:shape" v="hipped"/>
  </way>
  <way id="396618082" version="3" timestamp="2018-09-11T11:58:09Z" changeset="62485727" uid="999279" user="mc64">
    <nd ref="729589971"/>
    <nd ref="1309522541"/>
    <nd ref="1309522527"/>
    <nd ref="1309522371"/>
    <nd ref="1309522362"/>
    <nd ref="3164582600"/>
    <nd ref="1309522468"/>
    <nd ref="3116386841"/>
    <nd ref="1309522544"/>
    <nd ref="1309522572"/>
    <nd ref="1309522498"/>
    <nd ref="729589971"/>
    <tag k="addr:city" v="München"/>
    <tag k="addr:country" v="DE"/>
    <tag k="addr:housenumber" v="108"/>
    <tag k="addr:postcode" v="80337"/>
    <tag k="addr:street" v="Thalkirchner Straße"/>
    <tag k="building" v="commercial"/>
    <tag k="building:levels" v="2"/>
    <tag k="roof:levels" v="1"/>
    <tag k="roof:shape" v="hipped"/>
  </way>
  <way id="396618098" version="2" timestamp="2019-05-23T14:11:34Z" changeset="70553840" uid="999279" user="mc64">
    <nd ref="3994372222"/>
    <nd ref="1129877528"/>
    <nd ref="1129877514"/>
    <nd ref="3994372218"/>
    <nd ref="3994372219"/>
    <nd ref="3994372222"/>
    <tag k="addr:city" v="München"/>
    <tag k="addr:country" v="DE"/>
    <tag k="addr:housenumber" v="6"/>
    <tag k="addr:postcode" v="80337"/>
    <tag k="addr:street" v="Zenettistraße"/>
    <tag k="building" v="commercial"/>
    <tag k="building:levels" v="3"/>
    <tag k="name" v="Südfleisch GmbH"/>
    <tag k="roof:shape" v="flat"/>
  </way>
  <way id="446407207" version="5" timestamp="2023-06-16T05:49:30Z" changeset="137397621" uid="78613" user="heilbron">
    <nd ref="1099752706"/>
    <nd ref="1099752711"/>
    <nd ref="5876562097"/>
    <nd ref="1099752841"/>
    <nd ref="1099753015"/>
    <nd ref="4436862659"/>
    <nd ref="1099752706"/>
    <tag k="addr:city" v="München"/>
    <tag k="addr:country" v="DE"/>
    <tag k="addr:housenumber" v="6"/>
    <tag k="addr:postcode" v="80337"/>
    <tag k="addr:street" v="Kapuzinerstraße"/>
    <tag k="building" v="apartments"/>
    <tag k="building:levels" v="6"/>
    <tag k="roof:levels" v="1"/>
  </way>
  <way id="446407208" version="8" timestamp="2023-08-27T21:16:12Z" changeset="140468559" uid="536583" user="Strubbl">
    <nd ref="1099752566"/>
    <nd ref="10087309758"/>
    <nd ref="1099753567"/>
    <nd ref="11148967987"/>
    <nd ref="1099752569"/>
    <nd ref="11148967988"/>
    <nd ref="1099753111"/>
    <nd ref="1099752912"/>
    <nd ref="1099752566"/>
    <tag k="addr:city" v="München"/>
    <tag k="addr:country" v="DE"/>
    <tag k="addr:housenumber" v="10"/>
    <tag k="addr:postcode" v="80337"/>
    <tag k="addr:street" v="Kapuzinerstraße"/>
    <tag k="building" v="apartments"/>
    <tag k="building:levels" v="4"/>
    <tag k="roof:levels" v="2"/>
    <tag k="roof:shape" v="gabled"/>
  </way>
  <way id="471919252" version="4" timestamp="2024-02-28T05:46:51Z" changeset="147997771" uid="78613" user="heilbron">
    <nd ref="4660674244"/>
    <nd ref="4660674245"/>
    <nd ref="2354666151"/>
    <nd ref="4660674246"/>
    <nd ref="4660674247"/>
    <nd ref="4660674248"/>
    <nd ref="4660674243"/>
    <nd ref="4660674242"/>
    <nd ref="4660674244"/>
    <tag k="addr:city" v="München"/>
    <tag k="addr:country" v="DE"/>
    <tag k="addr:housenumber" v="12"/>
    <tag k="addr:postcode" v="80337"/>
    <tag k="addr:street" v="Adlzreiterstraße"/>
    <tag k="building" v="apartments"/>
    <tag k="building:levels" v="4"/>
    <tag k="notable_tenant:wikidata" v="Q937"/>
    <tag k="roof:levels" v="1"/>
    <tag k="wikidata" v="Q41178292"/>
  </way>
  <way id="471919264" version="5" timestamp="2021-11-15T11:42:15Z" changeset="113801564" uid="139345" user="Meskalin">
    <nd ref="1152551198"/>
    <nd ref="1152551235"/>
    <nd ref="4660674489"/>
    <nd ref="1099753049"/>
    <nd ref="4660674288"/>
    <nd ref="4660674287"/>
    <nd ref="4660674285"/>
    <nd ref="9253003294"/>
    <nd ref="2449481215"/>
    <nd ref="1099753237"/>
    <nd ref="1099752919"/>
    <nd ref="1152551198"/>
    <tag k="addr:city" v="München"/>
    <tag k="addr:country" v="DE"/>
    <tag k="addr:housenumber" v="44"/>
    <tag k="addr:postcode" v="80337"/>
    <tag k="addr:street" v="Zenettistraße"/>
    <tag k="amenity" v="place_of_worship"/>
    <tag k="building" v="church"/>
    <tag k="denomination" v="roman_catholic"/>
    <tag k="name" v="St. Andreas"/>
    <tag k="religion" v="christian"/>
    <tag k="website" v="http://www.st-andreas-muenchen.de/"/>
    <tag k="wheelchair" v="limited"/>
    <tag k="wikidata" v="Q2317005"/>
  </way>
  <way id="506242258" version="2" timestamp="2020-09-17T07:56:16Z" changeset="91029972" uid="2598937" user="PiJ82">
    <nd ref="1099753092"/>
    <nd ref="4960091821"/>
    <nd ref="1099753094"/>
    <nd ref="1657638497"/>
    <nd ref="4960091823"/>
    <nd ref="1099753092"/>
    <tag k="addr:housenumber" v="1"/>
    <tag k="addr:postcode" v="80337"/>
    <tag k="addr:street" v="Kapuzinerplatz"/>
    <tag k="building" v="yes"/>
    <tag k="roof:colour" v="grey"/>
    <tag k="roof:shape" v="gabled"/>
  </way>
  <way id="506242261" version="9" timestamp="2024-11-22T15:51:20Z" changeset="159464906" uid="20085156" user="map per StreetComplete">
    <nd ref="728100985"/>
    <nd ref="2498823827"/>
    <nd ref="2449484105"/>
    <nd ref="2498823824"/>
    <nd ref="2449484124"/>
    <nd ref="4960091830"/>
    <tag k="class:bicycle" v="-1"/>
    <tag k="cycleway:both" v="no"/>
    <tag k="highway" v="tertiary"/>
    <tag k="lanes" v="2"/>
    <tag k="lit" v="yes"/>
    <tag k="maxspeed" v="30"/>
    <tag k="name" v="Tumblingerstraße"/>
    <tag k="note" v="Kein Verkehrszeichen für benutzungspflichtiger Radweg vorhanden"/>
    <tag k="sidewalk" v="separate"/>
    <tag k="source:maxspeed" v="sign"/>
    <tag k="surface" v="asphalt"/>
  </way>
  <way id="506242262" version="7" timestamp="2024-02-28T05:46:53Z" changeset="147997771" uid="78613" user="heilbron">
    <nd ref="4960091831"/>
    <nd ref="9330588584"/>
    <nd ref="9330588585"/>
    <nd ref="9330588586"/>
    <nd ref="9330588587"/>
    <nd ref="9330588593"/>
    <nd ref="11067217490"/>
    <nd ref="338946144"/>
    <nd ref="2450501269"/>
    <nd ref="338946146"/>
    <nd ref="9250133832"/>
    <nd ref="11067217489"/>
    <nd ref="1129877564"/>
    <nd ref="1129877423"/>
    <nd ref="4960091831"/>
    <tag k="addr:city" v="München"/>
    <tag k="addr:country" v="DE"/>
    <tag k="addr:housenumber" v="20"/>
    <tag k="addr:postcode" v="80337"/>
    <tag k="addr:street" v="Zenettistraße"/>
    <tag k="building" v="retail"/>
    <tag k="building:levels" v="2"/>
    <tag k="roof:levels" v="0"/>
  </way>
  <way id="621817219" version="15" timestamp="2025-03-22T20:57:57Z" changeset="163964101" uid="44217" user="kjon">
    <nd ref="5874286777"/>
    <nd ref="5874286776"/>
    <nd ref="5874286774"/>
    <tag k="bicycle:lanes:backward" v="yes|no|designated|yes"/>
    <tag k="class:bicycle" v="-1"/>
    <tag k="cycleway:left" v="lane"/>
    <tag k="cycleway:left:lane" v="exclusive"/>
    <tag k="cycleway:right" v="separate"/>
    <tag k="highway" v="secondary"/>
    <tag k="lanes" v="4"/>
    <tag k="lanes:backward" v="3"/>
    <tag k="lanes:bicycle:backward" v="1"/>
    <tag k="lanes:forward" v="1"/>
    <tag k="lit" v="yes"/>
    <tag k="maxspeed" v="50"/>
    <tag k="name" v="Kapuzinerstraße"/>
    <tag k="parking:both" v="no"/>
    <tag k="parking:condition:both" v="no_stopping"/>
    <tag k="sidewalk:both" v="separate"/>
    <tag k="smoothness" v="good"/>
    <tag k="surface" v="asphalt"/>
    <tag k="tmc" v="DE:27996/27997"/>
    <tag k="turn:lanes:backward" v="left|through|through|right"/>
    <tag k="vehicle:lanes:backward" v="yes|yes|no|yes"/>
  </way>
  <way id="621817220" version="11" timestamp="2024-04-30T12:46:36Z" changeset="150706395" uid="16061279" user="YellowSoul">
    <nd ref="5874286774"/>
    <nd ref="1379312101"/>
    <nd ref="5876562094"/>
    <tag k="bus:lanes:forward" v="designated|no"/>
    <tag k="class:bicycle" v="1"/>
    <tag k="cycleway:left" v="lane"/>
    <tag k="cycleway:left:lane" v="exclusive"/>
    <tag k="cycleway:right" v="separate"/>
    <tag k="highway" v="secondary"/>
    <tag k="lanes" v="3"/>
    <tag k="lanes:backward" v="1"/>
    <tag k="lanes:bus:forward" v="1"/>
    <tag k="lanes:forward" v="2"/>
    <tag k="lit" v="yes"/>
    <tag k="maxspeed" v="50"/>
    <tag k="name" v="Kapuzinerstraße"/>
    <tag k="sidewalk:both" v="separate"/>
    <tag k="smoothness" v="excellent"/>
    <tag k="source:maxspeed" v="DE:urban"/>
    <tag k="surface" v="asphalt"/>
    <tag k="tmc" v="DE:27996/27997"/>
    <tag k="vehicle:lanes:forward" v="no|yes"/>
  </way>
  <way id="622091740" version="12" timestamp="2025-03-22T20:57:57Z" changeset="163964101" uid="44217" user="kjon">
    <nd ref="2508887250"/>
    <nd ref="5876562087"/>
    <tag k="bicycle:lanes:forward" v="no|designated|yes"/>
    <tag k="cycleway:both" v="lane"/>
    <tag k="cycleway:left:lane" v="advisory"/>
    <tag k="cycleway:right:lane" v="exclusive"/>
    <tag k="highway" v="secondary"/>
    <tag k="lanes" v="4"/>
    <tag k="lanes:backward" v="1"/>
    <tag k="lanes:bicycle:forward" v="1"/>
    <tag k="lanes:forward" v="3"/>
    <tag k="lit" v="yes"/>
    <tag k="maxspeed" v="50"/>
    <tag k="maxspeed:conditional" v="30 @ (Mo-Fr 01:00-17:00)"/>
    <tag k="name" v="Kapuzinerstraße"/>
    <tag k="parking:both" v="no"/>
    <tag k="parking:condition:both" v="no_stopping"/>
    <tag k="surface" v="asphalt"/>
    <tag k="tmc" v="DE:27996/27997"/>
    <tag k="turn:lanes:forward" v="through|through|right"/>
    <tag k="vehicle:lanes:forward" v="yes|no|yes"/>
  </way>
  <way id="622091744" version="17" timestamp="2025-03-22T20:57:57Z" changeset="163964101" uid="44217" user="kjon">
    <nd ref="5876562088"/>
    <nd ref="2508887250"/>
    <tag k="bicycle:lanes:forward" v="no|designated|yes"/>
    <tag k="class:bicycle" v="-1"/>
    <tag k="cycleway:both" v="lane"/>
    <tag k="cycleway:left:lane" v="advisory"/>
    <tag k="cycleway:right:lane" v="exclusive"/>
    <tag k="highway" v="secondary"/>
    <tag k="lanes" v="4"/>
    <tag k="lanes:backward" v="1"/>
    <tag k="lanes:bicycle:forward" v="1"/>
    <tag k="lanes:forward" v="3"/>
    <tag k="lit" v="yes"/>
    <tag k="maxspeed" v="50"/>
    <tag k="maxspeed:conditional" v="30 @ (Mo-Fr 07:00-17:00)"/>
    <tag k="name" v="Kapuzinerstraße"/>
    <tag k="parking:both" v="no"/>
    <tag k="parking:condition:both" v="no_stopping"/>
    <tag k="sidewalk" v="both"/>
    <tag k="sidewalk:both:surface" v="paving_stones"/>
    <tag k="smoothness" v="good"/>
    <tag k="surface" v="asphalt"/>
    <tag k="tmc" v="DE:27996/27997"/>
    <tag k="turn:lanes:forward" v="through|through|right"/>
    <tag k="vehicle:lanes:forward" v="yes|no|yes"/>
  </way>
  <way id="622091752" version="8" timestamp="2024-11-22T15:59:43Z" changeset="159465272" uid="11758604" user="map per">
    <nd ref="27470148"/>
    <nd ref="5876562094"/>
    <tag k="class:bicycle" v="1"/>
    <tag k="cycleway:left" v="no"/>
    <tag k="cycleway:right" v="lane"/>
    <tag k="cycleway:right:lane" v="exclusive"/>
    <tag k="highway" v="secondary"/>
    <tag k="lanes" v="1"/>
    <tag k="lit" v="yes"/>
    <tag k="maxspeed" v="50"/>
    <tag k="name" v="Kapuzinerstraße"/>
    <tag k="oneway" v="yes"/>
    <tag k="sidewalk" v="separate"/>
    <tag k="smoothness" v="excellent"/>
    <tag k="source:maxspeed" v="DE:urban"/>
    <tag k="surface" v="asphalt"/>
    <tag k="tmc" v="DE:27996/27997"/>
  </way>
  <way id="622091753" version="6" timestamp="2024-04-30T12:47:51Z" changeset="150706478" uid="16061279" user="YellowSoul">
    <nd ref="5876562094"/>
    <nd ref="3769791197"/>
    <tag k="bicycle" v="use_sidepath"/>
    <tag k="highway" v="secondary"/>
    <tag k="lanes" v="1"/>
    <tag k="lit" v="yes"/>
    <tag k="maxspeed" v="50"/>
    <tag k="maxspeed:type" v="DE:urban"/>
    <tag k="name" v="Kapuzinerstraße"/>
    <tag k="oneway" v="yes"/>
    <tag k="sidewalk:left" v="no"/>
    <tag k="sidewalk:right" v="separate"/>
    <tag k="smoothness" v="good"/>
    <tag k="source:maxspeed" v="DE:urban"/>
    <tag k="surface" v="asphalt"/>
  </way>
  <way id="625997952" version="6" timestamp="2025-01-20T09:24:56Z" changeset="161554399" uid="11309604" user="drcarl">
    <nd ref="5910086652"/>
    <nd ref="3231889219"/>
    <nd ref="3231889218"/>
    <nd ref="4660674217"/>
    <nd ref="1099430017"/>
    <nd ref="4082478145"/>
    <nd ref="4660674259"/>
    <nd ref="5910086653"/>
    <nd ref="5910086652"/>
    <tag k="addr:housenumber" v="107"/>
    <tag k="addr:street" v="Lindwurmstraße"/>
    <tag k="building" v="apartments"/>
  </way>
  <way id="849721088" version="12" timestamp="2025-03-22T20:57:57Z" changeset="163964101" uid="44217" user="kjon">
    <nd ref="9723570881"/>
    <nd ref="5884985616"/>
    <nd ref="728100987"/>
    <tag k="class:bicycle" v="-1"/>
    <tag k="cycleway:both" v="no"/>
    <tag k="highway" v="tertiary"/>
    <tag k="lanes" v="2"/>
    <tag k="lit" v="yes"/>
    <tag k="maxspeed" v="30"/>
    <tag k="name" v="Tumblingerstraße"/>
    <tag k="note" v="Kein Verkehrszeichen für benutzungspflichtiger Radweg vorhanden"/>
    <tag k="parking:both" v="no"/>
    <tag k="parking:condition:both" v="no_stopping"/>
    <tag k="sidewalk:both" v="separate"/>
    <tag k="source:maxspeed" v="sign"/>
    <tag k="surface" v="asphalt"/>
  </way>
  <way id="857065201" version="17" timestamp="2023-08-08T15:41:44Z" changeset="139619838" uid="29096" user="buergi">
    <nd ref="7990868131"/>
    <nd ref="7992920142"/>
    <nd ref="7990868132"/>
    <nd ref="7990868133"/>
    <nd ref="7990868134"/>
    <nd ref="7990868135"/>
    <nd ref="7990868136"/>
    <nd ref="7990868137"/>
    <nd ref="7990868138"/>
    <nd ref="8840880772"/>
    <nd ref="7990868139"/>
    <nd ref="7990868140"/>
    <nd ref="7990868141"/>
    <nd ref="7990868142"/>
    <nd ref="7990868143"/>
    <nd ref="8840880773"/>
    <nd ref="7990868144"/>
    <nd ref="6433846106"/>
    <nd ref="6433846107"/>
    <nd ref="8840880767"/>
    <nd ref="8840880766"/>
    <nd ref="8840880764"/>
    <nd ref="11099612833"/>
    <nd ref="11099612830"/>
    <nd ref="11099612831"/>
    <nd ref="11099612829"/>
    <nd ref="11099612832"/>
    <nd ref="11099612834"/>
    <nd ref="11099612835"/>
    <nd ref="11099612828"/>
    <nd ref="11099612827"/>
    <nd ref="8840880761"/>
    <nd ref="9367160704"/>
    <nd ref="7990868145"/>
    <nd ref="1309522479"/>
    <nd ref="7990868147"/>
    <nd ref="10777823882"/>
    <nd ref="9160050109"/>
    <nd ref="7990868150"/>
    <nd ref="7990868151"/>
    <nd ref="7990868152"/>
    <nd ref="7990868153"/>
    <nd ref="7990868154"/>
    <nd ref="7990868155"/>
    <nd ref="7990868159"/>
    <nd ref="7990868158"/>
    <nd ref="7990868157"/>
    <nd ref="7990868156"/>
    <nd ref="7990868131"/>
    <tag k="addr:city" v="München"/>
    <tag k="addr:housenumber" v="29"/>
    <tag k="addr:postcode" v="80337"/>
    <tag k="addr:street" v="Tumblingerstraße"/>
    <tag k="building" v="apartments"/>
  </way>
  <way id="883869780" version="5" timestamp="2023-10-29T16:46:15Z" changeset="143320662" uid="6285042" user="Biclmont">
    <nd ref="5071771"/>
    <nd ref="11252506897"/>
    <nd ref="8018721670"/>
    <nd ref="4660674492"/>
    <nd ref="1657638537"/>
    <nd ref="2450895114"/>
    <tag k="bicycle" v="use_sidepath"/>
    <tag k="foot" v="use_sidepath"/>
    <tag k="highway" v="secondary"/>
    <tag k="lanes" v="4"/>
    <tag k="lit" v="yes"/>
    <tag k="maxspeed" v="50"/>
    <tag k="name" v="Lindwurmstraße"/>
    <tag k="old_ref" v="B 2;B 11"/>
    <tag k="psv" v="yes"/>
    <tag k="sidewalk:both" v="separate"/>
    <tag k="surface" v="asphalt"/>
    <tag k="tmc" v="DE:35410/28009"/>
  </way>
  <way id="984435667" version="3" timestamp="2023-10-29T16:46:21Z" changeset="143320662" uid="6285042" user="Biclmont">
    <nd ref="2450895114"/>
    <nd ref="27579741"/>
    <tag k="bicycle" v="use_sidepath"/>
    <tag k="foot" v="use_sidepath"/>
    <tag k="highway" v="secondary"/>
    <tag k="lanes" v="4"/>
    <tag k="lit" v="yes"/>
    <tag k="maxspeed" v="50"/>
    <tag k="name" v="Lindwurmstraße"/>
    <tag k="old_ref" v="B 2;B 11"/>
    <tag k="psv" v="yes"/>
    <tag k="sidewalk:both" v="separate"/>
    <tag k="surface" v="asphalt"/>
    <tag k="tmc" v="DE:35410/28009"/>
  </way>
  <way id="984435668" version="4" timestamp="2023-10-29T16:46:35Z" changeset="143320662" uid="6285042" user="Biclmont">
    <nd ref="2449481141"/>
    <nd ref="1091413930"/>
    <tag k="bicycle" v="use_sidepath"/>
    <tag k="foot" v="use_sidepath"/>
    <tag k="highway" v="secondary"/>
    <tag k="lanes" v="4"/>
    <tag k="lit" v="yes"/>
    <tag k="maxspeed" v="50"/>
    <tag k="name" v="Lindwurmstraße"/>
    <tag k="old_ref" v="B 2;B 11"/>
    <tag k="shoulder" v="no"/>
    <tag k="sidewalk:both" v="separate"/>
    <tag k="surface" v="asphalt"/>
    <tag k="tmc" v="DE:35410/28009"/>
  </way>
  <way id="984435669" version="4" timestamp="2023-10-29T16:46:28Z" changeset="143320662" uid="6285042" user="Biclmont">
    <nd ref="2449481207"/>
    <nd ref="2449481141"/>
    <tag k="bicycle" v="use_sidepath"/>
    <tag k="foot" v="use_sidepath"/>
    <tag k="highway" v="secondary"/>
    <tag k="lanes" v="4"/>
    <tag k="lit" v="yes"/>
    <tag k="maxspeed" v="50"/>
    <tag k="name" v="Lindwurmstraße"/>
    <tag k="old_ref" v="B 2;B 11"/>
    <tag k="shoulder" v="no"/>
    <tag k="sidewalk:both" v="separate"/>
    <tag k="surface" v="asphalt"/>
    <tag k="tmc" v="DE:35410/28009"/>
  </way>
  <way id="1034229473" version="7" timestamp="2024-11-22T15:51:21Z" changeset="159464906" uid="20085156" user="map per StreetComplete">
    <nd ref="4960091830"/>
    <nd ref="4960091826"/>
    <nd ref="10083470668"/>
    <nd ref="10083470671"/>
    <nd ref="5071773"/>
    <tag k="class:bicycle" v="-1"/>
    <tag k="cycleway:both" v="no"/>
    <tag k="highway" v="tertiary"/>
    <tag k="lanes" v="2"/>
    <tag k="lit" v="yes"/>
    <tag k="maxspeed" v="30"/>
    <tag k="name" v="Tumblingerstraße"/>
    <tag k="note" v="Kein Verkehrszeichen für benutzungspflichtiger Radweg vorhanden"/>
    <tag k="parking:both" v="street_side"/>
    <tag k="parking:left:orientation" v="perpendicular"/>
    <tag k="parking:right:orientation" v="parallel"/>
    <tag k="sidewalk" v="separate"/>
    <tag k="source:maxspeed" v="sign"/>
    <tag k="surface" v="asphalt"/>
  </way>
  <way id="1101912291" version="2" timestamp="2023-07-22T14:25:13Z" changeset="138856718" uid="9352598" user="JakobMunichways">
    <nd ref="9330588601"/>
    <nd ref="10083470670"/>
    <nd ref="6003349900"/>
    <nd ref="5071773"/>
    <tag k="bicycle" v="yes"/>
    <tag k="class:bicycle" v="-1"/>
    <tag k="cycleway" v="no"/>
    <tag k="highway" v="residential"/>
    <tag k="lane_markings" v="no"/>
    <tag k="lanes" v="3"/>
    <tag k="lanes:backward" v="1"/>
    <tag k="lanes:forward" v="2"/>
    <tag k="lit" v="yes"/>
    <tag k="maxspeed" v="30"/>
    <tag k="maxweight" v="40"/>
    <tag k="name" v="Zenettistraße"/>
    <tag k="oneway" v="no"/>
    <tag k="sidewalk" v="both"/>
    <tag k="smoothness" v="good"/>
    <tag k="surface" v="asphalt"/>
    <tag k="turn:lanes:forward" v="left|none"/>
  </way>
  <way id="1105577764" version="4" timestamp="2023-11-08T22:51:48Z" changeset="143800692" uid="6285042" user="Biclmont">
    <nd ref="10116970758"/>
    <nd ref="10116970759"/>
    <tag k="bicycle" v="use_sidepath"/>
    <tag k="highway" v="tertiary"/>
    <tag k="lanes" v="1"/>
    <tag k="layer" v="-1"/>
    <tag k="lit" v="yes"/>
    <tag k="maxheight" v="3.6 m"/>
    <tag k="maxspeed" v="50"/>
    <tag k="name" v="Tumblingerstraße"/>
    <tag k="oneway" v="yes"/>
    <tag k="parking:both" v="no"/>
    <tag k="shoulder" v="no"/>
    <tag k="sidewalk:left" v="no"/>
    <tag k="sidewalk:right" v="separate"/>
    <tag k="surface" v="sett"/>
    <tag k="tunnel" v="yes"/>
  </way>
  <way id="1105577765" version="4" timestamp="2023-11-08T22:52:01Z" changeset="143800692" uid="6285042" user="Biclmont">
    <nd ref="9497582790"/>
    <nd ref="10116970763"/>
    <nd ref="10116970762"/>
    <nd ref="10116970758"/>
    <tag k="bicycle" v="use_sidepath"/>
    <tag k="highway" v="tertiary"/>
    <tag k="lanes" v="1"/>
    <tag k="maxspeed" v="50"/>
    <tag k="name" v="Tumblingerstraße"/>
    <tag k="oneway" v="yes"/>
    <tag k="parking:both" v="no"/>
    <tag k="sidewalk:left" v="no"/>
    <tag k="sidewalk:right" v="separate"/>
    <tag k="surface" v="sett"/>
  </way>
  <way id="1105577766" version="4" timestamp="2023-11-08T22:51:55Z" changeset="143800692" uid="6285042" user="Biclmont">
    <nd ref="25876185"/>
    <nd ref="10116970760"/>
    <nd ref="10116970761"/>
    <nd ref="9497582790"/>
    <tag k="bicycle" v="use_sidepath"/>
    <tag k="highway" v="tertiary"/>
    <tag k="lanes" v="1"/>
    <tag k="maxspeed" v="50"/>
    <tag k="name" v="Tumblingerstraße"/>
    <tag k="oneway" v="yes"/>
    <tag k="parking:both" v="no"/>
    <tag k="sidewalk:left" v="no"/>
    <tag k="sidewalk:right" v="separate"/>
    <tag k="surface" v="sett"/>
  </way>
  <way id="1112880487" version="10" timestamp="2024-12-17T17:25:37Z" changeset="160312269" uid="8353937" user="Helge Kreutzmannn">
    <nd ref="1147573035"/>
    <nd ref="27579740"/>
    <nd ref="8197765005"/>
    <nd ref="4208993072"/>
    <nd ref="4208993078"/>
    <nd ref="489934216"/>
    <nd ref="11252506902"/>
    <nd ref="290826559"/>
    <nd ref="11252506900"/>
    <tag k="class:bicycle" v="-2"/>
    <tag k="cycleway:both" v="no"/>
    <tag k="highway" v="residential"/>
    <tag k="lane_markings" v="no"/>
    <tag k="lit" v="yes"/>
    <tag k="maxspeed" v="30"/>
    <tag k="name" v="Ruppertstraße"/>
    <tag k="oneway" v="no"/>
    <tag k="parking:left" v="no"/>
    <tag k="parking:right" v="yes"/>
    <tag k="parking:right:orientation" v="parallel"/>
    <tag k="parking:right:parallel" v="on_street"/>
    <tag k="sidewalk:left" v="separate"/>
    <tag k="sidewalk:right" v="yes"/>
    <tag k="sidewalk:right:surface" v="paving_stones"/>
    <tag k="source:maxspeed" v="sign"/>
    <tag k="surface" v="asphalt"/>
  </way>
  <way id="1112882144" version="5" timestamp="2024-12-17T17:25:30Z" changeset="160312267" uid="8353937" user="Helge Kreutzmannn">
    <nd ref="1955301"/>
    <nd ref="1132359910"/>
    <nd ref="8018110779"/>
    <nd ref="10182293830"/>
    <tag k="bicycle" v="use_sidepath"/>
    <tag k="cycleway:both" v="separate"/>
    <tag k="highway" v="tertiary"/>
    <tag k="lanes" v="3"/>
    <tag k="lanes:backward" v="2"/>
    <tag k="lanes:forward" v="1"/>
    <tag k="lit" v="no"/>
    <tag k="maxspeed" v="50"/>
    <tag k="name" v="Tumblingerstraße"/>
    <tag k="parking:both" v="no"/>
    <tag k="sidewalk" v="separate"/>
    <tag k="surface" v="asphalt"/>
  </way>
  <way id="1133381663" version="9" timestamp="2024-10-08T13:55:34Z" changeset="157624285" uid="13987295" user="Arthur B E">
    <nd ref="27579739"/>
    <nd ref="10777823883"/>
    <nd ref="9527559575"/>
    <nd ref="11927614815"/>
    <nd ref="9180241472"/>
    <tag k="class:bicycle" v="-1"/>
    <tag k="cycleway:left" v="shared_lane"/>
    <tag k="cycleway:left:lane" v="pictogram"/>
    <tag k="cycleway:right" v="no"/>
    <tag k="highway" v="tertiary"/>
    <tag k="lanes" v="2"/>
    <tag k="lit" v="yes"/>
    <tag k="maxspeed" v="30"/>
    <tag k="name" v="Tumblingerstraße"/>
    <tag k="parking:both" v="no"/>
    <tag k="sidewalk" v="separate"/>
    <tag k="smoothness" v="excellent"/>
    <tag k="source:maxspeed" v="sign"/>
    <tag k="surface" v="asphalt"/>
  </way>
  <way id="1206829032" version="2" timestamp="2025-03-22T20:57:57Z" changeset="163964101" uid="44217" user="kjon">
    <nd ref="27358787"/>
    <nd ref="1397024471"/>
    <nd ref="3498157175"/>
    <nd ref="11182873037"/>
    <tag k="bus:lanes:forward" v="designated|no"/>
    <tag k="class:bicycle" v="1"/>
    <tag k="cycleway:left" v="lane"/>
    <tag k="cycleway:left:lane" v="exclusive"/>
    <tag k="cycleway:right" v="separate"/>
    <tag k="highway" v="secondary"/>
    <tag k="lanes" v="4"/>
    <tag k="lanes:backward" v="2"/>
    <tag k="lanes:forward" v="2"/>
    <tag k="lit" v="yes"/>
    <tag k="maxspeed" v="50"/>
    <tag k="name" v="Kapuzinerstraße"/>
    <tag k="parking:both" v="no"/>
    <tag k="parking:condition:both" v="no_stopping"/>
    <tag k="smoothness" v="excellent"/>
    <tag k="source:maxspeed" v="DE:urban"/>
    <tag k="surface" v="asphalt"/>
    <tag k="tmc" v="DE:27996/27997"/>
    <tag k="turn:lanes:backward" v="none|through;right"/>
    <tag k="vehicle:lanes:forward" v="no|yes"/>
  </way>
  <way id="1235224142" version="3" timestamp="2025-01-17T08:03:15Z" changeset="161444889" uid="22208132" user="Helena Polyakovka">
    <nd ref="2808768905"/>
    <nd ref="11466038619"/>
    <nd ref="2808768916"/>
    <nd ref="2808768917"/>
    <nd ref="2808768906"/>
    <nd ref="2808768905"/>
    <tag k="addr:city" v="München"/>
    <tag k="addr:housenumber" v="45"/>
    <tag k="addr:postcode" v="80337"/>
    <tag k="addr:street" v="Tumblingerstraße"/>
    <tag k="amenity" v="restaurant"/>
    <tag k="building" v="yes"/>
    <tag k="building:levels" v="1"/>
    <tag k="contact:instagram" v="https://www.instagram.com/zanzibarwrapsandsnacks/"/>
    <tag k="name" v="zanzibar wraps and snacks"/>
  </way>
  <way id="1304033228" version="2" timestamp="2025-05-12T07:44:36Z" changeset="166137633" uid="16061279" user="YellowSoul">
    <nd ref="10182293830"/>
    <nd ref="3368879708"/>
    <nd ref="12829779751"/>
    <tag k="bicycle" v="use_sidepath"/>
    <tag k="cycleway:both" v="separate"/>
    <tag k="highway" v="tertiary"/>
    <tag k="lanes" v="3"/>
    <tag k="lanes:backward" v="2"/>
    <tag k="lanes:forward" v="1"/>
    <tag k="lit" v="yes"/>
    <tag k="maxspeed" v="50"/>
    <tag k="name" v="Tumblingerstraße"/>
    <tag k="parking:left" v="street_side"/>
    <tag k="parking:left:orientation" v="parallel"/>
    <tag k="parking:right" v="no"/>
    <tag k="sidewalk" v="separate"/>
    <tag k="surface" v="asphalt"/>
  </way>
  <way id="1304033229" version="2" timestamp="2024-10-08T13:55:18Z" changeset="157628354" uid="13987295" user="Arthur B E">
    <nd ref="9180241472"/>
    <nd ref="11927614816"/>
    <nd ref="11927614817"/>
    <nd ref="3006838899"/>
    <nd ref="1132347167"/>
    <nd ref="11927614818"/>
    <nd ref="8165160017"/>
    <nd ref="11927614821"/>
    <nd ref="1132347164"/>
    <nd ref="11927614820"/>
    <nd ref="11927614814"/>
    <nd ref="11927614819"/>
    <nd ref="1955301"/>
    <tag k="class:bicycle" v="-1"/>
    <tag k="cycleway:left" v="separate"/>
    <tag k="cycleway:right" v="no"/>
    <tag k="highway" v="tertiary"/>
    <tag k="lanes" v="2"/>
    <tag k="lit" v="yes"/>
    <tag k="maxspeed" v="30"/>
    <tag k="name" v="Tumblingerstraße"/>
    <tag k="parking:both" v="no"/>
    <tag k="sidewalk" v="separate"/>
    <tag k="smoothness" v="excellent"/>
    <tag k="source:maxspeed" v="sign"/>
    <tag k="surface" v="asphalt"/>
  </way>
  <way id="1311622809" version="1" timestamp="2024-08-27T21:12:42Z" changeset="155851731" uid="13496000" user="geo-d">
    <nd ref="12140863184"/>
    <nd ref="12140863183"/>
    <nd ref="12140863182"/>
    <nd ref="12140863181"/>
    <nd ref="12140863180"/>
    <nd ref="12140863179"/>
    <nd ref="12140863184"/>
    <tag k="addr:city" v="München"/>
    <tag k="addr:country" v="DE"/>
    <tag k="addr:housenumber" v="16a"/>
    <tag k="addr:postcode" v="80337"/>
    <tag k="addr:street" v="Schmellerstraße"/>
    <tag k="building" v="apartments"/>
    <tag k="building:levels" v="2"/>
    <tag k="roof:levels" v="1"/>
    <tag k="roof:shape" v="gambrel"/>
  </way>
  <way id="1311623189" version="2" timestamp="2025-05-16T19:56:06Z" changeset="166367423" uid="2554996" user="Nanoilite">
    <nd ref="12140857210"/>
    <nd ref="1306907396"/>
    <nd ref="12842874280"/>
    <nd ref="1306907467"/>
    <nd ref="1306907796"/>
    <nd ref="1306907465"/>
    <nd ref="12140857210"/>
    <tag k="addr:city" v="München"/>
    <tag k="addr:country" v="DE"/>
    <tag k="addr:housenumber" v="7a"/>
    <tag k="addr:postcode" v="80337"/>
    <tag k="addr:street" v="Schmellerstraße"/>
    <tag k="building" v="apartments"/>
    <tag k="building:levels" v="3"/>
    <tag k="roof:levels" v="1"/>
    <tag k="roof:shape" v="gambrel"/>
  </way>
  <way id="1385723060" version="1" timestamp="2025-05-12T07:44:36Z" changeset="166137633" uid="16061279" user="YellowSoul">
    <nd ref="12829779751"/>
    <nd ref="1132359889"/>
    <tag k="bicycle:backward" v="use_sidepath"/>
    <tag k="class:bicycle" v="-1"/>
    <tag k="cycleway:left" v="separate"/>
    <tag k="cycleway:right" v="lane"/>
    <tag k="cycleway:right:lane" v="exclusive"/>
    <tag k="highway" v="tertiary"/>
    <tag k="lanes" v="3"/>
    <tag k="lanes:backward" v="2"/>
    <tag k="lanes:forward" v="1"/>
    <tag k="lit" v="yes"/>
    <tag k="maxspeed" v="50"/>
    <tag k="name" v="Tumblingerstraße"/>
    <tag k="parking:left" v="street_side"/>
    <tag k="parking:left:orientation" v="parallel"/>
    <tag k="parking:right" v="no"/>
    <tag k="sidewalk" v="separate"/>
    <tag k="surface" v="asphalt"/>
  </way>
  <relation id="1404413" version="10" timestamp="2022-10-08T10:58:00Z" changeset="127194143" uid="8748" user="ToniE">
    <member type="way" ref="97598041" role="inner"/>
    <member type="way" ref="97598054" role="inner"/>
    <member type="way" ref="30648341" role="outer"/>
    <tag k="addr:city" v="München"/>
    <tag k="addr:country" v="DE"/>
    <tag k="addr:housenumber" v="26"/>
    <tag k="addr:postcode" v="80337"/>
    <tag k="addr:street" v="Kapuzinerstraße"/>
    <tag k="brand" v="Agentur für Arbeit"/>
    <tag k="brand:wikidata" v="Q1478016"/>
    <tag k="brand:wikipedia" v="de:Bundesagentur für Arbeit"/>
    <tag k="building" v="office"/>
    <tag k="name" v="Agentur für Arbeit"/>
    <tag k="office" v="employment_agency"/>
    <tag k="opening_hours" v="Mo-We, Fr 08:00-12:30; Th 08:00-12:30, 14:00-18:00"/>
    <tag k="operator" v="Bundesagentur für Arbeit"/>
    <tag k="phone" v="+498004555500"/>
    <tag k="type" v="multipolygon"/>
    <tag k="website" v="https://www.arbeitsagentur.de"/>
    <tag k="wheelchair" v="yes"/>
  </relation>
  <relation id="6257785" version="12" timestamp="2024-03-29T18:55:15Z" changeset="149326666" uid="11758604" user="map per">
    <member type="way" ref="373070858" role="outer"/>
    <member type="way" ref="40451871" role="inner"/>
    <member type="way" ref="40451872" role="inner"/>
    <member type="way" ref="421075328" role="inner"/>
    <tag k="addr:city" v="München"/>
    <tag k="addr:housenumber" v="19"/>
    <tag k="addr:postcode" v="80337"/>
    <tag k="addr:street" v="Ruppertstraße"/>
    <tag k="alt_name" v="Bürgerbüro Ruppertstraße"/>
    <tag k="building" v="public"/>
    <tag k="building:levels" v="5"/>
    <tag k="description" v="Bitte vereinbaren Sie online einen Termin: https://www.muenchen.de/rathaus/terminvereinbarung_bb.html"/>
    <tag k="government" v="administrative"/>
    <tag k="long_name" v="Kreisverwaltungsreferat Ruppertstraße"/>
    <tag k="name" v="KVR Ruppertstraße"/>
    <tag k="office" v="government"/>
    <tag k="official_name" v="Hauptabteilung II Bürgerangelegenheiten, Bürgerbüro Meldewesen, Kfz-, Gewerbe- und Fundangelegenheiten."/>
    <tag k="opening_hours" v="Mo,We,Fr 07:30-12:00; Tu 08:30-12:00,14:00-18:00; Th 08:30-15:00; PH off"/>
    <tag k="phone" v="+49 89 233 96000"/>
    <tag k="roof:levels" v="0"/>
    <tag k="type" v="multipolygon"/>
    <tag k="website" v="https://stadt.muenchen.de/rathaus/verwaltung/kreisverwaltungsreferat.html"/>
    <tag k="wheelchair" v="yes"/>
  </relation>

</osm>
