<?xml version="1.0" encoding="UTF-8"?>
<osm version="0.6" generator="Overpass API 0.7.62.5 1bd436f1">
<note>The data included in this document is from www.openstreetmap.org. The data is made available under ODbL.</note>
<meta osm_base="2025-05-18T03:31:15Z" areas="2024-12-31T00:49:33Z"/>

  <node id="267743" lat="48.1259000" lon="11.5024302" version="4" timestamp="2014-12-28T16:06:21Z" changeset="27756502" uid="2480006" user="Qantor"/>
  <node id="21583524" lat="48.1239765" lon="11.4792080" version="13" timestamp="2016-07-14T15:39:50Z" changeset="40742049" uid="29003" user="zarl"/>
  <node id="21583537" lat="48.1293385" lon="11.4787895" version="6" timestamp="2016-07-01T23:28:32Z" changeset="40430028" uid="354141" user="Anoniman"/>
  <node id="31119597" lat="48.1257415" lon="11.4933216" version="10" timestamp="2013-11-09T20:39:48Z" changeset="18805776" uid="8703" user="rolandg"/>
  <node id="31119602" lat="48.1286512" lon="11.4941641" version="9" timestamp="2025-04-01T17:16:20Z" changeset="164385545" uid="12466125" user="townlion"/>
  <node id="132194541" lat="48.1249415" lon="11.4899003" version="4" timestamp="2015-09-30T09:07:13Z" changeset="34342303" uid="2290263" user="soemisch"/>
  <node id="132194575" lat="48.1299398" lon="11.4895890" version="5" timestamp="2015-10-09T14:34:13Z" changeset="34531057" uid="2480006" user="Qantor"/>
  <node id="175651726" lat="48.1344731" lon="11.4877310" version="4" timestamp="2015-08-02T23:11:43Z" changeset="33057866" uid="354821" user="joi"/>
  <node id="175657260" lat="48.1294693" lon="11.4749755" version="6" timestamp="2012-06-24T13:12:00Z" changeset="12000022" uid="8703" user="rolandg"/>
  <node id="175657381" lat="48.1301730" lon="11.4782419" version="5" timestamp="2016-01-20T21:53:57Z" changeset="36710351" uid="78613" user="heilbron"/>
  <node id="403517257" lat="48.1295624" lon="11.4730424" version="3" timestamp="2012-06-24T13:12:02Z" changeset="12000022" uid="8703" user="rolandg"/>
  <node id="769862600" lat="48.1293721" lon="11.4789443" version="10" timestamp="2025-04-09T10:33:51Z" changeset="164717584" uid="22586576" user="veloler">
    <tag k="button_operated" v="no"/>
    <tag k="check_date:tactile_paving" v="2023-10-19"/>
    <tag k="crossing" v="traffic_signals"/>
    <tag k="crossing:island" v="no"/>
    <tag k="highway" v="crossing"/>
    <tag k="tactile_paving" v="no"/>
    <tag k="traffic_signals:sound" v="no"/>
    <tag k="traffic_signals:vibration" v="no"/>
  </node>
  <node id="1099409026" lat="48.1256955" lon="11.4983641" version="3" timestamp="2015-09-30T07:11:33Z" changeset="34340378" uid="2290263" user="soemisch"/>
  <node id="1099409109" lat="48.1259388" lon="11.4976880" version="2" timestamp="2015-09-30T07:11:33Z" changeset="34340378" uid="2290263" user="soemisch"/>
  <node id="1658997048" lat="48.1241973" lon="11.4939916" version="1" timestamp="2012-03-04T13:37:34Z" changeset="10868488" uid="13832" user="Peter14"/>
  <node id="1824603610" lat="48.1299127" lon="11.4898006" version="2" timestamp="2015-10-09T14:34:13Z" changeset="34531057" uid="2480006" user="Qantor"/>
  <node id="1824603611" lat="48.1300558" lon="11.4882593" version="1" timestamp="2012-07-13T18:22:38Z" changeset="12209623" uid="8748" user="ToniE"/>
  <node id="2524664034" lat="48.1286027" lon="11.4741730" version="2" timestamp="2016-01-20T21:53:58Z" changeset="36710351" uid="78613" user="heilbron"/>
  <node id="3875149591" lat="48.1236146" lon="11.4793524" version="1" timestamp="2015-12-03T20:51:21Z" changeset="35735410" uid="78613" user="heilbron"/>
  <node id="4277455515" lat="48.1264656" lon="11.4971414" version="5" timestamp="2023-08-27T21:16:12Z" changeset="140468559" uid="536583" user="Strubbl">
    <tag k="bicycle" v="yes"/>
    <tag k="crossing" v="marked"/>
    <tag k="crossing:markings" v="yes"/>
    <tag k="foot" v="yes"/>
    <tag k="highway" v="crossing"/>
    <tag k="tactile_paving" v="no"/>
  </node>
  <node id="4277455829" lat="48.1293707" lon="11.4786503" version="5" timestamp="2025-04-09T10:33:55Z" changeset="164717584" uid="22586576" user="veloler">
    <tag k="bicycle" v="yes"/>
    <tag k="button_operated" v="no"/>
    <tag k="crossing" v="traffic_signals"/>
    <tag k="highway" v="crossing"/>
    <tag k="tactile_paving" v="no"/>
    <tag k="traffic_signals:sound" v="no"/>
    <tag k="traffic_signals:vibration" v="no"/>
  </node>
  <node id="9020327296" lat="48.1240289" lon="11.4648968" version="1" timestamp="2021-08-19T15:09:32Z" changeset="109940223" uid="472814" user="paoso"/>
  <node id="11210609361" lat="48.1366152" lon="11.4850002" version="1" timestamp="2023-09-22T17:04:17Z" changeset="141614156" uid="1721478" user="Bratananio"/>
  <way id="4075144" version="18" timestamp="2024-08-07T17:15:50Z" changeset="154946521" uid="2409957" user="firefoxinspace">
    <nd ref="21583525"/>
    <nd ref="412383919"/>
    <nd ref="1979046303"/>
    <tag k="bicycle" v="use_sidepath"/>
    <tag k="foot" v="use_sidepath"/>
    <tag k="highway" v="tertiary"/>
    <tag k="lanes" v="2"/>
    <tag k="lit" v="yes"/>
    <tag k="maxspeed" v="50"/>
    <tag k="name" v="Silberdistelstraße"/>
    <tag k="oneway" v="yes"/>
    <tag k="sidewalk:left" v="no"/>
    <tag k="sidewalk:right" v="separate"/>
    <tag k="surface" v="asphalt"/>
  </way>
  <way id="8133968" version="24" timestamp="2025-04-01T07:33:46Z" changeset="164360947" uid="16061279" user="YellowSoul">
    <nd ref="1956073"/>
    <nd ref="4277455813"/>
    <nd ref="1979047590"/>
    <nd ref="2525829009"/>
    <nd ref="769834531"/>
    <nd ref="769834530"/>
    <nd ref="4118786866"/>
    <nd ref="769834542"/>
    <nd ref="4118786865"/>
    <nd ref="21583532"/>
    <nd ref="2886219859"/>
    <tag k="bicycle" v="yes"/>
    <tag k="cycleway:right" v="separate"/>
    <tag k="foot" v="use_sidepath"/>
    <tag k="highway" v="tertiary"/>
    <tag k="lane_markings" v="no"/>
    <tag k="lit" v="yes"/>
    <tag k="maxspeed" v="50"/>
    <tag k="name" v="Silberdistelstraße"/>
    <tag k="oneway" v="yes"/>
    <tag k="sidewalk:left" v="no"/>
    <tag k="sidewalk:right" v="separate"/>
    <tag k="surface" v="asphalt"/>
  </way>
  <way id="13963482" version="14" timestamp="2021-12-09T22:58:15Z" changeset="114757012" uid="120636" user="luja">
    <nd ref="564869"/>
    <nd ref="292348771"/>
    <nd ref="564870"/>
    <nd ref="267735"/>
    <tag k="destination:ref" v="A 96"/>
    <tag k="highway" v="motorway_link"/>
    <tag k="lanes" v="1"/>
    <tag k="maxheight" v="default"/>
    <tag k="maxspeed" v="50"/>
    <tag k="name" v="Ammerseestraße"/>
    <tag k="oneway" v="yes"/>
    <tag k="surface" v="asphalt"/>
  </way>
  <way id="13963483" version="27" timestamp="2025-04-10T08:16:41Z" changeset="164756596" uid="16061279" user="YellowSoul">
    <nd ref="1956091"/>
    <nd ref="12744136144"/>
    <nd ref="4277455896"/>
    <nd ref="4277455884"/>
    <nd ref="411713660"/>
    <nd ref="132298989"/>
    <nd ref="2523027730"/>
    <nd ref="411721393"/>
    <nd ref="175658529"/>
    <nd ref="2526479971"/>
    <nd ref="10117402709"/>
    <tag k="class:bicycle" v="1"/>
    <tag k="highway" v="residential"/>
    <tag k="lit" v="yes"/>
    <tag k="maxspeed" v="30"/>
    <tag k="name" v="Willibaldstraße"/>
    <tag k="sidewalk" v="both"/>
    <tag k="smoothness" v="good"/>
    <tag k="source:maxspeed" v="DE:zone:30"/>
    <tag k="surface" v="asphalt"/>
  </way>
  <way id="13970196" version="15" timestamp="2025-04-01T13:05:24Z" changeset="164374372" uid="12466125" user="townlion">
    <nd ref="132194560"/>
    <nd ref="1888127740"/>
    <nd ref="1800547353"/>
    <nd ref="175660720"/>
    <nd ref="2526408759"/>
    <nd ref="2526408727"/>
    <nd ref="132194549"/>
    <nd ref="2526408715"/>
    <nd ref="726914141"/>
    <nd ref="1800547371"/>
    <nd ref="3655318057"/>
    <nd ref="3655318058"/>
    <nd ref="3655318059"/>
    <nd ref="34506273"/>
    <tag k="class:bicycle" v="1"/>
    <tag k="highway" v="residential"/>
    <tag k="lit" v="yes"/>
    <tag k="maxspeed" v="30"/>
    <tag k="name" v="Langbehnstraße"/>
    <tag k="sidewalk" v="left"/>
    <tag k="smoothness" v="good"/>
    <tag k="source:maxspeed" v="DE:zone:30"/>
    <tag k="surface" v="asphalt"/>
  </way>
  <way id="13970198" version="23" timestamp="2025-05-13T07:08:19Z" changeset="166186416" uid="18493611" user="MunichWays">
    <nd ref="132299006"/>
    <nd ref="132299013"/>
    <nd ref="175658546"/>
    <nd ref="411721395"/>
    <nd ref="6886090539"/>
    <nd ref="411721394"/>
    <nd ref="132299125"/>
    <nd ref="175658571"/>
    <nd ref="8370625407"/>
    <nd ref="132299128"/>
    <nd ref="1717836017"/>
    <nd ref="6886090544"/>
    <nd ref="1717836075"/>
    <nd ref="6886090547"/>
    <nd ref="4277455868"/>
    <nd ref="4277455880"/>
    <nd ref="132299134"/>
    <tag k="class:bicycle" v="1"/>
    <tag k="highway" v="residential"/>
    <tag k="lit" v="yes"/>
    <tag k="maxspeed" v="30"/>
    <tag k="name" v="Kleinhaderner Straße"/>
    <tag k="sidewalk" v="both"/>
    <tag k="sidewalk:both:surface" v="paving_stones"/>
    <tag k="smoothness" v="intermediate"/>
    <tag k="source:maxspeed" v="DE:zone:30"/>
    <tag k="surface" v="asphalt"/>
  </way>
  <way id="13970199" version="12" timestamp="2022-01-31T21:14:31Z" changeset="116840435" uid="26299" user="uboot">
    <nd ref="21583533"/>
    <nd ref="21583534"/>
    <tag k="highway" v="residential"/>
    <tag k="lit" v="yes"/>
    <tag k="maxspeed" v="50"/>
    <tag k="name" v="Krokusstraße"/>
    <tag k="sidewalk" v="separate"/>
    <tag k="surface" v="asphalt"/>
  </way>
  <way id="16943298" version="16" timestamp="2025-03-02T21:28:25Z" changeset="163138852" uid="137242" user="Rainero">
    <nd ref="175651726"/>
    <nd ref="2618383965"/>
    <nd ref="177630759"/>
    <nd ref="175651705"/>
    <nd ref="3575305609"/>
    <nd ref="4277455918"/>
    <nd ref="175651729"/>
    <tag k="cycleway:both" v="no"/>
    <tag k="highway" v="residential"/>
    <tag k="lit" v="yes"/>
    <tag k="maxspeed" v="30"/>
    <tag k="name" v="Byecherstraße"/>
    <tag k="name:etymology" v="Mathias Byecher"/>
    <tag k="sidewalk:both" v="yes"/>
    <tag k="sidewalk:both:surface" v="asphalt"/>
    <tag k="source:maxspeed" v="DE:zone30"/>
    <tag k="surface" v="asphalt"/>
    <tag k="traffic_sign" v="DE:274.1[30]"/>
    <tag k="zone:maxspeed" v="DE:30"/>
  </way>
  <way id="16943692" version="19" timestamp="2023-11-01T12:53:23Z" changeset="143466852" uid="6285042" user="Biclmont">
    <nd ref="175655731"/>
    <nd ref="2524689203"/>
    <nd ref="2524689302"/>
    <nd ref="2524689535"/>
    <nd ref="175655732"/>
    <nd ref="3758514432"/>
    <nd ref="3758514431"/>
    <nd ref="3758514429"/>
    <nd ref="3758514428"/>
    <nd ref="3758514427"/>
    <nd ref="2481793342"/>
    <nd ref="3758514425"/>
    <nd ref="2145150585"/>
    <nd ref="2775375508"/>
    <nd ref="9464234496"/>
    <tag k="highway" v="residential"/>
    <tag k="lit" v="yes"/>
    <tag k="maxspeed" v="30"/>
    <tag k="name" v="Terofalstraße"/>
    <tag k="parking:lane:left" v="diagonal"/>
    <tag k="parking:lane:right" v="parallel"/>
    <tag k="sidewalk:both" v="separate"/>
    <tag k="surface" v="asphalt"/>
  </way>
  <way id="16943703" version="21" timestamp="2023-11-12T12:44:37Z" changeset="143931930" uid="18493611" user="MunichWays">
    <nd ref="1364767294"/>
    <nd ref="4277455548"/>
    <nd ref="5241941682"/>
    <nd ref="2775375411"/>
    <nd ref="1710698155"/>
    <nd ref="2524664053"/>
    <nd ref="1364767292"/>
    <nd ref="2524664063"/>
    <nd ref="1710698203"/>
    <nd ref="2524664091"/>
    <nd ref="7699395303"/>
    <nd ref="1710698221"/>
    <nd ref="1364767290"/>
    <nd ref="5241941412"/>
    <nd ref="5241941416"/>
    <nd ref="1710698151"/>
    <nd ref="1710698124"/>
    <nd ref="1710698111"/>
    <nd ref="2775375420"/>
    <nd ref="175655773"/>
    <nd ref="1364767281"/>
    <nd ref="1364767279"/>
    <nd ref="1364767276"/>
    <tag k="class:bicycle" v="1"/>
    <tag k="cycleway:both" v="no"/>
    <tag k="highway" v="residential"/>
    <tag k="lit" v="yes"/>
    <tag k="maxspeed" v="30"/>
    <tag k="name" v="Wastl-Witt-Straße"/>
    <tag k="parking:left" v="lane"/>
    <tag k="parking:left:orientation" v="diagonal"/>
    <tag k="sidewalk:left" v="separate"/>
    <tag k="sidewalk:right" v="yes"/>
    <tag k="smoothness" v="good"/>
    <tag k="surface" v="asphalt"/>
  </way>
  <way id="16943735" version="26" timestamp="2023-11-01T12:51:37Z" changeset="143466852" uid="6285042" user="Biclmont">
    <nd ref="2481793347"/>
    <nd ref="2145150628"/>
    <nd ref="2145150616"/>
    <nd ref="5241941693"/>
    <nd ref="2145150607"/>
    <nd ref="3957358316"/>
    <nd ref="2524689517"/>
    <nd ref="175656713"/>
    <nd ref="2145150587"/>
    <nd ref="2145150582"/>
    <tag k="class:bicycle" v="-1"/>
    <tag k="cycleway:bicycle" v="yes"/>
    <tag k="cycleway:both" v="lane"/>
    <tag k="cycleway:both:lane" v="advisory"/>
    <tag k="highway" v="tertiary"/>
    <tag k="maxspeed" v="50"/>
    <tag k="name" v="Terofalstraße"/>
    <tag k="sidewalk:both" v="separate"/>
    <tag k="surface" v="asphalt"/>
  </way>
  <way id="16943789" version="20" timestamp="2023-11-01T12:52:40Z" changeset="143466852" uid="6285042" user="Biclmont">
    <nd ref="26781742"/>
    <nd ref="1364767274"/>
    <nd ref="1308854659"/>
    <nd ref="5241941945"/>
    <nd ref="175657092"/>
    <nd ref="2886219865"/>
    <nd ref="2525829001"/>
    <nd ref="1800547531"/>
    <nd ref="175656708"/>
    <nd ref="1800547339"/>
    <nd ref="175656712"/>
    <nd ref="2145150773"/>
    <nd ref="2145150762"/>
    <nd ref="1709161607"/>
    <nd ref="2145150738"/>
    <nd ref="3957358325"/>
    <nd ref="1709161533"/>
    <nd ref="1364767233"/>
    <nd ref="175656713"/>
    <tag k="cycleway:both" v="no"/>
    <tag k="highway" v="residential"/>
    <tag k="lit" v="yes"/>
    <tag k="maxspeed" v="30"/>
    <tag k="name" v="Rolf-Pinegger-Straße"/>
    <tag k="parking:both" v="lane"/>
    <tag k="parking:both:orientation" v="parallel"/>
    <tag k="sidewalk:left" v="yes"/>
    <tag k="sidewalk:right" v="separate"/>
    <tag k="surface" v="asphalt"/>
  </way>
  <way id="16943818" version="18" timestamp="2023-10-22T09:10:53Z" changeset="142958520" uid="16960231" user="DLystopadov">
    <nd ref="175657092"/>
    <nd ref="1800547490"/>
    <nd ref="5241941946"/>
    <nd ref="1308854671"/>
    <nd ref="1308854661"/>
    <nd ref="4277455568"/>
    <nd ref="175657186"/>
    <tag k="cycleway:both" v="no"/>
    <tag k="highway" v="residential"/>
    <tag k="lit" v="yes"/>
    <tag k="maxspeed" v="30"/>
    <tag k="name" v="Brunellenweg"/>
    <tag k="parking:left" v="lane"/>
    <tag k="parking:left:orientation" v="parallel"/>
    <tag k="parking:right" v="no"/>
    <tag k="sidewalk" v="both"/>
    <tag k="surface" v="asphalt"/>
    <tag k="width" v="5.3"/>
  </way>
  <way id="16943855" version="10" timestamp="2023-10-22T09:10:18Z" changeset="142958062" uid="16960231" user="DLystopadov">
    <nd ref="175657260"/>
    <nd ref="1800547529"/>
    <nd ref="2525804158"/>
    <nd ref="175657381"/>
    <tag k="cycleway:both" v="no"/>
    <tag k="highway" v="residential"/>
    <tag k="lit" v="yes"/>
    <tag k="maxspeed" v="30"/>
    <tag k="name" v="Eisenhutstraße"/>
    <tag k="surface" v="asphalt"/>
  </way>
  <way id="16943946" version="8" timestamp="2018-06-22T15:45:01Z" changeset="60079158" uid="67039" user="Latebird">
    <nd ref="175658506"/>
    <nd ref="2085538595"/>
    <nd ref="175658457"/>
    <tag k="highway" v="residential"/>
    <tag k="lit" v="yes"/>
    <tag k="maxspeed" v="30"/>
    <tag k="name" v="Efeustraße"/>
    <tag k="surface" v="asphalt"/>
  </way>
  <way id="16943950" version="12" timestamp="2019-10-20T18:11:52Z" changeset="75961309" uid="137242" user="Rainero">
    <nd ref="175658525"/>
    <nd ref="3570275218"/>
    <nd ref="1800547438"/>
    <nd ref="309690790"/>
    <nd ref="175658458"/>
    <nd ref="175658529"/>
    <nd ref="3570275211"/>
    <nd ref="175658530"/>
    <nd ref="1800547470"/>
    <nd ref="132299006"/>
    <tag k="highway" v="residential"/>
    <tag k="lit" v="yes"/>
    <tag k="maxspeed" v="30"/>
    <tag k="name" v="Georginenstraße"/>
    <tag k="source:maxspeed" v="DE:zone:30"/>
    <tag k="surface" v="asphalt"/>
  </way>
  <way id="16943951" version="12" timestamp="2022-10-20T21:02:13Z" changeset="127855561" uid="12120321" user="bollyboll">
    <nd ref="175658538"/>
    <nd ref="3570275212"/>
    <nd ref="175658539"/>
    <nd ref="175658540"/>
    <nd ref="175658530"/>
    <tag k="highway" v="residential"/>
    <tag k="lit" v="yes"/>
    <tag k="maxspeed" v="30"/>
    <tag k="name" v="Enzianstraße"/>
    <tag k="parking:lane:both" v="parallel"/>
    <tag k="parking:lane:both:parallel" v="on_street"/>
    <tag k="sidewalk" v="both"/>
    <tag k="sidewalk:both:surface" v="asphalt"/>
    <tag k="smoothness" v="good"/>
    <tag k="source:maxspeed" v="DE:zone:30"/>
    <tag k="surface" v="asphalt"/>
  </way>
  <way id="16943953" version="8" timestamp="2019-10-20T18:11:52Z" changeset="75961309" uid="137242" user="Rainero">
    <nd ref="175658540"/>
    <nd ref="1800547370"/>
    <nd ref="2527763364"/>
    <nd ref="1800547400"/>
    <nd ref="175658546"/>
    <tag k="highway" v="residential"/>
    <tag k="lit" v="yes"/>
    <tag k="maxspeed" v="30"/>
    <tag k="name" v="Asternstraße"/>
    <tag k="source:maxspeed" v="DE:zone:30"/>
  </way>
  <way id="16943957" version="13" timestamp="2022-10-20T21:02:09Z" changeset="127855561" uid="12120321" user="bollyboll">
    <nd ref="175658539"/>
    <nd ref="1800547472"/>
    <nd ref="2527762299"/>
    <nd ref="175658558"/>
    <nd ref="2527762284"/>
    <nd ref="1800547406"/>
    <nd ref="175658559"/>
    <nd ref="2527762295"/>
    <nd ref="132299125"/>
    <tag k="highway" v="residential"/>
    <tag k="lit" v="yes"/>
    <tag k="maxspeed" v="30"/>
    <tag k="name" v="Steinbrechweg"/>
    <tag k="parking:lane:both" v="parallel"/>
    <tag k="parking:lane:both:parallel" v="on_street"/>
    <tag k="sidewalk" v="both"/>
    <tag k="sidewalk:both:surface" v="asphalt"/>
    <tag k="smoothness" v="good"/>
    <tag k="source:maxspeed" v="DE:zone:30"/>
    <tag k="surface" v="asphalt"/>
  </way>
  <way id="16943995" version="13" timestamp="2021-05-02T15:04:16Z" changeset="103999290" uid="4263942" user="topatlant">
    <nd ref="175658571"/>
    <nd ref="1800547442"/>
    <nd ref="175658785"/>
    <nd ref="2507645287"/>
    <nd ref="2507645292"/>
    <nd ref="175658786"/>
    <nd ref="2507645222"/>
    <nd ref="3729915995"/>
    <nd ref="2507645281"/>
    <nd ref="175658787"/>
    <nd ref="2507645265"/>
    <nd ref="3898199968"/>
    <nd ref="2525712747"/>
    <nd ref="175658788"/>
    <nd ref="1831311036"/>
    <nd ref="1831311032"/>
    <nd ref="1831311022"/>
    <nd ref="2525713149"/>
    <nd ref="175658789"/>
    <tag k="highway" v="residential"/>
    <tag k="lit" v="yes"/>
    <tag k="maxspeed" v="30"/>
    <tag k="name" v="Konrad-Dreher-Straße"/>
    <tag k="sidewalk" v="both"/>
    <tag k="surface" v="asphalt"/>
  </way>
  <way id="16944023" version="11" timestamp="2018-06-22T15:48:15Z" changeset="60079158" uid="67039" user="Latebird">
    <nd ref="175658455"/>
    <nd ref="1800547355"/>
    <nd ref="1800547405"/>
    <nd ref="175658938"/>
    <tag k="highway" v="residential"/>
    <tag k="lit" v="yes"/>
    <tag k="maxspeed" v="30"/>
    <tag k="name" v="Primelstraße"/>
    <tag k="surface" v="asphalt"/>
  </way>
  <way id="16944038" version="11" timestamp="2023-03-16T19:05:27Z" changeset="133761961" uid="12120321" user="bollyboll">
    <nd ref="132299013"/>
    <nd ref="175659084"/>
    <nd ref="2526433204"/>
    <nd ref="175659086"/>
    <nd ref="175659314"/>
    <nd ref="175659088"/>
    <tag k="highway" v="residential"/>
    <tag k="lit" v="yes"/>
    <tag k="maxspeed" v="30"/>
    <tag k="name" v="Klematisstraße"/>
    <tag k="sidewalk" v="both"/>
    <tag k="sidewalk:both:surface" v="asphalt"/>
    <tag k="source:maxspeed" v="DE:zone:30"/>
    <tag k="surface" v="asphalt"/>
  </way>
  <way id="16944060" version="10" timestamp="2022-11-17T21:40:07Z" changeset="129060914" uid="12120321" user="bollyboll">
    <nd ref="10198279967"/>
    <nd ref="175659313"/>
    <nd ref="2526433124"/>
    <nd ref="175659314"/>
    <tag k="highway" v="residential"/>
    <tag k="lit" v="yes"/>
    <tag k="maxspeed" v="30"/>
    <tag k="name" v="Ehrenpreisstraße"/>
    <tag k="sidewalk" v="both"/>
    <tag k="sidewalk:both:surface" v="asphalt"/>
    <tag k="surface" v="asphalt"/>
  </way>
  <way id="16944080" version="10" timestamp="2023-04-20T18:11:24Z" changeset="135162098" uid="12120321" user="bollyboll">
    <nd ref="175659086"/>
    <nd ref="2526433198"/>
    <nd ref="175659554"/>
    <tag k="highway" v="residential"/>
    <tag k="lit" v="yes"/>
    <tag k="maxspeed" v="30"/>
    <tag k="name" v="Violenstraße"/>
    <tag k="parking:left" v="no"/>
    <tag k="parking:right" v="lane"/>
    <tag k="parking:right:orientation" v="parallel"/>
    <tag k="sidewalk" v="both"/>
    <tag k="sidewalk:both:surface" v="asphalt"/>
    <tag k="surface" v="asphalt"/>
  </way>
  <way id="16944101" version="14" timestamp="2023-06-15T18:00:15Z" changeset="137383731" uid="12120321" user="bollyboll">
    <nd ref="132299150"/>
    <nd ref="2526421653"/>
    <nd ref="411721396"/>
    <nd ref="1800547525"/>
    <nd ref="10979329066"/>
    <tag k="highway" v="residential"/>
    <tag k="lit" v="yes"/>
    <tag k="maxspeed" v="30"/>
    <tag k="name" v="Amarellenweg"/>
    <tag k="sidewalk" v="both"/>
    <tag k="sidewalk:both:surface" v="asphalt"/>
    <tag k="smoothness" v="good"/>
    <tag k="surface" v="asphalt"/>
  </way>
  <way id="16944125" version="8" timestamp="2022-11-17T21:39:55Z" changeset="129060914" uid="12120321" user="bollyboll">
    <nd ref="175659084"/>
    <nd ref="175660192"/>
    <tag k="highway" v="residential"/>
    <tag k="lit" v="yes"/>
    <tag k="maxspeed" v="30"/>
    <tag k="name" v="Myrtenstraße"/>
    <tag k="sidewalk" v="both"/>
    <tag k="sidewalk:both:surface" v="asphalt"/>
    <tag k="surface" v="asphalt"/>
  </way>
  <way id="16944140" version="13" timestamp="2023-11-23T21:15:40Z" changeset="144383836" uid="12120321" user="bollyboll">
    <nd ref="175660303"/>
    <nd ref="1800547340"/>
    <nd ref="175660462"/>
    <nd ref="2526416782"/>
    <nd ref="10198286416"/>
    <tag k="highway" v="residential"/>
    <tag k="lit" v="yes"/>
    <tag k="maxspeed" v="30"/>
    <tag k="name" v="Gladiolenstraße"/>
    <tag k="sidewalk" v="both"/>
    <tag k="sidewalk:both:surface" v="asphalt"/>
    <tag k="smoothness" v="good"/>
    <tag k="surface" v="asphalt"/>
  </way>
  <way id="16944161" version="12" timestamp="2023-11-23T21:15:42Z" changeset="144383836" uid="12120321" user="bollyboll">
    <nd ref="132299143"/>
    <nd ref="175660463"/>
    <nd ref="10198275431"/>
    <tag k="highway" v="residential"/>
    <tag k="lit" v="yes"/>
    <tag k="maxspeed" v="30"/>
    <tag k="name" v="Narzissenstraße"/>
    <tag k="sidewalk" v="both"/>
    <tag k="sidewalk:both:surface" v="asphalt"/>
    <tag k="smoothness" v="good"/>
    <tag k="surface" v="asphalt"/>
  </way>
  <way id="17246625" version="13" timestamp="2021-03-28T12:10:13Z" changeset="101870608" uid="12419129" user="Suny Kim">
    <nd ref="132299128"/>
    <nd ref="1800547481"/>
    <nd ref="1717835977"/>
    <nd ref="175658476"/>
    <nd ref="175658475"/>
    <nd ref="1717836022"/>
    <nd ref="1717836019"/>
    <nd ref="2441696281"/>
    <nd ref="175658538"/>
    <nd ref="2362116370"/>
    <nd ref="132298989"/>
    <nd ref="175658456"/>
    <nd ref="2886219867"/>
    <nd ref="175658471"/>
    <nd ref="2886219866"/>
    <nd ref="175658506"/>
    <nd ref="175658525"/>
    <nd ref="1800547331"/>
    <nd ref="2525858720"/>
    <nd ref="175658551"/>
    <tag k="highway" v="residential"/>
    <tag k="lit" v="yes"/>
    <tag k="maxspeed" v="30"/>
    <tag k="name" v="Veilchenstraße"/>
    <tag k="name:etymology:wikidata" v="Q146095"/>
    <tag k="surface" v="asphalt"/>
  </way>
  <way id="17247445" version="14" timestamp="2023-11-12T12:44:37Z" changeset="143931930" uid="18493611" user="MunichWays">
    <nd ref="175659088"/>
    <nd ref="2487181068"/>
    <nd ref="2525712440"/>
    <nd ref="4521009043"/>
    <nd ref="2496823161"/>
    <nd ref="2525712397"/>
    <nd ref="2496823162"/>
    <nd ref="2525712539"/>
    <nd ref="2525669993"/>
    <nd ref="2525712408"/>
    <nd ref="2525669830"/>
    <nd ref="2525712662"/>
    <nd ref="2525713049"/>
    <nd ref="178788521"/>
    <tag k="class:bicycle" v="1"/>
    <tag k="highway" v="residential"/>
    <tag k="lit" v="yes"/>
    <tag k="maxspeed" v="30"/>
    <tag k="name" v="Rudi-Seibold-Straße"/>
    <tag k="parking:lane:left" v="parallel"/>
    <tag k="parking:lane:left:parallel" v="on_street"/>
    <tag k="parking:lane:right" v="no"/>
    <tag k="sidewalk" v="both"/>
    <tag k="sidewalk:both:surface" v="paving_stones"/>
    <tag k="smoothness" v="good"/>
    <tag k="surface" v="asphalt"/>
  </way>
  <way id="17250653" version="9" timestamp="2024-03-31T07:53:21Z" changeset="149378688" uid="13987295" user="Arthur B E">
    <nd ref="178813330"/>
    <nd ref="1364767298"/>
    <nd ref="4275943241"/>
    <nd ref="4275943240"/>
    <nd ref="1800547320"/>
    <nd ref="1364767296"/>
    <nd ref="178813407"/>
    <nd ref="175655774"/>
    <tag k="highway" v="residential"/>
    <tag k="maxspeed" v="30"/>
    <tag k="name" v="Flemischweg"/>
    <tag k="surface" v="asphalt"/>
  </way>
  <way id="24886531" version="6" timestamp="2022-11-17T22:27:16Z" changeset="129060913" uid="12120321" user="bollyboll">
    <nd ref="270412655"/>
    <nd ref="270412668"/>
    <tag k="highway" v="residential"/>
    <tag k="maxspeed" v="30"/>
    <tag k="name" v="Roßmannstraße"/>
    <tag k="sidewalk" v="both"/>
    <tag k="surface" v="asphalt"/>
  </way>
  <way id="25491719" version="40" timestamp="2023-05-29T06:08:11Z" changeset="136680735" uid="11758604" user="map per">
    <nd ref="267743"/>
    <nd ref="1099409065"/>
    <nd ref="1099409082"/>
    <nd ref="267733"/>
    <nd ref="292348979"/>
    <nd ref="292348860"/>
    <nd ref="267734"/>
    <nd ref="292348861"/>
    <nd ref="267735"/>
    <tag k="bdouble" v="yes"/>
    <tag k="highway" v="motorway"/>
    <tag k="int_ref" v="E 54"/>
    <tag k="lanes" v="3"/>
    <tag k="lit" v="no"/>
    <tag k="maxheight" v="default"/>
    <tag k="maxspeed" v="60"/>
    <tag k="note:name" v="Der reg_name, sowie ggf. der loc_name sind dem zugehörigen Wikipediaartikel entnommen."/>
    <tag k="oneway" v="yes"/>
    <tag k="ref" v="A 96"/>
    <tag k="reg_name" v="Ammerseeautobahn"/>
    <tag k="start_date" v="1972"/>
    <tag k="surface" v="asphalt"/>
    <tag k="tmc" v="DE:12961"/>
  </way>
  <way id="26436407" version="11" timestamp="2019-10-20T18:11:52Z" changeset="75961309" uid="137242" user="Rainero">
    <nd ref="309690790"/>
    <nd ref="2525858699"/>
    <nd ref="309690788"/>
    <tag k="highway" v="residential"/>
    <tag k="lit" v="yes"/>
    <tag k="maxspeed" v="30"/>
    <tag k="name" v="Türkenbundweg"/>
    <tag k="source:maxspeed" v="DE:zone:30"/>
    <tag k="surface" v="asphalt"/>
  </way>
  <way id="30909843" version="18" timestamp="2024-08-07T17:15:50Z" changeset="154946521" uid="2409957" user="firefoxinspace">
    <nd ref="412383920"/>
    <nd ref="3506793464"/>
    <nd ref="21583524"/>
    <tag k="bicycle" v="use_sidepath"/>
    <tag k="highway" v="tertiary"/>
    <tag k="lanes" v="3"/>
    <tag k="lit" v="yes"/>
    <tag k="maxspeed" v="50"/>
    <tag k="name" v="Silberdistelstraße"/>
    <tag k="oneway" v="yes"/>
    <tag k="sidewalk:left" v="no"/>
    <tag k="sidewalk:right" v="separate"/>
    <tag k="smoothness" v="excellent"/>
    <tag k="surface" v="asphalt"/>
    <tag k="turn:lanes" v="|through|through"/>
  </way>
  <way id="30909844" version="13" timestamp="2024-08-07T17:15:50Z" changeset="154946521" uid="2409957" user="firefoxinspace">
    <nd ref="21583534"/>
    <nd ref="2886219857"/>
    <nd ref="1979046308"/>
    <nd ref="769834540"/>
    <nd ref="21583535"/>
    <nd ref="769834528"/>
    <nd ref="769834544"/>
    <nd ref="1979047591"/>
    <tag k="bicycle" v="use_sidepath"/>
    <tag k="foot" v="use_sidepath"/>
    <tag k="highway" v="tertiary"/>
    <tag k="maxspeed" v="50"/>
    <tag k="name" v="Silberdistelstraße"/>
    <tag k="oneway" v="yes"/>
    <tag k="sidewalk:left" v="no"/>
    <tag k="sidewalk:right" v="separate"/>
    <tag k="surface" v="asphalt"/>
  </way>
  <way id="30909845" version="16" timestamp="2023-04-16T10:15:40Z" changeset="134968565" uid="18493611" user="MunichWays">
    <nd ref="21583534"/>
    <nd ref="769862573"/>
    <nd ref="2886219854"/>
    <nd ref="5241941380"/>
    <nd ref="175658551"/>
    <nd ref="2691593720"/>
    <nd ref="2145150674"/>
    <nd ref="2145150676"/>
    <nd ref="2145150677"/>
    <nd ref="309690788"/>
    <nd ref="2145150698"/>
    <nd ref="2145150700"/>
    <nd ref="2145150701"/>
    <nd ref="175658461"/>
    <nd ref="3758514439"/>
    <nd ref="132298977"/>
    <tag k="class:bicycle" v="-1"/>
    <tag k="cycleway:both" v="no"/>
    <tag k="highway" v="residential"/>
    <tag k="lit" v="yes"/>
    <tag k="maxspeed" v="50"/>
    <tag k="name" v="Krokusstraße"/>
    <tag k="parking:lane:both" v="separate"/>
    <tag k="sidewalk" v="both"/>
    <tag k="surface" v="asphalt"/>
  </way>
  <way id="34554615" version="17" timestamp="2025-03-14T13:15:44Z" changeset="163609822" uid="16061279" user="YellowSoul">
    <nd ref="11210609361"/>
    <nd ref="4279271354"/>
    <nd ref="26782586"/>
    <nd ref="4279271351"/>
    <nd ref="1108018872"/>
    <nd ref="4279271347"/>
    <nd ref="175651489"/>
    <nd ref="4279271344"/>
    <nd ref="26823660"/>
    <nd ref="4279271343"/>
    <nd ref="4279271340"/>
    <nd ref="175651686"/>
    <nd ref="4279271336"/>
    <nd ref="2319858919"/>
    <nd ref="26823661"/>
    <nd ref="4279271332"/>
    <nd ref="2971694088"/>
    <nd ref="4279271329"/>
    <nd ref="175650139"/>
    <nd ref="4279271326"/>
    <nd ref="26823662"/>
    <nd ref="4279271322"/>
    <nd ref="2325955678"/>
    <nd ref="4279271321"/>
    <nd ref="175650142"/>
    <nd ref="4279271319"/>
    <nd ref="2325955560"/>
    <nd ref="4277455937"/>
    <nd ref="4277455921"/>
    <nd ref="1956091"/>
    <tag k="class:bicycle" v="1"/>
    <tag k="cycleway:both" v="separate"/>
    <tag k="highway" v="tertiary"/>
    <tag k="lane_markings" v="no"/>
    <tag k="maxspeed" v="50"/>
    <tag k="maxspeed:type" v="DE:urban"/>
    <tag k="name" v="Willibaldstraße"/>
    <tag k="name:etymology" v="Willibald von Eichstätt"/>
    <tag k="name:etymology:wikidata" v="Q705878"/>
    <tag k="smoothness" v="good"/>
    <tag k="surface" v="asphalt"/>
  </way>
  <way id="34679557" version="8" timestamp="2024-02-05T09:39:49Z" changeset="147085707" uid="563478" user="tuttiton">
    <nd ref="403517257"/>
    <nd ref="1364767299"/>
    <nd ref="403517259"/>
    <tag k="cycleway:both" v="no"/>
    <tag k="highway" v="residential"/>
    <tag k="lane_markings" v="no"/>
    <tag k="lit" v="yes"/>
    <tag k="maxspeed" v="50"/>
    <tag k="name" v="Lobelienweg"/>
    <tag k="surface" v="asphalt"/>
  </way>
  <way id="35094666" version="18" timestamp="2025-03-14T13:18:13Z" changeset="163609925" uid="16061279" user="YellowSoul">
    <nd ref="132194575"/>
    <nd ref="175651754"/>
    <nd ref="4277455888"/>
    <nd ref="2775375440"/>
    <nd ref="132299134"/>
    <tag k="class:bicycle" v="-1"/>
    <tag k="cycleway:both" v="separate"/>
    <tag k="highway" v="tertiary"/>
    <tag k="lit" v="yes"/>
    <tag k="maxspeed" v="50"/>
    <tag k="name" v="Hönigschmidplatz"/>
    <tag k="name:etymology:wikidata" v="Q78059"/>
    <tag k="sidewalk" v="separate"/>
    <tag k="smoothness" v="good"/>
    <tag k="source:maxspeed" v="DE:urban"/>
    <tag k="surface" v="asphalt"/>
  </way>
  <way id="35094667" version="21" timestamp="2025-04-09T10:33:37Z" changeset="164717571" uid="22586576" user="veloler">
    <nd ref="132299134"/>
    <nd ref="1824603611"/>
    <tag k="cycleway:both" v="separate"/>
    <tag k="highway" v="tertiary"/>
    <tag k="lane_markings" v="no"/>
    <tag k="maxspeed" v="50"/>
    <tag k="name" v="Senftenauerstraße"/>
    <tag k="sidewalk" v="separate"/>
    <tag k="surface" v="asphalt"/>
  </way>
  <way id="35094811" version="7" timestamp="2022-10-20T21:02:19Z" changeset="127855561" uid="12120321" user="bollyboll">
    <nd ref="411713660"/>
    <nd ref="2362116397"/>
    <nd ref="411713661"/>
    <tag k="highway" v="residential"/>
    <tag k="maxspeed" v="30"/>
    <tag k="name" v="Ellen-Ammann-Weg"/>
    <tag k="sidewalk" v="both"/>
    <tag k="sidewalk:both:surface" v="asphalt"/>
    <tag k="smoothness" v="good"/>
    <tag k="surface" v="asphalt"/>
  </way>
  <way id="35095323" version="19" timestamp="2023-11-12T12:44:37Z" changeset="143931930" uid="18493611" user="MunichWays">
    <nd ref="132194541"/>
    <nd ref="132299155"/>
    <nd ref="2487180963"/>
    <nd ref="270412655"/>
    <nd ref="5204573105"/>
    <nd ref="175659088"/>
    <nd ref="2525712415"/>
    <nd ref="2525712847"/>
    <nd ref="2525712609"/>
    <nd ref="3898199843"/>
    <nd ref="175658786"/>
    <nd ref="2527094429"/>
    <nd ref="411721398"/>
    <nd ref="4277455856"/>
    <nd ref="4277455863"/>
    <nd ref="132194575"/>
    <tag k="class:bicycle" v="1"/>
    <tag k="highway" v="residential"/>
    <tag k="lit" v="yes"/>
    <tag k="maxspeed" v="30"/>
    <tag k="name" v="Alpenveilchenstraße"/>
    <tag k="name:etymology:wikidata" v="Q60808"/>
    <tag k="sidewalk" v="both"/>
    <tag k="smoothness" v="excellent"/>
    <tag k="source:maxspeed" v="DE:zone:30"/>
    <tag k="surface" v="asphalt"/>
  </way>
  <way id="35095330" version="9" timestamp="2023-04-20T18:07:47Z" changeset="135162098" uid="12120321" user="bollyboll">
    <nd ref="411718880"/>
    <nd ref="10827693963"/>
    <tag k="highway" v="residential"/>
    <tag k="lit" v="yes"/>
    <tag k="maxspeed" v="30"/>
    <tag k="name" v="Heinrich-Lammel-Straße"/>
    <tag k="parking:left" v="lane"/>
    <tag k="parking:left:orientation" v="parallel"/>
    <tag k="parking:right" v="no"/>
    <tag k="sidewalk" v="both"/>
    <tag k="sidewalk:both:surface" v="paving_stones"/>
    <tag k="smoothness" v="excellent"/>
    <tag k="source:maxspeed" v="DE:zone:30"/>
    <tag k="surface" v="asphalt"/>
  </way>
  <way id="35158380" version="9" timestamp="2021-07-30T07:07:41Z" changeset="108867032" uid="13844262" user="Illundra">
    <nd ref="175658459"/>
    <nd ref="2886219861"/>
    <nd ref="175658460"/>
    <nd ref="3758514442"/>
    <nd ref="175658461"/>
    <tag k="highway" v="residential"/>
    <tag k="lit" v="yes"/>
    <tag k="maxspeed" v="30"/>
    <tag k="name" v="Levkojenplatz"/>
    <tag k="sidewalk" v="right"/>
    <tag k="source:maxspeed" v="DE:zone:30"/>
    <tag k="surface" v="asphalt"/>
  </way>
  <way id="35158448" version="8" timestamp="2023-07-11T10:58:16Z" changeset="138374946" uid="158949" user="Lopus">
    <nd ref="412383917"/>
    <nd ref="476359272"/>
    <nd ref="412383918"/>
    <nd ref="788500079"/>
    <nd ref="412383919"/>
    <tag k="highway" v="motorway_link"/>
    <tag k="lanes" v="1"/>
    <tag k="maxspeed" v="50"/>
    <tag k="oneway" v="yes"/>
    <tag k="surface" v="asphalt"/>
  </way>
  <way id="35158449" version="9" timestamp="2025-04-20T08:38:20Z" changeset="165182367" uid="13987295" user="Arthur B E">
    <nd ref="412383920"/>
    <nd ref="788500074"/>
    <nd ref="412383921"/>
    <nd ref="1719214562"/>
    <nd ref="412383922"/>
    <tag k="destination:ref" v="A 96"/>
    <tag k="highway" v="motorway_link"/>
    <tag k="lanes" v="1"/>
    <tag k="lit" v="yes"/>
    <tag k="maxspeed" v="50"/>
    <tag k="oneway" v="yes"/>
    <tag k="surface" v="asphalt"/>
  </way>
  <way id="38077389" version="17" timestamp="2024-10-01T19:36:41Z" changeset="157354335" uid="21086032" user="zeitautomatik">
    <nd ref="31119597"/>
    <nd ref="11680983529"/>
    <nd ref="2487235562"/>
    <nd ref="2525713022"/>
    <nd ref="411718741"/>
    <nd ref="12214844798"/>
    <nd ref="2525670042"/>
    <nd ref="2487180937"/>
    <nd ref="2487180987"/>
    <nd ref="2487235548"/>
    <nd ref="2487235521"/>
    <nd ref="2487180863"/>
    <nd ref="2487180838"/>
    <nd ref="4225166414"/>
    <nd ref="2487180832"/>
    <nd ref="411718740"/>
    <nd ref="2487180823"/>
    <nd ref="447855565"/>
    <nd ref="132194541"/>
    <tag k="class:bicycle" v="2"/>
    <tag k="highway" v="residential"/>
    <tag k="lit" v="yes"/>
    <tag k="maxspeed" v="30"/>
    <tag k="name" v="Ludlstraße"/>
    <tag k="name:etymology:wikidata" v="Q24451184"/>
    <tag k="smoothness" v="excellent"/>
    <tag k="source:maxspeed" v="DE:zone:30"/>
    <tag k="surface" v="asphalt"/>
  </way>
  <way id="63095006" version="19" timestamp="2025-04-01T17:16:20Z" changeset="164385545" uid="12466125" user="townlion">
    <nd ref="31119602"/>
    <nd ref="4277455577"/>
    <nd ref="4277455579"/>
    <nd ref="1831311168"/>
    <nd ref="12719110287"/>
    <nd ref="12719110283"/>
    <nd ref="1831311186"/>
    <nd ref="175651939"/>
    <nd ref="1831311200"/>
    <nd ref="2525669840"/>
    <nd ref="2619789289"/>
    <nd ref="175651946"/>
    <nd ref="1717836043"/>
    <nd ref="31119346"/>
    <nd ref="1717836079"/>
    <nd ref="1717836098"/>
    <nd ref="1717836120"/>
    <nd ref="2525670018"/>
    <nd ref="447853650"/>
    <nd ref="3779551838"/>
    <nd ref="2775375438"/>
    <nd ref="1824603610"/>
    <tag k="cycleway:both" v="separate"/>
    <tag k="highway" v="tertiary"/>
    <tag k="lane_markings" v="no"/>
    <tag k="lanes" v="2"/>
    <tag k="maxspeed" v="50"/>
    <tag k="name" v="Senftenauerstraße"/>
    <tag k="name:etymology:wikidata" v="Q1914008"/>
    <tag k="sidewalk" v="separate"/>
    <tag k="surface" v="asphalt"/>
  </way>
  <way id="63104700" version="30" timestamp="2023-10-22T09:14:02Z" changeset="142958606" uid="16960231" user="DLystopadov">
    <nd ref="2524664034"/>
    <nd ref="2524689222"/>
    <nd ref="178813330"/>
    <nd ref="403517257"/>
    <nd ref="178812430"/>
    <nd ref="26823684"/>
    <nd ref="178814496"/>
    <nd ref="2509637305"/>
    <nd ref="26823681"/>
    <nd ref="3967122279"/>
    <nd ref="2775375495"/>
    <nd ref="3510220449"/>
    <nd ref="2509637309"/>
    <nd ref="178816826"/>
    <nd ref="2775375493"/>
    <nd ref="2775375480"/>
    <nd ref="26823680"/>
    <nd ref="3510220451"/>
    <nd ref="973548184"/>
    <nd ref="26823679"/>
    <nd ref="5590056155"/>
    <nd ref="26823682"/>
    <nd ref="26823678"/>
    <nd ref="31953397"/>
    <nd ref="9052582142"/>
    <nd ref="1302636027"/>
    <nd ref="171036840"/>
    <nd ref="1302633498"/>
    <nd ref="177640729"/>
    <nd ref="178818262"/>
    <tag k="cycleway:both" v="separate"/>
    <tag k="highway" v="tertiary"/>
    <tag k="lane_markings" v="no"/>
    <tag k="maxspeed" v="50"/>
    <tag k="name" v="Blumenauer Straße"/>
    <tag k="sidewalk:both" v="separate"/>
    <tag k="surface" v="asphalt"/>
  </way>
  <way id="94694437" version="16" timestamp="2024-08-07T17:15:50Z" changeset="154946521" uid="2409957" user="firefoxinspace">
    <nd ref="31388537"/>
    <nd ref="3764953983"/>
    <nd ref="1099427199"/>
    <nd ref="564869"/>
    <tag k="bicycle" v="use_sidepath"/>
    <tag k="highway" v="tertiary"/>
    <tag k="lane_markings" v="no"/>
    <tag k="lit" v="yes"/>
    <tag k="maxspeed" v="50"/>
    <tag k="name" v="Senftenauerstraße"/>
    <tag k="oneway" v="yes"/>
    <tag k="parking:lane:both" v="no"/>
    <tag k="smoothness" v="excellent"/>
    <tag k="surface" v="asphalt"/>
  </way>
  <way id="106055577" version="12" timestamp="2025-04-09T10:33:59Z" changeset="164717571" uid="22586576" user="veloler">
    <nd ref="1956073"/>
    <nd ref="769862579"/>
    <tag k="cycleway:both" v="separate"/>
    <tag k="highway" v="tertiary"/>
    <tag k="lanes" v="3"/>
    <tag k="lanes:backward" v="2"/>
    <tag k="lanes:forward" v="1"/>
    <tag k="lit" v="yes"/>
    <tag k="maxspeed" v="50"/>
    <tag k="name" v="Senftenauerstraße"/>
    <tag k="sidewalk:both" v="separate"/>
    <tag k="surface" v="asphalt"/>
  </way>
  <way id="115964701" version="10" timestamp="2024-08-07T17:15:50Z" changeset="154946521" uid="2409957" user="firefoxinspace">
    <nd ref="769862600"/>
    <nd ref="21583537"/>
    <nd ref="1956073"/>
    <tag k="cycleway:both" v="separate"/>
    <tag k="highway" v="tertiary"/>
    <tag k="lit" v="yes"/>
    <tag k="maxspeed" v="50"/>
    <tag k="name" v="Senftenauerstraße"/>
    <tag k="sidewalk:both" v="separate"/>
    <tag k="surface" v="asphalt"/>
  </way>
  <way id="115964704" version="16" timestamp="2023-11-12T12:44:37Z" changeset="143931930" uid="18493611" user="MunichWays">
    <nd ref="3957358333"/>
    <nd ref="4277455798"/>
    <nd ref="175655614"/>
    <nd ref="175657186"/>
    <nd ref="1710698122"/>
    <tag k="class:bicycle" v="1"/>
    <tag k="cycleway:both" v="separate"/>
    <tag k="highway" v="tertiary"/>
    <tag k="lanes" v="2"/>
    <tag k="lit" v="yes"/>
    <tag k="maxspeed" v="50"/>
    <tag k="name" v="Senftenauerstraße"/>
    <tag k="sidewalk:both" v="separate"/>
    <tag k="smoothness" v="good"/>
    <tag k="surface" v="asphalt"/>
  </way>
  <way id="122057006" version="11" timestamp="2023-11-01T12:53:10Z" changeset="143466852" uid="6285042" user="Biclmont">
    <nd ref="1364767276"/>
    <nd ref="1710698186"/>
    <nd ref="1710698159"/>
    <nd ref="2524689594"/>
    <nd ref="2524689297"/>
    <nd ref="1710698114"/>
    <nd ref="1364767260"/>
    <nd ref="3758514449"/>
    <nd ref="2775375516"/>
    <tag k="highway" v="residential"/>
    <tag k="maxspeed" v="30"/>
    <tag k="name" v="Wastl-Witt-Straße"/>
    <tag k="sidewalk:both" v="separate"/>
    <tag k="surface" v="asphalt"/>
  </way>
  <way id="146642191" version="5" timestamp="2019-11-18T09:18:04Z" changeset="77216251" uid="1675280" user="amgosm">
    <nd ref="21583525"/>
    <nd ref="21583524"/>
    <tag k="destination:ref" v="A 96"/>
    <tag k="highway" v="motorway_link"/>
    <tag k="lanes" v="2"/>
    <tag k="maxspeed" v="50"/>
    <tag k="oneway" v="yes"/>
    <tag k="surface" v="asphalt"/>
    <tag k="turn:lanes" v="left|left;through"/>
  </way>
  <way id="152278620" version="9" timestamp="2023-04-20T18:07:48Z" changeset="135162095" uid="12120321" user="bollyboll">
    <nd ref="132298977"/>
    <nd ref="2526479972"/>
    <nd ref="132299139"/>
    <nd ref="1800547488"/>
    <nd ref="132299002"/>
    <nd ref="175660192"/>
    <nd ref="132299143"/>
    <nd ref="2526433113"/>
    <nd ref="411721397"/>
    <nd ref="132299150"/>
    <nd ref="175659554"/>
    <nd ref="10827719660"/>
    <tag k="highway" v="residential"/>
    <tag k="lit" v="yes"/>
    <tag k="maxspeed" v="30"/>
    <tag k="name" v="Krokusstraße"/>
    <tag k="sidewalk" v="both"/>
    <tag k="source:maxspeed" v="DE:zone:30"/>
    <tag k="surface" v="asphalt"/>
  </way>
  <way id="152278621" version="5" timestamp="2018-06-22T15:45:37Z" changeset="60079158" uid="67039" user="Latebird">
    <nd ref="1650974750"/>
    <nd ref="175658455"/>
    <nd ref="175658456"/>
    <nd ref="1800547342"/>
    <nd ref="2525846421"/>
    <nd ref="175658457"/>
    <nd ref="175658458"/>
    <tag k="highway" v="residential"/>
    <tag k="lit" v="yes"/>
    <tag k="maxspeed" v="30"/>
    <tag k="name" v="Levkojenstraße"/>
    <tag k="surface" v="asphalt"/>
  </way>
  <way id="152279744" version="7" timestamp="2020-11-18T16:54:01Z" changeset="94381447" uid="4376164" user="redweizn">
    <nd ref="412383917"/>
    <nd ref="3506793463"/>
    <nd ref="769862592"/>
    <nd ref="21583525"/>
    <tag k="bicycle" v="use_sidepath"/>
    <tag k="highway" v="motorway_link"/>
    <tag k="lanes" v="2"/>
    <tag k="maxspeed" v="50"/>
    <tag k="oneway" v="yes"/>
    <tag k="surface" v="asphalt"/>
    <tag k="turn:lanes" v="left|left;through"/>
  </way>
  <way id="152279745" version="8" timestamp="2025-03-14T13:37:58Z" changeset="163610651" uid="536583" user="Strubbl">
    <nd ref="412383922"/>
    <nd ref="21140406"/>
    <nd ref="267723"/>
    <tag k="destination:ref" v="A 96"/>
    <tag k="highway" v="motorway_link"/>
    <tag k="lanes" v="1"/>
    <tag k="lit" v="no"/>
    <tag k="maxheight" v="default"/>
    <tag k="maxspeed" v="50"/>
    <tag k="oneway" v="yes"/>
    <tag k="surface" v="asphalt"/>
  </way>
  <way id="153184478" version="13" timestamp="2023-05-11T21:59:12Z" changeset="135995206" uid="12120321" user="bollyboll">
    <nd ref="31119597"/>
    <nd ref="1800547305"/>
    <nd ref="178788647"/>
    <nd ref="178788521"/>
    <nd ref="2525669827"/>
    <nd ref="2525712431"/>
    <nd ref="1658997052"/>
    <nd ref="175658789"/>
    <nd ref="1658997053"/>
    <nd ref="4277455562"/>
    <nd ref="4277455567"/>
    <nd ref="31119602"/>
    <tag k="class:bicycle" v="1"/>
    <tag k="cycleway:both" v="no"/>
    <tag k="highway" v="tertiary"/>
    <tag k="lanes" v="2"/>
    <tag k="lit" v="yes"/>
    <tag k="maxspeed" v="30"/>
    <tag k="name" v="Menaristraße"/>
    <tag k="name:etymology:wikidata" v="Q94777351"/>
    <tag k="sidewalk" v="both"/>
    <tag k="sidewalk:both:surface" v="paving_stones"/>
    <tag k="smoothness" v="good"/>
    <tag k="surface" v="asphalt"/>
  </way>
  <way id="153184480" version="6" timestamp="2024-11-03T17:32:45Z" changeset="158709412" uid="10117534" user="BariumFiasko">
    <nd ref="1658997048"/>
    <nd ref="1658997050"/>
    <tag k="class:bicycle" v="-1"/>
    <tag k="highway" v="tertiary"/>
    <tag k="lanes" v="2"/>
    <tag k="layer" v="-1"/>
    <tag k="lit" v="yes"/>
    <tag k="maxheight:signed" v="no"/>
    <tag k="maxspeed" v="30"/>
    <tag k="name" v="Schröfelhofstraße"/>
    <tag k="smoothness" v="good"/>
    <tag k="surface" v="asphalt"/>
    <tag k="tunnel" v="yes"/>
  </way>
  <way id="158928325" version="24" timestamp="2023-11-01T12:52:11Z" changeset="143466852" uid="6285042" user="Biclmont">
    <nd ref="1717861098"/>
    <nd ref="1717861354"/>
    <nd ref="1717861471"/>
    <nd ref="2525829000"/>
    <nd ref="1710468333"/>
    <nd ref="1364767270"/>
    <tag k="class:bicycle" v="-1"/>
    <tag k="cycleway:bicycle" v="yes"/>
    <tag k="cycleway:both" v="lane"/>
    <tag k="cycleway:both:lane" v="advisory"/>
    <tag k="highway" v="tertiary"/>
    <tag k="lanes" v="2"/>
    <tag k="lit" v="yes"/>
    <tag k="maxspeed" v="50"/>
    <tag k="maxspeed:conditional" v="30 @ (Mo-Fr 07:00-19:00)"/>
    <tag k="name" v="Blumenauer Straße"/>
    <tag k="parking:both:orientation" v="parallel"/>
    <tag k="parking:left" v="street_side"/>
    <tag k="parking:right" v="lane"/>
    <tag k="sidewalk:both" v="separate"/>
    <tag k="surface" v="asphalt"/>
  </way>
  <way id="158958654" version="4" timestamp="2013-05-25T23:55:49Z" changeset="16286281" uid="78613" user="heilbron">
    <nd ref="1710698178"/>
    <nd ref="1710698098"/>
    <nd ref="1710698205"/>
    <nd ref="1710698148"/>
    <nd ref="1710698178"/>
    <tag k="addr:city" v="München"/>
    <tag k="addr:country" v="DE"/>
    <tag k="addr:housenumber" v="71"/>
    <tag k="addr:postcode" v="80689"/>
    <tag k="addr:street" v="Luzernenweg"/>
    <tag k="building" v="yes"/>
    <tag k="roof:shape" v="gabled"/>
  </way>
  <way id="159179335" version="19" timestamp="2024-03-16T10:09:13Z" changeset="148724128" uid="18493611" user="MunichWays">
    <nd ref="31119597"/>
    <nd ref="1800547322"/>
    <nd ref="11681016985"/>
    <nd ref="1712761161"/>
    <nd ref="9118623103"/>
    <nd ref="1712761153"/>
    <nd ref="9864074657"/>
    <nd ref="3905334132"/>
    <nd ref="1712761157"/>
    <nd ref="1712761164"/>
    <nd ref="9864074662"/>
    <tag k="bicycle" v="yes"/>
    <tag k="class:bicycle" v="1"/>
    <tag k="foot" v="yes"/>
    <tag k="highway" v="residential"/>
    <tag k="maxspeed" v="30"/>
    <tag k="name" v="Ludlstraße"/>
    <tag k="name:etymology:wikidata" v="Q24451184"/>
    <tag k="smoothness" v="intermediate"/>
    <tag k="surface" v="sett"/>
  </way>
  <way id="159542591" version="8" timestamp="2021-12-09T22:57:09Z" changeset="114757012" uid="120636" user="luja">
    <nd ref="1716515075"/>
    <nd ref="1716515125"/>
    <nd ref="1716515126"/>
    <nd ref="3252894187"/>
    <tag k="destination" v="München-Blumenau;München-Großhadern"/>
    <tag k="highway" v="motorway_link"/>
    <tag k="lanes" v="1"/>
    <tag k="maxheight" v="default"/>
    <tag k="maxspeed" v="50"/>
    <tag k="oneway" v="yes"/>
    <tag k="surface" v="asphalt"/>
  </way>
  <way id="159542593" version="10" timestamp="2025-04-20T08:38:29Z" changeset="165182367" uid="13987295" user="Arthur B E">
    <nd ref="21583524"/>
    <nd ref="3258984302"/>
    <tag k="bicycle" v="use_sidepath"/>
    <tag k="bridge" v="yes"/>
    <tag k="foot" v="use_sidepath"/>
    <tag k="highway" v="secondary"/>
    <tag k="lanes" v="3"/>
    <tag k="layer" v="1"/>
    <tag k="lit" v="yes"/>
    <tag k="maxspeed" v="50"/>
    <tag k="maxweight:signed" v="no"/>
    <tag k="name" v="Waldwiesenstraße"/>
    <tag k="oneway" v="yes"/>
    <tag k="shoulder" v="no"/>
    <tag k="sidewalk:left" v="no"/>
    <tag k="sidewalk:right" v="separate"/>
    <tag k="smoothness" v="excellent"/>
    <tag k="surface" v="asphalt"/>
    <tag k="turn:lanes" v="left|through|through"/>
  </way>
  <way id="159676725" version="10" timestamp="2023-07-27T19:08:38Z" changeset="139103189" uid="4238158" user="RiderOnTheStorm">
    <nd ref="1717861420"/>
    <nd ref="1717861339"/>
    <nd ref="1717861334"/>
    <nd ref="1717861311"/>
    <nd ref="1717861313"/>
    <nd ref="1717861172"/>
    <nd ref="1717861168"/>
    <nd ref="1717861132"/>
    <nd ref="1717861121"/>
    <nd ref="1717861120"/>
    <nd ref="1717861130"/>
    <nd ref="1717861126"/>
    <nd ref="1717861401"/>
    <nd ref="1717861420"/>
    <tag k="amenity" v="place_of_worship"/>
    <tag k="building" v="church"/>
    <tag k="denomination" v="catholic"/>
    <tag k="name" v="Erscheinung des Herrn"/>
    <tag k="religion" v="christian"/>
    <tag k="toilets:wheelchair" v="yes"/>
    <tag k="website" v="https://www.pfarrverband-salvator-mundi.de/erscheinung-des-herrn/"/>
    <tag k="wheelchair" v="yes"/>
    <tag k="wikidata" v="Q1361744"/>
    <tag k="wikimedia_commons" v="File:Pfarrkirche Erscheinung des Herrn.png"/>
    <tag k="wikipedia" v="de:Erscheinung des Herrn (München)"/>
  </way>
  <way id="172199771" version="6" timestamp="2023-06-20T11:05:06Z" changeset="137557862" uid="4238158" user="RiderOnTheStorm">
    <nd ref="1831311281"/>
    <nd ref="1831311296"/>
    <nd ref="1831311308"/>
    <nd ref="6625017077"/>
    <nd ref="1831311324"/>
    <nd ref="1831311333"/>
    <nd ref="1831311326"/>
    <nd ref="1831311314"/>
    <nd ref="1831311302"/>
    <nd ref="1831311292"/>
    <nd ref="1831311283"/>
    <nd ref="1831311274"/>
    <nd ref="1831311270"/>
    <nd ref="1831311273"/>
    <nd ref="1831311281"/>
    <tag k="addr:city" v="München"/>
    <tag k="addr:country" v="DE"/>
    <tag k="addr:housenumber" v="111"/>
    <tag k="addr:postcode" v="80689"/>
    <tag k="addr:street" v="Senftenauerstraße"/>
    <tag k="amenity" v="place_of_worship"/>
    <tag k="building" v="church"/>
    <tag k="denomination" v="catholic"/>
    <tag k="name" v="Fronleichnam"/>
    <tag k="religion" v="christian"/>
    <tag k="roof:colour" v="cyan"/>
    <tag k="roof:shape" v="pyramidal"/>
    <tag k="website" v="https://www.pfarrverband-salvator-mundi.de/fronleichnam/"/>
    <tag k="wheelchair" v="yes"/>
    <tag k="wikimedia_commons" v="File:Frohnleichnamskirche-Muenchen.jpg"/>
  </way>
  <way id="172200003" version="6" timestamp="2022-11-17T22:27:04Z" changeset="129060920" uid="12120321" user="bollyboll">
    <nd ref="1831311245"/>
    <nd ref="1831311262"/>
    <nd ref="1831311263"/>
    <nd ref="2525669958"/>
    <nd ref="1831311247"/>
    <nd ref="1831311246"/>
    <nd ref="1831311245"/>
    <tag k="addr:city" v="München"/>
    <tag k="addr:country" v="DE"/>
    <tag k="addr:housenumber" v="61"/>
    <tag k="addr:postcode" v="80689"/>
    <tag k="addr:street" v="Senftenauerstraße"/>
    <tag k="building" v="apartments"/>
    <tag k="building:levels" v="3"/>
    <tag k="roof:levels" v="1"/>
    <tag k="roof:shape" v="gabled"/>
  </way>
  <way id="172200004" version="6" timestamp="2022-11-17T22:27:10Z" changeset="129060920" uid="12120321" user="bollyboll">
    <nd ref="1831311207"/>
    <nd ref="2525670080"/>
    <nd ref="1831311188"/>
    <nd ref="1831311187"/>
    <nd ref="1831311204"/>
    <nd ref="1831311205"/>
    <nd ref="1831311207"/>
    <tag k="addr:city" v="München"/>
    <tag k="addr:country" v="DE"/>
    <tag k="addr:housenumber" v="59"/>
    <tag k="addr:postcode" v="80689"/>
    <tag k="addr:street" v="Senftenauerstraße"/>
    <tag k="building" v="apartments"/>
    <tag k="building:levels" v="3"/>
    <tag k="roof:levels" v="1"/>
    <tag k="roof:shape" v="gabled"/>
  </way>
  <way id="172200005" version="6" timestamp="2022-11-17T22:27:10Z" changeset="129060920" uid="12120321" user="bollyboll">
    <nd ref="1831311234"/>
    <nd ref="1831311248"/>
    <nd ref="1831311249"/>
    <nd ref="2525669774"/>
    <nd ref="1831311236"/>
    <nd ref="1831311235"/>
    <nd ref="1831311234"/>
    <tag k="addr:city" v="München"/>
    <tag k="addr:country" v="DE"/>
    <tag k="addr:housenumber" v="55"/>
    <tag k="addr:postcode" v="80689"/>
    <tag k="addr:street" v="Senftenauerstraße"/>
    <tag k="building" v="apartments"/>
    <tag k="building:levels" v="3"/>
    <tag k="roof:levels" v="1"/>
    <tag k="roof:shape" v="gabled"/>
  </way>
  <way id="172200007" version="6" timestamp="2022-11-17T22:27:09Z" changeset="129060920" uid="12120321" user="bollyboll">
    <nd ref="1831311226"/>
    <nd ref="2525669778"/>
    <nd ref="1831311199"/>
    <nd ref="1831311198"/>
    <nd ref="1831311224"/>
    <nd ref="1831311225"/>
    <nd ref="1831311226"/>
    <tag k="addr:city" v="München"/>
    <tag k="addr:country" v="DE"/>
    <tag k="addr:housenumber" v="65"/>
    <tag k="addr:postcode" v="80689"/>
    <tag k="addr:street" v="Senftenauerstraße"/>
    <tag k="building" v="apartments"/>
    <tag k="building:levels" v="3"/>
    <tag k="roof:levels" v="1"/>
    <tag k="roof:shape" v="gabled"/>
  </way>
  <way id="172200012" version="6" timestamp="2022-11-17T22:27:09Z" changeset="129060920" uid="12120321" user="bollyboll">
    <nd ref="1831311225"/>
    <nd ref="1831311244"/>
    <nd ref="1831311245"/>
    <nd ref="1831311246"/>
    <nd ref="2525669759"/>
    <nd ref="1831311227"/>
    <nd ref="1831311226"/>
    <nd ref="1831311225"/>
    <tag k="addr:city" v="München"/>
    <tag k="addr:country" v="DE"/>
    <tag k="addr:housenumber" v="63"/>
    <tag k="addr:postcode" v="80689"/>
    <tag k="addr:street" v="Senftenauerstraße"/>
    <tag k="building" v="apartments"/>
    <tag k="building:levels" v="3"/>
    <tag k="roof:levels" v="1"/>
    <tag k="roof:shape" v="gabled"/>
  </way>
  <way id="172200015" version="6" timestamp="2022-11-17T22:27:10Z" changeset="129060920" uid="12120321" user="bollyboll">
    <nd ref="1831311205"/>
    <nd ref="1831311233"/>
    <nd ref="1831311234"/>
    <nd ref="1831311235"/>
    <nd ref="2525669804"/>
    <nd ref="1831311208"/>
    <nd ref="1831311207"/>
    <nd ref="1831311205"/>
    <tag k="addr:city" v="München"/>
    <tag k="addr:country" v="DE"/>
    <tag k="addr:housenumber" v="57"/>
    <tag k="addr:postcode" v="80689"/>
    <tag k="addr:street" v="Senftenauerstraße"/>
    <tag k="building" v="apartments"/>
    <tag k="building:levels" v="3"/>
    <tag k="roof:levels" v="1"/>
    <tag k="roof:shape" v="gabled"/>
  </way>
  <way id="187150810" version="5" timestamp="2020-11-18T16:54:01Z" changeset="94381447" uid="4376164" user="redweizn">
    <nd ref="4277455829"/>
    <nd ref="1956073"/>
    <tag k="bicycle" v="use_sidepath"/>
    <tag k="foot" v="use_sidepath"/>
    <tag k="highway" v="residential"/>
    <tag k="lit" v="yes"/>
    <tag k="maxspeed" v="30"/>
    <tag k="name" v="Silberdistelstraße"/>
    <tag k="oneway" v="yes"/>
    <tag k="surface" v="asphalt"/>
  </way>
  <way id="187150812" version="5" timestamp="2020-11-18T16:54:01Z" changeset="94381447" uid="4376164" user="redweizn">
    <nd ref="21583537"/>
    <nd ref="4277455829"/>
    <tag k="bicycle" v="use_sidepath"/>
    <tag k="foot" v="use_sidepath"/>
    <tag k="highway" v="residential"/>
    <tag k="lit" v="yes"/>
    <tag k="maxspeed" v="30"/>
    <tag k="name" v="Silberdistelstraße"/>
    <tag k="oneway" v="yes"/>
    <tag k="surface" v="asphalt"/>
  </way>
  <way id="198423213" version="1" timestamp="2012-12-28T09:55:28Z" changeset="14436223" uid="78613" user="heilbron">
    <nd ref="2085527957"/>
    <nd ref="2085527959"/>
    <nd ref="2085527958"/>
    <nd ref="2085527956"/>
    <nd ref="2085527957"/>
    <tag k="addr:housenumber" v="18"/>
    <tag k="addr:street" v="Efeustraße"/>
    <tag k="building" v="yes"/>
  </way>
  <way id="204515132" version="6" timestamp="2019-04-16T12:39:58Z" changeset="69269944" uid="14390" user="BeKri">
    <nd ref="2145150859"/>
    <nd ref="2145150860"/>
    <nd ref="2145150857"/>
    <nd ref="2145150858"/>
    <nd ref="2145150861"/>
    <nd ref="2145150862"/>
    <nd ref="2145150866"/>
    <nd ref="2145150879"/>
    <nd ref="2145150880"/>
    <nd ref="2145150881"/>
    <nd ref="2145150885"/>
    <nd ref="2145150882"/>
    <nd ref="2145150874"/>
    <nd ref="2145150871"/>
    <nd ref="2524664105"/>
    <nd ref="2145150867"/>
    <nd ref="2145150868"/>
    <nd ref="2145150859"/>
    <tag k="addr:city" v="München"/>
    <tag k="addr:country" v="DE"/>
    <tag k="addr:housenumber" v="40"/>
    <tag k="addr:postcode" v="80689"/>
    <tag k="addr:street" v="Flemischweg"/>
    <tag k="building" v="apartments"/>
    <tag k="building:levels" v="4"/>
    <tag k="roof:colour" v="grey"/>
    <tag k="roof:shape" v="flat"/>
  </way>
  <way id="204515172" version="7" timestamp="2023-10-26T16:25:56Z" changeset="143170184" uid="16960231" user="DLystopadov">
    <nd ref="2145150944"/>
    <nd ref="5514591718"/>
    <nd ref="5514591720"/>
    <nd ref="5514591712"/>
    <nd ref="5514591719"/>
    <nd ref="2145150951"/>
    <nd ref="2145150952"/>
    <nd ref="5514591713"/>
    <nd ref="2145150956"/>
    <nd ref="5514591714"/>
    <nd ref="2145150955"/>
    <nd ref="2145150958"/>
    <nd ref="2145150959"/>
    <nd ref="2145150965"/>
    <nd ref="2145150963"/>
    <nd ref="2145150967"/>
    <nd ref="2145150964"/>
    <nd ref="2145150966"/>
    <nd ref="5514591715"/>
    <nd ref="2145150960"/>
    <nd ref="2145150961"/>
    <nd ref="2145150957"/>
    <nd ref="5514591716"/>
    <nd ref="677195645"/>
    <nd ref="2145150954"/>
    <nd ref="2145150953"/>
    <nd ref="2145150950"/>
    <nd ref="5514591717"/>
    <nd ref="2145150949"/>
    <nd ref="2145150948"/>
    <nd ref="2145150947"/>
    <nd ref="2145150946"/>
    <nd ref="2145150945"/>
    <nd ref="2145150944"/>
    <tag k="addr:city" v="München"/>
    <tag k="addr:country" v="DE"/>
    <tag k="addr:housenumber" v="46"/>
    <tag k="addr:postcode" v="80689"/>
    <tag k="addr:street" v="Blumenauer Straße"/>
    <tag k="amenity" v="place_of_worship"/>
    <tag k="building" v="church"/>
    <tag k="check_date" v="2023-10-26"/>
    <tag k="denomination" v="christian_community"/>
    <tag k="name" v="Johanneskirche"/>
    <tag k="religion" v="christian"/>
    <tag k="website" v="https://christengemeinschaft.de/gemeinden/muenchen-west"/>
  </way>
  <way id="205859976" version="4" timestamp="2023-04-16T10:15:40Z" changeset="134968565" uid="18493611" user="MunichWays">
    <nd ref="175657381"/>
    <nd ref="1979048489"/>
    <nd ref="1979048487"/>
    <tag k="class:bicycle" v="2"/>
    <tag k="highway" v="residential"/>
    <tag k="lit" v="yes"/>
    <tag k="maxspeed" v="30"/>
    <tag k="name" v="Silberdistelstraße"/>
    <tag k="smoothness" v="good"/>
    <tag k="surface" v="asphalt"/>
  </way>
  <way id="205860270" version="5" timestamp="2022-09-15T21:13:29Z" changeset="126240620" uid="536583" user="Strubbl">
    <nd ref="2158440142"/>
    <nd ref="2158440126"/>
    <nd ref="2158440146"/>
    <nd ref="677195649"/>
    <nd ref="2158440129"/>
    <nd ref="2158440127"/>
    <nd ref="2158440144"/>
    <nd ref="2158440134"/>
    <nd ref="2158440131"/>
    <nd ref="2158440135"/>
    <nd ref="2158440145"/>
    <nd ref="2158440137"/>
    <nd ref="2158440133"/>
    <nd ref="2158440148"/>
    <nd ref="2158440147"/>
    <nd ref="2158440140"/>
    <nd ref="2158440138"/>
    <nd ref="2158440149"/>
    <nd ref="2158440143"/>
    <nd ref="2158440124"/>
    <nd ref="2158440132"/>
    <nd ref="2158440130"/>
    <nd ref="2158440139"/>
    <nd ref="2158440141"/>
    <nd ref="2158440142"/>
    <tag k="addr:city" v="München"/>
    <tag k="addr:country" v="DE"/>
    <tag k="addr:housenumber" v="41"/>
    <tag k="addr:postcode" v="80689"/>
    <tag k="addr:street" v="Lobelienweg"/>
    <tag k="amenity" v="kindergarten"/>
    <tag k="building" v="kindergarten"/>
    <tag k="max_age" v="6"/>
    <tag k="min_age" v="1"/>
    <tag k="name" v="Waldorfkinderhaus"/>
    <tag k="operator" v="Waldorfkinderhaus Pasing in der Blumenau e.V."/>
    <tag k="website" v="https://www.waldorfkinderhaus-pasing.de/"/>
  </way>
  <way id="227545835" version="5" timestamp="2022-10-20T21:02:17Z" changeset="127855555" uid="12120321" user="bollyboll">
    <nd ref="2362116392"/>
    <nd ref="2362116391"/>
    <nd ref="2362116379"/>
    <nd ref="2362116380"/>
    <nd ref="2362116392"/>
    <tag k="addr:city" v="München"/>
    <tag k="addr:country" v="DE"/>
    <tag k="addr:housenumber" v="5"/>
    <tag k="addr:postcode" v="80689"/>
    <tag k="addr:street" v="Ellen-Ammann-Weg"/>
    <tag k="building" v="terrace"/>
    <tag k="building:levels" v="2"/>
    <tag k="roof:levels" v="1"/>
    <tag k="roof:orientation" v="across"/>
    <tag k="roof:shape" v="gabled"/>
  </way>
  <way id="241968372" version="3" timestamp="2015-05-07T09:35:17Z" changeset="30867360" uid="2889314" user="lgleim">
    <nd ref="2495359398"/>
    <nd ref="2495359400"/>
    <nd ref="2495359406"/>
    <nd ref="2495359405"/>
    <nd ref="2495359398"/>
    <tag k="addr:city" v="München"/>
    <tag k="addr:housenumber" v="42"/>
    <tag k="addr:postcode" v="80689"/>
    <tag k="addr:street" v="Konrad-Dreher-Straße"/>
    <tag k="building" v="residential"/>
    <tag k="roof:shape" v="gabled"/>
  </way>
  <way id="241968383" version="6" timestamp="2022-11-17T21:40:08Z" changeset="129060907" uid="12120321" user="bollyboll">
    <nd ref="2495359379"/>
    <nd ref="2495359374"/>
    <nd ref="3898199961"/>
    <nd ref="3898199856"/>
    <nd ref="2495359373"/>
    <nd ref="3898199959"/>
    <nd ref="3898199966"/>
    <nd ref="3898199967"/>
    <nd ref="2495359379"/>
    <tag k="addr:housenumber" v="37"/>
    <tag k="addr:street" v="Konrad-Dreher-Straße"/>
    <tag k="building" v="apartments"/>
    <tag k="building:levels" v="2"/>
    <tag k="roof:levels" v="2"/>
    <tag k="roof:shape" v="hipped"/>
  </way>
  <way id="241968387" version="2" timestamp="2015-05-07T09:35:17Z" changeset="30867360" uid="2889314" user="lgleim">
    <nd ref="2495359395"/>
    <nd ref="2495359397"/>
    <nd ref="2495359408"/>
    <nd ref="2495359407"/>
    <nd ref="2495359395"/>
    <tag k="addr:city" v="München"/>
    <tag k="addr:housenumber" v="44"/>
    <tag k="addr:postcode" v="80689"/>
    <tag k="addr:street" v="Konrad-Dreher-Straße"/>
    <tag k="building" v="yes"/>
    <tag k="roof:shape" v="gabled"/>
  </way>
  <way id="242397131" version="21" timestamp="2022-02-08T22:39:33Z" changeset="117179449" uid="10108081" user="Herbereit">
    <nd ref="2498781015"/>
    <nd ref="2498781012"/>
    <nd ref="2498781028"/>
    <nd ref="6589779576"/>
    <nd ref="2498781031"/>
    <nd ref="2498781015"/>
    <tag k="addr:city" v="München"/>
    <tag k="addr:country" v="DE"/>
    <tag k="addr:postcode" v="80689"/>
    <tag k="addr:street" v="Georginenstraße"/>
    <tag k="building" v="yes"/>
    <tag k="healthcare" v="psychotherapist"/>
    <tag k="name" v="Praxis für Psychotherapie Herbert Reitmair"/>
    <tag k="operator" v="Herbert Reitmair, Heilpraktiker für Psychotherapie"/>
    <tag k="website" v="https://psychotherapiepraxis-hadern-laim.jimdosite.com"/>
  </way>
  <way id="243339490" version="6" timestamp="2023-05-11T21:58:41Z" changeset="135995180" uid="12120321" user="bollyboll">
    <nd ref="2507645177"/>
    <nd ref="2507645284"/>
    <nd ref="2525713036"/>
    <nd ref="2507645144"/>
    <nd ref="2899214412"/>
    <nd ref="2507645186"/>
    <nd ref="2507645177"/>
    <tag k="addr:city" v="München"/>
    <tag k="addr:country" v="DE"/>
    <tag k="addr:housenumber" v="7"/>
    <tag k="addr:postcode" v="80689"/>
    <tag k="addr:street" v="Konrad-Dreher-Straße"/>
    <tag k="building" v="apartments"/>
    <tag k="building:levels" v="4"/>
    <tag k="roof:levels" v="1"/>
    <tag k="roof:shape" v="gabled"/>
  </way>
  <way id="243339495" version="6" timestamp="2023-05-11T21:58:40Z" changeset="135995180" uid="12120321" user="bollyboll">
    <nd ref="2507645242"/>
    <nd ref="2525713054"/>
    <nd ref="2507645185"/>
    <nd ref="2507645173"/>
    <nd ref="2507645210"/>
    <nd ref="2507645226"/>
    <nd ref="2507645293"/>
    <nd ref="2507645242"/>
    <tag k="addr:city" v="München"/>
    <tag k="addr:country" v="DE"/>
    <tag k="addr:housenumber" v="5"/>
    <tag k="addr:postcode" v="80689"/>
    <tag k="addr:street" v="Konrad-Dreher-Straße"/>
    <tag k="building" v="apartments"/>
    <tag k="building:levels" v="4"/>
    <tag k="roof:levels" v="1"/>
    <tag k="roof:shape" v="gabled"/>
  </way>
  <way id="243339496" version="6" timestamp="2023-05-11T21:58:42Z" changeset="135995180" uid="12120321" user="bollyboll">
    <nd ref="2507645252"/>
    <nd ref="2507645159"/>
    <nd ref="2525712822"/>
    <nd ref="2507645158"/>
    <nd ref="2507645185"/>
    <nd ref="2507645234"/>
    <nd ref="2507645252"/>
    <tag k="addr:city" v="München"/>
    <tag k="addr:country" v="DE"/>
    <tag k="addr:housenumber" v="3"/>
    <tag k="addr:postcode" v="80689"/>
    <tag k="addr:street" v="Konrad-Dreher-Straße"/>
    <tag k="building" v="apartments"/>
    <tag k="building:levels" v="4"/>
    <tag k="roof:levels" v="1"/>
    <tag k="roof:shape" v="gabled"/>
  </way>
  <way id="243339497" version="7" timestamp="2023-05-11T21:58:39Z" changeset="135995180" uid="12120321" user="bollyboll">
    <nd ref="2507645139"/>
    <nd ref="2507645268"/>
    <nd ref="2507645134"/>
    <nd ref="2525670046"/>
    <nd ref="2507645153"/>
    <nd ref="2507645225"/>
    <nd ref="2507645247"/>
    <nd ref="2507645139"/>
    <tag k="addr:city" v="München"/>
    <tag k="addr:country" v="DE"/>
    <tag k="addr:housenumber" v="10"/>
    <tag k="addr:postcode" v="80689"/>
    <tag k="addr:street" v="Menaristraße"/>
    <tag k="building" v="terrace"/>
    <tag k="building:levels" v="4"/>
    <tag k="roof:levels" v="0"/>
    <tag k="roof:shape" v="gabled"/>
  </way>
  <way id="243339498" version="5" timestamp="2021-05-02T15:02:04Z" changeset="103999078" uid="4263942" user="topatlant">
    <nd ref="3228973589"/>
    <nd ref="2507645231"/>
    <nd ref="2507645189"/>
    <nd ref="2507645221"/>
    <nd ref="2525712553"/>
    <nd ref="3228973590"/>
    <nd ref="3228973589"/>
    <tag k="addr:city" v="München"/>
    <tag k="addr:country" v="DE"/>
    <tag k="addr:housenumber" v="17"/>
    <tag k="addr:postcode" v="80689"/>
    <tag k="addr:street" v="Konrad-Dreher-Straße"/>
    <tag k="building" v="apartments"/>
  </way>
  <way id="243339499" version="7" timestamp="2023-05-11T21:58:39Z" changeset="135995180" uid="12120321" user="bollyboll">
    <nd ref="2507645275"/>
    <nd ref="2525669816"/>
    <nd ref="2507645225"/>
    <nd ref="2507645247"/>
    <nd ref="2507645274"/>
    <nd ref="2507645150"/>
    <nd ref="2507645275"/>
    <tag k="addr:city" v="München"/>
    <tag k="addr:country" v="DE"/>
    <tag k="addr:housenumber" v="12"/>
    <tag k="addr:postcode" v="80689"/>
    <tag k="addr:street" v="Menaristraße"/>
    <tag k="building" v="terrace"/>
    <tag k="building:levels" v="4"/>
    <tag k="roof:levels" v="0"/>
    <tag k="roof:shape" v="gabled"/>
  </way>
  <way id="243339500" version="6" timestamp="2023-05-11T21:58:39Z" changeset="135995180" uid="12120321" user="bollyboll">
    <nd ref="2507645238"/>
    <nd ref="2507645244"/>
    <nd ref="2525669826"/>
    <nd ref="2507645237"/>
    <nd ref="2507645268"/>
    <nd ref="2507645238"/>
    <tag k="addr:city" v="München"/>
    <tag k="addr:country" v="DE"/>
    <tag k="addr:housenumber" v="8"/>
    <tag k="addr:postcode" v="80689"/>
    <tag k="addr:street" v="Menaristraße"/>
    <tag k="building" v="terrace"/>
    <tag k="building:levels" v="4"/>
    <tag k="roof:levels" v="0"/>
    <tag k="roof:shape" v="gabled"/>
  </way>
  <way id="243339501" version="4" timestamp="2023-05-11T21:58:41Z" changeset="135995183" uid="12120321" user="bollyboll">
    <nd ref="2507645263"/>
    <nd ref="2507645257"/>
    <nd ref="2507645228"/>
    <nd ref="2899214411"/>
    <nd ref="2507645165"/>
    <nd ref="2525713111"/>
    <nd ref="2507645263"/>
    <tag k="addr:city" v="München"/>
    <tag k="addr:country" v="DE"/>
    <tag k="addr:housenumber" v="11"/>
    <tag k="addr:postcode" v="80689"/>
    <tag k="addr:street" v="Konrad-Dreher-Straße"/>
    <tag k="building" v="apartments"/>
  </way>
  <way id="243339502" version="4" timestamp="2021-05-02T15:01:51Z" changeset="103999078" uid="4263942" user="topatlant">
    <nd ref="2507645131"/>
    <nd ref="2507645179"/>
    <nd ref="2525712942"/>
    <nd ref="2507645260"/>
    <nd ref="2507645250"/>
    <nd ref="2507645131"/>
    <tag k="addr:city" v="München"/>
    <tag k="addr:country" v="DE"/>
    <tag k="addr:housenumber" v="13"/>
    <tag k="addr:postcode" v="80689"/>
    <tag k="addr:street" v="Konrad-Dreher-Straße"/>
    <tag k="building" v="apartments"/>
  </way>
  <way id="243339503" version="5" timestamp="2021-05-02T15:01:54Z" changeset="103999078" uid="4263942" user="topatlant">
    <nd ref="2507645266"/>
    <nd ref="2507645231"/>
    <nd ref="2507645189"/>
    <nd ref="2525712757"/>
    <nd ref="2507645259"/>
    <nd ref="2507645179"/>
    <nd ref="2507645143"/>
    <nd ref="2507645266"/>
    <tag k="addr:city" v="München"/>
    <tag k="addr:country" v="DE"/>
    <tag k="addr:housenumber" v="15"/>
    <tag k="addr:postcode" v="80689"/>
    <tag k="addr:street" v="Konrad-Dreher-Straße"/>
    <tag k="building" v="apartments"/>
  </way>
  <way id="243783003" version="6" timestamp="2023-05-11T21:58:42Z" changeset="135995180" uid="12120321" user="bollyboll">
    <nd ref="2511478070"/>
    <nd ref="2511478192"/>
    <nd ref="2511478013"/>
    <nd ref="2511478095"/>
    <nd ref="2525713137"/>
    <nd ref="2511478070"/>
    <tag k="addr:city" v="München"/>
    <tag k="addr:country" v="DE"/>
    <tag k="addr:housenumber" v="2"/>
    <tag k="addr:postcode" v="80689"/>
    <tag k="addr:street" v="Konrad-Dreher-Straße"/>
    <tag k="building" v="apartments"/>
    <tag k="building:levels" v="3"/>
    <tag k="roof:levels" v="1"/>
    <tag k="roof:shape" v="gabled"/>
  </way>
  <way id="243783006" version="7" timestamp="2023-05-11T21:58:42Z" changeset="135995180" uid="12120321" user="bollyboll">
    <nd ref="2511478193"/>
    <nd ref="2511478197"/>
    <nd ref="3709199272"/>
    <nd ref="2511478194"/>
    <nd ref="2525712592"/>
    <nd ref="2511478115"/>
    <nd ref="2511478095"/>
    <nd ref="2511478193"/>
    <tag k="addr:city" v="München"/>
    <tag k="addr:country" v="DE"/>
    <tag k="addr:housenumber" v="4"/>
    <tag k="addr:postcode" v="80689"/>
    <tag k="addr:street" v="Konrad-Dreher-Straße"/>
    <tag k="building" v="apartments"/>
    <tag k="building:levels" v="3"/>
    <tag k="roof:levels" v="1"/>
    <tag k="roof:shape" v="gabled"/>
  </way>
  <way id="243783007" version="6" timestamp="2023-05-11T21:58:44Z" changeset="135995180" uid="12120321" user="bollyboll">
    <nd ref="2511478012"/>
    <nd ref="2511478189"/>
    <nd ref="2511478051"/>
    <nd ref="2525669934"/>
    <nd ref="2511478125"/>
    <nd ref="2511478012"/>
    <tag k="addr:city" v="München"/>
    <tag k="addr:country" v="DE"/>
    <tag k="addr:housenumber" v="2"/>
    <tag k="addr:postcode" v="80689"/>
    <tag k="addr:street" v="Menaristraße"/>
    <tag k="building" v="apartments"/>
    <tag k="building:levels" v="3"/>
    <tag k="roof:levels" v="1"/>
    <tag k="roof:shape" v="gabled"/>
  </way>
  <way id="243783011" version="7" timestamp="2023-05-11T21:58:44Z" changeset="135995180" uid="12120321" user="bollyboll">
    <nd ref="2511478017"/>
    <nd ref="2511478091"/>
    <nd ref="2511478120"/>
    <nd ref="2511478078"/>
    <nd ref="2525670010"/>
    <nd ref="2511478015"/>
    <nd ref="2511478189"/>
    <nd ref="2511478017"/>
    <tag k="addr:city" v="München"/>
    <tag k="addr:country" v="DE"/>
    <tag k="addr:housenumber" v="4"/>
    <tag k="addr:postcode" v="80689"/>
    <tag k="addr:street" v="Menaristraße"/>
    <tag k="building" v="apartments"/>
    <tag k="building:levels" v="3"/>
    <tag k="roof:levels" v="1"/>
    <tag k="roof:shape" v="gabled"/>
  </way>
  <way id="243783012" version="6" timestamp="2024-09-24T18:25:33Z" changeset="157052308" uid="13496000" user="geo-d">
    <nd ref="2511478126"/>
    <nd ref="2511478195"/>
    <nd ref="2511478118"/>
    <nd ref="2511478146"/>
    <nd ref="2511478098"/>
    <nd ref="2525712517"/>
    <nd ref="2511478126"/>
    <tag k="addr:city" v="München"/>
    <tag k="addr:country" v="DE"/>
    <tag k="addr:housenumber" v="12"/>
    <tag k="addr:postcode" v="80689"/>
    <tag k="addr:street" v="Konrad-Dreher-Straße"/>
    <tag k="building" v="apartments"/>
  </way>
  <way id="243783018" version="7" timestamp="2022-11-17T22:07:48Z" changeset="129060920" uid="12120321" user="bollyboll">
    <nd ref="2511478119"/>
    <nd ref="2525670083"/>
    <nd ref="2511478113"/>
    <nd ref="2511478008"/>
    <nd ref="2511478066"/>
    <nd ref="2511478075"/>
    <nd ref="2511478227"/>
    <nd ref="2511478119"/>
    <tag k="addr:city" v="München"/>
    <tag k="addr:country" v="DE"/>
    <tag k="addr:housenumber" v="51"/>
    <tag k="addr:postcode" v="80689"/>
    <tag k="addr:street" v="Senftenauerstraße"/>
    <tag k="building" v="apartments"/>
    <tag k="building:levels" v="4"/>
    <tag k="roof:levels" v="1"/>
    <tag k="roof:shape" v="gabled"/>
  </way>
  <way id="243783020" version="6" timestamp="2023-05-11T21:58:44Z" changeset="135995180" uid="12120321" user="bollyboll">
    <nd ref="2511478057"/>
    <nd ref="2511478155"/>
    <nd ref="2511478091"/>
    <nd ref="2511478120"/>
    <nd ref="2525670040"/>
    <nd ref="2511478141"/>
    <nd ref="2511478057"/>
    <tag k="addr:city" v="München"/>
    <tag k="addr:country" v="DE"/>
    <tag k="addr:housenumber" v="6"/>
    <tag k="addr:postcode" v="80689"/>
    <tag k="addr:street" v="Menaristraße"/>
    <tag k="building" v="apartments"/>
    <tag k="building:levels" v="3"/>
    <tag k="roof:levels" v="1"/>
    <tag k="roof:shape" v="gabled"/>
  </way>
  <way id="243783021" version="5" timestamp="2024-09-24T18:25:33Z" changeset="157052308" uid="13496000" user="geo-d">
    <nd ref="2511478167"/>
    <nd ref="2525712654"/>
    <nd ref="2511478011"/>
    <nd ref="2511478098"/>
    <nd ref="2511478146"/>
    <nd ref="2511478041"/>
    <nd ref="2511478097"/>
    <nd ref="2511478167"/>
    <tag k="addr:city" v="München"/>
    <tag k="addr:country" v="DE"/>
    <tag k="addr:housenumber" v="10"/>
    <tag k="addr:postcode" v="80689"/>
    <tag k="addr:street" v="Konrad-Dreher-Straße"/>
    <tag k="building" v="apartments"/>
  </way>
  <way id="243783022" version="7" timestamp="2022-11-17T22:07:48Z" changeset="129060920" uid="12120321" user="bollyboll">
    <nd ref="2511478166"/>
    <nd ref="2525670009"/>
    <nd ref="2511478227"/>
    <nd ref="2511478075"/>
    <nd ref="2511478217"/>
    <nd ref="2511478215"/>
    <nd ref="2511478166"/>
    <tag k="addr:city" v="München"/>
    <tag k="addr:country" v="DE"/>
    <tag k="addr:housenumber" v="49"/>
    <tag k="addr:postcode" v="80689"/>
    <tag k="addr:street" v="Senftenauerstraße"/>
    <tag k="building" v="apartments"/>
    <tag k="building:levels" v="4"/>
    <tag k="roof:levels" v="1"/>
    <tag k="roof:shape" v="gabled"/>
  </way>
  <way id="243783023" version="7" timestamp="2023-05-11T21:58:42Z" changeset="135995180" uid="12120321" user="bollyboll">
    <nd ref="2511478144"/>
    <nd ref="2511478150"/>
    <nd ref="3709199272"/>
    <nd ref="2511478194"/>
    <nd ref="2511478071"/>
    <nd ref="2525713041"/>
    <nd ref="2511478144"/>
    <tag k="addr:city" v="München"/>
    <tag k="addr:country" v="DE"/>
    <tag k="addr:housenumber" v="6"/>
    <tag k="addr:postcode" v="80689"/>
    <tag k="addr:street" v="Konrad-Dreher-Straße"/>
    <tag k="building" v="apartments"/>
    <tag k="building:levels" v="3"/>
    <tag k="roof:levels" v="1"/>
    <tag k="roof:shape" v="gabled"/>
  </way>
  <way id="243783027" version="5" timestamp="2024-09-24T18:25:33Z" changeset="157052308" uid="13496000" user="geo-d">
    <nd ref="2511478042"/>
    <nd ref="2525712739"/>
    <nd ref="2511478190"/>
    <nd ref="2511478167"/>
    <nd ref="2511478097"/>
    <nd ref="2511478154"/>
    <nd ref="2511478042"/>
    <tag k="addr:city" v="München"/>
    <tag k="addr:country" v="DE"/>
    <tag k="addr:housenumber" v="8"/>
    <tag k="addr:postcode" v="80689"/>
    <tag k="addr:street" v="Konrad-Dreher-Straße"/>
    <tag k="building" v="apartments"/>
  </way>
  <way id="243783029" version="6" timestamp="2022-11-17T22:07:48Z" changeset="129060920" uid="12120321" user="bollyboll">
    <nd ref="2511478047"/>
    <nd ref="2511478158"/>
    <nd ref="2525670078"/>
    <nd ref="2511478002"/>
    <nd ref="2511478113"/>
    <nd ref="2511478008"/>
    <nd ref="2511478047"/>
    <tag k="addr:city" v="München"/>
    <tag k="addr:country" v="DE"/>
    <tag k="addr:housenumber" v="53"/>
    <tag k="addr:postcode" v="80689"/>
    <tag k="addr:street" v="Senftenauerstraße"/>
    <tag k="building" v="apartments"/>
    <tag k="building:levels" v="4"/>
    <tag k="roof:levels" v="1"/>
    <tag k="roof:shape" v="gabled"/>
  </way>
  <way id="245040261" version="3" timestamp="2024-09-23T18:51:40Z" changeset="157009654" uid="13496000" user="geo-d">
    <nd ref="2523004925"/>
    <nd ref="2523004993"/>
    <nd ref="2523004998"/>
    <nd ref="2523004831"/>
    <nd ref="2523004925"/>
    <tag k="addr:city" v="München"/>
    <tag k="addr:country" v="DE"/>
    <tag k="addr:housenumber" v="1c"/>
    <tag k="addr:postcode" v="80689"/>
    <tag k="addr:street" v="Klematisstraße"/>
    <tag k="building" v="detached"/>
    <tag k="building:levels" v="2"/>
    <tag k="roof:levels" v="1"/>
    <tag k="roof:shape" v="mansard"/>
  </way>
  <way id="245041510" version="4" timestamp="2024-09-23T18:47:13Z" changeset="157009502" uid="13496000" user="geo-d">
    <nd ref="2523018359"/>
    <nd ref="2523018355"/>
    <nd ref="2523018358"/>
    <nd ref="2523018390"/>
    <nd ref="2523018359"/>
    <tag k="addr:city" v="München"/>
    <tag k="addr:country" v="DE"/>
    <tag k="addr:housenumber" v="2b"/>
    <tag k="addr:postcode" v="80689"/>
    <tag k="addr:street" v="Veilchenstraße"/>
    <tag k="building" v="detached"/>
    <tag k="building:levels" v="1"/>
    <tag k="roof:levels" v="2"/>
    <tag k="roof:shape" v="gabled"/>
  </way>
  <way id="245360666" version="7" timestamp="2024-09-24T18:25:33Z" changeset="157052308" uid="13496000" user="geo-d">
    <nd ref="2525712494"/>
    <nd ref="12197555245"/>
    <nd ref="2527096051"/>
    <nd ref="4521009101"/>
    <nd ref="12197555244"/>
    <nd ref="2511478126"/>
    <nd ref="2511478195"/>
    <nd ref="2525712494"/>
    <tag k="addr:city" v="München"/>
    <tag k="addr:country" v="DE"/>
    <tag k="addr:housenumber" v="14"/>
    <tag k="addr:postcode" v="80689"/>
    <tag k="addr:street" v="Konrad-Dreher-Straße"/>
    <tag k="building" v="apartments"/>
    <tag k="building:levels" v="5"/>
    <tag k="roof:levels" v="1"/>
    <tag k="roof:shape" v="gabled"/>
  </way>
  <way id="261309986" version="4" timestamp="2024-09-24T18:53:04Z" changeset="157053202" uid="13496000" user="geo-d">
    <nd ref="2669422662"/>
    <nd ref="2669422656"/>
    <nd ref="2669422665"/>
    <nd ref="2669422666"/>
    <nd ref="2669422662"/>
    <tag k="addr:city" v="München"/>
    <tag k="addr:country" v="DE"/>
    <tag k="addr:housenumber" v="16"/>
    <tag k="addr:postcode" v="80689"/>
    <tag k="addr:street" v="Levkojenstraße"/>
    <tag k="building" v="apartments"/>
    <tag k="building:levels" v="2"/>
    <tag k="roof:levels" v="2"/>
    <tag k="roof:shape" v="gabled"/>
  </way>
  <way id="262582451" version="4" timestamp="2023-10-18T18:53:32Z" changeset="142777114" uid="16960231" user="DLystopadov">
    <nd ref="1709161587"/>
    <nd ref="1709161586"/>
    <nd ref="1709161602"/>
    <nd ref="1709161604"/>
    <nd ref="1709161587"/>
    <tag k="addr:housenumber" v="6"/>
    <tag k="addr:street" v="Blumenauer Straße"/>
    <tag k="building" v="retail"/>
    <tag k="building:levels" v="2"/>
    <tag k="roof:colour" v="grey"/>
    <tag k="roof:shape" v="flat"/>
  </way>
  <way id="273078614" version="5" timestamp="2023-11-01T12:53:19Z" changeset="143466852" uid="6285042" user="Biclmont">
    <nd ref="9525218746"/>
    <nd ref="175655776"/>
    <nd ref="2524689246"/>
    <nd ref="2524689323"/>
    <nd ref="2524689422"/>
    <nd ref="175655731"/>
    <tag k="highway" v="residential"/>
    <tag k="lit" v="yes"/>
    <tag k="maxspeed" v="30"/>
    <tag k="name" v="Wastl-Witt-Straße"/>
    <tag k="sidewalk:both" v="separate"/>
    <tag k="surface" v="asphalt"/>
  </way>
  <way id="273331287" version="13" timestamp="2024-06-10T04:37:30Z" changeset="152477700" uid="6285042" user="Biclmont">
    <nd ref="2775375406"/>
    <nd ref="4277455542"/>
    <nd ref="4275943234"/>
    <nd ref="1956072"/>
    <tag k="cycleway:both" v="separate"/>
    <tag k="highway" v="tertiary"/>
    <tag k="lanes" v="3"/>
    <tag k="lanes:backward" v="2"/>
    <tag k="lanes:forward" v="1"/>
    <tag k="lit" v="yes"/>
    <tag k="maxspeed" v="50"/>
    <tag k="maxspeed:conditional" v="30 @ (Mo-Fr 07:00-19:00)"/>
    <tag k="name" v="Blumenauer Straße"/>
    <tag k="parking:both" v="no"/>
    <tag k="sidewalk:both" v="separate"/>
    <tag k="sidewalk:both:surface" v="paving_stones"/>
    <tag k="smoothness" v="excellent"/>
    <tag k="surface" v="asphalt"/>
  </way>
  <way id="280294401" version="12" timestamp="2025-04-01T17:16:20Z" changeset="164385545" uid="12466125" user="townlion">
    <nd ref="1099409109"/>
    <nd ref="2525670030"/>
    <nd ref="31119348"/>
    <nd ref="9864074675"/>
    <nd ref="3905334142"/>
    <nd ref="178788853"/>
    <nd ref="1712761169"/>
    <nd ref="4277455536"/>
    <nd ref="798529062"/>
    <nd ref="798529063"/>
    <nd ref="2525669850"/>
    <nd ref="798529064"/>
    <nd ref="798529065"/>
    <nd ref="4277455564"/>
    <nd ref="4277455566"/>
    <nd ref="31119602"/>
    <tag k="cycleway:both" v="separate"/>
    <tag k="highway" v="tertiary"/>
    <tag k="lit" v="yes"/>
    <tag k="maxspeed" v="50"/>
    <tag k="name" v="Senftenauerstraße"/>
    <tag k="name:etymology:wikidata" v="Q1914008"/>
    <tag k="parking:both" v="yes"/>
    <tag k="parking:both:orientation" v="parallel"/>
    <tag k="sidewalk:both" v="separate"/>
    <tag k="surface" v="asphalt"/>
  </way>
  <way id="284925759" version="6" timestamp="2024-08-07T17:15:50Z" changeset="154946521" uid="2409957" user="firefoxinspace">
    <nd ref="1979046303"/>
    <nd ref="2886219838"/>
    <nd ref="2886219841"/>
    <nd ref="21583534"/>
    <tag k="bicycle" v="use_sidepath"/>
    <tag k="highway" v="tertiary"/>
    <tag k="lanes" v="4"/>
    <tag k="lit" v="yes"/>
    <tag k="maxspeed" v="50"/>
    <tag k="name" v="Silberdistelstraße"/>
    <tag k="oneway" v="yes"/>
    <tag k="sidewalk:left" v="no"/>
    <tag k="sidewalk:right" v="separate"/>
    <tag k="surface" v="asphalt"/>
    <tag k="turn:lanes" v="left|left|through|through;right"/>
  </way>
  <way id="284925760" version="9" timestamp="2025-04-01T07:33:46Z" changeset="164360947" uid="16061279" user="YellowSoul">
    <nd ref="2886219859"/>
    <nd ref="3504804731"/>
    <nd ref="1979046319"/>
    <nd ref="2886219856"/>
    <nd ref="21583533"/>
    <tag k="bicycle" v="yes"/>
    <tag k="cycleway:right" v="separate"/>
    <tag k="highway" v="tertiary"/>
    <tag k="lanes" v="3"/>
    <tag k="lit" v="yes"/>
    <tag k="maxspeed" v="50"/>
    <tag k="name" v="Silberdistelstraße"/>
    <tag k="oneway" v="yes"/>
    <tag k="sidewalk:left" v="no"/>
    <tag k="sidewalk:right" v="separate"/>
    <tag k="surface" v="asphalt"/>
    <tag k="turn:lanes" v="left|through|none"/>
  </way>
  <way id="284925761" version="8" timestamp="2024-03-24T19:27:02Z" changeset="149103343" uid="1281932" user="marcoSt">
    <nd ref="3967121657"/>
    <nd ref="9464247446"/>
    <nd ref="2886219852"/>
    <nd ref="769862575"/>
    <nd ref="21583533"/>
    <tag k="bicycle:lanes:forward" v="no|designated|yes"/>
    <tag k="cycleway:lanes:forward" v="no|lane|no"/>
    <tag k="cycleway:right" v="lane"/>
    <tag k="cycleway:right:bicycle" v="yes"/>
    <tag k="cycleway:right:lane" v="advisory"/>
    <tag k="highway" v="tertiary"/>
    <tag k="lanes" v="3"/>
    <tag k="lanes:backward" v="1"/>
    <tag k="lanes:forward" v="2"/>
    <tag k="maxspeed" v="50"/>
    <tag k="name" v="Terofalstraße"/>
    <tag k="sidewalk:both" v="separate"/>
    <tag k="surface" v="asphalt"/>
    <tag k="turn:lanes:forward" v="left;through|left;through|right"/>
    <tag k="vehicle:lanes:forward" v="yes|no|yes"/>
  </way>
  <way id="284925762" version="8" timestamp="2023-11-01T12:52:05Z" changeset="143466852" uid="6285042" user="Biclmont">
    <nd ref="2145150582"/>
    <nd ref="9464234494"/>
    <nd ref="664268447"/>
    <nd ref="2775375506"/>
    <nd ref="2886219834"/>
    <nd ref="1364767225"/>
    <nd ref="2886219835"/>
    <nd ref="175655542"/>
    <tag k="bicycle:lanes:forward" v="no|designated|yes"/>
    <tag k="class:bicycle" v="-1"/>
    <tag k="cycleway:bicycle" v="yes"/>
    <tag k="cycleway:both" v="lane"/>
    <tag k="cycleway:both:lane" v="advisory"/>
    <tag k="cycleway:lanes:forward" v="no|lane|no"/>
    <tag k="highway" v="tertiary"/>
    <tag k="lanes" v="3"/>
    <tag k="lanes:backward" v="1"/>
    <tag k="lanes:forward" v="2"/>
    <tag k="lit" v="yes"/>
    <tag k="maxspeed" v="50"/>
    <tag k="name" v="Terofalstraße"/>
    <tag k="sidewalk:both" v="separate"/>
    <tag k="surface" v="asphalt"/>
    <tag k="turn:lanes:forward" v="through|through|right"/>
    <tag k="vehicle:lanes:forward" v="yes|no|yes"/>
  </way>
  <way id="286271731" version="4" timestamp="2023-05-11T21:58:41Z" changeset="135995180" uid="12120321" user="bollyboll">
    <nd ref="2507645146"/>
    <nd ref="2507645228"/>
    <nd ref="2899214411"/>
    <nd ref="2525712463"/>
    <nd ref="2899214412"/>
    <nd ref="2507645186"/>
    <nd ref="2507645246"/>
    <nd ref="2507645146"/>
    <tag k="addr:city" v="München"/>
    <tag k="addr:country" v="DE"/>
    <tag k="addr:housenumber" v="9"/>
    <tag k="addr:postcode" v="80689"/>
    <tag k="addr:street" v="Konrad-Dreher-Straße"/>
    <tag k="building" v="apartments"/>
    <tag k="building:levels" v="4"/>
    <tag k="roof:levels" v="1"/>
    <tag k="roof:shape" v="gabled"/>
  </way>
  <way id="289444430" version="5" timestamp="2015-07-25T21:32:04Z" changeset="32879312" uid="287306" user="Matthias Frank">
    <nd ref="267723"/>
    <nd ref="1599091679"/>
    <tag k="bdouble" v="yes"/>
    <tag k="highway" v="motorway"/>
    <tag k="int_ref" v="E 54"/>
    <tag k="lanes" v="4"/>
    <tag k="maxspeed" v="80"/>
    <tag k="note:name" v="Der reg_name, sowie ggf. der loc_name sind dem zugehörigen Wikipediaartikel entnommen."/>
    <tag k="oneway" v="yes"/>
    <tag k="placement" v="middle_of:2"/>
    <tag k="ref" v="A 96"/>
    <tag k="reg_name" v="Ammerseeautobahn"/>
    <tag k="start_date" v="1972"/>
    <tag k="surface" v="asphalt"/>
    <tag k="tmc" v="DE:12959/12960"/>
    <tag k="turn:lanes" v="none|none|none|merge_to_left"/>
  </way>
  <way id="289444434" version="7" timestamp="2025-03-14T13:37:58Z" changeset="163610651" uid="536583" user="Strubbl">
    <nd ref="1716515075"/>
    <nd ref="267721"/>
    <nd ref="8805307261"/>
    <nd ref="267722"/>
    <tag k="bdouble" v="yes"/>
    <tag k="highway" v="motorway"/>
    <tag k="int_ref" v="E 54"/>
    <tag k="lanes" v="3"/>
    <tag k="lit" v="no"/>
    <tag k="maxheight" v="default"/>
    <tag k="maxspeed" v="60"/>
    <tag k="note:name" v="Der reg_name, sowie ggf. der loc_name sind dem zugehörigen Wikipediaartikel entnommen."/>
    <tag k="oneway" v="yes"/>
    <tag k="ref" v="A 96"/>
    <tag k="reg_name" v="Ammerseeautobahn"/>
    <tag k="start_date" v="1972"/>
    <tag k="surface" v="asphalt"/>
    <tag k="tmc" v="DE:12960"/>
  </way>
  <way id="289444437" version="8" timestamp="2021-06-04T21:10:03Z" changeset="105860920" uid="13490185" user="Picasso089">
    <nd ref="267735"/>
    <nd ref="1593504896"/>
    <tag k="bdouble" v="yes"/>
    <tag k="highway" v="motorway"/>
    <tag k="int_ref" v="E 54"/>
    <tag k="lanes" v="4"/>
    <tag k="maxspeed" v="60"/>
    <tag k="note:name" v="Der reg_name, sowie ggf. der loc_name sind dem zugehörigen Wikipediaartikel entnommen."/>
    <tag k="oneway" v="yes"/>
    <tag k="placement" v="middle_of:2"/>
    <tag k="ref" v="A 96"/>
    <tag k="reg_name" v="Ammerseeautobahn"/>
    <tag k="start_date" v="1972"/>
    <tag k="surface" v="asphalt"/>
    <tag k="tmc" v="DE:12960/12961"/>
    <tag k="turn:lanes" v="none|none|none|merge_to_left"/>
  </way>
  <way id="290151887" version="6" timestamp="2021-08-19T15:09:32Z" changeset="109940223" uid="472814" user="paoso">
    <nd ref="2936835265"/>
    <nd ref="9020327296"/>
    <tag k="bdouble" v="yes"/>
    <tag k="destination:country:lanes" v="none;none;CH;none|none;none;CH;none|none;none;CH;none|"/>
    <tag k="destination:lanes" v="Stuttgart;Dreieck München Süd-West;Lindau;München-Freiham-Süd|Stuttgart;Dreieck München Süd-West;Lindau;München-Freiham-Süd|Stuttgart;Dreieck München Süd-West;Lindau;München-Freiham-Süd|Gräfelfing;Gauting;Planegg-Martinsried;München-Pasing"/>
    <tag k="highway" v="motorway"/>
    <tag k="int_ref" v="E 54"/>
    <tag k="lanes" v="4"/>
    <tag k="maxspeed" v="80"/>
    <tag k="note:name" v="Der reg_name, sowie ggf. der loc_name sind dem zugehörigen Wikipediaartikel entnommen."/>
    <tag k="oneway" v="yes"/>
    <tag k="placement" v="middle_of:2"/>
    <tag k="ref" v="A 96"/>
    <tag k="reg_name" v="Ammerseeautobahn"/>
    <tag k="start_date" v="1972"/>
    <tag k="surface" v="asphalt"/>
    <tag k="tmc" v="DE:12959/12960"/>
    <tag k="turn:lanes" v="none|none|none|slight_right"/>
  </way>
  <way id="290151889" version="3" timestamp="2015-07-25T21:32:04Z" changeset="32879312" uid="287306" user="Matthias Frank">
    <nd ref="1599091679"/>
    <nd ref="267715"/>
    <nd ref="292347665"/>
    <nd ref="2936835265"/>
    <tag k="bdouble" v="yes"/>
    <tag k="highway" v="motorway"/>
    <tag k="int_ref" v="E 54"/>
    <tag k="lanes" v="3"/>
    <tag k="maxspeed" v="80"/>
    <tag k="note:name" v="Der reg_name, sowie ggf. der loc_name sind dem zugehörigen Wikipediaartikel entnommen."/>
    <tag k="oneway" v="yes"/>
    <tag k="ref" v="A 96"/>
    <tag k="reg_name" v="Ammerseeautobahn"/>
    <tag k="start_date" v="1972"/>
    <tag k="surface" v="asphalt"/>
    <tag k="tmc" v="DE:12959/12960"/>
  </way>
  <way id="290153183" version="6" timestamp="2021-06-04T21:10:03Z" changeset="105860920" uid="13490185" user="Picasso089">
    <nd ref="2936875423"/>
    <nd ref="1716515075"/>
    <tag k="bdouble" v="yes"/>
    <tag k="destination:country:lanes" v="none;CH;none|none;CH;none|none;CH;none|"/>
    <tag k="destination:lanes" v="Stuttgart;Lindau;Gräfelfing|Stuttgart;Lindau;Gräfelfing|Stuttgart;Lindau;Gräfelfing|München-Blumenau;München-Großhadern"/>
    <tag k="highway" v="motorway"/>
    <tag k="int_ref" v="E 54"/>
    <tag k="lanes" v="4"/>
    <tag k="maxspeed" v="60"/>
    <tag k="note:name" v="Der reg_name, sowie ggf. der loc_name sind dem zugehörigen Wikipediaartikel entnommen."/>
    <tag k="oneway" v="yes"/>
    <tag k="placement" v="middle_of:2"/>
    <tag k="ref" v="A 96"/>
    <tag k="reg_name" v="Ammerseeautobahn"/>
    <tag k="start_date" v="1972"/>
    <tag k="surface" v="asphalt"/>
    <tag k="tmc" v="DE:12960/12961"/>
    <tag k="turn:lanes" v="none|none|none|slight_right"/>
  </way>
  <way id="290153186" version="7" timestamp="2021-12-09T22:58:15Z" changeset="114757012" uid="120636" user="luja">
    <nd ref="1593504896"/>
    <nd ref="292348531"/>
    <nd ref="267727"/>
    <nd ref="292348265"/>
    <nd ref="292348211"/>
    <nd ref="267728"/>
    <nd ref="292348534"/>
    <nd ref="2936875423"/>
    <tag k="bdouble" v="yes"/>
    <tag k="highway" v="motorway"/>
    <tag k="int_ref" v="E 54"/>
    <tag k="lanes" v="3"/>
    <tag k="maxheight" v="default"/>
    <tag k="maxspeed" v="60"/>
    <tag k="note:name" v="Der reg_name, sowie ggf. der loc_name sind dem zugehörigen Wikipediaartikel entnommen."/>
    <tag k="oneway" v="yes"/>
    <tag k="ref" v="A 96"/>
    <tag k="reg_name" v="Ammerseeautobahn"/>
    <tag k="start_date" v="1972"/>
    <tag k="surface" v="asphalt"/>
    <tag k="tmc" v="DE:12960/12961"/>
  </way>
  <way id="293561751" version="11" timestamp="2025-04-09T10:33:44Z" changeset="164717571" uid="22586576" user="veloler">
    <nd ref="1824603611"/>
    <nd ref="175651729"/>
    <nd ref="2525804013"/>
    <nd ref="12719055052"/>
    <nd ref="175651648"/>
    <nd ref="2441696285"/>
    <nd ref="175650417"/>
    <nd ref="2775375525"/>
    <nd ref="2325955509"/>
    <nd ref="4277455915"/>
    <nd ref="2325955507"/>
    <nd ref="1956091"/>
    <nd ref="2325955506"/>
    <nd ref="4277455901"/>
    <nd ref="2775375523"/>
    <nd ref="2669422682"/>
    <nd ref="175658162"/>
    <nd ref="4277455849"/>
    <nd ref="2775375504"/>
    <nd ref="2775375502"/>
    <nd ref="4277455830"/>
    <nd ref="769862600"/>
    <tag k="cycleway:both" v="separate"/>
    <tag k="highway" v="tertiary"/>
    <tag k="lane_markings" v="no"/>
    <tag k="lit" v="yes"/>
    <tag k="maxspeed" v="50"/>
    <tag k="name" v="Senftenauerstraße"/>
    <tag k="name:etymology:wikidata" v="Q1914008"/>
    <tag k="sidewalk" v="separate"/>
    <tag k="source:maxspeed" v="DE:urban"/>
    <tag k="surface" v="asphalt"/>
  </way>
  <way id="293561752" version="9" timestamp="2025-03-14T13:18:13Z" changeset="163609925" uid="16061279" user="YellowSoul">
    <nd ref="1824603610"/>
    <nd ref="132194575"/>
    <tag k="cycleway:both" v="separate"/>
    <tag k="highway" v="tertiary"/>
    <tag k="lane_markings" v="no"/>
    <tag k="lit" v="yes"/>
    <tag k="maxspeed" v="50"/>
    <tag k="name" v="Senftenauerstraße"/>
    <tag k="name:etymology:wikidata" v="Q1914008"/>
    <tag k="sidewalk" v="separate"/>
    <tag k="source:maxspeed" v="DE:urban"/>
    <tag k="surface" v="asphalt"/>
  </way>
  <way id="318893115" version="2" timestamp="2019-11-18T09:18:04Z" changeset="77216251" uid="1675280" user="amgosm">
    <nd ref="21583524"/>
    <nd ref="769862596"/>
    <nd ref="412383922"/>
    <tag k="destination:ref" v="A 96"/>
    <tag k="highway" v="motorway_link"/>
    <tag k="lanes" v="1"/>
    <tag k="maxspeed" v="50"/>
    <tag k="oneway" v="yes"/>
    <tag k="surface" v="asphalt"/>
  </way>
  <way id="318893118" version="5" timestamp="2021-05-18T08:29:42Z" changeset="104873638" uid="9613199" user="WolfgangOSM">
    <nd ref="3252894187"/>
    <nd ref="1716515127"/>
    <nd ref="412383917"/>
    <tag k="destination" v="München-Blumenau;München-Großhadern"/>
    <tag k="highway" v="motorway_link"/>
    <tag k="lanes" v="2"/>
    <tag k="maxspeed" v="50"/>
    <tag k="oneway" v="yes"/>
    <tag k="surface" v="asphalt"/>
    <tag k="turn:lanes" v="left|left;through;right"/>
  </way>
  <way id="319483718" version="7" timestamp="2023-12-04T11:27:19Z" changeset="144750952" uid="2409957" user="firefoxinspace">
    <nd ref="1099409026"/>
    <nd ref="564869"/>
    <tag k="bicycle" v="use_sidepath"/>
    <tag k="foot" v="no"/>
    <tag k="highway" v="secondary"/>
    <tag k="lanes" v="1"/>
    <tag k="lit" v="yes"/>
    <tag k="maxspeed" v="50"/>
    <tag k="name" v="Ammerseestraße"/>
    <tag k="oneway" v="yes"/>
    <tag k="surface" v="asphalt"/>
  </way>
  <way id="384222368" version="6" timestamp="2023-11-01T12:55:07Z" changeset="143466852" uid="6285042" user="Biclmont">
    <nd ref="3875149591"/>
    <nd ref="21583525"/>
    <tag k="bicycle" v="use_sidepath"/>
    <tag k="bridge" v="yes"/>
    <tag k="foot" v="use_sidepath"/>
    <tag k="highway" v="secondary"/>
    <tag k="lanes" v="3"/>
    <tag k="layer" v="1"/>
    <tag k="maxspeed" v="50"/>
    <tag k="name" v="Silberdistelstraße"/>
    <tag k="oneway" v="yes"/>
    <tag k="sidewalk:left" v="no"/>
    <tag k="sidewalk:right" v="separate"/>
    <tag k="surface" v="asphalt"/>
    <tag k="turn:lanes" v="left|left|through"/>
  </way>
  <way id="384222369" version="7" timestamp="2024-08-07T17:15:50Z" changeset="154946521" uid="2409957" user="firefoxinspace">
    <nd ref="1979046301"/>
    <nd ref="412383920"/>
    <tag k="bicycle" v="use_sidepath"/>
    <tag k="highway" v="tertiary"/>
    <tag k="lanes" v="3"/>
    <tag k="lit" v="yes"/>
    <tag k="maxspeed" v="50"/>
    <tag k="name" v="Silberdistelstraße"/>
    <tag k="oneway" v="yes"/>
    <tag k="sidewalk:left" v="no"/>
    <tag k="sidewalk:right" v="separate"/>
    <tag k="smoothness" v="excellent"/>
    <tag k="surface" v="asphalt"/>
    <tag k="turn:lanes" v="|through|through;right"/>
  </way>
  <way id="384222370" version="7" timestamp="2024-08-07T17:15:50Z" changeset="154946521" uid="2409957" user="firefoxinspace">
    <nd ref="21583533"/>
    <nd ref="2886219840"/>
    <nd ref="1979046301"/>
    <tag k="bicycle" v="use_sidepath"/>
    <tag k="foot" v="use_sidepath"/>
    <tag k="highway" v="tertiary"/>
    <tag k="lanes" v="3"/>
    <tag k="lit" v="yes"/>
    <tag k="maxspeed" v="50"/>
    <tag k="name" v="Silberdistelstraße"/>
    <tag k="oneway" v="yes"/>
    <tag k="sidewalk:left" v="no"/>
    <tag k="sidewalk:right" v="separate"/>
    <tag k="smoothness" v="excellent"/>
    <tag k="surface" v="asphalt"/>
  </way>
  <way id="392518626" version="9" timestamp="2023-10-22T09:13:54Z" changeset="142958606" uid="16960231" user="DLystopadov">
    <nd ref="1956072"/>
    <nd ref="4275943237"/>
    <nd ref="4277455556"/>
    <nd ref="2524664034"/>
    <tag k="cycleway:both" v="separate"/>
    <tag k="highway" v="tertiary"/>
    <tag k="lanes" v="3"/>
    <tag k="lanes:backward" v="2"/>
    <tag k="lit" v="yes"/>
    <tag k="maxspeed" v="50"/>
    <tag k="name" v="Blumenauer Straße"/>
    <tag k="sidewalk:both" v="separate"/>
    <tag k="source:maxspeed" v="DE:urban"/>
    <tag k="surface" v="asphalt"/>
    <tag k="turn:lanes:backward" v="left|through;right"/>
  </way>
  <way id="392518627" version="7" timestamp="2023-10-19T09:42:40Z" changeset="142804748" uid="16960231" user="DLystopadov">
    <nd ref="769862579"/>
    <nd ref="4277455818"/>
    <nd ref="3957358333"/>
    <tag k="cycleway:both" v="separate"/>
    <tag k="highway" v="tertiary"/>
    <tag k="lanes:backward" v="2"/>
    <tag k="lanes:forward" v="1"/>
    <tag k="lit" v="yes"/>
    <tag k="maxspeed" v="50"/>
    <tag k="name" v="Senftenauerstraße"/>
    <tag k="sidewalk:both" v="separate"/>
    <tag k="surface" v="asphalt"/>
    <tag k="turn:lanes:backward" v="left|through"/>
  </way>
  <way id="392518628" version="9" timestamp="2024-06-10T04:37:37Z" changeset="152477700" uid="6285042" user="Biclmont">
    <nd ref="4275943238"/>
    <nd ref="1364767295"/>
    <nd ref="1956072"/>
    <tag k="cycleway:both" v="separate"/>
    <tag k="highway" v="tertiary"/>
    <tag k="lanes" v="3"/>
    <tag k="lanes:forward" v="2"/>
    <tag k="lit" v="yes"/>
    <tag k="maxspeed" v="50"/>
    <tag k="name" v="Senftenauerstraße"/>
    <tag k="sidewalk:both" v="separate"/>
    <tag k="source:maxspeed" v="DE:urban"/>
    <tag k="surface" v="asphalt"/>
    <tag k="turn:lanes:forward" v="|right"/>
  </way>
  <way id="392518629" version="7" timestamp="2024-08-07T17:15:50Z" changeset="154946521" uid="2409957" user="firefoxinspace">
    <nd ref="1979047591"/>
    <nd ref="4277455808"/>
    <nd ref="4277455817"/>
    <nd ref="21583537"/>
    <tag k="bicycle" v="use_sidepath"/>
    <tag k="foot" v="use_sidepath"/>
    <tag k="highway" v="tertiary"/>
    <tag k="lanes" v="2"/>
    <tag k="lit" v="yes"/>
    <tag k="maxspeed" v="50"/>
    <tag k="name" v="Silberdistelstraße"/>
    <tag k="oneway" v="yes"/>
    <tag k="sidewalk:left" v="no"/>
    <tag k="sidewalk:right" v="separate"/>
    <tag k="surface" v="asphalt"/>
    <tag k="turn:lanes" v="left|through;right"/>
  </way>
  <way id="392774660" version="4" timestamp="2023-04-09T13:44:51Z" changeset="134688850" uid="18493611" user="MunichWays">
    <nd ref="34506273"/>
    <nd ref="411718880"/>
    <nd ref="132194541"/>
    <tag k="class:bicycle" v="2"/>
    <tag k="foot" v="use_sidepath"/>
    <tag k="highway" v="residential"/>
    <tag k="lit" v="yes"/>
    <tag k="maxspeed" v="30"/>
    <tag k="name" v="Alpenveilchenstraße"/>
    <tag k="smoothness" v="excellent"/>
    <tag k="source:maxspeed" v="DE:zone:30"/>
    <tag k="surface" v="asphalt"/>
  </way>
  <way id="423064420" version="5" timestamp="2023-04-09T13:44:51Z" changeset="134688850" uid="18493611" user="MunichWays">
    <nd ref="197968808"/>
    <nd ref="1888127738"/>
    <nd ref="1888127741"/>
    <nd ref="132194560"/>
    <tag k="class:bicycle" v="1"/>
    <tag k="highway" v="residential"/>
    <tag k="lit" v="yes"/>
    <tag k="maxspeed" v="30"/>
    <tag k="name" v="Willibaldstraße"/>
    <tag k="sidewalk" v="both"/>
    <tag k="smoothness" v="good"/>
    <tag k="surface" v="asphalt"/>
  </way>
  <way id="423064421" version="6" timestamp="2023-11-12T12:44:37Z" changeset="143931930" uid="18493611" user="MunichWays">
    <nd ref="132298977"/>
    <nd ref="2527758111"/>
    <nd ref="2526478965"/>
    <nd ref="2526411996"/>
    <nd ref="3785867480"/>
    <nd ref="2145150219"/>
    <tag k="class:bicycle" v="1"/>
    <tag k="highway" v="residential"/>
    <tag k="lit" v="yes"/>
    <tag k="maxspeed" v="30"/>
    <tag k="name" v="Willibaldstraße"/>
    <tag k="sidewalk" v="both"/>
    <tag k="smoothness" v="excellent"/>
    <tag k="source:maxspeed" v="DE:zone:30"/>
    <tag k="surface" v="asphalt"/>
  </way>
  <way id="428501342" version="8" timestamp="2023-10-19T09:42:17Z" changeset="142804748" uid="16960231" user="DLystopadov">
    <nd ref="1710698122"/>
    <nd ref="4277455551"/>
    <nd ref="4275943238"/>
    <tag k="cycleway:both" v="separate"/>
    <tag k="highway" v="tertiary"/>
    <tag k="lanes" v="3"/>
    <tag k="lanes:forward" v="2"/>
    <tag k="maxspeed" v="50"/>
    <tag k="name" v="Senftenauerstraße"/>
    <tag k="sidewalk:both" v="separate"/>
    <tag k="source:maxspeed" v="DE:urban"/>
    <tag k="surface" v="asphalt"/>
    <tag k="turn:lanes:forward" v="|right"/>
  </way>
  <way id="428501383" version="5" timestamp="2023-10-22T09:16:08Z" changeset="142958062" uid="16960231" user="DLystopadov">
    <nd ref="1956072"/>
    <nd ref="1364767294"/>
    <tag k="cycleway:left" v="separate"/>
    <tag k="cycleway:right" v="no"/>
    <tag k="highway" v="residential"/>
    <tag k="lit" v="yes"/>
    <tag k="maxspeed" v="30"/>
    <tag k="name" v="Wastl-Witt-Straße"/>
    <tag k="sidewalk" v="separate"/>
    <tag k="surface" v="asphalt"/>
  </way>
  <way id="438947911" version="8" timestamp="2025-05-13T07:08:19Z" changeset="166186416" uid="18493611" user="MunichWays">
    <nd ref="11372132715"/>
    <nd ref="2526411988"/>
    <nd ref="175660303"/>
    <nd ref="2527758107"/>
    <nd ref="2527758230"/>
    <nd ref="132299002"/>
    <tag k="class:bicycle" v="1"/>
    <tag k="highway" v="residential"/>
    <tag k="lit" v="yes"/>
    <tag k="maxspeed" v="30"/>
    <tag k="name" v="Kleinhaderner Straße"/>
    <tag k="sidewalk" v="both"/>
    <tag k="smoothness" v="intermediate"/>
    <tag k="surface" v="asphalt"/>
  </way>
  <way id="438947912" version="4" timestamp="2023-04-16T10:15:40Z" changeset="134968565" uid="18493611" user="MunichWays">
    <nd ref="2145150219"/>
    <nd ref="4107471409"/>
    <nd ref="197968808"/>
    <tag k="class:bicycle" v="1"/>
    <tag k="highway" v="residential"/>
    <tag k="lit" v="yes"/>
    <tag k="maxspeed" v="30"/>
    <tag k="name" v="Willibaldstraße"/>
    <tag k="sidewalk" v="both"/>
    <tag k="smoothness" v="good"/>
    <tag k="surface" v="asphalt"/>
  </way>
  <way id="455743140" version="3" timestamp="2024-09-23T18:47:13Z" changeset="157009502" uid="13496000" user="geo-d">
    <nd ref="4521006521"/>
    <nd ref="4521006520"/>
    <nd ref="4521006519"/>
    <nd ref="4521006518"/>
    <nd ref="4521006521"/>
    <tag k="addr:city" v="München"/>
    <tag k="addr:country" v="DE"/>
    <tag k="addr:housenumber" v="2a"/>
    <tag k="addr:postcode" v="80689"/>
    <tag k="addr:street" v="Veilchenstraße"/>
    <tag k="building" v="detached"/>
    <tag k="building:levels" v="2"/>
    <tag k="roof:levels" v="1"/>
    <tag k="roof:shape" v="mansard"/>
  </way>
  <way id="601015685" version="6" timestamp="2024-09-24T18:19:47Z" changeset="157052065" uid="13496000" user="geo-d">
    <nd ref="5713207037"/>
    <nd ref="5713207038"/>
    <nd ref="5713207039"/>
    <nd ref="5713207040"/>
    <nd ref="5713207037"/>
    <tag k="addr:city" v="München"/>
    <tag k="addr:country" v="DE"/>
    <tag k="addr:housenumber" v="39"/>
    <tag k="addr:postcode" v="80689"/>
    <tag k="addr:street" v="Rudi-Seibold-Straße"/>
    <tag k="building" v="apartments"/>
    <tag k="building:levels" v="6"/>
    <tag k="roof:shape" v="flat"/>
  </way>
  <way id="601015686" version="4" timestamp="2024-09-24T18:19:47Z" changeset="157052065" uid="13496000" user="geo-d">
    <nd ref="12197552007"/>
    <nd ref="5713207042"/>
    <nd ref="5713207043"/>
    <nd ref="5713207044"/>
    <nd ref="5713207041"/>
    <nd ref="12197552010"/>
    <nd ref="12197552009"/>
    <nd ref="5713207048"/>
    <nd ref="5713207045"/>
    <nd ref="5713207046"/>
    <nd ref="5713207047"/>
    <nd ref="12197552008"/>
    <nd ref="12197552007"/>
    <tag k="addr:city" v="München"/>
    <tag k="addr:country" v="DE"/>
    <tag k="addr:housenumber" v="39a"/>
    <tag k="addr:postcode" v="80689"/>
    <tag k="addr:street" v="Rudi-Seibold-Straße"/>
    <tag k="building" v="apartments"/>
    <tag k="building:levels" v="3"/>
    <tag k="roof:angle" v="5"/>
    <tag k="roof:shape" v="skillion"/>
  </way>
  <way id="601015688" version="4" timestamp="2024-09-23T17:39:04Z" changeset="157006785" uid="13496000" user="geo-d">
    <nd ref="5713207049"/>
    <nd ref="5713207050"/>
    <nd ref="5713207051"/>
    <nd ref="5713207052"/>
    <nd ref="5713207049"/>
    <tag k="addr:city" v="München"/>
    <tag k="addr:country" v="DE"/>
    <tag k="addr:housenumber" v="46"/>
    <tag k="addr:postcode" v="80689"/>
    <tag k="addr:street" v="Ludlstraße"/>
    <tag k="building" v="apartments"/>
    <tag k="building:levels" v="5"/>
  </way>
  <way id="601015691" version="4" timestamp="2024-09-23T17:39:04Z" changeset="157006785" uid="13496000" user="geo-d">
    <nd ref="5713207061"/>
    <nd ref="5713207062"/>
    <nd ref="5713207063"/>
    <nd ref="5713207064"/>
    <nd ref="5713207061"/>
    <tag k="addr:city" v="München"/>
    <tag k="addr:country" v="DE"/>
    <tag k="addr:housenumber" v="58a"/>
    <tag k="addr:postcode" v="80689"/>
    <tag k="addr:street" v="Ludlstraße"/>
    <tag k="building" v="apartments"/>
    <tag k="building:levels" v="3"/>
    <tag k="roof:angle" v="5"/>
    <tag k="roof:shape" v="skillion"/>
  </way>
  <way id="662930744" version="6" timestamp="2024-03-11T17:21:44Z" changeset="148516409" uid="536583" user="Strubbl">
    <nd ref="6205835275"/>
    <nd ref="8925504324"/>
    <nd ref="6205835276"/>
    <nd ref="6205835277"/>
    <nd ref="6205835278"/>
    <nd ref="6205835279"/>
    <nd ref="6205835275"/>
    <tag k="addr:city" v="München"/>
    <tag k="addr:housenumber" v="12"/>
    <tag k="addr:postcode" v="80689"/>
    <tag k="addr:street" v="Ludlstraße"/>
    <tag k="building" v="yes"/>
    <tag k="building:levels" v="6"/>
    <tag k="name" v="MehrGenerationenWohnhaus"/>
  </way>
  <way id="662930745" version="4" timestamp="2022-07-03T15:43:03Z" changeset="123156143" uid="11758604" user="map per">
    <nd ref="6205835280"/>
    <nd ref="6205835281"/>
    <nd ref="6205835282"/>
    <nd ref="6205835283"/>
    <nd ref="6205835284"/>
    <nd ref="9118639036"/>
    <nd ref="6205835280"/>
    <tag k="addr:city" v="München"/>
    <tag k="addr:country" v="DE"/>
    <tag k="addr:housenumber" v="10"/>
    <tag k="addr:postcode" v="80689"/>
    <tag k="addr:street" v="Ludlstraße"/>
    <tag k="building" v="apartments"/>
  </way>
  <way id="662930749" version="4" timestamp="2022-07-03T15:23:21Z" changeset="123155520" uid="11758604" user="map per">
    <nd ref="6205840727"/>
    <nd ref="6205840728"/>
    <nd ref="6205840729"/>
    <nd ref="9864061334"/>
    <nd ref="6205840730"/>
    <nd ref="6205840731"/>
    <nd ref="6205840727"/>
    <tag k="addr:city" v="München"/>
    <tag k="addr:country" v="DE"/>
    <tag k="addr:housenumber" v="13"/>
    <tag k="addr:postcode" v="80689"/>
    <tag k="addr:street" v="Ludlstraße"/>
    <tag k="building" v="apartments"/>
  </way>
  <way id="662930751" version="3" timestamp="2022-07-03T15:43:03Z" changeset="123156143" uid="11758604" user="map per">
    <nd ref="6205840737"/>
    <nd ref="6205840738"/>
    <nd ref="6205840739"/>
    <nd ref="6205840740"/>
    <nd ref="8925504325"/>
    <nd ref="6205840741"/>
    <nd ref="6205840737"/>
    <tag k="addr:city" v="München"/>
    <tag k="addr:country" v="DE"/>
    <tag k="addr:housenumber" v="8"/>
    <tag k="addr:postcode" v="80689"/>
    <tag k="addr:street" v="Ludlstraße"/>
    <tag k="building" v="apartments"/>
  </way>
  <way id="662930752" version="3" timestamp="2022-07-03T15:43:03Z" changeset="123156143" uid="11758604" user="map per">
    <nd ref="6205840742"/>
    <nd ref="6205840743"/>
    <nd ref="6205840744"/>
    <nd ref="6205840745"/>
    <nd ref="8925504326"/>
    <nd ref="6205840746"/>
    <nd ref="6205840742"/>
    <tag k="addr:city" v="München"/>
    <tag k="addr:country" v="DE"/>
    <tag k="addr:housenumber" v="6"/>
    <tag k="addr:postcode" v="80689"/>
    <tag k="addr:street" v="Ludlstraße"/>
    <tag k="building" v="apartments"/>
  </way>
  <way id="712627195" version="3" timestamp="2024-09-23T17:39:04Z" changeset="157006785" uid="13496000" user="geo-d">
    <nd ref="6700134369"/>
    <nd ref="6700134370"/>
    <nd ref="6700134371"/>
    <nd ref="6700134372"/>
    <nd ref="6700134369"/>
    <tag k="addr:city" v="München"/>
    <tag k="addr:country" v="DE"/>
    <tag k="addr:housenumber" v="50"/>
    <tag k="addr:postcode" v="80689"/>
    <tag k="addr:street" v="Ludlstraße"/>
    <tag k="building" v="apartments"/>
    <tag k="building:levels" v="3"/>
  </way>
  <way id="712627196" version="3" timestamp="2024-09-23T17:39:04Z" changeset="157006785" uid="13496000" user="geo-d">
    <nd ref="6700134373"/>
    <nd ref="6700134374"/>
    <nd ref="6700134375"/>
    <nd ref="6700134376"/>
    <nd ref="6700134373"/>
    <tag k="addr:city" v="München"/>
    <tag k="addr:country" v="DE"/>
    <tag k="addr:housenumber" v="48"/>
    <tag k="addr:postcode" v="80689"/>
    <tag k="addr:street" v="Ludlstraße"/>
    <tag k="building" v="apartments"/>
    <tag k="building:levels" v="3"/>
    <tag k="roof:angle" v="5"/>
    <tag k="roof:shape" v="skillion"/>
  </way>
  <way id="712627198" version="3" timestamp="2024-09-23T17:39:04Z" changeset="157006785" uid="13496000" user="geo-d">
    <nd ref="6700134383"/>
    <nd ref="6700134384"/>
    <nd ref="6700149385"/>
    <nd ref="6700149386"/>
    <nd ref="6700134383"/>
    <tag k="addr:city" v="München"/>
    <tag k="addr:country" v="DE"/>
    <tag k="addr:housenumber" v="57a"/>
    <tag k="addr:postcode" v="80689"/>
    <tag k="addr:street" v="Ludlstraße"/>
    <tag k="building" v="apartments"/>
    <tag k="building:levels" v="3"/>
    <tag k="roof:angle" v="5"/>
    <tag k="roof:shape" v="skillion"/>
  </way>
  <way id="712627199" version="3" timestamp="2024-09-23T17:39:04Z" changeset="157006785" uid="13496000" user="geo-d">
    <nd ref="6700149387"/>
    <nd ref="6700149388"/>
    <nd ref="6700149389"/>
    <nd ref="6700149390"/>
    <nd ref="6700149387"/>
    <tag k="addr:city" v="München"/>
    <tag k="addr:country" v="DE"/>
    <tag k="addr:housenumber" v="57b"/>
    <tag k="addr:postcode" v="80689"/>
    <tag k="addr:street" v="Ludlstraße"/>
    <tag k="building" v="apartments"/>
    <tag k="building:levels" v="3"/>
  </way>
  <way id="759553393" version="3" timestamp="2022-07-03T15:23:21Z" changeset="123155520" uid="11758604" user="map per">
    <nd ref="7095333631"/>
    <nd ref="7095333632"/>
    <nd ref="9864061335"/>
    <nd ref="7095333633"/>
    <nd ref="7095333634"/>
    <nd ref="7095333635"/>
    <nd ref="7095333631"/>
    <tag k="addr:city" v="München"/>
    <tag k="addr:country" v="DE"/>
    <tag k="addr:housenumber" v="15"/>
    <tag k="addr:postcode" v="80689"/>
    <tag k="addr:street" v="Ludlstraße"/>
    <tag k="building" v="apartments"/>
  </way>
  <way id="872190832" version="3" timestamp="2022-07-03T15:23:21Z" changeset="123155520" uid="11758604" user="map per">
    <nd ref="8123582455"/>
    <nd ref="8123582456"/>
    <nd ref="8123582457"/>
    <nd ref="9864061336"/>
    <nd ref="8123582458"/>
    <nd ref="8123582459"/>
    <nd ref="8123582455"/>
    <tag k="addr:city" v="München"/>
    <tag k="addr:country" v="DE"/>
    <tag k="addr:housenumber" v="27"/>
    <tag k="addr:postcode" v="80689"/>
    <tag k="addr:street" v="Ludlstraße"/>
    <tag k="building" v="apartments"/>
  </way>
  <way id="872190833" version="3" timestamp="2022-07-03T15:23:21Z" changeset="123155520" uid="11758604" user="map per">
    <nd ref="8123582460"/>
    <nd ref="9863998910"/>
    <nd ref="8123582461"/>
    <nd ref="8123582462"/>
    <nd ref="8123582463"/>
    <nd ref="8123582464"/>
    <nd ref="8123582460"/>
    <tag k="addr:city" v="München"/>
    <tag k="addr:country" v="DE"/>
    <tag k="addr:housenumber" v="31"/>
    <tag k="addr:postcode" v="80689"/>
    <tag k="addr:street" v="Ludlstraße"/>
    <tag k="building" v="apartments"/>
  </way>
  <way id="872190834" version="3" timestamp="2022-07-03T15:23:21Z" changeset="123155520" uid="11758604" user="map per">
    <nd ref="8123582465"/>
    <nd ref="8123582466"/>
    <nd ref="9863998908"/>
    <nd ref="8123582467"/>
    <nd ref="8123582468"/>
    <nd ref="8123582469"/>
    <nd ref="8123582465"/>
    <tag k="addr:city" v="München"/>
    <tag k="addr:country" v="DE"/>
    <tag k="addr:housenumber" v="29"/>
    <tag k="addr:postcode" v="80689"/>
    <tag k="addr:street" v="Ludlstraße"/>
    <tag k="building" v="apartments"/>
  </way>
  <way id="872190835" version="3" timestamp="2022-07-03T15:23:21Z" changeset="123155520" uid="11758604" user="map per">
    <nd ref="8123582470"/>
    <nd ref="8123582471"/>
    <nd ref="8123582472"/>
    <nd ref="9863998909"/>
    <nd ref="8123582473"/>
    <nd ref="8123582474"/>
    <nd ref="8123582470"/>
    <tag k="addr:city" v="München"/>
    <tag k="addr:country" v="DE"/>
    <tag k="addr:housenumber" v="37"/>
    <tag k="addr:postcode" v="80689"/>
    <tag k="addr:street" v="Ludlstraße"/>
    <tag k="building" v="apartments"/>
  </way>
  <way id="878579158" version="9" timestamp="2024-08-07T17:15:50Z" changeset="154946521" uid="2409957" user="firefoxinspace">
    <nd ref="1099409109"/>
    <nd ref="31388537"/>
    <tag k="cycleway:left" v="no"/>
    <tag k="cycleway:right" v="separate"/>
    <tag k="highway" v="tertiary"/>
    <tag k="lane_markings" v="no"/>
    <tag k="lit" v="yes"/>
    <tag k="maxspeed" v="50"/>
    <tag k="name" v="Senftenauerstraße"/>
    <tag k="name:etymology:wikidata" v="Q1914008"/>
    <tag k="oneway" v="yes"/>
    <tag k="parking:lane:both" v="no"/>
    <tag k="smoothness" v="good"/>
    <tag k="surface" v="asphalt"/>
  </way>
  <way id="974688631" version="1" timestamp="2021-08-19T15:09:32Z" changeset="109940223" uid="472814" user="paoso">
    <nd ref="9020327296"/>
    <nd ref="9020327295"/>
    <tag k="bdouble" v="yes"/>
    <tag k="bridge" v="yes"/>
    <tag k="destination:country:lanes" v="none;none;CH;none|none;none;CH;none|none;none;CH;none|"/>
    <tag k="destination:lanes" v="Stuttgart;Dreieck München Süd-West;Lindau;München-Freiham-Süd|Stuttgart;Dreieck München Süd-West;Lindau;München-Freiham-Süd|Stuttgart;Dreieck München Süd-West;Lindau;München-Freiham-Süd|Gräfelfing;Gauting;Planegg-Martinsried;München-Pasing"/>
    <tag k="highway" v="motorway"/>
    <tag k="int_ref" v="E 54"/>
    <tag k="lanes" v="4"/>
    <tag k="layer" v="1"/>
    <tag k="maxspeed" v="80"/>
    <tag k="note:name" v="Der reg_name, sowie ggf. der loc_name sind dem zugehörigen Wikipediaartikel entnommen."/>
    <tag k="oneway" v="yes"/>
    <tag k="placement" v="middle_of:2"/>
    <tag k="ref" v="A 96"/>
    <tag k="reg_name" v="Ammerseeautobahn"/>
    <tag k="start_date" v="1972"/>
    <tag k="surface" v="asphalt"/>
    <tag k="tmc" v="DE:12959/12960"/>
    <tag k="turn:lanes" v="none|none|none|slight_right"/>
  </way>
  <way id="985636253" version="2" timestamp="2021-12-09T22:57:07Z" changeset="114757012" uid="120636" user="luja">
    <nd ref="267722"/>
    <nd ref="1099427131"/>
    <nd ref="267723"/>
    <tag k="bdouble" v="yes"/>
    <tag k="highway" v="motorway"/>
    <tag k="int_ref" v="E 54"/>
    <tag k="lanes" v="3"/>
    <tag k="maxheight" v="default"/>
    <tag k="maxspeed" v="80"/>
    <tag k="note:name" v="Der reg_name, sowie ggf. der loc_name sind dem zugehörigen Wikipediaartikel entnommen."/>
    <tag k="oneway" v="yes"/>
    <tag k="ref" v="A 96"/>
    <tag k="reg_name" v="Ammerseeautobahn"/>
    <tag k="start_date" v="1972"/>
    <tag k="surface" v="asphalt"/>
    <tag k="tmc" v="DE:12960"/>
  </way>
  <way id="1026502427" version="5" timestamp="2024-03-31T07:54:58Z" changeset="149378804" uid="13987295" user="Arthur B E">
    <nd ref="175655542"/>
    <nd ref="1364767230"/>
    <nd ref="2886219851"/>
    <nd ref="3967122295"/>
    <nd ref="1717861098"/>
    <tag k="class:bicycle" v="-1"/>
    <tag k="cycleway:bicycle" v="yes"/>
    <tag k="cycleway:both" v="lane"/>
    <tag k="cycleway:both:lane" v="advisory"/>
    <tag k="highway" v="tertiary"/>
    <tag k="lanes" v="2"/>
    <tag k="maxspeed" v="50"/>
    <tag k="maxspeed:conditional" v="30 @ (Mo-Fr 07:00-19:00)"/>
    <tag k="name" v="Blumenauer Straße"/>
    <tag k="sidewalk:both" v="separate"/>
    <tag k="surface" v="asphalt"/>
  </way>
  <way id="1026502428" version="8" timestamp="2024-03-24T19:27:02Z" changeset="149103343" uid="1281932" user="marcoSt">
    <nd ref="1364767270"/>
    <nd ref="3506803193"/>
    <nd ref="26781742"/>
    <nd ref="2526842366"/>
    <nd ref="2886219863"/>
    <nd ref="3506803194"/>
    <nd ref="2782065174"/>
    <tag k="cycleway:both" v="separate"/>
    <tag k="highway" v="tertiary"/>
    <tag k="lanes" v="2"/>
    <tag k="lit" v="yes"/>
    <tag k="maxspeed" v="50"/>
    <tag k="maxspeed:conditional" v="30 @ (Mo-Fr 07:00-19:00)"/>
    <tag k="name" v="Blumenauer Straße"/>
    <tag k="parking:both" v="no"/>
    <tag k="sidewalk:both" v="separate"/>
    <tag k="surface" v="asphalt"/>
  </way>
  <way id="1026502429" version="8" timestamp="2024-03-31T10:08:09Z" changeset="149382932" uid="13987295" user="Arthur B E">
    <nd ref="2782065174"/>
    <nd ref="2775375406"/>
    <tag k="cycleway:both" v="separate"/>
    <tag k="highway" v="tertiary"/>
    <tag k="lanes" v="2"/>
    <tag k="lit" v="yes"/>
    <tag k="maxspeed" v="50"/>
    <tag k="maxspeed:conditional" v="30 @ (Mo-Fr 07:00-19:00)"/>
    <tag k="name" v="Blumenauer Straße"/>
    <tag k="parking:both" v="no"/>
    <tag k="sidewalk:both" v="separate"/>
    <tag k="smoothness" v="excellent"/>
    <tag k="surface" v="asphalt"/>
  </way>
  <way id="1026502430" version="4" timestamp="2023-11-01T12:51:50Z" changeset="143466852" uid="6285042" user="Biclmont">
    <nd ref="2481793347"/>
    <nd ref="2775375448"/>
    <nd ref="9464234495"/>
    <tag k="bicycle:lanes:forward" v="no|designated|yes"/>
    <tag k="cycleway:bicycle" v="yes"/>
    <tag k="cycleway:both" v="lane"/>
    <tag k="cycleway:both:lane" v="advisory"/>
    <tag k="cycleway:lanes:forward" v="no|lane|no"/>
    <tag k="highway" v="tertiary"/>
    <tag k="lanes" v="3"/>
    <tag k="lanes:backward" v="1"/>
    <tag k="lanes:forward" v="2"/>
    <tag k="maxspeed" v="50"/>
    <tag k="name" v="Terofalstraße"/>
    <tag k="sidewalk:both" v="separate"/>
    <tag k="surface" v="asphalt"/>
    <tag k="turn:lanes:forward" v="left;through|left;through|right"/>
    <tag k="vehicle:lanes:forward" v="yes|no|yes"/>
  </way>
  <way id="1026502431" version="3" timestamp="2024-03-31T10:07:03Z" changeset="149382989" uid="13987295" user="Arthur B E">
    <nd ref="9464234496"/>
    <nd ref="2886219836"/>
    <nd ref="1364767226"/>
    <nd ref="175655542"/>
    <tag k="cycleway:left" v="lane"/>
    <tag k="cycleway:left:bicycle" v="yes"/>
    <tag k="cycleway:left:lane" v="advisory"/>
    <tag k="highway" v="residential"/>
    <tag k="maxspeed" v="30"/>
    <tag k="name" v="Terofalstraße"/>
    <tag k="parking:lane:left" v="diagonal"/>
    <tag k="parking:lane:right" v="parallel"/>
    <tag k="sidewalk:both" v="separate"/>
    <tag k="surface" v="asphalt"/>
  </way>
  <way id="1033939210" version="2" timestamp="2023-11-01T12:53:16Z" changeset="143466852" uid="6285042" user="Biclmont">
    <nd ref="2775375516"/>
    <nd ref="1717861477"/>
    <nd ref="2524689185"/>
    <nd ref="3758514443"/>
    <nd ref="9525218746"/>
    <tag k="highway" v="residential"/>
    <tag k="maxspeed" v="30"/>
    <tag k="name" v="Wastl-Witt-Straße"/>
    <tag k="sidewalk:both" v="separate"/>
    <tag k="surface" v="asphalt"/>
  </way>
  <way id="1105630047" version="4" timestamp="2024-06-27T15:14:50Z" changeset="153252634" uid="18493611" user="MunichWays">
    <nd ref="10117402709"/>
    <nd ref="132298977"/>
    <tag k="class:bicycle" v="1"/>
    <tag k="highway" v="residential"/>
    <tag k="lit" v="yes"/>
    <tag k="maxspeed" v="30"/>
    <tag k="name" v="Willibaldstraße"/>
    <tag k="sidewalk" v="both"/>
    <tag k="sidewalk:left:surface" v="asphalt"/>
    <tag k="sidewalk:right:surface" v="paving_stones"/>
    <tag k="smoothness" v="good"/>
    <tag k="source:maxspeed" v="DE:zone:30"/>
    <tag k="surface" v="asphalt"/>
  </way>
  <way id="1106752175" version="3" timestamp="2023-04-09T13:44:51Z" changeset="134688850" uid="18493611" user="MunichWays">
    <nd ref="4277455515"/>
    <nd ref="31119348"/>
    <tag k="bicycle" v="yes"/>
    <tag k="class:bicycle" v="1"/>
    <tag k="foot" v="yes"/>
    <tag k="highway" v="residential"/>
    <tag k="maxspeed" v="30"/>
    <tag k="name" v="Ludlstraße"/>
    <tag k="name:etymology:wikidata" v="Q24451184"/>
    <tag k="sidewalk" v="both"/>
    <tag k="smoothness" v="good"/>
    <tag k="surface" v="asphalt"/>
  </way>
  <way id="1115070129" version="4" timestamp="2023-11-23T21:15:41Z" changeset="144383836" uid="12120321" user="bollyboll">
    <nd ref="10198286416"/>
    <nd ref="10198277848"/>
    <tag k="highway" v="residential"/>
    <tag k="lit" v="yes"/>
    <tag k="maxspeed" v="30"/>
    <tag k="name" v="Gladiolenstraße"/>
    <tag k="sidewalk" v="both"/>
    <tag k="sidewalk:left:surface" v="paving_stones"/>
    <tag k="sidewalk:right:surface" v="asphalt"/>
    <tag k="smoothness" v="good"/>
    <tag k="surface" v="asphalt"/>
  </way>
  <way id="1115070130" version="3" timestamp="2023-11-23T21:15:41Z" changeset="144383836" uid="12120321" user="bollyboll">
    <nd ref="10198277848"/>
    <nd ref="175660463"/>
    <tag k="highway" v="residential"/>
    <tag k="lit" v="yes"/>
    <tag k="maxspeed" v="30"/>
    <tag k="name" v="Gladiolenstraße"/>
    <tag k="sidewalk" v="both"/>
    <tag k="sidewalk:both:surface" v="asphalt"/>
    <tag k="smoothness" v="good"/>
    <tag k="surface" v="asphalt"/>
  </way>
  <way id="1115070137" version="2" timestamp="2022-11-17T21:39:54Z" changeset="129060914" uid="12120321" user="bollyboll">
    <nd ref="10198275431"/>
    <nd ref="175660720"/>
    <tag k="highway" v="residential"/>
    <tag k="lit" v="yes"/>
    <tag k="maxspeed" v="30"/>
    <tag k="name" v="Narzissenstraße"/>
    <tag k="sidewalk" v="both"/>
    <tag k="sidewalk:both:surface" v="paving_stones"/>
    <tag k="surface" v="asphalt"/>
  </way>
  <way id="1115070187" version="2" timestamp="2022-11-17T21:40:08Z" changeset="129060914" uid="12120321" user="bollyboll">
    <nd ref="175658785"/>
    <nd ref="10198279967"/>
    <tag k="highway" v="residential"/>
    <tag k="lit" v="yes"/>
    <tag k="maxspeed" v="30"/>
    <tag k="name" v="Ehrenpreisstraße"/>
    <tag k="sidewalk" v="both"/>
    <tag k="sidewalk:left:surface" v="asphalt"/>
    <tag k="sidewalk:right:surface" v="paving_stones"/>
    <tag k="surface" v="asphalt"/>
  </way>
  <way id="1160878386" version="2" timestamp="2023-10-18T07:44:13Z" changeset="142748041" uid="18493611" user="MunichWays">
    <nd ref="1658997050"/>
    <nd ref="1800547524"/>
    <nd ref="31119597"/>
    <tag k="class:bicycle" v="-1"/>
    <tag k="cycleway:both" v="no"/>
    <tag k="highway" v="tertiary"/>
    <tag k="lanes" v="2"/>
    <tag k="lit" v="yes"/>
    <tag k="maxspeed" v="30"/>
    <tag k="name" v="Menaristraße"/>
    <tag k="name:etymology:wikidata" v="Q94777351"/>
    <tag k="smoothness" v="good"/>
    <tag k="surface" v="asphalt"/>
  </way>
  <way id="1164237502" version="4" timestamp="2023-04-20T18:07:47Z" changeset="135162098" uid="12120321" user="bollyboll">
    <nd ref="10827693963"/>
    <nd ref="411718881"/>
    <tag k="highway" v="residential"/>
    <tag k="lit" v="yes"/>
    <tag k="maxspeed" v="30"/>
    <tag k="name" v="Heinrich-Lammel-Straße"/>
    <tag k="parking:left" v="lane"/>
    <tag k="parking:left:orientation" v="parallel"/>
    <tag k="parking:right" v="no"/>
    <tag k="sidewalk" v="both"/>
    <tag k="sidewalk:both:surface" v="asphalt"/>
    <tag k="smoothness" v="excellent"/>
    <tag k="source:maxspeed" v="DE:zone:30"/>
    <tag k="surface" v="asphalt"/>
  </way>
  <way id="1164237507" version="3" timestamp="2023-04-20T18:07:49Z" changeset="135162097" uid="12120321" user="bollyboll">
    <nd ref="10827719660"/>
    <nd ref="132299155"/>
    <tag k="highway" v="residential"/>
    <tag k="lit" v="yes"/>
    <tag k="maxspeed" v="30"/>
    <tag k="name" v="Krokusstraße"/>
    <tag k="sidewalk" v="both"/>
    <tag k="sidewalk:both:surface" v="paving_stones"/>
    <tag k="smoothness" v="good"/>
    <tag k="source:maxspeed" v="DE:zone:30"/>
    <tag k="surface" v="asphalt"/>
  </way>
  <way id="1182310758" version="3" timestamp="2023-06-15T18:00:14Z" changeset="137383731" uid="12120321" user="bollyboll">
    <nd ref="10979329066"/>
    <nd ref="132194549"/>
    <tag k="highway" v="residential"/>
    <tag k="lit" v="yes"/>
    <tag k="maxspeed" v="30"/>
    <tag k="name" v="Amarellenweg"/>
    <tag k="sidewalk" v="both"/>
    <tag k="sidewalk:both:surface" v="paving_stones"/>
    <tag k="smoothness" v="good"/>
    <tag k="surface" v="asphalt"/>
  </way>
  <way id="1187434119" version="3" timestamp="2024-09-23T18:51:40Z" changeset="157009654" uid="13496000" user="geo-d">
    <nd ref="11026596167"/>
    <nd ref="11026596166"/>
    <nd ref="11026596165"/>
    <nd ref="11026596164"/>
    <nd ref="11026596167"/>
    <tag k="addr:city" v="München"/>
    <tag k="addr:country" v="DE"/>
    <tag k="addr:housenumber" v="1b"/>
    <tag k="addr:postcode" v="80689"/>
    <tag k="addr:street" v="Klematisstraße"/>
    <tag k="building" v="apartments"/>
    <tag k="building:levels" v="2"/>
    <tag k="roof:levels" v="1"/>
    <tag k="roof:shape" v="mansard"/>
  </way>
  <way id="1216631254" version="3" timestamp="2023-10-22T09:14:25Z" changeset="142958606" uid="16960231" user="DLystopadov">
    <nd ref="175657186"/>
    <nd ref="4277455575"/>
    <nd ref="2525809634"/>
    <nd ref="175657260"/>
    <nd ref="175657187"/>
    <tag k="cycleway:both" v="no"/>
    <tag k="highway" v="residential"/>
    <tag k="lit" v="yes"/>
    <tag k="maxspeed" v="30"/>
    <tag k="name" v="Brunellenweg"/>
    <tag k="sidewalk" v="both"/>
    <tag k="surface" v="asphalt"/>
  </way>
  <way id="1222937432" version="1" timestamp="2023-11-12T12:44:37Z" changeset="143931930" uid="18493611" user="MunichWays">
    <nd ref="175655774"/>
    <nd ref="1364767279"/>
    <tag k="class:bicycle" v="1"/>
    <tag k="highway" v="residential"/>
    <tag k="maxspeed" v="30"/>
    <tag k="name" v="Flemischweg"/>
    <tag k="smoothness" v="good"/>
  </way>
  <way id="1226327759" version="3" timestamp="2025-05-13T07:08:19Z" changeset="166186416" uid="18493611" user="MunichWays">
    <nd ref="132299002"/>
    <nd ref="2482936549"/>
    <nd ref="132299006"/>
    <tag k="class:bicycle" v="1"/>
    <tag k="highway" v="residential"/>
    <tag k="lit" v="yes"/>
    <tag k="maxspeed" v="30"/>
    <tag k="name" v="Kleinhaderner Straße"/>
    <tag k="sidewalk" v="both"/>
    <tag k="smoothness" v="intermediate"/>
    <tag k="surface" v="asphalt"/>
  </way>
  <way id="1226327760" version="3" timestamp="2023-11-23T21:15:39Z" changeset="144383851" uid="12120321" user="bollyboll">
    <nd ref="2145150219"/>
    <nd ref="3785867479"/>
    <nd ref="11372132210"/>
    <nd ref="2526411980"/>
    <nd ref="11372132715"/>
    <tag k="class:bicycle" v="1"/>
    <tag k="highway" v="residential"/>
    <tag k="lit" v="yes"/>
    <tag k="maxspeed" v="30"/>
    <tag k="name" v="Kleinhaderner Straße"/>
    <tag k="sidewalk" v="both"/>
    <tag k="sidewalk:left:surface" v="asphalt"/>
    <tag k="sidewalk:right:surface" v="paving_stones"/>
    <tag k="smoothness" v="good"/>
    <tag k="surface" v="asphalt"/>
  </way>
  <way id="1246853712" version="3" timestamp="2024-09-24T19:29:36Z" changeset="157054218" uid="13496000" user="geo-d">
    <nd ref="11591608545"/>
    <nd ref="11591608544"/>
    <nd ref="11591608543"/>
    <nd ref="11591608542"/>
    <nd ref="11591608545"/>
    <tag k="addr:city" v="München"/>
    <tag k="addr:country" v="DE"/>
    <tag k="addr:housenumber" v="154a"/>
    <tag k="addr:postcode" v="80689"/>
    <tag k="addr:street" v="Senftenauerstraße"/>
    <tag k="building" v="detached"/>
    <tag k="building:levels" v="1"/>
    <tag k="note" v="Hausnummer fehlt"/>
    <tag k="roof:levels" v="1"/>
    <tag k="roof:shape" v="gabled"/>
  </way>
  <way id="1263183884" version="1" timestamp="2024-03-16T10:09:13Z" changeset="148724128" uid="18493611" user="MunichWays">
    <nd ref="9864074662"/>
    <nd ref="1831310849"/>
    <nd ref="9864074664"/>
    <nd ref="4761514778"/>
    <nd ref="1831310851"/>
    <nd ref="9864074665"/>
    <nd ref="3905334133"/>
    <nd ref="1831310852"/>
    <nd ref="9864074653"/>
    <nd ref="9841290380"/>
    <nd ref="4277455515"/>
    <tag k="bicycle" v="yes"/>
    <tag k="class:bicycle" v="2"/>
    <tag k="foot" v="yes"/>
    <tag k="highway" v="residential"/>
    <tag k="maxspeed" v="30"/>
    <tag k="name" v="Ludlstraße"/>
    <tag k="name:etymology:wikidata" v="Q24451184"/>
    <tag k="smoothness" v="good"/>
    <tag k="surface" v="asphalt"/>
  </way>
  <way id="1265891356" version="1" timestamp="2024-03-24T20:11:10Z" changeset="149104605" uid="1281932" user="marcoSt">
    <nd ref="9464234495"/>
    <nd ref="3967121657"/>
    <tag k="bicycle:lanes:forward" v="no|designated|yes"/>
    <tag k="cycleway:lanes:forward" v="no|lane|no"/>
    <tag k="cycleway:right" v="lane"/>
    <tag k="cycleway:right:bicycle" v="yes"/>
    <tag k="cycleway:right:lane" v="advisory"/>
    <tag k="highway" v="tertiary"/>
    <tag k="lanes" v="3"/>
    <tag k="lanes:backward" v="1"/>
    <tag k="lanes:forward" v="2"/>
    <tag k="maxspeed" v="50"/>
    <tag k="name" v="Terofalstraße"/>
    <tag k="sidewalk:both" v="separate"/>
    <tag k="surface" v="asphalt"/>
    <tag k="turn:lanes:forward" v="left;through|left;through|right"/>
    <tag k="vehicle:lanes:forward" v="yes|no|yes"/>
  </way>
  <relation id="2139330" version="11" timestamp="2024-04-06T19:24:48Z" changeset="149668959" uid="536583" user="Strubbl">
    <member type="way" ref="130564760" role="outer"/>
    <member type="way" ref="159822708" role="inner"/>
    <member type="way" ref="159822713" role="inner"/>
    <tag k="addr:city" v="München"/>
    <tag k="addr:housenumber" v="11"/>
    <tag k="addr:postcode" v="80689"/>
    <tag k="addr:street" v="Blumenauer Straße"/>
    <tag k="amenity" v="school"/>
    <tag k="building" v="school"/>
    <tag k="building:levels" v="3"/>
    <tag k="contact:website" v="https://mittelschule-blumenau.jimdofree.com/"/>
    <tag k="name" v="Mittelschule Blumenau"/>
    <tag k="official_name" v="Mittelschule an der Blumenauer Straße"/>
    <tag k="roof:shape" v="flat"/>
    <tag k="type" v="multipolygon"/>
  </relation>

</osm>
