<?xml version="1.0" encoding="UTF-8"?>
<osm version="0.6" generator="Overpass API 0.7.62.5 1bd436f1">
<note>The data included in this document is from www.openstreetmap.org. The data is made available under ODbL.</note>
<meta osm_base="2025-05-18T03:43:23Z" areas="2024-12-31T00:49:33Z"/>

  <node id="564677" lat="48.1443263" lon="11.5837403" version="4" timestamp="2023-10-02T11:33:19Z" changeset="142034875" uid="206929" user="Supt_of_Printing"/>
  <node id="1954361" lat="48.1468282" lon="11.5795559" version="5" timestamp="2017-10-18T12:38:36Z" changeset="53038496" uid="8748" user="ToniE"/>
  <node id="1954419" lat="48.1489839" lon="11.5805644" version="6" timestamp="2017-10-18T12:38:36Z" changeset="53038496" uid="8748" user="ToniE">
    <tag k="highway" v="traffic_signals"/>
  </node>
  <node id="18280280" lat="48.1522075" lon="11.5822880" version="8" timestamp="2021-01-24T21:00:46Z" changeset="98074729" uid="8647229" user="damoasda"/>
  <node id="18280282" lat="48.1522837" lon="11.5819050" version="6" timestamp="2021-01-24T21:00:46Z" changeset="98074729" uid="8647229" user="damoasda"/>
  <node id="18290982" lat="48.1442751" lon="11.5783681" version="5" timestamp="2011-01-02T15:41:23Z" changeset="6838566" uid="29061" user="KPG"/>
  <node id="20833464" lat="48.1438734" lon="11.5845891" version="6" timestamp="2024-05-03T19:49:19Z" changeset="150853894" uid="11758604" user="map per"/>
  <node id="20833481" lat="48.1455712" lon="11.5768750" version="9" timestamp="2024-05-09T13:28:02Z" changeset="151100362" uid="11758604" user="map per">
    <tag k="TMC:cid_58:tabcd_1:Class" v="Point"/>
    <tag k="TMC:cid_58:tabcd_1:Direction" v="positive"/>
    <tag k="TMC:cid_58:tabcd_1:LCLversion" v="9.00"/>
    <tag k="TMC:cid_58:tabcd_1:LocationCode" v="35336"/>
    <tag k="TMC:cid_58:tabcd_1:NextLocationCode" v="27931"/>
    <tag k="TMC:cid_58:tabcd_1:PrevLocationCode" v="27930"/>
  </node>
  <node id="20982424" lat="48.1453592" lon="11.5788831" version="16" timestamp="2014-07-15T21:10:39Z" changeset="24170007" uid="2675" user="Eckhart Wörner">
    <tag k="TMC:cid_58:tabcd_1:Class" v="Point"/>
    <tag k="TMC:cid_58:tabcd_1:Direction" v="negative"/>
    <tag k="TMC:cid_58:tabcd_1:LCLversion" v="8.00"/>
    <tag k="TMC:cid_58:tabcd_1:LocationCode" v="27931"/>
    <tag k="TMC:cid_58:tabcd_1:NextLocationCode" v="27932"/>
    <tag k="TMC:cid_58:tabcd_1:PrevLocationCode" v="35336"/>
  </node>
  <node id="27152510" lat="48.1501461" lon="11.5839973" version="5" timestamp="2017-10-18T21:30:07Z" changeset="53053272" uid="753289" user="Marsupium"/>
  <node id="27153705" lat="48.1565898" lon="11.5890243" version="6" timestamp="2012-01-28T11:58:26Z" changeset="10520199" uid="42393" user="mawi42"/>
  <node id="282329412" lat="48.1463824" lon="11.5774439" version="4" timestamp="2011-12-14T17:39:00Z" changeset="10117725" uid="367380" user="Mloni"/>
  <node id="344335068" lat="48.1441349" lon="11.5843156" version="3" timestamp="2023-10-02T11:33:19Z" changeset="142034875" uid="206929" user="Supt_of_Printing">
    <tag k="tmc" v="DE:27978"/>
  </node>
  <node id="368339684" lat="48.1513509" lon="11.5815025" version="12" timestamp="2024-12-18T17:46:01Z" changeset="160362148" uid="22290984" user="JZ1">
    <tag k="button_operated" v="no"/>
    <tag k="crossing" v="traffic_signals"/>
    <tag k="highway" v="crossing"/>
    <tag k="tactile_paving" v="yes"/>
    <tag k="traffic_signals:sound" v="yes"/>
    <tag k="traffic_signals:vibration" v="yes"/>
  </node>
  <node id="372796487" lat="48.1501595" lon="11.5809401" version="12" timestamp="2024-10-21T18:07:44Z" changeset="158181992" uid="14742734" user="The_Nickname">
    <tag k="crossing" v="unmarked"/>
    <tag k="crossing:markings" v="no"/>
    <tag k="highway" v="crossing"/>
    <tag k="tactile_paving" v="no"/>
  </node>
  <node id="644629120" lat="48.1455003" lon="11.5776833" version="4" timestamp="2014-07-15T21:10:39Z" changeset="24170007" uid="2675" user="Eckhart Wörner"/>
  <node id="1582278237" lat="48.1442691" lon="11.5830341" version="1" timestamp="2012-01-08T08:20:56Z" changeset="10328673" uid="13832" user="Peter14"/>
  <node id="2965128992" lat="48.1453245" lon="11.5788813" version="1" timestamp="2014-07-15T21:10:17Z" changeset="24170007" uid="2675" user="Eckhart Wörner"/>
  <node id="8042789381" lat="48.1504989" lon="11.5812732" version="1" timestamp="2020-10-24T19:25:22Z" changeset="92997785" uid="11758604" user="map per"/>
  <node id="8042804854" lat="48.1510798" lon="11.5814907" version="1" timestamp="2020-10-24T19:03:24Z" changeset="92997273" uid="11758604" user="map per"/>
  <node id="11049332248" lat="48.1442300" lon="11.5785771" version="1" timestamp="2023-07-16T12:32:27Z" changeset="138577351" uid="12466125" user="townlion"/>
  <way id="4432705" version="15" timestamp="2025-01-26T18:49:55Z" changeset="161791522" uid="40411" user="MrTux">
    <nd ref="27152510"/>
    <nd ref="27152507"/>
    <nd ref="6511636673"/>
    <nd ref="27195164"/>
    <nd ref="27152490"/>
    <tag k="bicycle" v="designated"/>
    <tag k="bicycle_road" v="yes"/>
    <tag k="class:bicycle" v="1"/>
    <tag k="highway" v="residential"/>
    <tag k="lane_markings" v="no"/>
    <tag k="lit" v="yes"/>
    <tag k="maxspeed" v="30"/>
    <tag k="motor_vehicle" v="yes"/>
    <tag k="name" v="Veterinärstraße"/>
    <tag k="note" v="Fahrradstraße im Laufe 2013; Einbahnstraße seit Anfang 2019"/>
    <tag k="sidewalk" v="both"/>
    <tag k="sidewalk:both:surface" v="paving_stones"/>
    <tag k="smoothness" v="excellent"/>
    <tag k="source:maxspeed" v="DE:bicycle_road"/>
    <tag k="surface" v="asphalt"/>
    <tag k="traffic_sign" v="DE:244,DE:Kraftfahrzeuge-frei"/>
    <tag k="vehicle" v="no"/>
  </way>
  <way id="4645402" version="15" timestamp="2025-04-27T19:39:31Z" changeset="165521118" uid="18850925" user="cableway">
    <nd ref="282329412"/>
    <nd ref="372797906"/>
    <nd ref="25274615"/>
    <tag k="cycleway:both" v="no"/>
    <tag k="highway" v="residential"/>
    <tag k="lit" v="yes"/>
    <tag k="maxspeed" v="30"/>
    <tag k="name" v="Rheinbergerstraße"/>
    <tag k="name:etymology:wikidata" v="Q365555"/>
    <tag k="oneway" v="yes"/>
    <tag k="sidewalk" v="both"/>
    <tag k="sidewalk:both:surface" v="paving_stones"/>
    <tag k="smoothness" v="good"/>
    <tag k="surface" v="asphalt"/>
    <tag k="width" v="5.9"/>
  </way>
  <way id="8308075" version="20" timestamp="2024-11-03T13:05:35Z" changeset="158697726" uid="20085156" user="map per StreetComplete">
    <nd ref="20982424"/>
    <nd ref="372798226"/>
    <nd ref="20982426"/>
    <tag k="bicycle" v="use_sidepath"/>
    <tag k="foot" v="use_sidepath"/>
    <tag k="highway" v="secondary"/>
    <tag k="lanes" v="2"/>
    <tag k="lit" v="yes"/>
    <tag k="maxspeed" v="50"/>
    <tag k="name" v="Oskar-von-Miller-Ring"/>
    <tag k="name:etymology:wikidata" v="Q76456"/>
    <tag k="oneway" v="yes"/>
    <tag k="sidewalk:left" v="no"/>
    <tag k="sidewalk:right" v="separate"/>
    <tag k="smoothness" v="good"/>
    <tag k="surface" v="asphalt"/>
  </way>
  <way id="17970443" version="16" timestamp="2022-03-24T20:17:08Z" changeset="118881409" uid="4376164" user="redweizn">
    <nd ref="186008257"/>
    <nd ref="186008259"/>
    <nd ref="186008652"/>
    <nd ref="186009886"/>
    <nd ref="186008261"/>
    <nd ref="186012439"/>
    <nd ref="186008262"/>
    <nd ref="6258685342"/>
    <nd ref="186008257"/>
    <tag k="addr:housenumber" v="28"/>
    <tag k="addr:street" v="Ludwigstraße"/>
    <tag k="building" v="university"/>
    <tag k="building:levels" v="3"/>
    <tag k="roof:levels" v="1"/>
    <tag k="roof:shape" v="gabled"/>
  </way>
  <way id="17970625" version="13" timestamp="2016-11-24T02:38:16Z" changeset="43909338" uid="753289" user="Marsupium">
    <nd ref="186008652"/>
    <nd ref="4466782465"/>
    <nd ref="186009872"/>
    <nd ref="186009874"/>
    <nd ref="4466782441"/>
    <nd ref="4466783244"/>
    <nd ref="4466782472"/>
    <nd ref="186009877"/>
    <nd ref="186009878"/>
    <nd ref="186009879"/>
    <nd ref="186009881"/>
    <nd ref="186009882"/>
    <nd ref="186009883"/>
    <nd ref="4466782459"/>
    <nd ref="186009884"/>
    <nd ref="4466783198"/>
    <nd ref="186009886"/>
    <nd ref="186008652"/>
    <tag k="addr:housenumber" v="28"/>
    <tag k="addr:street" v="Ludwigstraße"/>
    <tag k="building" v="university"/>
  </way>
  <way id="17970872" version="20" timestamp="2020-06-29T16:41:04Z" changeset="87304625" uid="11383922" user="Ductus16">
    <nd ref="186012442"/>
    <nd ref="2548484589"/>
    <nd ref="186011301"/>
    <nd ref="186011302"/>
    <nd ref="186011303"/>
    <nd ref="186011305"/>
    <nd ref="186017787"/>
    <nd ref="186020011"/>
    <nd ref="5991363339"/>
    <nd ref="186011306"/>
    <nd ref="4466782483"/>
    <nd ref="186011307"/>
    <nd ref="186011309"/>
    <nd ref="186009879"/>
    <nd ref="186009881"/>
    <nd ref="186011310"/>
    <nd ref="186012439"/>
    <nd ref="186008262"/>
    <nd ref="186012440"/>
    <nd ref="186012442"/>
    <tag k="addr:city" v="München"/>
    <tag k="addr:country" v="DE"/>
    <tag k="addr:housenumber" v="2"/>
    <tag k="addr:postcode" v="80539"/>
    <tag k="addr:street" v="Professor-Huber-Platz"/>
    <tag k="building" v="university"/>
    <tag k="name" v="Juristisches Seminar"/>
  </way>
  <way id="17971433" version="11" timestamp="2017-07-08T20:20:08Z" changeset="50138913" uid="753289" user="Marsupium">
    <nd ref="186017787"/>
    <nd ref="4466605763"/>
    <nd ref="2543088394"/>
    <nd ref="186020008"/>
    <nd ref="186020010"/>
    <nd ref="4466782449"/>
    <nd ref="4466605762"/>
    <nd ref="186020011"/>
    <nd ref="186017787"/>
    <tag k="building" v="university"/>
    <tag k="name" v="Fritz-Beck-Haus"/>
    <tag k="roof:shape" v="gabled"/>
  </way>
  <way id="19329687" version="28" timestamp="2025-02-28T18:58:46Z" changeset="163065697" uid="18850925" user="cableway">
    <nd ref="200848817"/>
    <nd ref="2836316958"/>
    <nd ref="200848818"/>
    <nd ref="1402091593"/>
    <nd ref="1402091589"/>
    <nd ref="200848821"/>
    <nd ref="200848804"/>
    <nd ref="200848805"/>
    <nd ref="200848807"/>
    <nd ref="390928343"/>
    <nd ref="200848808"/>
    <nd ref="200848811"/>
    <nd ref="200848813"/>
    <nd ref="200848815"/>
    <nd ref="200848817"/>
    <tag k="addr:city" v="München"/>
    <tag k="addr:country" v="DE"/>
    <tag k="addr:housenumber" v="1"/>
    <tag k="addr:postcode" v="80539"/>
    <tag k="addr:street" v="Professor-Huber-Platz"/>
    <tag k="amenity" v="college"/>
    <tag k="building" v="yes"/>
    <tag k="check_date" v="2025-02-28"/>
    <tag k="layer" v="2"/>
    <tag k="name" v="Herzogliches Georgianum"/>
    <tag k="operator" v="Staatliche Stiftung"/>
    <tag k="website" v="http://www.herzoglichesgeorgianum.de/"/>
    <tag k="wheelchair" v="yes"/>
    <tag k="wikidata" v="Q533069"/>
    <tag k="wikipedia" v="de:Herzogliches Georgianum"/>
  </way>
  <way id="19686362" version="14" timestamp="2023-11-11T16:47:06Z" changeset="143907289" uid="18493611" user="MunichWays">
    <nd ref="24550744"/>
    <nd ref="1711901163"/>
    <nd ref="8073893235"/>
    <nd ref="27152653"/>
    <tag k="bicycle" v="yes"/>
    <tag k="class:bicycle" v="1"/>
    <tag k="highway" v="residential"/>
    <tag k="maxspeed" v="30"/>
    <tag k="motor_vehicle" v="destination"/>
    <tag k="motorcycle" v="destination"/>
    <tag k="name" v="Schönfeldstraße"/>
    <tag k="sidewalk" v="both"/>
    <tag k="sidewalk:both:surface" v="paving_stones"/>
    <tag k="smoothness" v="good"/>
    <tag k="surface" v="asphalt"/>
  </way>
  <way id="25440202" version="24" timestamp="2024-05-22T18:22:44Z" changeset="151690979" uid="1717726" user="UKausch">
    <nd ref="277251367"/>
    <nd ref="1133140999"/>
    <nd ref="3637038118"/>
    <nd ref="3637038109"/>
    <nd ref="1133140890"/>
    <nd ref="277251368"/>
    <nd ref="1387428902"/>
    <nd ref="277251369"/>
    <nd ref="277251370"/>
    <nd ref="277251371"/>
    <nd ref="277251374"/>
    <nd ref="277251375"/>
    <nd ref="277251376"/>
    <nd ref="277251377"/>
    <nd ref="277251378"/>
    <nd ref="277251379"/>
    <nd ref="277251380"/>
    <nd ref="4466373457"/>
    <nd ref="4466373453"/>
    <nd ref="277251381"/>
    <nd ref="277251382"/>
    <nd ref="1387428913"/>
    <nd ref="277251367"/>
    <tag k="addr:city" v="München"/>
    <tag k="addr:country" v="DE"/>
    <tag k="addr:housenumber" v="20"/>
    <tag k="addr:postcode" v="80539"/>
    <tag k="addr:street" v="Ludwigstraße"/>
    <tag k="addr:suburb" v="Maxvorstadt"/>
    <tag k="amenity" v="place_of_worship"/>
    <tag k="architect" v="Friedrich von Gärtner"/>
    <tag k="architect:wikidata" v="Q66149"/>
    <tag k="building" v="church"/>
    <tag k="building:architecture" v="rundbogenstil"/>
    <tag k="check_date" v="2024-04-22"/>
    <tag k="denomination" v="catholic"/>
    <tag k="diocese" v="Erzbistum München und Freising"/>
    <tag k="heritage" v="4"/>
    <tag k="heritage:operator" v="BLfD"/>
    <tag k="loc_name" v="Ludwigskirche"/>
    <tag k="name" v="St. Ludwig"/>
    <tag k="ref:BLfD" v="D-1-62-000-4110"/>
    <tag k="religion" v="christian"/>
    <tag k="wheelchair" v="yes"/>
    <tag k="wheelchair:description" v="Aufzug im Nordturm"/>
    <tag k="wikidata" v="Q250951"/>
    <tag k="wikipedia" v="de:St. Ludwig (München)"/>
  </way>
  <way id="25503951" version="16" timestamp="2024-05-24T19:52:55Z" changeset="151786413" uid="1717726" user="UKausch">
    <nd ref="277909289"/>
    <nd ref="84394032"/>
    <nd ref="597772135"/>
    <nd ref="597772136"/>
    <nd ref="277909290"/>
    <nd ref="597772138"/>
    <nd ref="597772139"/>
    <nd ref="2589161371"/>
    <nd ref="597772140"/>
    <nd ref="597772141"/>
    <nd ref="277909291"/>
    <nd ref="597772142"/>
    <nd ref="597772143"/>
    <nd ref="277909296"/>
    <nd ref="2589161375"/>
    <nd ref="597772144"/>
    <nd ref="597772145"/>
    <nd ref="597772146"/>
    <nd ref="597772147"/>
    <nd ref="277909289"/>
    <tag k="building" v="public"/>
    <tag k="building:colour" v="#FFFFE0"/>
    <tag k="building:levels" v="3"/>
    <tag k="heritage" v="4"/>
    <tag k="heritage:operator" v="BLfD"/>
    <tag k="name" v="Prinz-Carl-Palais"/>
    <tag k="ref:BLfD" v="D-1-62-000-3536"/>
    <tag k="roof:shape" v="gabled"/>
    <tag k="wikidata" v="Q880394"/>
    <tag k="wikimedia_commons" v="Category:Prinz-Carl-Palais (München)"/>
    <tag k="wikipedia" v="de:Prinz-Carl-Palais"/>
  </way>
  <way id="28338977" version="16" timestamp="2023-10-02T11:33:19Z" changeset="142034875" uid="206929" user="Supt_of_Printing">
    <nd ref="564677"/>
    <nd ref="11233534554"/>
    <nd ref="20982475"/>
    <nd ref="11233534553"/>
    <nd ref="11233534552"/>
    <nd ref="11233534551"/>
    <nd ref="18290984"/>
    <nd ref="11233456735"/>
    <nd ref="20982476"/>
    <nd ref="299844921"/>
    <nd ref="11233456736"/>
    <nd ref="1788395664"/>
    <nd ref="311237523"/>
    <tag k="bicycle" v="use_sidepath"/>
    <tag k="foot" v="use_sidepath"/>
    <tag k="highway" v="secondary"/>
    <tag k="lanes" v="3"/>
    <tag k="lit" v="yes"/>
    <tag k="maxspeed" v="50"/>
    <tag k="name" v="Von-der-Tann-Straße"/>
    <tag k="name:etymology:wikidata" v="Q76454"/>
    <tag k="oneway" v="yes"/>
    <tag k="surface" v="asphalt"/>
    <tag k="turn:lanes" v="left|left|slight_right"/>
    <tag k="zone:traffic" v="DE:urban"/>
  </way>
  <way id="28338981" version="24" timestamp="2024-05-12T09:22:51Z" changeset="151215829" uid="11758604" user="map per">
    <nd ref="311237534"/>
    <nd ref="1021042389"/>
    <nd ref="11872068331"/>
    <nd ref="11872068330"/>
    <nd ref="11872068328"/>
    <nd ref="11872068329"/>
    <nd ref="20833469"/>
    <nd ref="11872068327"/>
    <nd ref="1021042328"/>
    <nd ref="11872068326"/>
    <nd ref="11872068325"/>
    <nd ref="20833468"/>
    <tag k="bicycle" v="use_sidepath"/>
    <tag k="highway" v="secondary"/>
    <tag k="lanes" v="1"/>
    <tag k="lit" v="yes"/>
    <tag k="maxspeed" v="50"/>
    <tag k="maxweight" v="3.5"/>
    <tag k="motorroad" v="yes"/>
    <tag k="name" v="Altstadtringtunnel"/>
    <tag k="oneway" v="yes"/>
    <tag k="surface" v="asphalt"/>
    <tag k="tmc" v="DE:27931/27932"/>
    <tag k="zone:traffic" v="DE:urban"/>
  </way>
  <way id="33487034" version="25" timestamp="2025-01-26T18:49:55Z" changeset="161791522" uid="40411" user="MrTux">
    <nd ref="27153705"/>
    <nd ref="11971976670"/>
    <nd ref="8615171865"/>
    <nd ref="8615171870"/>
    <nd ref="1608553568"/>
    <nd ref="11971976672"/>
    <nd ref="27153719"/>
    <nd ref="2520283510"/>
    <nd ref="11971976676"/>
    <nd ref="27152626"/>
    <nd ref="11971976675"/>
    <nd ref="27152666"/>
    <nd ref="8867980213"/>
    <nd ref="7520912207"/>
    <nd ref="123995240"/>
    <nd ref="27152627"/>
    <nd ref="1227078071"/>
    <nd ref="27152629"/>
    <nd ref="2414546919"/>
    <nd ref="27152630"/>
    <nd ref="27152631"/>
    <nd ref="27195112"/>
    <nd ref="257086742"/>
    <nd ref="27152632"/>
    <nd ref="27152633"/>
    <nd ref="27152635"/>
    <nd ref="11233757772"/>
    <tag k="bicycle" v="yes"/>
    <tag k="class:bicycle" v="1"/>
    <tag k="cycleway:both" v="no"/>
    <tag k="highway" v="residential"/>
    <tag k="lit" v="yes"/>
    <tag k="maxspeed" v="30"/>
    <tag k="name" v="Königinstraße"/>
    <tag k="sidewalk:both" v="separate"/>
    <tag k="smoothness" v="good"/>
    <tag k="source:maxspeed" v="DE:zone30"/>
    <tag k="surface" v="asphalt"/>
    <tag k="traffic_sign" v="DE:274.1[30]"/>
    <tag k="width" v="6"/>
    <tag k="zone:maxspeed" v="DE:30"/>
  </way>
  <way id="34103723" version="13" timestamp="2024-03-09T17:24:59Z" changeset="148432529" uid="4238158" user="RiderOnTheStorm">
    <nd ref="390926671"/>
    <nd ref="2591632238"/>
    <nd ref="390926672"/>
    <nd ref="2591632202"/>
    <nd ref="2580966412"/>
    <nd ref="2580966409"/>
    <nd ref="2580966403"/>
    <nd ref="2591632182"/>
    <nd ref="2580966400"/>
    <nd ref="2580966402"/>
    <nd ref="2591632180"/>
    <nd ref="2580966405"/>
    <nd ref="2580966406"/>
    <nd ref="2580966415"/>
    <nd ref="390926673"/>
    <nd ref="390926674"/>
    <nd ref="2591632196"/>
    <nd ref="2591632200"/>
    <nd ref="390926671"/>
    <tag k="addr:city" v="München"/>
    <tag k="addr:country" v="DE"/>
    <tag k="addr:housenumber" v="5"/>
    <tag k="addr:postcode" v="80539"/>
    <tag k="addr:street" v="Königinstraße"/>
    <tag k="building" v="yes"/>
    <tag k="consulate" v="consulate_general"/>
    <tag k="country" v="US"/>
    <tag k="diplomatic" v="consulate"/>
    <tag k="name" v="Generalkonsulat der Vereinigten Staaten von Amerika"/>
    <tag k="name:en" v="Consulate General of the United States of America"/>
    <tag k="office" v="diplomatic"/>
    <tag k="opening_hours" v="Mo-Fr 13:00-16:00"/>
    <tag k="phone" v="+49 89 2888-0"/>
    <tag k="target" v="DE"/>
    <tag k="website" v="https://de.usembassy.gov/"/>
  </way>
  <way id="34103818" version="12" timestamp="2024-09-09T13:48:07Z" changeset="156395632" uid="13987295" user="Arthur B E">
    <nd ref="390927383"/>
    <nd ref="968549064"/>
    <nd ref="390927384"/>
    <nd ref="968536592"/>
    <nd ref="390927385"/>
    <nd ref="390927386"/>
    <nd ref="966315286"/>
    <nd ref="390927383"/>
    <tag k="building" v="yes"/>
    <tag k="building:levels" v="3"/>
    <tag k="height" v="17 m"/>
    <tag k="name" v="Staatliches Bauamt München 2"/>
    <tag k="name:de" v="Staatliches Bauamt München 2"/>
    <tag k="office" v="government"/>
    <tag k="roof:colour" v="#a8e1c9"/>
    <tag k="roof:shape" v="hipped"/>
    <tag k="website" v="https://www.stbam2.bayern.de/"/>
  </way>
  <way id="34103841" version="14" timestamp="2024-09-09T13:48:07Z" changeset="156395632" uid="13987295" user="Arthur B E">
    <nd ref="390927722"/>
    <nd ref="1387428909"/>
    <nd ref="390927724"/>
    <nd ref="390927725"/>
    <nd ref="4466373444"/>
    <nd ref="3637038119"/>
    <nd ref="390927726"/>
    <nd ref="3637038111"/>
    <nd ref="390927727"/>
    <nd ref="390927722"/>
    <tag k="addr:city" v="München"/>
    <tag k="addr:country" v="DE"/>
    <tag k="addr:housenumber" v="22"/>
    <tag k="addr:postcode" v="80539"/>
    <tag k="addr:street" v="Ludwigstraße"/>
    <tag k="building" v="yes"/>
    <tag k="building:levels" v="3"/>
    <tag k="check_date" v="2024-04-22"/>
    <tag k="height" v="17m"/>
    <tag k="name" v="Pfarramt St. Ludwig"/>
    <tag k="office" v="religion"/>
    <tag k="roof:colour" v="#a8e1c9"/>
    <tag k="roof:shape" v="hipped"/>
    <tag k="website" v="https://www.st-ludwig-muenchen.de/"/>
    <tag k="wikidata" v="Q41180954"/>
  </way>
  <way id="35881800" version="25" timestamp="2024-05-12T09:22:51Z" changeset="151215829" uid="11758604" user="map per">
    <nd ref="1582278237"/>
    <nd ref="20982466"/>
    <nd ref="344338073"/>
    <nd ref="1582278234"/>
    <nd ref="1582278231"/>
    <nd ref="1582278230"/>
    <tag k="bicycle" v="use_sidepath"/>
    <tag k="highway" v="secondary"/>
    <tag k="lanes" v="1"/>
    <tag k="layer" v="-2"/>
    <tag k="maxspeed" v="50"/>
    <tag k="maxweight" v="3.5"/>
    <tag k="motorroad" v="yes"/>
    <tag k="name" v="Franz-Josef-Strauß-Ring"/>
    <tag k="name:etymology:wikidata" v="Q44620"/>
    <tag k="oneway" v="yes"/>
    <tag k="surface" v="asphalt"/>
    <tag k="tmc" v="DE:27932/27933"/>
    <tag k="tunnel" v="yes"/>
  </way>
  <way id="39321854" version="24" timestamp="2022-09-10T16:18:54Z" changeset="126021832" uid="536583" user="Strubbl">
    <nd ref="1954419"/>
    <nd ref="1078841350"/>
    <nd ref="4466373441"/>
    <nd ref="2739597263"/>
    <nd ref="1041430752"/>
    <tag k="bicycle" v="use_sidepath"/>
    <tag k="foot" v="use_sidepath"/>
    <tag k="highway" v="secondary"/>
    <tag k="lanes" v="6"/>
    <tag k="lanes:backward" v="3"/>
    <tag k="lanes:forward" v="3"/>
    <tag k="lit" v="yes"/>
    <tag k="maxspeed" v="50"/>
    <tag k="name" v="Ludwigstraße"/>
    <tag k="name:etymology:wikidata" v="Q44361"/>
    <tag k="psv" v="yes"/>
    <tag k="sidewalk" v="separate"/>
    <tag k="smoothness" v="good"/>
    <tag k="surface" v="asphalt"/>
    <tag k="tmc" v="DE:27947/46571"/>
    <tag k="turn:lanes:backward" v="through|through|right"/>
    <tag k="wikipedia" v="de:Ludwigstraße"/>
  </way>
  <way id="40317918" version="16" timestamp="2023-10-02T11:33:19Z" changeset="142034875" uid="206929" user="Supt_of_Printing">
    <nd ref="344335068"/>
    <nd ref="20982473"/>
    <nd ref="11233534539"/>
    <nd ref="11233534540"/>
    <nd ref="20833462"/>
    <nd ref="11233534542"/>
    <nd ref="11233534541"/>
    <nd ref="20982474"/>
    <nd ref="20833463"/>
    <tag k="bicycle" v="use_sidepath"/>
    <tag k="foot" v="use_sidepath"/>
    <tag k="highway" v="secondary"/>
    <tag k="lanes" v="2"/>
    <tag k="lit" v="yes"/>
    <tag k="maxspeed" v="50"/>
    <tag k="name" v="Von-der-Tann-Straße"/>
    <tag k="name:etymology:wikidata" v="Q76454"/>
    <tag k="oneway" v="yes"/>
    <tag k="parking:lane:both" v="no_stopping"/>
    <tag k="sidewalk:left" v="no"/>
    <tag k="sidewalk:right" v="separate"/>
    <tag k="surface" v="asphalt"/>
    <tag k="tmc" v="DE:27931/27932"/>
    <tag k="zone:traffic" v="DE:urban"/>
  </way>
  <way id="40317919" version="24" timestamp="2023-01-06T15:15:16Z" changeset="130951695" uid="536583" user="Strubbl">
    <nd ref="25274615"/>
    <nd ref="735102753"/>
    <nd ref="2492630294"/>
    <nd ref="766912223"/>
    <nd ref="20982424"/>
    <tag k="bicycle" v="use_sidepath"/>
    <tag k="foot" v="use_sidepath"/>
    <tag k="highway" v="secondary"/>
    <tag k="lanes" v="7"/>
    <tag k="lanes:backward" v="3"/>
    <tag k="lanes:forward" v="4"/>
    <tag k="lit" v="yes"/>
    <tag k="maxspeed" v="50"/>
    <tag k="name" v="Ludwigstraße"/>
    <tag k="name:etymology:wikidata" v="Q44361"/>
    <tag k="sidewalk" v="separate"/>
    <tag k="smoothness" v="intermediate"/>
    <tag k="surface" v="asphalt"/>
    <tag k="tmc" v="DE:27947/46571"/>
    <tag k="turn:lanes:forward" v="left|left|through|through;right"/>
  </way>
  <way id="40317920" version="21" timestamp="2023-06-12T07:54:58Z" changeset="137232028" uid="29096" user="buergi">
    <nd ref="265086763"/>
    <nd ref="7842713634"/>
    <nd ref="6342094026"/>
    <nd ref="6351290209"/>
    <nd ref="2498451733"/>
    <nd ref="1078841372"/>
    <nd ref="1954361"/>
    <tag k="bicycle" v="use_sidepath"/>
    <tag k="foot" v="use_sidepath"/>
    <tag k="highway" v="secondary"/>
    <tag k="lanes" v="6"/>
    <tag k="lanes:backward" v="3"/>
    <tag k="lanes:forward" v="3"/>
    <tag k="lit" v="yes"/>
    <tag k="maxspeed" v="50"/>
    <tag k="name" v="Ludwigstraße"/>
    <tag k="name:etymology:wikidata" v="Q44361"/>
    <tag k="sidewalk" v="separate"/>
    <tag k="smoothness" v="good"/>
    <tag k="surface" v="asphalt"/>
    <tag k="tmc" v="DE:27947/46571"/>
    <tag k="wikipedia" v="de:Ludwigstraße"/>
  </way>
  <way id="47224976" version="14" timestamp="2023-02-25T20:12:54Z" changeset="133020624" uid="4376164" user="redweizn">
    <nd ref="372796487"/>
    <nd ref="27270924"/>
    <tag k="cycleway:both" v="no"/>
    <tag k="emergency" v="designated"/>
    <tag k="highway" v="residential"/>
    <tag k="lane_markings" v="no"/>
    <tag k="lit" v="yes"/>
    <tag k="maxspeed:type" v="DE:urban"/>
    <tag k="name" v="Geschwister-Scholl-Platz"/>
    <tag k="name:etymology:wikidata" v="Q566212"/>
    <tag k="sidewalk" v="right"/>
    <tag k="sidewalk:right:surface" v="paving_stones"/>
    <tag k="smoothness" v="good"/>
    <tag k="surface" v="asphalt"/>
  </way>
  <way id="47228748" version="20" timestamp="2025-05-09T20:37:46Z" changeset="166045803" uid="18850925" user="cableway">
    <nd ref="27152490"/>
    <nd ref="2795288309"/>
    <nd ref="201978404"/>
    <nd ref="2795288305"/>
    <nd ref="5991363343"/>
    <nd ref="27152484"/>
    <nd ref="2795288306"/>
    <nd ref="2795288312"/>
    <nd ref="201978403"/>
    <nd ref="2795288310"/>
    <nd ref="372800054"/>
    <tag k="bicycle" v="designated"/>
    <tag k="bicycle_road" v="yes"/>
    <tag k="highway" v="residential"/>
    <tag k="lane_markings" v="no"/>
    <tag k="lit" v="yes"/>
    <tag k="maxspeed" v="30"/>
    <tag k="motor_vehicle" v="yes"/>
    <tag k="name" v="Professor-Huber-Platz"/>
    <tag k="name:etymology" v="Kurt Huber"/>
    <tag k="name:etymology:wikidata" v="Q57812"/>
    <tag k="note" v="Fahrradstraße im Laufe 2013, Einbahnstraße seit 03/2017, Stand 05.09.2020 Fahrradstraße"/>
    <tag k="oneway" v="no"/>
    <tag k="oneway:bicycle" v="no"/>
    <tag k="sidewalk" v="both"/>
    <tag k="smoothness" v="good"/>
    <tag k="source:maxspeed" v="DE:bicycle_road"/>
    <tag k="source:width" v="ARCore"/>
    <tag k="surface" v="asphalt"/>
    <tag k="traffic_sign" v="DE:244,DE:Kraftfahrzeuge-frei"/>
    <tag k="vehicle" v="no"/>
    <tag k="width" v="7.2"/>
  </way>
  <way id="47229081" version="14" timestamp="2023-02-25T20:12:56Z" changeset="133020624" uid="4376164" user="redweizn">
    <nd ref="372800054"/>
    <nd ref="27270924"/>
    <tag k="bicycle" v="yes"/>
    <tag k="cycleway:both" v="no"/>
    <tag k="foot" v="yes"/>
    <tag k="highway" v="residential"/>
    <tag k="lane_markings" v="no"/>
    <tag k="lit" v="yes"/>
    <tag k="maxspeed:type" v="DE:urban"/>
    <tag k="name" v="Professor-Huber-Platz"/>
    <tag k="name:etymology:wikidata" v="Q57812"/>
    <tag k="sidewalk" v="left"/>
    <tag k="sidewalk:left:surface" v="paving_stones"/>
    <tag k="smoothness" v="good"/>
    <tag k="surface" v="asphalt"/>
  </way>
  <way id="48242678" version="22" timestamp="2024-06-30T08:55:03Z" changeset="153359541" uid="616774" user="mueschel">
    <nd ref="27270924"/>
    <nd ref="8042789381"/>
    <tag k="bicycle" v="use_sidepath"/>
    <tag k="foot" v="use_sidepath"/>
    <tag k="highway" v="secondary"/>
    <tag k="lanes" v="4"/>
    <tag k="lanes:backward" v="2"/>
    <tag k="lanes:forward" v="2"/>
    <tag k="lit" v="yes"/>
    <tag k="maxspeed" v="50"/>
    <tag k="name" v="Ludwigstraße"/>
    <tag k="name:etymology:wikidata" v="Q44361"/>
    <tag k="note" v="backward ist links temporär eine Busspur"/>
    <tag k="parking:left:authentication:ticket" v="yes"/>
    <tag k="parking:left:authentication:ticket:conditional" v="no @ residents"/>
    <tag k="parking:left:fee" v="1 EUR/hour; 6 EUR/day"/>
    <tag k="parking:left:fee:conditional" v="none @ residents"/>
    <tag k="parking:left:orientation" v="parallel"/>
    <tag k="parking:left:zone:residents" v="Akademieviertel"/>
    <tag k="sidewalk" v="separate"/>
    <tag k="smoothness" v="excellent"/>
    <tag k="surface" v="asphalt"/>
    <tag k="tmc" v="DE:27947/46571"/>
    <tag k="wikipedia" v="de:Ludwigstraße"/>
  </way>
  <way id="50220178" version="25" timestamp="2025-04-06T15:53:02Z" changeset="164597954" uid="137242" user="Rainero">
    <nd ref="8042789381"/>
    <nd ref="8042804856"/>
    <nd ref="8042804855"/>
    <nd ref="8042822508"/>
    <nd ref="8042822509"/>
    <nd ref="8355998129"/>
    <nd ref="8629646101"/>
    <nd ref="201988143"/>
    <nd ref="8631729781"/>
    <nd ref="8042787362"/>
    <nd ref="1080411078"/>
    <nd ref="3953513348"/>
    <nd ref="18280280"/>
    <tag k="bicycle" v="use_sidepath"/>
    <tag k="dual_carriageway" v="yes"/>
    <tag k="foot" v="use_sidepath"/>
    <tag k="highway" v="secondary"/>
    <tag k="lanes" v="2"/>
    <tag k="lit" v="yes"/>
    <tag k="maxspeed" v="50"/>
    <tag k="name" v="Ludwigstraße"/>
    <tag k="name:etymology:wikidata" v="Q44361"/>
    <tag k="oneway" v="yes"/>
    <tag k="sidewalk:left" v="no"/>
    <tag k="sidewalk:right" v="separate"/>
    <tag k="smoothness" v="excellent"/>
    <tag k="surface" v="asphalt"/>
    <tag k="tmc" v="DE:27947/46571"/>
    <tag k="turn:lanes" v="through|through;right"/>
  </way>
  <way id="50636515" version="23" timestamp="2024-11-03T12:07:57Z" changeset="158695142" uid="20085156" user="map per StreetComplete">
    <nd ref="644629120"/>
    <nd ref="2492630262"/>
    <nd ref="644629121"/>
    <nd ref="1955487"/>
    <tag k="bicycle" v="use_sidepath"/>
    <tag k="cycleway:left" v="no"/>
    <tag k="cycleway:right" v="separate"/>
    <tag k="highway" v="secondary"/>
    <tag k="lanes" v="3"/>
    <tag k="lit" v="yes"/>
    <tag k="maxspeed" v="50"/>
    <tag k="name" v="Oskar-von-Miller-Ring"/>
    <tag k="name:etymology:wikidata" v="Q76456"/>
    <tag k="oneway" v="yes"/>
    <tag k="sidewalk" v="separate"/>
    <tag k="smoothness" v="good"/>
    <tag k="surface" v="asphalt"/>
    <tag k="turn:lanes" v="left|left|through;right"/>
  </way>
  <way id="50636516" version="23" timestamp="2024-03-22T15:00:11Z" changeset="149017702" uid="11758604" user="map per">
    <nd ref="1955487"/>
    <nd ref="372799389"/>
    <nd ref="3769568130"/>
    <nd ref="1002798313"/>
    <tag k="bicycle" v="use_sidepath"/>
    <tag k="cycleway" v="separate"/>
    <tag k="foot" v="use_sidepath"/>
    <tag k="highway" v="secondary"/>
    <tag k="lanes" v="1"/>
    <tag k="lit" v="yes"/>
    <tag k="maxspeed" v="50"/>
    <tag k="name" v="Von-der-Tann-Straße"/>
    <tag k="name:etymology:wikidata" v="Q76454"/>
    <tag k="oneway" v="yes"/>
    <tag k="psv" v="yes"/>
    <tag k="sidewalk" v="separate"/>
    <tag k="smoothness" v="good"/>
    <tag k="surface" v="asphalt"/>
  </way>
  <way id="51109545" version="12" timestamp="2023-01-06T15:15:13Z" changeset="130951695" uid="536583" user="Strubbl">
    <nd ref="1955487"/>
    <nd ref="644629128"/>
    <nd ref="20982424"/>
    <tag k="bicycle" v="use_sidepath"/>
    <tag k="foot" v="use_sidepath"/>
    <tag k="highway" v="secondary"/>
    <tag k="lanes" v="6"/>
    <tag k="lanes:backward" v="3"/>
    <tag k="lanes:forward" v="3"/>
    <tag k="lit" v="yes"/>
    <tag k="maxspeed" v="50"/>
    <tag k="name" v="Ludwigstraße"/>
    <tag k="name:etymology:wikidata" v="Q44361"/>
    <tag k="smoothness" v="good"/>
    <tag k="surface" v="asphalt"/>
    <tag k="tmc" v="DE:27947"/>
    <tag k="turn:lanes:backward" v="left|left|through|through"/>
  </way>
  <way id="53471829" version="12" timestamp="2024-05-25T01:08:47Z" changeset="151791983" uid="1717726" user="UKausch">
    <nd ref="675804238"/>
    <nd ref="5175455001"/>
    <nd ref="675804233"/>
    <nd ref="2543088451"/>
    <nd ref="675804234"/>
    <nd ref="675804236"/>
    <nd ref="2548484627"/>
    <nd ref="2548484675"/>
    <nd ref="2548484626"/>
    <nd ref="2548484629"/>
    <nd ref="2548484676"/>
    <nd ref="2548484628"/>
    <nd ref="675804238"/>
    <tag k="building" v="public"/>
    <tag k="heritage" v="4"/>
    <tag k="heritage:operator" v="BLfD"/>
    <tag k="name" v="Palais Seyssel d’Aix"/>
    <tag k="ref:BLfD" v="D-1-62-000-3297"/>
    <tag k="wikidata" v="Q1228868"/>
    <tag k="wikimedia_commons" v="Category:Palais Seyssel d’Aix"/>
    <tag k="wikipedia" v="de:Palais Seyssel d’Aix"/>
  </way>
  <way id="80539398" version="6" timestamp="2023-11-15T01:40:29Z" changeset="144032397" uid="1717726" user="UKausch">
    <nd ref="939602275"/>
    <nd ref="939604745"/>
    <nd ref="939603760"/>
    <nd ref="939605248"/>
    <nd ref="939604065"/>
    <nd ref="939602643"/>
    <nd ref="939602275"/>
    <tag k="addr:city" v="München"/>
    <tag k="addr:country" v="DE"/>
    <tag k="addr:housenumber" v="3"/>
    <tag k="addr:postcode" v="80539"/>
    <tag k="addr:street" v="Walter-Klingenbeck-Weg"/>
    <tag k="amenity" v="kindergarten"/>
    <tag k="building" v="yes"/>
    <tag k="capacity" v="75"/>
    <tag k="check_date" v="2023-08-24"/>
    <tag k="contact:email" v="st-ludwig-2.muenchen@kita.erzbistum-muenchen.de"/>
    <tag k="contact:phone" v="+49 89 287 556 07"/>
    <tag k="contact:website" v="https://www.kindergarten-st-ludwig.de/"/>
    <tag k="max_age" v="7"/>
    <tag k="min_age" v="3"/>
    <tag k="name" v="Kindergarten II St. Ludwig"/>
    <tag k="opening_hours" v="Mo-Th 07:30-17:00; Fr 07:30-16:30"/>
    <tag k="preschool" v="yes"/>
  </way>
  <way id="82108960" version="7" timestamp="2024-05-25T01:08:47Z" changeset="151791983" uid="1717726" user="UKausch">
    <nd ref="956202455"/>
    <nd ref="2548484684"/>
    <nd ref="956201609"/>
    <nd ref="956202377"/>
    <nd ref="956201961"/>
    <nd ref="956202088"/>
    <nd ref="2543088450"/>
    <nd ref="956202137"/>
    <nd ref="956202455"/>
    <tag k="building" v="public"/>
    <tag k="building:levels" v="3"/>
    <tag k="heritage" v="4"/>
    <tag k="heritage:operator" v="BLfD"/>
    <tag k="name" v="Historisches Kolleg"/>
    <tag k="ref:BLfD" v="D-1-62-000-3298"/>
    <tag k="roof:levels" v="1"/>
    <tag k="wikidata" v="Q1737103"/>
    <tag k="wikimedia_commons" v="Category:Kaulbach-Villa (München)"/>
    <tag k="wikipedia" v="de:Kaulbach-Villa (München)"/>
  </way>
  <way id="82108981" version="5" timestamp="2020-07-31T08:13:12Z" changeset="88769802" uid="531886" user="drlellinger">
    <nd ref="956201521"/>
    <nd ref="956201371"/>
    <nd ref="956202314"/>
    <nd ref="956202213"/>
    <nd ref="7772258206"/>
    <nd ref="956201521"/>
    <tag k="addr:city" v="München"/>
    <tag k="addr:country" v="DE"/>
    <tag k="addr:housenumber" v="16"/>
    <tag k="addr:postcode" v="80539"/>
    <tag k="addr:street" v="Kaulbachstraße"/>
    <tag k="building" v="public"/>
    <tag k="source" v="survey by BenE München"/>
  </way>
  <way id="82108988" version="4" timestamp="2017-11-23T07:10:40Z" changeset="54018796" uid="13219" user="Pyrokrat">
    <nd ref="956202236"/>
    <nd ref="956201889"/>
    <nd ref="956202031"/>
    <nd ref="956201778"/>
    <nd ref="956202233"/>
    <nd ref="956201769"/>
    <nd ref="956201793"/>
    <nd ref="956202481"/>
    <nd ref="956201390"/>
    <nd ref="956202529"/>
    <nd ref="956202236"/>
    <tag k="addr:city" v="München"/>
    <tag k="addr:country" v="DE"/>
    <tag k="addr:housename" v="1. Gartenhaus"/>
    <tag k="addr:housenumber" v="35"/>
    <tag k="addr:postcode" v="80539"/>
    <tag k="addr:street" v="Kaulbachstraße"/>
    <tag k="building" v="yes"/>
  </way>
  <way id="82108992" version="3" timestamp="2017-11-23T07:10:40Z" changeset="54018796" uid="13219" user="Pyrokrat">
    <nd ref="956202009"/>
    <nd ref="956202034"/>
    <nd ref="956201533"/>
    <nd ref="956201401"/>
    <nd ref="956202009"/>
    <tag k="addr:city" v="München"/>
    <tag k="addr:country" v="DE"/>
    <tag k="addr:housename" v="2. Gartenhaus"/>
    <tag k="addr:housenumber" v="35"/>
    <tag k="addr:postcode" v="80539"/>
    <tag k="addr:street" v="Kaulbachstraße"/>
    <tag k="building" v="yes"/>
  </way>
  <way id="82108995" version="5" timestamp="2024-10-14T18:05:32Z" changeset="157890386" uid="13496000" user="geo-d">
    <nd ref="956202470"/>
    <nd ref="956202385"/>
    <nd ref="956202094"/>
    <nd ref="956201993"/>
    <nd ref="956202470"/>
    <tag k="addr:city" v="München"/>
    <tag k="addr:country" v="DE"/>
    <tag k="addr:housenumber" v="18"/>
    <tag k="addr:postcode" v="80539"/>
    <tag k="addr:street" v="Kaulbachstraße"/>
    <tag k="building" v="apartments"/>
    <tag k="building:levels" v="2"/>
    <tag k="roof:levels" v="1"/>
    <tag k="roof:shape" v="mansard"/>
  </way>
  <way id="82109028" version="8" timestamp="2023-04-06T14:47:39Z" changeset="134581482" uid="536583" user="Strubbl">
    <nd ref="3169472820"/>
    <nd ref="956202210"/>
    <nd ref="2543088416"/>
    <nd ref="956201865"/>
    <nd ref="956201886"/>
    <nd ref="956201395"/>
    <nd ref="3169472819"/>
    <nd ref="956202004"/>
    <nd ref="956202096"/>
    <nd ref="956201346"/>
    <nd ref="956201517"/>
    <nd ref="3169472820"/>
    <tag k="alt_name" v="Marie-Antonie-Wohnheim"/>
    <tag k="building" v="yes"/>
    <tag k="name" v="Marie-Antonie-Haus"/>
    <tag k="official_name" v="Wohnanlage Kaulbachstraße"/>
    <tag k="website" v="https://www.studierendenwerk-muenchen-oberbayern.de/wohnen/wohnanlagen/muenchen/muenchen-mitte/wohnanlage-kaulbachstrasse/"/>
  </way>
  <way id="82109032" version="8" timestamp="2022-03-25T06:00:12Z" changeset="118891747" uid="4376164" user="redweizn">
    <nd ref="956201671"/>
    <nd ref="3739778635"/>
    <nd ref="3739778634"/>
    <nd ref="3739778633"/>
    <nd ref="2411478547"/>
    <nd ref="956201523"/>
    <nd ref="3739778630"/>
    <nd ref="3739778627"/>
    <nd ref="3739778628"/>
    <nd ref="3739778629"/>
    <nd ref="956202395"/>
    <nd ref="3739778631"/>
    <nd ref="3739778632"/>
    <nd ref="956202417"/>
    <nd ref="3739778637"/>
    <nd ref="3739778636"/>
    <nd ref="956201671"/>
    <tag k="building" v="office"/>
    <tag k="building:levels" v="4"/>
    <tag k="name" v="Defregger-Haus"/>
    <tag k="roof:levels" v="2"/>
    <tag k="roof:shape" v="hipped"/>
    <tag k="wikidata" v="Q41180840"/>
  </way>
  <way id="82109041" version="3" timestamp="2021-03-25T13:04:40Z" changeset="101721682" uid="5542807" user="Nikolas von Randow">
    <nd ref="956202074"/>
    <nd ref="4466782468"/>
    <nd ref="956201584"/>
    <nd ref="956201443"/>
    <nd ref="956202361"/>
    <nd ref="956202074"/>
    <tag k="building" v="university"/>
    <tag k="name" v="Institut für Sinologie"/>
    <tag k="operator" v="LMU"/>
  </way>
  <way id="82109051" version="6" timestamp="2023-04-14T19:27:15Z" changeset="134918461" uid="1717726" user="UKausch">
    <nd ref="2548484623"/>
    <nd ref="956202424"/>
    <nd ref="956201719"/>
    <nd ref="2548484624"/>
    <nd ref="2543088396"/>
    <nd ref="2548484623"/>
    <tag k="building" v="university"/>
    <tag k="building:levels" v="5"/>
    <tag k="name" v="Karl-Neumeyer-Haus"/>
    <tag k="roof:levels" v="1"/>
    <tag k="roof:shape" v="gabled"/>
  </way>
  <way id="82109060" version="6" timestamp="2023-05-24T17:28:12Z" changeset="136510671" uid="3422255" user="Cmcmcm1">
    <nd ref="956202456"/>
    <nd ref="1318875357"/>
    <nd ref="1318875782"/>
    <nd ref="956201612"/>
    <nd ref="956202090"/>
    <nd ref="1318876637"/>
    <nd ref="1318876441"/>
    <nd ref="1318875825"/>
    <nd ref="1318875376"/>
    <nd ref="956202138"/>
    <nd ref="10907343511"/>
    <nd ref="10907343510"/>
    <nd ref="956202456"/>
    <tag k="building" v="yes"/>
    <tag k="name" v="Redemptoristenkloster"/>
  </way>
  <way id="83065809" version="8" timestamp="2024-03-09T17:38:21Z" changeset="148433120" uid="4238158" user="RiderOnTheStorm">
    <nd ref="966314993"/>
    <nd ref="966315101"/>
    <nd ref="966315308"/>
    <nd ref="966315194"/>
    <nd ref="966314935"/>
    <nd ref="966315337"/>
    <nd ref="966315149"/>
    <nd ref="1318875352"/>
    <nd ref="966315033"/>
    <nd ref="966314972"/>
    <nd ref="966315121"/>
    <nd ref="966314955"/>
    <nd ref="2543088428"/>
    <nd ref="2543088429"/>
    <nd ref="966314920"/>
    <nd ref="966315264"/>
    <nd ref="1318875221"/>
    <nd ref="966315010"/>
    <nd ref="966315154"/>
    <nd ref="966315084"/>
    <nd ref="1318876340"/>
    <nd ref="966315231"/>
    <nd ref="966315065"/>
    <nd ref="966315136"/>
    <nd ref="966314981"/>
    <nd ref="2610309720"/>
    <nd ref="966315364"/>
    <nd ref="966315053"/>
    <nd ref="966315223"/>
    <nd ref="966314993"/>
    <tag k="addr:city" v="München"/>
    <tag k="addr:country" v="DE"/>
    <tag k="addr:housenumber" v="31a"/>
    <tag k="addr:postcode" v="80539"/>
    <tag k="addr:street" v="Kaulbachstraße"/>
    <tag k="amenity" v="university"/>
    <tag k="building" v="yes"/>
    <tag k="fax" v="+49 89 2386-2302"/>
    <tag k="name" v="Hochschule für Philosophie"/>
    <tag k="phone" v="+49 89 2386-2301"/>
    <tag k="short_name" v="HfPh"/>
    <tag k="website" v="https://www.hfph.de/"/>
    <tag k="wheelchair" v="yes"/>
    <tag k="wikidata" v="Q881849"/>
    <tag k="wikimedia_commons" v="Category:Hochschule für Philosophie München"/>
    <tag k="wikipedia" v="de:Hochschule für Philosophie München"/>
  </way>
  <way id="83065852" version="4" timestamp="2021-09-28T17:26:36Z" changeset="111828917" uid="5491140" user="sokratis777">
    <nd ref="966315386"/>
    <nd ref="966315225"/>
    <nd ref="966315373"/>
    <nd ref="966314962"/>
    <nd ref="966315118"/>
    <nd ref="966314959"/>
    <nd ref="966314919"/>
    <nd ref="966315284"/>
    <nd ref="966315031"/>
    <nd ref="966315386"/>
    <tag k="building" v="apartments"/>
    <tag k="building:levels" v="4"/>
    <tag k="name" v="Newman-Haus"/>
  </way>
  <way id="83065856" version="3" timestamp="2024-10-14T17:44:47Z" changeset="157889549" uid="13496000" user="geo-d">
    <nd ref="966315132"/>
    <nd ref="12250972409"/>
    <nd ref="12250972410"/>
    <nd ref="12250972411"/>
    <nd ref="12250972412"/>
    <nd ref="12250972413"/>
    <nd ref="12250972414"/>
    <nd ref="12250972415"/>
    <nd ref="12250972416"/>
    <nd ref="966315079"/>
    <nd ref="12250972407"/>
    <nd ref="12250972408"/>
    <nd ref="966314944"/>
    <nd ref="966315261"/>
    <nd ref="966315014"/>
    <nd ref="966315106"/>
    <nd ref="966315173"/>
    <nd ref="966315361"/>
    <nd ref="966315020"/>
    <nd ref="966314952"/>
    <nd ref="966315359"/>
    <nd ref="966315132"/>
    <tag k="addr:city" v="München"/>
    <tag k="addr:housename" v="Rückgebäude"/>
    <tag k="addr:housenumber" v="11"/>
    <tag k="addr:street" v="Königinstraße"/>
    <tag k="building" v="yes"/>
  </way>
  <way id="83612860" version="2" timestamp="2017-03-20T19:48:25Z" changeset="47022017" uid="5525108" user="Florian Brückner">
    <nd ref="973745979"/>
    <nd ref="973746188"/>
    <nd ref="973746077"/>
    <nd ref="973746140"/>
    <nd ref="973745984"/>
    <nd ref="973746040"/>
    <nd ref="973745979"/>
    <tag k="addr:city" v="München"/>
    <tag k="addr:housenumber" v="12"/>
    <tag k="addr:street" v="Von-der-Tann-Straße"/>
    <tag k="building" v="yes"/>
  </way>
  <way id="83612863" version="6" timestamp="2023-05-24T21:03:45Z" changeset="136517766" uid="3422255" user="Cmcmcm1">
    <nd ref="973746055"/>
    <nd ref="2548339227"/>
    <nd ref="2580966506"/>
    <nd ref="2580966503"/>
    <nd ref="2580966504"/>
    <nd ref="973745916"/>
    <nd ref="2580966497"/>
    <nd ref="2580966501"/>
    <nd ref="2580966498"/>
    <nd ref="2580966500"/>
    <nd ref="973746201"/>
    <nd ref="2580966481"/>
    <nd ref="2580966480"/>
    <nd ref="973746015"/>
    <nd ref="10925216178"/>
    <nd ref="973746138"/>
    <nd ref="973746055"/>
    <tag k="amenity" v="hospital"/>
    <tag k="building" v="yes"/>
    <tag k="email" v="info@josephinum.de"/>
    <tag k="healthcare" v="hospital"/>
    <tag k="name" v="Josephinum"/>
    <tag k="phone" v="+49 89 23688-0"/>
    <tag k="website" v="https://www.josephinum.de"/>
  </way>
  <way id="83612905" version="3" timestamp="2013-12-15T15:30:43Z" changeset="19466017" uid="1753028" user="cüper">
    <nd ref="973746054"/>
    <nd ref="973746055"/>
    <nd ref="973746138"/>
    <nd ref="2580966478"/>
    <nd ref="973746022"/>
    <nd ref="973745964"/>
    <nd ref="973746054"/>
    <tag k="addr:housename" v="Corps Arminia"/>
    <tag k="addr:housenumber" v="22"/>
    <tag k="addr:postcode" v="80539"/>
    <tag k="addr:street" v="Schönfeldstraße"/>
    <tag k="building" v="house"/>
    <tag k="designation" v="Akademisches Corps"/>
    <tag k="name" v="Corps Arminia"/>
  </way>
  <way id="83612906" version="9" timestamp="2021-09-28T17:14:46Z" changeset="111828917" uid="5491140" user="sokratis777">
    <nd ref="973746148"/>
    <nd ref="2836183778"/>
    <nd ref="973745929"/>
    <nd ref="973746002"/>
    <nd ref="973746108"/>
    <nd ref="2285922520"/>
    <nd ref="973746063"/>
    <nd ref="973746163"/>
    <nd ref="2285922528"/>
    <nd ref="2285922527"/>
    <nd ref="2285922523"/>
    <nd ref="2285922521"/>
    <nd ref="2285922526"/>
    <nd ref="973746148"/>
    <tag k="addr:city" v="München"/>
    <tag k="addr:country" v="DE"/>
    <tag k="addr:housenumber" v="8"/>
    <tag k="addr:postcode" v="80539"/>
    <tag k="addr:street" v="Ludwigstraße"/>
    <tag k="building" v="apartments"/>
    <tag k="building:levels" v="5"/>
    <tag k="roof:levels" v="1"/>
  </way>
  <way id="86334237" version="9" timestamp="2023-03-20T06:11:52Z" changeset="133883298" uid="4376164" user="redweizn">
    <nd ref="1002798325"/>
    <nd ref="1002798320"/>
    <nd ref="2965128989"/>
    <nd ref="1002798323"/>
    <tag k="bicycle" v="use_sidepath"/>
    <tag k="cycleway:right" v="no"/>
    <tag k="foot" v="use_sidepath"/>
    <tag k="highway" v="secondary_link"/>
    <tag k="lane_markings" v="no"/>
    <tag k="maxspeed" v="50"/>
    <tag k="name" v="Von-der-Tann-Straße"/>
    <tag k="name:etymology:wikidata" v="Q76454"/>
    <tag k="oneway" v="yes"/>
    <tag k="surface" v="asphalt"/>
  </way>
  <way id="86334239" version="9" timestamp="2023-03-20T06:11:50Z" changeset="133883298" uid="4376164" user="redweizn">
    <nd ref="1002798313"/>
    <nd ref="2965128990"/>
    <nd ref="1002798317"/>
    <nd ref="1002798321"/>
    <tag k="bicycle" v="use_sidepath"/>
    <tag k="cycleway:right" v="no"/>
    <tag k="foot" v="use_sidepath"/>
    <tag k="highway" v="secondary_link"/>
    <tag k="lane_markings" v="no"/>
    <tag k="maxspeed" v="50"/>
    <tag k="name" v="Von-der-Tann-Straße"/>
    <tag k="name:etymology:wikidata" v="Q76454"/>
    <tag k="oneway" v="yes"/>
    <tag k="surface" v="asphalt"/>
  </way>
  <way id="86334240" version="14" timestamp="2024-05-12T09:22:51Z" changeset="151215829" uid="11758604" user="map per">
    <nd ref="20833468"/>
    <nd ref="1582278242"/>
    <tag k="bicycle" v="use_sidepath"/>
    <tag k="highway" v="secondary"/>
    <tag k="lanes" v="1"/>
    <tag k="layer" v="-2"/>
    <tag k="lit" v="yes"/>
    <tag k="maxspeed" v="50"/>
    <tag k="motorroad" v="yes"/>
    <tag k="name" v="Altstadtringtunnel"/>
    <tag k="oneway" v="yes"/>
    <tag k="surface" v="asphalt"/>
    <tag k="tmc" v="DE:27931/27932"/>
    <tag k="tunnel" v="yes"/>
  </way>
  <way id="89840540" version="16" timestamp="2024-06-30T08:55:03Z" changeset="153359541" uid="616774" user="mueschel">
    <nd ref="1041430752"/>
    <nd ref="4753785224"/>
    <nd ref="27270924"/>
    <tag k="bicycle" v="use_sidepath"/>
    <tag k="foot" v="use_sidepath"/>
    <tag k="highway" v="secondary"/>
    <tag k="lanes" v="5"/>
    <tag k="lanes:backward" v="2"/>
    <tag k="lanes:forward" v="3"/>
    <tag k="lit" v="yes"/>
    <tag k="maxspeed" v="50"/>
    <tag k="name" v="Ludwigstraße"/>
    <tag k="name:etymology:wikidata" v="Q44361"/>
    <tag k="parking:left:authentication:ticket" v="yes"/>
    <tag k="parking:left:authentication:ticket:conditional" v="no @ residents"/>
    <tag k="parking:left:fee" v="1 EUR/hour; 6 EUR/day"/>
    <tag k="parking:left:fee:conditional" v="none @ residents"/>
    <tag k="parking:left:orientation" v="parallel"/>
    <tag k="parking:left:zone:residents" v="Akademieviertel"/>
    <tag k="sidewalk" v="separate"/>
    <tag k="smoothness" v="good"/>
    <tag k="surface" v="asphalt"/>
    <tag k="tmc" v="DE:27947/46571"/>
    <tag k="wikipedia" v="de:Ludwigstraße"/>
  </way>
  <way id="93192035" version="15" timestamp="2025-04-06T15:53:02Z" changeset="164597954" uid="137242" user="Rainero">
    <nd ref="368339684"/>
    <nd ref="8042822506"/>
    <nd ref="8355998129"/>
    <tag k="class:bicycle" v="2"/>
    <tag k="cycleway:both" v="no"/>
    <tag k="highway" v="residential"/>
    <tag k="lane_markings" v="no"/>
    <tag k="lit" v="yes"/>
    <tag k="maxspeed" v="50"/>
    <tag k="maxspeed:type" v="DE:urban"/>
    <tag k="name" v="Adalbertstraße"/>
    <tag k="name:etymology:wikidata" v="Q60610"/>
    <tag k="oneway" v="yes"/>
    <tag k="oneway:bicycle" v="no"/>
    <tag k="smoothness" v="good"/>
    <tag k="surface" v="asphalt"/>
  </way>
  <way id="93192044" version="14" timestamp="2025-04-06T15:53:02Z" changeset="164597954" uid="137242" user="Rainero">
    <nd ref="18280280"/>
    <nd ref="372801240"/>
    <nd ref="257086734"/>
    <nd ref="257086736"/>
    <nd ref="4466783203"/>
    <nd ref="1288250871"/>
    <tag k="highway" v="residential"/>
    <tag k="lanes" v="2"/>
    <tag k="lit" v="yes"/>
    <tag k="maxspeed" v="30"/>
    <tag k="name" v="Schackstraße"/>
    <tag k="name:etymology:wikidata" v="Q63876"/>
    <tag k="sidewalk" v="both"/>
    <tag k="sidewalk:both:surface" v="paving_stones"/>
    <tag k="smoothness" v="good"/>
    <tag k="surface" v="asphalt"/>
    <tag k="turn:lanes:backward" v="right"/>
  </way>
  <way id="93192053" version="6" timestamp="2022-10-27T16:15:13Z" changeset="128137177" uid="12120321" user="bollyboll">
    <nd ref="27152653"/>
    <nd ref="265086762"/>
    <tag k="bicycle" v="yes"/>
    <tag k="cycleway:both" v="no"/>
    <tag k="highway" v="residential"/>
    <tag k="maxspeed" v="30"/>
    <tag k="maxspeed:type" v="DE:zone30"/>
    <tag k="motor_vehicle" v="destination"/>
    <tag k="motorcycle" v="destination"/>
    <tag k="name" v="Schönfeldstraße"/>
    <tag k="sidewalk" v="both"/>
    <tag k="sidewalk:left:surface" v="paving_stones"/>
    <tag k="sidewalk:right:surface" v="asphalt"/>
    <tag k="smoothness" v="intermediate"/>
    <tag k="surface" v="asphalt"/>
  </way>
  <way id="93192054" version="5" timestamp="2022-03-17T17:48:57Z" changeset="118604198" uid="4376164" user="redweizn">
    <nd ref="392372714"/>
    <nd ref="265086232"/>
    <tag k="cycleway:both" v="no"/>
    <tag k="highway" v="residential"/>
    <tag k="maxspeed:type" v="DE:urban"/>
    <tag k="name" v="Hahnenstraße"/>
    <tag k="oneway" v="yes"/>
    <tag k="sidewalk" v="no"/>
    <tag k="smoothness" v="good"/>
    <tag k="surface" v="asphalt"/>
  </way>
  <way id="117075241" version="7" timestamp="2024-08-26T01:57:17Z" changeset="155760526" uid="1717726" user="UKausch">
    <nd ref="1318876625"/>
    <nd ref="1318875201"/>
    <nd ref="10594436416"/>
    <nd ref="1318875370"/>
    <nd ref="1318875571"/>
    <nd ref="1318876625"/>
    <tag k="building" v="university"/>
    <tag k="building:levels" v="5"/>
    <tag k="name" v="Nano-Institut der Ludwig-Maximilians-Universität München"/>
    <tag k="roof:shape" v="flat"/>
  </way>
  <way id="117075251" version="2" timestamp="2014-01-05T00:33:54Z" changeset="19815906" uid="13219" user="Pyrokrat">
    <nd ref="1318875267"/>
    <nd ref="1318875450"/>
    <nd ref="1318875649"/>
    <nd ref="1318875956"/>
    <nd ref="1318875267"/>
    <tag k="addr:city" v="München"/>
    <tag k="addr:country" v="DE"/>
    <tag k="addr:housenumber" v="29b"/>
    <tag k="addr:postcode" v="80539"/>
    <tag k="addr:street" v="Kaulbachstraße"/>
    <tag k="building" v="yes"/>
    <tag k="source" v="survey 2 January 2014"/>
  </way>
  <way id="118282022" version="14" timestamp="2024-11-03T13:05:35Z" changeset="158697726" uid="20085156" user="map per StreetComplete">
    <nd ref="1002798321"/>
    <nd ref="2836183768"/>
    <nd ref="2492630248"/>
    <nd ref="6637187112"/>
    <nd ref="372799397"/>
    <nd ref="20982424"/>
    <tag k="bicycle" v="use_sidepath"/>
    <tag k="foot" v="use_sidepath"/>
    <tag k="highway" v="secondary"/>
    <tag k="lanes" v="3"/>
    <tag k="lit" v="yes"/>
    <tag k="maxspeed" v="50"/>
    <tag k="name" v="Von-der-Tann-Straße"/>
    <tag k="name:etymology:wikidata" v="Q76454"/>
    <tag k="oneway" v="yes"/>
    <tag k="parking:lane:both" v="no_stopping"/>
    <tag k="sidewalk:left" v="no"/>
    <tag k="sidewalk:right" v="separate"/>
    <tag k="surface" v="asphalt"/>
    <tag k="turn:lanes" v="left;through|right|right"/>
  </way>
  <way id="118282031" version="15" timestamp="2024-11-03T12:13:02Z" changeset="158695142" uid="20085156" user="map per StreetComplete">
    <nd ref="1002798313"/>
    <nd ref="1002798323"/>
    <nd ref="18941862"/>
    <nd ref="18290983"/>
    <tag k="bicycle" v="use_sidepath"/>
    <tag k="cycleway:left" v="no"/>
    <tag k="cycleway:right" v="separate"/>
    <tag k="foot" v="use_sidepath"/>
    <tag k="highway" v="secondary"/>
    <tag k="horse" v="no"/>
    <tag k="lanes" v="1"/>
    <tag k="lit" v="yes"/>
    <tag k="maxspeed" v="50"/>
    <tag k="name" v="Von-der-Tann-Straße"/>
    <tag k="name:etymology:wikidata" v="Q76454"/>
    <tag k="oneway" v="yes"/>
    <tag k="sidewalk" v="separate"/>
    <tag k="sidewalk:right:surface" v="paving_stones"/>
    <tag k="surface" v="asphalt"/>
  </way>
  <way id="123499640" version="12" timestamp="2023-01-06T15:15:18Z" changeset="130951695" uid="536583" user="Strubbl">
    <nd ref="2498451730"/>
    <nd ref="25274615"/>
    <tag k="bicycle" v="use_sidepath"/>
    <tag k="foot" v="use_sidepath"/>
    <tag k="highway" v="secondary"/>
    <tag k="lanes" v="6"/>
    <tag k="lanes:backward" v="3"/>
    <tag k="lanes:forward" v="3"/>
    <tag k="lit" v="yes"/>
    <tag k="maxspeed" v="50"/>
    <tag k="name" v="Ludwigstraße"/>
    <tag k="name:etymology:wikidata" v="Q44361"/>
    <tag k="psv" v="yes"/>
    <tag k="sidewalk" v="separate"/>
    <tag k="smoothness" v="good"/>
    <tag k="surface" v="asphalt"/>
    <tag k="tmc" v="DE:27947/46571"/>
  </way>
  <way id="144692953" version="13" timestamp="2024-05-09T13:28:02Z" changeset="151100362" uid="11758604" user="map per">
    <nd ref="20833481"/>
    <nd ref="11891395760"/>
    <nd ref="2965128996"/>
    <nd ref="11891395761"/>
    <nd ref="2965128995"/>
    <nd ref="2965128994"/>
    <nd ref="1582278248"/>
    <nd ref="2965128991"/>
    <tag k="bicycle" v="use_sidepath"/>
    <tag k="cycleway" v="no"/>
    <tag k="highway" v="secondary"/>
    <tag k="lanes" v="2"/>
    <tag k="layer" v="-2"/>
    <tag k="lit" v="yes"/>
    <tag k="maxspeed" v="50"/>
    <tag k="maxweight" v="3.5"/>
    <tag k="motorroad" v="yes"/>
    <tag k="name" v="Altstadtringtunnel"/>
    <tag k="oneway" v="yes"/>
    <tag k="surface" v="asphalt"/>
    <tag k="tmc" v="DE:35336/27931"/>
    <tag k="tunnel" v="yes"/>
    <tag k="tunnel:name" v="Altstadtringtunnel"/>
  </way>
  <way id="144692954" version="20" timestamp="2024-05-10T20:27:57Z" changeset="151163398" uid="11758604" user="map per">
    <nd ref="20833464"/>
    <nd ref="1582278242"/>
    <tag k="bicycle" v="use_sidepath"/>
    <tag k="cycleway" v="no"/>
    <tag k="highway" v="secondary"/>
    <tag k="lanes" v="2"/>
    <tag k="layer" v="-2"/>
    <tag k="maxspeed" v="50"/>
    <tag k="maxweight" v="3.5"/>
    <tag k="motorroad" v="yes"/>
    <tag k="name" v="Altstadtringtunnel"/>
    <tag k="oneway" v="yes"/>
    <tag k="surface" v="asphalt"/>
    <tag k="tunnel" v="yes"/>
    <tag k="tunnel:name" v="Altstadtringtunnel"/>
  </way>
  <way id="145786280" version="19" timestamp="2023-10-02T06:30:31Z" changeset="142022885" uid="13987295" user="Arthur B E">
    <nd ref="18290982"/>
    <nd ref="1955481"/>
    <tag k="bicycle" v="use_sidepath"/>
    <tag k="foot" v="use_sidepath"/>
    <tag k="highway" v="tertiary"/>
    <tag k="lanes" v="5"/>
    <tag k="lanes:backward" v="2"/>
    <tag k="lanes:forward" v="3"/>
    <tag k="lit" v="yes"/>
    <tag k="maxspeed" v="50"/>
    <tag k="name" v="Ludwigstraße"/>
    <tag k="name:etymology:wikidata" v="Q44361"/>
    <tag k="parking:left" v="lane"/>
    <tag k="parking:left:orientation" v="parallel"/>
    <tag k="psv" v="yes"/>
    <tag k="sidewalk:both" v="separate"/>
    <tag k="smoothness" v="good"/>
    <tag k="surface" v="asphalt"/>
    <tag k="tmc" v="DE:35119/27947"/>
    <tag k="turn:lanes:forward" v="merge_to_right||"/>
    <tag k="wikipedia" v="de:Ludwigstraße"/>
  </way>
  <way id="149929927" version="8" timestamp="2022-11-24T20:35:28Z" changeset="129342874" uid="12120321" user="bollyboll">
    <nd ref="20833463"/>
    <nd ref="204367829"/>
    <nd ref="311237534"/>
    <tag k="bicycle" v="use_sidepath"/>
    <tag k="foot" v="use_sidepath"/>
    <tag k="highway" v="secondary"/>
    <tag k="horse" v="no"/>
    <tag k="lanes" v="1"/>
    <tag k="lit" v="yes"/>
    <tag k="maxspeed" v="50"/>
    <tag k="name" v="Von-der-Tann-Straße"/>
    <tag k="name:etymology:wikidata" v="Q76454"/>
    <tag k="oneway" v="yes"/>
    <tag k="sidewalk:left" v="no"/>
    <tag k="sidewalk:right" v="separate"/>
    <tag k="surface" v="asphalt"/>
    <tag k="tmc" v="DE:27931/27932"/>
    <tag k="zone:traffic" v="DE:urban"/>
  </way>
  <way id="151334113" version="21" timestamp="2025-04-06T15:53:02Z" changeset="164597954" uid="137242" user="Rainero">
    <nd ref="18280282"/>
    <nd ref="3953513351"/>
    <nd ref="8042787363"/>
    <nd ref="8042787366"/>
    <nd ref="8631729780"/>
    <nd ref="8042789382"/>
    <nd ref="8629646102"/>
    <nd ref="8042822506"/>
    <nd ref="613086894"/>
    <nd ref="8042822507"/>
    <nd ref="8042804854"/>
    <nd ref="8042804857"/>
    <nd ref="8042789381"/>
    <tag k="bicycle" v="use_sidepath"/>
    <tag k="dual_carriageway" v="yes"/>
    <tag k="foot" v="use_sidepath"/>
    <tag k="highway" v="secondary"/>
    <tag k="lanes" v="2"/>
    <tag k="lit" v="yes"/>
    <tag k="maxspeed" v="50"/>
    <tag k="name" v="Ludwigstraße"/>
    <tag k="name:etymology:wikidata" v="Q44361"/>
    <tag k="oneway" v="yes"/>
    <tag k="parking:right" v="yes"/>
    <tag k="parking:right:orientation" v="parallel"/>
    <tag k="sidewalk:left" v="no"/>
    <tag k="sidewalk:right" v="separate"/>
    <tag k="smoothness" v="excellent"/>
    <tag k="surface" v="asphalt"/>
    <tag k="tmc" v="DE:27947/46571"/>
    <tag k="turn:lanes" v="||merge_to_left"/>
  </way>
  <way id="154782357" version="3" timestamp="2019-02-08T21:05:09Z" changeset="67036943" uid="78613" user="heilbron">
    <nd ref="265086762"/>
    <nd ref="1672614956"/>
    <nd ref="392372714"/>
    <tag k="bicycle" v="yes"/>
    <tag k="highway" v="residential"/>
    <tag k="maxspeed" v="30"/>
    <tag k="maxspeed:type" v="DE:zone30"/>
    <tag k="name" v="Hahnenstraße"/>
    <tag k="oneway" v="yes"/>
    <tag k="smoothness" v="good"/>
    <tag k="surface" v="asphalt"/>
  </way>
  <way id="154782359" version="12" timestamp="2025-01-26T18:49:55Z" changeset="161791522" uid="40411" user="MrTux">
    <nd ref="27152510"/>
    <nd ref="9242730532"/>
    <nd ref="4466782456"/>
    <nd ref="4466783218"/>
    <nd ref="257086740"/>
    <tag k="class:bicycle" v="2"/>
    <tag k="highway" v="residential"/>
    <tag k="maxspeed" v="30"/>
    <tag k="name" v="Kaulbachstraße"/>
    <tag k="name:etymology" v="Wilhelm von Kaulbach"/>
    <tag k="name:etymology:wikidata" v="Q604107"/>
    <tag k="oneway" v="yes"/>
    <tag k="oneway:bicycle" v="no"/>
    <tag k="sidewalk:both" v="yes"/>
    <tag k="sidewalk:both:surface" v="paving_stones"/>
    <tag k="source:maxspeed" v="DE:zone30"/>
    <tag k="surface" v="asphalt"/>
    <tag k="traffic_sign" v="DE:274.1[30]"/>
    <tag k="wikipedia" v="de:Kaulbachstraße (München)"/>
    <tag k="zone:maxspeed" v="DE:30"/>
  </way>
  <way id="154782362" version="11" timestamp="2025-01-26T18:49:55Z" changeset="161791522" uid="40411" user="MrTux">
    <nd ref="27153164"/>
    <nd ref="1672614967"/>
    <nd ref="1672614966"/>
    <nd ref="1711901318"/>
    <nd ref="1672614964"/>
    <nd ref="1672614962"/>
    <nd ref="1672614960"/>
    <nd ref="1711901246"/>
    <nd ref="1672614958"/>
    <nd ref="9489893064"/>
    <nd ref="24550744"/>
    <tag k="bicycle" v="yes"/>
    <tag k="class:bicycle" v="1"/>
    <tag k="highway" v="residential"/>
    <tag k="lit" v="yes"/>
    <tag k="maxspeed" v="30"/>
    <tag k="motor_vehicle" v="destination"/>
    <tag k="name" v="Königinstraße"/>
    <tag k="sidewalk:right" v="yes"/>
    <tag k="sidewalk:right:surface" v="paving_stones"/>
    <tag k="smoothness" v="good"/>
    <tag k="source:maxspeed" v="DE:zone30"/>
    <tag k="surface" v="asphalt"/>
    <tag k="traffic_sign" v="DE:274.1[30]"/>
    <tag k="zone:maxspeed" v="DE:30"/>
  </way>
  <way id="154782363" version="5" timestamp="2019-02-08T21:05:09Z" changeset="67036943" uid="78613" user="heilbron">
    <nd ref="25274615"/>
    <nd ref="372799498"/>
    <nd ref="2836183771"/>
    <nd ref="282327759"/>
    <nd ref="265086762"/>
    <tag k="bicycle" v="yes"/>
    <tag k="highway" v="residential"/>
    <tag k="maxspeed" v="30"/>
    <tag k="maxspeed:type" v="DE:zone30"/>
    <tag k="name" v="Schönfeldstraße"/>
    <tag k="oneway" v="yes"/>
    <tag k="sidewalk" v="both"/>
    <tag k="smoothness" v="intermediate"/>
    <tag k="surface" v="asphalt"/>
  </way>
  <way id="192123865" version="26" timestamp="2025-04-16T05:49:09Z" changeset="165011257" uid="13987295" user="Arthur B E">
    <nd ref="27152510"/>
    <nd ref="4466605755"/>
    <nd ref="5175455011"/>
    <nd ref="4467029682"/>
    <nd ref="4466858103"/>
    <nd ref="2610309721"/>
    <nd ref="4467029683"/>
    <nd ref="4753785252"/>
    <nd ref="4467029684"/>
    <nd ref="1839276634"/>
    <nd ref="5182213937"/>
    <nd ref="4467029688"/>
    <nd ref="5175455124"/>
    <nd ref="4467029685"/>
    <nd ref="2550844014"/>
    <nd ref="4467029674"/>
    <nd ref="2550936150"/>
    <nd ref="2064183916"/>
    <nd ref="4467029686"/>
    <nd ref="27152653"/>
    <tag k="bicycle" v="yes"/>
    <tag k="class:bicycle" v="-1"/>
    <tag k="cycleway:both" v="no"/>
    <tag k="highway" v="residential"/>
    <tag k="lit" v="yes"/>
    <tag k="maxspeed" v="30"/>
    <tag k="name" v="Kaulbachstraße"/>
    <tag k="name:etymology" v="Wilhelm von Kaulbach"/>
    <tag k="name:etymology:wikidata" v="Q604107"/>
    <tag k="oneway" v="yes"/>
    <tag k="oneway:bicycle" v="no"/>
    <tag k="parking:left" v="street_side"/>
    <tag k="parking:left:orientation" v="parallel"/>
    <tag k="parking:right" v="no"/>
    <tag k="sidewalk:both" v="yes"/>
    <tag k="sidewalk:both:surface" v="paving_stones"/>
    <tag k="smoothness" v="intermediate"/>
    <tag k="source:maxspeed" v="DE:zone30"/>
    <tag k="surface" v="asphalt"/>
    <tag k="traffic_sign" v="DE:274.1[30]"/>
    <tag k="wikipedia" v="de:Kaulbachstraße (München)"/>
    <tag k="zone:maxspeed" v="DE:30"/>
  </way>
  <way id="219431672" version="3" timestamp="2022-11-08T18:24:31Z" changeset="128652807" uid="78613" user="heilbron">
    <nd ref="2285922526"/>
    <nd ref="2285922529"/>
    <nd ref="2285922530"/>
    <nd ref="2285922527"/>
    <nd ref="2285922528"/>
    <nd ref="973746028"/>
    <nd ref="973746192"/>
    <nd ref="973746150"/>
    <nd ref="973746195"/>
    <nd ref="973746148"/>
    <nd ref="2285922526"/>
    <tag k="addr:city" v="München"/>
    <tag k="addr:country" v="DE"/>
    <tag k="addr:housenumber" v="10"/>
    <tag k="addr:postcode" v="80539"/>
    <tag k="addr:street" v="Ludwigstraße"/>
    <tag k="building" v="apartments"/>
    <tag k="building:levels" v="5"/>
    <tag k="roof:levels" v="1"/>
  </way>
  <way id="242358060" version="10" timestamp="2023-01-06T15:15:18Z" changeset="130951695" uid="536583" user="Strubbl">
    <nd ref="2498451730"/>
    <nd ref="2498451731"/>
    <nd ref="1078841348"/>
    <nd ref="1954361"/>
    <tag k="bicycle" v="use_sidepath"/>
    <tag k="foot" v="use_sidepath"/>
    <tag k="highway" v="secondary"/>
    <tag k="lanes" v="7"/>
    <tag k="lanes:backward" v="3"/>
    <tag k="lanes:forward" v="4"/>
    <tag k="lit" v="yes"/>
    <tag k="maxspeed" v="50"/>
    <tag k="name" v="Ludwigstraße"/>
    <tag k="name:etymology:wikidata" v="Q44361"/>
    <tag k="psv" v="yes"/>
    <tag k="sidewalk" v="separate"/>
    <tag k="smoothness" v="good"/>
    <tag k="surface" v="asphalt"/>
    <tag k="tmc" v="DE:27947/46571"/>
    <tag k="turn:lanes:forward" v="left|through|through|through"/>
  </way>
  <way id="242358064" version="13" timestamp="2022-09-10T16:18:59Z" changeset="126021831" uid="536583" user="Strubbl">
    <nd ref="265086763"/>
    <nd ref="2739597253"/>
    <nd ref="1078841388"/>
    <nd ref="1954419"/>
    <tag k="bicycle" v="use_sidepath"/>
    <tag k="foot" v="use_sidepath"/>
    <tag k="highway" v="secondary"/>
    <tag k="lanes" v="7"/>
    <tag k="lanes:backward" v="3"/>
    <tag k="lanes:forward" v="4"/>
    <tag k="lit" v="yes"/>
    <tag k="maxspeed" v="50"/>
    <tag k="name" v="Ludwigstraße"/>
    <tag k="name:etymology:wikidata" v="Q44361"/>
    <tag k="sidewalk" v="separate"/>
    <tag k="smoothness" v="good"/>
    <tag k="surface" v="asphalt"/>
    <tag k="tmc" v="DE:27947/46571"/>
    <tag k="turn:lanes:forward" v="left|through|through|through"/>
    <tag k="wikipedia" v="de:Ludwigstraße"/>
  </way>
  <way id="247988539" version="8" timestamp="2020-01-20T09:39:31Z" changeset="79788559" uid="586766" user="Don24">
    <nd ref="2548484647"/>
    <nd ref="2548339202"/>
    <nd ref="2548339203"/>
    <nd ref="2548339204"/>
    <nd ref="2548339205"/>
    <nd ref="2548339206"/>
    <nd ref="2550844024"/>
    <nd ref="2550844026"/>
    <nd ref="2550844041"/>
    <nd ref="5175149624"/>
    <nd ref="5175148317"/>
    <nd ref="5175149622"/>
    <nd ref="5175149626"/>
    <nd ref="2548339212"/>
    <nd ref="5175148314"/>
    <nd ref="2548339213"/>
    <nd ref="2548339214"/>
    <nd ref="2548484647"/>
    <tag k="building" v="public"/>
    <tag k="building:levels" v="2"/>
    <tag k="name" v="Bayerische Staatsbibliothek, Verwaltungsgebäude"/>
    <tag k="wikidata" v="Q856587"/>
  </way>
  <way id="255335597" version="4" timestamp="2021-09-28T17:28:26Z" changeset="111830122" uid="5491140" user="sokratis777">
    <nd ref="2610309742"/>
    <nd ref="2610309737"/>
    <nd ref="2610309734"/>
    <nd ref="2610309741"/>
    <nd ref="2610309742"/>
    <tag k="addr:housenumber" v="26a"/>
    <tag k="addr:street" v="Kaulbachstraße"/>
    <tag k="building" v="house"/>
    <tag k="source" v="survey 2 January 2014"/>
  </way>
  <way id="257527112" version="8" timestamp="2024-05-01T16:10:07Z" changeset="150757996" uid="11758604" user="map per">
    <nd ref="18290983"/>
    <nd ref="11872068318"/>
    <nd ref="8791024184"/>
    <nd ref="1021042314"/>
    <nd ref="11872068320"/>
    <nd ref="11872068319"/>
    <nd ref="11872068323"/>
    <nd ref="11872068322"/>
    <nd ref="11872068324"/>
    <nd ref="204373871"/>
    <nd ref="11872068321"/>
    <nd ref="279218299"/>
    <nd ref="564677"/>
    <tag k="bicycle" v="use_sidepath"/>
    <tag k="foot" v="use_sidepath"/>
    <tag k="highway" v="secondary"/>
    <tag k="horse" v="no"/>
    <tag k="lanes" v="2"/>
    <tag k="lit" v="yes"/>
    <tag k="maxspeed" v="50"/>
    <tag k="name" v="Von-der-Tann-Straße"/>
    <tag k="name:etymology:wikidata" v="Q76454"/>
    <tag k="oneway" v="yes"/>
    <tag k="sidewalk:left" v="no"/>
    <tag k="sidewalk:right" v="separate"/>
    <tag k="surface" v="asphalt"/>
    <tag k="zone:traffic" v="DE:urban"/>
  </way>
  <way id="292960291" version="10" timestamp="2023-08-31T17:45:59Z" changeset="140646690" uid="1246157" user="Endres Pelka">
    <nd ref="1582278242"/>
    <nd ref="2965128992"/>
    <tag k="bicycle" v="use_sidepath"/>
    <tag k="cycleway" v="no"/>
    <tag k="highway" v="secondary"/>
    <tag k="lanes" v="2"/>
    <tag k="layer" v="-2"/>
    <tag k="lit" v="yes"/>
    <tag k="maxspeed" v="50"/>
    <tag k="maxweight" v="3.5"/>
    <tag k="motorroad" v="yes"/>
    <tag k="name" v="Altstadtringtunnel"/>
    <tag k="oneway" v="yes"/>
    <tag k="surface" v="asphalt"/>
    <tag k="tmc" v="DE:27931/27932"/>
    <tag k="tunnel" v="yes"/>
    <tag k="tunnel:name" v="Altstadtringtunnel"/>
  </way>
  <way id="292960292" version="9" timestamp="2024-05-12T09:22:51Z" changeset="151215829" uid="11758604" user="map per">
    <nd ref="1582278237"/>
    <nd ref="20833465"/>
    <tag k="bicycle" v="use_sidepath"/>
    <tag k="cycleway" v="no"/>
    <tag k="highway" v="secondary"/>
    <tag k="lanes" v="1"/>
    <tag k="layer" v="-2"/>
    <tag k="lit" v="yes"/>
    <tag k="maxspeed" v="50"/>
    <tag k="maxweight" v="3.5"/>
    <tag k="motorroad" v="yes"/>
    <tag k="name" v="Altstadtringtunnel"/>
    <tag k="oneway" v="yes"/>
    <tag k="surface" v="asphalt"/>
    <tag k="tunnel" v="yes"/>
    <tag k="tunnel:name" v="Altstadtringtunnel"/>
  </way>
  <way id="292960293" version="8" timestamp="2022-10-09T07:32:05Z" changeset="127233099" uid="9244608" user="LittleJoeMuc">
    <nd ref="2965128991"/>
    <nd ref="1582278240"/>
    <nd ref="1582278237"/>
    <tag k="bicycle" v="use_sidepath"/>
    <tag k="cycleway" v="no"/>
    <tag k="highway" v="secondary"/>
    <tag k="lanes" v="2"/>
    <tag k="layer" v="-2"/>
    <tag k="lit" v="yes"/>
    <tag k="maxspeed" v="50"/>
    <tag k="maxweight" v="3.5"/>
    <tag k="motorroad" v="yes"/>
    <tag k="name" v="Altstadtringtunnel"/>
    <tag k="oneway" v="yes"/>
    <tag k="surface" v="asphalt"/>
    <tag k="tmc" v="DE:27931/27932"/>
    <tag k="tunnel" v="yes"/>
    <tag k="tunnel:name" v="Altstadtringtunnel"/>
  </way>
  <way id="292960294" version="11" timestamp="2024-05-09T13:28:02Z" changeset="151100362" uid="11758604" user="map per">
    <nd ref="2965128992"/>
    <nd ref="1582278260"/>
    <nd ref="2965128997"/>
    <nd ref="11891395765"/>
    <nd ref="2965128999"/>
    <nd ref="11891395764"/>
    <nd ref="20833480"/>
    <tag k="bicycle" v="use_sidepath"/>
    <tag k="cycleway" v="no"/>
    <tag k="highway" v="secondary"/>
    <tag k="lanes" v="2"/>
    <tag k="layer" v="-2"/>
    <tag k="lit" v="yes"/>
    <tag k="maxspeed" v="50"/>
    <tag k="maxweight" v="3.5"/>
    <tag k="motorroad" v="yes"/>
    <tag k="name" v="Altstadtringtunnel"/>
    <tag k="oneway" v="yes"/>
    <tag k="surface" v="asphalt"/>
    <tag k="tmc" v="DE:35336/27931"/>
    <tag k="tunnel" v="yes"/>
    <tag k="tunnel:name" v="Altstadtringtunnel"/>
  </way>
  <way id="292960298" version="7" timestamp="2024-11-03T13:05:34Z" changeset="158697726" uid="20085156" user="map per StreetComplete">
    <nd ref="311237534"/>
    <nd ref="1628639238"/>
    <nd ref="265086232"/>
    <nd ref="3691144680"/>
    <nd ref="1002798325"/>
    <nd ref="1002798321"/>
    <tag k="bicycle" v="use_sidepath"/>
    <tag k="foot" v="use_sidepath"/>
    <tag k="highway" v="secondary"/>
    <tag k="horse" v="no"/>
    <tag k="lanes" v="1"/>
    <tag k="lit" v="yes"/>
    <tag k="maxspeed" v="50"/>
    <tag k="name" v="Von-der-Tann-Straße"/>
    <tag k="name:etymology:wikidata" v="Q76454"/>
    <tag k="oneway" v="yes"/>
    <tag k="sidewalk:left" v="no"/>
    <tag k="sidewalk:right" v="separate"/>
    <tag k="surface" v="asphalt"/>
    <tag k="zone:traffic" v="DE:urban"/>
  </way>
  <way id="365762134" version="8" timestamp="2023-01-06T15:15:13Z" changeset="130951695" uid="536583" user="Strubbl">
    <nd ref="1955481"/>
    <nd ref="31861622"/>
    <nd ref="2492630226"/>
    <nd ref="611767526"/>
    <nd ref="1955487"/>
    <tag k="bicycle" v="use_sidepath"/>
    <tag k="foot" v="use_sidepath"/>
    <tag k="highway" v="tertiary"/>
    <tag k="lanes" v="5"/>
    <tag k="lanes:backward" v="2"/>
    <tag k="lanes:forward" v="3"/>
    <tag k="lit" v="yes"/>
    <tag k="maxspeed" v="50"/>
    <tag k="name" v="Ludwigstraße"/>
    <tag k="name:etymology:wikidata" v="Q44361"/>
    <tag k="psv" v="yes"/>
    <tag k="sidewalk" v="separate"/>
    <tag k="smoothness" v="intermediate"/>
    <tag k="surface" v="asphalt"/>
    <tag k="tmc" v="DE:35119/27947"/>
    <tag k="turn:lanes:forward" v="through|none|right"/>
    <tag k="wikipedia" v="de:Ludwigstraße"/>
  </way>
  <way id="456746079" version="13" timestamp="2025-01-26T18:49:55Z" changeset="161791522" uid="40411" user="MrTux">
    <nd ref="27152490"/>
    <nd ref="5537424572"/>
    <nd ref="1402091605"/>
    <nd ref="201978405"/>
    <nd ref="1402091642"/>
    <nd ref="185980767"/>
    <nd ref="201978407"/>
    <nd ref="2371910344"/>
    <nd ref="372800412"/>
    <nd ref="8042804855"/>
    <tag k="bicycle" v="designated"/>
    <tag k="bicycle_road" v="yes"/>
    <tag k="class:bicycle" v="2"/>
    <tag k="highway" v="residential"/>
    <tag k="lane_markings" v="no"/>
    <tag k="lit" v="yes"/>
    <tag k="maxspeed" v="30"/>
    <tag k="motor_vehicle" v="private"/>
    <tag k="name" v="Professor-Huber-Platz"/>
    <tag k="name:etymology" v="Kurt Huber"/>
    <tag k="name:etymology:wikidata" v="Q57812"/>
    <tag k="sidewalk" v="both"/>
    <tag k="sidewalk:both:surface" v="asphalt"/>
    <tag k="smoothness" v="good"/>
    <tag k="source:maxspeed" v="DE:bicycle_road"/>
    <tag k="surface" v="asphalt"/>
    <tag k="traffic_sign" v="DE:244.1"/>
  </way>
  <way id="456746083" version="12" timestamp="2024-06-23T16:49:03Z" changeset="153076923" uid="616774" user="mueschel">
    <nd ref="1954419"/>
    <nd ref="372796999"/>
    <nd ref="3818918482"/>
    <tag k="class:bicycle" v="-1"/>
    <tag k="cycleway:both" v="no"/>
    <tag k="highway" v="residential"/>
    <tag k="lanes" v="2"/>
    <tag k="lit" v="yes"/>
    <tag k="maxspeed" v="50"/>
    <tag k="name" v="Schellingstraße"/>
    <tag k="name:etymology:wikidata" v="Q60070"/>
    <tag k="parking:right:authentication:ticket" v="yes"/>
    <tag k="parking:right:authentication:ticket:conditional" v="no @ residents"/>
    <tag k="parking:right:fee" v="1 EUR/hour; 6 EUR/day"/>
    <tag k="parking:right:fee:conditional" v="none @ residents"/>
    <tag k="parking:right:orientation" v="parallel"/>
    <tag k="parking:right:zone:residents" v="Akademieviertel"/>
    <tag k="psv" v="yes"/>
    <tag k="sidewalk" v="separate"/>
    <tag k="smoothness" v="good"/>
    <tag k="surface" v="asphalt"/>
  </way>
  <way id="456746086" version="8" timestamp="2024-10-29T19:38:34Z" changeset="158514089" uid="536583" user="Strubbl">
    <nd ref="1954361"/>
    <nd ref="372797360"/>
    <tag k="cycleway:both" v="no"/>
    <tag k="highway" v="residential"/>
    <tag k="lanes" v="2"/>
    <tag k="lit" v="yes"/>
    <tag k="maxspeed" v="50"/>
    <tag k="name" v="Theresienstraße"/>
    <tag k="name:etymology:wikidata" v="Q233198"/>
    <tag k="postal_code" v="80333"/>
    <tag k="psv" v="yes"/>
    <tag k="sidewalk" v="no"/>
    <tag k="smoothness" v="good"/>
    <tag k="surface" v="asphalt"/>
  </way>
  <way id="483091453" version="10" timestamp="2025-01-26T18:49:55Z" changeset="161791522" uid="40411" user="MrTux">
    <nd ref="27152513"/>
    <nd ref="1711901465"/>
    <nd ref="1672614968"/>
    <nd ref="27153168"/>
    <nd ref="5175455000"/>
    <nd ref="27153164"/>
    <tag k="class:bicycle" v="1"/>
    <tag k="cycleway:both" v="no"/>
    <tag k="highway" v="residential"/>
    <tag k="lit" v="yes"/>
    <tag k="maxspeed" v="30"/>
    <tag k="name" v="Königinstraße"/>
    <tag k="sidewalk:right" v="yes"/>
    <tag k="sidewalk:right:surface" v="paving_stones"/>
    <tag k="smoothness" v="good"/>
    <tag k="source:maxspeed" v="DE:zone30"/>
    <tag k="surface" v="asphalt"/>
    <tag k="traffic_sign" v="DE:274.1[30]"/>
    <tag k="zone:maxspeed" v="DE:30"/>
  </way>
  <way id="681699053" version="5" timestamp="2025-04-10T16:38:55Z" changeset="164778236" uid="1068996" user="davidmigloz">
    <nd ref="27152513"/>
    <nd ref="27152510"/>
    <tag k="bicycle" v="yes"/>
    <tag k="bicycle_road" v="yes"/>
    <tag k="class:bicycle" v="1"/>
    <tag k="highway" v="residential"/>
    <tag k="lane_markings" v="no"/>
    <tag k="lanes" v="2"/>
    <tag k="lit" v="yes"/>
    <tag k="maxspeed" v="30"/>
    <tag k="motor_vehicle" v="yes"/>
    <tag k="name" v="Veterinärstraße"/>
    <tag k="sidewalk" v="both"/>
    <tag k="sidewalk:both:surface" v="paving_stones"/>
    <tag k="smoothness" v="excellent"/>
    <tag k="source:maxspeed" v="DE:bicycle_road"/>
    <tag k="surface" v="asphalt"/>
    <tag k="traffic_sign" v="DE:244.1"/>
  </way>
  <way id="863371672" version="11" timestamp="2025-04-06T15:53:02Z" changeset="164597954" uid="137242" user="Rainero">
    <nd ref="8042804854"/>
    <nd ref="8042804855"/>
    <tag k="cycleway:both" v="separate"/>
    <tag k="highway" v="residential"/>
    <tag k="lane_markings" v="no"/>
    <tag k="lit" v="yes"/>
    <tag k="maxspeed" v="50"/>
    <tag k="name" v="Geschwister-Scholl-Platz"/>
    <tag k="name:etymology:wikidata" v="Q566212"/>
    <tag k="sidewalk" v="no"/>
    <tag k="smoothness" v="good"/>
    <tag k="source:maxspeed" v="DE:urban"/>
    <tag k="surface" v="asphalt"/>
  </way>
  <way id="1162661907" version="2" timestamp="2024-05-22T18:22:44Z" changeset="151690979" uid="1717726" user="UKausch">
    <nd ref="2580966525"/>
    <nd ref="2838599610"/>
    <nd ref="966314918"/>
    <nd ref="966315028"/>
    <nd ref="966315139"/>
    <nd ref="2838599611"/>
    <nd ref="966315324"/>
    <nd ref="966315370"/>
    <nd ref="2580966531"/>
    <nd ref="2580966529"/>
    <nd ref="2580966528"/>
    <nd ref="966314948"/>
    <nd ref="2580966523"/>
    <nd ref="390921993"/>
    <nd ref="390921994"/>
    <nd ref="390921996"/>
    <nd ref="390921998"/>
    <nd ref="390921980"/>
    <nd ref="10813000255"/>
    <nd ref="1742800725"/>
    <nd ref="1742800723"/>
    <nd ref="1742800724"/>
    <nd ref="390921982"/>
    <nd ref="390921983"/>
    <nd ref="390921985"/>
    <nd ref="1742800727"/>
    <nd ref="2580966525"/>
    <tag k="addr:housenumber" v="5 - 11"/>
    <tag k="addr:postcode" v="80539"/>
    <tag k="addr:street" v="Schönfeldstraße"/>
    <tag k="architect" v="Leo von Klenze"/>
    <tag k="architect:wikidata" v="Q60163"/>
    <tag k="building" v="government"/>
    <tag k="building:levels" v="3"/>
    <tag k="heritage" v="4"/>
    <tag k="heritage:operator" v="BLfD"/>
    <tag k="name" v="Staatliche Archive"/>
    <tag k="old_name" v="ehem. Kriegsministerium"/>
    <tag k="ref:BLfD" v="D-1-62-000-4104"/>
    <tag k="roof:shape" v="flat"/>
    <tag k="start_date" v="1830"/>
  </way>
  <way id="1173859710" version="1" timestamp="2023-05-18T05:33:11Z" changeset="136236902" uid="3422255" user="Cmcmcm1">
    <nd ref="10907343511"/>
    <nd ref="10907343510"/>
    <nd ref="956202456"/>
    <nd ref="10907343512"/>
    <nd ref="10907343513"/>
    <nd ref="10907343514"/>
    <nd ref="10907343515"/>
    <nd ref="10907343516"/>
    <nd ref="10907343517"/>
    <nd ref="10907343518"/>
    <nd ref="10907343511"/>
    <tag k="amenity" v="place_of_worship"/>
    <tag k="building" v="yes"/>
    <tag k="name" v="Klosterkirche &quot;Zum Heiligsten Erlöser&quot;"/>
    <tag k="religion" v="christian"/>
  </way>
  <way id="1189975803" version="5" timestamp="2025-04-27T19:39:28Z" changeset="165521119" uid="18850925" user="cableway">
    <nd ref="11049332248"/>
    <nd ref="2288339065"/>
    <nd ref="18941886"/>
    <nd ref="292596851"/>
    <tag k="bicycle" v="yes"/>
    <tag k="cycleway:both" v="no"/>
    <tag k="highway" v="residential"/>
    <tag k="lane_markings" v="no"/>
    <tag k="lit" v="yes"/>
    <tag k="maxspeed" v="50"/>
    <tag k="name" v="Galeriestraße"/>
    <tag k="parking:left" v="yes"/>
    <tag k="parking:left:orientation" v="parallel"/>
    <tag k="parking:right" v="yes"/>
    <tag k="parking:right:orientation" v="parallel"/>
    <tag k="sidewalk" v="both"/>
    <tag k="smoothness" v="intermediate"/>
    <tag k="surface" v="sett"/>
  </way>
  <way id="1189975804" version="4" timestamp="2025-04-27T19:39:30Z" changeset="165521125" uid="18850925" user="cableway">
    <nd ref="18290982"/>
    <nd ref="372799226"/>
    <nd ref="11049332248"/>
    <tag k="bicycle" v="yes"/>
    <tag k="cycleway:both" v="no"/>
    <tag k="highway" v="residential"/>
    <tag k="lane_markings" v="no"/>
    <tag k="lit" v="yes"/>
    <tag k="maxspeed" v="50"/>
    <tag k="name" v="Galeriestraße"/>
    <tag k="sidewalk" v="both"/>
    <tag k="sidewalk:both:surface" v="paving_stones"/>
    <tag k="smoothness" v="intermediate"/>
    <tag k="surface" v="sett"/>
  </way>
  <way id="1212520834" version="3" timestamp="2024-11-25T19:22:17Z" changeset="159586813" uid="18850925" user="cableway">
    <nd ref="11233757772"/>
    <nd ref="27152513"/>
    <tag k="bicycle" v="yes"/>
    <tag k="class:bicycle" v="1"/>
    <tag k="cycleway:both" v="no"/>
    <tag k="highway" v="residential"/>
    <tag k="lit" v="yes"/>
    <tag k="maxspeed" v="30"/>
    <tag k="name" v="Königinstraße"/>
    <tag k="sidewalk:both" v="separate"/>
    <tag k="smoothness" v="good"/>
    <tag k="surface" v="asphalt"/>
    <tag k="width" v="6"/>
  </way>
  <way id="1323918631" version="1" timestamp="2024-10-14T18:05:32Z" changeset="157890386" uid="13496000" user="geo-d">
    <nd ref="956201993"/>
    <nd ref="12251001020"/>
    <nd ref="12251001019"/>
    <nd ref="12251001018"/>
    <nd ref="956202023"/>
    <nd ref="956202094"/>
    <nd ref="956201993"/>
    <tag k="addr:city" v="München"/>
    <tag k="addr:country" v="DE"/>
    <tag k="addr:housenumber" v="18a"/>
    <tag k="addr:postcode" v="80539"/>
    <tag k="addr:street" v="Kaulbachstraße"/>
    <tag k="building" v="apartments"/>
    <tag k="building:levels" v="3"/>
    <tag k="roof:shape" v="flat"/>
  </way>
  <relation id="52412" version="17" timestamp="2024-09-09T13:48:07Z" changeset="156395632" uid="13987295" user="Arthur B E">
    <member type="way" ref="28494976" role="inner"/>
    <member type="way" ref="28495026" role="inner"/>
    <member type="way" ref="19330223" role="outer"/>
    <tag k="access" v="yes"/>
    <tag k="addr:city" v="München"/>
    <tag k="addr:country" v="DE"/>
    <tag k="addr:housenumber" v="16"/>
    <tag k="addr:postcode" v="80539"/>
    <tag k="addr:street" v="Ludwigstraße"/>
    <tag k="air_conditioning" v="yes"/>
    <tag k="amenity" v="library"/>
    <tag k="building" v="civic"/>
    <tag k="building:levels" v="3"/>
    <tag k="contact:fax" v="+49 89 286 38-2200"/>
    <tag k="contact:phone" v="+49 89 286 38-2322"/>
    <tag k="contact:website" v="https://www.bsb-muenchen.de/"/>
    <tag k="internet_access" v="wlan"/>
    <tag k="internet_access:fee" v="no"/>
    <tag k="name" v="Bayerische Staatsbibliothek"/>
    <tag k="name:de" v="Bayerische Staatsbibliothek"/>
    <tag k="name:en" v="Bavarian State Library"/>
    <tag k="opening_hours" v="Mo-Su 08:00-00:00; Jan 01 off; Jan 06 off; Feb 13 off; Mar 29 - Apr 01 off; May 01 off; May 09 off; May 19-20 off; May 30 off; Aug 15 off; Oct 03 off; Nov 01 off; Dec 24-26 off; Dec 31 off"/>
    <tag k="operator" v="Freistaat Bayern"/>
    <tag k="operator:type" v="government"/>
    <tag k="ref:isil" v="DE-12"/>
    <tag k="roof:shape" v="gabled"/>
    <tag k="short_name" v="BSB"/>
    <tag k="toilets" v="yes"/>
    <tag k="toilets:wheelchair" v="yes"/>
    <tag k="type" v="multipolygon"/>
    <tag k="wheelchair" v="yes"/>
    <tag k="wheelchair:description" v="Personaleingang hinter dem Gebäude auf der rechten Seite verwenden, dort kann geklingelt werden"/>
    <tag k="wikidata" v="Q256507"/>
    <tag k="wikipedia" v="de:Bayerische Staatsbibliothek"/>
  </relation>
  <relation id="2902968" version="4" timestamp="2023-01-06T09:18:35Z" changeset="130938573" uid="11758604" user="map per">
    <member type="way" ref="83612857" role="outer"/>
    <member type="way" ref="219431682" role="inner"/>
    <tag k="addr:city" v="München"/>
    <tag k="addr:country" v="DE"/>
    <tag k="addr:housenumber" v="6"/>
    <tag k="addr:postcode" v="80539"/>
    <tag k="addr:street" v="Ludwigstraße"/>
    <tag k="building" v="office"/>
    <tag k="building:levels" v="4"/>
    <tag k="roof:levels" v="1"/>
    <tag k="type" v="multipolygon"/>
  </relation>

</osm>
