<?xml version="1.0" encoding="UTF-8"?>
<osm version="0.6" generator="Overpass API 0.7.62.5 1bd436f1">
<note>The data included in this document is from www.openstreetmap.org. The data is made available under ODbL.</note>
<meta osm_base="2025-05-18T03:25:02Z" areas="2024-12-31T00:49:33Z"/>

  <node id="564138" lat="48.1706655" lon="11.5997363" version="4" timestamp="2018-10-09T13:34:55Z" changeset="63346838" uid="8748" user="ToniE"/>
  <node id="564143" lat="48.1639784" lon="11.5960007" version="3" timestamp="2018-10-09T13:38:30Z" changeset="63346974" uid="8748" user="ToniE"/>
  <node id="20461931" lat="48.1625125" lon="11.5973684" version="10" timestamp="2021-04-12T15:07:29Z" changeset="102813050" uid="2793520" user="CreCrePL">
    <tag k="TMC:cid_58:tabcd_1:Class" v="Point"/>
    <tag k="TMC:cid_58:tabcd_1:Direction" v="negative"/>
    <tag k="TMC:cid_58:tabcd_1:LCLversion" v="8.00"/>
    <tag k="TMC:cid_58:tabcd_1:LocationCode" v="22676"/>
    <tag k="TMC:cid_58:tabcd_1:NextLocationCode" v="29828"/>
    <tag k="TMC:cid_58:tabcd_1:PrevLocationCode" v="35321"/>
    <tag k="tmc" v="DE:35351"/>
  </node>
  <node id="45334630" lat="48.1615867" lon="11.5928565" version="4" timestamp="2012-03-12T21:25:43Z" changeset="10960830" uid="13832" user="Peter14"/>
  <node id="45345793" lat="48.1621489" lon="11.5929710" version="5" timestamp="2011-07-18T18:58:00Z" changeset="8761484" uid="42393" user="mawi42"/>
  <node id="45365767" lat="48.1693855" lon="11.5932947" version="9" timestamp="2012-03-13T10:31:58Z" changeset="10965000" uid="42393" user="mawi42"/>
  <node id="45366856" lat="48.1698876" lon="11.5938251" version="12" timestamp="2018-10-12T07:52:22Z" changeset="63445199" uid="8748" user="ToniE"/>
  <node id="45368367" lat="48.1692352" lon="11.5971804" version="2" timestamp="2010-12-17T12:39:57Z" changeset="6685514" uid="29061" user="KPG"/>
  <node id="45377698" lat="48.1699471" lon="11.5974930" version="3" timestamp="2010-12-17T12:40:20Z" changeset="6685514" uid="29061" user="KPG"/>
  <node id="45385156" lat="48.1693541" lon="11.6025392" version="7" timestamp="2011-01-01T12:51:41Z" changeset="6827478" uid="118209" user="delphin1965"/>
  <node id="433209636" lat="48.1695389" lon="11.6031160" version="3" timestamp="2025-02-26T09:39:20Z" changeset="162963844" uid="11758604" user="map per"/>
  <node id="506338909" lat="48.1689657" lon="11.6022343" version="2" timestamp="2010-12-02T13:34:44Z" changeset="6514730" uid="29061" user="KPG"/>
  <node id="611866894" lat="48.1641199" lon="11.5958116" version="2" timestamp="2010-12-02T12:31:23Z" changeset="6514005" uid="29061" user="KPG"/>
  <node id="1015875997" lat="48.1668394" lon="11.5960399" version="1" timestamp="2010-12-02T13:18:16Z" changeset="6514564" uid="29061" user="KPG"/>
  <node id="1022856268" lat="48.1679901" lon="11.5966391" version="1" timestamp="2010-12-05T15:26:38Z" changeset="6551929" uid="29061" user="KPG"/>
  <node id="1120415154" lat="48.1644593" lon="11.5945245" version="3" timestamp="2023-04-21T11:40:38Z" changeset="135189814" uid="11895847" user="rigilk3nt"/>
  <node id="1599023689" lat="48.1696150" lon="11.5991939" version="7" timestamp="2023-12-10T00:55:53Z" changeset="144952013" uid="115042" user="gnlpfth">
    <tag k="bus" v="yes"/>
    <tag k="mvv:zone" v="M"/>
    <tag k="name" v="Amsterdamer Straße"/>
    <tag k="public_transport" v="stop_position"/>
    <tag k="ref:IFOPT" v="de:09162:518:1:1"/>
    <tag k="ref_name" v="Amsterdamer Straße, München"/>
  </node>
  <node id="1672614972" lat="48.1607334" lon="11.5924463" version="3" timestamp="2016-08-22T20:51:19Z" changeset="41624255" uid="14390" user="BeKri"/>
  <node id="1835863218" lat="48.1660893" lon="11.5937015" version="2" timestamp="2012-11-27T12:16:28Z" changeset="14057914" uid="338611" user="marek kleciak"/>
  <node id="1835863226" lat="48.1670170" lon="11.5943815" version="1" timestamp="2012-07-23T21:40:59Z" changeset="12457623" uid="361746" user="raupach"/>
  <way id="2557090" version="34" timestamp="2025-03-22T20:41:43Z" changeset="163963753" uid="44217" user="kjon">
    <nd ref="564143"/>
    <nd ref="1015824338"/>
    <nd ref="5838008200"/>
    <nd ref="1015824357"/>
    <nd ref="21092556"/>
    <nd ref="1015824359"/>
    <nd ref="1015838859"/>
    <nd ref="1015838846"/>
    <nd ref="564144"/>
    <tag k="hgv" v="delivery"/>
    <tag k="highway" v="trunk"/>
    <tag k="lanes" v="2"/>
    <tag k="lit" v="yes"/>
    <tag k="maxspeed" v="60"/>
    <tag k="motorroad" v="yes"/>
    <tag k="name" v="Isarring"/>
    <tag k="name:etymology:wikidata" v="Q106588"/>
    <tag k="oneway" v="yes"/>
    <tag k="parking:both" v="no"/>
    <tag k="ref" v="B 2R"/>
    <tag k="sidewalk:both" v="no"/>
    <tag k="surface" v="asphalt"/>
    <tag k="tmc" v="DE:35321/22676"/>
    <tag k="wikidata" v="Q1263320"/>
  </way>
  <way id="3960302" version="28" timestamp="2025-01-12T12:07:23Z" changeset="161268959" uid="2815653" user="DaxServer">
    <nd ref="260964876"/>
    <nd ref="262520146"/>
    <nd ref="1042726452"/>
    <nd ref="5969199414"/>
    <nd ref="20461932"/>
    <nd ref="1042726488"/>
    <nd ref="20461933"/>
    <nd ref="1195638320"/>
    <nd ref="611866894"/>
    <tag k="bicycle" v="use_sidepath"/>
    <tag k="foot" v="use_sidepath"/>
    <tag k="highway" v="trunk_link"/>
    <tag k="lanes" v="2"/>
    <tag k="lit" v="yes"/>
    <tag k="maxspeed" v="50"/>
    <tag k="name" v="Dietlindenstraße"/>
    <tag k="oneway" v="yes"/>
    <tag k="surface" v="asphalt"/>
    <tag k="tmc" v="DE:35350/35351"/>
    <tag k="wikidata" v="Q118786918"/>
  </way>
  <way id="4592767" version="33" timestamp="2025-03-22T21:16:15Z" changeset="163964538" uid="44217" user="kjon">
    <nd ref="564140"/>
    <nd ref="564141"/>
    <nd ref="564142"/>
    <nd ref="1072830709"/>
    <nd ref="1072830758"/>
    <nd ref="564143"/>
    <tag k="alt_name" v="Isarring"/>
    <tag k="hgv" v="delivery"/>
    <tag k="highway" v="trunk"/>
    <tag k="lanes" v="2"/>
    <tag k="layer" v="-1"/>
    <tag k="lit" v="24/7"/>
    <tag k="maxheight" v="none"/>
    <tag k="maxspeed" v="60"/>
    <tag k="motorroad" v="yes"/>
    <tag k="name" v="Biedersteiner Tunnel"/>
    <tag k="oneway" v="yes"/>
    <tag k="parking:both" v="no"/>
    <tag k="ref" v="B 2R"/>
    <tag k="sidewalk:both" v="no"/>
    <tag k="surface" v="asphalt"/>
    <tag k="tmc" v="DE:35321/22676"/>
    <tag k="tunnel" v="yes"/>
    <tag k="wikidata" v="Q50416061"/>
  </way>
  <way id="4698767" version="33" timestamp="2025-03-22T21:16:15Z" changeset="163964538" uid="44217" user="kjon">
    <nd ref="21092558"/>
    <nd ref="1072830558"/>
    <nd ref="1072830615"/>
    <nd ref="1600091041"/>
    <nd ref="5969199415"/>
    <nd ref="21092551"/>
    <tag k="alt_name" v="Isarring"/>
    <tag k="hgv" v="delivery"/>
    <tag k="highway" v="trunk"/>
    <tag k="lanes" v="2"/>
    <tag k="layer" v="-1"/>
    <tag k="lit" v="24/7"/>
    <tag k="maxheight" v="none"/>
    <tag k="maxspeed" v="60"/>
    <tag k="motorroad" v="yes"/>
    <tag k="name" v="Biedersteiner Tunnel"/>
    <tag k="oneway" v="yes"/>
    <tag k="parking:both" v="no"/>
    <tag k="ref" v="B 2R"/>
    <tag k="sidewalk:both" v="no"/>
    <tag k="surface" v="asphalt"/>
    <tag k="tmc" v="DE:35321/22676"/>
    <tag k="tunnel" v="yes"/>
    <tag k="wikidata" v="Q50416061"/>
  </way>
  <way id="5786742" version="16" timestamp="2024-10-07T20:27:15Z" changeset="157598428" uid="137242" user="Rainero">
    <nd ref="45365767"/>
    <nd ref="372811187"/>
    <nd ref="4279106769"/>
    <nd ref="45363866"/>
    <nd ref="45369656"/>
    <nd ref="1608591071"/>
    <nd ref="45366376"/>
    <tag k="class:bicycle" v="-1"/>
    <tag k="highway" v="residential"/>
    <tag k="lit" v="yes"/>
    <tag k="maxspeed" v="30"/>
    <tag k="name" v="Gundelindenstraße"/>
    <tag k="oneway" v="yes"/>
    <tag k="sidewalk" v="both"/>
    <tag k="source:maxspeed" v="DE:zone30"/>
    <tag k="surface" v="asphalt"/>
  </way>
  <way id="5786770" version="14" timestamp="2024-10-07T20:27:15Z" changeset="157598428" uid="137242" user="Rainero">
    <nd ref="45366856"/>
    <nd ref="372811190"/>
    <nd ref="45363868"/>
    <nd ref="45369640"/>
    <nd ref="1072887001"/>
    <nd ref="45367308"/>
    <nd ref="9710743026"/>
    <nd ref="45368367"/>
    <tag k="class:bicycle" v="-1"/>
    <tag k="highway" v="residential"/>
    <tag k="lit" v="yes"/>
    <tag k="maxspeed" v="30"/>
    <tag k="name" v="Stengelstraße"/>
    <tag k="sidewalk" v="right"/>
    <tag k="smoothness" v="intermediate"/>
    <tag k="source:maxspeed" v="DE:zone30"/>
    <tag k="surface" v="sett"/>
  </way>
  <way id="5786954" version="20" timestamp="2023-11-11T16:47:06Z" changeset="143907289" uid="18493611" user="MunichWays">
    <nd ref="45372760"/>
    <nd ref="1584945348"/>
    <nd ref="262520144"/>
    <nd ref="45372758"/>
    <tag k="class:bicycle" v="-2"/>
    <tag k="highway" v="residential"/>
    <tag k="lit" v="yes"/>
    <tag k="maxspeed" v="50"/>
    <tag k="name" v="Mannlichstraße"/>
    <tag k="oneway" v="yes"/>
    <tag k="postal_code" v="80805"/>
    <tag k="surface" v="asphalt"/>
  </way>
  <way id="5787104" version="15" timestamp="2024-07-28T10:09:24Z" changeset="154513369" uid="18493611" user="MunichWays">
    <nd ref="45368367"/>
    <nd ref="1042726282"/>
    <nd ref="45377698"/>
    <tag k="class:bicycle" v="1"/>
    <tag k="highway" v="residential"/>
    <tag k="lit" v="yes"/>
    <tag k="maxspeed" v="30"/>
    <tag k="name" v="Brabanter Straße"/>
    <tag k="postal_code" v="80805"/>
    <tag k="sidewalk" v="both"/>
    <tag k="surface" v="asphalt"/>
    <tag k="width" v="5"/>
  </way>
  <way id="8163015" version="17" timestamp="2024-07-28T10:09:24Z" changeset="154513369" uid="18493611" user="MunichWays">
    <nd ref="1015875997"/>
    <nd ref="52617764"/>
    <nd ref="1015876000"/>
    <nd ref="8981904761"/>
    <nd ref="1022856310"/>
    <tag k="class:bicycle" v="1"/>
    <tag k="highway" v="residential"/>
    <tag k="lane_markings" v="no"/>
    <tag k="lanes" v="2"/>
    <tag k="lit" v="yes"/>
    <tag k="maxspeed" v="30"/>
    <tag k="name" v="Biedersteiner Straße"/>
    <tag k="postal_code" v="80805"/>
    <tag k="surface" v="asphalt"/>
    <tag k="width" v="6"/>
  </way>
  <way id="23201470" version="18" timestamp="2024-04-06T12:43:38Z" changeset="149653793" uid="7030727" user="lemuecke">
    <nd ref="45345793"/>
    <nd ref="1365782845"/>
    <nd ref="1365782847"/>
    <nd ref="1365782842"/>
    <nd ref="260971418"/>
    <nd ref="1365782855"/>
    <nd ref="248966810"/>
    <nd ref="1324416057"/>
    <nd ref="248966812"/>
    <nd ref="248966813"/>
    <tag k="bicycle" v="yes"/>
    <tag k="class:bicycle" v="1"/>
    <tag k="cycleway:both" v="no"/>
    <tag k="highway" v="residential"/>
    <tag k="lit" v="yes"/>
    <tag k="maxspeed" v="30"/>
    <tag k="name" v="Liebergesellstraße"/>
    <tag k="sidewalk" v="both"/>
    <tag k="smoothness" v="good"/>
    <tag k="surface" v="asphalt"/>
    <tag k="width" v="6"/>
  </way>
  <way id="23969677" version="11" timestamp="2024-09-05T18:50:41Z" changeset="156244538" uid="2052948" user="Maturi0n">
    <nd ref="1924180822"/>
    <nd ref="1042726128"/>
    <nd ref="2036236853"/>
    <nd ref="2036236884"/>
    <nd ref="12158353863"/>
    <nd ref="2036236871"/>
    <nd ref="1042726195"/>
    <tag k="highway" v="residential"/>
    <tag k="name" v="Grammstraße"/>
    <tag k="postal_code" v="80805"/>
    <tag k="surface" v="asphalt"/>
  </way>
  <way id="25219846" version="24" timestamp="2025-03-22T21:16:15Z" changeset="163964538" uid="44217" user="kjon">
    <nd ref="75901933"/>
    <nd ref="8622442194"/>
    <nd ref="2036180690"/>
    <tag k="hgv" v="delivery"/>
    <tag k="highway" v="trunk"/>
    <tag k="lanes" v="3"/>
    <tag k="lit" v="yes"/>
    <tag k="maxspeed" v="60"/>
    <tag k="motorroad" v="yes"/>
    <tag k="name" v="Isarring"/>
    <tag k="name:etymology:wikidata" v="Q106588"/>
    <tag k="oneway" v="yes"/>
    <tag k="parking:both" v="no"/>
    <tag k="ref" v="B 2R"/>
    <tag k="sidewalk:left" v="no"/>
    <tag k="sidewalk:right" v="separate"/>
    <tag k="surface" v="asphalt"/>
    <tag k="tmc" v="DE:22675/35321"/>
    <tag k="turn:lanes" v="none|none|merge_to_left;slight_right"/>
    <tag k="wikidata" v="Q1263320"/>
  </way>
  <way id="36945723" version="23" timestamp="2025-03-22T21:16:15Z" changeset="163964538" uid="44217" user="kjon">
    <nd ref="564138"/>
    <nd ref="564139"/>
    <nd ref="5969197657"/>
    <nd ref="75890864"/>
    <tag k="hgv" v="delivery"/>
    <tag k="highway" v="trunk"/>
    <tag k="lanes" v="3"/>
    <tag k="lit" v="yes"/>
    <tag k="maxheight" v="default"/>
    <tag k="maxspeed" v="50"/>
    <tag k="motorroad" v="yes"/>
    <tag k="name" v="Isarring"/>
    <tag k="name:etymology:wikidata" v="Q106588"/>
    <tag k="oneway" v="yes"/>
    <tag k="parking:both" v="no"/>
    <tag k="ref" v="B 2R"/>
    <tag k="shoulder" v="no"/>
    <tag k="sidewalk:both" v="no"/>
    <tag k="surface" v="asphalt"/>
    <tag k="tmc" v="DE:22675/35321"/>
    <tag k="turn:lanes" v="none|none|merge_to_left;slight_right"/>
    <tag k="wikidata" v="Q1263320"/>
  </way>
  <way id="36945724" version="11" timestamp="2025-01-12T11:32:30Z" changeset="161268959" uid="2815653" user="DaxServer">
    <nd ref="27467801"/>
    <nd ref="27467803"/>
    <nd ref="27467804"/>
    <nd ref="27467805"/>
    <nd ref="27467806"/>
    <nd ref="1015876047"/>
    <nd ref="1015876017"/>
    <nd ref="27467802"/>
    <tag k="highway" v="trunk_link"/>
    <tag k="lanes" v="1"/>
    <tag k="maxspeed" v="60"/>
    <tag k="motorroad" v="yes"/>
    <tag k="name" v="Isarring"/>
    <tag k="name:etymology:wikidata" v="Q106588"/>
    <tag k="oneway" v="yes"/>
    <tag k="surface" v="asphalt"/>
    <tag k="wikidata" v="Q1263320"/>
  </way>
  <way id="36948344" version="6" timestamp="2022-05-10T15:48:44Z" changeset="120799243" uid="9476734" user="JoeMapper">
    <nd ref="429632172"/>
    <nd ref="429632173"/>
    <nd ref="429632174"/>
    <nd ref="429632175"/>
    <nd ref="429632172"/>
    <tag k="addr:city" v="München"/>
    <tag k="addr:country" v="DE"/>
    <tag k="addr:housenumber" v="6"/>
    <tag k="addr:postcode" v="80802"/>
    <tag k="addr:street" v="Biedersteiner Straße"/>
    <tag k="building" v="residential"/>
    <tag k="building:levels" v="3"/>
    <tag k="roof:levels" v="1"/>
    <tag k="wikidata" v="Q41210806"/>
  </way>
  <way id="36948347" version="6" timestamp="2022-05-10T15:48:31Z" changeset="120799243" uid="9476734" user="JoeMapper">
    <nd ref="429632176"/>
    <nd ref="429632177"/>
    <nd ref="429632175"/>
    <nd ref="429632174"/>
    <nd ref="429632176"/>
    <tag k="addr:city" v="München"/>
    <tag k="addr:country" v="DE"/>
    <tag k="addr:housenumber" v="8"/>
    <tag k="addr:postcode" v="80802"/>
    <tag k="addr:street" v="Biedersteiner Straße"/>
    <tag k="building" v="residential"/>
    <tag k="building:levels" v="3"/>
    <tag k="roof:levels" v="1"/>
    <tag k="wikidata" v="Q41210808"/>
  </way>
  <way id="37001988" version="10" timestamp="2024-10-07T20:27:15Z" changeset="157598428" uid="137242" user="Rainero">
    <nd ref="260964874"/>
    <nd ref="75887510"/>
    <nd ref="1324414803"/>
    <nd ref="12233145754"/>
    <nd ref="75887512"/>
    <nd ref="75893351"/>
    <nd ref="1076864787"/>
    <nd ref="75893352"/>
    <nd ref="75893354"/>
    <nd ref="1076864779"/>
    <nd ref="1076864772"/>
    <nd ref="75910683"/>
    <tag k="bicycle" v="yes"/>
    <tag k="highway" v="residential"/>
    <tag k="maxspeed" v="30"/>
    <tag k="maxspeed:type" v="DE:zone30"/>
    <tag k="name" v="Schwedenstraße"/>
    <tag k="smoothness" v="good"/>
    <tag k="surface" v="asphalt"/>
  </way>
  <way id="40060510" version="6" timestamp="2016-07-02T22:35:58Z" changeset="40449015" uid="78613" user="heilbron">
    <nd ref="482041191"/>
    <nd ref="482041194"/>
    <nd ref="482041195"/>
    <nd ref="482041197"/>
    <nd ref="482041191"/>
    <tag k="addr:city" v="München"/>
    <tag k="addr:country" v="DE"/>
    <tag k="addr:housenumber" v="78"/>
    <tag k="addr:postcode" v="80805"/>
    <tag k="addr:street" v="Biedersteiner Straße"/>
    <tag k="building" v="yes"/>
    <tag k="building:colour" v="#FFFFB0"/>
    <tag k="building:levels" v="2"/>
    <tag k="roof:levels" v="1"/>
    <tag k="roof:shape" v="hipped"/>
  </way>
  <way id="41660563" version="4" timestamp="2024-10-07T20:27:15Z" changeset="157598428" uid="137242" user="Rainero">
    <nd ref="512045264"/>
    <nd ref="12233145794"/>
    <nd ref="12233145793"/>
    <nd ref="12233145789"/>
    <nd ref="12233145792"/>
    <nd ref="512045265"/>
    <nd ref="512045266"/>
    <nd ref="12233145796"/>
    <nd ref="12233145795"/>
    <nd ref="12233145790"/>
    <nd ref="12233145791"/>
    <nd ref="512045267"/>
    <nd ref="512045264"/>
    <tag k="addr:city" v="München"/>
    <tag k="addr:country" v="DE"/>
    <tag k="addr:housenumber" v="35"/>
    <tag k="addr:postcode" v="80805"/>
    <tag k="addr:street" v="Osterwaldstraße"/>
    <tag k="building" v="yes"/>
    <tag k="roof:colour" v="grey"/>
  </way>
  <way id="41660564" version="4" timestamp="2024-10-07T20:27:15Z" changeset="157598428" uid="137242" user="Rainero">
    <nd ref="512045268"/>
    <nd ref="12233145788"/>
    <nd ref="12233145787"/>
    <nd ref="12233145785"/>
    <nd ref="12233145786"/>
    <nd ref="512045269"/>
    <nd ref="512045270"/>
    <nd ref="12233145784"/>
    <nd ref="12233145783"/>
    <nd ref="12233145781"/>
    <nd ref="12233145782"/>
    <nd ref="512045271"/>
    <nd ref="512045268"/>
    <tag k="addr:city" v="München"/>
    <tag k="addr:country" v="DE"/>
    <tag k="addr:housenumber" v="33"/>
    <tag k="addr:postcode" v="80805"/>
    <tag k="addr:street" v="Osterwaldstraße"/>
    <tag k="building" v="yes"/>
    <tag k="roof:colour" v="grey"/>
  </way>
  <way id="41660567" version="3" timestamp="2013-09-22T11:08:24Z" changeset="17971624" uid="78613" user="heilbron">
    <nd ref="512045280"/>
    <nd ref="512045281"/>
    <nd ref="512045282"/>
    <nd ref="512045283"/>
    <nd ref="512045280"/>
    <tag k="addr:city" v="München"/>
    <tag k="addr:country" v="DE"/>
    <tag k="addr:housenumber" v="8"/>
    <tag k="addr:postcode" v="80805"/>
    <tag k="addr:street" v="Grammstraße"/>
    <tag k="building" v="yes"/>
    <tag k="roof:colour" v="red"/>
    <tag k="roof:shape" v="gabled"/>
  </way>
  <way id="41660576" version="4" timestamp="2025-02-25T17:27:16Z" changeset="162942238" uid="137242" user="Rainero">
    <nd ref="512045333"/>
    <nd ref="512045334"/>
    <nd ref="512045335"/>
    <nd ref="512045336"/>
    <nd ref="12618643853"/>
    <nd ref="12618643854"/>
    <nd ref="512045337"/>
    <nd ref="12618643850"/>
    <nd ref="12618643849"/>
    <nd ref="512045338"/>
    <nd ref="512045339"/>
    <nd ref="512045340"/>
    <nd ref="12618643851"/>
    <nd ref="12618643852"/>
    <nd ref="512045333"/>
    <tag k="addr:city" v="München"/>
    <tag k="addr:country" v="DE"/>
    <tag k="addr:housenumber" v="5"/>
    <tag k="addr:postcode" v="80805"/>
    <tag k="addr:street" v="Mommsenstraße"/>
    <tag k="building" v="yes"/>
    <tag k="roof:colour" v="grey"/>
    <tag k="roof:shape" v="flat"/>
  </way>
  <way id="47828929" version="4" timestamp="2024-12-29T08:37:48Z" changeset="160740544" uid="22313081" user="Meimax">
    <nd ref="608371008"/>
    <nd ref="608370987"/>
    <nd ref="608370988"/>
    <nd ref="608370982"/>
    <nd ref="608371008"/>
    <tag k="addr:city" v="München"/>
    <tag k="addr:country" v="DE"/>
    <tag k="addr:housenumber" v="10"/>
    <tag k="addr:postcode" v="80805"/>
    <tag k="addr:street" v="Imhofstraße"/>
    <tag k="building" v="house"/>
  </way>
  <way id="47828930" version="2" timestamp="2013-08-14T13:46:32Z" changeset="17346135" uid="56526" user="JJ Rammerl">
    <nd ref="608371075"/>
    <nd ref="608371037"/>
    <nd ref="608371040"/>
    <nd ref="608371035"/>
    <nd ref="608371075"/>
    <tag k="addr:city" v="München"/>
    <tag k="addr:country" v="DE"/>
    <tag k="addr:housenumber" v="49"/>
    <tag k="addr:postcode" v="80805"/>
    <tag k="addr:street" v="Osterwaldstraße"/>
    <tag k="building" v="yes"/>
  </way>
  <way id="47828931" version="3" timestamp="2013-08-14T00:40:55Z" changeset="17338921" uid="56526" user="JJ Rammerl">
    <nd ref="608371042"/>
    <nd ref="608371046"/>
    <nd ref="608371049"/>
    <nd ref="608371045"/>
    <nd ref="608371042"/>
    <tag k="addr:city" v="München"/>
    <tag k="addr:country" v="DE"/>
    <tag k="addr:housenumber" v="8"/>
    <tag k="addr:postcode" v="80805"/>
    <tag k="addr:street" v="Imhofstraße"/>
    <tag k="building" v="yes"/>
  </way>
  <way id="47828937" version="3" timestamp="2024-12-29T08:31:28Z" changeset="160740412" uid="22313081" user="Meimax">
    <nd ref="608371158"/>
    <nd ref="608371160"/>
    <nd ref="608371102"/>
    <nd ref="608371100"/>
    <nd ref="608371158"/>
    <tag k="addr:city" v="München"/>
    <tag k="addr:country" v="DE"/>
    <tag k="addr:housenumber" v="10"/>
    <tag k="addr:postcode" v="80805"/>
    <tag k="addr:street" v="Beltweg"/>
    <tag k="building" v="apartments"/>
  </way>
  <way id="47846787" version="4" timestamp="2024-12-29T08:31:28Z" changeset="160740412" uid="22313081" user="Meimax">
    <nd ref="608552401"/>
    <nd ref="608552361"/>
    <nd ref="608552403"/>
    <nd ref="608552402"/>
    <nd ref="608552401"/>
    <tag k="addr:city" v="München"/>
    <tag k="addr:country" v="DE"/>
    <tag k="addr:housenumber" v="22"/>
    <tag k="addr:postcode" v="80805"/>
    <tag k="addr:street" v="Imhofstraße"/>
    <tag k="building" v="house"/>
  </way>
  <way id="47846788" version="4" timestamp="2024-12-29T08:31:28Z" changeset="160740412" uid="22313081" user="Meimax">
    <nd ref="608552362"/>
    <nd ref="608552404"/>
    <nd ref="608552356"/>
    <nd ref="608552363"/>
    <nd ref="608552362"/>
    <tag k="addr:city" v="München"/>
    <tag k="addr:country" v="DE"/>
    <tag k="addr:housenumber" v="20"/>
    <tag k="addr:postcode" v="80805"/>
    <tag k="addr:street" v="Imhofstraße"/>
    <tag k="building" v="house"/>
  </way>
  <way id="47846790" version="3" timestamp="2024-12-29T08:31:28Z" changeset="160740412" uid="22313081" user="Meimax">
    <nd ref="608552405"/>
    <nd ref="608552406"/>
    <nd ref="608552407"/>
    <nd ref="608552376"/>
    <nd ref="608552405"/>
    <tag k="addr:city" v="München"/>
    <tag k="addr:country" v="DE"/>
    <tag k="addr:housenumber" v="5"/>
    <tag k="addr:postcode" v="80805"/>
    <tag k="addr:street" v="Maasweg"/>
    <tag k="building" v="house"/>
  </way>
  <way id="47846791" version="4" timestamp="2024-12-29T08:37:48Z" changeset="160740544" uid="22313081" user="Meimax">
    <nd ref="608552357"/>
    <nd ref="608552359"/>
    <nd ref="608552360"/>
    <nd ref="608552358"/>
    <nd ref="608552357"/>
    <tag k="addr:city" v="München"/>
    <tag k="addr:country" v="DE"/>
    <tag k="addr:housenumber" v="18"/>
    <tag k="addr:postcode" v="80805"/>
    <tag k="addr:street" v="Imhofstraße"/>
    <tag k="building" v="house"/>
  </way>
  <way id="47846793" version="3" timestamp="2024-12-29T08:37:48Z" changeset="160740544" uid="22313081" user="Meimax">
    <nd ref="608552369"/>
    <nd ref="608552371"/>
    <nd ref="608552364"/>
    <nd ref="608552370"/>
    <nd ref="608552369"/>
    <tag k="addr:city" v="München"/>
    <tag k="addr:country" v="DE"/>
    <tag k="addr:housenumber" v="1"/>
    <tag k="addr:postcode" v="80805"/>
    <tag k="addr:street" v="Maasweg"/>
    <tag k="building" v="house"/>
  </way>
  <way id="47846794" version="3" timestamp="2024-12-29T08:31:28Z" changeset="160740412" uid="22313081" user="Meimax">
    <nd ref="608552372"/>
    <nd ref="608552374"/>
    <nd ref="608552375"/>
    <nd ref="608552373"/>
    <nd ref="608552372"/>
    <tag k="addr:city" v="München"/>
    <tag k="addr:country" v="DE"/>
    <tag k="addr:housenumber" v="3"/>
    <tag k="addr:postcode" v="80805"/>
    <tag k="addr:street" v="Maasweg"/>
    <tag k="building" v="house"/>
  </way>
  <way id="47846795" version="4" timestamp="2024-12-29T08:37:48Z" changeset="160740544" uid="22313081" user="Meimax">
    <nd ref="608552380"/>
    <nd ref="608552383"/>
    <nd ref="608552382"/>
    <nd ref="608552381"/>
    <nd ref="608552380"/>
    <tag k="addr:city" v="München"/>
    <tag k="addr:country" v="DE"/>
    <tag k="addr:housenumber" v="12"/>
    <tag k="addr:postcode" v="80805"/>
    <tag k="addr:street" v="Imhofstraße"/>
    <tag k="building" v="house"/>
  </way>
  <way id="47846796" version="3" timestamp="2024-12-29T08:37:48Z" changeset="160740544" uid="22313081" user="Meimax">
    <nd ref="608552366"/>
    <nd ref="608552377"/>
    <nd ref="608552367"/>
    <nd ref="608552365"/>
    <nd ref="608552366"/>
    <tag k="addr:city" v="München"/>
    <tag k="addr:country" v="DE"/>
    <tag k="addr:housenumber" v="2"/>
    <tag k="addr:postcode" v="80805"/>
    <tag k="addr:street" v="Maasweg"/>
    <tag k="building" v="house"/>
  </way>
  <way id="47846797" version="4" timestamp="2021-02-12T15:21:26Z" changeset="99181347" uid="9244608" user="LittleJoeMuc">
    <nd ref="608552384"/>
    <nd ref="608552379"/>
    <nd ref="608552385"/>
    <nd ref="608552368"/>
    <nd ref="608552384"/>
    <tag k="addr:city" v="München"/>
    <tag k="addr:country" v="DE"/>
    <tag k="addr:housenumber" v="14"/>
    <tag k="addr:postcode" v="80805"/>
    <tag k="addr:street" v="Imhofstraße"/>
    <tag k="building" v="detached"/>
  </way>
  <way id="47846802" version="3" timestamp="2024-12-29T08:31:28Z" changeset="160740412" uid="22313081" user="Meimax">
    <nd ref="608552411"/>
    <nd ref="608552399"/>
    <nd ref="608552400"/>
    <nd ref="608552412"/>
    <nd ref="608552411"/>
    <tag k="addr:city" v="München"/>
    <tag k="addr:country" v="DE"/>
    <tag k="addr:housenumber" v="4"/>
    <tag k="addr:postcode" v="80805"/>
    <tag k="addr:street" v="Beltweg"/>
    <tag k="building" v="house"/>
  </way>
  <way id="48145313" version="16" timestamp="2025-01-12T12:07:23Z" changeset="161268959" uid="2815653" user="DaxServer">
    <nd ref="611866894"/>
    <nd ref="20461934"/>
    <nd ref="1015838854"/>
    <nd ref="3897820200"/>
    <nd ref="1015838841"/>
    <tag k="bicycle" v="yes"/>
    <tag k="class:bicycle" v="1"/>
    <tag k="cycleway:right" v="share_busway"/>
    <tag k="highway" v="trunk_link"/>
    <tag k="lit" v="yes"/>
    <tag k="maxspeed" v="50"/>
    <tag k="name" v="Dietlindenstraße"/>
    <tag k="oneway" v="yes"/>
    <tag k="surface" v="asphalt"/>
    <tag k="tmc" v="DE:35350/35351"/>
    <tag k="wikidata" v="Q118786918"/>
  </way>
  <way id="48434980" version="4" timestamp="2023-03-19T17:34:51Z" changeset="133867150" uid="8045800" user="tobgo">
    <nd ref="615140673"/>
    <nd ref="615140677"/>
    <nd ref="615140680"/>
    <nd ref="615140684"/>
    <nd ref="615140673"/>
    <tag k="addr:city" v="München"/>
    <tag k="addr:country" v="DE"/>
    <tag k="addr:housenumber" v="68"/>
    <tag k="addr:postcode" v="80805"/>
    <tag k="addr:street" v="Osterwaldstraße"/>
    <tag k="building" v="yes"/>
    <tag k="building:levels" v="2"/>
    <tag k="roof:orientation" v="along"/>
    <tag k="roof:shape" v="gabled"/>
  </way>
  <way id="87358347" version="9" timestamp="2023-11-11T16:47:06Z" changeset="143907289" uid="18493611" user="MunichWays">
    <nd ref="1015875997"/>
    <nd ref="1015876001"/>
    <nd ref="1015876028"/>
    <nd ref="1072830609"/>
    <nd ref="1072886871"/>
    <nd ref="1584944510"/>
    <nd ref="1072830550"/>
    <nd ref="1072830613"/>
    <nd ref="1072830588"/>
    <nd ref="1072830703"/>
    <nd ref="45372760"/>
    <tag k="class:bicycle" v="-2"/>
    <tag k="highway" v="residential"/>
    <tag k="lit" v="yes"/>
    <tag k="maxspeed" v="50"/>
    <tag k="name" v="Mannlichstraße"/>
    <tag k="oneway" v="yes"/>
    <tag k="postal_code" v="80805"/>
    <tag k="surface" v="asphalt"/>
  </way>
  <way id="89360864" version="12" timestamp="2025-02-26T09:39:20Z" changeset="162963844" uid="11758604" user="map per">
    <nd ref="75910683"/>
    <nd ref="433209636"/>
    <tag k="bicycle" v="yes"/>
    <tag k="class:bicycle" v="1"/>
    <tag k="cycleway:both" v="no"/>
    <tag k="foot" v="yes"/>
    <tag k="highway" v="residential"/>
    <tag k="lit" v="yes"/>
    <tag k="maxspeed:type" v="DE:urban"/>
    <tag k="name" v="Schwedenstraße"/>
    <tag k="oneway" v="no"/>
    <tag k="sidewalk:both" v="yes"/>
    <tag k="sidewalk:both:surface" v="paving_stones"/>
    <tag k="smoothness" v="good"/>
    <tag k="surface" v="asphalt"/>
  </way>
  <way id="89360868" version="11" timestamp="2023-10-21T22:28:52Z" changeset="142942321" uid="3075580" user="Linda89">
    <nd ref="506338909"/>
    <nd ref="45385156"/>
    <nd ref="506338919"/>
    <nd ref="30564380"/>
    <tag k="bicycle" v="yes"/>
    <tag k="class:bicycle" v="1"/>
    <tag k="cycleway:both" v="separate"/>
    <tag k="destination:backward" v="Nyphenburg;Olypiapark"/>
    <tag k="highway" v="residential"/>
    <tag k="lit" v="yes"/>
    <tag k="maxspeed" v="30"/>
    <tag k="name" v="Osterwaldstraße"/>
    <tag k="postal_code" v="80805"/>
    <tag k="sidewalk:left" v="yes"/>
    <tag k="sidewalk:right" v="separate"/>
    <tag k="smoothness" v="good"/>
    <tag k="surface" v="asphalt"/>
  </way>
  <way id="92417836" version="14" timestamp="2025-02-25T17:27:16Z" changeset="162942238" uid="137242" user="Rainero">
    <nd ref="45372760"/>
    <nd ref="1924180822"/>
    <nd ref="2036236851"/>
    <nd ref="1072830681"/>
    <nd ref="2036236836"/>
    <nd ref="1072830642"/>
    <nd ref="1072830614"/>
    <nd ref="1072830704"/>
    <nd ref="2036236845"/>
    <nd ref="2036236888"/>
    <nd ref="2036236854"/>
    <nd ref="45372774"/>
    <nd ref="12618643834"/>
    <nd ref="1818808073"/>
    <nd ref="45372775"/>
    <tag k="class:bicycle" v="-1"/>
    <tag k="highway" v="residential"/>
    <tag k="lit" v="yes"/>
    <tag k="maxspeed" v="30"/>
    <tag k="name" v="Mannlichstraße"/>
    <tag k="postal_code" v="80805"/>
    <tag k="sidewalk" v="both"/>
    <tag k="sidewalk:left:smoothness" v="good"/>
    <tag k="sidewalk:left:surface" v="paving_stones"/>
    <tag k="sidewalk:left:width" v="1.50"/>
    <tag k="sidewalk:right:smoothness" v="good"/>
    <tag k="sidewalk:right:surface" v="paving_stones"/>
    <tag k="sidewalk:right:width" v="1.50"/>
    <tag k="surface" v="asphalt"/>
  </way>
  <way id="92869190" version="2" timestamp="2013-08-14T13:46:35Z" changeset="17346135" uid="56526" user="JJ Rammerl">
    <nd ref="1076864776"/>
    <nd ref="1076864765"/>
    <nd ref="1076864812"/>
    <nd ref="1076864816"/>
    <nd ref="1076864776"/>
    <tag k="addr:city" v="München"/>
    <tag k="addr:country" v="DE"/>
    <tag k="addr:housenumber" v="72"/>
    <tag k="addr:postcode" v="80805"/>
    <tag k="addr:street" v="Osterwaldstraße"/>
    <tag k="building" v="yes"/>
  </way>
  <way id="92929941" version="2" timestamp="2013-08-14T13:46:34Z" changeset="17346135" uid="56526" user="JJ Rammerl">
    <nd ref="1077371403"/>
    <nd ref="1077371383"/>
    <nd ref="1077371156"/>
    <nd ref="1077371199"/>
    <nd ref="1077371403"/>
    <tag k="addr:city" v="München"/>
    <tag k="addr:country" v="DE"/>
    <tag k="addr:housenumber" v="66"/>
    <tag k="addr:postcode" v="80805"/>
    <tag k="addr:street" v="Osterwaldstraße"/>
    <tag k="building" v="yes"/>
  </way>
  <way id="92929945" version="5" timestamp="2022-04-06T14:33:54Z" changeset="119390607" uid="4376164" user="redweizn">
    <nd ref="1077371192"/>
    <nd ref="1077371151"/>
    <nd ref="1077371104"/>
    <nd ref="1077371228"/>
    <nd ref="1077371246"/>
    <nd ref="1077371268"/>
    <nd ref="1077371192"/>
    <tag k="addr:city" v="München"/>
    <tag k="addr:country" v="DE"/>
    <tag k="addr:housenumber" v="74"/>
    <tag k="addr:postcode" v="80805"/>
    <tag k="addr:street" v="Osterwaldstraße"/>
    <tag k="building" v="apartments"/>
    <tag k="building:levels" v="2"/>
    <tag k="roof:shape" v="quadruple_saltbox"/>
  </way>
  <way id="92929947" version="2" timestamp="2013-08-13T22:13:17Z" changeset="17337791" uid="56526" user="JJ Rammerl">
    <nd ref="1077371309"/>
    <nd ref="1077371318"/>
    <nd ref="1077371127"/>
    <nd ref="1077371279"/>
    <nd ref="1077371390"/>
    <nd ref="1077371239"/>
    <nd ref="1077371359"/>
    <nd ref="1077371098"/>
    <nd ref="1077371218"/>
    <nd ref="1077371146"/>
    <nd ref="1077371309"/>
    <tag k="addr:city" v="München"/>
    <tag k="addr:country" v="DE"/>
    <tag k="addr:housenumber" v="1"/>
    <tag k="addr:postcode" v="80805"/>
    <tag k="addr:street" v="Weizenfeldstraße"/>
    <tag k="building" v="yes"/>
  </way>
  <way id="92929949" version="2" timestamp="2013-08-14T13:46:32Z" changeset="17346135" uid="56526" user="JJ Rammerl">
    <nd ref="1077371369"/>
    <nd ref="1077371340"/>
    <nd ref="1077371357"/>
    <nd ref="1077371197"/>
    <nd ref="1077371126"/>
    <nd ref="1077371299"/>
    <nd ref="1077371167"/>
    <nd ref="1077371155"/>
    <nd ref="1077371100"/>
    <nd ref="1077371236"/>
    <nd ref="1077371115"/>
    <nd ref="1077371145"/>
    <nd ref="1077371369"/>
    <tag k="addr:city" v="München"/>
    <tag k="addr:country" v="DE"/>
    <tag k="addr:housenumber" v="45"/>
    <tag k="addr:postcode" v="80805"/>
    <tag k="addr:street" v="Schwedenstraße"/>
    <tag k="building" v="yes"/>
  </way>
  <way id="92929950" version="2" timestamp="2013-08-14T13:46:34Z" changeset="17346135" uid="56526" user="JJ Rammerl">
    <nd ref="1077371370"/>
    <nd ref="1077371341"/>
    <nd ref="1077371130"/>
    <nd ref="1077371148"/>
    <nd ref="1077371370"/>
    <tag k="addr:city" v="München"/>
    <tag k="addr:country" v="DE"/>
    <tag k="addr:housenumber" v="64"/>
    <tag k="addr:postcode" v="80805"/>
    <tag k="addr:street" v="Osterwaldstraße"/>
    <tag k="building" v="yes"/>
  </way>
  <way id="92929954" version="2" timestamp="2013-08-14T13:46:32Z" changeset="17346135" uid="56526" user="JJ Rammerl">
    <nd ref="1077371243"/>
    <nd ref="1077371223"/>
    <nd ref="1077371310"/>
    <nd ref="1077371334"/>
    <nd ref="1077371243"/>
    <tag k="addr:city" v="München"/>
    <tag k="addr:country" v="DE"/>
    <tag k="addr:housenumber" v="49a"/>
    <tag k="addr:postcode" v="80805"/>
    <tag k="addr:street" v="Schwedenstraße"/>
    <tag k="building" v="yes"/>
  </way>
  <way id="92929955" version="5" timestamp="2022-04-06T14:33:57Z" changeset="119390607" uid="4376164" user="redweizn">
    <nd ref="1077371384"/>
    <nd ref="1077371159"/>
    <nd ref="1077371347"/>
    <nd ref="1077371232"/>
    <nd ref="1077371107"/>
    <nd ref="1077371295"/>
    <nd ref="1077371242"/>
    <nd ref="1077371121"/>
    <nd ref="1077371305"/>
    <nd ref="1077371207"/>
    <nd ref="1077371389"/>
    <nd ref="1077371259"/>
    <nd ref="1077371137"/>
    <nd ref="1077371330"/>
    <nd ref="1077371266"/>
    <nd ref="1077371384"/>
    <tag k="addr:city" v="München"/>
    <tag k="addr:country" v="DE"/>
    <tag k="addr:housenumber" v="57"/>
    <tag k="addr:postcode" v="80805"/>
    <tag k="addr:street" v="Schwedenstraße"/>
    <tag k="building" v="apartments"/>
    <tag k="building:levels" v="2"/>
    <tag k="roof:levels" v="0"/>
    <tag k="roof:shape" v="quadruple_saltbox"/>
  </way>
  <way id="92929959" version="3" timestamp="2022-04-24T13:25:58Z" changeset="120123569" uid="8312062" user="Fadatag">
    <nd ref="1077371179"/>
    <nd ref="1077371141"/>
    <nd ref="1077371297"/>
    <nd ref="1077371264"/>
    <nd ref="1077371179"/>
    <tag k="addr:city" v="München"/>
    <tag k="addr:country" v="DE"/>
    <tag k="addr:housenumber" v="53"/>
    <tag k="addr:postcode" v="80805"/>
    <tag k="addr:street" v="Schwedenstraße"/>
    <tag k="building" v="detached"/>
  </way>
  <way id="92929960" version="6" timestamp="2022-04-06T14:33:23Z" changeset="119390607" uid="4376164" user="redweizn">
    <nd ref="1077371405"/>
    <nd ref="1077371122"/>
    <nd ref="1077371227"/>
    <nd ref="1077371245"/>
    <nd ref="1077371405"/>
    <tag k="addr:city" v="München"/>
    <tag k="addr:country" v="DE"/>
    <tag k="addr:housenumber" v="58"/>
    <tag k="addr:postcode" v="80805"/>
    <tag k="addr:street" v="Osterwaldstraße"/>
    <tag k="building" v="residential"/>
    <tag k="building:levels" v="2"/>
    <tag k="roof:shape" v="skillion"/>
  </way>
  <way id="92929961" version="2" timestamp="2013-08-14T13:46:35Z" changeset="17346135" uid="56526" user="JJ Rammerl">
    <nd ref="1077371208"/>
    <nd ref="1077371237"/>
    <nd ref="1077371328"/>
    <nd ref="1077371287"/>
    <nd ref="1077371208"/>
    <tag k="addr:city" v="München"/>
    <tag k="addr:country" v="DE"/>
    <tag k="addr:housenumber" v="70"/>
    <tag k="addr:postcode" v="80805"/>
    <tag k="addr:street" v="Osterwaldstraße"/>
    <tag k="building" v="yes"/>
  </way>
  <way id="92929964" version="2" timestamp="2013-08-14T13:46:34Z" changeset="17346135" uid="56526" user="JJ Rammerl">
    <nd ref="1077371169"/>
    <nd ref="1077371212"/>
    <nd ref="1077371293"/>
    <nd ref="1077371261"/>
    <nd ref="1077371169"/>
    <tag k="addr:city" v="München"/>
    <tag k="addr:country" v="DE"/>
    <tag k="addr:housenumber" v="60"/>
    <tag k="addr:postcode" v="80805"/>
    <tag k="addr:street" v="Osterwaldstraße"/>
    <tag k="building" v="yes"/>
  </way>
  <way id="92929968" version="2" timestamp="2013-08-14T13:46:34Z" changeset="17346135" uid="56526" user="JJ Rammerl">
    <nd ref="1077371325"/>
    <nd ref="1077371300"/>
    <nd ref="1077371226"/>
    <nd ref="1077371337"/>
    <nd ref="1077371144"/>
    <nd ref="1077371117"/>
    <nd ref="1077371325"/>
    <tag k="addr:city" v="München"/>
    <tag k="addr:country" v="DE"/>
    <tag k="addr:housenumber" v="62"/>
    <tag k="addr:postcode" v="80805"/>
    <tag k="addr:street" v="Osterwaldstraße"/>
    <tag k="building" v="yes"/>
  </way>
  <way id="92929975" version="2" timestamp="2013-08-14T13:46:31Z" changeset="17346135" uid="56526" user="JJ Rammerl">
    <nd ref="1077371230"/>
    <nd ref="1077371258"/>
    <nd ref="1077371136"/>
    <nd ref="1077371303"/>
    <nd ref="1077371329"/>
    <nd ref="1077371387"/>
    <nd ref="1077371096"/>
    <nd ref="1077371322"/>
    <nd ref="1077371230"/>
    <tag k="addr:city" v="München"/>
    <tag k="addr:country" v="DE"/>
    <tag k="addr:housenumber" v="43"/>
    <tag k="addr:postcode" v="80805"/>
    <tag k="addr:street" v="Schwedenstraße"/>
    <tag k="building" v="yes"/>
  </way>
  <way id="92929977" version="3" timestamp="2022-04-24T13:25:58Z" changeset="120123569" uid="8312062" user="Fadatag">
    <nd ref="1077371338"/>
    <nd ref="1077371317"/>
    <nd ref="1077371101"/>
    <nd ref="1077371124"/>
    <nd ref="1077371338"/>
    <tag k="addr:city" v="München"/>
    <tag k="addr:country" v="DE"/>
    <tag k="addr:housenumber" v="51"/>
    <tag k="addr:postcode" v="80805"/>
    <tag k="addr:street" v="Schwedenstraße"/>
    <tag k="building" v="detached"/>
  </way>
  <way id="92929982" version="2" timestamp="2013-08-14T13:46:32Z" changeset="17346135" uid="56526" user="JJ Rammerl">
    <nd ref="1077371391"/>
    <nd ref="1077371361"/>
    <nd ref="1077371138"/>
    <nd ref="1077371170"/>
    <nd ref="1077371391"/>
    <tag k="addr:city" v="München"/>
    <tag k="addr:country" v="DE"/>
    <tag k="addr:housenumber" v="49"/>
    <tag k="addr:postcode" v="80805"/>
    <tag k="addr:street" v="Schwedenstraße"/>
    <tag k="building" v="yes"/>
  </way>
  <way id="92929983" version="2" timestamp="2013-08-13T22:13:24Z" changeset="17337791" uid="56526" user="JJ Rammerl">
    <nd ref="1077371211"/>
    <nd ref="1077371302"/>
    <nd ref="1077371257"/>
    <nd ref="1077371189"/>
    <nd ref="1077371267"/>
    <nd ref="1077371386"/>
    <nd ref="1077371206"/>
    <nd ref="1077371292"/>
    <nd ref="1077371211"/>
    <tag k="addr:city" v="München"/>
    <tag k="addr:country" v="DE"/>
    <tag k="addr:housenumber" v="5"/>
    <tag k="addr:postcode" v="80805"/>
    <tag k="addr:street" v="Weizenfeldstraße"/>
    <tag k="building" v="yes"/>
  </way>
  <way id="92929986" version="2" timestamp="2013-08-13T22:13:23Z" changeset="17337791" uid="56526" user="JJ Rammerl">
    <nd ref="1077371399"/>
    <nd ref="1077371382"/>
    <nd ref="1077371253"/>
    <nd ref="1077371364"/>
    <nd ref="1077371142"/>
    <nd ref="1077371134"/>
    <nd ref="1077371198"/>
    <nd ref="1077371180"/>
    <nd ref="1077371399"/>
    <tag k="addr:city" v="München"/>
    <tag k="addr:country" v="DE"/>
    <tag k="addr:housenumber" v="3"/>
    <tag k="addr:postcode" v="80805"/>
    <tag k="addr:street" v="Weizenfeldstraße"/>
    <tag k="building" v="yes"/>
  </way>
  <way id="92929987" version="3" timestamp="2022-02-18T13:25:10Z" changeset="117565104" uid="4376164" user="redweizn">
    <nd ref="1077371400"/>
    <nd ref="1077371367"/>
    <nd ref="1077371217"/>
    <nd ref="1077371182"/>
    <nd ref="1077371400"/>
    <tag k="addr:city" v="München"/>
    <tag k="addr:country" v="DE"/>
    <tag k="addr:housenumber" v="55"/>
    <tag k="addr:postcode" v="80805"/>
    <tag k="addr:street" v="Schwedenstraße"/>
    <tag k="building" v="detached"/>
  </way>
  <way id="116531398" version="5" timestamp="2022-03-25T05:53:00Z" changeset="118891747" uid="4376164" user="redweizn">
    <nd ref="1313466882"/>
    <nd ref="1313466563"/>
    <nd ref="1313466473"/>
    <nd ref="1313466238"/>
    <nd ref="1313466882"/>
    <tag k="addr:city" v="München"/>
    <tag k="addr:country" v="DE"/>
    <tag k="addr:housenumber" v="6"/>
    <tag k="addr:postcode" v="80802"/>
    <tag k="addr:street" v="Keferstraße"/>
    <tag k="building" v="residential"/>
    <tag k="building:levels" v="2"/>
    <tag k="roof:levels" v="1"/>
    <tag k="roof:shape" v="double_saltbox"/>
  </way>
  <way id="116531439" version="5" timestamp="2022-03-25T05:53:12Z" changeset="118891747" uid="4376164" user="redweizn">
    <nd ref="1313466709"/>
    <nd ref="1313466692"/>
    <nd ref="1313466801"/>
    <nd ref="1313466128"/>
    <nd ref="1313466709"/>
    <tag k="addr:city" v="München"/>
    <tag k="addr:country" v="DE"/>
    <tag k="addr:housenumber" v="4"/>
    <tag k="addr:postcode" v="80802"/>
    <tag k="addr:street" v="Keferstraße"/>
    <tag k="building" v="detached"/>
    <tag k="building:levels" v="2"/>
    <tag k="roof:levels" v="1"/>
    <tag k="roof:shape" v="double_saltbox"/>
  </way>
  <way id="116531464" version="6" timestamp="2022-03-21T05:56:21Z" changeset="118719190" uid="4376164" user="redweizn">
    <nd ref="1313466267"/>
    <nd ref="1313466895"/>
    <nd ref="1313466825"/>
    <nd ref="1313466493"/>
    <nd ref="1313466267"/>
    <tag k="addr:city" v="München"/>
    <tag k="addr:country" v="DE"/>
    <tag k="addr:housenumber" v="2"/>
    <tag k="addr:postcode" v="80802"/>
    <tag k="addr:street" v="Biedersteiner Straße"/>
    <tag k="building" v="apartments"/>
    <tag k="building:levels" v="2"/>
    <tag k="roof:levels" v="1"/>
    <tag k="roof:shape" v="gabled"/>
    <tag k="wikidata" v="Q41210803"/>
  </way>
  <way id="116531508" version="5" timestamp="2022-03-25T05:53:40Z" changeset="118891747" uid="4376164" user="redweizn">
    <nd ref="1313466323"/>
    <nd ref="1313466967"/>
    <nd ref="1313466440"/>
    <nd ref="1313466153"/>
    <nd ref="1313466323"/>
    <tag k="addr:city" v="München"/>
    <tag k="addr:country" v="DE"/>
    <tag k="addr:housenumber" v="2"/>
    <tag k="addr:postcode" v="80802"/>
    <tag k="addr:street" v="Keferstraße"/>
    <tag k="building" v="apartments"/>
    <tag k="building:levels" v="4"/>
    <tag k="roof:levels" v="0"/>
    <tag k="roof:shape" v="flat"/>
  </way>
  <way id="117589808" version="3" timestamp="2013-09-22T11:08:21Z" changeset="17971624" uid="78613" user="heilbron">
    <nd ref="1324416038"/>
    <nd ref="1324415703"/>
    <nd ref="1324415913"/>
    <nd ref="1324415271"/>
    <nd ref="1324416038"/>
    <tag k="addr:city" v="München"/>
    <tag k="addr:country" v="DE"/>
    <tag k="addr:housenumber" v="40"/>
    <tag k="addr:postcode" v="80805"/>
    <tag k="addr:street" v="Schwedenstraße"/>
    <tag k="building" v="yes"/>
    <tag k="roof:colour" v="red"/>
    <tag k="roof:shape" v="gabled"/>
  </way>
  <way id="117589813" version="3" timestamp="2013-09-22T11:08:17Z" changeset="17971624" uid="78613" user="heilbron">
    <nd ref="1324414812"/>
    <nd ref="1324415951"/>
    <nd ref="1324414701"/>
    <nd ref="1324415530"/>
    <nd ref="1324414812"/>
    <tag k="addr:city" v="München"/>
    <tag k="addr:country" v="DE"/>
    <tag k="addr:housenumber" v="23"/>
    <tag k="addr:postcode" v="80802"/>
    <tag k="addr:street" v="Keferstraße"/>
    <tag k="building" v="yes"/>
    <tag k="roof:colour" v="darkgrey"/>
    <tag k="roof:shape" v="pyramidal"/>
  </way>
  <way id="117589818" version="2" timestamp="2013-08-14T13:46:33Z" changeset="17346135" uid="56526" user="JJ Rammerl">
    <nd ref="1324415657"/>
    <nd ref="1324415867"/>
    <nd ref="1324415190"/>
    <nd ref="1324415447"/>
    <nd ref="1324415657"/>
    <tag k="addr:city" v="München"/>
    <tag k="addr:country" v="DE"/>
    <tag k="addr:housenumber" v="52"/>
    <tag k="addr:postcode" v="80805"/>
    <tag k="addr:street" v="Schwedenstraße"/>
    <tag k="building" v="yes"/>
  </way>
  <way id="117589829" version="5" timestamp="2013-11-03T15:39:10Z" changeset="18696252" uid="1753028" user="cüper">
    <nd ref="1324415694"/>
    <nd ref="1324415485"/>
    <nd ref="1324414654"/>
    <nd ref="2458349203"/>
    <nd ref="1324415694"/>
    <tag k="addr:city" v="München"/>
    <tag k="addr:country" v="DE"/>
    <tag k="addr:housenumber" v="14"/>
    <tag k="addr:postcode" v="80802"/>
    <tag k="addr:street" v="Keferstraße"/>
    <tag k="building" v="residential"/>
    <tag k="roof:colour" v="red"/>
  </way>
  <way id="117589834" version="3" timestamp="2013-09-22T11:08:22Z" changeset="17971624" uid="78613" user="heilbron">
    <nd ref="1324414678"/>
    <nd ref="1324415505"/>
    <nd ref="1324415715"/>
    <nd ref="1324415385"/>
    <nd ref="1324414678"/>
    <tag k="addr:city" v="München"/>
    <tag k="addr:country" v="DE"/>
    <tag k="addr:housenumber" v="44"/>
    <tag k="addr:postcode" v="80805"/>
    <tag k="addr:street" v="Schwedenstraße"/>
    <tag k="building" v="yes"/>
    <tag k="roof:colour" v="brown"/>
    <tag k="roof:shape" v="gabled"/>
  </way>
  <way id="117589835" version="5" timestamp="2022-03-25T05:51:36Z" changeset="118891737" uid="4376164" user="redweizn">
    <nd ref="1324416083"/>
    <nd ref="1324414814"/>
    <nd ref="1324415648"/>
    <nd ref="1324415853"/>
    <nd ref="1324416083"/>
    <tag k="addr:city" v="München"/>
    <tag k="addr:country" v="DE"/>
    <tag k="addr:housenumber" v="20"/>
    <tag k="addr:postcode" v="80802"/>
    <tag k="addr:street" v="Jungwirthstraße"/>
    <tag k="building" v="terrace"/>
    <tag k="building:levels" v="2"/>
    <tag k="roof:levels" v="1"/>
    <tag k="roof:orientation" v="across"/>
    <tag k="roof:shape" v="gabled"/>
  </way>
  <way id="117589850" version="2" timestamp="2013-08-13T22:13:18Z" changeset="17337791" uid="56526" user="JJ Rammerl">
    <nd ref="1324415284"/>
    <nd ref="1324414897"/>
    <nd ref="1324415114"/>
    <nd ref="1324415926"/>
    <nd ref="1324415284"/>
    <tag k="addr:city" v="München"/>
    <tag k="addr:country" v="DE"/>
    <tag k="addr:housenumber" v="11"/>
    <tag k="addr:postcode" v="80802"/>
    <tag k="addr:street" v="Keferstraße"/>
    <tag k="building" v="yes"/>
  </way>
  <way id="117589861" version="3" timestamp="2013-09-22T11:08:21Z" changeset="17971624" uid="78613" user="heilbron">
    <nd ref="1324416112"/>
    <nd ref="1324414846"/>
    <nd ref="1324415672"/>
    <nd ref="1324415883"/>
    <nd ref="1324416112"/>
    <tag k="addr:city" v="München"/>
    <tag k="addr:country" v="DE"/>
    <tag k="addr:housenumber" v="42"/>
    <tag k="addr:postcode" v="80805"/>
    <tag k="addr:street" v="Osterwaldstraße"/>
    <tag k="building" v="yes"/>
    <tag k="roof:colour" v="darkgrey"/>
  </way>
  <way id="117589864" version="3" timestamp="2013-09-22T11:08:23Z" changeset="17971624" uid="78613" user="heilbron">
    <nd ref="1324416048"/>
    <nd ref="1324414781"/>
    <nd ref="1324415919"/>
    <nd ref="1324414674"/>
    <nd ref="1324416048"/>
    <tag k="addr:city" v="München"/>
    <tag k="addr:country" v="DE"/>
    <tag k="addr:housenumber" v="6"/>
    <tag k="addr:postcode" v="80805"/>
    <tag k="addr:street" v="Wilhelm-Ostwald-Straße"/>
    <tag k="building" v="yes"/>
    <tag k="roof:colour" v="brown"/>
    <tag k="roof:shape" v="gabled"/>
  </way>
  <way id="117589870" version="4" timestamp="2021-02-12T15:21:17Z" changeset="99181347" uid="9244608" user="LittleJoeMuc">
    <nd ref="1324414871"/>
    <nd ref="1324415096"/>
    <nd ref="1324415905"/>
    <nd ref="1324414656"/>
    <nd ref="1324414871"/>
    <tag k="addr:city" v="München"/>
    <tag k="addr:country" v="DE"/>
    <tag k="addr:housenumber" v="7"/>
    <tag k="addr:postcode" v="80805"/>
    <tag k="addr:street" v="Imhofstraße"/>
    <tag k="building" v="detached"/>
  </way>
  <way id="117589871" version="3" timestamp="2013-08-14T00:40:50Z" changeset="17338921" uid="56526" user="JJ Rammerl">
    <nd ref="1324414900"/>
    <nd ref="1324415117"/>
    <nd ref="1324414776"/>
    <nd ref="1324414998"/>
    <nd ref="1324414900"/>
    <tag k="addr:city" v="München"/>
    <tag k="addr:country" v="DE"/>
    <tag k="addr:housenumber" v="11"/>
    <tag k="addr:postcode" v="80805"/>
    <tag k="addr:street" v="Imhofstraße"/>
    <tag k="building" v="yes"/>
  </way>
  <way id="117589872" version="3" timestamp="2022-02-18T13:23:38Z" changeset="117565104" uid="4376164" user="redweizn">
    <nd ref="1324415878"/>
    <nd ref="1324415669"/>
    <nd ref="1324415461"/>
    <nd ref="1324416109"/>
    <nd ref="1324415878"/>
    <tag k="addr:city" v="München"/>
    <tag k="addr:country" v="DE"/>
    <tag k="addr:housenumber" v="52"/>
    <tag k="addr:postcode" v="80805"/>
    <tag k="addr:street" v="Osterwaldstraße"/>
    <tag k="building" v="apartments"/>
  </way>
  <way id="117589881" version="3" timestamp="2013-09-22T11:08:20Z" changeset="17971624" uid="78613" user="heilbron">
    <nd ref="1324414907"/>
    <nd ref="1324415729"/>
    <nd ref="1324415936"/>
    <nd ref="1324415618"/>
    <nd ref="1324414907"/>
    <tag k="addr:city" v="München"/>
    <tag k="addr:country" v="DE"/>
    <tag k="addr:housenumber" v="36"/>
    <tag k="addr:postcode" v="80805"/>
    <tag k="addr:street" v="Schwedenstraße"/>
    <tag k="building" v="yes"/>
    <tag k="roof:shape" v="gabled"/>
  </way>
  <way id="117589882" version="2" timestamp="2013-08-13T22:13:25Z" changeset="17337791" uid="56526" user="JJ Rammerl">
    <nd ref="1324415650"/>
    <nd ref="1324414943"/>
    <nd ref="1324415857"/>
    <nd ref="1324416088"/>
    <nd ref="1324415650"/>
    <tag k="addr:city" v="München"/>
    <tag k="addr:country" v="DE"/>
    <tag k="addr:housenumber" v="6a"/>
    <tag k="addr:postcode" v="80805"/>
    <tag k="addr:street" v="Wilhelm-Ostwald-Straße"/>
    <tag k="building" v="yes"/>
  </way>
  <way id="117589887" version="2" timestamp="2013-08-14T13:46:33Z" changeset="17346135" uid="56526" user="JJ Rammerl">
    <nd ref="1324415259"/>
    <nd ref="1324414868"/>
    <nd ref="1324415090"/>
    <nd ref="1324415900"/>
    <nd ref="1324415259"/>
    <tag k="addr:city" v="München"/>
    <tag k="addr:country" v="DE"/>
    <tag k="addr:housenumber" v="54"/>
    <tag k="addr:postcode" v="80805"/>
    <tag k="addr:street" v="Schwedenstraße"/>
    <tag k="building" v="yes"/>
  </way>
  <way id="117589894" version="3" timestamp="2013-09-22T11:08:17Z" changeset="17971624" uid="78613" user="heilbron">
    <nd ref="1324415186"/>
    <nd ref="1324415865"/>
    <nd ref="1324414726"/>
    <nd ref="1324415983"/>
    <nd ref="1324415186"/>
    <tag k="addr:city" v="München"/>
    <tag k="addr:country" v="DE"/>
    <tag k="addr:housenumber" v="25a"/>
    <tag k="addr:postcode" v="80802"/>
    <tag k="addr:street" v="Keferstraße"/>
    <tag k="building" v="yes"/>
    <tag k="roof:colour" v="darkgrey"/>
    <tag k="roof:shape" v="pyramidal"/>
  </way>
  <way id="117589899" version="5" timestamp="2017-07-20T21:04:49Z" changeset="50442550" uid="371369" user="mucx">
    <nd ref="2036265382"/>
    <nd ref="4983774901"/>
    <nd ref="4983774902"/>
    <nd ref="2036265383"/>
    <nd ref="1324415129"/>
    <nd ref="1324415518"/>
    <nd ref="1324414689"/>
    <nd ref="2036265388"/>
    <nd ref="2036265382"/>
    <tag k="addr:city" v="München"/>
    <tag k="addr:country" v="DE"/>
    <tag k="addr:housenumber" v="15"/>
    <tag k="addr:postcode" v="80802"/>
    <tag k="addr:street" v="Keferstraße"/>
    <tag k="building" v="yes"/>
    <tag k="roof:colour" v="darkgrey"/>
    <tag k="roof:shape" v="hipped"/>
  </way>
  <way id="117589911" version="2" timestamp="2013-08-14T13:46:29Z" changeset="17346135" uid="56526" user="JJ Rammerl">
    <nd ref="1324414860"/>
    <nd ref="1324415080"/>
    <nd ref="1324415892"/>
    <nd ref="1324414644"/>
    <nd ref="1324414860"/>
    <tag k="addr:city" v="München"/>
    <tag k="addr:country" v="DE"/>
    <tag k="addr:housenumber" v="23"/>
    <tag k="addr:postcode" v="80805"/>
    <tag k="addr:street" v="Schwedenstraße"/>
    <tag k="building" v="yes"/>
  </way>
  <way id="117589915" version="4" timestamp="2013-09-22T11:08:14Z" changeset="17971624" uid="78613" user="heilbron">
    <nd ref="1324416087"/>
    <nd ref="1324414708"/>
    <nd ref="1324415957"/>
    <nd ref="1324414818"/>
    <nd ref="1324416087"/>
    <tag k="addr:city" v="München"/>
    <tag k="addr:country" v="DE"/>
    <tag k="addr:housenumber" v="1"/>
    <tag k="addr:postcode" v="80805"/>
    <tag k="addr:street" v="Imhofstraße"/>
    <tag k="building" v="yes"/>
    <tag k="roof:shape" v="gabled"/>
  </way>
  <way id="117589916" version="3" timestamp="2013-08-14T00:40:54Z" changeset="17338921" uid="56526" user="JJ Rammerl">
    <nd ref="1324415292"/>
    <nd ref="1324414762"/>
    <nd ref="1324415931"/>
    <nd ref="1324415723"/>
    <nd ref="1324415627"/>
    <nd ref="1324415292"/>
    <tag k="addr:city" v="München"/>
    <tag k="addr:country" v="DE"/>
    <tag k="addr:housenumber" v="3a"/>
    <tag k="addr:postcode" v="80805"/>
    <tag k="addr:street" v="Imhofstraße"/>
    <tag k="building" v="yes"/>
  </way>
  <way id="117589921" version="3" timestamp="2013-09-22T11:08:19Z" changeset="17971624" uid="78613" user="heilbron">
    <nd ref="1324414922"/>
    <nd ref="1324414699"/>
    <nd ref="1324415948"/>
    <nd ref="1324415140"/>
    <nd ref="1324414922"/>
    <tag k="addr:city" v="München"/>
    <tag k="addr:country" v="DE"/>
    <tag k="addr:housenumber" v="31"/>
    <tag k="addr:postcode" v="80805"/>
    <tag k="addr:street" v="Schwedenstraße"/>
    <tag k="building" v="yes"/>
    <tag k="roof:shape" v="gabled"/>
  </way>
  <way id="117589923" version="2" timestamp="2013-08-13T22:13:25Z" changeset="17337791" uid="56526" user="JJ Rammerl">
    <nd ref="1324415343"/>
    <nd ref="1324414958"/>
    <nd ref="1324415456"/>
    <nd ref="1324415876"/>
    <nd ref="1324415208"/>
    <nd ref="1324415993"/>
    <nd ref="1324415343"/>
    <tag k="addr:city" v="München"/>
    <tag k="addr:country" v="DE"/>
    <tag k="addr:housenumber" v="8"/>
    <tag k="addr:postcode" v="80802"/>
    <tag k="addr:street" v="Liebergesellstraße"/>
    <tag k="building" v="yes"/>
  </way>
  <way id="117589924" version="4" timestamp="2022-11-03T20:25:31Z" changeset="128454524" uid="536583" user="Strubbl">
    <nd ref="1324415632"/>
    <nd ref="1324414925"/>
    <nd ref="1324415143"/>
    <nd ref="1324415094"/>
    <nd ref="1324415582"/>
    <nd ref="1324416013"/>
    <nd ref="1324414979"/>
    <nd ref="1324414799"/>
    <nd ref="1324415632"/>
    <tag k="addr:city" v="München"/>
    <tag k="addr:country" v="DE"/>
    <tag k="addr:housenumber" v="12"/>
    <tag k="addr:postcode" v="80802"/>
    <tag k="addr:street" v="Keferstraße"/>
    <tag k="building" v="yes"/>
  </way>
  <way id="117589927" version="2" timestamp="2013-08-14T13:46:30Z" changeset="17346135" uid="56526" user="JJ Rammerl">
    <nd ref="1324414948"/>
    <nd ref="1324415043"/>
    <nd ref="1324414826"/>
    <nd ref="1324415182"/>
    <nd ref="1324414948"/>
    <tag k="addr:city" v="München"/>
    <tag k="addr:country" v="DE"/>
    <tag k="addr:housenumber" v="33"/>
    <tag k="addr:postcode" v="80805"/>
    <tag k="addr:street" v="Schwedenstraße"/>
    <tag k="building" v="yes"/>
  </way>
  <way id="117589928" version="3" timestamp="2013-09-22T11:08:24Z" changeset="17971624" uid="78613" user="heilbron">
    <nd ref="1324415650"/>
    <nd ref="1324414819"/>
    <nd ref="1324415178"/>
    <nd ref="1324414943"/>
    <nd ref="1324415650"/>
    <tag k="addr:city" v="München"/>
    <tag k="addr:country" v="DE"/>
    <tag k="addr:housenumber" v="8"/>
    <tag k="addr:postcode" v="80805"/>
    <tag k="addr:street" v="Wilhelm-Ostwald-Straße"/>
    <tag k="building" v="yes"/>
    <tag k="roof:colour" v="darkgrey"/>
  </way>
  <way id="117589931" version="2" timestamp="2013-08-13T22:13:22Z" changeset="17337791" uid="56526" user="JJ Rammerl">
    <nd ref="1324415372"/>
    <nd ref="1324414987"/>
    <nd ref="1324415261"/>
    <nd ref="1324416027"/>
    <nd ref="1324415372"/>
    <tag k="addr:city" v="München"/>
    <tag k="addr:country" v="DE"/>
    <tag k="addr:housenumber" v="24"/>
    <tag k="addr:postcode" v="80802"/>
    <tag k="addr:street" v="Keferstraße"/>
    <tag k="building" v="yes"/>
  </way>
  <way id="117589935" version="5" timestamp="2022-03-25T05:51:47Z" changeset="118891737" uid="4376164" user="redweizn">
    <nd ref="1324415879"/>
    <nd ref="1324415217"/>
    <nd ref="1324415065"/>
    <nd ref="1324415333"/>
    <nd ref="1324415879"/>
    <tag k="addr:city" v="München"/>
    <tag k="addr:country" v="DE"/>
    <tag k="addr:housenumber" v="16"/>
    <tag k="addr:postcode" v="80802"/>
    <tag k="addr:street" v="Jungwirthstraße"/>
    <tag k="building" v="terrace"/>
    <tag k="building:levels" v="2"/>
    <tag k="roof:levels" v="1"/>
    <tag k="roof:orientation" v="across"/>
    <tag k="roof:shape" v="gabled"/>
  </way>
  <way id="117589942" version="3" timestamp="2013-09-22T11:08:22Z" changeset="17971624" uid="78613" user="heilbron">
    <nd ref="1324414916"/>
    <nd ref="1324415136"/>
    <nd ref="1324415945"/>
    <nd ref="1324414694"/>
    <nd ref="1324414916"/>
    <tag k="addr:city" v="München"/>
    <tag k="addr:country" v="DE"/>
    <tag k="addr:housenumber" v="45"/>
    <tag k="addr:postcode" v="80805"/>
    <tag k="addr:street" v="Osterwaldstraße"/>
    <tag k="building" v="yes"/>
    <tag k="roof:shape" v="gabled"/>
  </way>
  <way id="117589948" version="4" timestamp="2020-11-21T20:57:27Z" changeset="94561415" uid="43207" user="kdkeller">
    <nd ref="1324415752"/>
    <nd ref="1324415101"/>
    <nd ref="1324414877"/>
    <nd ref="1324415956"/>
    <nd ref="1324415752"/>
    <tag k="addr:city" v="München"/>
    <tag k="addr:country" v="DE"/>
    <tag k="addr:housenumber" v="32"/>
    <tag k="addr:postcode" v="80805"/>
    <tag k="addr:street" v="Biedersteiner Straße"/>
    <tag k="building" v="yes"/>
    <tag k="wikidata" v="Q98741018"/>
  </way>
  <way id="117589954" version="3" timestamp="2013-09-22T11:08:15Z" changeset="17971624" uid="78613" user="heilbron">
    <nd ref="1324415704"/>
    <nd ref="1324414881"/>
    <nd ref="1324415272"/>
    <nd ref="1324414994"/>
    <nd ref="1324415704"/>
    <tag k="addr:city" v="München"/>
    <tag k="addr:country" v="DE"/>
    <tag k="addr:housenumber" v="16"/>
    <tag k="addr:postcode" v="80805"/>
    <tag k="addr:street" v="Osterwaldstraße"/>
    <tag k="building" v="yes"/>
    <tag k="roof:colour" v="red"/>
    <tag k="roof:shape" v="hipped"/>
  </way>
  <way id="117589958" version="5" timestamp="2022-04-06T14:34:21Z" changeset="119390607" uid="4376164" user="redweizn">
    <nd ref="1324415107"/>
    <nd ref="1324415374"/>
    <nd ref="1324414670"/>
    <nd ref="1324414884"/>
    <nd ref="1324415107"/>
    <tag k="addr:city" v="München"/>
    <tag k="addr:country" v="DE"/>
    <tag k="addr:housenumber" v="70"/>
    <tag k="addr:postcode" v="80805"/>
    <tag k="addr:street" v="Schwedenstraße"/>
    <tag k="building" v="apartments"/>
    <tag k="building:levels" v="2"/>
    <tag k="roof:levels" v="1"/>
    <tag k="roof:shape" v="flat"/>
  </way>
  <way id="117589959" version="4" timestamp="2022-03-25T05:52:45Z" changeset="118891737" uid="4376164" user="redweizn">
    <nd ref="1324415315"/>
    <nd ref="1324415565"/>
    <nd ref="1324415676"/>
    <nd ref="1324416093"/>
    <nd ref="1324414824"/>
    <nd ref="1324416117"/>
    <nd ref="1324415315"/>
    <tag k="addr:city" v="München"/>
    <tag k="addr:country" v="DE"/>
    <tag k="addr:housenumber" v="10"/>
    <tag k="addr:postcode" v="80802"/>
    <tag k="addr:street" v="Keferstraße"/>
    <tag k="building" v="residential"/>
    <tag k="building:levels" v="3"/>
    <tag k="roof:levels" v="1"/>
  </way>
  <way id="117589971" version="4" timestamp="2022-02-18T13:23:10Z" changeset="117565104" uid="4376164" user="redweizn">
    <nd ref="1324414787"/>
    <nd ref="1324415219"/>
    <nd ref="1324415465"/>
    <nd ref="1324414745"/>
    <nd ref="1324414787"/>
    <tag k="addr:city" v="München"/>
    <tag k="addr:country" v="DE"/>
    <tag k="addr:housenumber" v="44"/>
    <tag k="addr:postcode" v="80805"/>
    <tag k="addr:street" v="Osterwaldstraße"/>
    <tag k="building" v="apartments"/>
    <tag k="roof:colour" v="darkgrey"/>
  </way>
  <way id="117589972" version="5" timestamp="2022-03-21T05:54:32Z" changeset="118719190" uid="4376164" user="redweizn">
    <nd ref="1324415997"/>
    <nd ref="1324415459"/>
    <nd ref="1324415214"/>
    <nd ref="1324415347"/>
    <nd ref="1324415997"/>
    <tag k="addr:city" v="München"/>
    <tag k="addr:country" v="DE"/>
    <tag k="addr:housenumber" v="15"/>
    <tag k="addr:postcode" v="80802"/>
    <tag k="addr:street" v="Liebergesellstraße"/>
    <tag k="building" v="apartments"/>
    <tag k="building:levels" v="4"/>
    <tag k="roof:levels" v="1"/>
    <tag k="roof:shape" v="gabled"/>
  </way>
  <way id="117589975" version="5" timestamp="2022-03-25T05:52:06Z" changeset="118891737" uid="4376164" user="redweizn">
    <nd ref="1324415780"/>
    <nd ref="1324415658"/>
    <nd ref="1324415192"/>
    <nd ref="1324414690"/>
    <nd ref="1324415834"/>
    <nd ref="1324415780"/>
    <tag k="addr:city" v="München"/>
    <tag k="addr:country" v="DE"/>
    <tag k="addr:housenumber" v="8"/>
    <tag k="addr:postcode" v="80802"/>
    <tag k="addr:street" v="Jungwirthstraße"/>
    <tag k="building" v="terrace"/>
    <tag k="building:levels" v="2"/>
    <tag k="roof:levels" v="1"/>
    <tag k="roof:orientation" v="across"/>
    <tag k="roof:shape" v="gabled"/>
  </way>
  <way id="117589978" version="3" timestamp="2013-08-14T00:40:54Z" changeset="17338921" uid="56526" user="JJ Rammerl">
    <nd ref="1324415812"/>
    <nd ref="1324414989"/>
    <nd ref="1324415695"/>
    <nd ref="1324415487"/>
    <nd ref="1324415812"/>
    <tag k="addr:city" v="München"/>
    <tag k="addr:country" v="DE"/>
    <tag k="addr:housenumber" v="5"/>
    <tag k="addr:postcode" v="80805"/>
    <tag k="addr:street" v="Imhofstraße"/>
    <tag k="building" v="yes"/>
  </way>
  <way id="117590005" version="2" timestamp="2013-08-13T22:13:21Z" changeset="17337791" uid="56526" user="JJ Rammerl">
    <nd ref="1324415163"/>
    <nd ref="1324415432"/>
    <nd ref="1324415034"/>
    <nd ref="1324415307"/>
    <nd ref="1324415163"/>
    <tag k="addr:city" v="München"/>
    <tag k="addr:country" v="DE"/>
    <tag k="addr:housenumber" v="21"/>
    <tag k="addr:postcode" v="80802"/>
    <tag k="addr:street" v="Keferstraße"/>
    <tag k="building" v="yes"/>
  </way>
  <way id="117590021" version="3" timestamp="2013-09-22T11:08:21Z" changeset="17971624" uid="78613" user="heilbron">
    <nd ref="1324415783"/>
    <nd ref="1324415068"/>
    <nd ref="1324415337"/>
    <nd ref="1324414952"/>
    <nd ref="1324415783"/>
    <tag k="addr:city" v="München"/>
    <tag k="addr:country" v="DE"/>
    <tag k="addr:housenumber" v="40"/>
    <tag k="addr:postcode" v="80805"/>
    <tag k="addr:street" v="Osterwaldstraße"/>
    <tag k="building" v="yes"/>
    <tag k="roof:colour" v="darkgrey"/>
  </way>
  <way id="117590023" version="2" timestamp="2013-08-14T13:46:30Z" changeset="17346135" uid="56526" user="JJ Rammerl">
    <nd ref="1324415161"/>
    <nd ref="1324415428"/>
    <nd ref="1324414711"/>
    <nd ref="1324414934"/>
    <nd ref="1324415161"/>
    <tag k="addr:city" v="München"/>
    <tag k="addr:country" v="DE"/>
    <tag k="addr:housenumber" v="35"/>
    <tag k="addr:postcode" v="80805"/>
    <tag k="addr:street" v="Schwedenstraße"/>
    <tag k="building" v="yes"/>
  </way>
  <way id="117590024" version="3" timestamp="2013-09-22T11:08:21Z" changeset="17971624" uid="78613" user="heilbron">
    <nd ref="1324415710"/>
    <nd ref="1324415380"/>
    <nd ref="1324415600"/>
    <nd ref="1324414888"/>
    <nd ref="1324415710"/>
    <tag k="addr:city" v="München"/>
    <tag k="addr:country" v="DE"/>
    <tag k="addr:housenumber" v="4"/>
    <tag k="addr:postcode" v="80805"/>
    <tag k="addr:street" v="Wilhelm-Ostwald-Straße"/>
    <tag k="building" v="yes"/>
    <tag k="roof:shape" v="gabled"/>
  </way>
  <way id="117590027" version="5" timestamp="2022-03-25T05:51:33Z" changeset="118891737" uid="4376164" user="redweizn">
    <nd ref="1324415853"/>
    <nd ref="1324415217"/>
    <nd ref="1324415879"/>
    <nd ref="1324416083"/>
    <nd ref="1324415853"/>
    <tag k="addr:city" v="München"/>
    <tag k="addr:country" v="DE"/>
    <tag k="addr:housenumber" v="18"/>
    <tag k="addr:postcode" v="80802"/>
    <tag k="addr:street" v="Jungwirthstraße"/>
    <tag k="building" v="terrace"/>
    <tag k="building:levels" v="2"/>
    <tag k="roof:levels" v="1"/>
    <tag k="roof:orientation" v="across"/>
    <tag k="roof:shape" v="gabled"/>
  </way>
  <way id="117590035" version="5" timestamp="2022-05-13T04:57:27Z" changeset="120913913" uid="4376164" user="redweizn">
    <nd ref="1324415473"/>
    <nd ref="1324415680"/>
    <nd ref="1324414974"/>
    <nd ref="1324415237"/>
    <nd ref="1324415473"/>
    <tag k="addr:city" v="München"/>
    <tag k="addr:country" v="DE"/>
    <tag k="addr:housenumber" v="26"/>
    <tag k="addr:postcode" v="80802"/>
    <tag k="addr:street" v="Keferstraße"/>
    <tag k="building" v="apartments"/>
    <tag k="building:levels" v="2"/>
    <tag k="roof:levels" v="1"/>
    <tag k="roof:shape" v="gabled"/>
  </way>
  <way id="117590037" version="4" timestamp="2021-02-12T15:22:04Z" changeset="99181347" uid="9244608" user="LittleJoeMuc">
    <nd ref="1324416043"/>
    <nd ref="1324415707"/>
    <nd ref="1324415915"/>
    <nd ref="1324415275"/>
    <nd ref="1324416043"/>
    <tag k="addr:city" v="München"/>
    <tag k="addr:country" v="DE"/>
    <tag k="addr:housenumber" v="13"/>
    <tag k="addr:postcode" v="80805"/>
    <tag k="addr:street" v="Imhofstraße"/>
    <tag k="building" v="detached"/>
  </way>
  <way id="117590048" version="3" timestamp="2013-08-14T00:40:54Z" changeset="17338921" uid="56526" user="JJ Rammerl">
    <nd ref="1324415849"/>
    <nd ref="1324415031"/>
    <nd ref="1324415746"/>
    <nd ref="1324415528"/>
    <nd ref="1324415849"/>
    <tag k="addr:city" v="München"/>
    <tag k="addr:country" v="DE"/>
    <tag k="addr:housenumber" v="4"/>
    <tag k="addr:postcode" v="80805"/>
    <tag k="addr:street" v="Imhofstraße"/>
    <tag k="building" v="yes"/>
  </way>
  <way id="117590055" version="6" timestamp="2022-04-06T14:32:22Z" changeset="119390607" uid="4376164" user="redweizn">
    <nd ref="1324415125"/>
    <nd ref="1324415280"/>
    <nd ref="1324415007"/>
    <nd ref="1324415399"/>
    <nd ref="1324415125"/>
    <tag k="addr:city" v="München"/>
    <tag k="addr:country" v="DE"/>
    <tag k="addr:housenumber" v="1b"/>
    <tag k="addr:postcode" v="80805"/>
    <tag k="addr:street" v="Imhofstraße"/>
    <tag k="building" v="apartments"/>
    <tag k="building:levels" v="2"/>
    <tag k="roof:colour" v="darkgrey"/>
    <tag k="roof:levels" v="1"/>
    <tag k="roof:shape" v="hipped"/>
  </way>
  <way id="117590060" version="6" timestamp="2022-03-21T05:54:35Z" changeset="118719190" uid="4376164" user="redweizn">
    <nd ref="1324415887"/>
    <nd ref="1324415075"/>
    <nd ref="1324415997"/>
    <nd ref="1324415347"/>
    <nd ref="1324415887"/>
    <tag k="addr:city" v="München"/>
    <tag k="addr:country" v="DE"/>
    <tag k="addr:housenumber" v="17"/>
    <tag k="addr:postcode" v="80802"/>
    <tag k="addr:street" v="Liebergesellstraße"/>
    <tag k="building" v="apartments"/>
    <tag k="building:levels" v="4"/>
    <tag k="roof:levels" v="1"/>
    <tag k="roof:shape" v="gabled"/>
    <tag k="wikidata" v="Q98644669"/>
  </way>
  <way id="117590070" version="3" timestamp="2013-09-22T11:08:17Z" changeset="17971624" uid="78613" user="heilbron">
    <nd ref="1324415446"/>
    <nd ref="1324415542"/>
    <nd ref="1324415319"/>
    <nd ref="1324415656"/>
    <nd ref="1324415446"/>
    <tag k="addr:city" v="München"/>
    <tag k="addr:country" v="DE"/>
    <tag k="addr:housenumber" v="25"/>
    <tag k="addr:postcode" v="80802"/>
    <tag k="addr:street" v="Keferstraße"/>
    <tag k="building" v="yes"/>
    <tag k="roof:colour" v="darkgrey"/>
    <tag k="roof:shape" v="pyramidal"/>
  </way>
  <way id="117590073" version="3" timestamp="2013-08-14T00:40:55Z" changeset="17338921" uid="56526" user="JJ Rammerl">
    <nd ref="1324416015"/>
    <nd ref="1324415362"/>
    <nd ref="1324415583"/>
    <nd ref="1324415389"/>
    <nd ref="1324416015"/>
    <tag k="addr:city" v="München"/>
    <tag k="addr:country" v="DE"/>
    <tag k="addr:housenumber" v="9"/>
    <tag k="addr:postcode" v="80805"/>
    <tag k="addr:street" v="Imhofstraße"/>
    <tag k="building" v="yes"/>
  </way>
  <way id="117590090" version="3" timestamp="2013-09-22T11:08:20Z" changeset="17971624" uid="78613" user="heilbron">
    <nd ref="1324415296"/>
    <nd ref="1324415515"/>
    <nd ref="1324414797"/>
    <nd ref="1324415020"/>
    <nd ref="1324415296"/>
    <tag k="addr:city" v="München"/>
    <tag k="addr:country" v="DE"/>
    <tag k="addr:housenumber" v="38"/>
    <tag k="addr:postcode" v="80805"/>
    <tag k="addr:street" v="Schwedenstraße"/>
    <tag k="building" v="yes"/>
    <tag k="roof:colour" v="brown"/>
    <tag k="roof:shape" v="gabled"/>
  </way>
  <way id="117590093" version="4" timestamp="2013-09-22T11:08:16Z" changeset="17971624" uid="78613" user="heilbron">
    <nd ref="1324415754"/>
    <nd ref="1324414928"/>
    <nd ref="1324415637"/>
    <nd ref="1324415423"/>
    <nd ref="1324415754"/>
    <tag k="addr:city" v="München"/>
    <tag k="addr:country" v="DE"/>
    <tag k="addr:housenumber" v="1a"/>
    <tag k="addr:postcode" v="80805"/>
    <tag k="addr:street" v="Imhofstraße"/>
    <tag k="building" v="yes"/>
    <tag k="roof:colour" v="red"/>
  </way>
  <way id="117590101" version="5" timestamp="2022-05-13T04:57:08Z" changeset="120913906" uid="4376164" user="redweizn">
    <nd ref="1324415558"/>
    <nd ref="1324415778"/>
    <nd ref="1324415062"/>
    <nd ref="1324415332"/>
    <nd ref="1324415558"/>
    <tag k="addr:city" v="München"/>
    <tag k="addr:country" v="DE"/>
    <tag k="addr:housenumber" v="27"/>
    <tag k="addr:postcode" v="80802"/>
    <tag k="addr:street" v="Keferstraße"/>
    <tag k="building" v="apartments"/>
    <tag k="building:levels" v="3"/>
    <tag k="roof:colour" v="darkgrey"/>
    <tag k="roof:levels" v="1"/>
    <tag k="roof:shape" v="pyramidal"/>
  </way>
  <way id="117590109" version="2" timestamp="2013-08-14T13:46:30Z" changeset="17346135" uid="56526" user="JJ Rammerl">
    <nd ref="1324416095"/>
    <nd ref="1324415760"/>
    <nd ref="1324415964"/>
    <nd ref="1324415316"/>
    <nd ref="1324416095"/>
    <tag k="addr:city" v="München"/>
    <tag k="addr:country" v="DE"/>
    <tag k="addr:housenumber" v="37"/>
    <tag k="addr:postcode" v="80805"/>
    <tag k="addr:street" v="Schwedenstraße"/>
    <tag k="building" v="yes"/>
  </way>
  <way id="117590123" version="4" timestamp="2020-11-21T22:14:13Z" changeset="94563384" uid="43207" user="kdkeller">
    <nd ref="1324414876"/>
    <nd ref="1324416019"/>
    <nd ref="1324414757"/>
    <nd ref="1324415586"/>
    <nd ref="1324414876"/>
    <tag k="addr:city" v="München"/>
    <tag k="addr:country" v="DE"/>
    <tag k="addr:housenumber" v="4a"/>
    <tag k="addr:postcode" v="80802"/>
    <tag k="addr:street" v="Biedersteiner Straße"/>
    <tag k="building" v="residential"/>
    <tag k="wikidata" v="Q41210805"/>
  </way>
  <way id="117590124" version="3" timestamp="2013-09-22T11:08:17Z" changeset="17971624" uid="78613" user="heilbron">
    <nd ref="1324416003"/>
    <nd ref="1324415039"/>
    <nd ref="1324415571"/>
    <nd ref="1324415352"/>
    <nd ref="1324416003"/>
    <tag k="addr:city" v="München"/>
    <tag k="addr:country" v="DE"/>
    <tag k="addr:housenumber" v="25"/>
    <tag k="addr:postcode" v="80805"/>
    <tag k="addr:street" v="Schwedenstraße"/>
    <tag k="building" v="yes"/>
    <tag k="roof:shape" v="gabled"/>
  </way>
  <way id="117590131" version="2" timestamp="2013-08-14T13:46:34Z" changeset="17346135" uid="56526" user="JJ Rammerl">
    <nd ref="1324416113"/>
    <nd ref="1324415338"/>
    <nd ref="1324415673"/>
    <nd ref="1324415466"/>
    <nd ref="1324416113"/>
    <tag k="addr:city" v="München"/>
    <tag k="addr:country" v="DE"/>
    <tag k="addr:housenumber" v="68"/>
    <tag k="addr:postcode" v="80805"/>
    <tag k="addr:street" v="Schwedenstraße"/>
    <tag k="building" v="yes"/>
  </way>
  <way id="117590133" version="3" timestamp="2013-09-22T11:08:14Z" changeset="17971624" uid="78613" user="heilbron">
    <nd ref="1324415822"/>
    <nd ref="1324416041"/>
    <nd ref="1324415387"/>
    <nd ref="1324415608"/>
    <nd ref="1324415822"/>
    <tag k="addr:city" v="München"/>
    <tag k="addr:country" v="DE"/>
    <tag k="addr:housenumber" v="13"/>
    <tag k="addr:postcode" v="80802"/>
    <tag k="addr:street" v="Keferstraße"/>
    <tag k="building" v="yes"/>
    <tag k="roof:colour" v="red"/>
  </way>
  <way id="117590138" version="2" timestamp="2013-08-13T22:13:17Z" changeset="17337791" uid="56526" user="JJ Rammerl">
    <nd ref="1324415975"/>
    <nd ref="1324415770"/>
    <nd ref="1324415550"/>
    <nd ref="1324414720"/>
    <nd ref="1324415975"/>
    <tag k="addr:city" v="München"/>
    <tag k="addr:country" v="DE"/>
    <tag k="addr:housenumber" v="10"/>
    <tag k="addr:postcode" v="80805"/>
    <tag k="addr:street" v="Wilhelm-Ostwald-Straße"/>
    <tag k="building" v="yes"/>
  </way>
  <way id="117590159" version="5" timestamp="2025-02-25T17:27:16Z" changeset="162942238" uid="137242" user="Rainero">
    <nd ref="1324416039"/>
    <nd ref="12618643858"/>
    <nd ref="1324415820"/>
    <nd ref="12618643859"/>
    <nd ref="12618643860"/>
    <nd ref="1324415606"/>
    <nd ref="12618643865"/>
    <nd ref="12618643864"/>
    <nd ref="12618643863"/>
    <nd ref="12618643866"/>
    <nd ref="1324414772"/>
    <nd ref="12618643862"/>
    <nd ref="12618643861"/>
    <nd ref="1324416039"/>
    <tag k="addr:city" v="München"/>
    <tag k="addr:country" v="DE"/>
    <tag k="addr:housenumber" v="14"/>
    <tag k="addr:postcode" v="80805"/>
    <tag k="addr:street" v="Osterwaldstraße"/>
    <tag k="building" v="yes"/>
    <tag k="roof:colour" v="red"/>
    <tag k="wikidata" v="Q41211535"/>
  </way>
  <way id="121772094" version="6" timestamp="2024-12-29T08:33:25Z" changeset="160740455" uid="22313081" user="Meimax">
    <nd ref="1362212798"/>
    <nd ref="1362212797"/>
    <nd ref="1362212795"/>
    <nd ref="1362212796"/>
    <nd ref="1362212798"/>
    <tag k="addr:city" v="München"/>
    <tag k="addr:country" v="DE"/>
    <tag k="addr:housenumber" v="11"/>
    <tag k="addr:postcode" v="80805"/>
    <tag k="addr:street" v="Isarring"/>
    <tag k="building" v="dormitory"/>
    <tag k="building:colour" v="#FFFFD0"/>
    <tag k="building:levels" v="3"/>
    <tag k="roof:colour" v="#705040"/>
    <tag k="roof:levels" v="2"/>
    <tag k="roof:shape" v="hipped"/>
  </way>
  <way id="121772105" version="3" timestamp="2013-08-14T13:46:35Z" changeset="17346135" uid="56526" user="JJ Rammerl">
    <nd ref="1362212819"/>
    <nd ref="1362212809"/>
    <nd ref="1771275272"/>
    <nd ref="1771275269"/>
    <nd ref="1771275267"/>
    <nd ref="1771275271"/>
    <nd ref="1362212806"/>
    <nd ref="1771275263"/>
    <nd ref="1771275260"/>
    <nd ref="1771275288"/>
    <nd ref="1362212817"/>
    <nd ref="1771275291"/>
    <nd ref="1771275293"/>
    <nd ref="1771275295"/>
    <nd ref="1771275290"/>
    <nd ref="1362212819"/>
    <tag k="addr:city" v="München"/>
    <tag k="addr:country" v="DE"/>
    <tag k="addr:housenumber" v="76"/>
    <tag k="addr:postcode" v="80805"/>
    <tag k="addr:street" v="Osterwaldstraße"/>
    <tag k="building" v="yes"/>
  </way>
  <way id="133729491" version="10" timestamp="2024-10-07T20:27:15Z" changeset="157598428" uid="137242" user="Rainero">
    <nd ref="45366376"/>
    <nd ref="1022856268"/>
    <tag k="class:bicycle" v="1"/>
    <tag k="highway" v="residential"/>
    <tag k="lane_markings" v="no"/>
    <tag k="lanes" v="2"/>
    <tag k="lit" v="yes"/>
    <tag k="maxspeed" v="30"/>
    <tag k="name" v="Biedersteiner Straße"/>
    <tag k="sidewalk" v="both"/>
    <tag k="surface" v="asphalt"/>
    <tag k="width" v="5"/>
  </way>
  <way id="133729492" version="9" timestamp="2024-10-07T20:27:15Z" changeset="157598428" uid="137242" user="Rainero">
    <nd ref="1022856310"/>
    <nd ref="45366376"/>
    <tag k="class:bicycle" v="1"/>
    <tag k="highway" v="residential"/>
    <tag k="lane_markings" v="no"/>
    <tag k="lanes" v="2"/>
    <tag k="lit" v="yes"/>
    <tag k="maxspeed" v="30"/>
    <tag k="name" v="Biedersteiner Straße"/>
    <tag k="surface" v="asphalt"/>
    <tag k="width" v="6"/>
  </way>
  <way id="133729493" version="8" timestamp="2024-07-28T10:09:24Z" changeset="154513369" uid="18493611" user="MunichWays">
    <nd ref="1022856268"/>
    <nd ref="262690558"/>
    <nd ref="45367308"/>
    <tag k="class:bicycle" v="1"/>
    <tag k="highway" v="residential"/>
    <tag k="lane_markings" v="no"/>
    <tag k="lanes" v="2"/>
    <tag k="lit" v="yes"/>
    <tag k="maxspeed" v="30"/>
    <tag k="name" v="Biedersteiner Straße"/>
    <tag k="postal_code" v="80805"/>
    <tag k="surface" v="asphalt"/>
  </way>
  <way id="133729496" version="7" timestamp="2023-11-11T16:47:06Z" changeset="143907289" uid="18493611" user="MunichWays">
    <nd ref="45372758"/>
    <nd ref="848855174"/>
    <nd ref="262517262"/>
    <nd ref="1015876044"/>
    <nd ref="1217150970"/>
    <nd ref="52617764"/>
    <tag k="class:bicycle" v="-2"/>
    <tag k="highway" v="residential"/>
    <tag k="lanes" v="1"/>
    <tag k="lit" v="yes"/>
    <tag k="maxspeed" v="50"/>
    <tag k="name" v="Mannlichstraße"/>
    <tag k="oneway" v="yes"/>
    <tag k="postal_code" v="80805"/>
    <tag k="smoothness" v="good"/>
    <tag k="surface" v="asphalt"/>
  </way>
  <way id="133729497" version="6" timestamp="2024-08-18T22:18:04Z" changeset="155436377" uid="3008179" user="LeonidasDE">
    <nd ref="45372758"/>
    <nd ref="1072830564"/>
    <nd ref="1042726375"/>
    <nd ref="75901932"/>
    <nd ref="1072830585"/>
    <nd ref="75889578"/>
    <tag k="highway" v="trunk_link"/>
    <tag k="motorroad" v="yes"/>
    <tag k="oneway" v="yes"/>
    <tag k="surface" v="asphalt"/>
  </way>
  <way id="145009444" version="9" timestamp="2024-08-18T22:18:04Z" changeset="155436377" uid="3008179" user="LeonidasDE">
    <nd ref="7983346"/>
    <nd ref="1022856278"/>
    <nd ref="2036180624"/>
    <nd ref="1022856263"/>
    <nd ref="1022856314"/>
    <nd ref="1217150902"/>
    <nd ref="45366376"/>
    <tag k="highway" v="trunk_link"/>
    <tag k="lanes" v="2"/>
    <tag k="maxspeed" v="30"/>
    <tag k="motorroad" v="yes"/>
    <tag k="surface" v="asphalt"/>
  </way>
  <way id="145029166" version="6" timestamp="2024-08-18T22:18:04Z" changeset="155436377" uid="3008179" user="LeonidasDE">
    <nd ref="1584944510"/>
    <nd ref="9851346289"/>
    <nd ref="1072830544"/>
    <nd ref="45372758"/>
    <tag k="highway" v="trunk_link"/>
    <tag k="motorroad" v="yes"/>
    <tag k="oneway" v="yes"/>
    <tag k="surface" v="asphalt"/>
  </way>
  <way id="145029655" version="8" timestamp="2025-01-12T11:32:30Z" changeset="161268959" uid="2815653" user="DaxServer">
    <nd ref="75889578"/>
    <nd ref="75889576"/>
    <nd ref="1015875993"/>
    <nd ref="8622442193"/>
    <tag k="highway" v="trunk_link"/>
    <tag k="lanes" v="2"/>
    <tag k="motorroad" v="yes"/>
    <tag k="name" v="Isarring"/>
    <tag k="name:etymology:wikidata" v="Q106588"/>
    <tag k="oneway" v="yes"/>
    <tag k="surface" v="asphalt"/>
    <tag k="wikidata" v="Q1263320"/>
  </way>
  <way id="146633615" version="13" timestamp="2025-03-22T21:16:15Z" changeset="163964538" uid="44217" user="kjon">
    <nd ref="21092551"/>
    <nd ref="1599023666"/>
    <nd ref="2036180697"/>
    <nd ref="75901933"/>
    <tag k="hgv" v="delivery"/>
    <tag k="highway" v="trunk"/>
    <tag k="lanes" v="2"/>
    <tag k="lit" v="yes"/>
    <tag k="maxspeed" v="60"/>
    <tag k="motorroad" v="yes"/>
    <tag k="name" v="Isarring"/>
    <tag k="name:etymology:wikidata" v="Q106588"/>
    <tag k="oneway" v="yes"/>
    <tag k="parking:both" v="no"/>
    <tag k="ref" v="B 2R"/>
    <tag k="sidewalk:both" v="no"/>
    <tag k="surface" v="asphalt"/>
    <tag k="tmc" v="DE:22675/35321"/>
    <tag k="wikidata" v="Q1263320"/>
  </way>
  <way id="146760790" version="14" timestamp="2025-03-22T20:41:43Z" changeset="163963753" uid="44217" user="kjon">
    <nd ref="20461931"/>
    <nd ref="2036257970"/>
    <nd ref="1600091020"/>
    <nd ref="1600091026"/>
    <nd ref="1600091032"/>
    <nd ref="1600091037"/>
    <nd ref="5838008201"/>
    <nd ref="21092558"/>
    <tag k="hgv" v="delivery"/>
    <tag k="highway" v="trunk"/>
    <tag k="lanes" v="2"/>
    <tag k="lit" v="yes"/>
    <tag k="maxspeed" v="60"/>
    <tag k="motorroad" v="yes"/>
    <tag k="name" v="Isarring"/>
    <tag k="name:etymology:wikidata" v="Q106588"/>
    <tag k="oneway" v="yes"/>
    <tag k="parking:both" v="no"/>
    <tag k="ref" v="B 2R"/>
    <tag k="sidewalk:both" v="no"/>
    <tag k="surface" v="asphalt"/>
    <tag k="tmc" v="DE:35321/22676"/>
    <tag k="wikidata" v="Q1263320"/>
  </way>
  <way id="146763433" version="11" timestamp="2025-01-12T11:32:30Z" changeset="161268959" uid="2815653" user="DaxServer">
    <nd ref="75890864"/>
    <nd ref="5969197656"/>
    <nd ref="7389519941"/>
    <tag k="highway" v="trunk_link"/>
    <tag k="lanes" v="1"/>
    <tag k="maxspeed" v="60"/>
    <tag k="motorroad" v="yes"/>
    <tag k="name" v="Isarring"/>
    <tag k="name:etymology:wikidata" v="Q106588"/>
    <tag k="oneway" v="yes"/>
    <tag k="surface" v="asphalt"/>
    <tag k="wikidata" v="Q1263320"/>
  </way>
  <way id="148365767" version="14" timestamp="2025-03-22T21:16:15Z" changeset="163964538" uid="44217" user="kjon">
    <nd ref="75890864"/>
    <nd ref="7389519943"/>
    <tag k="hgv" v="delivery"/>
    <tag k="highway" v="trunk"/>
    <tag k="lanes" v="2"/>
    <tag k="lit" v="yes"/>
    <tag k="maxspeed" v="50"/>
    <tag k="motorroad" v="yes"/>
    <tag k="name" v="Isarring"/>
    <tag k="name:etymology:wikidata" v="Q106588"/>
    <tag k="oneway" v="yes"/>
    <tag k="parking:both" v="no"/>
    <tag k="ref" v="B 2R"/>
    <tag k="sidewalk:both" v="no"/>
    <tag k="surface" v="asphalt"/>
    <tag k="tmc" v="DE:22675/35321"/>
    <tag k="wikidata" v="Q1263320"/>
  </way>
  <way id="148366506" version="18" timestamp="2025-03-22T21:16:15Z" changeset="163964538" uid="44217" user="kjon">
    <nd ref="1599023689"/>
    <nd ref="5969197658"/>
    <nd ref="2711613753"/>
    <tag k="bicycle" v="use_sidepath"/>
    <tag k="destination:lanes" v="||Landshut;Freimann"/>
    <tag k="foot" v="use_sidepath"/>
    <tag k="hgv" v="delivery"/>
    <tag k="highway" v="trunk"/>
    <tag k="lanes" v="3"/>
    <tag k="lit" v="yes"/>
    <tag k="maxheight" v="default"/>
    <tag k="maxspeed" v="60"/>
    <tag k="motorroad" v="yes"/>
    <tag k="name" v="Isarring"/>
    <tag k="name:etymology:wikidata" v="Q106588"/>
    <tag k="oneway" v="yes"/>
    <tag k="parking:both" v="no"/>
    <tag k="ref" v="B 2R"/>
    <tag k="shoulder" v="no"/>
    <tag k="sidewalk:left" v="no"/>
    <tag k="sidewalk:right" v="separate"/>
    <tag k="surface" v="asphalt"/>
    <tag k="tmc" v="DE:22675/35321"/>
    <tag k="turn:lanes" v="none|none|merge_to_left;slight_right"/>
    <tag k="wikidata" v="Q1263320"/>
  </way>
  <way id="152410266" version="5" timestamp="2024-08-18T22:18:04Z" changeset="155436377" uid="3008179" user="LeonidasDE">
    <nd ref="27467801"/>
    <nd ref="7983346"/>
    <tag k="highway" v="trunk_link"/>
    <tag k="lanes" v="2"/>
    <tag k="maxspeed" v="60"/>
    <tag k="motorroad" v="yes"/>
    <tag k="surface" v="asphalt"/>
  </way>
  <way id="154782351" version="10" timestamp="2025-01-26T18:49:55Z" changeset="161791522" uid="40411" user="MrTux">
    <nd ref="1672614972"/>
    <nd ref="1672614971"/>
    <nd ref="1672614970"/>
    <nd ref="2516628314"/>
    <nd ref="1672614969"/>
    <nd ref="36856761"/>
    <tag k="class:bicycle" v="1"/>
    <tag k="cycleway" v="no"/>
    <tag k="highway" v="residential"/>
    <tag k="lit" v="yes"/>
    <tag k="maxspeed" v="30"/>
    <tag k="name" v="Biedersteiner Straße"/>
    <tag k="name:etymology" v="Schloss Biederstein"/>
    <tag k="oneway" v="yes"/>
    <tag k="oneway:bicycle" v="no"/>
    <tag k="sidewalk:both" v="yes"/>
    <tag k="sidewalk:both:surface" v="paving_stones"/>
    <tag k="smoothness" v="good"/>
    <tag k="source:maxspeed" v="DE:zone30"/>
    <tag k="surface" v="asphalt"/>
    <tag k="traffic_sign" v="DE:274.1[30]"/>
    <tag k="width" v="5"/>
    <tag k="zone:maxspeed" v="DE:30"/>
  </way>
  <way id="154782352" version="8" timestamp="2024-06-11T12:15:51Z" changeset="152540618" uid="531886" user="drlellinger">
    <nd ref="1672614972"/>
    <nd ref="2518794362"/>
    <nd ref="1672614973"/>
    <nd ref="11971976631"/>
    <nd ref="45334630"/>
    <tag k="bicycle" v="yes"/>
    <tag k="class:bicycle" v="1"/>
    <tag k="cycleway:both" v="no"/>
    <tag k="highway" v="residential"/>
    <tag k="lit" v="yes"/>
    <tag k="maxspeed" v="30"/>
    <tag k="name" v="Biedersteiner Straße"/>
    <tag k="smoothness" v="good"/>
    <tag k="surface" v="asphalt"/>
    <tag k="width" v="5"/>
  </way>
  <way id="159542720" version="13" timestamp="2024-03-17T16:53:12Z" changeset="148781337" uid="8312062" user="Fadatag">
    <nd ref="506338909"/>
    <nd ref="1818808078"/>
    <nd ref="1015896246"/>
    <nd ref="75890848"/>
    <nd ref="1015896241"/>
    <nd ref="75890849"/>
    <nd ref="75890851"/>
    <nd ref="75890852"/>
    <nd ref="6911929410"/>
    <nd ref="1015896257"/>
    <nd ref="1716518580"/>
    <nd ref="75890854"/>
    <tag k="class:bicycle" v="2"/>
    <tag k="destination:forward" v="Nyphenburg;Olypiapark"/>
    <tag k="highway" v="residential"/>
    <tag k="lane_markings" v="no"/>
    <tag k="lit" v="yes"/>
    <tag k="maxspeed:type" v="DE:urban"/>
    <tag k="name" v="Amsterdamer Straße"/>
    <tag k="postal_code" v="80805"/>
    <tag k="sidewalk" v="both"/>
    <tag k="sidewalk:both:surface" v="paving_stones"/>
    <tag k="smoothness" v="good"/>
    <tag k="surface" v="asphalt"/>
  </way>
  <way id="159542733" version="2" timestamp="2013-08-27T22:39:10Z" changeset="17546070" uid="56526" user="JJ Rammerl">
    <nd ref="75888621"/>
    <nd ref="1077371270"/>
    <nd ref="1077371090"/>
    <nd ref="75888623"/>
    <tag k="highway" v="residential"/>
    <tag k="maxspeed" v="30"/>
    <tag k="name" v="Beltweg"/>
    <tag k="oneway" v="yes"/>
    <tag k="postal_code" v="80805"/>
    <tag k="surface" v="asphalt"/>
  </way>
  <way id="159542735" version="2" timestamp="2013-08-27T22:39:17Z" changeset="17546070" uid="56526" user="JJ Rammerl">
    <nd ref="75901926"/>
    <nd ref="1077371163"/>
    <nd ref="75888621"/>
    <tag k="highway" v="residential"/>
    <tag k="maxspeed" v="30"/>
    <tag k="name" v="Etschweg"/>
    <tag k="oneway" v="yes"/>
    <tag k="postal_code" v="80805"/>
    <tag k="surface" v="asphalt"/>
  </way>
  <way id="159542736" version="2" timestamp="2013-08-27T22:39:34Z" changeset="17546070" uid="56526" user="JJ Rammerl">
    <nd ref="45385156"/>
    <nd ref="1076864821"/>
    <nd ref="1015896255"/>
    <nd ref="75891643"/>
    <tag k="highway" v="residential"/>
    <tag k="maxspeed" v="30"/>
    <tag k="name" v="Genter Straße"/>
    <tag k="postal_code" v="80805"/>
    <tag k="surface" v="asphalt"/>
  </way>
  <way id="159542738" version="4" timestamp="2019-06-16T16:39:35Z" changeset="71305019" uid="143094" user="Theo2">
    <nd ref="75887510"/>
    <nd ref="274854803"/>
    <nd ref="45385145"/>
    <nd ref="1818808076"/>
    <nd ref="75901926"/>
    <nd ref="75901931"/>
    <nd ref="75887695"/>
    <nd ref="260964868"/>
    <tag k="highway" v="residential"/>
    <tag k="lit" v="yes"/>
    <tag k="maxspeed" v="30"/>
    <tag k="name" v="Imhofstraße"/>
    <tag k="postal_code" v="80805"/>
    <tag k="sidewalk" v="both"/>
    <tag k="surface" v="asphalt"/>
  </way>
  <way id="159542742" version="15" timestamp="2025-03-22T21:16:15Z" changeset="163964538" uid="44217" user="kjon">
    <nd ref="45377698"/>
    <nd ref="4216358089"/>
    <nd ref="45378287"/>
    <nd ref="4216358093"/>
    <nd ref="4216358094"/>
    <nd ref="4216358096"/>
    <nd ref="45378288"/>
    <nd ref="4216358097"/>
    <nd ref="4216358098"/>
    <nd ref="2036208494"/>
    <nd ref="372811196"/>
    <nd ref="2517710539"/>
    <nd ref="45378291"/>
    <tag k="class:bicycle" v="1"/>
    <tag k="cycleway:both" v="no"/>
    <tag k="destination:forward" v="Nyphenburg;Olypiapark"/>
    <tag k="highway" v="residential"/>
    <tag k="lit" v="yes"/>
    <tag k="maxspeed" v="30"/>
    <tag k="name" v="Luxemburger Straße"/>
    <tag k="oneway" v="yes"/>
    <tag k="oneway:bicycle" v="no"/>
    <tag k="postal_code" v="80805"/>
    <tag k="sidewalk" v="both"/>
    <tag k="sidewalk:both:surface" v="paving_stones"/>
    <tag k="smoothness" v="intermediate"/>
    <tag k="surface" v="asphalt"/>
  </way>
  <way id="159542746" version="2" timestamp="2013-08-27T22:39:46Z" changeset="17546070" uid="56526" user="JJ Rammerl">
    <nd ref="75888623"/>
    <nd ref="1077371349"/>
    <nd ref="75901931"/>
    <tag k="highway" v="residential"/>
    <tag k="maxspeed" v="30"/>
    <tag k="name" v="Maasweg"/>
    <tag k="oneway" v="yes"/>
    <tag k="postal_code" v="80805"/>
    <tag k="surface" v="asphalt"/>
  </way>
  <way id="159542747" version="8" timestamp="2023-11-04T11:28:10Z" changeset="143608784" uid="18493611" user="MunichWays">
    <nd ref="45372775"/>
    <nd ref="274854800"/>
    <nd ref="2064177037"/>
    <nd ref="5725618082"/>
    <nd ref="260964877"/>
    <tag k="bicycle" v="yes"/>
    <tag k="class:bicycle" v="1"/>
    <tag k="highway" v="residential"/>
    <tag k="maxspeed" v="30"/>
    <tag k="name" v="Mommsenstraße"/>
    <tag k="postal_code" v="80805"/>
    <tag k="sidewalk" v="no"/>
    <tag k="smoothness" v="good"/>
    <tag k="surface" v="asphalt"/>
    <tag k="width" v="2.5"/>
  </way>
  <way id="159542749" version="12" timestamp="2025-02-25T17:27:16Z" changeset="162942238" uid="137242" user="Rainero">
    <nd ref="412362907"/>
    <nd ref="259670618"/>
    <nd ref="2467546007"/>
    <nd ref="2036236862"/>
    <nd ref="2036236866"/>
    <nd ref="45372775"/>
    <nd ref="12233145761"/>
    <nd ref="45385136"/>
    <nd ref="7123785708"/>
    <nd ref="260964872"/>
    <nd ref="45385141"/>
    <nd ref="45385145"/>
    <nd ref="45385148"/>
    <nd ref="45385152"/>
    <nd ref="506338909"/>
    <tag k="bicycle" v="yes"/>
    <tag k="check_date:smoothness" v="2022-07-11"/>
    <tag k="class:bicycle" v="1"/>
    <tag k="cycleway:both" v="separate"/>
    <tag k="highway" v="residential"/>
    <tag k="lit" v="yes"/>
    <tag k="maxspeed" v="30"/>
    <tag k="name" v="Osterwaldstraße"/>
    <tag k="sidewalk" v="separate"/>
    <tag k="smoothness" v="good"/>
    <tag k="source:maxspeed" v="DE:zone30"/>
    <tag k="surface" v="asphalt"/>
  </way>
  <way id="159542751" version="7" timestamp="2019-06-16T16:39:35Z" changeset="71305019" uid="143094" user="Theo2">
    <nd ref="260964872"/>
    <nd ref="347393851"/>
    <nd ref="260964873"/>
    <tag k="bicycle" v="yes"/>
    <tag k="highway" v="residential"/>
    <tag k="lit" v="yes"/>
    <tag k="maxspeed" v="30"/>
    <tag k="name" v="Schwedenstraße"/>
    <tag k="postal_code" v="80805"/>
    <tag k="sidewalk" v="right"/>
    <tag k="smoothness" v="good"/>
    <tag k="surface" v="asphalt"/>
  </way>
  <way id="159542765" version="5" timestamp="2021-11-11T09:44:25Z" changeset="113643538" uid="8312062" user="Fadatag">
    <nd ref="45385148"/>
    <nd ref="274854804"/>
    <nd ref="75887512"/>
    <tag k="highway" v="residential"/>
    <tag k="lit" v="yes"/>
    <tag k="maxspeed" v="30"/>
    <tag k="name" v="Weizenfeldstraße"/>
    <tag k="postal_code" v="80805"/>
    <tag k="sidewalk" v="both"/>
    <tag k="surface" v="asphalt"/>
  </way>
  <way id="159542766" version="4" timestamp="2024-10-07T20:27:15Z" changeset="157598428" uid="137242" user="Rainero">
    <nd ref="45385141"/>
    <nd ref="1818808075"/>
    <nd ref="75887960"/>
    <tag k="highway" v="residential"/>
    <tag k="maxspeed" v="30"/>
    <tag k="name" v="Wilhelm-Ostwald-Straße"/>
    <tag k="sidewalk" v="both"/>
    <tag k="source:maxspeed" v="DE:zone30"/>
    <tag k="surface" v="asphalt"/>
  </way>
  <way id="172709302" version="10" timestamp="2024-07-28T10:09:24Z" changeset="154513369" uid="18493611" user="MunichWays">
    <nd ref="1015875997"/>
    <nd ref="1835863223"/>
    <nd ref="1835863221"/>
    <nd ref="1835863202"/>
    <nd ref="1835863186"/>
    <nd ref="1835863184"/>
    <nd ref="1969689109"/>
    <nd ref="1835863183"/>
    <nd ref="1015838841"/>
    <nd ref="7983352"/>
    <tag k="class:bicycle" v="1"/>
    <tag k="highway" v="residential"/>
    <tag k="lane_markings" v="no"/>
    <tag k="lanes" v="2"/>
    <tag k="lit" v="yes"/>
    <tag k="maxspeed" v="30"/>
    <tag k="name" v="Biedersteiner Straße"/>
    <tag k="postal_code" v="80805"/>
    <tag k="surface" v="asphalt"/>
    <tag k="width" v="5"/>
  </way>
  <way id="172709303" version="7" timestamp="2020-11-18T18:28:00Z" changeset="94385360" uid="1803854" user="Enock4seth">
    <nd ref="1835863218"/>
    <nd ref="2036248144"/>
    <nd ref="1835863217"/>
    <nd ref="1835863207"/>
    <nd ref="1835863204"/>
    <nd ref="1835863190"/>
    <nd ref="1835863188"/>
    <nd ref="1835863186"/>
    <tag k="highway" v="residential"/>
    <tag k="lanes" v="1"/>
    <tag k="lit" v="yes"/>
    <tag k="maxspeed" v="30"/>
    <tag k="name" v="Dunantstraße"/>
    <tag k="postal_code" v="80805"/>
    <tag k="surface" v="asphalt"/>
  </way>
  <way id="172709305" version="5" timestamp="2020-11-18T18:28:01Z" changeset="94385360" uid="1803854" user="Enock4seth">
    <nd ref="1835863226"/>
    <nd ref="1835863225"/>
    <nd ref="1835863223"/>
    <tag k="highway" v="residential"/>
    <tag k="lanes" v="1"/>
    <tag k="lit" v="yes"/>
    <tag k="name" v="Weisgerberstraße"/>
    <tag k="postal_code" v="80805"/>
    <tag k="surface" v="asphalt"/>
  </way>
  <way id="172754979" version="2" timestamp="2013-08-14T13:46:30Z" changeset="17346135" uid="56526" user="JJ Rammerl">
    <nd ref="1836198655"/>
    <nd ref="1836198653"/>
    <nd ref="1836198651"/>
    <nd ref="1836198654"/>
    <nd ref="1836198655"/>
    <tag k="addr:city" v="München"/>
    <tag k="addr:country" v="DE"/>
    <tag k="addr:housenumber" v="34"/>
    <tag k="addr:postcode" v="80805"/>
    <tag k="addr:street" v="Schwedenstraße"/>
    <tag k="building" v="yes"/>
  </way>
  <way id="172839351" version="5" timestamp="2025-03-22T20:41:43Z" changeset="163963753" uid="44217" user="kjon">
    <nd ref="250941923"/>
    <nd ref="1042726027"/>
    <nd ref="250941924"/>
    <tag k="bicycle" v="yes"/>
    <tag k="cycleway:both" v="no"/>
    <tag k="highway" v="residential"/>
    <tag k="maxspeed" v="30"/>
    <tag k="name" v="Jungwirthstraße"/>
    <tag k="oneway" v="yes"/>
    <tag k="oneway:bicycle" v="no"/>
    <tag k="sidewalk" v="both"/>
    <tag k="smoothness" v="good"/>
    <tag k="surface" v="asphalt"/>
  </way>
  <way id="172839353" version="5" timestamp="2025-03-22T20:41:43Z" changeset="163963753" uid="44217" user="kjon">
    <nd ref="250941924"/>
    <nd ref="250941978"/>
    <nd ref="250941979"/>
    <nd ref="248966810"/>
    <tag k="bicycle" v="yes"/>
    <tag k="cycleway:both" v="no"/>
    <tag k="highway" v="residential"/>
    <tag k="maxspeed" v="30"/>
    <tag k="name" v="Keferstraße"/>
    <tag k="oneway" v="yes"/>
    <tag k="oneway:bicycle" v="no"/>
    <tag k="sidewalk" v="both"/>
    <tag k="smoothness" v="good"/>
    <tag k="surface" v="asphalt"/>
  </way>
  <way id="172839361" version="7" timestamp="2025-03-22T20:41:43Z" changeset="163963753" uid="44217" user="kjon">
    <nd ref="248966813"/>
    <nd ref="250941919"/>
    <nd ref="250941920"/>
    <nd ref="250941921"/>
    <nd ref="250941922"/>
    <nd ref="1042726100"/>
    <nd ref="250941923"/>
    <tag k="bicycle" v="yes"/>
    <tag k="class:bicycle" v="1"/>
    <tag k="cycleway:both" v="no"/>
    <tag k="highway" v="residential"/>
    <tag k="maxspeed" v="30"/>
    <tag k="name" v="Liebergesellstraße"/>
    <tag k="oneway" v="yes"/>
    <tag k="oneway:bicycle" v="no"/>
    <tag k="sidewalk" v="left"/>
    <tag k="smoothness" v="good"/>
    <tag k="surface" v="asphalt"/>
  </way>
  <way id="177319437" version="2" timestamp="2013-08-13T22:13:22Z" changeset="17337791" uid="56526" user="JJ Rammerl">
    <nd ref="1877684040"/>
    <nd ref="1877684039"/>
    <nd ref="1877684041"/>
    <nd ref="1877684038"/>
    <nd ref="1877684040"/>
    <tag k="addr:city" v="München"/>
    <tag k="addr:country" v="DE"/>
    <tag k="addr:housenumber" v="24c"/>
    <tag k="addr:postcode" v="80802"/>
    <tag k="addr:street" v="Keferstraße"/>
    <tag k="building" v="yes"/>
  </way>
  <way id="177319609" version="5" timestamp="2017-07-20T21:04:50Z" changeset="50442550" uid="371369" user="mucx">
    <nd ref="1324415163"/>
    <nd ref="1877686453"/>
    <nd ref="1877686455"/>
    <nd ref="1324415432"/>
    <nd ref="1324415163"/>
    <tag k="addr:city" v="München"/>
    <tag k="addr:country" v="DE"/>
    <tag k="addr:housenumber" v="19"/>
    <tag k="addr:postcode" v="80802"/>
    <tag k="addr:street" v="Keferstraße"/>
    <tag k="building" v="yes"/>
    <tag k="roof:colour" v="darkgrey"/>
    <tag k="roof:shape" v="hipped"/>
  </way>
  <way id="177319749" version="5" timestamp="2017-07-20T21:04:50Z" changeset="50442550" uid="371369" user="mucx">
    <nd ref="1877687885"/>
    <nd ref="1877687887"/>
    <nd ref="4983774898"/>
    <nd ref="4983774899"/>
    <nd ref="4983774900"/>
    <nd ref="1877687881"/>
    <nd ref="1877687883"/>
    <nd ref="1877687885"/>
    <tag k="addr:city" v="München"/>
    <tag k="addr:country" v="DE"/>
    <tag k="addr:housenumber" v="17"/>
    <tag k="addr:postcode" v="80802"/>
    <tag k="addr:street" v="Keferstraße"/>
    <tag k="building" v="yes"/>
    <tag k="roof:colour" v="red"/>
  </way>
  <way id="186287090" version="11" timestamp="2025-01-12T12:07:23Z" changeset="161268959" uid="2815653" user="DaxServer">
    <nd ref="1120415154"/>
    <nd ref="45346348"/>
    <nd ref="1969680359"/>
    <nd ref="2036257957"/>
    <nd ref="260955815"/>
    <nd ref="1969680352"/>
    <nd ref="7983356"/>
    <nd ref="1042726409"/>
    <nd ref="1015838858"/>
    <nd ref="5838008202"/>
    <nd ref="564144"/>
    <tag k="bicycle" v="use_sidepath"/>
    <tag k="foot" v="use_sidepath"/>
    <tag k="highway" v="trunk_link"/>
    <tag k="lit" v="yes"/>
    <tag k="maxspeed" v="50"/>
    <tag k="name" v="Dietlindenstraße"/>
    <tag k="oneway" v="yes"/>
    <tag k="surface" v="asphalt"/>
    <tag k="tmc" v="DE:35350/35351"/>
    <tag k="wikidata" v="Q118786918"/>
  </way>
  <way id="232683989" version="5" timestamp="2022-03-21T05:55:49Z" changeset="118719190" uid="4376164" user="redweizn">
    <nd ref="2410176470"/>
    <nd ref="429632285"/>
    <nd ref="429632286"/>
    <nd ref="2410176471"/>
    <nd ref="2410176470"/>
    <tag k="addr:city" v="München"/>
    <tag k="addr:country" v="DE"/>
    <tag k="addr:housenumber" v="10"/>
    <tag k="addr:postcode" v="80802"/>
    <tag k="addr:street" v="Biedersteiner Straße"/>
    <tag k="building" v="apartments"/>
    <tag k="building:levels" v="2"/>
    <tag k="roof:levels" v="0"/>
    <tag k="roof:shape" v="gabled"/>
    <tag k="wikidata" v="Q41210811"/>
  </way>
  <way id="232683990" version="4" timestamp="2022-03-21T05:55:51Z" changeset="118719190" uid="4376164" user="redweizn">
    <nd ref="429632288"/>
    <nd ref="2410176470"/>
    <nd ref="2410176471"/>
    <nd ref="429632287"/>
    <nd ref="429632288"/>
    <tag k="addr:city" v="München"/>
    <tag k="addr:country" v="DE"/>
    <tag k="addr:housenumber" v="12"/>
    <tag k="addr:postcode" v="80802"/>
    <tag k="addr:street" v="Biedersteiner Straße"/>
    <tag k="building" v="apartments"/>
    <tag k="building:levels" v="2"/>
    <tag k="roof:levels" v="1"/>
    <tag k="roof:shape" v="gabled"/>
  </way>
  <way id="233444966" version="4" timestamp="2022-03-25T05:52:24Z" changeset="118891737" uid="4376164" user="redweizn">
    <nd ref="2418326273"/>
    <nd ref="1324415986"/>
    <nd ref="1324414843"/>
    <nd ref="2418326271"/>
    <nd ref="2418326273"/>
    <tag k="addr:city" v="München"/>
    <tag k="addr:country" v="DE"/>
    <tag k="addr:housenumber" v="10"/>
    <tag k="addr:postcode" v="80802"/>
    <tag k="addr:street" v="Jungwirthstraße"/>
    <tag k="building" v="terrace"/>
    <tag k="building:levels" v="2"/>
    <tag k="roof:levels" v="1"/>
    <tag k="roof:orientation" v="across"/>
    <tag k="roof:shape" v="gabled"/>
  </way>
  <way id="233444967" version="4" timestamp="2022-03-25T05:52:27Z" changeset="118891737" uid="4376164" user="redweizn">
    <nd ref="2418326274"/>
    <nd ref="2418326273"/>
    <nd ref="2418326271"/>
    <nd ref="2418326272"/>
    <nd ref="2418326274"/>
    <tag k="addr:city" v="München"/>
    <tag k="addr:country" v="DE"/>
    <tag k="addr:housenumber" v="12"/>
    <tag k="addr:postcode" v="80802"/>
    <tag k="addr:street" v="Jungwirthstraße"/>
    <tag k="building" v="terrace"/>
    <tag k="building:levels" v="2"/>
    <tag k="roof:levels" v="1"/>
    <tag k="roof:orientation" v="across"/>
    <tag k="roof:shape" v="gabled"/>
  </way>
  <way id="233444975" version="4" timestamp="2022-03-25T05:51:44Z" changeset="118891737" uid="4376164" user="redweizn">
    <nd ref="1324415065"/>
    <nd ref="2418326274"/>
    <nd ref="2418326272"/>
    <nd ref="1324415333"/>
    <nd ref="1324415065"/>
    <tag k="addr:city" v="München"/>
    <tag k="addr:country" v="DE"/>
    <tag k="addr:housenumber" v="14"/>
    <tag k="addr:postcode" v="80802"/>
    <tag k="addr:street" v="Jungwirthstraße"/>
    <tag k="building" v="terrace"/>
    <tag k="building:levels" v="2"/>
    <tag k="roof:levels" v="1"/>
    <tag k="roof:orientation" v="across"/>
    <tag k="roof:shape" v="gabled"/>
  </way>
  <way id="233444978" version="4" timestamp="2022-03-25T05:52:08Z" changeset="118891737" uid="4376164" user="redweizn">
    <nd ref="2418326269"/>
    <nd ref="1324415942"/>
    <nd ref="1324415734"/>
    <nd ref="2418326267"/>
    <nd ref="2418326269"/>
    <tag k="addr:city" v="München"/>
    <tag k="addr:country" v="DE"/>
    <tag k="addr:housenumber" v="2"/>
    <tag k="addr:postcode" v="80802"/>
    <tag k="addr:street" v="Jungwirthstraße"/>
    <tag k="building" v="terrace"/>
    <tag k="building:levels" v="2"/>
    <tag k="roof:colour" v="red"/>
    <tag k="roof:levels" v="1"/>
    <tag k="roof:orientation" v="across"/>
    <tag k="roof:shape" v="gabled"/>
  </way>
  <way id="233444981" version="4" timestamp="2024-03-18T10:56:38Z" changeset="148810001" uid="3075580" user="Linda89">
    <nd ref="2418326278"/>
    <nd ref="1324415049"/>
    <nd ref="1324415868"/>
    <nd ref="2418326275"/>
    <nd ref="2418326278"/>
    <tag k="addr:city" v="München"/>
    <tag k="addr:country" v="DE"/>
    <tag k="addr:housenumber" v="29"/>
    <tag k="addr:postcode" v="80802"/>
    <tag k="addr:street" v="Keferstraße"/>
    <tag k="building" v="apartments"/>
    <tag k="building:levels" v="3"/>
    <tag k="roof:colour" v="red"/>
    <tag k="roof:levels" v="2"/>
    <tag k="roof:orientation" v="across"/>
    <tag k="roof:shape" v="gabled"/>
  </way>
  <way id="233444982" version="4" timestamp="2024-03-18T10:56:38Z" changeset="148810001" uid="3075580" user="Linda89">
    <nd ref="2418326280"/>
    <nd ref="2418326278"/>
    <nd ref="2418326275"/>
    <nd ref="2418326276"/>
    <nd ref="2418326280"/>
    <tag k="addr:city" v="München"/>
    <tag k="addr:country" v="DE"/>
    <tag k="addr:housenumber" v="31"/>
    <tag k="addr:postcode" v="80802"/>
    <tag k="addr:street" v="Keferstraße"/>
    <tag k="building" v="apartments"/>
    <tag k="building:levels" v="3"/>
    <tag k="roof:colour" v="red"/>
    <tag k="roof:levels" v="2"/>
    <tag k="roof:orientation" v="across"/>
    <tag k="roof:shape" v="gabled"/>
  </way>
  <way id="233444983" version="4" timestamp="2024-03-18T10:56:37Z" changeset="148810001" uid="3075580" user="Linda89">
    <nd ref="2418326282"/>
    <nd ref="2418326280"/>
    <nd ref="2418326276"/>
    <nd ref="2418326277"/>
    <nd ref="2418326282"/>
    <tag k="addr:city" v="München"/>
    <tag k="addr:country" v="DE"/>
    <tag k="addr:housenumber" v="33"/>
    <tag k="addr:postcode" v="80802"/>
    <tag k="addr:street" v="Keferstraße"/>
    <tag k="building" v="apartments"/>
    <tag k="building:levels" v="3"/>
    <tag k="roof:levels" v="2"/>
    <tag k="roof:orientation" v="across"/>
    <tag k="roof:shape" v="gabled"/>
  </way>
  <way id="233444984" version="5" timestamp="2024-03-18T10:56:37Z" changeset="148810001" uid="3075580" user="Linda89">
    <nd ref="2418326284"/>
    <nd ref="2418326282"/>
    <nd ref="2418326277"/>
    <nd ref="4983774905"/>
    <nd ref="2418326279"/>
    <nd ref="2418326284"/>
    <tag k="addr:city" v="München"/>
    <tag k="addr:country" v="DE"/>
    <tag k="addr:housenumber" v="35"/>
    <tag k="addr:postcode" v="80802"/>
    <tag k="addr:street" v="Keferstraße"/>
    <tag k="building" v="apartments"/>
    <tag k="building:levels" v="3"/>
    <tag k="roof:levels" v="2"/>
    <tag k="roof:orientation" v="across"/>
    <tag k="roof:shape" v="gabled"/>
  </way>
  <way id="233444985" version="4" timestamp="2024-03-18T10:56:37Z" changeset="148810001" uid="3075580" user="Linda89">
    <nd ref="2418326285"/>
    <nd ref="2418326284"/>
    <nd ref="2418326279"/>
    <nd ref="2418326281"/>
    <nd ref="2418326285"/>
    <tag k="addr:city" v="München"/>
    <tag k="addr:country" v="DE"/>
    <tag k="addr:housenumber" v="35a"/>
    <tag k="addr:postcode" v="80802"/>
    <tag k="addr:street" v="Keferstraße"/>
    <tag k="building" v="apartments"/>
    <tag k="building:levels" v="2"/>
    <tag k="roof:levels" v="2"/>
    <tag k="roof:orientation" v="across"/>
    <tag k="roof:shape" v="gabled"/>
  </way>
  <way id="233444986" version="4" timestamp="2024-03-18T10:56:37Z" changeset="148810001" uid="3075580" user="Linda89">
    <nd ref="2418326286"/>
    <nd ref="2418326285"/>
    <nd ref="2418326281"/>
    <nd ref="2418326283"/>
    <nd ref="2418326286"/>
    <tag k="addr:city" v="München"/>
    <tag k="addr:country" v="DE"/>
    <tag k="addr:housenumber" v="37"/>
    <tag k="addr:postcode" v="80802"/>
    <tag k="addr:street" v="Keferstraße"/>
    <tag k="building" v="apartments"/>
    <tag k="building:levels" v="2"/>
    <tag k="roof:levels" v="2"/>
    <tag k="roof:orientation" v="across"/>
    <tag k="roof:shape" v="gabled"/>
  </way>
  <way id="233444987" version="4" timestamp="2024-03-18T10:56:37Z" changeset="148810001" uid="3075580" user="Linda89">
    <nd ref="1324415970"/>
    <nd ref="2418326286"/>
    <nd ref="2418326283"/>
    <nd ref="1324415768"/>
    <nd ref="1324415970"/>
    <tag k="addr:city" v="München"/>
    <tag k="addr:country" v="DE"/>
    <tag k="addr:housenumber" v="39"/>
    <tag k="addr:postcode" v="80802"/>
    <tag k="addr:street" v="Keferstraße"/>
    <tag k="building" v="apartments"/>
    <tag k="building:levels" v="2"/>
    <tag k="roof:levels" v="2"/>
    <tag k="roof:orientation" v="across"/>
    <tag k="roof:shape" v="gabled"/>
  </way>
  <way id="233444988" version="4" timestamp="2022-03-25T05:52:15Z" changeset="118891737" uid="4376164" user="redweizn">
    <nd ref="2418326270"/>
    <nd ref="2418326269"/>
    <nd ref="2418326267"/>
    <nd ref="2418326268"/>
    <nd ref="2418326270"/>
    <tag k="addr:city" v="München"/>
    <tag k="addr:country" v="DE"/>
    <tag k="addr:housenumber" v="4"/>
    <tag k="addr:postcode" v="80802"/>
    <tag k="addr:street" v="Jungwirthstraße"/>
    <tag k="building" v="terrace"/>
    <tag k="building:levels" v="2"/>
    <tag k="roof:colour" v="red"/>
    <tag k="roof:levels" v="1"/>
    <tag k="roof:orientation" v="across"/>
    <tag k="roof:shape" v="gabled"/>
  </way>
  <way id="233444989" version="4" timestamp="2022-03-25T05:52:03Z" changeset="118891737" uid="4376164" user="redweizn">
    <nd ref="1324415192"/>
    <nd ref="2418326270"/>
    <nd ref="2418326268"/>
    <nd ref="1324414690"/>
    <nd ref="1324415192"/>
    <tag k="addr:city" v="München"/>
    <tag k="addr:country" v="DE"/>
    <tag k="addr:housenumber" v="6"/>
    <tag k="addr:postcode" v="80802"/>
    <tag k="addr:street" v="Jungwirthstraße"/>
    <tag k="building" v="terrace"/>
    <tag k="building:levels" v="2"/>
    <tag k="roof:colour" v="red"/>
    <tag k="roof:levels" v="1"/>
    <tag k="roof:orientation" v="across"/>
    <tag k="roof:shape" v="gabled"/>
  </way>
  <way id="233516471" version="1" timestamp="2013-08-14T13:46:23Z" changeset="17346135" uid="56526" user="JJ Rammerl">
    <nd ref="2418921798"/>
    <nd ref="2418921796"/>
    <nd ref="2418921797"/>
    <nd ref="2418921799"/>
    <nd ref="2418921798"/>
    <tag k="addr:city" v="München"/>
    <tag k="addr:country" v="DE"/>
    <tag k="addr:housenumber" v="41"/>
    <tag k="addr:postcode" v="80805"/>
    <tag k="addr:street" v="Schwedenstraße"/>
    <tag k="building" v="yes"/>
  </way>
  <way id="282750138" version="6" timestamp="2023-11-01T10:39:55Z" changeset="143466852" uid="6285042" user="Biclmont">
    <nd ref="45377698"/>
    <nd ref="1042726014"/>
    <tag k="class:bicycle" v="1"/>
    <tag k="highway" v="residential"/>
    <tag k="lit" v="yes"/>
    <tag k="maxspeed" v="30"/>
    <tag k="name" v="Brabanter Straße"/>
    <tag k="postal_code" v="80805"/>
    <tag k="sidewalk" v="both"/>
    <tag k="smoothness" v="good"/>
    <tag k="surface" v="asphalt"/>
  </way>
  <way id="448302305" version="6" timestamp="2025-01-12T12:07:23Z" changeset="161268959" uid="2815653" user="DaxServer">
    <nd ref="20461931"/>
    <nd ref="2036257993"/>
    <nd ref="1015824335"/>
    <nd ref="1042726399"/>
    <nd ref="260964876"/>
    <tag k="bicycle" v="use_sidepath"/>
    <tag k="foot" v="use_sidepath"/>
    <tag k="highway" v="trunk_link"/>
    <tag k="lanes" v="1"/>
    <tag k="lit" v="yes"/>
    <tag k="maxspeed" v="50"/>
    <tag k="name" v="Dietlindenstraße"/>
    <tag k="oneway" v="yes"/>
    <tag k="surface" v="asphalt"/>
    <tag k="tmc" v="DE:35350/35351"/>
    <tag k="wikidata" v="Q118786918"/>
  </way>
  <way id="790407527" version="9" timestamp="2025-03-22T21:16:15Z" changeset="163964538" uid="44217" user="kjon">
    <nd ref="7389519938"/>
    <nd ref="10745471892"/>
    <nd ref="1599023689"/>
    <tag k="hgv" v="delivery"/>
    <tag k="highway" v="trunk"/>
    <tag k="lanes" v="3"/>
    <tag k="lit" v="yes"/>
    <tag k="maxspeed" v="60"/>
    <tag k="motorroad" v="yes"/>
    <tag k="name" v="Isarring"/>
    <tag k="name:etymology:wikidata" v="Q106588"/>
    <tag k="oneway" v="yes"/>
    <tag k="parking:both" v="no"/>
    <tag k="ref" v="B 2R"/>
    <tag k="sidewalk:left" v="no"/>
    <tag k="sidewalk:right" v="separate"/>
    <tag k="surface" v="asphalt"/>
    <tag k="tmc" v="DE:22675/35321"/>
    <tag k="turn:lanes" v="none|none|merge_to_left;slight_right"/>
    <tag k="wikidata" v="Q1263320"/>
  </way>
  <way id="790407528" version="9" timestamp="2025-03-22T21:16:15Z" changeset="163964538" uid="44217" user="kjon">
    <nd ref="2036180690"/>
    <nd ref="7389519938"/>
    <tag k="bridge" v="yes"/>
    <tag k="hgv" v="delivery"/>
    <tag k="highway" v="trunk"/>
    <tag k="lanes" v="3"/>
    <tag k="layer" v="1"/>
    <tag k="lit" v="yes"/>
    <tag k="maxspeed" v="60"/>
    <tag k="motorroad" v="yes"/>
    <tag k="name" v="Isarring"/>
    <tag k="name:etymology:wikidata" v="Q106588"/>
    <tag k="oneway" v="yes"/>
    <tag k="parking:both" v="no"/>
    <tag k="ref" v="B 2R"/>
    <tag k="sidewalk:left" v="no"/>
    <tag k="sidewalk:right" v="separate"/>
    <tag k="surface" v="asphalt"/>
    <tag k="tmc" v="DE:22675/35321"/>
    <tag k="turn:lanes" v="none|none|merge_to_left;slight_right"/>
    <tag k="wikidata" v="Q1263320"/>
  </way>
  <way id="790407529" version="5" timestamp="2025-01-12T11:32:30Z" changeset="161268959" uid="2815653" user="DaxServer">
    <nd ref="7389519940"/>
    <nd ref="1600103595"/>
    <nd ref="1600103585"/>
    <nd ref="2036180629"/>
    <nd ref="27467801"/>
    <tag k="highway" v="trunk_link"/>
    <tag k="lanes" v="1"/>
    <tag k="maxspeed" v="60"/>
    <tag k="motorroad" v="yes"/>
    <tag k="name" v="Isarring"/>
    <tag k="name:etymology:wikidata" v="Q106588"/>
    <tag k="oneway" v="yes"/>
    <tag k="surface" v="asphalt"/>
    <tag k="wikidata" v="Q1263320"/>
  </way>
  <way id="790407530" version="6" timestamp="2025-01-12T11:32:30Z" changeset="161268959" uid="2815653" user="DaxServer">
    <nd ref="7389519941"/>
    <nd ref="7389519940"/>
    <tag k="bridge" v="yes"/>
    <tag k="highway" v="trunk_link"/>
    <tag k="lanes" v="1"/>
    <tag k="layer" v="1"/>
    <tag k="maxspeed" v="60"/>
    <tag k="maxweight:signed" v="no"/>
    <tag k="motorroad" v="yes"/>
    <tag k="name" v="Isarring"/>
    <tag k="name:etymology:wikidata" v="Q106588"/>
    <tag k="oneway" v="yes"/>
    <tag k="surface" v="asphalt"/>
    <tag k="wikidata" v="Q1263320"/>
  </way>
  <way id="790407531" version="9" timestamp="2025-03-22T21:16:15Z" changeset="163964538" uid="44217" user="kjon">
    <nd ref="7389519942"/>
    <nd ref="5969197655"/>
    <nd ref="27467802"/>
    <nd ref="8622442191"/>
    <nd ref="564140"/>
    <tag k="hgv" v="delivery"/>
    <tag k="highway" v="trunk"/>
    <tag k="lanes" v="2"/>
    <tag k="lit" v="yes"/>
    <tag k="maxspeed" v="50"/>
    <tag k="motorroad" v="yes"/>
    <tag k="name" v="Isarring"/>
    <tag k="name:etymology:wikidata" v="Q106588"/>
    <tag k="oneway" v="yes"/>
    <tag k="parking:both" v="no"/>
    <tag k="ref" v="B 2R"/>
    <tag k="sidewalk:both" v="no"/>
    <tag k="surface" v="asphalt"/>
    <tag k="tmc" v="DE:22675/35321"/>
    <tag k="wikidata" v="Q1263320"/>
  </way>
  <way id="790407532" version="9" timestamp="2025-03-22T21:16:15Z" changeset="163964538" uid="44217" user="kjon">
    <nd ref="7389519943"/>
    <nd ref="7389519942"/>
    <tag k="bridge" v="yes"/>
    <tag k="hgv" v="delivery"/>
    <tag k="highway" v="trunk"/>
    <tag k="lanes" v="2"/>
    <tag k="layer" v="1"/>
    <tag k="lit" v="yes"/>
    <tag k="maxspeed" v="50"/>
    <tag k="motorroad" v="yes"/>
    <tag k="name" v="Isarring"/>
    <tag k="name:etymology:wikidata" v="Q106588"/>
    <tag k="oneway" v="yes"/>
    <tag k="parking:both" v="no"/>
    <tag k="ref" v="B 2R"/>
    <tag k="sidewalk:both" v="no"/>
    <tag k="surface" v="asphalt"/>
    <tag k="tmc" v="DE:22675/35321"/>
    <tag k="wikidata" v="Q1263320"/>
  </way>
  <way id="929777077" version="4" timestamp="2025-01-12T11:32:30Z" changeset="161268959" uid="2815653" user="DaxServer">
    <nd ref="8622442193"/>
    <nd ref="1015876040"/>
    <nd ref="1042726016"/>
    <nd ref="2036180537"/>
    <nd ref="75901933"/>
    <tag k="highway" v="trunk_link"/>
    <tag k="lanes" v="1"/>
    <tag k="motorroad" v="yes"/>
    <tag k="name" v="Isarring"/>
    <tag k="name:etymology:wikidata" v="Q106588"/>
    <tag k="oneway" v="yes"/>
    <tag k="surface" v="asphalt"/>
    <tag k="wikidata" v="Q1263320"/>
  </way>
  <way id="929777078" version="4" timestamp="2025-01-12T11:32:30Z" changeset="161268959" uid="2815653" user="DaxServer">
    <nd ref="1584945348"/>
    <nd ref="1072830672"/>
    <nd ref="75889579"/>
    <nd ref="75889578"/>
    <tag k="highway" v="trunk_link"/>
    <tag k="motorroad" v="yes"/>
    <tag k="name" v="Isarring"/>
    <tag k="name:etymology:wikidata" v="Q106588"/>
    <tag k="oneway" v="yes"/>
    <tag k="surface" v="asphalt"/>
    <tag k="wikidata" v="Q1263320"/>
  </way>
  <way id="1126240262" version="4" timestamp="2024-07-28T10:09:24Z" changeset="154513369" uid="18493611" user="MunichWays">
    <nd ref="45345793"/>
    <nd ref="45345796"/>
    <nd ref="1836891652"/>
    <nd ref="260971427"/>
    <nd ref="45345798"/>
    <tag k="bicycle" v="yes"/>
    <tag k="class:bicycle" v="1"/>
    <tag k="cycleway:both" v="no"/>
    <tag k="highway" v="residential"/>
    <tag k="lit" v="yes"/>
    <tag k="maxspeed" v="30"/>
    <tag k="name" v="Biedersteiner Straße"/>
    <tag k="sidewalk" v="both"/>
    <tag k="smoothness" v="good"/>
    <tag k="surface" v="asphalt"/>
    <tag k="width" v="6"/>
  </way>
  <way id="1158101437" version="2" timestamp="2024-03-18T10:56:38Z" changeset="148809996" uid="3075580" user="Linda89">
    <nd ref="45334630"/>
    <nd ref="45345789"/>
    <nd ref="1274698824"/>
    <nd ref="45345790"/>
    <nd ref="45345793"/>
    <tag k="bicycle" v="yes"/>
    <tag k="class:bicycle" v="1"/>
    <tag k="cycleway:both" v="no"/>
    <tag k="highway" v="residential"/>
    <tag k="lit" v="yes"/>
    <tag k="maxspeed" v="30"/>
    <tag k="name" v="Biedersteiner Straße"/>
    <tag k="sidewalk" v="both"/>
    <tag k="smoothness" v="good"/>
    <tag k="surface" v="asphalt"/>
    <tag k="width" v="6"/>
  </way>
  <way id="1321957248" version="3" timestamp="2024-11-09T20:15:25Z" changeset="158947707" uid="13496000" user="geo-d">
    <nd ref="12233158004"/>
    <nd ref="12233158001"/>
    <nd ref="12233158002"/>
    <nd ref="12233158003"/>
    <nd ref="12233145799"/>
    <nd ref="12233145800"/>
    <nd ref="12233158004"/>
    <tag k="addr:city" v="München"/>
    <tag k="addr:country" v="DE"/>
    <tag k="addr:housenumber" v="1"/>
    <tag k="addr:postcode" v="80805"/>
    <tag k="addr:street" v="Wilhelm-Ostwald-Straße"/>
    <tag k="building" v="apartments"/>
    <tag k="building:levels" v="2"/>
    <tag k="roof:levels" v="2"/>
    <tag k="roof:shape" v="gabled"/>
  </way>
  <way id="1363046180" version="1" timestamp="2025-02-26T09:39:20Z" changeset="162963844" uid="11758604" user="map per">
    <nd ref="433209636"/>
    <nd ref="433209655"/>
    <tag k="bicycle" v="yes"/>
    <tag k="bridge" v="yes"/>
    <tag k="class:bicycle" v="1"/>
    <tag k="cycleway:both" v="no"/>
    <tag k="foot" v="yes"/>
    <tag k="highway" v="residential"/>
    <tag k="lit" v="yes"/>
    <tag k="maxspeed:type" v="DE:urban"/>
    <tag k="maxweight:signed" v="no"/>
    <tag k="name" v="Schwedenstraße"/>
    <tag k="oneway" v="no"/>
    <tag k="sidewalk:both" v="yes"/>
    <tag k="sidewalk:both:surface" v="paving_stones"/>
    <tag k="smoothness" v="good"/>
    <tag k="surface" v="asphalt"/>
  </way>

</osm>
