<?xml version="1.0" encoding="UTF-8"?>
<osm version="0.6" generator="Overpass API 0.7.62.5 1bd436f1">
<note>The data included in this document is from www.openstreetmap.org. The data is made available under ODbL.</note>
<meta osm_base="2025-05-18T03:26:03Z" areas="2024-12-31T00:49:33Z"/>

  <node id="564129" lat="48.1774627" lon="11.5824206" version="3" timestamp="2014-07-14T19:46:33Z" changeset="24147895" uid="2675" user="Eckhart Wörner"/>
  <node id="564131" lat="48.1775260" lon="11.5864629" version="5" timestamp="2011-05-23T11:50:13Z" changeset="8225448" uid="29061" user="KPG"/>
  <node id="1955701" lat="48.1817320" lon="11.5848209" version="8" timestamp="2014-10-11T14:17:35Z" changeset="26004687" uid="2675" user="Eckhart Wörner"/>
  <node id="13665748" lat="48.1878078" lon="11.5843086" version="10" timestamp="2022-11-27T20:02:30Z" changeset="129446783" uid="2554996" user="Nanoilite">
    <tag k="TMC:cid_58:tabcd_1:Class" v="Point"/>
    <tag k="TMC:cid_58:tabcd_1:Direction" v="positive"/>
    <tag k="TMC:cid_58:tabcd_1:LCLversion" v="9.00"/>
    <tag k="TMC:cid_58:tabcd_1:LocationCode" v="27942"/>
    <tag k="TMC:cid_58:tabcd_1:NextLocationCode" v="27943"/>
    <tag k="TMC:cid_58:tabcd_1:PrevLocationCode" v="27941"/>
  </node>
  <node id="13888060" lat="48.1776921" lon="11.5855087" version="10" timestamp="2020-10-11T12:24:15Z" changeset="92300255" uid="8748" user="ToniE">
    <tag k="TMC:cid_58:tabcd_1:Class" v="Point"/>
    <tag k="TMC:cid_58:tabcd_1:Direction" v="positive"/>
    <tag k="TMC:cid_58:tabcd_1:LCLversion" v="8.00"/>
    <tag k="TMC:cid_58:tabcd_1:LocationCode" v="20719"/>
    <tag k="TMC:cid_58:tabcd_1:NextLocationCode" v="20720"/>
    <tag k="tmc" v="DE:20719"/>
  </node>
  <node id="19369004" lat="48.1878135" lon="11.5844870" version="12" timestamp="2022-11-27T20:02:30Z" changeset="129446783" uid="2554996" user="Nanoilite">
    <tag k="TMC:cid_58:tabcd_1:Class" v="Point"/>
    <tag k="TMC:cid_58:tabcd_1:Direction" v="positive"/>
    <tag k="TMC:cid_58:tabcd_1:LCLversion" v="8.00"/>
    <tag k="TMC:cid_58:tabcd_1:LocationCode" v="20720"/>
    <tag k="TMC:cid_58:tabcd_1:NextLocationCode" v="35340"/>
    <tag k="TMC:cid_58:tabcd_1:PrevLocationCode" v="20719"/>
  </node>
  <node id="19369312" lat="48.1843282" lon="11.5847347" version="9" timestamp="2022-10-04T17:48:32Z" changeset="127008409" uid="2554996" user="Nanoilite"/>
  <node id="21092106" lat="48.1776067" lon="11.5857726" version="7" timestamp="2012-07-24T17:26:47Z" changeset="12471837" uid="51782" user="maxbe">
    <tag k="TMC:cid_58:tabcd_1:Class" v="Point"/>
    <tag k="TMC:cid_58:tabcd_1:Direction" v="negative"/>
    <tag k="TMC:cid_58:tabcd_1:LCLversion" v="8.00"/>
    <tag k="TMC:cid_58:tabcd_1:LocationCode" v="22673"/>
    <tag k="TMC:cid_58:tabcd_1:NextLocationCode" v="22674"/>
    <tag k="TMC:cid_58:tabcd_1:PrevLocationCode" v="29829"/>
  </node>
  <node id="21092534" lat="48.1770026" lon="11.5894909" version="5" timestamp="2009-09-02T14:41:16Z" changeset="2348916" uid="85761" user="klausis"/>
  <node id="34705524" lat="48.1801504" lon="11.5849734" version="9" timestamp="2015-03-28T16:53:50Z" changeset="29808925" uid="2748818" user="bunkr"/>
  <node id="37022423" lat="48.1801738" lon="11.5856041" version="4" timestamp="2016-10-15T20:35:00Z" changeset="42925369" uid="78613" user="heilbron"/>
  <node id="87316096" lat="48.1879280" lon="11.5860711" version="10" timestamp="2015-08-16T23:19:04Z" changeset="33379815" uid="354141" user="Anoniman"/>
  <node id="90715131" lat="48.1879768" lon="11.5849436" version="6" timestamp="2020-12-10T23:11:33Z" changeset="95645262" uid="313014" user="mapsru"/>
  <node id="243508598" lat="48.1760994" lon="11.5852260" version="8" timestamp="2016-02-12T20:53:04Z" changeset="37176726" uid="78613" user="heilbron"/>
  <node id="246995232" lat="48.1775216" lon="11.5857569" version="3" timestamp="2010-02-17T21:51:48Z" changeset="3904951" uid="6270" user="mikes">
    <tag k="TMC:cid_58:tabcd_1:Class" v="Point"/>
    <tag k="TMC:cid_58:tabcd_1:Direction" v="positive"/>
    <tag k="TMC:cid_58:tabcd_1:LCLversion" v="8.00"/>
    <tag k="TMC:cid_58:tabcd_1:LocationCode" v="22673"/>
    <tag k="TMC:cid_58:tabcd_1:NextLocationCode" v="22674"/>
    <tag k="TMC:cid_58:tabcd_1:PrevLocationCode" v="29829"/>
  </node>
  <node id="246996128" lat="48.1773898" lon="11.5870701" version="3" timestamp="2009-07-07T18:04:33Z" changeset="1764253" uid="129061" user="Singvogel"/>
  <node id="429610685" lat="48.1879757" lon="11.5869055" version="3" timestamp="2015-08-16T23:19:03Z" changeset="33379815" uid="354141" user="Anoniman"/>
  <node id="429838644" lat="48.1772539" lon="11.5888897" version="4" timestamp="2021-04-12T15:07:29Z" changeset="102813050" uid="2793520" user="CreCrePL"/>
  <node id="577492202" lat="48.1842217" lon="11.5905239" version="6" timestamp="2022-10-04T17:48:32Z" changeset="127008409" uid="2554996" user="Nanoilite"/>
  <node id="1239543991" lat="48.1766233" lon="11.5854790" version="1" timestamp="2011-04-10T08:53:00Z" changeset="7820552" uid="338611" user="marek kleciak"/>
  <node id="1629579479" lat="48.1865859" lon="11.5845442" version="3" timestamp="2022-06-21T21:22:01Z" changeset="122685309" uid="43972" user="chris66"/>
  <node id="2709448409" lat="48.1730427" lon="11.5858782" version="3" timestamp="2018-12-09T13:51:20Z" changeset="65315384" uid="13219" user="Pyrokrat"/>
  <node id="3420195982" lat="48.1773457" lon="11.5850005" version="3" timestamp="2020-10-11T12:24:15Z" changeset="92300255" uid="8748" user="ToniE">
    <tag k="TMC:cid_58:tabcd_1:Class" v="Point"/>
    <tag k="TMC:cid_58:tabcd_1:Direction" v="negative"/>
    <tag k="TMC:cid_58:tabcd_1:LCLversion" v="8.00"/>
    <tag k="TMC:cid_58:tabcd_1:LocationCode" v="27949"/>
    <tag k="TMC:cid_58:tabcd_1:PrevLocationCode" v="35344"/>
    <tag k="tmc" v="DE:27949"/>
  </node>
  <node id="10121875306" lat="48.1878864" lon="11.5903341" version="1" timestamp="2022-10-22T21:01:04Z" changeset="127937959" uid="2554996" user="Nanoilite"/>
  <way id="4005731" version="28" timestamp="2025-04-06T16:26:40Z" changeset="164599420" uid="137242" user="Rainero">
    <nd ref="34485604"/>
    <nd ref="736460497"/>
    <nd ref="2616758288"/>
    <nd ref="21095007"/>
    <tag k="class:bicycle" v="2"/>
    <tag k="cycleway:lane" v="exclusive"/>
    <tag k="cycleway:left" v="lane"/>
    <tag k="cycleway:left:lane" v="exclusive"/>
    <tag k="cycleway:right" v="no"/>
    <tag k="cycleway:separation" v="vertical_panel"/>
    <tag k="foot" v="use_sidepath"/>
    <tag k="highway" v="tertiary"/>
    <tag k="lanes" v="3"/>
    <tag k="lanes:backward" v="2"/>
    <tag k="lit" v="yes"/>
    <tag k="maxspeed" v="50"/>
    <tag k="name" v="Domagkstraße"/>
    <tag k="postal_code" v="80807"/>
    <tag k="sidewalk" v="separate"/>
    <tag k="smoothness" v="good"/>
    <tag k="source:maxspeed" v="DE:urban"/>
    <tag k="surface" v="asphalt"/>
    <tag k="turn:lanes:backward" v="none|right"/>
  </way>
  <way id="4211371" version="34" timestamp="2025-03-22T21:16:15Z" changeset="163964538" uid="44217" user="kjon">
    <nd ref="21092534"/>
    <nd ref="2963213778"/>
    <nd ref="429838645"/>
    <nd ref="1297178896"/>
    <nd ref="246995548"/>
    <tag k="destination" v="Garmisch-P.;Lindau;Stuttgart"/>
    <tag k="hgv" v="delivery"/>
    <tag k="highway" v="trunk"/>
    <tag k="lanes" v="2"/>
    <tag k="layer" v="-1"/>
    <tag k="lit" v="yes"/>
    <tag k="maxheight" v="default"/>
    <tag k="maxspeed" v="50"/>
    <tag k="motorroad" v="yes"/>
    <tag k="name" v="Schenkendorfstraße"/>
    <tag k="name:etymology:wikidata" v="Q71616"/>
    <tag k="oneway" v="yes"/>
    <tag k="parking:both" v="no"/>
    <tag k="ref" v="B 2R"/>
    <tag k="sidewalk:both" v="no"/>
    <tag k="surface" v="asphalt"/>
    <tag k="tmc" v="DE:22673/22674"/>
    <tag k="wikidata" v="Q969594"/>
  </way>
  <way id="4406256" version="31" timestamp="2025-01-05T17:34:18Z" changeset="161030081" uid="2815653" user="DaxServer">
    <nd ref="19369004"/>
    <nd ref="19369002"/>
    <tag k="bicycle" v="use_sidepath"/>
    <tag k="foot" v="use_sidepath"/>
    <tag k="hgv" v="delivery"/>
    <tag k="highway" v="primary"/>
    <tag k="lanes" v="3"/>
    <tag k="lit" v="yes"/>
    <tag k="maxheight" v="none"/>
    <tag k="maxspeed" v="50"/>
    <tag k="name" v="Ingolstädter Straße"/>
    <tag k="name:etymology:wikidata" v="Q3004"/>
    <tag k="oneway" v="yes"/>
    <tag k="ref" v="B 13"/>
    <tag k="sidewalk:left" v="no"/>
    <tag k="sidewalk:right" v="separate"/>
    <tag k="smoothness" v="good"/>
    <tag k="surface" v="asphalt"/>
    <tag k="tmc" v="DE:20720"/>
    <tag k="wikidata" v="Q21281208"/>
  </way>
  <way id="4585581" version="27" timestamp="2023-09-08T09:29:47Z" changeset="140978183" uid="2007135" user="Brainlessnick">
    <nd ref="3420195982"/>
    <nd ref="7996998135"/>
    <nd ref="7996998134"/>
    <nd ref="7996998133"/>
    <tag k="bicycle" v="no"/>
    <tag k="cycleway:right" v="no"/>
    <tag k="foot" v="no"/>
    <tag k="highway" v="primary_link"/>
    <tag k="lanes" v="2"/>
    <tag k="lit" v="yes"/>
    <tag k="maxspeed" v="50"/>
    <tag k="noname" v="yes"/>
    <tag k="oneway" v="yes"/>
    <tag k="parking:both" v="no"/>
    <tag k="sidewalk" v="no"/>
    <tag k="surface" v="asphalt"/>
    <tag k="turn:lanes" v="left|left"/>
  </way>
  <way id="5077765" version="19" timestamp="2023-11-04T11:28:10Z" changeset="143608784" uid="18493611" user="MunichWays">
    <nd ref="34485604"/>
    <nd ref="1042772410"/>
    <nd ref="8460003450"/>
    <nd ref="3730757388"/>
    <nd ref="34485607"/>
    <tag k="class:bicycle" v="1"/>
    <tag k="cycleway:both" v="no"/>
    <tag k="highway" v="unclassified"/>
    <tag k="lane_markings" v="no"/>
    <tag k="name" v="Weimarer Straße"/>
    <tag k="oneway" v="no"/>
    <tag k="sidewalk" v="separate"/>
    <tag k="smoothness" v="good"/>
    <tag k="surface" v="asphalt"/>
  </way>
  <way id="5216714" version="6" timestamp="2014-03-18T19:18:51Z" changeset="21180150" uid="78613" user="heilbron">
    <nd ref="36681565"/>
    <nd ref="36681566"/>
    <nd ref="36681567"/>
    <nd ref="36681542"/>
    <nd ref="36681565"/>
    <tag k="addr:city" v="München"/>
    <tag k="addr:country" v="DE"/>
    <tag k="addr:housenumber" v="170"/>
    <tag k="addr:postcode" v="80807"/>
    <tag k="addr:street" v="Frankfurter Ring"/>
    <tag k="building" v="yes"/>
    <tag k="old_name" v="Siemens Standort Mch F"/>
    <tag k="roof:colour" v="grey"/>
    <tag k="roof:shape" v="flat"/>
  </way>
  <way id="5216717" version="12" timestamp="2024-06-21T10:07:47Z" changeset="152985401" uid="2052948" user="Maturi0n">
    <nd ref="36681576"/>
    <nd ref="3664767078"/>
    <nd ref="3664767079"/>
    <nd ref="36681577"/>
    <nd ref="36681574"/>
    <nd ref="3664767083"/>
    <nd ref="36681575"/>
    <nd ref="36681576"/>
    <tag k="addr:city" v="München"/>
    <tag k="addr:housenumber" v="160"/>
    <tag k="addr:postcode" v="80807"/>
    <tag k="addr:street" v="Frankfurter Ring"/>
    <tag k="alt_name" v="P+Z Engineering"/>
    <tag k="building" v="commercial"/>
    <tag k="building:levels" v="5"/>
    <tag k="name" v="ARRK Engineering"/>
    <tag k="office" v="company"/>
    <tag k="old_name" v="Fernwärme Siemens-Areal"/>
    <tag k="phone" v="+49 89 3185 7 0"/>
    <tag k="roof:colour" v="grey"/>
    <tag k="roof:levels" v="0"/>
    <tag k="roof:shape" v="flat"/>
    <tag k="website" v="https://engineering.arrk.com/"/>
  </way>
  <way id="5217922" version="36" timestamp="2023-11-08T23:47:22Z" changeset="143801725" uid="3075580" user="Linda89">
    <nd ref="37022423"/>
    <nd ref="3375497366"/>
    <nd ref="36703105"/>
    <nd ref="2036137305"/>
    <nd ref="7205653947"/>
    <nd ref="2026219921"/>
    <nd ref="2036157540"/>
    <nd ref="37022406"/>
    <nd ref="3659047639"/>
    <nd ref="36703104"/>
    <nd ref="37022413"/>
    <nd ref="36703103"/>
    <nd ref="3659047645"/>
    <nd ref="1328633842"/>
    <nd ref="1120079669"/>
    <nd ref="3596068799"/>
    <nd ref="36703102"/>
    <nd ref="3596012198"/>
    <nd ref="37027385"/>
    <nd ref="587907871"/>
    <nd ref="10783633531"/>
    <nd ref="34705532"/>
    <tag k="cycleway:both" v="separate"/>
    <tag k="foot" v="use_sidepath"/>
    <tag k="footway:left:smoothness" v="excellent"/>
    <tag k="footway:left:surface" v="paving_stones"/>
    <tag k="footway:left:width" v="2"/>
    <tag k="footway:right:smoothness" v="excellent"/>
    <tag k="footway:right:surface" v="paving_stones"/>
    <tag k="footway:right:width" v="2"/>
    <tag k="highway" v="residential"/>
    <tag k="lane_markings" v="no"/>
    <tag k="lit" v="yes"/>
    <tag k="maxspeed" v="50"/>
    <tag k="name" v="Karl-Weinmair-Straße"/>
    <tag k="name:etymology:wikidata" v="Q1733329"/>
    <tag k="name:etymology:wikipedia" v="de:Karl Weinmair"/>
    <tag k="parking:both" v="street_side"/>
    <tag k="parking:both:orientation" v="parallel"/>
    <tag k="sidewalk:both" v="separate"/>
    <tag k="surface" v="asphalt"/>
  </way>
  <way id="5217923" version="16" timestamp="2025-03-10T13:55:06Z" changeset="163443805" uid="16061279" user="YellowSoul">
    <nd ref="36703103"/>
    <nd ref="2036157330"/>
    <nd ref="3802106164"/>
    <tag k="highway" v="residential"/>
    <tag k="lane_markings" v="no"/>
    <tag k="maxspeed" v="50"/>
    <tag k="name" v="Heinrich-Kley-Straße"/>
    <tag k="postal_code" v="80807"/>
    <tag k="sidewalk" v="both"/>
    <tag k="sidewalk:left:smoothness" v="excellent"/>
    <tag k="sidewalk:left:surface" v="paving_stones"/>
    <tag k="sidewalk:left:width" v="2"/>
    <tag k="sidewalk:right:smoothness" v="excellent"/>
    <tag k="sidewalk:right:surface" v="paving_stones"/>
    <tag k="sidewalk:right:width" v="2"/>
    <tag k="surface" v="asphalt"/>
  </way>
  <way id="5251344" version="19" timestamp="2025-03-10T13:55:06Z" changeset="163443805" uid="16061279" user="YellowSoul">
    <nd ref="36703116"/>
    <nd ref="1328633746"/>
    <nd ref="1151154406"/>
    <nd ref="36703117"/>
    <nd ref="1151155602"/>
    <nd ref="3798358315"/>
    <tag k="highway" v="residential"/>
    <tag k="lane_markings" v="no"/>
    <tag k="maxspeed" v="50"/>
    <tag k="name" v="Erwin-von-Kreibig-Straße"/>
    <tag k="postal_code" v="80807"/>
    <tag k="sidewalk" v="both"/>
    <tag k="sidewalk:left:smoothness" v="excellent"/>
    <tag k="sidewalk:left:surface" v="paving_stones"/>
    <tag k="sidewalk:left:width" v="2"/>
    <tag k="sidewalk:right:smoothness" v="excellent"/>
    <tag k="sidewalk:right:surface" v="paving_stones"/>
    <tag k="sidewalk:right:width" v="2"/>
    <tag k="surface" v="asphalt"/>
  </way>
  <way id="9723527" version="11" timestamp="2022-10-04T17:48:32Z" changeset="127008409" uid="2554996" user="Nanoilite">
    <nd ref="76872819"/>
    <nd ref="76872824"/>
    <nd ref="2032866883"/>
    <nd ref="76872831"/>
    <nd ref="2032866885"/>
    <nd ref="76872838"/>
    <nd ref="76872844"/>
    <nd ref="76872851"/>
    <nd ref="76872857"/>
    <nd ref="76872860"/>
    <nd ref="76872868"/>
    <nd ref="76872874"/>
    <nd ref="76872881"/>
    <nd ref="76872888"/>
    <nd ref="76872819"/>
    <tag k="addr:city" v="München"/>
    <tag k="addr:country" v="DE"/>
    <tag k="addr:housenumber" v="252"/>
    <tag k="addr:street" v="Leopoldstraße"/>
    <tag k="building" v="office"/>
    <tag k="building:levels" v="5"/>
    <tag k="source" v="Yahoo / YWMS"/>
  </way>
  <way id="9723533" version="10" timestamp="2022-10-19T22:42:10Z" changeset="127810618" uid="536583" user="Strubbl">
    <nd ref="76873163"/>
    <nd ref="76873170"/>
    <nd ref="76873180"/>
    <nd ref="76873182"/>
    <nd ref="76873184"/>
    <nd ref="76873187"/>
    <nd ref="76873189"/>
    <nd ref="76873192"/>
    <nd ref="76873195"/>
    <nd ref="76873201"/>
    <nd ref="76873211"/>
    <nd ref="76873217"/>
    <nd ref="76873227"/>
    <nd ref="76873235"/>
    <nd ref="1595853724"/>
    <nd ref="76873245"/>
    <nd ref="76873250"/>
    <nd ref="76873256"/>
    <nd ref="76873163"/>
    <tag k="building" v="office"/>
    <tag k="building:levels" v="5"/>
    <tag k="name" v="BMW BIZ München"/>
    <tag k="office" v="educational_institution"/>
    <tag k="phone" v="+4989 382 - 61111"/>
    <tag k="ref" v="01.43/001.0"/>
    <tag k="roof:colour" v="lightgrey"/>
    <tag k="roof:shape" v="flat"/>
  </way>
  <way id="10319303" version="25" timestamp="2025-01-05T17:30:32Z" changeset="161030081" uid="2815653" user="DaxServer">
    <nd ref="87316096"/>
    <nd ref="3700420638"/>
    <nd ref="3700420637"/>
    <nd ref="10119124207"/>
    <nd ref="34485602"/>
    <tag k="highway" v="primary"/>
    <tag k="lanes" v="1"/>
    <tag k="lit" v="yes"/>
    <tag k="maxspeed" v="60"/>
    <tag k="motorroad" v="yes"/>
    <tag k="name" v="Frankfurter Ring"/>
    <tag k="name:etymology:wikidata" v="Q1794"/>
    <tag k="oneway" v="yes"/>
    <tag k="postal_code" v="80807"/>
    <tag k="shoulder" v="no"/>
    <tag k="smoothness" v="good"/>
    <tag k="surface" v="asphalt"/>
    <tag k="tmc" v="DE:27942"/>
    <tag k="width" v="3.5"/>
    <tag k="wikidata" v="Q21201006"/>
  </way>
  <way id="10526514" version="16" timestamp="2022-07-18T15:37:47Z" changeset="123769659" uid="14063915" user="hiierundda">
    <nd ref="90715131"/>
    <nd ref="8833317098"/>
    <nd ref="8833317097"/>
    <nd ref="90715150"/>
    <tag k="cycleway:right" v="no"/>
    <tag k="highway" v="primary_link"/>
    <tag k="lanes" v="1"/>
    <tag k="lit" v="no"/>
    <tag k="maxheight" v="3.7"/>
    <tag k="maxspeed" v="50"/>
    <tag k="oneway" v="yes"/>
    <tag k="postal_code" v="80807"/>
    <tag k="smoothness" v="good"/>
    <tag k="surface" v="asphalt"/>
  </way>
  <way id="22929959" version="17" timestamp="2025-04-10T06:55:17Z" changeset="164753337" uid="9244608" user="LittleJoeMuc">
    <nd ref="246995232"/>
    <nd ref="246995024"/>
    <nd ref="436443221"/>
    <nd ref="246995469"/>
    <nd ref="21092533"/>
    <tag k="bicycle" v="no"/>
    <tag k="destination" v="Berlin"/>
    <tag k="destination:ref" v="A 9"/>
    <tag k="foot" v="no"/>
    <tag k="highway" v="motorway_link"/>
    <tag k="lanes" v="1"/>
    <tag k="layer" v="-1"/>
    <tag k="lit" v="yes"/>
    <tag k="maxheight" v="default"/>
    <tag k="maxspeed" v="50"/>
    <tag k="oneway" v="yes"/>
    <tag k="surface" v="asphalt"/>
    <tag k="tunnel" v="yes"/>
  </way>
  <way id="24337855" version="18" timestamp="2025-03-04T23:10:15Z" changeset="163222570" uid="12307820" user="menace2society">
    <nd ref="243508598"/>
    <nd ref="1473221249"/>
    <nd ref="5898876220"/>
    <nd ref="1239544034"/>
    <nd ref="5898876221"/>
    <nd ref="7982823"/>
    <tag k="bicycle" v="use_sidepath"/>
    <tag k="foot" v="use_sidepath"/>
    <tag k="highway" v="secondary_link"/>
    <tag k="lanes" v="1"/>
    <tag k="maxspeed:type" v="DE:urban"/>
    <tag k="name" v="Leopoldstraße"/>
    <tag k="oneway" v="yes"/>
    <tag k="sidewalk:left" v="no"/>
    <tag k="sidewalk:right" v="separate"/>
    <tag k="surface" v="asphalt"/>
  </way>
  <way id="25402986" version="31" timestamp="2025-01-11T18:38:31Z" changeset="161248961" uid="2815653" user="DaxServer">
    <nd ref="13888060"/>
    <nd ref="1015946167"/>
    <nd ref="3759740597"/>
    <nd ref="1015956648"/>
    <nd ref="2709446864"/>
    <nd ref="1015956637"/>
    <tag k="bicycle" v="use_sidepath"/>
    <tag k="foot" v="use_sidepath"/>
    <tag k="hgv" v="delivery"/>
    <tag k="highway" v="primary"/>
    <tag k="lanes" v="3"/>
    <tag k="lit" v="yes"/>
    <tag k="maxspeed" v="50"/>
    <tag k="name" v="Leopoldstraße"/>
    <tag k="name:etymology:wikidata" v="Q61015"/>
    <tag k="oneway" v="yes"/>
    <tag k="ref" v="B 13"/>
    <tag k="sidewalk:left" v="no"/>
    <tag k="sidewalk:right" v="separate"/>
    <tag k="surface" v="asphalt"/>
    <tag k="tmc" v="DE:20719/20720"/>
    <tag k="turn:lanes" v="merge_to_right|none|none"/>
    <tag k="wikidata" v="Q877933"/>
    <tag k="wikipedia" v="de:Leopoldstraße"/>
  </way>
  <way id="25403292" version="16" timestamp="2023-09-08T09:29:48Z" changeset="140978183" uid="2007135" user="Brainlessnick">
    <nd ref="13888060"/>
    <nd ref="3420195979"/>
    <nd ref="21092097"/>
    <tag k="bicycle" v="use_sidepath"/>
    <tag k="foot" v="use_sidepath"/>
    <tag k="highway" v="primary"/>
    <tag k="lanes" v="4"/>
    <tag k="lit" v="yes"/>
    <tag k="maxspeed" v="50"/>
    <tag k="noname" v="yes"/>
    <tag k="oneway" v="yes"/>
    <tag k="parking:both" v="no"/>
    <tag k="surface" v="asphalt"/>
    <tag k="turn:lanes" v="left|left|through|through"/>
  </way>
  <way id="27211171" version="15" timestamp="2025-04-10T06:54:57Z" changeset="164753337" uid="9244608" user="LittleJoeMuc">
    <nd ref="13887887"/>
    <nd ref="1238687351"/>
    <nd ref="298606433"/>
    <nd ref="3027856848"/>
    <tag k="highway" v="trunk_link"/>
    <tag k="lanes" v="1"/>
    <tag k="lit" v="yes"/>
    <tag k="maxspeed" v="50"/>
    <tag k="motorroad" v="yes"/>
    <tag k="oneway" v="yes"/>
    <tag k="surface" v="asphalt"/>
  </way>
  <way id="28129940" version="9" timestamp="2022-10-21T15:49:54Z" changeset="127891755" uid="2554996" user="Nanoilite">
    <nd ref="76873095"/>
    <nd ref="76873099"/>
    <nd ref="76873074"/>
    <nd ref="76873088"/>
    <nd ref="76873095"/>
    <tag k="addr:city" v="München"/>
    <tag k="addr:country" v="DE"/>
    <tag k="addr:housenumber" v="12"/>
    <tag k="addr:postcode" v="80807"/>
    <tag k="addr:street" v="Ingolstädter Straße"/>
    <tag k="building" v="commercial"/>
    <tag k="building:levels" v="4"/>
    <tag k="roof:colour" v="darkgrey"/>
    <tag k="roof:shape" v="flat"/>
    <tag k="source" v="Yahoo / YWMS"/>
  </way>
  <way id="28211886" version="20" timestamp="2025-05-05T18:08:18Z" changeset="165858946" uid="16061279" user="YellowSoul">
    <nd ref="2688332058"/>
    <nd ref="1025676157"/>
    <nd ref="1025676156"/>
    <nd ref="2708986885"/>
    <nd ref="10075553872"/>
    <tag k="bicycle" v="yes"/>
    <tag k="class:bicycle" v="-1"/>
    <tag k="cycleway:left" v="separate"/>
    <tag k="cycleway:right" v="no"/>
    <tag k="foot" v="use_sidepath"/>
    <tag k="highway" v="tertiary"/>
    <tag k="lanes" v="4"/>
    <tag k="lanes:forward" v="3"/>
    <tag k="lit" v="yes"/>
    <tag k="maxspeed" v="50"/>
    <tag k="name" v="Domagkstraße"/>
    <tag k="postal_code" v="80807"/>
    <tag k="sidewalk" v="separate"/>
    <tag k="smoothness" v="good"/>
    <tag k="source:maxspeed" v="DE:urban"/>
    <tag k="surface" v="asphalt"/>
    <tag k="turn:lanes:forward" v="left|through|right"/>
  </way>
  <way id="29138363" version="8" timestamp="2025-04-10T06:54:09Z" changeset="164753325" uid="9244608" user="LittleJoeMuc">
    <nd ref="320551236"/>
    <nd ref="320551237"/>
    <nd ref="320551238"/>
    <nd ref="320551239"/>
    <nd ref="320551240"/>
    <nd ref="320551241"/>
    <nd ref="320551242"/>
    <nd ref="1151151653"/>
    <nd ref="320551243"/>
    <nd ref="320551236"/>
    <tag k="addr:city" v="München"/>
    <tag k="addr:country" v="DE"/>
    <tag k="addr:housenumber" v="230"/>
    <tag k="addr:postcode" v="80807"/>
    <tag k="addr:street" v="Leopoldstraße"/>
    <tag k="building" v="office"/>
    <tag k="building:levels" v="4"/>
    <tag k="name" v="Commerzbank AG"/>
    <tag k="roof:shape" v="flat"/>
  </way>
  <way id="32457956" version="19" timestamp="2025-03-22T21:16:15Z" changeset="163964538" uid="44217" user="kjon">
    <nd ref="246995548"/>
    <nd ref="1297198240"/>
    <nd ref="429838638"/>
    <nd ref="1297198236"/>
    <nd ref="429838637"/>
    <tag k="hgv" v="delivery"/>
    <tag k="highway" v="trunk"/>
    <tag k="lanes" v="2"/>
    <tag k="layer" v="-1"/>
    <tag k="lit" v="yes"/>
    <tag k="maxspeed" v="50"/>
    <tag k="motorroad" v="yes"/>
    <tag k="name" v="Schenkendorfstraße"/>
    <tag k="name:etymology:wikidata" v="Q71616"/>
    <tag k="oneway" v="yes"/>
    <tag k="parking:both" v="no"/>
    <tag k="ref" v="B 2R"/>
    <tag k="sidewalk:both" v="no"/>
    <tag k="surface" v="asphalt"/>
    <tag k="tmc" v="DE:22673/22674"/>
    <tag k="wikidata" v="Q969594"/>
  </way>
  <way id="36580427" version="23" timestamp="2025-01-12T12:18:41Z" changeset="161268959" uid="2815653" user="DaxServer">
    <nd ref="21092014"/>
    <nd ref="1238687357"/>
    <nd ref="429838642"/>
    <nd ref="298606431"/>
    <nd ref="429838646"/>
    <nd ref="246996128"/>
    <tag k="bicycle" v="use_sidepath"/>
    <tag k="foot" v="use_sidepath"/>
    <tag k="highway" v="trunk_link"/>
    <tag k="lanes" v="2"/>
    <tag k="lit" v="yes"/>
    <tag k="maxspeed" v="50"/>
    <tag k="name" v="Schenkendorfstraße"/>
    <tag k="name:etymology:wikidata" v="Q71616"/>
    <tag k="oneway" v="yes"/>
    <tag k="sidewalk:right" v="separate"/>
    <tag k="surface" v="asphalt"/>
    <tag k="turn:lanes" v="through|right"/>
    <tag k="wikidata" v="Q969594"/>
  </way>
  <way id="36580429" version="19" timestamp="2025-01-11T18:38:31Z" changeset="161248961" uid="2815653" user="DaxServer">
    <nd ref="21092014"/>
    <nd ref="7996998133"/>
    <nd ref="1238687350"/>
    <nd ref="13888060"/>
    <tag k="bicycle" v="use_sidepath"/>
    <tag k="cycleway:right" v="separate"/>
    <tag k="foot" v="use_sidepath"/>
    <tag k="hgv" v="delivery"/>
    <tag k="highway" v="primary"/>
    <tag k="lanes" v="3"/>
    <tag k="lit" v="yes"/>
    <tag k="maxspeed" v="50"/>
    <tag k="name" v="Leopoldstraße"/>
    <tag k="name:etymology:wikidata" v="Q61015"/>
    <tag k="oneway" v="yes"/>
    <tag k="parking:both" v="no"/>
    <tag k="sidewalk:right" v="separate"/>
    <tag k="smoothness" v="good"/>
    <tag k="surface" v="asphalt"/>
    <tag k="turn:lanes" v="left;through|through|through"/>
    <tag k="wikidata" v="Q877933"/>
    <tag k="wikipedia" v="de:Leopoldstraße"/>
  </way>
  <way id="36580431" version="15" timestamp="2025-03-22T21:16:15Z" changeset="163964538" uid="44217" user="kjon">
    <nd ref="564129"/>
    <nd ref="2963232106"/>
    <nd ref="246995232"/>
    <tag k="hgv" v="delivery"/>
    <tag k="highway" v="trunk"/>
    <tag k="lanes" v="2"/>
    <tag k="layer" v="-1"/>
    <tag k="lit" v="yes"/>
    <tag k="maxspeed" v="60"/>
    <tag k="motorroad" v="yes"/>
    <tag k="oneway" v="yes"/>
    <tag k="parking:both" v="no"/>
    <tag k="ref" v="B 2R"/>
    <tag k="surface" v="asphalt"/>
    <tag k="tmc" v="DE:29829/22673"/>
    <tag k="tunnel" v="yes"/>
    <tag k="tunnel:name" v="Petueltunnel"/>
  </way>
  <way id="36945728" version="20" timestamp="2025-03-22T21:16:15Z" changeset="163964538" uid="44217" user="kjon">
    <nd ref="564131"/>
    <nd ref="1297198248"/>
    <nd ref="429838636"/>
    <nd ref="1297198230"/>
    <nd ref="246995521"/>
    <nd ref="1495423579"/>
    <nd ref="2963213775"/>
    <nd ref="436443225"/>
    <tag k="hgv" v="delivery"/>
    <tag k="highway" v="trunk"/>
    <tag k="lanes" v="2"/>
    <tag k="layer" v="-1"/>
    <tag k="lit" v="yes"/>
    <tag k="maxheight" v="default"/>
    <tag k="maxspeed" v="50"/>
    <tag k="motorroad" v="yes"/>
    <tag k="name" v="Schenkendorfstraße"/>
    <tag k="name:etymology:wikidata" v="Q71616"/>
    <tag k="oneway" v="yes"/>
    <tag k="parking:both" v="no"/>
    <tag k="ref" v="B 2R"/>
    <tag k="surface" v="asphalt"/>
    <tag k="tmc" v="DE:22673/22674"/>
    <tag k="tunnel" v="yes"/>
    <tag k="wikidata" v="Q969594"/>
  </way>
  <way id="36945842" version="16" timestamp="2025-01-05T17:30:32Z" changeset="161030081" uid="2815653" user="DaxServer">
    <nd ref="87316096"/>
    <nd ref="2524346929"/>
    <nd ref="1629579476"/>
    <nd ref="2524346927"/>
    <nd ref="87316105"/>
    <tag k="bridge" v="yes"/>
    <tag k="highway" v="primary"/>
    <tag k="lanes" v="2"/>
    <tag k="layer" v="1"/>
    <tag k="lit" v="yes"/>
    <tag k="maxspeed" v="60"/>
    <tag k="maxweight:signed" v="no"/>
    <tag k="motorroad" v="yes"/>
    <tag k="name" v="Frankfurter Ring"/>
    <tag k="name:etymology:wikidata" v="Q1794"/>
    <tag k="shoulder" v="no"/>
    <tag k="smoothness" v="good"/>
    <tag k="surface" v="asphalt"/>
    <tag k="tmc" v="DE:27942"/>
    <tag k="wikidata" v="Q21201006"/>
  </way>
  <way id="36945843" version="14" timestamp="2025-01-05T17:30:32Z" changeset="161030081" uid="2815653" user="DaxServer">
    <nd ref="429610685"/>
    <nd ref="3700420640"/>
    <nd ref="3700420639"/>
    <nd ref="87316096"/>
    <tag k="destination" v="Stuttgart;Garmisch-Partenkirchen;Lindau;Dachau;Moosach"/>
    <tag k="destination:ref" v="A 8;A 95;A 96;B 304"/>
    <tag k="highway" v="primary"/>
    <tag k="lanes" v="1"/>
    <tag k="lit" v="yes"/>
    <tag k="maxspeed" v="60"/>
    <tag k="motorroad" v="yes"/>
    <tag k="name" v="Frankfurter Ring"/>
    <tag k="name:etymology:wikidata" v="Q1794"/>
    <tag k="oneway" v="yes"/>
    <tag k="postal_code" v="80807"/>
    <tag k="shoulder" v="no"/>
    <tag k="smoothness" v="good"/>
    <tag k="surface" v="asphalt"/>
    <tag k="tmc" v="DE:27942"/>
    <tag k="width" v="3.5"/>
    <tag k="wikidata" v="Q21201006"/>
  </way>
  <way id="36966113" version="14" timestamp="2025-04-10T06:55:01Z" changeset="164753337" uid="9244608" user="LittleJoeMuc">
    <nd ref="429838637"/>
    <nd ref="21092106"/>
    <tag k="hgv" v="delivery"/>
    <tag k="highway" v="trunk"/>
    <tag k="lanes" v="2"/>
    <tag k="layer" v="-1"/>
    <tag k="lit" v="yes"/>
    <tag k="maxheight" v="default"/>
    <tag k="maxspeed" v="50"/>
    <tag k="maxspeed:variable" v="yes"/>
    <tag k="motorroad" v="yes"/>
    <tag k="oneway" v="yes"/>
    <tag k="parking:both" v="no"/>
    <tag k="ref" v="B 2R"/>
    <tag k="surface" v="asphalt"/>
    <tag k="tmc" v="DE:22673/22674"/>
    <tag k="tunnel" v="yes"/>
    <tag k="tunnel:name" v="Petueltunnel"/>
  </way>
  <way id="37384192" version="18" timestamp="2025-01-12T12:18:41Z" changeset="161268959" uid="2815653" user="DaxServer">
    <nd ref="246996128"/>
    <nd ref="1495423574"/>
    <nd ref="1495423575"/>
    <nd ref="246996130"/>
    <nd ref="1495423583"/>
    <nd ref="3836927986"/>
    <nd ref="3836927985"/>
    <nd ref="3836927984"/>
    <nd ref="3836927983"/>
    <tag k="bicycle" v="no"/>
    <tag k="foot" v="no"/>
    <tag k="highway" v="trunk_link"/>
    <tag k="lanes" v="2"/>
    <tag k="layer" v="-1"/>
    <tag k="lit" v="yes"/>
    <tag k="maxheight" v="below_default"/>
    <tag k="maxspeed" v="50"/>
    <tag k="name" v="Schenkendorfstraße"/>
    <tag k="name:etymology:wikidata" v="Q71616"/>
    <tag k="oneway" v="yes"/>
    <tag k="surface" v="asphalt"/>
    <tag k="tunnel" v="yes"/>
    <tag k="turn:lanes" v="through|slight_right"/>
    <tag k="wikidata" v="Q969594"/>
  </way>
  <way id="47634467" version="22" timestamp="2025-01-05T17:30:32Z" changeset="161030081" uid="2815653" user="DaxServer">
    <nd ref="19369004"/>
    <nd ref="992725083"/>
    <nd ref="90715150"/>
    <tag k="bicycle" v="use_sidepath"/>
    <tag k="destination" v="Passau;Salzburg;Nürnberg;Flughafen;Messe/ICM/Allianz Arena"/>
    <tag k="foot" v="use_sidepath"/>
    <tag k="highway" v="primary"/>
    <tag k="lanes" v="2"/>
    <tag k="lit" v="yes"/>
    <tag k="maxspeed" v="50"/>
    <tag k="name" v="Frankfurter Ring"/>
    <tag k="name:etymology:wikidata" v="Q1794"/>
    <tag k="oneway" v="yes"/>
    <tag k="postal_code" v="80807"/>
    <tag k="sidewalk:left" v="no"/>
    <tag k="sidewalk:right" v="separate"/>
    <tag k="smoothness" v="good"/>
    <tag k="surface" v="asphalt"/>
    <tag k="width" v="6"/>
    <tag k="wikidata" v="Q21201006"/>
  </way>
  <way id="55291961" version="17" timestamp="2025-04-06T16:26:40Z" changeset="164599420" uid="137242" user="Rainero">
    <nd ref="577492202"/>
    <nd ref="34484156"/>
    <tag k="bridge" v="yes"/>
    <tag k="class:bicycle" v="2"/>
    <tag k="cycleway:left" v="lane"/>
    <tag k="cycleway:left:lane" v="exclusive"/>
    <tag k="cycleway:right" v="no"/>
    <tag k="foot" v="use_sidepath"/>
    <tag k="highway" v="tertiary"/>
    <tag k="lanes" v="2"/>
    <tag k="layer" v="1"/>
    <tag k="maxspeed" v="50"/>
    <tag k="maxweight:signed" v="no"/>
    <tag k="name" v="Domagkstraße"/>
    <tag k="postal_code" v="80807"/>
    <tag k="sidewalk" v="separate"/>
    <tag k="smoothness" v="good"/>
    <tag k="source:maxspeed" v="DE:urban"/>
    <tag k="surface" v="asphalt"/>
  </way>
  <way id="57708485" version="4" timestamp="2022-02-17T12:52:01Z" changeset="117520269" uid="44217" user="kjon">
    <nd ref="715504763"/>
    <nd ref="715504784"/>
    <nd ref="715504775"/>
    <nd ref="715504781"/>
    <nd ref="715504763"/>
    <tag k="addr:city" v="München"/>
    <tag k="addr:country" v="DE"/>
    <tag k="addr:housenumber" v="51"/>
    <tag k="addr:postcode" v="80807"/>
    <tag k="addr:street" v="Anni-Albers-Straße"/>
    <tag k="building" v="yes"/>
    <tag k="operator" v="Stadtwerke München"/>
    <tag k="operator:wikidata" v="Q882871"/>
    <tag k="operator:wikipedia" v="de:Stadtwerke München"/>
    <tag k="power" v="substation"/>
    <tag k="ref" v="7560;7788;7789"/>
  </way>
  <way id="60846589" version="13" timestamp="2022-10-04T17:48:32Z" changeset="127008409" uid="2554996" user="Nanoilite">
    <nd ref="34485604"/>
    <nd ref="1042772201"/>
    <nd ref="3730751021"/>
    <nd ref="10075553759"/>
    <nd ref="10075553760"/>
    <nd ref="10075523725"/>
    <nd ref="1231103426"/>
    <tag k="highway" v="residential"/>
    <tag k="lit" v="yes"/>
    <tag k="maxspeed" v="30"/>
    <tag k="name" v="Hans-Döllgast-Straße"/>
    <tag k="sidewalk" v="separate"/>
    <tag k="source:maxspeed" v="DE:zone30"/>
    <tag k="surface" v="asphalt"/>
  </way>
  <way id="68516283" version="7" timestamp="2021-12-01T07:14:45Z" changeset="114430965" uid="78613" user="heilbron">
    <nd ref="76872484"/>
    <nd ref="3375497382"/>
    <nd ref="76872486"/>
    <nd ref="1979823250"/>
    <nd ref="76872447"/>
    <nd ref="76872451"/>
    <nd ref="76872455"/>
    <nd ref="76872463"/>
    <nd ref="76872468"/>
    <nd ref="76872484"/>
    <tag k="addr:city" v="München"/>
    <tag k="addr:country" v="DE"/>
    <tag k="addr:housenumber" v="242"/>
    <tag k="addr:postcode" v="80807"/>
    <tag k="addr:street" v="Leopoldstraße"/>
    <tag k="building" v="office"/>
    <tag k="building:levels" v="4"/>
    <tag k="source" v="Yahoo / YWMS"/>
  </way>
  <way id="81267196" version="11" timestamp="2022-11-27T20:02:30Z" changeset="129446783" uid="2554996" user="Nanoilite">
    <nd ref="1629579479"/>
    <nd ref="8622442211"/>
    <nd ref="5237950332"/>
    <nd ref="1629579438"/>
    <nd ref="946790705"/>
    <tag k="bicycle" v="use_sidepath"/>
    <tag k="foot" v="no"/>
    <tag k="highway" v="primary_link"/>
    <tag k="lanes" v="1"/>
    <tag k="lit" v="yes"/>
    <tag k="maxspeed" v="50"/>
    <tag k="oneway" v="yes"/>
    <tag k="surface" v="asphalt"/>
    <tag k="turn:lanes" v="left"/>
  </way>
  <way id="99524989" version="3" timestamp="2015-09-27T18:25:02Z" changeset="34289424" uid="336643" user="BigBen2003">
    <nd ref="1151153462"/>
    <nd ref="1151151648"/>
    <nd ref="1151152312"/>
    <nd ref="1151154475"/>
    <nd ref="1151155225"/>
    <nd ref="1151154212"/>
    <nd ref="1151153462"/>
    <tag k="addr:city" v="München"/>
    <tag k="addr:country" v="DE"/>
    <tag k="addr:housenumber" v="12"/>
    <tag k="addr:postcode" v="80807"/>
    <tag k="addr:street" v="Heinrich-Kley-Straße"/>
    <tag k="building" v="yes"/>
  </way>
  <way id="104041766" version="7" timestamp="2020-03-27T22:22:33Z" changeset="82735383" uid="2066394" user="wurzelast">
    <nd ref="1200698225"/>
    <nd ref="1200698230"/>
    <nd ref="7337297531"/>
    <nd ref="3659047632"/>
    <nd ref="3659047635"/>
    <nd ref="1200698213"/>
    <nd ref="1200698222"/>
    <nd ref="7337297530"/>
    <nd ref="1200698225"/>
    <tag k="building" v="yes"/>
    <tag k="building:levels" v="3"/>
    <tag k="name" v="Fashion Service"/>
    <tag k="phone" v="+49 89 35657160"/>
  </way>
  <way id="107080302" version="18" timestamp="2022-11-14T17:47:09Z" changeset="128903049" uid="55980" user="gimicky">
    <nd ref="1231103429"/>
    <nd ref="1979823258"/>
    <nd ref="1726930071"/>
    <nd ref="10075553445"/>
    <nd ref="1968284380"/>
    <nd ref="1231103489"/>
    <nd ref="2904795657"/>
    <nd ref="1231103444"/>
    <nd ref="10075553730"/>
    <nd ref="10075553769"/>
    <nd ref="1231103426"/>
    <tag k="highway" v="residential"/>
    <tag k="lit" v="yes"/>
    <tag k="maxspeed" v="30"/>
    <tag k="name" v="Hans-Döllgast-Straße"/>
    <tag k="sidewalk" v="separate"/>
    <tag k="smoothness" v="excellent"/>
    <tag k="source:maxspeed" v="DE:zone30"/>
    <tag k="surface" v="asphalt"/>
  </way>
  <way id="107947688" version="9" timestamp="2022-09-10T17:40:30Z" changeset="126024631" uid="536583" user="Strubbl">
    <nd ref="1239543991"/>
    <nd ref="1239544036"/>
    <nd ref="5898876227"/>
    <nd ref="1239543988"/>
    <nd ref="5898876228"/>
    <nd ref="2138722659"/>
    <nd ref="1239543987"/>
    <nd ref="5898876229"/>
    <nd ref="1239544033"/>
    <tag k="bicycle" v="no"/>
    <tag k="foot" v="no"/>
    <tag k="highway" v="secondary_link"/>
    <tag k="lanes" v="1"/>
    <tag k="lit" v="yes"/>
    <tag k="maxspeed" v="50"/>
    <tag k="name" v="Leopoldstraße"/>
    <tag k="oneway" v="yes"/>
    <tag k="sidewalk" v="no"/>
    <tag k="surface" v="asphalt"/>
  </way>
  <way id="107947690" version="11" timestamp="2023-11-01T10:34:02Z" changeset="143466852" uid="6285042" user="Biclmont">
    <nd ref="7982823"/>
    <nd ref="372804143"/>
    <nd ref="8119830934"/>
    <nd ref="4717936285"/>
    <nd ref="5898876235"/>
    <nd ref="5898876234"/>
    <nd ref="7982818"/>
    <nd ref="5898876232"/>
    <nd ref="5898876233"/>
    <nd ref="2650140188"/>
    <nd ref="2650140227"/>
    <nd ref="7982822"/>
    <tag k="highway" v="residential"/>
    <tag k="lit" v="yes"/>
    <tag k="maxspeed" v="30"/>
    <tag k="maxspeed:type" v="DE:zone30"/>
    <tag k="name" v="Wilhelm-Hertz-Straße"/>
    <tag k="postal_code" v="80805"/>
    <tag k="sidewalk:left" v="separate"/>
    <tag k="surface" v="asphalt"/>
  </way>
  <way id="112387586" version="5" timestamp="2023-08-25T13:22:27Z" changeset="140372800" uid="2007135" user="Brainlessnick">
    <nd ref="1277472110"/>
    <nd ref="1277472148"/>
    <nd ref="1277472146"/>
    <nd ref="1277472142"/>
    <nd ref="2653021147"/>
    <nd ref="1277472110"/>
    <tag k="addr:city" v="München"/>
    <tag k="addr:country" v="DE"/>
    <tag k="addr:housenumber" v="25"/>
    <tag k="addr:postcode" v="80807"/>
    <tag k="addr:street" v="Otl-Aicher-Straße"/>
    <tag k="building" v="apartments"/>
  </way>
  <way id="112387589" version="4" timestamp="2018-12-21T00:35:29Z" changeset="65655439" uid="155331" user="benhurxt">
    <nd ref="1277472087"/>
    <nd ref="1277472083"/>
    <nd ref="2653021141"/>
    <nd ref="1277472085"/>
    <nd ref="1277472095"/>
    <nd ref="1277472087"/>
    <tag k="addr:city" v="München"/>
    <tag k="addr:country" v="DE"/>
    <tag k="addr:housenumber" v="18"/>
    <tag k="addr:postcode" v="80807"/>
    <tag k="addr:street" v="Hans-Döllgast-Straße"/>
    <tag k="building" v="apartments"/>
  </way>
  <way id="112387590" version="5" timestamp="2023-08-25T13:22:27Z" changeset="140372800" uid="2007135" user="Brainlessnick">
    <nd ref="1277472125"/>
    <nd ref="1277472127"/>
    <nd ref="1277472126"/>
    <nd ref="1277472113"/>
    <nd ref="2653021145"/>
    <nd ref="1277472125"/>
    <tag k="addr:city" v="München"/>
    <tag k="addr:country" v="DE"/>
    <tag k="addr:housenumber" v="27"/>
    <tag k="addr:postcode" v="80807"/>
    <tag k="addr:street" v="Otl-Aicher-Straße"/>
    <tag k="building" v="apartments"/>
  </way>
  <way id="112387591" version="4" timestamp="2018-12-21T00:35:35Z" changeset="65655439" uid="155331" user="benhurxt">
    <nd ref="1277472090"/>
    <nd ref="1277472117"/>
    <nd ref="2653021139"/>
    <nd ref="1277472122"/>
    <nd ref="1277472099"/>
    <nd ref="1277472090"/>
    <tag k="addr:city" v="München"/>
    <tag k="addr:country" v="DE"/>
    <tag k="addr:housenumber" v="16"/>
    <tag k="addr:postcode" v="80807"/>
    <tag k="addr:street" v="Hans-Döllgast-Straße"/>
    <tag k="building" v="apartments"/>
  </way>
  <way id="112387592" version="4" timestamp="2018-12-21T00:35:25Z" changeset="65655439" uid="155331" user="benhurxt">
    <nd ref="1277472145"/>
    <nd ref="1277472144"/>
    <nd ref="1277472141"/>
    <nd ref="1277472143"/>
    <nd ref="2653021143"/>
    <nd ref="1277472145"/>
    <tag k="addr:city" v="München"/>
    <tag k="addr:country" v="DE"/>
    <tag k="addr:housenumber" v="20"/>
    <tag k="addr:postcode" v="80807"/>
    <tag k="addr:street" v="Hans-Döllgast-Straße"/>
    <tag k="building" v="apartments"/>
  </way>
  <way id="122171400" version="12" timestamp="2018-09-10T12:56:07Z" changeset="62453353" uid="109029" user="shorty_de">
    <nd ref="1365984360"/>
    <nd ref="1365984355"/>
    <nd ref="3538204818"/>
    <nd ref="2061996441"/>
    <nd ref="1365984380"/>
    <nd ref="1365984384"/>
    <nd ref="1365984371"/>
    <nd ref="1365984373"/>
    <nd ref="1365984389"/>
    <nd ref="1365984392"/>
    <nd ref="1365984337"/>
    <nd ref="1365984335"/>
    <nd ref="1365984360"/>
    <tag k="addr:city" v="München"/>
    <tag k="addr:country" v="DE"/>
    <tag k="addr:housenumber" v="208"/>
    <tag k="addr:postcode" v="80804"/>
    <tag k="addr:street" v="Leopoldstraße"/>
    <tag k="building" v="office"/>
    <tag k="building:levels" v="4"/>
    <tag k="roof:colour" v="grey"/>
    <tag k="roof:shape" v="flat"/>
  </way>
  <way id="122171410" version="6" timestamp="2024-02-14T20:59:39Z" changeset="147466599" uid="3948229" user="textpilot">
    <nd ref="5896292309"/>
    <nd ref="5896292308"/>
    <nd ref="5896292310"/>
    <nd ref="5896292311"/>
    <nd ref="5896292309"/>
    <tag k="addr:city" v="München"/>
    <tag k="addr:country" v="DE"/>
    <tag k="addr:housenumber" v="7"/>
    <tag k="addr:postcode" v="80805"/>
    <tag k="addr:street" v="Wilhelm-Hertz-Straße"/>
    <tag k="building" v="construction"/>
  </way>
  <way id="122171417" version="11" timestamp="2024-12-22T12:43:55Z" changeset="160500173" uid="13903987" user="cquike">
    <nd ref="1365984180"/>
    <nd ref="1365984188"/>
    <nd ref="4561858856"/>
    <nd ref="1365984203"/>
    <nd ref="1365984206"/>
    <nd ref="1365984209"/>
    <nd ref="1365984211"/>
    <nd ref="1365984239"/>
    <nd ref="1365984238"/>
    <nd ref="1365984259"/>
    <nd ref="1365984264"/>
    <nd ref="1365984268"/>
    <nd ref="1365984271"/>
    <nd ref="1365984282"/>
    <nd ref="1365984295"/>
    <nd ref="1365984300"/>
    <nd ref="4561858857"/>
    <nd ref="1365984298"/>
    <nd ref="4866667814"/>
    <nd ref="2477104842"/>
    <nd ref="4866667818"/>
    <nd ref="1365984329"/>
    <nd ref="1365984364"/>
    <nd ref="1365984358"/>
    <nd ref="1365984340"/>
    <nd ref="1365984341"/>
    <nd ref="1365984333"/>
    <nd ref="1365984331"/>
    <nd ref="2477104841"/>
    <nd ref="8040501087"/>
    <nd ref="8040501086"/>
    <nd ref="1365984278"/>
    <nd ref="8040478282"/>
    <nd ref="1365984241"/>
    <nd ref="1365984234"/>
    <nd ref="1365984216"/>
    <nd ref="1365984180"/>
    <tag k="addr:city" v="München"/>
    <tag k="addr:country" v="DE"/>
    <tag k="addr:housenumber" v="206"/>
    <tag k="addr:postcode" v="80804"/>
    <tag k="addr:street" v="Leopoldstraße"/>
    <tag k="building" v="apartments"/>
  </way>
  <way id="122171429" version="9" timestamp="2025-03-14T09:01:01Z" changeset="163600777" uid="9244608" user="LittleJoeMuc">
    <nd ref="5896292272"/>
    <nd ref="5896292271"/>
    <nd ref="5896292273"/>
    <nd ref="5896292274"/>
    <nd ref="5896292272"/>
    <tag k="addr:city" v="München"/>
    <tag k="addr:country" v="DE"/>
    <tag k="addr:housenumber" v="224"/>
    <tag k="addr:postcode" v="80804"/>
    <tag k="addr:street" v="Leopoldstraße"/>
    <tag k="building" v="apartments"/>
    <tag k="building:levels" v="4"/>
    <tag k="roof:levels" v="1"/>
    <tag k="roof:shape" v="gabled"/>
  </way>
  <way id="122171436" version="6" timestamp="2018-04-30T13:18:00Z" changeset="58554933" uid="7517208" user="ishaybe">
    <nd ref="1365984160"/>
    <nd ref="5215203724"/>
    <nd ref="1365984126"/>
    <nd ref="1365984129"/>
    <nd ref="1365984119"/>
    <nd ref="1365984122"/>
    <nd ref="5215203725"/>
    <nd ref="1365984155"/>
    <nd ref="1365984152"/>
    <nd ref="1365984163"/>
    <nd ref="1365984160"/>
    <tag k="addr:city" v="München"/>
    <tag k="addr:country" v="DE"/>
    <tag k="addr:housenumber" v="202"/>
    <tag k="addr:postcode" v="80804"/>
    <tag k="addr:street" v="Leopoldstraße"/>
    <tag k="building" v="office"/>
    <tag k="building:levels" v="12"/>
  </way>
  <way id="125827024" version="16" timestamp="2022-10-04T17:48:32Z" changeset="127008409" uid="2554996" user="Nanoilite">
    <nd ref="761722983"/>
    <nd ref="10075553745"/>
    <nd ref="2616758240"/>
    <nd ref="1726930085"/>
    <nd ref="10075553752"/>
    <nd ref="10075553753"/>
    <nd ref="10075553777"/>
    <nd ref="2653021132"/>
    <nd ref="5522692328"/>
    <nd ref="1231103501"/>
    <nd ref="2904795665"/>
    <nd ref="1231103411"/>
    <nd ref="10075553854"/>
    <nd ref="3129793102"/>
    <nd ref="2653021153"/>
    <nd ref="1968284375"/>
    <nd ref="10075553772"/>
    <nd ref="1231103426"/>
    <tag k="highway" v="residential"/>
    <tag k="lit" v="yes"/>
    <tag k="maxspeed" v="30"/>
    <tag k="name" v="Otl-Aicher-Straße"/>
    <tag k="oneway" v="no"/>
    <tag k="postal_code" v="80807"/>
    <tag k="sidewalk" v="separate"/>
    <tag k="source:maxspeed" v="DE:zone30"/>
    <tag k="surface" v="asphalt"/>
  </way>
  <way id="152093111" version="16" timestamp="2025-01-05T17:34:18Z" changeset="161030081" uid="2815653" user="DaxServer">
    <nd ref="34705519"/>
    <nd ref="34705520"/>
    <nd ref="3744640571"/>
    <nd ref="260493597"/>
    <nd ref="260493608"/>
    <nd ref="260493619"/>
    <nd ref="260493610"/>
    <tag k="bicycle" v="use_sidepath"/>
    <tag k="foot" v="use_sidepath"/>
    <tag k="hgv" v="delivery"/>
    <tag k="highway" v="primary"/>
    <tag k="lanes" v="2"/>
    <tag k="lit" v="yes"/>
    <tag k="maxspeed" v="50"/>
    <tag k="name" v="Ingolstädter Straße"/>
    <tag k="name:etymology:wikidata" v="Q3004"/>
    <tag k="oneway" v="yes"/>
    <tag k="parking:left" v="no"/>
    <tag k="ref" v="B 13"/>
    <tag k="sidewalk:left" v="no"/>
    <tag k="sidewalk:right" v="separate"/>
    <tag k="surface" v="asphalt"/>
    <tag k="tmc" v="DE:20719/20720"/>
    <tag k="wikidata" v="Q21281208"/>
  </way>
  <way id="160654403" version="3" timestamp="2021-07-14T07:36:00Z" changeset="107957270" uid="13756209" user="captain monaco">
    <nd ref="1726930087"/>
    <nd ref="1726930103"/>
    <nd ref="2653021113"/>
    <nd ref="1726930101"/>
    <nd ref="1726930086"/>
    <nd ref="1726930087"/>
    <tag k="addr:city" v="München"/>
    <tag k="addr:country" v="DE"/>
    <tag k="addr:housenumber" v="10"/>
    <tag k="addr:postcode" v="80807"/>
    <tag k="addr:street" v="Hans-Döllgast-Straße"/>
    <tag k="building" v="yes"/>
    <tag k="building:levels" v="5"/>
  </way>
  <way id="160654404" version="3" timestamp="2021-07-14T07:36:11Z" changeset="107957270" uid="13756209" user="captain monaco">
    <nd ref="1726930109"/>
    <nd ref="1726930127"/>
    <nd ref="2653021124"/>
    <nd ref="1726930125"/>
    <nd ref="1726930107"/>
    <nd ref="1726930109"/>
    <tag k="addr:city" v="München"/>
    <tag k="addr:country" v="DE"/>
    <tag k="addr:housenumber" v="12"/>
    <tag k="addr:postcode" v="80807"/>
    <tag k="addr:street" v="Hans-Döllgast-Straße"/>
    <tag k="building" v="yes"/>
    <tag k="building:levels" v="5"/>
  </way>
  <way id="160654405" version="3" timestamp="2021-07-14T07:36:11Z" changeset="107957270" uid="13756209" user="captain monaco">
    <nd ref="1726930136"/>
    <nd ref="1726930154"/>
    <nd ref="2653021130"/>
    <nd ref="1726930152"/>
    <nd ref="1726930134"/>
    <nd ref="1726930136"/>
    <tag k="addr:city" v="München"/>
    <tag k="addr:country" v="DE"/>
    <tag k="addr:housenumber" v="14"/>
    <tag k="addr:postcode" v="80807"/>
    <tag k="addr:street" v="Hans-Döllgast-Straße"/>
    <tag k="building" v="yes"/>
    <tag k="building:levels" v="5"/>
  </way>
  <way id="160654406" version="4" timestamp="2021-07-14T07:36:00Z" changeset="107957270" uid="13756209" user="captain monaco">
    <nd ref="1726930053"/>
    <nd ref="1726930069"/>
    <nd ref="2653021093"/>
    <nd ref="1726930067"/>
    <nd ref="1726930050"/>
    <nd ref="1726930053"/>
    <tag k="addr:city" v="München"/>
    <tag k="addr:country" v="DE"/>
    <tag k="addr:housenumber" v="17"/>
    <tag k="addr:postcode" v="80807"/>
    <tag k="addr:street" v="Otl-Aicher-Straße"/>
    <tag k="building" v="apartments"/>
    <tag k="building:levels" v="5"/>
  </way>
  <way id="160654407" version="4" timestamp="2021-07-14T07:36:01Z" changeset="107957270" uid="13756209" user="captain monaco">
    <nd ref="1726930056"/>
    <nd ref="1726930077"/>
    <nd ref="2653021097"/>
    <nd ref="1726930074"/>
    <nd ref="1726930054"/>
    <nd ref="1726930056"/>
    <tag k="addr:city" v="München"/>
    <tag k="addr:country" v="DE"/>
    <tag k="addr:housenumber" v="15"/>
    <tag k="addr:postcode" v="80807"/>
    <tag k="addr:street" v="Otl-Aicher-Straße"/>
    <tag k="building" v="apartments"/>
    <tag k="building:levels" v="5"/>
  </way>
  <way id="160654408" version="3" timestamp="2021-07-14T07:36:01Z" changeset="107957270" uid="13756209" user="captain monaco">
    <nd ref="1726930100"/>
    <nd ref="1726930105"/>
    <nd ref="2653021118"/>
    <nd ref="1726930104"/>
    <nd ref="1726930099"/>
    <nd ref="1726930100"/>
    <tag k="addr:city" v="München"/>
    <tag k="addr:country" v="DE"/>
    <tag k="addr:housenumber" v="19"/>
    <tag k="addr:postcode" v="80807"/>
    <tag k="addr:street" v="Otl-Aicher-Straße"/>
    <tag k="building" v="yes"/>
    <tag k="building:levels" v="5"/>
  </way>
  <way id="160654409" version="3" timestamp="2021-07-14T07:36:11Z" changeset="107957270" uid="13756209" user="captain monaco">
    <nd ref="1726930124"/>
    <nd ref="1726930132"/>
    <nd ref="2653021128"/>
    <nd ref="1726930130"/>
    <nd ref="1726930112"/>
    <nd ref="1726930124"/>
    <tag k="addr:city" v="München"/>
    <tag k="addr:country" v="DE"/>
    <tag k="addr:housenumber" v="21"/>
    <tag k="addr:postcode" v="80807"/>
    <tag k="addr:street" v="Otl-Aicher-Straße"/>
    <tag k="building" v="yes"/>
    <tag k="building:levels" v="5"/>
  </way>
  <way id="160654410" version="4" timestamp="2023-08-19T07:38:19Z" changeset="140083896" uid="13222803" user="Bo Jenkins">
    <nd ref="1726930142"/>
    <nd ref="1726930158"/>
    <nd ref="2653021136"/>
    <nd ref="1726930156"/>
    <nd ref="1726930140"/>
    <nd ref="1726930142"/>
    <tag k="addr:city" v="München"/>
    <tag k="addr:country" v="DE"/>
    <tag k="addr:housenumber" v="23"/>
    <tag k="addr:postcode" v="80807"/>
    <tag k="addr:street" v="Otl-Aicher-Straße"/>
    <tag k="building" v="apartments"/>
    <tag k="building:levels" v="5"/>
  </way>
  <way id="160654412" version="4" timestamp="2021-07-14T07:36:00Z" changeset="107957270" uid="13756209" user="captain monaco">
    <nd ref="1726930045"/>
    <nd ref="1726930058"/>
    <nd ref="2653021083"/>
    <nd ref="1726930057"/>
    <nd ref="1726930044"/>
    <nd ref="1726930045"/>
    <tag k="addr:city" v="München"/>
    <tag k="addr:country" v="DE"/>
    <tag k="addr:housenumber" v="4"/>
    <tag k="addr:postcode" v="80807"/>
    <tag k="addr:street" v="Hans-Döllgast-Straße"/>
    <tag k="building" v="apartments"/>
    <tag k="building:levels" v="5"/>
  </way>
  <way id="160654413" version="4" timestamp="2023-08-04T13:24:28Z" changeset="139441886" uid="2007135" user="Brainlessnick">
    <nd ref="1726930047"/>
    <nd ref="1726930060"/>
    <nd ref="2653021085"/>
    <nd ref="1726930059"/>
    <nd ref="1726930046"/>
    <nd ref="1726930047"/>
    <tag k="addr:city" v="München"/>
    <tag k="addr:country" v="DE"/>
    <tag k="addr:housenumber" v="6"/>
    <tag k="addr:postcode" v="80807"/>
    <tag k="addr:street" v="Hans-Döllgast-Straße"/>
    <tag k="building" v="apartments"/>
    <tag k="building:levels" v="5"/>
  </way>
  <way id="160654414" version="4" timestamp="2021-07-14T07:36:00Z" changeset="107957270" uid="13756209" user="captain monaco">
    <nd ref="1726930049"/>
    <nd ref="1726930063"/>
    <nd ref="2653021089"/>
    <nd ref="1726930062"/>
    <nd ref="1726930048"/>
    <nd ref="1726930049"/>
    <tag k="addr:city" v="München"/>
    <tag k="addr:country" v="DE"/>
    <tag k="addr:housenumber" v="8"/>
    <tag k="addr:postcode" v="80807"/>
    <tag k="addr:street" v="Hans-Döllgast-Straße"/>
    <tag k="building" v="apartments"/>
    <tag k="building:levels" v="5"/>
  </way>
  <way id="172407662" version="13" timestamp="2025-03-23T08:58:30Z" changeset="163976651" uid="44217" user="kjon">
    <nd ref="21092106"/>
    <nd ref="2329373937"/>
    <nd ref="2963232109"/>
    <nd ref="1836775244"/>
    <nd ref="1833141692"/>
    <nd ref="1833141693"/>
    <nd ref="1833141694"/>
    <nd ref="2963232111"/>
    <nd ref="21047842"/>
    <nd ref="2963232117"/>
    <nd ref="21047823"/>
    <tag k="hgv" v="delivery"/>
    <tag k="highway" v="trunk"/>
    <tag k="lanes" v="2"/>
    <tag k="layer" v="-1"/>
    <tag k="lit" v="yes"/>
    <tag k="maxheight" v="default"/>
    <tag k="maxspeed" v="60"/>
    <tag k="maxspeed:variable" v="yes"/>
    <tag k="motorroad" v="yes"/>
    <tag k="oneway" v="yes"/>
    <tag k="parking:both" v="no"/>
    <tag k="ref" v="B 2R"/>
    <tag k="surface" v="asphalt"/>
    <tag k="tmc" v="DE:29829/22673"/>
    <tag k="tunnel" v="yes"/>
    <tag k="tunnel:name" v="Petueltunnel"/>
  </way>
  <way id="178282498" version="2" timestamp="2021-10-29T15:33:29Z" changeset="113129580" uid="78613" user="heilbron">
    <nd ref="1597799094"/>
    <nd ref="1597799103"/>
    <nd ref="1597799095"/>
    <nd ref="76873592"/>
    <nd ref="1886498916"/>
    <nd ref="1886498908"/>
    <nd ref="1886498913"/>
    <nd ref="1886498914"/>
    <nd ref="1597799116"/>
    <nd ref="76873606"/>
    <nd ref="76873627"/>
    <nd ref="76873637"/>
    <nd ref="1597799123"/>
    <nd ref="1597799124"/>
    <nd ref="76873466"/>
    <nd ref="76873469"/>
    <nd ref="76873472"/>
    <nd ref="76873474"/>
    <nd ref="76873477"/>
    <nd ref="76873481"/>
    <nd ref="1597799099"/>
    <nd ref="1597799108"/>
    <nd ref="1597799105"/>
    <nd ref="1597799093"/>
    <nd ref="76873507"/>
    <nd ref="1886498910"/>
    <nd ref="76873513"/>
    <nd ref="1597799117"/>
    <nd ref="76873522"/>
    <nd ref="1597799112"/>
    <nd ref="76873524"/>
    <nd ref="1597799107"/>
    <nd ref="76873540"/>
    <nd ref="1597799101"/>
    <nd ref="76873554"/>
    <nd ref="1597799121"/>
    <nd ref="76873562"/>
    <nd ref="1597799119"/>
    <nd ref="1597799118"/>
    <nd ref="1597799110"/>
    <nd ref="76873586"/>
    <nd ref="1597799094"/>
    <tag k="addr:housenumber" v="28"/>
    <tag k="addr:postcode" v="80807"/>
    <tag k="addr:street" v="Ingolstädter Straße"/>
    <tag k="building" v="retail"/>
    <tag k="building:levels" v="3"/>
    <tag k="source" v="Yahoo / YWMS / Bing"/>
  </way>
  <way id="187477195" version="2" timestamp="2013-08-25T21:57:25Z" changeset="17508031" uid="56526" user="JJ Rammerl">
    <nd ref="1981579147"/>
    <nd ref="1981579151"/>
    <nd ref="1981579153"/>
    <nd ref="1981579149"/>
    <nd ref="1981579147"/>
    <tag k="addr:city" v="München"/>
    <tag k="addr:country" v="DE"/>
    <tag k="addr:housenumber" v="244a"/>
    <tag k="addr:postcode" v="80807"/>
    <tag k="addr:street" v="Leopoldstraße"/>
    <tag k="building" v="yes"/>
  </way>
  <way id="192062507" version="4" timestamp="2025-05-15T08:09:18Z" changeset="166290818" uid="225813" user="archINFORM">
    <nd ref="2026218564"/>
    <nd ref="1148216603"/>
    <nd ref="1148216611"/>
    <nd ref="1148216612"/>
    <nd ref="2026218570"/>
    <nd ref="1148216539"/>
    <nd ref="2026218564"/>
    <tag k="addr:city" v="München"/>
    <tag k="addr:country" v="DE"/>
    <tag k="addr:housenumber" v="1"/>
    <tag k="addr:postcode" v="80807"/>
    <tag k="addr:street" v="Heinrich-Kley-Straße"/>
    <tag k="building" v="yes"/>
    <tag k="source" v="bing"/>
    <tag k="wikidata" v="Q134468300"/>
  </way>
  <way id="235057825" version="4" timestamp="2015-04-26T06:47:01Z" changeset="30492561" uid="38907" user="hongakonga">
    <nd ref="1365984104"/>
    <nd ref="1365984105"/>
    <nd ref="1365984133"/>
    <nd ref="1365984131"/>
    <nd ref="1365984137"/>
    <nd ref="1365984139"/>
    <nd ref="1365984150"/>
    <nd ref="1365984148"/>
    <nd ref="1365984165"/>
    <nd ref="1365984175"/>
    <nd ref="1365984201"/>
    <nd ref="1365984188"/>
    <nd ref="1365984180"/>
    <nd ref="1365984177"/>
    <nd ref="1365984104"/>
    <tag k="addr:city" v="München"/>
    <tag k="addr:country" v="DE"/>
    <tag k="addr:housenumber" v="202a"/>
    <tag k="addr:postcode" v="80804"/>
    <tag k="addr:street" v="Leopoldstraße"/>
    <tag k="building" v="yes"/>
  </way>
  <way id="254548570" version="3" timestamp="2018-09-10T12:56:07Z" changeset="62453353" uid="109029" user="shorty_de">
    <nd ref="5896292337"/>
    <nd ref="1365984367"/>
    <nd ref="2603486723"/>
    <nd ref="1365984407"/>
    <nd ref="1365984397"/>
    <nd ref="5896292335"/>
    <nd ref="5896292334"/>
    <nd ref="5896292336"/>
    <nd ref="5896292337"/>
    <tag k="addr:city" v="München"/>
    <tag k="addr:country" v="DE"/>
    <tag k="addr:housenumber" v="6b"/>
    <tag k="addr:postcode" v="80805"/>
    <tag k="addr:street" v="Wilhelm-Hertz-Straße"/>
    <tag k="building" v="apartments"/>
    <tag k="building:levels" v="4"/>
  </way>
  <way id="254548572" version="4" timestamp="2018-09-10T12:56:07Z" changeset="62453353" uid="109029" user="shorty_de">
    <nd ref="5896292352"/>
    <nd ref="5896292353"/>
    <nd ref="2650140230"/>
    <nd ref="2650140242"/>
    <nd ref="2650140245"/>
    <nd ref="2650140236"/>
    <nd ref="1365984505"/>
    <nd ref="5896292355"/>
    <nd ref="5896292354"/>
    <nd ref="1365984507"/>
    <nd ref="5896292348"/>
    <nd ref="5896292347"/>
    <nd ref="5896292349"/>
    <nd ref="5896292350"/>
    <nd ref="5896292351"/>
    <nd ref="1365984495"/>
    <nd ref="5896292352"/>
    <tag k="addr:city" v="München"/>
    <tag k="addr:country" v="DE"/>
    <tag k="addr:housenumber" v="14"/>
    <tag k="addr:postcode" v="80805"/>
    <tag k="addr:street" v="Wilhelm-Hertz-Straße"/>
    <tag k="building" v="apartments"/>
    <tag k="building:levels" v="4"/>
  </way>
  <way id="254548573" version="5" timestamp="2024-03-14T06:32:43Z" changeset="148623084" uid="78613" user="heilbron">
    <nd ref="1365984498"/>
    <nd ref="2603486729"/>
    <nd ref="2603486728"/>
    <nd ref="2603486727"/>
    <nd ref="2603486722"/>
    <nd ref="2650140215"/>
    <nd ref="1365984487"/>
    <nd ref="2603486726"/>
    <nd ref="2650140218"/>
    <nd ref="1365984502"/>
    <nd ref="1365984498"/>
    <tag k="addr:city" v="München"/>
    <tag k="addr:country" v="DE"/>
    <tag k="addr:housenumber" v="36"/>
    <tag k="addr:postcode" v="80805"/>
    <tag k="addr:street" v="Wilhelm-Hertz-Straße"/>
    <tag k="building" v="apartments"/>
    <tag k="building:levels" v="5"/>
    <tag k="roof:levels" v="2"/>
    <tag k="roof:shape" v="gabled"/>
  </way>
  <way id="259583182" version="2" timestamp="2018-09-10T12:56:07Z" changeset="62453353" uid="109029" user="shorty_de">
    <nd ref="1365984411"/>
    <nd ref="1365984408"/>
    <nd ref="2650140196"/>
    <nd ref="1365984466"/>
    <nd ref="5896292331"/>
    <nd ref="1365984474"/>
    <nd ref="1365984470"/>
    <nd ref="2650140201"/>
    <nd ref="5896292330"/>
    <nd ref="5896292329"/>
    <nd ref="1365984424"/>
    <nd ref="1365984433"/>
    <nd ref="5896292333"/>
    <nd ref="1365984419"/>
    <nd ref="5896292332"/>
    <nd ref="1365984411"/>
    <tag k="addr:city" v="München"/>
    <tag k="addr:country" v="DE"/>
    <tag k="addr:housenumber" v="6"/>
    <tag k="addr:postcode" v="80805"/>
    <tag k="addr:street" v="Wilhelm-Hertz-Straße"/>
    <tag k="building" v="apartments"/>
    <tag k="building:levels" v="4"/>
  </way>
  <way id="259583185" version="5" timestamp="2025-04-10T06:58:39Z" changeset="164753550" uid="9244608" user="LittleJoeMuc">
    <nd ref="5896292360"/>
    <nd ref="5896292359"/>
    <nd ref="1365984529"/>
    <nd ref="1365984528"/>
    <nd ref="5896292368"/>
    <nd ref="5896292361"/>
    <nd ref="1365984514"/>
    <nd ref="5896292360"/>
    <tag k="addr:city" v="München"/>
    <tag k="addr:country" v="DE"/>
    <tag k="addr:housenumber" v="20"/>
    <tag k="addr:postcode" v="80805"/>
    <tag k="addr:street" v="Wilhelm-Hertz-Straße"/>
    <tag k="building" v="apartments"/>
    <tag k="building:levels" v="5"/>
    <tag k="roof:levels" v="1"/>
    <tag k="roof:shape" v="hipped"/>
  </way>
  <way id="259583188" version="3" timestamp="2024-10-09T19:12:03Z" changeset="157686459" uid="3948229" user="textpilot">
    <nd ref="5896292327"/>
    <nd ref="5896292326"/>
    <nd ref="1365984474"/>
    <nd ref="5896292331"/>
    <nd ref="1365984466"/>
    <nd ref="12239359344"/>
    <nd ref="1365984464"/>
    <nd ref="5896292327"/>
    <tag k="addr:city" v="München"/>
    <tag k="addr:country" v="DE"/>
    <tag k="addr:housenumber" v="8"/>
    <tag k="addr:postcode" v="80805"/>
    <tag k="addr:street" v="Wilhelm-Hertz-Straße"/>
    <tag k="building" v="apartments"/>
    <tag k="building:levels" v="4"/>
  </way>
  <way id="259583190" version="2" timestamp="2018-09-10T12:56:08Z" changeset="62453353" uid="109029" user="shorty_de">
    <nd ref="5896292342"/>
    <nd ref="5896292343"/>
    <nd ref="5896292344"/>
    <nd ref="1365984485"/>
    <nd ref="2650140211"/>
    <nd ref="2650140221"/>
    <nd ref="2603486726"/>
    <nd ref="1365984487"/>
    <nd ref="5896292341"/>
    <nd ref="5896292342"/>
    <tag k="addr:city" v="München"/>
    <tag k="addr:country" v="DE"/>
    <tag k="addr:housenumber" v="12b"/>
    <tag k="addr:postcode" v="80805"/>
    <tag k="addr:street" v="Wilhelm-Hertz-Straße"/>
    <tag k="building" v="apartments"/>
    <tag k="building:levels" v="4"/>
  </way>
  <way id="263210089" version="10" timestamp="2025-04-06T16:26:40Z" changeset="164599420" uid="137242" user="Rainero">
    <nd ref="19369312"/>
    <nd ref="1955700"/>
    <tag k="cycleway:both" v="no"/>
    <tag k="foot" v="use_sidepath"/>
    <tag k="highway" v="residential"/>
    <tag k="lanes" v="4"/>
    <tag k="lanes:backward" v="2"/>
    <tag k="lanes:forward" v="2"/>
    <tag k="lit" v="yes"/>
    <tag k="maxspeed" v="50"/>
    <tag k="name" v="Domagkstraße"/>
    <tag k="name:etymology:wikidata" v="Q57192"/>
    <tag k="smoothness" v="bad"/>
    <tag k="source:maxspeed" v="DE:urban"/>
    <tag k="surface" v="asphalt"/>
    <tag k="turn:lanes:backward" v="left;through|through"/>
    <tag k="turn:lanes:forward" v="left|through"/>
  </way>
  <way id="265416844" version="15" timestamp="2025-01-11T18:38:31Z" changeset="161248961" uid="2815653" user="DaxServer">
    <nd ref="11176253383"/>
    <nd ref="1163359338"/>
    <nd ref="1473221275"/>
    <nd ref="1473221310"/>
    <nd ref="1473221248"/>
    <nd ref="2709448524"/>
    <nd ref="1163359336"/>
    <nd ref="1473221278"/>
    <nd ref="7982823"/>
    <nd ref="3173412290"/>
    <tag k="bicycle" v="use_sidepath"/>
    <tag k="foot" v="use_sidepath"/>
    <tag k="highway" v="secondary"/>
    <tag k="lanes" v="3"/>
    <tag k="lit" v="yes"/>
    <tag k="maxspeed" v="50"/>
    <tag k="name" v="Leopoldstraße"/>
    <tag k="name:etymology:wikidata" v="Q61015"/>
    <tag k="oneway" v="yes"/>
    <tag k="parking:left" v="no"/>
    <tag k="parking:right" v="street_side"/>
    <tag k="parking:right:orientation" v="parallel"/>
    <tag k="sidewalk:left" v="no"/>
    <tag k="sidewalk:right" v="separate"/>
    <tag k="smoothness" v="good"/>
    <tag k="surface" v="asphalt"/>
    <tag k="tmc" v="DE:35344/27949"/>
    <tag k="wikidata" v="Q877933"/>
    <tag k="wikipedia" v="de:Leopoldstraße"/>
  </way>
  <way id="265616292" version="9" timestamp="2025-01-12T12:18:41Z" changeset="161268959" uid="2815653" user="DaxServer">
    <nd ref="429838639"/>
    <nd ref="1653643135"/>
    <nd ref="429838643"/>
    <tag k="bicycle" v="use_sidepath"/>
    <tag k="description" v="Zufahrt Leopoldstraße"/>
    <tag k="foot" v="use_sidepath"/>
    <tag k="highway" v="trunk_link"/>
    <tag k="lanes" v="3"/>
    <tag k="lit" v="yes"/>
    <tag k="maxspeed" v="50"/>
    <tag k="name" v="Schenkendorfstraße"/>
    <tag k="name:etymology:wikidata" v="Q71616"/>
    <tag k="oneway" v="yes"/>
    <tag k="surface" v="asphalt"/>
    <tag k="turn:lanes" v="left|through|right"/>
    <tag k="wikidata" v="Q969594"/>
  </way>
  <way id="265616293" version="10" timestamp="2025-01-12T12:18:41Z" changeset="161268959" uid="2815653" user="DaxServer">
    <nd ref="429838643"/>
    <nd ref="13887887"/>
    <tag k="bicycle" v="use_sidepath"/>
    <tag k="description" v="Zufahrt Leopoldstraße"/>
    <tag k="destination" v="Leopoldstraße"/>
    <tag k="foot" v="use_sidepath"/>
    <tag k="highway" v="trunk_link"/>
    <tag k="lanes" v="4"/>
    <tag k="lit" v="yes"/>
    <tag k="maxspeed" v="50"/>
    <tag k="name" v="Schenkendorfstraße"/>
    <tag k="name:etymology:wikidata" v="Q71616"/>
    <tag k="oneway" v="yes"/>
    <tag k="surface" v="asphalt"/>
    <tag k="turn:lanes" v="sharp_left;left|left|through|right"/>
    <tag k="wikidata" v="Q969594"/>
  </way>
  <way id="265869590" version="15" timestamp="2025-01-05T17:34:18Z" changeset="161030081" uid="2815653" user="DaxServer">
    <nd ref="5237950333"/>
    <nd ref="2725681466"/>
    <nd ref="3420195973"/>
    <nd ref="992725089"/>
    <tag k="bicycle" v="use_sidepath"/>
    <tag k="foot" v="use_sidepath"/>
    <tag k="hgv" v="delivery"/>
    <tag k="highway" v="primary"/>
    <tag k="lanes" v="5"/>
    <tag k="lit" v="yes"/>
    <tag k="maxspeed" v="50"/>
    <tag k="name" v="Ingolstädter Straße"/>
    <tag k="name:etymology:wikidata" v="Q3004"/>
    <tag k="oneway" v="yes"/>
    <tag k="ref" v="B 13"/>
    <tag k="sidewalk:left" v="no"/>
    <tag k="sidewalk:right" v="separate"/>
    <tag k="smoothness" v="excellent"/>
    <tag k="surface" v="asphalt"/>
    <tag k="tmc" v="DE:20719/20720"/>
    <tag k="turn:lanes" v="left|through|through|through|right"/>
    <tag k="width" v="15"/>
    <tag k="wikidata" v="Q21281208"/>
  </way>
  <way id="292788384" version="8" timestamp="2025-04-10T06:55:04Z" changeset="164753337" uid="9244608" user="LittleJoeMuc">
    <nd ref="246995232"/>
    <nd ref="564131"/>
    <tag k="destination" v="Mittlerer Ring"/>
    <tag k="hgv" v="delivery"/>
    <tag k="highway" v="trunk"/>
    <tag k="lanes" v="2"/>
    <tag k="layer" v="-1"/>
    <tag k="lit" v="yes"/>
    <tag k="maxheight" v="default"/>
    <tag k="maxspeed" v="50"/>
    <tag k="motorroad" v="yes"/>
    <tag k="oneway" v="yes"/>
    <tag k="parking:both" v="no"/>
    <tag k="ref" v="B 2R"/>
    <tag k="surface" v="asphalt"/>
    <tag k="tmc" v="DE:22673/22674"/>
    <tag k="tunnel" v="yes"/>
    <tag k="tunnel:name" v="Petueltunnel"/>
  </way>
  <way id="292788387" version="11" timestamp="2025-01-12T12:18:41Z" changeset="161268959" uid="2815653" user="DaxServer">
    <nd ref="429838644"/>
    <nd ref="20833095"/>
    <nd ref="1238687353"/>
    <nd ref="429838639"/>
    <tag k="bicycle" v="use_sidepath"/>
    <tag k="description" v="Zufahrt Leopoldstraße"/>
    <tag k="foot" v="use_sidepath"/>
    <tag k="highway" v="trunk_link"/>
    <tag k="lanes" v="2"/>
    <tag k="lit" v="yes"/>
    <tag k="maxheight" v="default"/>
    <tag k="maxspeed" v="50"/>
    <tag k="name" v="Schenkendorfstraße"/>
    <tag k="name:etymology:wikidata" v="Q71616"/>
    <tag k="oneway" v="yes"/>
    <tag k="sidewalk:left" v="no"/>
    <tag k="sidewalk:right" v="separate"/>
    <tag k="surface" v="asphalt"/>
    <tag k="wikidata" v="Q969594"/>
  </way>
  <way id="292792376" version="10" timestamp="2025-01-05T17:30:32Z" changeset="161030081" uid="2815653" user="DaxServer">
    <nd ref="13665748"/>
    <nd ref="19369004"/>
    <tag k="bicycle" v="use_sidepath"/>
    <tag k="destination" v="Passau;Salzburg;Nürnberg;Flughafen;Messe/ICM/Allianz Arena"/>
    <tag k="foot" v="use_sidepath"/>
    <tag k="highway" v="primary"/>
    <tag k="lanes" v="2"/>
    <tag k="lit" v="yes"/>
    <tag k="maxspeed" v="50"/>
    <tag k="name" v="Frankfurter Ring"/>
    <tag k="name:etymology:wikidata" v="Q1794"/>
    <tag k="oneway" v="yes"/>
    <tag k="smoothness" v="good"/>
    <tag k="surface" v="asphalt"/>
    <tag k="wikidata" v="Q21201006"/>
  </way>
  <way id="298832619" version="7" timestamp="2025-04-10T06:54:56Z" changeset="164753337" uid="9244608" user="LittleJoeMuc">
    <nd ref="3027856848"/>
    <nd ref="298606432"/>
    <nd ref="5898876222"/>
    <nd ref="298606431"/>
    <tag k="highway" v="trunk_link"/>
    <tag k="lane_markings" v="no"/>
    <tag k="lit" v="yes"/>
    <tag k="maxspeed" v="50"/>
    <tag k="motorroad" v="yes"/>
    <tag k="oneway" v="yes"/>
    <tag k="surface" v="asphalt"/>
  </way>
  <way id="299732899" version="9" timestamp="2025-01-12T12:18:41Z" changeset="161268959" uid="2815653" user="DaxServer">
    <nd ref="13887887"/>
    <nd ref="3420195983"/>
    <nd ref="1238687355"/>
    <nd ref="13888060"/>
    <tag k="bicycle" v="use_sidepath"/>
    <tag k="description" v="Zufahrt Leopoldstraße"/>
    <tag k="destination" v="Leopoldstraße"/>
    <tag k="foot" v="use_sidepath"/>
    <tag k="highway" v="trunk_link"/>
    <tag k="lanes" v="4"/>
    <tag k="lit" v="yes"/>
    <tag k="maxspeed" v="50"/>
    <tag k="name" v="Schenkendorfstraße"/>
    <tag k="name:etymology:wikidata" v="Q71616"/>
    <tag k="oneway" v="yes"/>
    <tag k="surface" v="asphalt"/>
    <tag k="turn:lanes" v="left|left|through|right"/>
    <tag k="wikidata" v="Q969594"/>
  </way>
  <way id="307306445" version="10" timestamp="2025-01-11T18:38:31Z" changeset="161248961" uid="2815653" user="DaxServer">
    <nd ref="1903769493"/>
    <nd ref="2160050158"/>
    <nd ref="2709446905"/>
    <nd ref="260493659"/>
    <nd ref="4206690606"/>
    <nd ref="4206690609"/>
    <nd ref="260493649"/>
    <nd ref="3505834363"/>
    <tag k="bicycle" v="use_sidepath"/>
    <tag k="foot" v="use_sidepath"/>
    <tag k="hgv" v="delivery"/>
    <tag k="highway" v="primary"/>
    <tag k="lanes" v="2"/>
    <tag k="lit" v="yes"/>
    <tag k="maxspeed" v="50"/>
    <tag k="name" v="Leopoldstraße"/>
    <tag k="name:etymology:wikidata" v="Q61015"/>
    <tag k="oneway" v="yes"/>
    <tag k="ref" v="B 13"/>
    <tag k="sidewalk:left" v="no"/>
    <tag k="sidewalk:right" v="separate"/>
    <tag k="surface" v="asphalt"/>
    <tag k="tmc" v="DE:20719/20720"/>
    <tag k="wikidata" v="Q877933"/>
    <tag k="wikipedia" v="de:Leopoldstraße"/>
  </way>
  <way id="307306446" version="7" timestamp="2023-08-04T13:24:30Z" changeset="139441892" uid="2007135" user="Brainlessnick">
    <nd ref="1955701"/>
    <nd ref="1903769493"/>
    <tag k="foot" v="use_sidepath"/>
    <tag k="highway" v="residential"/>
    <tag k="lane_markings" v="no"/>
    <tag k="lit" v="yes"/>
    <tag k="maxspeed" v="50"/>
    <tag k="name" v="Griegstraße"/>
    <tag k="name:etymology:wikidata" v="Q80621"/>
    <tag k="surface" v="asphalt"/>
  </way>
  <way id="307774534" version="14" timestamp="2025-03-22T21:16:15Z" changeset="163964538" uid="44217" user="kjon">
    <nd ref="34485607"/>
    <nd ref="10119124688"/>
    <nd ref="2616758298"/>
    <nd ref="10119124618"/>
    <nd ref="8454230472"/>
    <nd ref="3501864756"/>
    <nd ref="3501864754"/>
    <tag k="class:bicycle" v="1"/>
    <tag k="cycleway:both" v="no"/>
    <tag k="highway" v="unclassified"/>
    <tag k="lane_markings" v="no"/>
    <tag k="lit" v="yes"/>
    <tag k="name" v="Weimarer Straße"/>
    <tag k="parking:left" v="no"/>
    <tag k="parking:left:restriction" v="no_stopping"/>
    <tag k="sidewalk" v="separate"/>
    <tag k="smoothness" v="good"/>
    <tag k="surface" v="asphalt"/>
  </way>
  <way id="311644249" version="11" timestamp="2025-01-11T18:38:31Z" changeset="161248961" uid="2815653" user="DaxServer">
    <nd ref="3173412290"/>
    <nd ref="1239543991"/>
    <nd ref="21092016"/>
    <nd ref="7997042055"/>
    <nd ref="3420195977"/>
    <nd ref="1015946195"/>
    <tag k="bicycle" v="use_sidepath"/>
    <tag k="foot" v="use_sidepath"/>
    <tag k="highway" v="secondary"/>
    <tag k="lanes" v="5"/>
    <tag k="lit" v="yes"/>
    <tag k="maxspeed" v="50"/>
    <tag k="name" v="Leopoldstraße"/>
    <tag k="name:etymology:wikidata" v="Q61015"/>
    <tag k="oneway" v="yes"/>
    <tag k="parking:left" v="no"/>
    <tag k="parking:right" v="street_side"/>
    <tag k="parking:right:orientation" v="parallel"/>
    <tag k="sidewalk:left" v="no"/>
    <tag k="sidewalk:right" v="separate"/>
    <tag k="smoothness" v="good"/>
    <tag k="surface" v="asphalt"/>
    <tag k="tmc" v="DE:35344/27949"/>
    <tag k="turn:lanes" v="left;through|through|through|right|right"/>
    <tag k="wikidata" v="Q877933"/>
    <tag k="wikipedia" v="de:Leopoldstraße"/>
  </way>
  <way id="315225707" version="13" timestamp="2025-01-11T18:38:31Z" changeset="161248961" uid="2815653" user="DaxServer">
    <nd ref="1015956637"/>
    <nd ref="8622442209"/>
    <nd ref="7996998129"/>
    <nd ref="7996998130"/>
    <nd ref="13888011"/>
    <nd ref="36703118"/>
    <nd ref="1903769494"/>
    <nd ref="8622442205"/>
    <nd ref="1903769495"/>
    <tag k="bicycle" v="use_sidepath"/>
    <tag k="foot" v="use_sidepath"/>
    <tag k="hgv" v="delivery"/>
    <tag k="highway" v="primary"/>
    <tag k="lanes" v="2"/>
    <tag k="lit" v="yes"/>
    <tag k="maxspeed" v="50"/>
    <tag k="name" v="Leopoldstraße"/>
    <tag k="name:etymology:wikidata" v="Q61015"/>
    <tag k="oneway" v="yes"/>
    <tag k="ref" v="B 13"/>
    <tag k="sidewalk:left" v="no"/>
    <tag k="sidewalk:right" v="separate"/>
    <tag k="surface" v="asphalt"/>
    <tag k="tmc" v="DE:20719/20720"/>
    <tag k="wikidata" v="Q877933"/>
    <tag k="wikipedia" v="de:Leopoldstraße"/>
  </way>
  <way id="334897457" version="10" timestamp="2025-01-05T17:34:18Z" changeset="161030081" uid="2815653" user="DaxServer">
    <nd ref="992725089"/>
    <nd ref="19369004"/>
    <tag k="bicycle" v="use_sidepath"/>
    <tag k="foot" v="use_sidepath"/>
    <tag k="hgv" v="delivery"/>
    <tag k="highway" v="primary"/>
    <tag k="lanes" v="5"/>
    <tag k="lit" v="yes"/>
    <tag k="maxspeed" v="50"/>
    <tag k="name" v="Ingolstädter Straße"/>
    <tag k="name:etymology:wikidata" v="Q3004"/>
    <tag k="oneway" v="yes"/>
    <tag k="ref" v="B 13"/>
    <tag k="sidewalk:left" v="no"/>
    <tag k="sidewalk:right" v="separate"/>
    <tag k="smoothness" v="good"/>
    <tag k="surface" v="asphalt"/>
    <tag k="tmc" v="DE:20719/20720"/>
    <tag k="turn:lanes" v="left|through|through|through|right"/>
    <tag k="width" v="15"/>
    <tag k="wikidata" v="Q21281208"/>
  </way>
  <way id="334897462" version="7" timestamp="2025-04-10T06:53:39Z" changeset="164753337" uid="9244608" user="LittleJoeMuc">
    <nd ref="1015946195"/>
    <nd ref="21092014"/>
    <tag k="bicycle" v="use_sidepath"/>
    <tag k="foot" v="use_sidepath"/>
    <tag k="highway" v="secondary"/>
    <tag k="lanes" v="5"/>
    <tag k="lit" v="yes"/>
    <tag k="maxspeed" v="50"/>
    <tag k="name" v="Leopoldstraße"/>
    <tag k="name:etymology:wikidata" v="Q61015"/>
    <tag k="oneway" v="yes"/>
    <tag k="sidewalk:left" v="no"/>
    <tag k="sidewalk:right" v="separate"/>
    <tag k="smoothness" v="good"/>
    <tag k="surface" v="asphalt"/>
    <tag k="tmc" v="DE:35344/27949"/>
    <tag k="turn:lanes" v="slight_left;through|through|through|slight_right|slight_right"/>
    <tag k="wikidata" v="Q877933"/>
    <tag k="wikipedia" v="de:Leopoldstraße"/>
  </way>
  <way id="343757751" version="6" timestamp="2025-01-11T18:38:31Z" changeset="161248961" uid="2815653" user="DaxServer">
    <nd ref="3505834363"/>
    <nd ref="260493658"/>
    <nd ref="3423591999"/>
    <nd ref="1042772260"/>
    <nd ref="19369312"/>
    <tag k="bicycle" v="use_sidepath"/>
    <tag k="foot" v="use_sidepath"/>
    <tag k="hgv" v="delivery"/>
    <tag k="highway" v="primary"/>
    <tag k="lanes" v="4"/>
    <tag k="lit" v="yes"/>
    <tag k="maxspeed" v="50"/>
    <tag k="name" v="Leopoldstraße"/>
    <tag k="name:etymology:wikidata" v="Q61015"/>
    <tag k="oneway" v="yes"/>
    <tag k="ref" v="B 13"/>
    <tag k="sidewalk:left" v="no"/>
    <tag k="sidewalk:right" v="separate"/>
    <tag k="surface" v="asphalt"/>
    <tag k="tmc" v="DE:20719/20720"/>
    <tag k="turn:lanes" v="left|through|through|right"/>
    <tag k="wikidata" v="Q877933"/>
    <tag k="wikipedia" v="de:Leopoldstraße"/>
  </way>
  <way id="362099561" version="6" timestamp="2023-07-07T15:25:01Z" changeset="138233936" uid="78613" user="heilbron">
    <nd ref="2026195642"/>
    <nd ref="2026195621"/>
    <nd ref="1221450394"/>
    <nd ref="2026195644"/>
    <nd ref="2026195626"/>
    <nd ref="3664763330"/>
    <nd ref="3664763332"/>
    <nd ref="36681510"/>
    <nd ref="36681511"/>
    <nd ref="2026195598"/>
    <nd ref="2026195631"/>
    <nd ref="2026195640"/>
    <nd ref="2026195610"/>
    <nd ref="2026195637"/>
    <nd ref="2026195601"/>
    <nd ref="36681518"/>
    <nd ref="36681519"/>
    <nd ref="36681520"/>
    <nd ref="2026195642"/>
    <tag k="addr:city" v="München"/>
    <tag k="addr:housenumber" v="162"/>
    <tag k="addr:postcode" v="80807"/>
    <tag k="addr:street" v="Frankfurter Ring"/>
    <tag k="building" v="office"/>
    <tag k="building:levels" v="9"/>
    <tag k="old_name" v="Siemens Standort Mch F"/>
    <tag k="roof:levels" v="0"/>
    <tag k="roof:shape" v="flat"/>
  </way>
  <way id="362099563" version="6" timestamp="2021-06-13T16:40:25Z" changeset="106289851" uid="235018" user="uwe-s">
    <nd ref="3664763331"/>
    <nd ref="2026195610"/>
    <nd ref="2026195637"/>
    <nd ref="2026195601"/>
    <nd ref="36681518"/>
    <nd ref="36681519"/>
    <nd ref="3664763331"/>
    <tag k="addr:housenumber" v="162"/>
    <tag k="addr:street" v="Frankfurter Ring"/>
    <tag k="building" v="retail"/>
    <tag k="building:levels" v="7"/>
  </way>
  <way id="366051005" version="13" timestamp="2025-01-05T17:30:32Z" changeset="161030081" uid="2815653" user="DaxServer">
    <nd ref="10222093833"/>
    <nd ref="2708987260"/>
    <nd ref="3700420634"/>
    <nd ref="10119124156"/>
    <nd ref="3700420636"/>
    <nd ref="10119124209"/>
    <nd ref="10119124208"/>
    <nd ref="34485602"/>
    <tag k="bicycle" v="use_sidepath"/>
    <tag k="foot" v="use_sidepath"/>
    <tag k="highway" v="primary"/>
    <tag k="lanes" v="1"/>
    <tag k="lit" v="yes"/>
    <tag k="maxspeed" v="50"/>
    <tag k="name" v="Frankfurter Ring"/>
    <tag k="name:etymology:wikidata" v="Q1794"/>
    <tag k="oneway" v="yes"/>
    <tag k="postal_code" v="80807"/>
    <tag k="sidewalk:left" v="no"/>
    <tag k="sidewalk:right" v="separate"/>
    <tag k="smoothness" v="good"/>
    <tag k="surface" v="asphalt"/>
    <tag k="width" v="5"/>
    <tag k="wikidata" v="Q21201006"/>
  </way>
  <way id="370620890" version="8" timestamp="2024-02-03T21:15:11Z" changeset="147034220" uid="16217" user="MrBean">
    <nd ref="76873047"/>
    <nd ref="76873054"/>
    <nd ref="3744640562"/>
    <nd ref="3744640564"/>
    <nd ref="3744640565"/>
    <nd ref="3744640563"/>
    <nd ref="76873124"/>
    <nd ref="2562145060"/>
    <nd ref="76873021"/>
    <nd ref="76873047"/>
    <tag k="addr:city" v="München"/>
    <tag k="addr:country" v="DE"/>
    <tag k="addr:housenumber" v="8"/>
    <tag k="addr:postcode" v="80807"/>
    <tag k="addr:street" v="Ingolstädter Straße"/>
    <tag k="building" v="commercial"/>
    <tag k="building:levels" v="2"/>
    <tag k="fax" v="+49 89 3593337"/>
    <tag k="name" v="Möbelum"/>
    <tag k="opening_hours" v="Mo-Fr 10:00-19:00; Sa 10:00-18:00"/>
    <tag k="phone" v="+49 89 3590024"/>
    <tag k="roof:colour" v="grey"/>
    <tag k="roof:shape" v="flat"/>
    <tag k="shop" v="furniture"/>
    <tag k="website" v="https://www.moebelum.de/katalog-moebelum"/>
    <tag k="wheelchair" v="limited"/>
  </way>
  <way id="376400877" version="8" timestamp="2025-03-22T21:16:15Z" changeset="163964538" uid="44217" user="kjon">
    <nd ref="3798358315"/>
    <nd ref="3798358422"/>
    <tag k="highway" v="residential"/>
    <tag k="lane_markings" v="no"/>
    <tag k="maxspeed" v="50"/>
    <tag k="name" v="Erwin-von-Kreibig-Straße"/>
    <tag k="parking:condition:right:capacity" v="6"/>
    <tag k="parking:right" v="yes"/>
    <tag k="parking:right:orientation" v="parallel"/>
    <tag k="postal_code" v="80807"/>
    <tag k="sidewalk" v="both"/>
    <tag k="sidewalk:left:smoothness" v="excellent"/>
    <tag k="sidewalk:left:surface" v="paving_stones"/>
    <tag k="sidewalk:left:width" v="2"/>
    <tag k="sidewalk:right:smoothness" v="excellent"/>
    <tag k="sidewalk:right:surface" v="paving_stones"/>
    <tag k="sidewalk:right:width" v="2"/>
    <tag k="surface" v="asphalt"/>
  </way>
  <way id="376400878" version="7" timestamp="2023-11-09T17:31:04Z" changeset="143832441" uid="9582759" user="maxi_">
    <nd ref="3798358422"/>
    <nd ref="1015956662"/>
    <nd ref="1151151717"/>
    <nd ref="264535451"/>
    <nd ref="36703118"/>
    <tag k="highway" v="residential"/>
    <tag k="lane_markings" v="no"/>
    <tag k="maxspeed" v="50"/>
    <tag k="name" v="Erwin-von-Kreibig-Straße"/>
    <tag k="postal_code" v="80807"/>
    <tag k="sidewalk" v="both"/>
    <tag k="sidewalk:left:smoothness" v="excellent"/>
    <tag k="sidewalk:left:surface" v="paving_stones"/>
    <tag k="sidewalk:left:width" v="2"/>
    <tag k="sidewalk:right:smoothness" v="excellent"/>
    <tag k="sidewalk:right:surface" v="paving_stones"/>
    <tag k="sidewalk:right:width" v="2"/>
    <tag k="surface" v="asphalt"/>
  </way>
  <way id="376827513" version="5" timestamp="2025-03-10T13:55:06Z" changeset="163443805" uid="16061279" user="YellowSoul">
    <nd ref="3802106163"/>
    <nd ref="36703116"/>
    <tag k="highway" v="residential"/>
    <tag k="lane_markings" v="no"/>
    <tag k="maxspeed" v="50"/>
    <tag k="name" v="Heinrich-Kley-Straße"/>
    <tag k="postal_code" v="80807"/>
    <tag k="sidewalk" v="both"/>
    <tag k="sidewalk:left:smoothness" v="excellent"/>
    <tag k="sidewalk:left:surface" v="paving_stones"/>
    <tag k="sidewalk:left:width" v="2"/>
    <tag k="sidewalk:right:smoothness" v="excellent"/>
    <tag k="sidewalk:right:surface" v="paving_stones"/>
    <tag k="sidewalk:right:width" v="2"/>
    <tag k="surface" v="asphalt"/>
  </way>
  <way id="376827514" version="8" timestamp="2025-03-22T21:16:15Z" changeset="163964538" uid="44217" user="kjon">
    <nd ref="3802106272"/>
    <nd ref="3802106163"/>
    <tag k="highway" v="residential"/>
    <tag k="lane_markings" v="no"/>
    <tag k="maxspeed" v="50"/>
    <tag k="name" v="Heinrich-Kley-Straße"/>
    <tag k="parking:condition:left" v="disc"/>
    <tag k="parking:condition:left:capacity" v="7"/>
    <tag k="parking:condition:left:maxstay" v="1 h"/>
    <tag k="parking:condition:left:time_interval" v="Mo-Fr 09:00-18:00"/>
    <tag k="parking:left" v="yes"/>
    <tag k="parking:left:orientation" v="parallel"/>
    <tag k="postal_code" v="80807"/>
    <tag k="sidewalk" v="both"/>
    <tag k="sidewalk:left:smoothness" v="excellent"/>
    <tag k="sidewalk:left:surface" v="paving_stones"/>
    <tag k="sidewalk:left:width" v="2"/>
    <tag k="sidewalk:right:smoothness" v="excellent"/>
    <tag k="sidewalk:right:surface" v="paving_stones"/>
    <tag k="sidewalk:right:width" v="2"/>
    <tag k="surface" v="asphalt"/>
  </way>
  <way id="376827515" version="7" timestamp="2025-03-10T13:55:06Z" changeset="163443805" uid="16061279" user="YellowSoul">
    <nd ref="1328633931"/>
    <nd ref="3802106272"/>
    <tag k="highway" v="residential"/>
    <tag k="lane_markings" v="no"/>
    <tag k="maxspeed" v="50"/>
    <tag k="name" v="Heinrich-Kley-Straße"/>
    <tag k="postal_code" v="80807"/>
    <tag k="sidewalk" v="both"/>
    <tag k="sidewalk:left:smoothness" v="excellent"/>
    <tag k="sidewalk:left:surface" v="paving_stones"/>
    <tag k="sidewalk:left:width" v="2"/>
    <tag k="sidewalk:right:smoothness" v="excellent"/>
    <tag k="sidewalk:right:surface" v="paving_stones"/>
    <tag k="sidewalk:right:width" v="2"/>
    <tag k="surface" v="asphalt"/>
  </way>
  <way id="376827516" version="7" timestamp="2025-03-10T13:55:06Z" changeset="163443805" uid="16061279" user="YellowSoul">
    <nd ref="12649961932"/>
    <nd ref="2036157145"/>
    <nd ref="36703115"/>
    <nd ref="1328633931"/>
    <tag k="highway" v="residential"/>
    <tag k="lane_markings" v="no"/>
    <tag k="maxspeed" v="50"/>
    <tag k="name" v="Heinrich-Kley-Straße"/>
    <tag k="parking:condition:left:capacity" v="27"/>
    <tag k="parking:condition:right:capacity" v="3"/>
    <tag k="parking:left" v="yes"/>
    <tag k="parking:left:orientation" v="perpendicular"/>
    <tag k="parking:right" v="no"/>
    <tag k="postal_code" v="80807"/>
    <tag k="sidewalk" v="both"/>
    <tag k="sidewalk:left:smoothness" v="excellent"/>
    <tag k="sidewalk:left:surface" v="paving_stones"/>
    <tag k="sidewalk:left:width" v="2"/>
    <tag k="sidewalk:right:smoothness" v="excellent"/>
    <tag k="sidewalk:right:surface" v="paving_stones"/>
    <tag k="sidewalk:right:width" v="2"/>
    <tag k="surface" v="asphalt"/>
  </way>
  <way id="377673775" version="5" timestamp="2025-01-11T18:38:31Z" changeset="161248961" uid="2815653" user="DaxServer">
    <nd ref="3810579605"/>
    <nd ref="3220249305"/>
    <nd ref="1903769492"/>
    <nd ref="1903769493"/>
    <tag k="bicycle" v="use_sidepath"/>
    <tag k="foot" v="use_sidepath"/>
    <tag k="hgv" v="delivery"/>
    <tag k="highway" v="primary"/>
    <tag k="lanes" v="3"/>
    <tag k="lit" v="yes"/>
    <tag k="maxspeed" v="50"/>
    <tag k="name" v="Leopoldstraße"/>
    <tag k="name:etymology:wikidata" v="Q61015"/>
    <tag k="oneway" v="yes"/>
    <tag k="ref" v="B 13"/>
    <tag k="sidewalk:left" v="no"/>
    <tag k="sidewalk:right" v="separate"/>
    <tag k="surface" v="asphalt"/>
    <tag k="tmc" v="DE:20719/20720"/>
    <tag k="turn:lanes" v="through|through|right"/>
    <tag k="wikidata" v="Q877933"/>
    <tag k="wikipedia" v="de:Leopoldstraße"/>
  </way>
  <way id="377673777" version="6" timestamp="2023-09-16T10:17:49Z" changeset="141334762" uid="1246157" user="Endres Pelka">
    <nd ref="1903769493"/>
    <nd ref="75288462"/>
    <nd ref="1979823255"/>
    <nd ref="3124066045"/>
    <tag k="foot" v="use_sidepath"/>
    <tag k="highway" v="residential"/>
    <tag k="lanes" v="3"/>
    <tag k="lanes:backward" v="2"/>
    <tag k="lanes:forward" v="1"/>
    <tag k="lit" v="yes"/>
    <tag k="maxspeed" v="30"/>
    <tag k="name" v="Otl-Aicher-Straße"/>
    <tag k="oneway" v="no"/>
    <tag k="postal_code" v="80807"/>
    <tag k="sidewalk" v="separate"/>
    <tag k="source:maxspeed" v="DE:zone30"/>
    <tag k="surface" v="asphalt"/>
    <tag k="turn:lanes:backward" v="left|through;right"/>
  </way>
  <way id="377673778" version="8" timestamp="2024-11-16T13:18:22Z" changeset="159207773" uid="18493611" user="MunichWays">
    <nd ref="3124066045"/>
    <nd ref="10075553885"/>
    <nd ref="1979823257"/>
    <nd ref="1231103429"/>
    <nd ref="10075553888"/>
    <nd ref="1726930034"/>
    <nd ref="1726930038"/>
    <nd ref="10075553743"/>
    <nd ref="1726930039"/>
    <nd ref="1726930040"/>
    <nd ref="5522692334"/>
    <nd ref="761722983"/>
    <tag k="class:bicycle" v="1"/>
    <tag k="highway" v="residential"/>
    <tag k="lanes" v="2"/>
    <tag k="lit" v="yes"/>
    <tag k="maxspeed" v="30"/>
    <tag k="name" v="Otl-Aicher-Straße"/>
    <tag k="sidewalk" v="separate"/>
    <tag k="smoothness" v="good"/>
    <tag k="source:maxspeed" v="DE:zone30"/>
    <tag k="surface" v="asphalt"/>
  </way>
  <way id="447913965" version="6" timestamp="2025-01-11T18:38:31Z" changeset="161248961" uid="2815653" user="DaxServer">
    <nd ref="1903769495"/>
    <nd ref="34705525"/>
    <nd ref="3423592013"/>
    <tag k="bicycle" v="use_sidepath"/>
    <tag k="foot" v="use_sidepath"/>
    <tag k="hgv" v="delivery"/>
    <tag k="highway" v="primary"/>
    <tag k="lanes" v="3"/>
    <tag k="lit" v="yes"/>
    <tag k="maxspeed" v="50"/>
    <tag k="name" v="Leopoldstraße"/>
    <tag k="name:etymology:wikidata" v="Q61015"/>
    <tag k="oneway" v="yes"/>
    <tag k="ref" v="B 13"/>
    <tag k="sidewalk:left" v="no"/>
    <tag k="sidewalk:right" v="separate"/>
    <tag k="smoothness" v="good"/>
    <tag k="surface" v="asphalt"/>
    <tag k="tmc" v="DE:20719/20720"/>
    <tag k="turn:lanes:forward" v="through|through|right"/>
    <tag k="wikidata" v="Q877933"/>
    <tag k="wikipedia" v="de:Leopoldstraße"/>
  </way>
  <way id="447913967" version="9" timestamp="2025-01-11T18:38:31Z" changeset="161248961" uid="2815653" user="DaxServer">
    <nd ref="3423592013"/>
    <nd ref="1015956651"/>
    <nd ref="3375497383"/>
    <nd ref="309957424"/>
    <nd ref="4449728444"/>
    <nd ref="3810579605"/>
    <tag k="bicycle" v="use_sidepath"/>
    <tag k="foot" v="use_sidepath"/>
    <tag k="hgv" v="delivery"/>
    <tag k="highway" v="primary"/>
    <tag k="lanes" v="2"/>
    <tag k="lit" v="yes"/>
    <tag k="maxspeed" v="50"/>
    <tag k="name" v="Leopoldstraße"/>
    <tag k="name:etymology:wikidata" v="Q61015"/>
    <tag k="oneway" v="yes"/>
    <tag k="ref" v="B 13"/>
    <tag k="sidewalk:left" v="no"/>
    <tag k="sidewalk:right" v="separate"/>
    <tag k="smoothness" v="excellent"/>
    <tag k="surface" v="asphalt"/>
    <tag k="tmc" v="DE:20719/20720"/>
    <tag k="wikidata" v="Q877933"/>
    <tag k="wikipedia" v="de:Leopoldstraße"/>
  </way>
  <way id="447916549" version="9" timestamp="2023-11-08T23:47:23Z" changeset="143801725" uid="3075580" user="Linda89">
    <nd ref="34705524"/>
    <nd ref="3423592013"/>
    <tag k="cycleway:both" v="separate"/>
    <tag k="highway" v="residential"/>
    <tag k="lane_markings" v="no"/>
    <tag k="lit" v="yes"/>
    <tag k="maxspeed" v="50"/>
    <tag k="maxspeed:type" v="sign"/>
    <tag k="name" v="Karl-Weinmair-Straße"/>
    <tag k="name:etymology:wikidata" v="Q1733329"/>
    <tag k="name:etymology:wikipedia" v="de:Karl Weinmair"/>
    <tag k="surface" v="asphalt"/>
  </way>
  <way id="447916550" version="7" timestamp="2023-11-08T23:47:23Z" changeset="143801725" uid="3075580" user="Linda89">
    <nd ref="3423592013"/>
    <nd ref="264535454"/>
    <nd ref="3423592015"/>
    <nd ref="37022423"/>
    <tag k="cycleway:both" v="separate"/>
    <tag k="foot" v="use_sidepath"/>
    <tag k="footway:left:smoothness" v="excellent"/>
    <tag k="footway:left:surface" v="paving_stones"/>
    <tag k="footway:left:width" v="2"/>
    <tag k="footway:right:smoothness" v="excellent"/>
    <tag k="footway:right:surface" v="paving_stones"/>
    <tag k="footway:right:width" v="2"/>
    <tag k="highway" v="residential"/>
    <tag k="lanes:backward" v="2"/>
    <tag k="lanes:forward" v="1"/>
    <tag k="maxspeed:type" v="DE:urban"/>
    <tag k="name" v="Karl-Weinmair-Straße"/>
    <tag k="name:etymology:wikidata" v="Q1733329"/>
    <tag k="name:etymology:wikipedia" v="de:Karl Weinmair"/>
    <tag k="parking:both" v="no"/>
    <tag k="sidewalk:both" v="separate"/>
    <tag k="surface" v="asphalt"/>
    <tag k="turn:lanes:backward" v="left|right"/>
  </way>
  <way id="541710605" version="5" timestamp="2025-01-05T17:34:18Z" changeset="161030081" uid="2815653" user="DaxServer">
    <nd ref="1629579479"/>
    <nd ref="5237950333"/>
    <tag k="bicycle" v="use_sidepath"/>
    <tag k="foot" v="use_sidepath"/>
    <tag k="hgv" v="delivery"/>
    <tag k="highway" v="primary"/>
    <tag k="lanes" v="2"/>
    <tag k="lit" v="yes"/>
    <tag k="maxspeed" v="50"/>
    <tag k="name" v="Ingolstädter Straße"/>
    <tag k="name:etymology:wikidata" v="Q3004"/>
    <tag k="oneway" v="yes"/>
    <tag k="ref" v="B 13"/>
    <tag k="sidewalk:left" v="no"/>
    <tag k="sidewalk:right" v="separate"/>
    <tag k="surface" v="asphalt"/>
    <tag k="tmc" v="DE:20719/20720"/>
    <tag k="turn:lanes" v="through|through"/>
    <tag k="width" v="8"/>
    <tag k="wikidata" v="Q21281208"/>
  </way>
  <way id="541710606" version="6" timestamp="2025-01-05T17:34:18Z" changeset="161030081" uid="2815653" user="DaxServer">
    <nd ref="260493610"/>
    <nd ref="2725681446"/>
    <nd ref="1629579479"/>
    <tag k="bicycle" v="use_sidepath"/>
    <tag k="foot" v="use_sidepath"/>
    <tag k="hgv" v="delivery"/>
    <tag k="highway" v="primary"/>
    <tag k="lanes" v="3"/>
    <tag k="lit" v="yes"/>
    <tag k="maxspeed" v="50"/>
    <tag k="name" v="Ingolstädter Straße"/>
    <tag k="name:etymology:wikidata" v="Q3004"/>
    <tag k="oneway" v="yes"/>
    <tag k="ref" v="B 13"/>
    <tag k="sidewalk:left" v="no"/>
    <tag k="sidewalk:right" v="separate"/>
    <tag k="surface" v="asphalt"/>
    <tag k="tmc" v="DE:20719/20720"/>
    <tag k="turn:lanes" v="left|through|through"/>
    <tag k="wikidata" v="Q21281208"/>
  </way>
  <way id="604725206" version="3" timestamp="2023-01-15T12:41:58Z" changeset="131296599" uid="176215" user="lanando">
    <nd ref="5737342494"/>
    <nd ref="5737342493"/>
    <nd ref="5737342492"/>
    <nd ref="5737342491"/>
    <nd ref="5737342494"/>
    <tag k="addr:city" v="München"/>
    <tag k="addr:country" v="DE"/>
    <tag k="addr:housenumber" v="204a"/>
    <tag k="addr:postcode" v="80804"/>
    <tag k="addr:street" v="Leopoldstraße"/>
    <tag k="building" v="apartments"/>
  </way>
  <way id="604725207" version="3" timestamp="2021-07-07T17:46:43Z" changeset="107581837" uid="13219" user="Pyrokrat">
    <nd ref="5737342498"/>
    <nd ref="5737342495"/>
    <nd ref="5737342496"/>
    <nd ref="5737342497"/>
    <nd ref="8901713295"/>
    <nd ref="5737342498"/>
    <tag k="addr:city" v="München"/>
    <tag k="addr:country" v="DE"/>
    <tag k="addr:housenumber" v="204"/>
    <tag k="addr:postcode" v="80804"/>
    <tag k="addr:street" v="Leopoldstraße"/>
    <tag k="building" v="yes"/>
  </way>
  <way id="604725208" version="2" timestamp="2019-12-14T15:43:19Z" changeset="78410645" uid="48634" user="Tremlin">
    <nd ref="5737342502"/>
    <nd ref="5737342499"/>
    <nd ref="7056681751"/>
    <nd ref="5737342500"/>
    <nd ref="5737342501"/>
    <nd ref="5737342502"/>
    <tag k="addr:city" v="München"/>
    <tag k="addr:country" v="DE"/>
    <tag k="addr:housenumber" v="204b"/>
    <tag k="addr:postcode" v="80804"/>
    <tag k="addr:street" v="Leopoldstraße"/>
    <tag k="building" v="yes"/>
  </way>
  <way id="624402197" version="3" timestamp="2025-03-14T09:00:50Z" changeset="163600777" uid="9244608" user="LittleJoeMuc">
    <nd ref="5896292268"/>
    <nd ref="5896292266"/>
    <nd ref="5896292265"/>
    <nd ref="5896292267"/>
    <nd ref="5896292268"/>
    <tag k="addr:city" v="München"/>
    <tag k="addr:country" v="DE"/>
    <tag k="addr:housenumber" v="218"/>
    <tag k="addr:postcode" v="80804"/>
    <tag k="addr:street" v="Leopoldstraße"/>
    <tag k="building" v="apartments"/>
    <tag k="building:levels" v="4"/>
    <tag k="roof:levels" v="1"/>
    <tag k="roof:shape" v="gabled"/>
  </way>
  <way id="624402198" version="3" timestamp="2025-03-14T09:00:30Z" changeset="163600777" uid="9244608" user="LittleJoeMuc">
    <nd ref="5896292270"/>
    <nd ref="5896292268"/>
    <nd ref="5896292267"/>
    <nd ref="5896292269"/>
    <nd ref="5896292270"/>
    <tag k="addr:city" v="München"/>
    <tag k="addr:country" v="DE"/>
    <tag k="addr:housenumber" v="220"/>
    <tag k="addr:postcode" v="80804"/>
    <tag k="addr:street" v="Leopoldstraße"/>
    <tag k="building" v="apartments"/>
    <tag k="building:levels" v="4"/>
    <tag k="roof:levels" v="1"/>
    <tag k="roof:shape" v="gabled"/>
  </way>
  <way id="624402199" version="3" timestamp="2025-03-14T09:00:36Z" changeset="163600777" uid="9244608" user="LittleJoeMuc">
    <nd ref="5896292272"/>
    <nd ref="5896292270"/>
    <nd ref="5896292269"/>
    <nd ref="5896292271"/>
    <nd ref="5896292272"/>
    <tag k="addr:city" v="München"/>
    <tag k="addr:country" v="DE"/>
    <tag k="addr:housenumber" v="222"/>
    <tag k="addr:postcode" v="80804"/>
    <tag k="addr:street" v="Leopoldstraße"/>
    <tag k="building" v="apartments"/>
    <tag k="building:levels" v="4"/>
    <tag k="roof:levels" v="1"/>
    <tag k="roof:shape" v="gabled"/>
  </way>
  <way id="624402200" version="3" timestamp="2025-03-14T09:00:46Z" changeset="163600777" uid="9244608" user="LittleJoeMuc">
    <nd ref="5896292274"/>
    <nd ref="5896292273"/>
    <nd ref="5896292275"/>
    <nd ref="5896292276"/>
    <nd ref="5896292274"/>
    <tag k="addr:city" v="München"/>
    <tag k="addr:country" v="DE"/>
    <tag k="addr:housenumber" v="226"/>
    <tag k="addr:postcode" v="80804"/>
    <tag k="addr:street" v="Leopoldstraße"/>
    <tag k="building" v="apartments"/>
    <tag k="building:levels" v="4"/>
    <tag k="roof:levels" v="1"/>
    <tag k="roof:shape" v="gabled"/>
  </way>
  <way id="624402201" version="3" timestamp="2025-03-14T09:00:11Z" changeset="163600777" uid="9244608" user="LittleJoeMuc">
    <nd ref="5896292276"/>
    <nd ref="5896292275"/>
    <nd ref="5896292277"/>
    <nd ref="5896292278"/>
    <nd ref="5896292276"/>
    <tag k="addr:city" v="München"/>
    <tag k="addr:country" v="DE"/>
    <tag k="addr:housenumber" v="228"/>
    <tag k="addr:postcode" v="80804"/>
    <tag k="addr:street" v="Leopoldstraße"/>
    <tag k="building" v="apartments"/>
    <tag k="building:levels" v="4"/>
    <tag k="roof:levels" v="1"/>
    <tag k="roof:shape" v="gabled"/>
  </way>
  <way id="624402202" version="3" timestamp="2025-03-14T09:00:18Z" changeset="163600777" uid="9244608" user="LittleJoeMuc">
    <nd ref="5896292278"/>
    <nd ref="5896292277"/>
    <nd ref="1365984534"/>
    <nd ref="5896292285"/>
    <nd ref="5896292286"/>
    <nd ref="5896292280"/>
    <nd ref="5896292279"/>
    <nd ref="1365984527"/>
    <nd ref="5896292278"/>
    <tag k="addr:city" v="München"/>
    <tag k="addr:country" v="DE"/>
    <tag k="addr:housenumber" v="90"/>
    <tag k="addr:postcode" v="80805"/>
    <tag k="addr:street" v="Schenkendorfstraße"/>
    <tag k="building" v="apartments"/>
    <tag k="building:levels" v="4"/>
    <tag k="roof:levels" v="1"/>
    <tag k="roof:shape" v="gabled"/>
  </way>
  <way id="624402203" version="3" timestamp="2025-04-10T06:56:45Z" changeset="164753550" uid="9244608" user="LittleJoeMuc">
    <nd ref="5896292286"/>
    <nd ref="5896292285"/>
    <nd ref="5896292287"/>
    <nd ref="5896292288"/>
    <nd ref="5896292286"/>
    <tag k="addr:city" v="München"/>
    <tag k="addr:country" v="DE"/>
    <tag k="addr:housenumber" v="92"/>
    <tag k="addr:postcode" v="80805"/>
    <tag k="addr:street" v="Schenkendorfstraße"/>
    <tag k="building" v="apartments"/>
    <tag k="building:levels" v="4"/>
    <tag k="roof:levels" v="1"/>
    <tag k="roof:shape" v="gabled"/>
  </way>
  <way id="624402204" version="3" timestamp="2025-04-10T06:56:50Z" changeset="164753550" uid="9244608" user="LittleJoeMuc">
    <nd ref="5896292288"/>
    <nd ref="5896292287"/>
    <nd ref="5896292290"/>
    <nd ref="5896292291"/>
    <nd ref="5896292288"/>
    <tag k="addr:city" v="München"/>
    <tag k="addr:country" v="DE"/>
    <tag k="addr:housenumber" v="94"/>
    <tag k="addr:postcode" v="80805"/>
    <tag k="addr:street" v="Schenkendorfstraße"/>
    <tag k="building" v="apartments"/>
    <tag k="building:levels" v="4"/>
    <tag k="roof:levels" v="1"/>
    <tag k="roof:shape" v="gabled"/>
  </way>
  <way id="624402205" version="3" timestamp="2025-04-10T06:57:33Z" changeset="164753550" uid="9244608" user="LittleJoeMuc">
    <nd ref="5896292291"/>
    <nd ref="5896292290"/>
    <nd ref="5896292293"/>
    <nd ref="5896292292"/>
    <nd ref="5896292291"/>
    <tag k="addr:city" v="München"/>
    <tag k="addr:country" v="DE"/>
    <tag k="addr:housenumber" v="96"/>
    <tag k="addr:postcode" v="80805"/>
    <tag k="addr:street" v="Schenkendorfstraße"/>
    <tag k="building" v="apartments"/>
    <tag k="building:levels" v="4"/>
    <tag k="roof:levels" v="1"/>
    <tag k="roof:shape" v="gabled"/>
  </way>
  <way id="624402206" version="3" timestamp="2025-04-10T06:57:36Z" changeset="164753550" uid="9244608" user="LittleJoeMuc">
    <nd ref="5896292292"/>
    <nd ref="5896292293"/>
    <nd ref="1365984544"/>
    <nd ref="1365984532"/>
    <nd ref="5896292292"/>
    <tag k="addr:city" v="München"/>
    <tag k="addr:country" v="DE"/>
    <tag k="addr:housenumber" v="98"/>
    <tag k="addr:postcode" v="80805"/>
    <tag k="addr:street" v="Schenkendorfstraße"/>
    <tag k="building" v="apartments"/>
    <tag k="building:levels" v="4"/>
    <tag k="roof:levels" v="1"/>
    <tag k="roof:shape" v="hipped"/>
  </way>
  <way id="624402207" version="2" timestamp="2024-02-14T20:59:39Z" changeset="147466599" uid="3948229" user="textpilot">
    <nd ref="5896292297"/>
    <nd ref="5896292295"/>
    <nd ref="5896292294"/>
    <nd ref="5896292296"/>
    <nd ref="5896292297"/>
    <tag k="addr:city" v="München"/>
    <tag k="addr:country" v="DE"/>
    <tag k="addr:housenumber" v="21"/>
    <tag k="addr:postcode" v="80805"/>
    <tag k="addr:street" v="Wilhelm-Hertz-Straße"/>
    <tag k="building" v="construction"/>
  </way>
  <way id="624402208" version="2" timestamp="2024-02-14T20:59:39Z" changeset="147466599" uid="3948229" user="textpilot">
    <nd ref="5896292295"/>
    <nd ref="1365984523"/>
    <nd ref="1365984526"/>
    <nd ref="5896292294"/>
    <nd ref="5896292295"/>
    <tag k="addr:city" v="München"/>
    <tag k="addr:country" v="DE"/>
    <tag k="addr:housenumber" v="23"/>
    <tag k="addr:postcode" v="80805"/>
    <tag k="addr:street" v="Wilhelm-Hertz-Straße"/>
    <tag k="building" v="construction"/>
  </way>
  <way id="624402209" version="2" timestamp="2024-02-14T20:59:39Z" changeset="147466599" uid="3948229" user="textpilot">
    <nd ref="5896292301"/>
    <nd ref="5896292299"/>
    <nd ref="5896292298"/>
    <nd ref="5896292300"/>
    <nd ref="5896292301"/>
    <tag k="addr:city" v="München"/>
    <tag k="addr:country" v="DE"/>
    <tag k="addr:housenumber" v="17"/>
    <tag k="addr:postcode" v="80805"/>
    <tag k="addr:street" v="Wilhelm-Hertz-Straße"/>
    <tag k="building" v="construction"/>
  </way>
  <way id="624402210" version="2" timestamp="2024-02-14T20:59:39Z" changeset="147466599" uid="3948229" user="textpilot">
    <nd ref="5896292297"/>
    <nd ref="5896292296"/>
    <nd ref="5896292298"/>
    <nd ref="5896292299"/>
    <nd ref="5896292297"/>
    <tag k="addr:city" v="München"/>
    <tag k="addr:country" v="DE"/>
    <tag k="addr:housenumber" v="19"/>
    <tag k="addr:postcode" v="80805"/>
    <tag k="addr:street" v="Wilhelm-Hertz-Straße"/>
    <tag k="building" v="construction"/>
  </way>
  <way id="624402211" version="2" timestamp="2024-02-14T20:59:39Z" changeset="147466599" uid="3948229" user="textpilot">
    <nd ref="5896292305"/>
    <nd ref="5896292303"/>
    <nd ref="5896292302"/>
    <nd ref="5896292304"/>
    <nd ref="5896292305"/>
    <tag k="addr:city" v="München"/>
    <tag k="addr:country" v="DE"/>
    <tag k="addr:housenumber" v="13"/>
    <tag k="addr:postcode" v="80805"/>
    <tag k="addr:street" v="Wilhelm-Hertz-Straße"/>
    <tag k="building" v="construction"/>
  </way>
  <way id="624402212" version="2" timestamp="2024-02-14T20:59:39Z" changeset="147466599" uid="3948229" user="textpilot">
    <nd ref="5896292301"/>
    <nd ref="5896292300"/>
    <nd ref="5896292302"/>
    <nd ref="5896292303"/>
    <nd ref="5896292301"/>
    <tag k="addr:city" v="München"/>
    <tag k="addr:country" v="DE"/>
    <tag k="addr:housenumber" v="15"/>
    <tag k="addr:postcode" v="80805"/>
    <tag k="addr:street" v="Wilhelm-Hertz-Straße"/>
    <tag k="building" v="construction"/>
  </way>
  <way id="624402213" version="2" timestamp="2024-02-14T20:59:39Z" changeset="147466599" uid="3948229" user="textpilot">
    <nd ref="5896292305"/>
    <nd ref="5896292304"/>
    <nd ref="5896292306"/>
    <nd ref="5896292307"/>
    <nd ref="5896292305"/>
    <tag k="addr:city" v="München"/>
    <tag k="addr:country" v="DE"/>
    <tag k="addr:housenumber" v="11"/>
    <tag k="addr:postcode" v="80805"/>
    <tag k="addr:street" v="Wilhelm-Hertz-Straße"/>
    <tag k="building" v="construction"/>
  </way>
  <way id="624402214" version="2" timestamp="2024-02-14T20:59:39Z" changeset="147466599" uid="3948229" user="textpilot">
    <nd ref="5896292307"/>
    <nd ref="5896292306"/>
    <nd ref="5896292308"/>
    <nd ref="5896292309"/>
    <nd ref="5896292307"/>
    <tag k="addr:city" v="München"/>
    <tag k="addr:country" v="DE"/>
    <tag k="addr:housenumber" v="9"/>
    <tag k="addr:postcode" v="80805"/>
    <tag k="addr:street" v="Wilhelm-Hertz-Straße"/>
    <tag k="building" v="construction"/>
  </way>
  <way id="624402215" version="2" timestamp="2024-02-14T20:59:39Z" changeset="147466599" uid="3948229" user="textpilot">
    <nd ref="5896292311"/>
    <nd ref="5896292310"/>
    <nd ref="1365984446"/>
    <nd ref="1365984441"/>
    <nd ref="5896292311"/>
    <tag k="addr:city" v="München"/>
    <tag k="addr:country" v="DE"/>
    <tag k="addr:housenumber" v="5"/>
    <tag k="addr:postcode" v="80805"/>
    <tag k="addr:street" v="Wilhelm-Hertz-Straße"/>
    <tag k="building" v="construction"/>
  </way>
  <way id="624402220" version="1" timestamp="2018-09-10T12:56:02Z" changeset="62453353" uid="109029" user="shorty_de">
    <nd ref="5896292327"/>
    <nd ref="2650140206"/>
    <nd ref="2650140208"/>
    <nd ref="5896292326"/>
    <nd ref="5896292327"/>
    <tag k="addr:city" v="München"/>
    <tag k="addr:country" v="DE"/>
    <tag k="addr:housenumber" v="10"/>
    <tag k="addr:postcode" v="80805"/>
    <tag k="addr:street" v="Wilhelm-Hertz-Straße"/>
    <tag k="building" v="apartments"/>
    <tag k="building:levels" v="4"/>
  </way>
  <way id="624402221" version="1" timestamp="2018-09-10T12:56:02Z" changeset="62453353" uid="109029" user="shorty_de">
    <nd ref="1365984411"/>
    <nd ref="5896292332"/>
    <nd ref="1365984419"/>
    <nd ref="5896292328"/>
    <nd ref="1365984417"/>
    <nd ref="1365984415"/>
    <nd ref="1365984407"/>
    <nd ref="2603486723"/>
    <nd ref="1365984405"/>
    <nd ref="1365984411"/>
    <tag k="addr:city" v="München"/>
    <tag k="addr:country" v="DE"/>
    <tag k="addr:housenumber" v="6a"/>
    <tag k="addr:postcode" v="80805"/>
    <tag k="addr:street" v="Wilhelm-Hertz-Straße"/>
    <tag k="building" v="apartments"/>
    <tag k="building:levels" v="4"/>
  </way>
  <way id="624402222" version="3" timestamp="2024-03-14T06:32:43Z" changeset="148623084" uid="78613" user="heilbron">
    <nd ref="5896292337"/>
    <nd ref="5896292336"/>
    <nd ref="2650140190"/>
    <nd ref="5896292338"/>
    <nd ref="5896292339"/>
    <nd ref="2650140187"/>
    <nd ref="5896292337"/>
    <tag k="addr:city" v="München"/>
    <tag k="addr:country" v="DE"/>
    <tag k="addr:housenumber" v="8a"/>
    <tag k="addr:postcode" v="80805"/>
    <tag k="addr:street" v="Wilhelm-Hertz-Straße"/>
    <tag k="building" v="apartments"/>
    <tag k="building:levels" v="4"/>
    <tag k="roof:levels" v="2"/>
    <tag k="roof:shape" v="gabled"/>
  </way>
  <way id="624402223" version="3" timestamp="2024-03-14T06:32:43Z" changeset="148623084" uid="78613" user="heilbron">
    <nd ref="5896292338"/>
    <nd ref="2603486725"/>
    <nd ref="2603486724"/>
    <nd ref="5896292339"/>
    <nd ref="5896292338"/>
    <tag k="addr:city" v="München"/>
    <tag k="addr:country" v="DE"/>
    <tag k="addr:housenumber" v="8b"/>
    <tag k="addr:postcode" v="80805"/>
    <tag k="addr:street" v="Wilhelm-Hertz-Straße"/>
    <tag k="building" v="apartments"/>
    <tag k="building:levels" v="4"/>
    <tag k="roof:levels" v="2"/>
    <tag k="roof:shape" v="gabled"/>
  </way>
  <way id="624402225" version="3" timestamp="2024-03-14T06:32:43Z" changeset="148623084" uid="78613" user="heilbron">
    <nd ref="5896292342"/>
    <nd ref="5896292341"/>
    <nd ref="2603486724"/>
    <nd ref="2603486725"/>
    <nd ref="5896292342"/>
    <tag k="addr:city" v="München"/>
    <tag k="addr:country" v="DE"/>
    <tag k="addr:housenumber" v="10a"/>
    <tag k="addr:postcode" v="80805"/>
    <tag k="addr:street" v="Wilhelm-Hertz-Straße"/>
    <tag k="building" v="apartments"/>
    <tag k="building:levels" v="4"/>
    <tag k="roof:levels" v="2"/>
    <tag k="roof:shape" v="gabled"/>
  </way>
  <way id="624402226" version="1" timestamp="2018-09-10T12:56:03Z" changeset="62453353" uid="109029" user="shorty_de">
    <nd ref="5896292346"/>
    <nd ref="5896292345"/>
    <nd ref="2650140221"/>
    <nd ref="2650140211"/>
    <nd ref="5896292346"/>
    <tag k="addr:city" v="München"/>
    <tag k="addr:country" v="DE"/>
    <tag k="addr:housenumber" v="12a"/>
    <tag k="addr:postcode" v="80805"/>
    <tag k="addr:street" v="Wilhelm-Hertz-Straße"/>
    <tag k="building" v="apartments"/>
    <tag k="building:levels" v="4"/>
  </way>
  <way id="624402227" version="1" timestamp="2018-09-10T12:56:03Z" changeset="62453353" uid="109029" user="shorty_de">
    <nd ref="5896292352"/>
    <nd ref="5896292325"/>
    <nd ref="5896292322"/>
    <nd ref="2650140208"/>
    <nd ref="2650140206"/>
    <nd ref="5896292353"/>
    <nd ref="5896292352"/>
    <tag k="addr:city" v="München"/>
    <tag k="addr:country" v="DE"/>
    <tag k="addr:housenumber" v="12"/>
    <tag k="addr:postcode" v="80805"/>
    <tag k="addr:street" v="Wilhelm-Hertz-Straße"/>
    <tag k="building" v="apartments"/>
    <tag k="building:levels" v="4"/>
  </way>
  <way id="624402228" version="1" timestamp="2018-09-10T12:56:03Z" changeset="62453353" uid="109029" user="shorty_de">
    <nd ref="5896292346"/>
    <nd ref="5896292347"/>
    <nd ref="5896292348"/>
    <nd ref="5896292345"/>
    <nd ref="5896292346"/>
    <tag k="addr:city" v="München"/>
    <tag k="addr:country" v="DE"/>
    <tag k="addr:housenumber" v="14a"/>
    <tag k="addr:postcode" v="80805"/>
    <tag k="addr:street" v="Wilhelm-Hertz-Straße"/>
    <tag k="building" v="apartments"/>
    <tag k="building:levels" v="4"/>
  </way>
  <way id="624402229" version="1" timestamp="2018-09-10T12:56:03Z" changeset="62453353" uid="109029" user="shorty_de">
    <nd ref="5896292357"/>
    <nd ref="2650140245"/>
    <nd ref="2650140242"/>
    <nd ref="5896292356"/>
    <nd ref="5896292357"/>
    <tag k="addr:city" v="München"/>
    <tag k="addr:country" v="DE"/>
    <tag k="addr:housenumber" v="16"/>
    <tag k="addr:postcode" v="80805"/>
    <tag k="addr:street" v="Wilhelm-Hertz-Straße"/>
    <tag k="building" v="apartments"/>
    <tag k="building:levels" v="4"/>
  </way>
  <way id="624402230" version="1" timestamp="2018-09-10T12:56:03Z" changeset="62453353" uid="109029" user="shorty_de">
    <nd ref="5896292357"/>
    <nd ref="5896292356"/>
    <nd ref="5896292359"/>
    <nd ref="5896292360"/>
    <nd ref="5896292358"/>
    <nd ref="5896292357"/>
    <tag k="addr:city" v="München"/>
    <tag k="addr:country" v="DE"/>
    <tag k="addr:housenumber" v="18"/>
    <tag k="addr:postcode" v="80805"/>
    <tag k="addr:street" v="Wilhelm-Hertz-Straße"/>
    <tag k="building" v="apartments"/>
    <tag k="building:levels" v="4"/>
  </way>
  <way id="624402231" version="3" timestamp="2025-04-10T06:58:42Z" changeset="164753550" uid="9244608" user="LittleJoeMuc">
    <nd ref="5896292361"/>
    <nd ref="5896292368"/>
    <nd ref="5896292362"/>
    <nd ref="5896292363"/>
    <nd ref="5896292361"/>
    <tag k="addr:city" v="München"/>
    <tag k="addr:country" v="DE"/>
    <tag k="addr:housenumber" v="22"/>
    <tag k="addr:postcode" v="80805"/>
    <tag k="addr:street" v="Wilhelm-Hertz-Straße"/>
    <tag k="building" v="apartments"/>
    <tag k="building:levels" v="5"/>
    <tag k="roof:levels" v="1"/>
    <tag k="roof:shape" v="gabled"/>
  </way>
  <way id="624402232" version="3" timestamp="2025-04-10T06:58:44Z" changeset="164753550" uid="9244608" user="LittleJoeMuc">
    <nd ref="5896292363"/>
    <nd ref="5896292362"/>
    <nd ref="5896292364"/>
    <nd ref="5896292365"/>
    <nd ref="5896292363"/>
    <tag k="addr:city" v="München"/>
    <tag k="addr:country" v="DE"/>
    <tag k="addr:housenumber" v="24"/>
    <tag k="addr:postcode" v="80805"/>
    <tag k="addr:street" v="Wilhelm-Hertz-Straße"/>
    <tag k="building" v="apartments"/>
    <tag k="building:levels" v="5"/>
    <tag k="roof:levels" v="1"/>
    <tag k="roof:shape" v="gabled"/>
  </way>
  <way id="624402233" version="3" timestamp="2025-04-10T06:58:47Z" changeset="164753550" uid="9244608" user="LittleJoeMuc">
    <nd ref="5896292365"/>
    <nd ref="5896292364"/>
    <nd ref="5896292366"/>
    <nd ref="5896292367"/>
    <nd ref="5896292365"/>
    <tag k="addr:city" v="München"/>
    <tag k="addr:country" v="DE"/>
    <tag k="addr:housenumber" v="26"/>
    <tag k="addr:postcode" v="80805"/>
    <tag k="addr:street" v="Wilhelm-Hertz-Straße"/>
    <tag k="building" v="apartments"/>
    <tag k="building:levels" v="5"/>
    <tag k="roof:levels" v="1"/>
    <tag k="roof:shape" v="gabled"/>
  </way>
  <way id="624402234" version="3" timestamp="2025-04-10T06:58:49Z" changeset="164753550" uid="9244608" user="LittleJoeMuc">
    <nd ref="5896292367"/>
    <nd ref="5896292366"/>
    <nd ref="5896292369"/>
    <nd ref="5896292370"/>
    <nd ref="5896292367"/>
    <tag k="addr:city" v="München"/>
    <tag k="addr:country" v="DE"/>
    <tag k="addr:housenumber" v="28"/>
    <tag k="addr:postcode" v="80805"/>
    <tag k="addr:street" v="Wilhelm-Hertz-Straße"/>
    <tag k="building" v="apartments"/>
    <tag k="building:levels" v="5"/>
    <tag k="roof:levels" v="1"/>
    <tag k="roof:shape" v="gabled"/>
  </way>
  <way id="624402235" version="3" timestamp="2025-04-10T06:58:54Z" changeset="164753550" uid="9244608" user="LittleJoeMuc">
    <nd ref="5896292370"/>
    <nd ref="5896292369"/>
    <nd ref="5896292371"/>
    <nd ref="5896292372"/>
    <nd ref="5896292370"/>
    <tag k="addr:city" v="München"/>
    <tag k="addr:country" v="DE"/>
    <tag k="addr:housenumber" v="30"/>
    <tag k="addr:postcode" v="80805"/>
    <tag k="addr:street" v="Wilhelm-Hertz-Straße"/>
    <tag k="building" v="apartments"/>
    <tag k="building:levels" v="5"/>
    <tag k="roof:levels" v="1"/>
    <tag k="roof:shape" v="gabled"/>
  </way>
  <way id="624402236" version="3" timestamp="2025-04-10T06:58:57Z" changeset="164753550" uid="9244608" user="LittleJoeMuc">
    <nd ref="5896292372"/>
    <nd ref="5896292371"/>
    <nd ref="1365984511"/>
    <nd ref="5896292373"/>
    <nd ref="5896292374"/>
    <nd ref="1365984509"/>
    <nd ref="5896292372"/>
    <tag k="addr:city" v="München"/>
    <tag k="addr:country" v="DE"/>
    <tag k="addr:housenumber" v="32"/>
    <tag k="addr:postcode" v="80805"/>
    <tag k="addr:street" v="Wilhelm-Hertz-Straße"/>
    <tag k="building" v="apartments"/>
    <tag k="building:levels" v="5"/>
    <tag k="roof:levels" v="1"/>
    <tag k="roof:shape" v="hipped"/>
  </way>
  <way id="624402237" version="3" timestamp="2024-03-14T06:32:44Z" changeset="148623084" uid="78613" user="heilbron">
    <nd ref="5896292374"/>
    <nd ref="5896292373"/>
    <nd ref="1365984498"/>
    <nd ref="1365984502"/>
    <nd ref="5896292374"/>
    <tag k="addr:city" v="München"/>
    <tag k="addr:country" v="DE"/>
    <tag k="addr:housenumber" v="34"/>
    <tag k="addr:postcode" v="80805"/>
    <tag k="addr:street" v="Wilhelm-Hertz-Straße"/>
    <tag k="building" v="apartments"/>
    <tag k="building:levels" v="5"/>
    <tag k="roof:levels" v="2"/>
    <tag k="roof:shape" v="gabled"/>
  </way>
  <way id="799143975" version="8" timestamp="2022-05-11T19:51:02Z" changeset="120856219" uid="126052" user="_Lutz_">
    <nd ref="8318368336"/>
    <nd ref="8318368334"/>
    <nd ref="8318368337"/>
    <nd ref="8318368338"/>
    <nd ref="8318368339"/>
    <nd ref="8318368340"/>
    <nd ref="7473869086"/>
    <nd ref="8808607198"/>
    <nd ref="7473869087"/>
    <nd ref="7473869095"/>
    <nd ref="7473869096"/>
    <nd ref="8494409463"/>
    <nd ref="7473869097"/>
    <nd ref="7473869094"/>
    <nd ref="7473869093"/>
    <nd ref="7473869098"/>
    <nd ref="8808607199"/>
    <nd ref="8318368336"/>
    <tag k="addr:city" v="München"/>
    <tag k="addr:country" v="DE"/>
    <tag k="addr:housenumber" v="13"/>
    <tag k="addr:postcode" v="80807"/>
    <tag k="addr:street" v="Weimarer Straße"/>
    <tag k="building" v="commercial"/>
    <tag k="building:levels" v="5"/>
    <tag k="name" v="MAGNA Cubes Haus 2"/>
  </way>
  <way id="857783150" version="8" timestamp="2024-08-18T22:18:04Z" changeset="155436377" uid="3008179" user="LeonidasDE">
    <nd ref="3420195982"/>
    <nd ref="7996998136"/>
    <nd ref="7997042054"/>
    <nd ref="1238687354"/>
    <nd ref="21092014"/>
    <tag k="bicycle" v="use_sidepath"/>
    <tag k="foot" v="use_sidepath"/>
    <tag k="highway" v="trunk_link"/>
    <tag k="lanes" v="2"/>
    <tag k="lit" v="yes"/>
    <tag k="maxspeed" v="50"/>
    <tag k="noname" v="yes"/>
    <tag k="oneway" v="yes"/>
    <tag k="parking:both" v="no"/>
    <tag k="sidewalk:left" v="no"/>
    <tag k="sidewalk:right" v="separate"/>
    <tag k="surface" v="asphalt"/>
    <tag k="turn:lanes" v="through|through"/>
  </way>
  <way id="951664925" version="7" timestamp="2025-04-06T16:26:40Z" changeset="164599420" uid="137242" user="Rainero">
    <nd ref="34484156"/>
    <nd ref="736460492"/>
    <nd ref="1042772137"/>
    <tag k="class:bicycle" v="2"/>
    <tag k="cycleway:left" v="lane"/>
    <tag k="cycleway:left:lane" v="exclusive"/>
    <tag k="cycleway:right" v="no"/>
    <tag k="cycleway:separation" v="vertical_panel"/>
    <tag k="foot" v="use_sidepath"/>
    <tag k="highway" v="tertiary"/>
    <tag k="lanes" v="2"/>
    <tag k="lit" v="yes"/>
    <tag k="maxspeed" v="50"/>
    <tag k="name" v="Domagkstraße"/>
    <tag k="parking:lane:left" v="no_stopping"/>
    <tag k="postal_code" v="80807"/>
    <tag k="sidewalk" v="separate"/>
    <tag k="smoothness" v="good"/>
    <tag k="source:maxspeed" v="DE:urban"/>
    <tag k="surface" v="asphalt"/>
  </way>
  <way id="951664927" version="1" timestamp="2021-06-06T10:07:56Z" changeset="105910472" uid="26299" user="uboot">
    <nd ref="7473869098"/>
    <nd ref="8454230473"/>
    <nd ref="7473869099"/>
    <nd ref="8808607200"/>
    <nd ref="8318368335"/>
    <nd ref="8454230474"/>
    <nd ref="8318368336"/>
    <nd ref="8808607199"/>
    <nd ref="7473869098"/>
    <tag k="building" v="commercial"/>
    <tag k="building:levels" v="4"/>
    <tag k="building:min_level" v="3"/>
    <tag k="name" v="MAGNA Cubes"/>
  </way>
  <way id="951664928" version="2" timestamp="2022-05-11T19:51:02Z" changeset="120856219" uid="126052" user="_Lutz_">
    <nd ref="8318368335"/>
    <nd ref="8808607200"/>
    <nd ref="7473869099"/>
    <nd ref="7473869092"/>
    <nd ref="7473869091"/>
    <nd ref="7473869100"/>
    <nd ref="8494409462"/>
    <nd ref="7473869101"/>
    <nd ref="7473869090"/>
    <nd ref="7473869088"/>
    <nd ref="8808607196"/>
    <nd ref="8808607197"/>
    <nd ref="7473869089"/>
    <nd ref="8318368329"/>
    <nd ref="8318368330"/>
    <nd ref="8318368332"/>
    <nd ref="8318368331"/>
    <nd ref="8318368333"/>
    <nd ref="8318368335"/>
    <tag k="addr:city" v="München"/>
    <tag k="addr:country" v="DE"/>
    <tag k="addr:housenumber" v="11"/>
    <tag k="addr:postcode" v="80807"/>
    <tag k="addr:street" v="Weimarer Straße"/>
    <tag k="building" v="commercial"/>
    <tag k="building:levels" v="5"/>
    <tag k="name" v="MAGNA Cubes Haus 1"/>
  </way>
  <way id="1100904650" version="4" timestamp="2025-01-05T17:34:18Z" changeset="161030081" uid="2815653" user="DaxServer">
    <nd ref="1119101645"/>
    <nd ref="2708986908"/>
    <nd ref="34705519"/>
    <tag k="bicycle" v="use_sidepath"/>
    <tag k="bus_bay" v="right"/>
    <tag k="foot" v="use_sidepath"/>
    <tag k="hgv" v="delivery"/>
    <tag k="highway" v="primary"/>
    <tag k="lanes" v="2"/>
    <tag k="lit" v="yes"/>
    <tag k="maxspeed" v="50"/>
    <tag k="name" v="Ingolstädter Straße"/>
    <tag k="name:etymology:wikidata" v="Q3004"/>
    <tag k="oneway" v="yes"/>
    <tag k="ref" v="B 13"/>
    <tag k="sidewalk:left" v="no"/>
    <tag k="sidewalk:right" v="separate"/>
    <tag k="surface" v="asphalt"/>
    <tag k="tmc" v="DE:20719/20720"/>
    <tag k="wikidata" v="Q21281208"/>
  </way>
  <way id="1100904651" version="3" timestamp="2025-01-05T17:34:18Z" changeset="161030081" uid="2815653" user="DaxServer">
    <nd ref="19369312"/>
    <nd ref="1119101645"/>
    <tag k="bicycle" v="use_sidepath"/>
    <tag k="foot" v="use_sidepath"/>
    <tag k="hgv" v="delivery"/>
    <tag k="highway" v="primary"/>
    <tag k="lanes" v="2"/>
    <tag k="lit" v="yes"/>
    <tag k="maxspeed" v="50"/>
    <tag k="name" v="Ingolstädter Straße"/>
    <tag k="name:etymology:wikidata" v="Q3004"/>
    <tag k="oneway" v="yes"/>
    <tag k="ref" v="B 13"/>
    <tag k="sidewalk:left" v="no"/>
    <tag k="sidewalk:right" v="separate"/>
    <tag k="surface" v="asphalt"/>
    <tag k="tmc" v="DE:20719/20720"/>
    <tag k="wikidata" v="Q21281208"/>
  </way>
  <way id="1100904663" version="4" timestamp="2025-04-06T16:26:40Z" changeset="164599420" uid="137242" user="Rainero">
    <nd ref="1042772137"/>
    <nd ref="34485604"/>
    <tag k="class:bicycle" v="2"/>
    <tag k="cycleway:lane" v="exclusive"/>
    <tag k="cycleway:left" v="lane"/>
    <tag k="cycleway:left:lane" v="exclusive"/>
    <tag k="cycleway:right" v="no"/>
    <tag k="cycleway:separation" v="vertical_panel"/>
    <tag k="foot" v="use_sidepath"/>
    <tag k="highway" v="tertiary"/>
    <tag k="lanes" v="3"/>
    <tag k="lanes:forward" v="2"/>
    <tag k="lit" v="yes"/>
    <tag k="maxspeed" v="50"/>
    <tag k="name" v="Domagkstraße"/>
    <tag k="parking:lane:left" v="no_stopping"/>
    <tag k="postal_code" v="80807"/>
    <tag k="sidewalk" v="separate"/>
    <tag k="smoothness" v="good"/>
    <tag k="source:maxspeed" v="DE:urban"/>
    <tag k="surface" v="asphalt"/>
    <tag k="turn:lanes:forward" v="left|none"/>
  </way>
  <way id="1100904664" version="6" timestamp="2025-04-06T16:26:40Z" changeset="164599420" uid="137242" user="Rainero">
    <nd ref="21095007"/>
    <nd ref="2032866906"/>
    <nd ref="7113354463"/>
    <nd ref="2688332058"/>
    <tag k="class:bicycle" v="2"/>
    <tag k="cycleway:left" v="lane"/>
    <tag k="cycleway:left:lane" v="exclusive"/>
    <tag k="cycleway:right" v="no"/>
    <tag k="cycleway:separation" v="vertical_panel"/>
    <tag k="foot" v="use_sidepath"/>
    <tag k="highway" v="tertiary"/>
    <tag k="lanes" v="2"/>
    <tag k="lit" v="yes"/>
    <tag k="maxspeed" v="50"/>
    <tag k="name" v="Domagkstraße"/>
    <tag k="postal_code" v="80807"/>
    <tag k="sidewalk" v="separate"/>
    <tag k="smoothness" v="good"/>
    <tag k="source:maxspeed" v="DE:urban"/>
    <tag k="surface" v="asphalt"/>
  </way>
  <way id="1106174417" version="4" timestamp="2025-01-05T17:30:32Z" changeset="161030081" uid="2815653" user="DaxServer">
    <nd ref="10121875306"/>
    <nd ref="10121875289"/>
    <nd ref="264778178"/>
    <tag k="bicycle" v="use_sidepath"/>
    <tag k="foot" v="use_sidepath"/>
    <tag k="highway" v="primary"/>
    <tag k="lanes" v="3"/>
    <tag k="lit" v="yes"/>
    <tag k="maxspeed" v="60"/>
    <tag k="name" v="Frankfurter Ring"/>
    <tag k="name:etymology:wikidata" v="Q1794"/>
    <tag k="oneway" v="yes"/>
    <tag k="placement" v="left_of:3"/>
    <tag k="postal_code" v="80807"/>
    <tag k="shoulder" v="no"/>
    <tag k="sidewalk:left" v="no"/>
    <tag k="sidewalk:right" v="separate"/>
    <tag k="smoothness" v="good"/>
    <tag k="surface" v="asphalt"/>
    <tag k="tmc" v="DE:27942/27943"/>
    <tag k="turn:lanes" v="left|through|through"/>
    <tag k="wikidata" v="Q21201006"/>
  </way>
  <way id="1106174418" version="3" timestamp="2025-01-05T17:30:32Z" changeset="161030081" uid="2815653" user="DaxServer">
    <nd ref="34485602"/>
    <nd ref="3501874170"/>
    <nd ref="34485599"/>
    <nd ref="1913918726"/>
    <nd ref="10121875306"/>
    <tag k="bicycle" v="use_sidepath"/>
    <tag k="foot" v="use_sidepath"/>
    <tag k="highway" v="primary"/>
    <tag k="lanes" v="2"/>
    <tag k="lit" v="yes"/>
    <tag k="maxspeed" v="60"/>
    <tag k="name" v="Frankfurter Ring"/>
    <tag k="name:etymology:wikidata" v="Q1794"/>
    <tag k="oneway" v="yes"/>
    <tag k="postal_code" v="80807"/>
    <tag k="shoulder" v="no"/>
    <tag k="sidewalk:left" v="no"/>
    <tag k="sidewalk:right" v="separate"/>
    <tag k="smoothness" v="good"/>
    <tag k="surface" v="asphalt"/>
    <tag k="tmc" v="DE:27942/27943"/>
    <tag k="wikidata" v="Q21201006"/>
  </way>
  <way id="1117656725" version="4" timestamp="2025-01-05T17:30:32Z" changeset="161030081" uid="2815653" user="DaxServer">
    <nd ref="90715150"/>
    <nd ref="10222093833"/>
    <tag k="bicycle" v="use_sidepath"/>
    <tag k="foot" v="use_sidepath"/>
    <tag k="highway" v="primary"/>
    <tag k="lanes" v="2"/>
    <tag k="lit" v="yes"/>
    <tag k="maxspeed" v="50"/>
    <tag k="name" v="Frankfurter Ring"/>
    <tag k="name:etymology:wikidata" v="Q1794"/>
    <tag k="oneway" v="yes"/>
    <tag k="postal_code" v="80807"/>
    <tag k="sidewalk:left" v="no"/>
    <tag k="sidewalk:right" v="separate"/>
    <tag k="smoothness" v="good"/>
    <tag k="surface" v="asphalt"/>
    <tag k="width" v="6"/>
    <tag k="wikidata" v="Q21201006"/>
  </way>
  <way id="1125585006" version="2" timestamp="2024-07-21T14:01:03Z" changeset="154220955" uid="536583" user="Strubbl">
    <nd ref="10292919865"/>
    <nd ref="10292919866"/>
    <nd ref="10292919867"/>
    <nd ref="10292919868"/>
    <nd ref="10292919869"/>
    <nd ref="10292919870"/>
    <nd ref="10292919871"/>
    <nd ref="10292919873"/>
    <nd ref="10292919872"/>
    <nd ref="76873661"/>
    <nd ref="10292919865"/>
    <tag k="addr:city" v="München"/>
    <tag k="addr:housenumber" v="150"/>
    <tag k="addr:postcode" v="80807"/>
    <tag k="addr:street" v="Frankfurter Ring"/>
    <tag k="building" v="commercial"/>
    <tag k="ref" v="3"/>
  </way>
  <way id="1206081741" version="2" timestamp="2025-01-11T18:38:31Z" changeset="161248961" uid="2815653" user="DaxServer">
    <nd ref="2709448409"/>
    <nd ref="4890480608"/>
    <nd ref="2138722654"/>
    <nd ref="2138722656"/>
    <nd ref="9869669793"/>
    <nd ref="11176253383"/>
    <tag k="bicycle" v="use_sidepath"/>
    <tag k="foot" v="use_sidepath"/>
    <tag k="highway" v="secondary"/>
    <tag k="lanes" v="3"/>
    <tag k="lit" v="yes"/>
    <tag k="maxspeed" v="50"/>
    <tag k="name" v="Leopoldstraße"/>
    <tag k="name:etymology:wikidata" v="Q61015"/>
    <tag k="oneway" v="yes"/>
    <tag k="sidewalk:left" v="no"/>
    <tag k="sidewalk:right" v="separate"/>
    <tag k="smoothness" v="good"/>
    <tag k="surface" v="asphalt"/>
    <tag k="tmc" v="DE:35344/27949"/>
    <tag k="wikidata" v="Q877933"/>
    <tag k="wikipedia" v="de:Leopoldstraße"/>
  </way>
  <way id="1365984527" version="1" timestamp="2025-03-10T13:55:06Z" changeset="163443805" uid="16061279" user="YellowSoul">
    <nd ref="3802106164"/>
    <nd ref="12649961932"/>
    <tag k="highway" v="residential"/>
    <tag k="lane_markings" v="no"/>
    <tag k="maxspeed" v="50"/>
    <tag k="name" v="Heinrich-Kley-Straße"/>
    <tag k="parking:condition:left:capacity" v="27"/>
    <tag k="parking:condition:right:capacity" v="3"/>
    <tag k="parking:left" v="yes"/>
    <tag k="parking:left:orientation" v="perpendicular"/>
    <tag k="parking:right" v="yes"/>
    <tag k="parking:right:orientation" v="parallel"/>
    <tag k="postal_code" v="80807"/>
    <tag k="sidewalk" v="both"/>
    <tag k="sidewalk:left:smoothness" v="excellent"/>
    <tag k="sidewalk:left:surface" v="paving_stones"/>
    <tag k="sidewalk:left:width" v="2"/>
    <tag k="sidewalk:right:smoothness" v="excellent"/>
    <tag k="sidewalk:right:surface" v="paving_stones"/>
    <tag k="sidewalk:right:width" v="2"/>
    <tag k="surface" v="asphalt"/>
  </way>
  <way id="1383826571" version="1" timestamp="2025-05-05T18:08:18Z" changeset="165858946" uid="16061279" user="YellowSoul">
    <nd ref="10075553872"/>
    <nd ref="3423591995"/>
    <nd ref="3423591996"/>
    <nd ref="19369312"/>
    <tag k="bicycle" v="yes"/>
    <tag k="class:bicycle" v="-1"/>
    <tag k="cycleway:both" v="separate"/>
    <tag k="foot" v="use_sidepath"/>
    <tag k="highway" v="tertiary"/>
    <tag k="lanes" v="4"/>
    <tag k="lanes:forward" v="3"/>
    <tag k="lit" v="yes"/>
    <tag k="maxspeed" v="50"/>
    <tag k="name" v="Domagkstraße"/>
    <tag k="postal_code" v="80807"/>
    <tag k="sidewalk" v="separate"/>
    <tag k="smoothness" v="good"/>
    <tag k="source:maxspeed" v="DE:urban"/>
    <tag k="surface" v="asphalt"/>
    <tag k="turn:lanes:forward" v="left|through|right"/>
  </way>
  <relation id="2597190" version="5" timestamp="2018-04-29T07:49:54Z" changeset="58520344" uid="7352749" user="Arikp">
    <member type="way" ref="192755204" role="outer"/>
    <member type="way" ref="192755206" role="inner"/>
    <tag k="building" v="yes"/>
    <tag k="building:levels" v="6"/>
    <tag k="name" v="NuOffice1"/>
    <tag k="type" v="multipolygon"/>
  </relation>
  <relation id="7353440" version="2" timestamp="2018-10-03T14:29:52Z" changeset="63162536" uid="818053" user="schoka">
    <member type="way" ref="99524926" role="outer"/>
    <member type="way" ref="503052443" role="inner"/>
    <member type="way" ref="503052442" role="inner"/>
    <tag k="addr:city" v="München"/>
    <tag k="addr:country" v="DE"/>
    <tag k="addr:housenumber" v="6"/>
    <tag k="addr:postcode" v="80807"/>
    <tag k="addr:street" v="Heinrich-Kley-Straße"/>
    <tag k="building" v="yes"/>
    <tag k="name" v="Fashion Service"/>
    <tag k="phone" v="+49 89 35657160"/>
    <tag k="shop" v="clothes"/>
    <tag k="type" v="multipolygon"/>
  </relation>
  <relation id="14655091" version="3" timestamp="2024-06-21T05:23:01Z" changeset="152974959" uid="78613" user="heilbron">
    <member type="way" ref="1100904637" role="inner"/>
    <member type="way" ref="307774191" role="outer"/>
    <tag k="building" v="office"/>
    <tag k="building:levels" v="6"/>
    <tag k="name" v="NuOffice3"/>
    <tag k="note" v="Umrisse geschätzt!"/>
    <tag k="roof:shape" v="flat"/>
    <tag k="type" v="multipolygon"/>
  </relation>
  <relation id="14655092" version="2" timestamp="2023-06-14T14:12:30Z" changeset="137331168" uid="8021060" user="grimbler">
    <member type="way" ref="1100904645" role="inner"/>
    <member type="way" ref="1100904644" role="inner"/>
    <member type="way" ref="286807988" role="outer"/>
    <tag k="building" v="office"/>
    <tag k="building:levels" v="6"/>
    <tag k="name" v="NuOffice2"/>
    <tag k="type" v="multipolygon"/>
  </relation>
  <relation id="14718214" version="1" timestamp="2022-10-21T15:49:54Z" changeset="127891755" uid="2554996" user="Nanoilite">
    <member type="way" ref="1105833297" role="inner"/>
    <member type="way" ref="599943883" role="outer"/>
    <tag k="addr:city" v="München"/>
    <tag k="addr:housenumber" v="158"/>
    <tag k="addr:postcode" v="80807"/>
    <tag k="addr:street" v="Frankfurter Ring"/>
    <tag k="building" v="commercial"/>
    <tag k="building:levels" v="5"/>
    <tag k="name" v="M-net Telekommunikations GmbH"/>
    <tag k="smoking" v="no"/>
    <tag k="type" v="multipolygon"/>
  </relation>

</osm>
