<?xml version="1.0" encoding="UTF-8"?>
<osm version="0.6" generator="Overpass API 0.7.62.5 1bd436f1">
<note>The data included in this document is from www.openstreetmap.org. The data is made available under ODbL.</note>
<meta osm_base="2025-05-18T03:24:03Z" areas="2024-12-31T00:49:33Z"/>

  <node id="1954396" lat="48.1507950" lon="11.5654268" version="6" timestamp="2012-01-27T17:30:02Z" changeset="10514543" uid="13832" user="Peter14"/>
  <node id="1954400" lat="48.1522168" lon="11.5649463" version="7" timestamp="2012-10-18T19:59:10Z" changeset="13549284" uid="367380" user="Mloni"/>
  <node id="1955510" lat="48.1593338" lon="11.5666418" version="5" timestamp="2011-09-01T17:52:43Z" changeset="9186716" uid="42875" user="burnus"/>
  <node id="1955535" lat="48.1542885" lon="11.5680415" version="7" timestamp="2016-02-22T13:02:26Z" changeset="37366423" uid="371369" user="mucx"/>
  <node id="7983325" lat="48.1539980" lon="11.5751781" version="12" timestamp="2012-03-18T14:01:40Z" changeset="11019144" uid="64536" user="Michael Forster"/>
  <node id="20835174" lat="48.1533374" lon="11.5680934" version="6" timestamp="2012-10-20T18:19:38Z" changeset="13570974" uid="8748" user="ToniE"/>
  <node id="25576849" lat="48.1548917" lon="11.5595718" version="7" timestamp="2025-01-29T20:56:36Z" changeset="161913737" uid="21643154" user="sw_uwu"/>
  <node id="25576850" lat="48.1538933" lon="11.5591351" version="2" timestamp="2011-01-01T22:14:39Z" changeset="6832927" uid="29061" user="KPG"/>
  <node id="27487407" lat="48.1583603" lon="11.5626340" version="4" timestamp="2013-12-28T13:41:35Z" changeset="19678722" uid="1753028" user="cüper"/>
  <node id="27487410" lat="48.1556633" lon="11.5633089" version="6" timestamp="2017-04-14T11:16:11Z" changeset="47776810" uid="367380" user="Mloni"/>
  <node id="315667013" lat="48.1515107" lon="11.5674950" version="4" timestamp="2011-10-27T17:58:02Z" changeset="9669984" uid="367380" user="Mloni"/>
  <node id="345553442" lat="48.1504102" lon="11.5667976" version="6" timestamp="2020-11-22T18:09:08Z" changeset="94593705" uid="26299" user="uboot">
    <tag k="highway" v="traffic_signals"/>
    <tag k="tactile_paving" v="no"/>
    <tag k="traffic_signals:vibration" v="yes"/>
  </node>
  <node id="1088755472" lat="48.1567380" lon="11.5684623" version="8" timestamp="2023-03-05T21:17:05Z" changeset="133341145" uid="536583" user="Strubbl">
    <tag k="crossing" v="marked"/>
    <tag k="crossing:island" v="no"/>
    <tag k="crossing:markings" v="yes"/>
    <tag k="crossing_ref" v="zebra"/>
    <tag k="highway" v="crossing"/>
    <tag k="note" v="nach Rückbau der Ampelanlage die Kreuzung mit den 32 Zebraschildern ;-)"/>
    <tag k="tactile_paving" v="yes"/>
  </node>
  <node id="1839230887" lat="48.1567665" lon="11.5673922" version="1" timestamp="2012-07-26T22:33:35Z" changeset="12505189" uid="753289" user="Marsupium"/>
  <node id="1972874111" lat="48.1533886" lon="11.5608298" version="2" timestamp="2017-04-29T19:24:36Z" changeset="48264848" uid="6998" user="saerdnaer">
    <tag k="highway" v="traffic_signals"/>
  </node>
  <node id="3184231757" lat="48.1561451" lon="11.5615692" version="1" timestamp="2014-11-13T08:59:07Z" changeset="26751643" uid="26299" user="uboot"/>
  <node id="3586792924" lat="48.1569439" lon="11.5637893" version="1" timestamp="2015-06-10T22:07:24Z" changeset="31884359" uid="79933" user="zEEs"/>
  <node id="3588013134" lat="48.1572060" lon="11.5621298" version="9" timestamp="2025-04-01T10:25:47Z" changeset="164367888" uid="170763" user="SoulCover">
    <tag k="button_operated" v="no"/>
    <tag k="crossing:island" v="no"/>
    <tag k="crossing:signals" v="yes"/>
    <tag k="highway" v="crossing"/>
    <tag k="tactile_paving" v="no"/>
    <tag k="traffic_signals:sound" v="yes"/>
    <tag k="traffic_signals:vibration" v="yes"/>
  </node>
  <node id="3588013147" lat="48.1521672" lon="11.5605494" version="7" timestamp="2022-10-26T12:59:39Z" changeset="128083703" uid="17450191" user="oneghie">
    <tag k="button_operated" v="no"/>
    <tag k="crossing" v="traffic_signals"/>
    <tag k="highway" v="crossing"/>
    <tag k="kerb" v="lowered"/>
    <tag k="tactile_paving" v="no"/>
    <tag k="traffic_signals:sound" v="no"/>
    <tag k="traffic_signals:vibration" v="yes"/>
  </node>
  <node id="4264359095" lat="48.1551165" lon="11.5680483" version="2" timestamp="2018-04-07T13:22:13Z" changeset="57891409" uid="367380" user="Mloni"/>
  <node id="4825725133" lat="48.1525782" lon="11.5605696" version="2" timestamp="2017-04-29T19:24:37Z" changeset="48264848" uid="6998" user="saerdnaer"/>
  <node id="4972204765" lat="48.1511280" lon="11.5642442" version="1" timestamp="2017-07-15T13:31:36Z" changeset="50306003" uid="367380" user="Mloni">
    <tag k="highway" v="traffic_signals"/>
  </node>
  <node id="8748896852" lat="48.1536534" lon="11.5680644" version="1" timestamp="2021-05-20T08:34:58Z" changeset="105011927" uid="531886" user="drlellinger"/>
  <node id="9508370962" lat="48.1523946" lon="11.5684351" version="1" timestamp="2022-02-15T18:09:27Z" changeset="117446551" uid="13496000" user="geo-d"/>
  <way id="4262228" version="19" timestamp="2024-04-21T18:18:12Z" changeset="150313736" uid="20785072" user="Herbart1906">
    <nd ref="1955535"/>
    <nd ref="1088755488"/>
    <nd ref="1362826058"/>
    <nd ref="1954405"/>
    <tag k="class:bicycle" v="1"/>
    <tag k="cycleway:both" v="separate"/>
    <tag k="foot" v="use_sidepath"/>
    <tag k="highway" v="residential"/>
    <tag k="lit" v="yes"/>
    <tag k="maxspeed" v="30"/>
    <tag k="name" v="Görresstraße"/>
    <tag k="name:etymology:wikidata" v="Q215730"/>
    <tag k="sidewalk:both" v="separate"/>
    <tag k="smoothness" v="good"/>
    <tag k="surface" v="asphalt"/>
  </way>
  <way id="4262232" version="14" timestamp="2024-12-08T17:56:13Z" changeset="160065477" uid="17119645" user="dmlls">
    <nd ref="25576849"/>
    <nd ref="10101081612"/>
    <nd ref="12405178275"/>
    <nd ref="12405178274"/>
    <nd ref="3588013141"/>
    <nd ref="6730035"/>
    <tag k="highway" v="residential"/>
    <tag k="lit" v="yes"/>
    <tag k="maxspeed" v="30"/>
    <tag k="name" v="Schellingstraße"/>
    <tag k="name:etymology:wikidata" v="Q60070"/>
    <tag k="parking:lane:both" v="parallel"/>
    <tag k="sidewalk:both" v="separate"/>
    <tag k="surface" v="asphalt"/>
  </way>
  <way id="4519931" version="20" timestamp="2024-04-21T18:04:00Z" changeset="150310625" uid="20785072" user="Herbart1906">
    <nd ref="1839230887"/>
    <nd ref="1372082537"/>
    <nd ref="2858922136"/>
    <nd ref="4532532537"/>
    <nd ref="2858922128"/>
    <nd ref="3586813386"/>
    <nd ref="27479686"/>
    <nd ref="3586792915"/>
    <nd ref="27735977"/>
    <nd ref="3646441141"/>
    <nd ref="1078797643"/>
    <nd ref="1955530"/>
    <tag k="highway" v="residential"/>
    <tag k="lit" v="yes"/>
    <tag k="maxspeed" v="30"/>
    <tag k="name" v="Adelheidstraße"/>
    <tag k="name:etymology:wikidata" v="Q242928"/>
    <tag k="oneway" v="yes"/>
    <tag k="parking:both" v="street_side"/>
    <tag k="parking:both:orientation" v="parallel"/>
    <tag k="sidewalk" v="both"/>
    <tag k="smoothness" v="excellent"/>
    <tag k="surface" v="asphalt"/>
  </way>
  <way id="4645391" version="17" timestamp="2025-03-22T20:41:43Z" changeset="163963753" uid="44217" user="kjon">
    <nd ref="1954396"/>
    <nd ref="8748885644"/>
    <nd ref="3953738571"/>
    <nd ref="8748885650"/>
    <nd ref="21457467"/>
    <tag k="cycleway:both" v="no"/>
    <tag k="highway" v="residential"/>
    <tag k="lane_markings" v="no"/>
    <tag k="lit" v="yes"/>
    <tag k="maxspeed" v="50"/>
    <tag k="name" v="Enhuberstraße"/>
    <tag k="name:etymology:wikidata" v="Q878141"/>
    <tag k="parking:both" v="yes"/>
    <tag k="parking:both:orientation" v="parallel"/>
    <tag k="sidewalk:both" v="separate"/>
    <tag k="source:maxspeed" v="DE:urban"/>
    <tag k="surface" v="asphalt"/>
  </way>
  <way id="4645397" version="16" timestamp="2024-04-20T14:41:27Z" changeset="150266474" uid="20785072" user="Herbart1906">
    <nd ref="27487411"/>
    <nd ref="8748896728"/>
    <nd ref="3646441140"/>
    <nd ref="1493112891"/>
    <nd ref="27487410"/>
    <tag k="highway" v="residential"/>
    <tag k="lit" v="yes"/>
    <tag k="maxspeed" v="30"/>
    <tag k="name" v="Zentnerstraße"/>
    <tag k="name:etymology:wikidata" v="Q215642"/>
    <tag k="sidewalk:left" v="separate"/>
    <tag k="sidewalk:right" v="yes"/>
    <tag k="sidewalk:right:surface" v="paving_stones"/>
    <tag k="smoothness" v="excellent"/>
    <tag k="source:width" v="ARCore"/>
    <tag k="surface" v="asphalt"/>
    <tag k="width" v="7.9"/>
  </way>
  <way id="4645398" version="17" timestamp="2023-10-28T15:41:56Z" changeset="143268904" uid="6285042" user="Biclmont">
    <nd ref="315667013"/>
    <nd ref="8748896829"/>
    <nd ref="3946157840"/>
    <tag k="class:bicycle" v="-2"/>
    <tag k="class:bicycle:non_experienced" v="-2"/>
    <tag k="highway" v="residential"/>
    <tag k="lit" v="yes"/>
    <tag k="maxspeed" v="30"/>
    <tag k="name" v="Luisenstraße"/>
    <tag k="name:etymology:wikidata" v="Q57531"/>
    <tag k="sidewalk:both" v="separate"/>
    <tag k="sidewalk:both:surface" v="paving_stones"/>
    <tag k="smoothness" v="excellent"/>
    <tag k="surface" v="asphalt"/>
  </way>
  <way id="4645399" version="19" timestamp="2025-03-31T14:16:53Z" changeset="164332891" uid="170763" user="SoulCover">
    <nd ref="1954403"/>
    <nd ref="8748896798"/>
    <nd ref="2898191902"/>
    <tag k="highway" v="residential"/>
    <tag k="lit" v="yes"/>
    <tag k="maxspeed" v="30"/>
    <tag k="name" v="Steinickeweg"/>
    <tag k="name:etymology:wikidata" v="Q1038257"/>
    <tag k="oneway" v="yes"/>
    <tag k="oneway:bicycle" v="no"/>
    <tag k="sidewalk" v="both"/>
    <tag k="sidewalk:both:surface" v="paving_stones"/>
    <tag k="smoothness" v="intermediate"/>
    <tag k="source:width" v="ARCore"/>
    <tag k="surface" v="asphalt"/>
    <tag k="width" v="6.1"/>
  </way>
  <way id="8426244" version="18" timestamp="2024-10-16T10:02:10Z" changeset="157956809" uid="137242" user="Rainero">
    <nd ref="27479712"/>
    <nd ref="1420302731"/>
    <nd ref="28092478"/>
    <tag k="highway" v="residential"/>
    <tag k="lit" v="yes"/>
    <tag k="maxspeed" v="30"/>
    <tag k="name" v="Josephsplatz"/>
    <tag k="oneway" v="yes"/>
    <tag k="oneway:bicycle" v="no"/>
    <tag k="parking:left" v="no"/>
    <tag k="parking:right" v="lane"/>
    <tag k="parking:right:orientation" v="parallel"/>
    <tag k="sidewalk" v="both"/>
    <tag k="sidewalk:both:surface" v="paving_stones"/>
    <tag k="smoothness" v="excellent"/>
    <tag k="source:width" v="ARCore"/>
    <tag k="surface" v="asphalt"/>
    <tag k="width" v="5.5"/>
  </way>
  <way id="8426245" version="19" timestamp="2025-03-22T21:16:15Z" changeset="163964538" uid="44217" user="kjon">
    <nd ref="1839230887"/>
    <nd ref="11113599631"/>
    <nd ref="1145374431"/>
    <nd ref="4523700354"/>
    <nd ref="27479712"/>
    <tag k="cycleway:both" v="no"/>
    <tag k="highway" v="residential"/>
    <tag k="lit" v="yes"/>
    <tag k="maxspeed" v="30"/>
    <tag k="name" v="Adelheidstraße"/>
    <tag k="oneway" v="yes"/>
    <tag k="oneway:bicycle" v="no"/>
    <tag k="parking:both" v="street_side"/>
    <tag k="parking:both:orientation" v="parallel"/>
    <tag k="sidewalk" v="both"/>
    <tag k="sidewalk:both:surface" v="paving_stones"/>
    <tag k="source:width" v="ARCore"/>
    <tag k="surface" v="asphalt"/>
    <tag k="width" v="6.3"/>
  </way>
  <way id="16786171" version="20" timestamp="2024-08-14T19:05:54Z" changeset="155255800" uid="14742734" user="The_Nickname">
    <nd ref="25576850"/>
    <nd ref="4322460089"/>
    <nd ref="4475024850"/>
    <nd ref="950634156"/>
    <nd ref="1972874111"/>
    <tag k="class:bicycle" v="1"/>
    <tag k="cycleway:both" v="no"/>
    <tag k="highway" v="residential"/>
    <tag k="lit" v="yes"/>
    <tag k="maxspeed" v="30"/>
    <tag k="name" v="Heßstraße"/>
    <tag k="oneway" v="yes"/>
    <tag k="oneway:bicycle" v="no"/>
    <tag k="sidewalk:both" v="separate"/>
    <tag k="smoothness" v="good"/>
    <tag k="surface" v="asphalt"/>
    <tag k="width" v="9"/>
  </way>
  <way id="16786175" version="23" timestamp="2025-03-31T09:16:44Z" changeset="164319938" uid="22537807" user="CityMappingSuperhero">
    <nd ref="4972204765"/>
    <nd ref="12715535147"/>
    <nd ref="11608532258"/>
    <nd ref="1145376460"/>
    <nd ref="7165842423"/>
    <nd ref="8748896796"/>
    <nd ref="1954400"/>
    <tag k="class:bicycle" v="1"/>
    <tag k="cycleway:both" v="separate"/>
    <tag k="foot" v="use_sidepath"/>
    <tag k="highway" v="residential"/>
    <tag k="lit" v="yes"/>
    <tag k="maxspeed" v="30"/>
    <tag k="name" v="Augustenstraße"/>
    <tag k="name:etymology:wikidata" v="Q232155"/>
    <tag k="sidewalk:both" v="separate"/>
    <tag k="smoothness" v="good"/>
    <tag k="surface" v="asphalt"/>
    <tag k="width" v="9"/>
  </way>
  <way id="16786179" version="39" timestamp="2025-03-22T20:41:43Z" changeset="163963753" uid="44217" user="kjon">
    <nd ref="1954400"/>
    <nd ref="1362751409"/>
    <nd ref="2440498757"/>
    <nd ref="2836367314"/>
    <nd ref="1954403"/>
    <nd ref="8748896834"/>
    <nd ref="315667013"/>
    <nd ref="8748896836"/>
    <nd ref="2836367318"/>
    <nd ref="2836367313"/>
    <nd ref="12401100453"/>
    <nd ref="8057974437"/>
    <nd ref="8132043575"/>
    <nd ref="639077142"/>
    <nd ref="922831058"/>
    <nd ref="83870461"/>
    <tag k="class:bicycle" v="1"/>
    <tag k="cycleway:both" v="no"/>
    <tag k="highway" v="residential"/>
    <tag k="lanes" v="1"/>
    <tag k="lit" v="yes"/>
    <tag k="maxspeed" v="30"/>
    <tag k="name" v="Heßstraße"/>
    <tag k="oneway" v="yes"/>
    <tag k="oneway:bicycle" v="no"/>
    <tag k="parking:both" v="yes"/>
    <tag k="parking:both:orientation" v="parallel"/>
    <tag k="parking:lane:both:parallel" v="parallel"/>
    <tag k="sidewalk:both" v="separate"/>
    <tag k="sidewalk:both:surface" v="paving_stones"/>
    <tag k="smoothness" v="excellent"/>
    <tag k="surface" v="asphalt"/>
    <tag k="width" v="9.0"/>
  </way>
  <way id="16786182" version="19" timestamp="2025-03-22T20:41:43Z" changeset="163963753" uid="44217" user="kjon">
    <nd ref="25576127"/>
    <nd ref="8748896790"/>
    <nd ref="12254739685"/>
    <nd ref="3588013143"/>
    <nd ref="1972874111"/>
    <tag k="class:bicycle" v="1"/>
    <tag k="highway" v="residential"/>
    <tag k="lit" v="yes"/>
    <tag k="maxspeed" v="30"/>
    <tag k="name" v="Heßstraße"/>
    <tag k="oneway" v="yes"/>
    <tag k="oneway:bicycle" v="no"/>
    <tag k="parking:both" v="yes"/>
    <tag k="parking:both:orientation" v="parallel"/>
    <tag k="sidewalk:both" v="separate"/>
    <tag k="smoothness" v="good"/>
    <tag k="surface" v="asphalt"/>
  </way>
  <way id="27822839" version="32" timestamp="2024-04-21T16:57:15Z" changeset="150310625" uid="20785072" user="Herbart1906">
    <nd ref="1955535"/>
    <nd ref="4019702608"/>
    <nd ref="647081880"/>
    <nd ref="647081897"/>
    <nd ref="647081896"/>
    <nd ref="1955504"/>
    <nd ref="1955505"/>
    <nd ref="647081908"/>
    <nd ref="6788465247"/>
    <nd ref="27161285"/>
    <nd ref="6788465248"/>
    <nd ref="3586813593"/>
    <nd ref="21090904"/>
    <nd ref="3586792944"/>
    <nd ref="1041077314"/>
    <nd ref="1955512"/>
    <nd ref="1088755390"/>
    <nd ref="21457585"/>
    <nd ref="1384982960"/>
    <nd ref="1088755358"/>
    <nd ref="8867266359"/>
    <nd ref="10291535069"/>
    <nd ref="21090905"/>
    <nd ref="3556184926"/>
    <nd ref="696983740"/>
    <tag k="bicycle" v="designated"/>
    <tag k="bicycle_road" v="yes"/>
    <tag k="class:bicycle" v="1"/>
    <tag k="highway" v="residential"/>
    <tag k="lane_markings" v="no"/>
    <tag k="lit" v="yes"/>
    <tag k="maxspeed" v="30"/>
    <tag k="name" v="Tengstraße"/>
    <tag k="name:etymology:wikidata" v="Q1351689"/>
    <tag k="parking:both" v="street_side"/>
    <tag k="parking:both:orientation" v="perpendicular"/>
    <tag k="sidewalk" v="separate"/>
    <tag k="smoothness" v="good"/>
    <tag k="source:maxspeed" v="DE:bicycle_road"/>
    <tag k="surface" v="asphalt"/>
    <tag k="traffic_sign" v="DE:244.1"/>
  </way>
  <way id="30199131" version="13" timestamp="2022-09-10T17:40:54Z" changeset="126024631" uid="536583" user="Strubbl">
    <nd ref="27487410"/>
    <nd ref="1362751396"/>
    <nd ref="27487405"/>
    <nd ref="6260372900"/>
    <nd ref="264949872"/>
    <nd ref="3586813599"/>
    <nd ref="27479685"/>
    <tag k="highway" v="residential"/>
    <tag k="lit" v="yes"/>
    <tag k="maxspeed" v="30"/>
    <tag k="name" v="Zentnerstraße"/>
    <tag k="name:etymology:wikidata" v="Q215642"/>
    <tag k="sidewalk" v="separate"/>
    <tag k="surface" v="asphalt"/>
  </way>
  <way id="31095497" version="19" timestamp="2025-05-12T06:50:22Z" changeset="166135854" uid="12254208" user="joe248">
    <nd ref="7247348194"/>
    <nd ref="345557634"/>
    <nd ref="4523700602"/>
    <nd ref="345557616"/>
    <nd ref="3906092203"/>
    <nd ref="3906092202"/>
    <nd ref="345557619"/>
    <nd ref="345557637"/>
    <nd ref="345557643"/>
    <nd ref="345557622"/>
    <nd ref="345557625"/>
    <nd ref="7247348193"/>
    <nd ref="345557640"/>
    <nd ref="345557628"/>
    <nd ref="345557631"/>
    <nd ref="1315456411"/>
    <nd ref="1507750469"/>
    <nd ref="7247348187"/>
    <nd ref="1507750475"/>
    <nd ref="1507750484"/>
    <nd ref="4470194975"/>
    <nd ref="4470194974"/>
    <nd ref="7247348194"/>
    <tag k="amenity" v="place_of_worship"/>
    <tag k="building" v="church"/>
    <tag k="denomination" v="roman_catholic"/>
    <tag k="height" v="28"/>
    <tag k="name" v="St. Joseph"/>
    <tag k="religion" v="christian"/>
    <tag k="roof:colour" v="darkgrey"/>
    <tag k="roof:height" v="8"/>
    <tag k="roof:material" v="roof_tiles"/>
    <tag k="roof:shape" v="gabled"/>
    <tag k="wheelchair" v="yes"/>
    <tag k="wikidata" v="Q872376"/>
    <tag k="wikimedia_commons" v="Category:St. Joseph (Munich)"/>
    <tag k="wikipedia" v="de:St. Joseph (München)"/>
  </way>
  <way id="37280850" version="18" timestamp="2023-08-11T06:57:29Z" changeset="139735932" uid="19842223" user="randomly-generated-name">
    <nd ref="6730035"/>
    <nd ref="8748896733"/>
    <nd ref="7609412880"/>
    <nd ref="11107072500"/>
    <nd ref="11107072504"/>
    <nd ref="11104047582"/>
    <tag k="bicycle" v="yes"/>
    <tag k="class:bicycle" v="-2"/>
    <tag k="cycleway:both" v="lane"/>
    <tag k="cycleway:both:lane" v="advisory"/>
    <tag k="foot" v="use_sidepath"/>
    <tag k="highway" v="secondary"/>
    <tag k="lanes" v="2"/>
    <tag k="lit" v="yes"/>
    <tag k="maxspeed" v="50"/>
    <tag k="name" v="Schleißheimer Straße"/>
    <tag k="sidewalk:both" v="separate"/>
    <tag k="surface" v="asphalt"/>
  </way>
  <way id="37280852" version="19" timestamp="2023-11-04T22:53:18Z" changeset="143631807" uid="6285042" user="Biclmont">
    <nd ref="3184231757"/>
    <nd ref="1041093294"/>
    <nd ref="3588013149"/>
    <nd ref="11104047582"/>
    <tag k="class:bicycle" v="1"/>
    <tag k="highway" v="residential"/>
    <tag k="lit" v="yes"/>
    <tag k="maxspeed" v="30"/>
    <tag k="name" v="Görresstraße"/>
    <tag k="name:etymology:wikidata" v="Q215730"/>
    <tag k="parking:lane:right" v="no_stopping"/>
    <tag k="sidewalk:both" v="separate"/>
    <tag k="smoothness" v="excellent"/>
    <tag k="source:maxspeed" v="DE:zone30"/>
    <tag k="surface" v="asphalt"/>
  </way>
  <way id="39321855" version="16" timestamp="2025-05-09T11:40:54Z" changeset="166023995" uid="18850925" user="cableway">
    <nd ref="7983342"/>
    <nd ref="1362751390"/>
    <nd ref="6730036"/>
    <nd ref="241777296"/>
    <nd ref="27487411"/>
    <nd ref="3588013156"/>
    <nd ref="6730035"/>
    <tag k="class:bicycle" v="-1"/>
    <tag k="cycleway:both" v="no"/>
    <tag k="highway" v="residential"/>
    <tag k="lanes" v="2"/>
    <tag k="lit" v="yes"/>
    <tag k="maxspeed" v="30"/>
    <tag k="name" v="Schellingstraße"/>
    <tag k="name:etymology:wikidata" v="Q60070"/>
    <tag k="parking:both" v="yes"/>
    <tag k="parking:both:orientation" v="parallel"/>
    <tag k="sidewalk:both" v="separate"/>
    <tag k="smoothness" v="excellent"/>
    <tag k="surface" v="asphalt"/>
  </way>
  <way id="39321856" version="12" timestamp="2025-03-22T20:41:43Z" changeset="163963753" uid="44217" user="kjon">
    <nd ref="7983342"/>
    <nd ref="6730038"/>
    <nd ref="1493112888"/>
    <nd ref="1954405"/>
    <tag k="cycleway:both" v="separate"/>
    <tag k="foot" v="use_sidepath"/>
    <tag k="highway" v="residential"/>
    <tag k="lit" v="yes"/>
    <tag k="maxspeed" v="30"/>
    <tag k="name" v="Augustenstraße"/>
    <tag k="name:etymology:wikidata" v="Q232155"/>
    <tag k="parking:lane:left:perpendicular" v="street_side"/>
    <tag k="parking:lane:right:parallel" v="street_side"/>
    <tag k="parking:left" v="yes"/>
    <tag k="parking:left:orientation" v="perpendicular"/>
    <tag k="parking:right" v="yes"/>
    <tag k="parking:right:orientation" v="parallel"/>
    <tag k="sidewalk:both" v="separate"/>
    <tag k="surface" v="asphalt"/>
  </way>
  <way id="39322008" version="18" timestamp="2024-04-21T18:18:00Z" changeset="150313736" uid="20785072" user="Herbart1906">
    <nd ref="4264311482"/>
    <nd ref="1362826059"/>
    <tag k="cycleway:both" v="no"/>
    <tag k="foot" v="use_sidepath"/>
    <tag k="highway" v="residential"/>
    <tag k="lit" v="yes"/>
    <tag k="maxspeed" v="30"/>
    <tag k="name" v="Augustenstraße"/>
    <tag k="name:etymology:wikidata" v="Q232155"/>
    <tag k="parking:left" v="no"/>
    <tag k="parking:right" v="street_side"/>
    <tag k="parking:right:orientation" v="perpendicular"/>
    <tag k="sidewalk" v="both"/>
    <tag k="sidewalk:both:surface" v="asphalt"/>
    <tag k="smoothness" v="good"/>
    <tag k="surface" v="asphalt"/>
    <tag k="width" v="6.7"/>
  </way>
  <way id="39322009" version="32" timestamp="2024-04-21T18:17:28Z" changeset="150313736" uid="20785072" user="Herbart1906">
    <nd ref="1954405"/>
    <nd ref="1362751393"/>
    <nd ref="1145374437"/>
    <nd ref="471102019"/>
    <nd ref="3811913158"/>
    <nd ref="4523700384"/>
    <nd ref="1955534"/>
    <nd ref="1954408"/>
    <nd ref="1493112890"/>
    <nd ref="2789251797"/>
    <nd ref="265279893"/>
    <nd ref="4529827573"/>
    <nd ref="27487410"/>
    <nd ref="4529827575"/>
    <nd ref="4825239743"/>
    <nd ref="4825239746"/>
    <nd ref="471102023"/>
    <nd ref="3811913057"/>
    <nd ref="11107072502"/>
    <nd ref="11107106309"/>
    <nd ref="11104047582"/>
    <tag k="class:bicycle" v="1"/>
    <tag k="cycleway:both" v="separate"/>
    <tag k="foot" v="use_sidepath"/>
    <tag k="highway" v="residential"/>
    <tag k="lit" v="yes"/>
    <tag k="maxspeed" v="30"/>
    <tag k="name" v="Görresstraße"/>
    <tag k="name:etymology:wikidata" v="Q215730"/>
    <tag k="parking:both" v="street_side"/>
    <tag k="parking:both:orientation" v="parallel"/>
    <tag k="sidewalk:both" v="separate"/>
    <tag k="smoothness" v="good"/>
    <tag k="source:width" v="ARCore"/>
    <tag k="surface" v="asphalt"/>
    <tag k="width" v="6.7"/>
  </way>
  <way id="40317921" version="20" timestamp="2025-03-31T09:16:44Z" changeset="164319938" uid="22537807" user="CityMappingSuperhero">
    <nd ref="345553442"/>
    <nd ref="12715535138"/>
    <nd ref="8748896839"/>
    <nd ref="1660679578"/>
    <nd ref="8748896835"/>
    <nd ref="315667013"/>
    <tag k="class:bicycle" v="-2"/>
    <tag k="class:bicycle:non_experienced" v="-2"/>
    <tag k="cycleway" v="designated"/>
    <tag k="highway" v="residential"/>
    <tag k="lit" v="yes"/>
    <tag k="maxspeed" v="30"/>
    <tag k="name" v="Luisenstraße"/>
    <tag k="name:etymology:wikidata" v="Q57531"/>
    <tag k="sidewalk:both" v="separate"/>
    <tag k="sidewalk:both:surface" v="paving_stones"/>
    <tag k="smoothness" v="excellent"/>
    <tag k="surface" v="asphalt"/>
    <tag k="width" v="11.2"/>
  </way>
  <way id="40526212" version="4" timestamp="2021-12-14T08:17:04Z" changeset="114911461" uid="78613" user="heilbron">
    <nd ref="1317214741"/>
    <nd ref="1317214540"/>
    <nd ref="1317215675"/>
    <nd ref="1317214608"/>
    <nd ref="1317214741"/>
    <tag k="addr:city" v="München"/>
    <tag k="addr:country" v="DE"/>
    <tag k="addr:housenumber" v="23"/>
    <tag k="addr:postcode" v="80798"/>
    <tag k="addr:street" v="Heßstraße"/>
    <tag k="building" v="apartments"/>
  </way>
  <way id="53530910" version="13" timestamp="2024-10-05T14:32:36Z" changeset="157504012" uid="6544565" user="Flarm">
    <nd ref="20835174"/>
    <nd ref="658546081"/>
    <nd ref="1955500"/>
    <tag k="class:bicycle" v="1"/>
    <tag k="cycleway:both" v="no"/>
    <tag k="highway" v="residential"/>
    <tag k="lane_markings" v="no"/>
    <tag k="lanes" v="2"/>
    <tag k="lit" v="yes"/>
    <tag k="maxspeed" v="30"/>
    <tag k="name" v="Zieblandstraße"/>
    <tag k="name:etymology:wikidata" v="Q84473"/>
    <tag k="sidewalk" v="both"/>
    <tag k="sidewalk:both:surface" v="paving_stones"/>
    <tag k="smoothness" v="excellent"/>
    <tag k="surface" v="asphalt"/>
  </way>
  <way id="53791996" version="9" timestamp="2025-04-16T08:24:54Z" changeset="165016624" uid="11816441" user="CommanderStorm">
    <nd ref="679057538"/>
    <nd ref="679057536"/>
    <nd ref="4395948768"/>
    <nd ref="679057540"/>
    <nd ref="4395948769"/>
    <nd ref="679057537"/>
    <nd ref="1447070682"/>
    <nd ref="12759209292"/>
    <nd ref="679057538"/>
    <tag k="addr:city" v="München"/>
    <tag k="addr:housenumber" v="4"/>
    <tag k="addr:postcode" v="80798"/>
    <tag k="addr:street" v="Steinickeweg"/>
    <tag k="building" v="apartments"/>
    <tag k="building:levels" v="5"/>
    <tag k="loc_name" v="Oek-Heim"/>
    <tag k="name" v="Ökumenisches Studentenwohnheim"/>
    <tag k="phone" v="+49 89 526626"/>
    <tag k="roof:levels" v="0"/>
  </way>
  <way id="89840548" version="17" timestamp="2024-04-21T17:02:40Z" changeset="150310873" uid="20785072" user="Herbart1906">
    <nd ref="7983325"/>
    <nd ref="1679831965"/>
    <nd ref="7983327"/>
    <nd ref="922879371"/>
    <nd ref="1955506"/>
    <nd ref="922831085"/>
    <nd ref="3906092204"/>
    <nd ref="3475248906"/>
    <nd ref="3475248907"/>
    <nd ref="2440534878"/>
    <nd ref="1088755403"/>
    <nd ref="1088755528"/>
    <nd ref="1955505"/>
    <tag k="cycleway:both" v="no"/>
    <tag k="highway" v="residential"/>
    <tag k="lanes" v="2"/>
    <tag k="lit" v="yes"/>
    <tag k="maxspeed" v="30"/>
    <tag k="name" v="Neureutherstraße"/>
    <tag k="name:etymology:wikidata" v="Q318886"/>
    <tag k="parking:both" v="lane"/>
    <tag k="parking:both:orientation" v="parallel"/>
    <tag k="sidewalk" v="both"/>
    <tag k="sidewalk:both:surface" v="paving_stones"/>
    <tag k="smoothness" v="excellent"/>
    <tag k="surface" v="asphalt"/>
  </way>
  <way id="93195119" version="13" timestamp="2025-05-09T11:40:54Z" changeset="166023995" uid="18850925" user="cableway">
    <nd ref="1954400"/>
    <nd ref="8748896797"/>
    <nd ref="6391813739"/>
    <nd ref="7983342"/>
    <tag k="cycleway:both" v="separate"/>
    <tag k="foot" v="use_sidepath"/>
    <tag k="highway" v="residential"/>
    <tag k="lit" v="yes"/>
    <tag k="maxspeed" v="30"/>
    <tag k="name" v="Augustenstraße"/>
    <tag k="name:etymology:wikidata" v="Q232155"/>
    <tag k="parking:left" v="yes"/>
    <tag k="parking:left:orientation" v="perpendicular"/>
    <tag k="parking:right" v="yes"/>
    <tag k="parking:right:orientation" v="parallel"/>
    <tag k="sidewalk:both" v="separate"/>
    <tag k="smoothness" v="good"/>
    <tag k="surface" v="asphalt"/>
  </way>
  <way id="96113985" version="6" timestamp="2022-03-14T06:56:18Z" changeset="118455998" uid="78613" user="heilbron">
    <nd ref="491533840"/>
    <nd ref="491533848"/>
    <nd ref="1113634949"/>
    <nd ref="1113634358"/>
    <nd ref="7247348128"/>
    <nd ref="491533840"/>
    <tag k="addr:housenumber" v="71"/>
    <tag k="addr:street" v="Luisenstraße"/>
    <tag k="building" v="apartments"/>
    <tag k="roof:shape" v="gabled"/>
  </way>
  <way id="96114027" version="6" timestamp="2022-11-06T16:36:40Z" changeset="128562564" uid="1476473" user="HenryV">
    <nd ref="1113635079"/>
    <nd ref="1113635003"/>
    <nd ref="1113634700"/>
    <nd ref="2440498774"/>
    <nd ref="1113634458"/>
    <nd ref="1113635079"/>
    <tag k="addr:housenumber" v="101"/>
    <tag k="addr:street" v="Schellingstraße"/>
    <tag k="building" v="apartments"/>
    <tag k="roof:shape" v="gabled"/>
  </way>
  <way id="96227862" version="5" timestamp="2021-11-01T14:58:35Z" changeset="113239351" uid="78613" user="heilbron">
    <nd ref="1115427454"/>
    <nd ref="1115427427"/>
    <nd ref="1115427208"/>
    <nd ref="1115427050"/>
    <nd ref="1115427454"/>
    <tag k="addr:housenumber" v="26"/>
    <tag k="addr:street" v="Winzererstraße"/>
    <tag k="building" v="apartments"/>
  </way>
  <way id="96227864" version="6" timestamp="2018-08-31T07:46:40Z" changeset="62162403" uid="21088" user="fpletz">
    <nd ref="1115427093"/>
    <nd ref="1115427389"/>
    <nd ref="1115427388"/>
    <nd ref="1115427075"/>
    <nd ref="1115427062"/>
    <nd ref="1115427426"/>
    <nd ref="1115427334"/>
    <nd ref="1115427457"/>
    <nd ref="1115427082"/>
    <nd ref="1115427199"/>
    <nd ref="1115427024"/>
    <nd ref="1115426973"/>
    <nd ref="1115427352"/>
    <nd ref="1115427093"/>
    <tag k="addr:city" v="München"/>
    <tag k="addr:country" v="DE"/>
    <tag k="addr:housenumber" v="47"/>
    <tag k="addr:postcode" v="80797"/>
    <tag k="addr:street" v="Schleißheimer Straße"/>
    <tag k="building" v="apartments"/>
  </way>
  <way id="96227869" version="7" timestamp="2025-01-02T20:19:50Z" changeset="160924736" uid="47978" user="Christoph Lotz">
    <nd ref="1115427002"/>
    <nd ref="4825725158"/>
    <nd ref="6139650018"/>
    <nd ref="1115427158"/>
    <nd ref="1115427167"/>
    <nd ref="1115427145"/>
    <nd ref="1115427134"/>
    <nd ref="1115427206"/>
    <nd ref="319747203"/>
    <nd ref="5113635252"/>
    <nd ref="1115427002"/>
    <tag k="addr:country" v="DE"/>
    <tag k="addr:housenumber" v="90"/>
    <tag k="addr:street" v="Heßstraße"/>
    <tag k="building" v="apartments"/>
    <tag k="building:levels" v="5"/>
  </way>
  <way id="96227877" version="8" timestamp="2022-08-22T18:03:31Z" changeset="125235335" uid="11378139" user="Rattletat">
    <nd ref="4322460186"/>
    <nd ref="1115427274"/>
    <nd ref="1115427369"/>
    <nd ref="1115427015"/>
    <nd ref="6260372905"/>
    <nd ref="1115427495"/>
    <nd ref="1115427245"/>
    <nd ref="4322460186"/>
    <tag k="addr:housenumber" v="100"/>
    <tag k="addr:street" v="Heßstraße"/>
    <tag k="building" v="apartments"/>
    <tag k="building:levels" v="5"/>
    <tag k="roof:levels" v="1"/>
  </way>
  <way id="96227879" version="7" timestamp="2018-08-31T07:46:33Z" changeset="62162403" uid="21088" user="fpletz">
    <nd ref="1115427082"/>
    <nd ref="1115427199"/>
    <nd ref="1115427309"/>
    <nd ref="1115427271"/>
    <nd ref="1115427112"/>
    <nd ref="1115427301"/>
    <nd ref="1115427227"/>
    <nd ref="1115427385"/>
    <nd ref="1115427464"/>
    <nd ref="1115427344"/>
    <nd ref="1115427082"/>
    <tag k="addr:city" v="München"/>
    <tag k="addr:country" v="DE"/>
    <tag k="addr:housenumber" v="45"/>
    <tag k="addr:postcode" v="80797"/>
    <tag k="addr:street" v="Schleißheimer Straße"/>
    <tag k="building" v="apartments"/>
  </way>
  <way id="96227881" version="8" timestamp="2025-01-02T20:19:50Z" changeset="160924736" uid="47978" user="Christoph Lotz">
    <nd ref="1115427214"/>
    <nd ref="1115427000"/>
    <nd ref="1115427171"/>
    <nd ref="1115427109"/>
    <nd ref="1115426978"/>
    <nd ref="1115426975"/>
    <nd ref="1115427214"/>
    <tag k="addr:country" v="DE"/>
    <tag k="addr:housenumber" v="94"/>
    <tag k="addr:street" v="Heßstraße"/>
    <tag k="building" v="apartments"/>
    <tag k="building:colour" v="#ffe0a0"/>
    <tag k="building:levels" v="4"/>
    <tag k="roof:levels" v="1"/>
  </way>
  <way id="96227887" version="7" timestamp="2021-11-01T14:58:36Z" changeset="113239351" uid="78613" user="heilbron">
    <nd ref="1115427233"/>
    <nd ref="1115427037"/>
    <nd ref="1115427347"/>
    <nd ref="1115427012"/>
    <nd ref="1115427379"/>
    <nd ref="1115427051"/>
    <nd ref="1115427287"/>
    <nd ref="1115427035"/>
    <nd ref="1115427160"/>
    <nd ref="1115427245"/>
    <nd ref="1115427495"/>
    <nd ref="1115427233"/>
    <tag k="addr:housenumber" v="22"/>
    <tag k="addr:street" v="Winzererstraße"/>
    <tag k="building" v="apartments"/>
  </way>
  <way id="96227888" version="7" timestamp="2022-08-22T18:02:59Z" changeset="125235335" uid="11378139" user="Rattletat">
    <nd ref="1115427369"/>
    <nd ref="1115427242"/>
    <nd ref="1115426991"/>
    <nd ref="1115427299"/>
    <nd ref="1115427115"/>
    <nd ref="1115427281"/>
    <nd ref="1115427274"/>
    <nd ref="1115427369"/>
    <tag k="addr:housenumber" v="98"/>
    <tag k="addr:street" v="Heßstraße"/>
    <tag k="building" v="apartments"/>
    <tag k="building:levels" v="5"/>
    <tag k="roof:levels" v="1"/>
  </way>
  <way id="96227899" version="6" timestamp="2021-11-01T14:58:35Z" changeset="113239351" uid="78613" user="heilbron">
    <nd ref="1115427233"/>
    <nd ref="1115427427"/>
    <nd ref="1115427454"/>
    <nd ref="1372082422"/>
    <nd ref="1115427037"/>
    <nd ref="1115427233"/>
    <tag k="addr:housenumber" v="24"/>
    <tag k="addr:street" v="Winzererstraße"/>
    <tag k="building" v="apartments"/>
  </way>
  <way id="96227901" version="7" timestamp="2023-09-27T18:08:53Z" changeset="141832327" uid="19991561" user="DasKaesebrot">
    <nd ref="1115427010"/>
    <nd ref="1115427158"/>
    <nd ref="1115427167"/>
    <nd ref="1115427055"/>
    <nd ref="1115427117"/>
    <nd ref="1115427449"/>
    <nd ref="1115427354"/>
    <nd ref="1115427450"/>
    <nd ref="1115427411"/>
    <nd ref="1115426977"/>
    <nd ref="1115427105"/>
    <nd ref="1115427010"/>
    <tag k="addr:city" v="München"/>
    <tag k="addr:country" v="DE"/>
    <tag k="addr:housenumber" v="41"/>
    <tag k="addr:postcode" v="80797"/>
    <tag k="addr:street" v="Schleißheimer Straße"/>
    <tag k="building" v="apartments"/>
    <tag k="building:levels" v="5"/>
    <tag k="roof:levels" v="1"/>
  </way>
  <way id="96227904" version="7" timestamp="2025-01-02T20:19:50Z" changeset="160924736" uid="47978" user="Christoph Lotz">
    <nd ref="1115427057"/>
    <nd ref="1115427171"/>
    <nd ref="1115427109"/>
    <nd ref="1115427422"/>
    <nd ref="1115427085"/>
    <nd ref="1115427027"/>
    <nd ref="1115427123"/>
    <nd ref="1115427180"/>
    <nd ref="1115427110"/>
    <nd ref="1115427057"/>
    <tag k="addr:country" v="DE"/>
    <tag k="addr:housenumber" v="92"/>
    <tag k="addr:street" v="Heßstraße"/>
    <tag k="building" v="apartments"/>
    <tag k="building:levels" v="4"/>
    <tag k="roof:levels" v="1"/>
  </way>
  <way id="96227907" version="8" timestamp="2025-01-02T20:19:50Z" changeset="160924736" uid="47978" user="Christoph Lotz">
    <nd ref="1115427284"/>
    <nd ref="1115427000"/>
    <nd ref="1115427214"/>
    <nd ref="1115427173"/>
    <nd ref="1115427491"/>
    <nd ref="1115427176"/>
    <nd ref="1115427007"/>
    <nd ref="1115427135"/>
    <nd ref="1115427284"/>
    <tag k="addr:country" v="DE"/>
    <tag k="addr:housenumber" v="96"/>
    <tag k="addr:street" v="Heßstraße"/>
    <tag k="building" v="apartments"/>
    <tag k="building:levels" v="4"/>
    <tag k="roof:levels" v="1"/>
  </way>
  <way id="96227910" version="6" timestamp="2018-08-31T07:46:28Z" changeset="62162403" uid="21088" user="fpletz">
    <nd ref="1115427344"/>
    <nd ref="1115427010"/>
    <nd ref="1115427105"/>
    <nd ref="1115427132"/>
    <nd ref="1115427279"/>
    <nd ref="1115427450"/>
    <nd ref="1115427354"/>
    <nd ref="1115427497"/>
    <nd ref="1115427088"/>
    <nd ref="1115427261"/>
    <nd ref="1115427137"/>
    <nd ref="1115427431"/>
    <nd ref="1115427464"/>
    <nd ref="1115427344"/>
    <tag k="addr:city" v="München"/>
    <tag k="addr:country" v="DE"/>
    <tag k="addr:housenumber" v="43"/>
    <tag k="addr:postcode" v="80797"/>
    <tag k="addr:street" v="Schleißheimer Straße"/>
    <tag k="building" v="apartments"/>
  </way>
  <way id="96423933" version="8" timestamp="2025-01-02T20:19:50Z" changeset="160924736" uid="47978" user="Christoph Lotz">
    <nd ref="1117397115"/>
    <nd ref="1117397111"/>
    <nd ref="1117397121"/>
    <nd ref="1117397118"/>
    <nd ref="1117397115"/>
    <tag k="addr:country" v="DE"/>
    <tag k="addr:housenumber" v="90"/>
    <tag k="addr:street" v="Heßstraße"/>
    <tag k="building" v="shed"/>
    <tag k="building:levels" v="1"/>
    <tag k="roof:levels" v="1"/>
    <tag k="roof:shape" v="hipped"/>
  </way>
  <way id="104019512" version="4" timestamp="2018-08-31T07:46:03Z" changeset="62162403" uid="21088" user="fpletz">
    <nd ref="1200453040"/>
    <nd ref="1200452832"/>
    <nd ref="1200453215"/>
    <nd ref="1200452769"/>
    <nd ref="1200453136"/>
    <nd ref="1200452953"/>
    <nd ref="1200453040"/>
    <tag k="addr:city" v="München"/>
    <tag k="addr:country" v="DE"/>
    <tag k="addr:housenumber" v="80"/>
    <tag k="addr:postcode" v="80797"/>
    <tag k="addr:street" v="Schleißheimer Straße"/>
    <tag k="building" v="apartments"/>
  </way>
  <way id="104019515" version="5" timestamp="2023-08-12T21:52:41Z" changeset="139803652" uid="1717726" user="UKausch">
    <nd ref="1200452969"/>
    <nd ref="1200453059"/>
    <nd ref="1200453358"/>
    <nd ref="1200453031"/>
    <nd ref="1200453233"/>
    <nd ref="1200452662"/>
    <nd ref="1200452610"/>
    <nd ref="1200452969"/>
    <tag k="addr:housenumber" v="129"/>
    <tag k="addr:postcode" v="80798"/>
    <tag k="addr:street" v="Schellingstraße"/>
    <tag k="building" v="apartments"/>
    <tag k="building:levels" v="4"/>
    <tag k="roof:shape" v="mansard"/>
  </way>
  <way id="104019519" version="5" timestamp="2022-08-23T14:55:57Z" changeset="125275933" uid="11378139" user="Rattletat">
    <nd ref="1200453331"/>
    <nd ref="1200452921"/>
    <nd ref="1200452952"/>
    <nd ref="1200453085"/>
    <nd ref="1200453331"/>
    <tag k="addr:housenumber" v="80"/>
    <tag k="addr:postcode" v="80798"/>
    <tag k="addr:street" v="Heßstraße"/>
    <tag k="building" v="apartments"/>
    <tag k="building:levels" v="4"/>
    <tag k="roof:levels" v="1"/>
    <tag k="wikidata" v="Q41180687"/>
  </way>
  <way id="104019522" version="7" timestamp="2025-01-02T20:19:50Z" changeset="160924736" uid="47978" user="Christoph Lotz">
    <nd ref="1200453273"/>
    <nd ref="1200452669"/>
    <nd ref="1200452977"/>
    <nd ref="1200452718"/>
    <nd ref="1200453273"/>
    <tag k="addr:country" v="DE"/>
    <tag k="addr:housenumber" v="86"/>
    <tag k="addr:postcode" v="80798"/>
    <tag k="addr:street" v="Heßstraße"/>
    <tag k="building" v="apartments"/>
    <tag k="building:levels" v="4"/>
    <tag k="roof:levels" v="1"/>
    <tag k="roof:shape" v="gabled"/>
    <tag k="wikidata" v="Q98643901"/>
  </way>
  <way id="104019528" version="7" timestamp="2024-10-16T10:02:10Z" changeset="157956809" uid="137242" user="Rainero">
    <nd ref="1200452952"/>
    <nd ref="1200453173"/>
    <nd ref="1200453359"/>
    <nd ref="1200453085"/>
    <nd ref="1200452952"/>
    <tag k="addr:city" v="München"/>
    <tag k="addr:housenumber" v="78"/>
    <tag k="addr:postcode" v="80798"/>
    <tag k="addr:street" v="Heßstraße"/>
    <tag k="building" v="apartments"/>
    <tag k="building:levels" v="4"/>
    <tag k="roof:levels" v="1"/>
    <tag k="roof:shape" v="gabled"/>
    <tag k="wikidata" v="Q41180685"/>
  </way>
  <way id="104019530" version="5" timestamp="2022-10-18T15:27:15Z" changeset="127733902" uid="999279" user="mc64">
    <nd ref="1200452516"/>
    <nd ref="1200452537"/>
    <nd ref="1200452948"/>
    <nd ref="1200452955"/>
    <nd ref="1200453063"/>
    <nd ref="1200453283"/>
    <nd ref="1200452516"/>
    <tag k="addr:housenumber" v="9"/>
    <tag k="addr:postcode" v="80798"/>
    <tag k="addr:street" v="Schwindstraße"/>
    <tag k="building" v="apartments"/>
  </way>
  <way id="104019539" version="4" timestamp="2018-08-31T07:45:52Z" changeset="62162403" uid="21088" user="fpletz">
    <nd ref="1200452832"/>
    <nd ref="1200452513"/>
    <nd ref="1200453356"/>
    <nd ref="1200452788"/>
    <nd ref="1200453292"/>
    <nd ref="1200453215"/>
    <nd ref="1200452832"/>
    <tag k="addr:city" v="München"/>
    <tag k="addr:country" v="DE"/>
    <tag k="addr:housenumber" v="78"/>
    <tag k="addr:postcode" v="80797"/>
    <tag k="addr:street" v="Schleißheimer Straße"/>
    <tag k="building" v="apartments"/>
  </way>
  <way id="104019540" version="7" timestamp="2025-01-02T20:19:50Z" changeset="160924736" uid="47978" user="Christoph Lotz">
    <nd ref="1200453027"/>
    <nd ref="1200452669"/>
    <nd ref="1200453273"/>
    <nd ref="1200452758"/>
    <nd ref="1200453000"/>
    <nd ref="1200453275"/>
    <nd ref="1200453027"/>
    <tag k="addr:country" v="DE"/>
    <tag k="addr:housenumber" v="88"/>
    <tag k="addr:postcode" v="80798"/>
    <tag k="addr:street" v="Heßstraße"/>
    <tag k="building" v="apartments"/>
    <tag k="building:levels" v="4"/>
    <tag k="roof:shape" v="double_saltbox"/>
    <tag k="wikidata" v="Q41180695"/>
  </way>
  <way id="104019550" version="5" timestamp="2025-01-02T20:19:50Z" changeset="160924736" uid="47978" user="Christoph Lotz">
    <nd ref="1200452977"/>
    <nd ref="1200453197"/>
    <nd ref="1200452722"/>
    <nd ref="1200452777"/>
    <nd ref="1200452939"/>
    <nd ref="1200452558"/>
    <nd ref="1200452735"/>
    <nd ref="1200452718"/>
    <nd ref="1200452977"/>
    <tag k="addr:country" v="DE"/>
    <tag k="addr:housenumber" v="84"/>
    <tag k="addr:postcode" v="80798"/>
    <tag k="addr:street" v="Heßstraße"/>
    <tag k="building" v="apartments"/>
    <tag k="building:levels" v="5"/>
    <tag k="roof:levels" v="1"/>
  </way>
  <way id="104019551" version="6" timestamp="2024-10-16T10:02:10Z" changeset="157956809" uid="137242" user="Rainero">
    <nd ref="1200453183"/>
    <nd ref="12254739698"/>
    <nd ref="12254739699"/>
    <nd ref="12254739700"/>
    <nd ref="1200452614"/>
    <nd ref="1200453328"/>
    <nd ref="1200453246"/>
    <nd ref="1200453187"/>
    <nd ref="1200453139"/>
    <nd ref="12254739697"/>
    <nd ref="12254739695"/>
    <nd ref="12254739694"/>
    <nd ref="12254739696"/>
    <nd ref="1200453183"/>
    <tag k="addr:housenumber" v="15a"/>
    <tag k="addr:street" v="Schwindstraße"/>
    <tag k="building" v="apartments"/>
  </way>
  <way id="104019552" version="6" timestamp="2024-10-16T10:02:10Z" changeset="157956809" uid="137242" user="Rainero">
    <nd ref="1200453004"/>
    <nd ref="1200453097"/>
    <nd ref="1200452498"/>
    <nd ref="1200452542"/>
    <nd ref="1200453004"/>
    <tag k="addr:city" v="München"/>
    <tag k="addr:housenumber" v="11"/>
    <tag k="addr:postcode" v="80798"/>
    <tag k="addr:street" v="Schwindstraße"/>
    <tag k="building" v="apartments"/>
  </way>
  <way id="104019556" version="5" timestamp="2022-06-27T04:41:23Z" changeset="122887805" uid="78613" user="heilbron">
    <nd ref="1200452513"/>
    <nd ref="1200453275"/>
    <nd ref="1200453000"/>
    <nd ref="1200453356"/>
    <nd ref="1200452513"/>
    <tag k="addr:city" v="München"/>
    <tag k="addr:country" v="DE"/>
    <tag k="addr:housenumber" v="76"/>
    <tag k="addr:postcode" v="80797"/>
    <tag k="addr:street" v="Schleißheimer Straße"/>
    <tag k="building" v="apartments"/>
    <tag k="building:levels" v="4"/>
  </way>
  <way id="104019557" version="9" timestamp="2025-03-09T00:34:33Z" changeset="163383950" uid="1717726" user="UKausch">
    <nd ref="1200453197"/>
    <nd ref="1200452722"/>
    <nd ref="1200453331"/>
    <nd ref="1200452921"/>
    <nd ref="1200453197"/>
    <tag k="addr:city" v="München"/>
    <tag k="addr:country" v="DE"/>
    <tag k="addr:housenumber" v="82"/>
    <tag k="addr:postcode" v="80798"/>
    <tag k="addr:street" v="Heßstraße"/>
    <tag k="architect" v="Werner Wirsing"/>
    <tag k="architect:wikidata" v="Q1298917"/>
    <tag k="architect:wikipedia" v="de:Werner Wirsing"/>
    <tag k="building" v="apartments"/>
    <tag k="building:levels" v="5"/>
    <tag k="note" v="1952-54"/>
    <tag k="roof:levels" v="1"/>
    <tag k="wikidata" v="Q41180690"/>
    <tag k="wikipedia" v="de:Mehrfamilienhaus Heßstraße 82 (München)"/>
  </way>
  <way id="104019563" version="4" timestamp="2018-08-31T07:46:16Z" changeset="62162403" uid="21088" user="fpletz">
    <nd ref="1200453207"/>
    <nd ref="1200453135"/>
    <nd ref="1200452772"/>
    <nd ref="1200453223"/>
    <nd ref="1200452775"/>
    <nd ref="1200453207"/>
    <tag k="addr:city" v="München"/>
    <tag k="addr:country" v="DE"/>
    <tag k="addr:housenumber" v="84"/>
    <tag k="addr:postcode" v="80797"/>
    <tag k="addr:street" v="Schleißheimer Straße"/>
    <tag k="building" v="apartments"/>
  </way>
  <way id="104019569" version="6" timestamp="2024-10-16T10:02:10Z" changeset="157956809" uid="137242" user="Rainero">
    <nd ref="1200452566"/>
    <nd ref="1200452498"/>
    <nd ref="1200452542"/>
    <nd ref="1200452881"/>
    <nd ref="1200452566"/>
    <tag k="addr:city" v="München"/>
    <tag k="addr:housenumber" v="13"/>
    <tag k="addr:postcode" v="80798"/>
    <tag k="addr:street" v="Schwindstraße"/>
    <tag k="building" v="apartments"/>
  </way>
  <way id="104019572" version="6" timestamp="2021-10-31T14:48:21Z" changeset="113196162" uid="7702726" user="d2quadra">
    <nd ref="1200452837"/>
    <nd ref="1200452844"/>
    <nd ref="1200452508"/>
    <nd ref="1200453083"/>
    <nd ref="1200452955"/>
    <nd ref="1200452948"/>
    <nd ref="1200452837"/>
    <tag k="addr:housenumber" v="70"/>
    <tag k="addr:postcode" v="80798"/>
    <tag k="addr:street" v="Heßstraße"/>
    <tag k="building" v="apartments"/>
    <tag k="building:levels" v="5"/>
    <tag k="roof:levels" v="1"/>
  </way>
  <way id="104019579" version="6" timestamp="2018-08-31T07:46:22Z" changeset="62162403" uid="21088" user="fpletz">
    <nd ref="1200452941"/>
    <nd ref="1200453040"/>
    <nd ref="1200452953"/>
    <nd ref="1200490033"/>
    <nd ref="1200490039"/>
    <nd ref="1200453285"/>
    <nd ref="1200453254"/>
    <nd ref="1200452621"/>
    <nd ref="1200453135"/>
    <nd ref="1200452941"/>
    <tag k="addr:city" v="München"/>
    <tag k="addr:country" v="DE"/>
    <tag k="addr:housenumber" v="82"/>
    <tag k="addr:postcode" v="80797"/>
    <tag k="addr:street" v="Schleißheimer Straße"/>
    <tag k="building" v="apartments"/>
  </way>
  <way id="104019581" version="8" timestamp="2021-10-31T14:48:20Z" changeset="113196162" uid="7702726" user="d2quadra">
    <nd ref="1200452562"/>
    <nd ref="1200453317"/>
    <nd ref="1200452873"/>
    <nd ref="1200452508"/>
    <nd ref="1200452844"/>
    <nd ref="1200452562"/>
    <tag k="addr:housenumber" v="72"/>
    <tag k="addr:postcode" v="80798"/>
    <tag k="addr:street" v="Heßstraße"/>
    <tag k="building" v="apartments"/>
    <tag k="building:levels" v="4"/>
    <tag k="roof:levels" v="1"/>
    <tag k="wikidata" v="Q41180682"/>
  </way>
  <way id="104019591" version="2" timestamp="2013-11-02T20:18:02Z" changeset="18682192" uid="72235" user="Basstoelpel">
    <nd ref="1200452858"/>
    <nd ref="1200453269"/>
    <nd ref="1200452834"/>
    <nd ref="1200452910"/>
    <nd ref="1200452996"/>
    <nd ref="1200453067"/>
    <nd ref="1200452858"/>
    <tag k="addr:city" v="München"/>
    <tag k="addr:country" v="DE"/>
    <tag k="addr:housenumber" v="80e"/>
    <tag k="addr:postcode" v="80797"/>
    <tag k="addr:street" v="Schleißheimer Straße"/>
    <tag k="building" v="yes"/>
  </way>
  <way id="104022185" version="5" timestamp="2024-10-16T10:02:10Z" changeset="157956809" uid="137242" user="Rainero">
    <nd ref="1200490035"/>
    <nd ref="1200490026"/>
    <nd ref="1200489998"/>
    <nd ref="1200452846"/>
    <nd ref="1200490037"/>
    <nd ref="1200490035"/>
    <tag k="addr:housenumber" v="129"/>
    <tag k="addr:postcode" v="80798"/>
    <tag k="addr:street" v="Schellingstraße"/>
    <tag k="addr:unit" v="Rückgebäude"/>
    <tag k="building" v="yes"/>
  </way>
  <way id="104175979" version="4" timestamp="2021-12-26T13:34:03Z" changeset="115386640" uid="4974073" user="thom_bike_bln">
    <nd ref="1202075845"/>
    <nd ref="1202075909"/>
    <nd ref="1202075816"/>
    <nd ref="1202076010"/>
    <nd ref="1202076052"/>
    <nd ref="1202075987"/>
    <nd ref="1202075845"/>
    <tag k="addr:housenumber" v="97"/>
    <tag k="addr:street" v="Augustenstraße"/>
    <tag k="building" v="apartments"/>
    <tag k="building:levels" v="6"/>
  </way>
  <way id="104175981" version="4" timestamp="2018-07-19T08:34:45Z" changeset="60862019" uid="2142703" user="jule080393">
    <nd ref="1376072166"/>
    <nd ref="1372082298"/>
    <nd ref="1202076007"/>
    <nd ref="1202075981"/>
    <nd ref="1376072164"/>
    <nd ref="1376072166"/>
    <tag k="addr:housenumber" v="101"/>
    <tag k="addr:street" v="Augustenstraße"/>
    <tag k="building" v="yes"/>
    <tag k="building:levels" v="6"/>
  </way>
  <way id="104175985" version="8" timestamp="2023-09-27T19:13:34Z" changeset="141834759" uid="19991561" user="DasKaesebrot">
    <nd ref="1202076013"/>
    <nd ref="1202075897"/>
    <nd ref="1202075837"/>
    <nd ref="1202075880"/>
    <nd ref="1372082267"/>
    <nd ref="1202076013"/>
    <tag k="addr:housenumber" v="60"/>
    <tag k="addr:postcode" v="80798"/>
    <tag k="addr:street" v="Heßstraße"/>
    <tag k="building" v="apartments"/>
    <tag k="building:levels" v="6"/>
    <tag k="roof:levels" v="0"/>
    <tag k="roof:shape" v="gabled"/>
  </way>
  <way id="104175986" version="7" timestamp="2022-08-23T15:02:22Z" changeset="125276188" uid="11378139" user="Rattletat">
    <nd ref="1202075952"/>
    <nd ref="1202075883"/>
    <nd ref="1202076032"/>
    <nd ref="1202075846"/>
    <nd ref="1202075952"/>
    <tag k="addr:housenumber" v="56"/>
    <tag k="addr:postcode" v="80798"/>
    <tag k="addr:street" v="Heßstraße"/>
    <tag k="building" v="apartments"/>
  </way>
  <way id="104175988" version="7" timestamp="2023-08-01T11:29:27Z" changeset="139295590" uid="6089796" user="mrey">
    <nd ref="1202075873"/>
    <nd ref="1202075833"/>
    <nd ref="1202076022"/>
    <nd ref="1202075812"/>
    <nd ref="1202075873"/>
    <tag k="addr:housenumber" v="66"/>
    <tag k="addr:postcode" v="80798"/>
    <tag k="addr:street" v="Heßstraße"/>
    <tag k="building" v="apartments"/>
    <tag k="building:levels" v="4"/>
    <tag k="roof:levels" v="1"/>
    <tag k="roof:shape" v="gabled"/>
  </way>
  <way id="104175989" version="6" timestamp="2024-10-16T10:02:10Z" changeset="157956809" uid="137242" user="Rainero">
    <nd ref="1202076012"/>
    <nd ref="1202075846"/>
    <nd ref="1202076032"/>
    <nd ref="1202075897"/>
    <nd ref="1202076013"/>
    <nd ref="1372082248"/>
    <nd ref="1202076012"/>
    <tag k="addr:city" v="München"/>
    <tag k="addr:housenumber" v="58"/>
    <tag k="addr:postcode" v="80798"/>
    <tag k="addr:street" v="Heßstraße"/>
    <tag k="building" v="yes"/>
  </way>
  <way id="104175992" version="6" timestamp="2023-08-01T11:29:27Z" changeset="139295590" uid="6089796" user="mrey">
    <nd ref="1202075880"/>
    <nd ref="1202075837"/>
    <nd ref="1202075907"/>
    <nd ref="1202075871"/>
    <nd ref="1202075880"/>
    <tag k="addr:housenumber" v="62"/>
    <tag k="addr:postcode" v="80798"/>
    <tag k="addr:street" v="Heßstraße"/>
    <tag k="building" v="apartments"/>
    <tag k="roof:shape" v="gabled"/>
  </way>
  <way id="104175993" version="5" timestamp="2022-08-23T14:59:29Z" changeset="125275933" uid="11378139" user="Rattletat">
    <nd ref="1202075901"/>
    <nd ref="1202075812"/>
    <nd ref="1202076022"/>
    <nd ref="1202076049"/>
    <nd ref="1202075978"/>
    <nd ref="1202075844"/>
    <nd ref="1202075901"/>
    <tag k="addr:housenumber" v="68"/>
    <tag k="addr:postcode" v="80798"/>
    <tag k="addr:street" v="Heßstraße"/>
    <tag k="building" v="apartments"/>
    <tag k="building:levels" v="5"/>
    <tag k="roof:levels" v="1"/>
  </way>
  <way id="104175995" version="4" timestamp="2022-10-18T15:27:05Z" changeset="127733902" uid="999279" user="mc64">
    <nd ref="1202075899"/>
    <nd ref="1202075852"/>
    <nd ref="1202076015"/>
    <nd ref="1372082345"/>
    <nd ref="1202076038"/>
    <nd ref="1202075878"/>
    <nd ref="1202075954"/>
    <nd ref="1202075899"/>
    <tag k="addr:housenumber" v="14"/>
    <tag k="addr:street" v="Schwindstraße"/>
    <tag k="building" v="apartments"/>
  </way>
  <way id="104175997" version="4" timestamp="2023-09-27T19:10:58Z" changeset="141834759" uid="19991561" user="DasKaesebrot">
    <nd ref="1202076037"/>
    <nd ref="1202075997"/>
    <nd ref="1202075963"/>
    <nd ref="1202075978"/>
    <nd ref="1202075844"/>
    <nd ref="1202076037"/>
    <tag k="addr:housenumber" v="12"/>
    <tag k="addr:street" v="Schwindstraße"/>
    <tag k="building" v="apartments"/>
    <tag k="building:levels" v="4"/>
    <tag k="roof:levels" v="1"/>
  </way>
  <way id="104175998" version="10" timestamp="2023-08-01T11:29:27Z" changeset="139295590" uid="6089796" user="mrey">
    <nd ref="1202075907"/>
    <nd ref="1202075871"/>
    <nd ref="1202075842"/>
    <nd ref="1202075968"/>
    <nd ref="1202075833"/>
    <nd ref="1202075873"/>
    <nd ref="6389119847"/>
    <nd ref="1202075907"/>
    <tag k="addr:housenumber" v="64"/>
    <tag k="addr:postcode" v="80798"/>
    <tag k="addr:street" v="Heßstraße"/>
    <tag k="building" v="apartments"/>
    <tag k="building:levels" v="5"/>
    <tag k="roof:levels" v="1"/>
    <tag k="roof:shape" v="gabled"/>
  </way>
  <way id="104203183" version="4" timestamp="2018-08-31T07:47:29Z" changeset="62162403" uid="21088" user="fpletz">
    <nd ref="1202323011"/>
    <nd ref="1202323037"/>
    <nd ref="1202322958"/>
    <nd ref="1202322900"/>
    <nd ref="1202323011"/>
    <tag k="addr:city" v="München"/>
    <tag k="addr:country" v="DE"/>
    <tag k="addr:housenumber" v="55"/>
    <tag k="addr:postcode" v="80797"/>
    <tag k="addr:street" v="Schleißheimer Straße"/>
    <tag k="building" v="apartments"/>
  </way>
  <way id="104203185" version="5" timestamp="2018-08-31T07:46:55Z" changeset="62162403" uid="21088" user="fpletz">
    <nd ref="2517790049"/>
    <nd ref="1202322883"/>
    <nd ref="1202322983"/>
    <nd ref="2517790048"/>
    <nd ref="2517790049"/>
    <tag k="addr:city" v="München"/>
    <tag k="addr:country" v="DE"/>
    <tag k="addr:housenumber" v="49"/>
    <tag k="addr:postcode" v="80797"/>
    <tag k="addr:street" v="Schleißheimer Straße"/>
    <tag k="building" v="apartments"/>
  </way>
  <way id="104203187" version="3" timestamp="2018-06-22T20:26:58Z" changeset="60086927" uid="6998" user="saerdnaer">
    <nd ref="1202323057"/>
    <nd ref="5712244298"/>
    <nd ref="1202323042"/>
    <nd ref="1202322845"/>
    <nd ref="1202322872"/>
    <nd ref="1202323057"/>
    <tag k="addr:city" v="München"/>
    <tag k="addr:country" v="DE"/>
    <tag k="addr:housenumber" v="63c"/>
    <tag k="addr:postcode" v="80797"/>
    <tag k="addr:street" v="Schleißheimer Straße"/>
    <tag k="building" v="yes"/>
  </way>
  <way id="104203189" version="4" timestamp="2021-11-01T14:58:32Z" changeset="113239351" uid="78613" user="heilbron">
    <nd ref="1202322962"/>
    <nd ref="1202322923"/>
    <nd ref="1202322912"/>
    <nd ref="1202323005"/>
    <nd ref="1202322989"/>
    <nd ref="1202322940"/>
    <nd ref="1202322962"/>
    <tag k="addr:housenumber" v="136"/>
    <tag k="addr:street" v="Schellingstraße"/>
    <tag k="building" v="apartments"/>
  </way>
  <way id="104203190" version="3" timestamp="2020-11-21T22:08:09Z" changeset="94563384" uid="43207" user="kdkeller">
    <nd ref="1202322905"/>
    <nd ref="1202322943"/>
    <nd ref="1202322954"/>
    <nd ref="1202322968"/>
    <nd ref="1202323072"/>
    <nd ref="1202322997"/>
    <nd ref="1202323006"/>
    <nd ref="1202322905"/>
    <tag k="addr:city" v="München"/>
    <tag k="addr:country" v="DE"/>
    <tag k="addr:housenumber" v="59"/>
    <tag k="addr:postcode" v="80797"/>
    <tag k="addr:street" v="Schleißheimer Straße"/>
    <tag k="building" v="yes"/>
    <tag k="wikidata" v="Q41181278"/>
  </way>
  <way id="104203193" version="3" timestamp="2013-11-02T20:18:01Z" changeset="18682192" uid="72235" user="Basstoelpel">
    <nd ref="1202322846"/>
    <nd ref="2517790052"/>
    <nd ref="2517790051"/>
    <nd ref="1202323074"/>
    <nd ref="1202323046"/>
    <nd ref="1202322976"/>
    <nd ref="2517790053"/>
    <nd ref="2517790054"/>
    <nd ref="1202323007"/>
    <nd ref="1202322896"/>
    <nd ref="1202322980"/>
    <nd ref="1202322986"/>
    <nd ref="1202323056"/>
    <nd ref="1202322846"/>
    <tag k="addr:city" v="München"/>
    <tag k="addr:country" v="DE"/>
    <tag k="addr:housenumber" v="59a"/>
    <tag k="addr:postcode" v="80797"/>
    <tag k="addr:street" v="Schleißheimer Straße"/>
    <tag k="building" v="yes"/>
  </way>
  <way id="104203194" version="4" timestamp="2018-08-31T07:47:49Z" changeset="62162403" uid="21088" user="fpletz">
    <nd ref="1202322884"/>
    <nd ref="1202323040"/>
    <nd ref="1202322947"/>
    <nd ref="1202322903"/>
    <nd ref="1202322916"/>
    <nd ref="1202322902"/>
    <nd ref="1202322884"/>
    <tag k="addr:housenumber" v="132"/>
    <tag k="addr:street" v="Schellingstraße"/>
    <tag k="building" v="apartments"/>
  </way>
  <way id="104203195" version="7" timestamp="2022-06-27T04:41:25Z" changeset="122887805" uid="78613" user="heilbron">
    <nd ref="1202323034"/>
    <nd ref="1202322882"/>
    <nd ref="6431279655"/>
    <nd ref="1202323090"/>
    <nd ref="1202323084"/>
    <nd ref="6431279654"/>
    <nd ref="1202323034"/>
    <tag k="addr:city" v="München"/>
    <tag k="addr:country" v="DE"/>
    <tag k="addr:housenumber" v="63"/>
    <tag k="addr:postcode" v="80797"/>
    <tag k="addr:street" v="Schleißheimer Straße"/>
    <tag k="building" v="apartments"/>
    <tag k="building:levels" v="5"/>
  </way>
  <way id="104203196" version="5" timestamp="2018-10-31T08:31:43Z" changeset="64037568" uid="78613" user="heilbron">
    <nd ref="1202323006"/>
    <nd ref="1202322997"/>
    <nd ref="1202323090"/>
    <nd ref="1202323084"/>
    <nd ref="1202323006"/>
    <tag k="addr:city" v="München"/>
    <tag k="addr:country" v="DE"/>
    <tag k="addr:housenumber" v="61"/>
    <tag k="addr:postcode" v="80797"/>
    <tag k="addr:street" v="Schleißheimer Straße"/>
    <tag k="building" v="apartments"/>
  </way>
  <way id="104203197" version="4" timestamp="2021-11-01T14:58:33Z" changeset="113239351" uid="78613" user="heilbron">
    <nd ref="1202322922"/>
    <nd ref="1202322925"/>
    <nd ref="1202322912"/>
    <nd ref="1202323005"/>
    <nd ref="1202322865"/>
    <nd ref="1202322966"/>
    <nd ref="1202322922"/>
    <tag k="addr:housenumber" v="134"/>
    <tag k="addr:street" v="Schellingstraße"/>
    <tag k="building" v="apartments"/>
  </way>
  <way id="104203198" version="4" timestamp="2018-08-31T07:47:44Z" changeset="62162403" uid="21088" user="fpletz">
    <nd ref="1202322970"/>
    <nd ref="1202322863"/>
    <nd ref="1202322904"/>
    <nd ref="1202322928"/>
    <nd ref="1202322918"/>
    <nd ref="1202322946"/>
    <nd ref="1202322903"/>
    <nd ref="1202322947"/>
    <nd ref="1202322970"/>
    <tag k="addr:housenumber" v="130"/>
    <tag k="addr:street" v="Schellingstraße"/>
    <tag k="building" v="apartments"/>
  </way>
  <way id="104203199" version="7" timestamp="2020-11-21T22:07:50Z" changeset="94563384" uid="43207" user="kdkeller">
    <nd ref="1202322982"/>
    <nd ref="1202322910"/>
    <nd ref="1202323071"/>
    <nd ref="1202322920"/>
    <nd ref="1202322921"/>
    <nd ref="1202323061"/>
    <nd ref="1202322878"/>
    <nd ref="1202323054"/>
    <nd ref="2789251756"/>
    <nd ref="1202322982"/>
    <tag k="addr:city" v="München"/>
    <tag k="addr:housenumber" v="45"/>
    <tag k="addr:postcode" v="80797"/>
    <tag k="addr:street" v="Görresstraße"/>
    <tag k="building" v="commercial"/>
    <tag k="building:levels" v="4"/>
    <tag k="roof:colour" v="#EEEEEE"/>
    <tag k="wheelchair" v="no"/>
    <tag k="wikidata" v="Q41180649"/>
  </way>
  <way id="104203201" version="2" timestamp="2013-04-08T20:07:03Z" changeset="15659161" uid="6998" user="saerdnaer">
    <nd ref="1202323033"/>
    <nd ref="1202322864"/>
    <nd ref="1202322876"/>
    <nd ref="1202322972"/>
    <nd ref="1202322914"/>
    <nd ref="1202323003"/>
    <nd ref="1202322927"/>
    <nd ref="1202323033"/>
    <tag k="addr:housenumber" v="138"/>
    <tag k="addr:street" v="Schellingstraße"/>
    <tag k="building" v="yes"/>
  </way>
  <way id="104203202" version="3" timestamp="2018-06-22T20:26:58Z" changeset="60086927" uid="6998" user="saerdnaer">
    <nd ref="1202322888"/>
    <nd ref="1202323010"/>
    <nd ref="1202322862"/>
    <nd ref="1202322886"/>
    <nd ref="1202322952"/>
    <nd ref="1202323065"/>
    <nd ref="1202322890"/>
    <nd ref="1202322868"/>
    <nd ref="1202323048"/>
    <nd ref="1202323070"/>
    <nd ref="1202322974"/>
    <nd ref="5712244305"/>
    <nd ref="1202323086"/>
    <nd ref="1202322888"/>
    <tag k="addr:city" v="München"/>
    <tag k="addr:country" v="DE"/>
    <tag k="addr:housenumber" v="63d"/>
    <tag k="addr:postcode" v="80797"/>
    <tag k="addr:street" v="Schleißheimer Straße"/>
    <tag k="building" v="yes"/>
  </way>
  <way id="104203204" version="7" timestamp="2018-10-30T10:23:49Z" changeset="64006305" uid="78613" user="heilbron">
    <nd ref="1202322950"/>
    <nd ref="1202322945"/>
    <nd ref="1202322859"/>
    <nd ref="1202323059"/>
    <nd ref="1202323044"/>
    <nd ref="4825725157"/>
    <nd ref="1202322926"/>
    <nd ref="1202323029"/>
    <nd ref="1202322948"/>
    <nd ref="1202322944"/>
    <nd ref="1202322950"/>
    <tag k="addr:city" v="München"/>
    <tag k="addr:country" v="DE"/>
    <tag k="addr:housenumber" v="67"/>
    <tag k="addr:postcode" v="80797"/>
    <tag k="addr:street" v="Schleißheimer Straße"/>
    <tag k="building" v="apartments"/>
    <tag k="building:levels" v="4"/>
  </way>
  <way id="104203205" version="7" timestamp="2022-06-27T04:41:25Z" changeset="122887805" uid="78613" user="heilbron">
    <nd ref="1202323059"/>
    <nd ref="1202322882"/>
    <nd ref="1202323034"/>
    <nd ref="1202323038"/>
    <nd ref="1202323001"/>
    <nd ref="1202323008"/>
    <nd ref="1202323031"/>
    <nd ref="1202323044"/>
    <nd ref="1202323059"/>
    <tag k="addr:city" v="München"/>
    <tag k="addr:country" v="DE"/>
    <tag k="addr:housenumber" v="65"/>
    <tag k="addr:postcode" v="80797"/>
    <tag k="addr:street" v="Schleißheimer Straße"/>
    <tag k="building" v="apartments"/>
    <tag k="building:levels" v="4"/>
    <tag k="wikidata" v="Q41181287"/>
  </way>
  <way id="104203207" version="5" timestamp="2018-08-31T07:47:34Z" changeset="62162403" uid="21088" user="fpletz">
    <nd ref="1202323046"/>
    <nd ref="1202322900"/>
    <nd ref="1202322958"/>
    <nd ref="1202323068"/>
    <nd ref="1202323074"/>
    <nd ref="1202323046"/>
    <tag k="addr:city" v="München"/>
    <tag k="addr:country" v="DE"/>
    <tag k="addr:housenumber" v="57"/>
    <tag k="addr:postcode" v="80797"/>
    <tag k="addr:street" v="Schleißheimer Straße"/>
    <tag k="building" v="apartments"/>
  </way>
  <way id="104203209" version="3" timestamp="2018-06-22T20:26:59Z" changeset="60086927" uid="6998" user="saerdnaer">
    <nd ref="1202322980"/>
    <nd ref="1202322986"/>
    <nd ref="5712244296"/>
    <nd ref="1202323048"/>
    <nd ref="1202322868"/>
    <nd ref="1202322980"/>
    <tag k="addr:city" v="München"/>
    <tag k="addr:country" v="DE"/>
    <tag k="addr:housenumber" v="63a"/>
    <tag k="addr:postcode" v="80797"/>
    <tag k="addr:street" v="Schleißheimer Straße"/>
    <tag k="building" v="yes"/>
  </way>
  <way id="104277687" version="6" timestamp="2020-11-21T22:08:11Z" changeset="94563384" uid="43207" user="kdkeller">
    <nd ref="1203199287"/>
    <nd ref="1203199309"/>
    <nd ref="1203199023"/>
    <nd ref="1203198999"/>
    <nd ref="1203199287"/>
    <tag k="addr:city" v="München"/>
    <tag k="addr:country" v="DE"/>
    <tag k="addr:housenumber" v="92"/>
    <tag k="addr:postcode" v="80797"/>
    <tag k="addr:street" v="Schleißheimer Straße"/>
    <tag k="building" v="apartments"/>
    <tag k="wikidata" v="Q41181299"/>
  </way>
  <way id="104277689" version="8" timestamp="2023-04-15T09:08:34Z" changeset="134932216" uid="11660957" user="kiggi">
    <nd ref="1203199299"/>
    <nd ref="1203199067"/>
    <nd ref="1203199311"/>
    <nd ref="1203199312"/>
    <nd ref="1203199411"/>
    <nd ref="1203199102"/>
    <nd ref="1203199299"/>
    <tag k="addr:housenumber" v="37"/>
    <tag k="addr:postcode" v="80798"/>
    <tag k="addr:street" v="Görresstraße"/>
    <tag k="building" v="apartments"/>
    <tag k="building:colour" v="#CCCCCC"/>
    <tag k="building:levels" v="4"/>
    <tag k="roof:colour" v="grey"/>
    <tag k="wikidata" v="Q98643970"/>
  </way>
  <way id="104277690" version="8" timestamp="2024-01-08T12:44:27Z" changeset="146027568" uid="6089796" user="mrey">
    <nd ref="1203199183"/>
    <nd ref="1203199070"/>
    <nd ref="1203199199"/>
    <nd ref="1203199126"/>
    <nd ref="1203199153"/>
    <nd ref="1203199269"/>
    <nd ref="2588831838"/>
    <nd ref="1203199183"/>
    <tag k="addr:city" v="München"/>
    <tag k="addr:country" v="DE"/>
    <tag k="addr:housenumber" v="88"/>
    <tag k="addr:postcode" v="80797"/>
    <tag k="addr:street" v="Schleißheimer Straße"/>
    <tag k="building" v="apartments"/>
    <tag k="building:colour" v="#ff9e6b"/>
    <tag k="building:levels" v="4"/>
    <tag k="roof:shape" v="mansard"/>
  </way>
  <way id="104277694" version="11" timestamp="2023-04-16T06:03:12Z" changeset="134961819" uid="11660957" user="kiggi">
    <nd ref="1203199451"/>
    <nd ref="1203199258"/>
    <nd ref="1203199227"/>
    <nd ref="1203199346"/>
    <nd ref="1203199267"/>
    <nd ref="1203199382"/>
    <nd ref="1203199451"/>
    <tag k="addr:city" v="München"/>
    <tag k="addr:country" v="DE"/>
    <tag k="addr:housenumber" v="35"/>
    <tag k="addr:postcode" v="80798"/>
    <tag k="addr:street" v="Görresstraße"/>
    <tag k="building" v="apartments"/>
    <tag k="building:levels" v="4"/>
    <tag k="roof:colour" v="#A09090"/>
    <tag k="roof:levels" v="1"/>
    <tag k="roof:shape" v="quadruple_saltbox"/>
  </way>
  <way id="104277697" version="5" timestamp="2018-10-31T08:31:45Z" changeset="64037568" uid="78613" user="heilbron">
    <nd ref="1203199424"/>
    <nd ref="2588831836"/>
    <nd ref="1203199254"/>
    <nd ref="1203199023"/>
    <nd ref="1203199309"/>
    <nd ref="1203199424"/>
    <tag k="addr:city" v="München"/>
    <tag k="addr:country" v="DE"/>
    <tag k="addr:housenumber" v="90"/>
    <tag k="addr:postcode" v="80797"/>
    <tag k="addr:street" v="Schleißheimer Straße"/>
    <tag k="building" v="apartments"/>
  </way>
  <way id="104277699" version="8" timestamp="2023-04-16T06:03:15Z" changeset="134961819" uid="11660957" user="kiggi">
    <nd ref="1203199230"/>
    <nd ref="1203199245"/>
    <nd ref="1203198974"/>
    <nd ref="1203199382"/>
    <nd ref="1203199267"/>
    <nd ref="1203199185"/>
    <nd ref="1203199230"/>
    <tag k="addr:city" v="München"/>
    <tag k="addr:country" v="DE"/>
    <tag k="addr:housenumber" v="33"/>
    <tag k="addr:postcode" v="80798"/>
    <tag k="addr:street" v="Görresstraße"/>
    <tag k="building" v="apartments"/>
    <tag k="building:levels" v="4"/>
    <tag k="roof:colour" v="#A09090"/>
    <tag k="roof:levels" v="1"/>
    <tag k="roof:shape" v="quadruple_saltbox"/>
  </way>
  <way id="104277700" version="8" timestamp="2019-03-21T14:24:44Z" changeset="68375507" uid="12919" user="Cerritus">
    <nd ref="1203198966"/>
    <nd ref="366110585"/>
    <nd ref="1203199448"/>
    <nd ref="1203199179"/>
    <nd ref="1203199149"/>
    <nd ref="1203199143"/>
    <nd ref="1203198966"/>
    <tag k="addr:city" v="München"/>
    <tag k="addr:country" v="DE"/>
    <tag k="addr:housenumber" v="98"/>
    <tag k="addr:postcode" v="80797"/>
    <tag k="addr:street" v="Schleißheimer Straße"/>
    <tag k="building" v="apartments"/>
    <tag k="building:levels" v="4"/>
    <tag k="roof:colour" v="grey"/>
    <tag k="roof:levels" v="1"/>
  </way>
  <way id="104277702" version="6" timestamp="2018-10-31T08:31:47Z" changeset="64037568" uid="78613" user="heilbron">
    <nd ref="1203199025"/>
    <nd ref="1203199033"/>
    <nd ref="1203199136"/>
    <nd ref="1203199416"/>
    <nd ref="1203199297"/>
    <nd ref="1203199025"/>
    <tag k="addr:city" v="München"/>
    <tag k="addr:country" v="DE"/>
    <tag k="addr:housenumber" v="94"/>
    <tag k="addr:postcode" v="80797"/>
    <tag k="addr:street" v="Schleißheimer Straße"/>
    <tag k="building" v="apartments"/>
  </way>
  <way id="104277703" version="6" timestamp="2022-06-27T04:41:25Z" changeset="122887805" uid="78613" user="heilbron">
    <nd ref="1203199078"/>
    <nd ref="1203199416"/>
    <nd ref="1203199136"/>
    <nd ref="1203199098"/>
    <nd ref="1203199375"/>
    <nd ref="1203199292"/>
    <nd ref="1203199078"/>
    <tag k="addr:city" v="München"/>
    <tag k="addr:country" v="DE"/>
    <tag k="addr:housenumber" v="96"/>
    <tag k="addr:postcode" v="80797"/>
    <tag k="addr:street" v="Schleißheimer Straße"/>
    <tag k="building" v="apartments"/>
    <tag k="building:levels" v="4"/>
  </way>
  <way id="104277712" version="8" timestamp="2020-11-21T22:16:29Z" changeset="94563384" uid="43207" user="kdkeller">
    <nd ref="1203199102"/>
    <nd ref="1203199411"/>
    <nd ref="1203199364"/>
    <nd ref="1203199179"/>
    <nd ref="1203199448"/>
    <nd ref="6260372910"/>
    <nd ref="1203199181"/>
    <nd ref="1203199308"/>
    <nd ref="1203199102"/>
    <tag k="addr:city" v="München"/>
    <tag k="addr:country" v="DE"/>
    <tag k="addr:housenumber" v="39"/>
    <tag k="addr:postcode" v="80798"/>
    <tag k="addr:street" v="Görresstraße"/>
    <tag k="building" v="apartments"/>
    <tag k="building:colour" v="#DDDDDD"/>
    <tag k="building:levels" v="4"/>
    <tag k="wikidata" v="Q98643968"/>
  </way>
  <way id="104537378" version="7" timestamp="2024-09-14T20:07:47Z" changeset="156626347" uid="78613" user="heilbron">
    <nd ref="1206194247"/>
    <nd ref="1206194803"/>
    <nd ref="1206194780"/>
    <nd ref="1206194263"/>
    <nd ref="1206194247"/>
    <tag k="addr:city" v="München"/>
    <tag k="addr:country" v="DE"/>
    <tag k="addr:housenumber" v="1"/>
    <tag k="addr:postcode" v="80798"/>
    <tag k="addr:street" v="Schwindstraße"/>
    <tag k="building" v="apartments"/>
    <tag k="building:levels" v="6"/>
    <tag k="roof:levels" v="1"/>
    <tag k="roof:shape" v="gabled"/>
  </way>
  <way id="104537379" version="6" timestamp="2023-09-27T19:10:30Z" changeset="141834759" uid="19991561" user="DasKaesebrot">
    <nd ref="1206194766"/>
    <nd ref="1206194346"/>
    <nd ref="1206194745"/>
    <nd ref="1206194630"/>
    <nd ref="1206194736"/>
    <nd ref="1206194859"/>
    <nd ref="1206194595"/>
    <nd ref="1206194766"/>
    <tag k="addr:housenumber" v="53"/>
    <tag k="addr:postcode" v="80798"/>
    <tag k="addr:street" v="Heßstraße"/>
    <tag k="building" v="apartments"/>
    <tag k="building:levels" v="5"/>
    <tag k="roof:levels" v="1"/>
  </way>
  <way id="104537392" version="7" timestamp="2022-08-22T17:35:19Z" changeset="125235335" uid="11378139" user="Rattletat">
    <nd ref="1206194838"/>
    <nd ref="1206194703"/>
    <nd ref="1206194262"/>
    <nd ref="3703934431"/>
    <nd ref="1206194838"/>
    <tag k="addr:city" v="München"/>
    <tag k="addr:country" v="DE"/>
    <tag k="addr:housenumber" v="74"/>
    <tag k="addr:postcode" v="80797"/>
    <tag k="addr:street" v="Schleißheimer Straße"/>
    <tag k="building" v="apartments"/>
    <tag k="building:levels" v="4"/>
    <tag k="roof:levels" v="1"/>
    <tag k="wikidata" v="Q41181296"/>
  </way>
  <way id="104537393" version="7" timestamp="2023-09-27T19:10:28Z" changeset="141834759" uid="19991561" user="DasKaesebrot">
    <nd ref="1206194355"/>
    <nd ref="1206194859"/>
    <nd ref="1206194595"/>
    <nd ref="1206194886"/>
    <nd ref="1206194355"/>
    <tag k="addr:housenumber" v="55"/>
    <tag k="addr:postcode" v="80798"/>
    <tag k="addr:street" v="Heßstraße"/>
    <tag k="building" v="apartments"/>
    <tag k="building:levels" v="5"/>
    <tag k="roof:levels" v="1"/>
    <tag k="roof:shape" v="gabled"/>
  </way>
  <way id="104537397" version="6" timestamp="2024-10-22T06:35:11Z" changeset="158197176" uid="78613" user="heilbron">
    <nd ref="1206194737"/>
    <nd ref="1206194335"/>
    <nd ref="1206194623"/>
    <nd ref="1206194716"/>
    <nd ref="1206194737"/>
    <tag k="addr:city" v="München"/>
    <tag k="addr:country" v="DE"/>
    <tag k="addr:housenumber" v="64"/>
    <tag k="addr:postcode" v="80797"/>
    <tag k="addr:street" v="Schleißheimer Straße"/>
    <tag k="building" v="apartments"/>
    <tag k="building:levels" v="5"/>
    <tag k="roof:levels" v="1"/>
    <tag k="roof:shape" v="gabled"/>
  </way>
  <way id="104537398" version="6" timestamp="2023-08-01T11:29:30Z" changeset="139295590" uid="6089796" user="mrey">
    <nd ref="1206194481"/>
    <nd ref="1206194765"/>
    <nd ref="1206194519"/>
    <nd ref="1206194444"/>
    <nd ref="1206194481"/>
    <tag k="addr:housenumber" v="63"/>
    <tag k="addr:postcode" v="80798"/>
    <tag k="addr:street" v="Heßstraße"/>
    <tag k="building" v="apartments"/>
    <tag k="roof:shape" v="gabled"/>
    <tag k="wikidata" v="Q41180666"/>
  </way>
  <way id="104537404" version="6" timestamp="2023-08-01T11:29:30Z" changeset="139295590" uid="6089796" user="mrey">
    <nd ref="1206194788"/>
    <nd ref="1206194309"/>
    <nd ref="1206194765"/>
    <nd ref="1206194481"/>
    <nd ref="1206194788"/>
    <tag k="addr:housenumber" v="65"/>
    <tag k="addr:postcode" v="80798"/>
    <tag k="addr:street" v="Heßstraße"/>
    <tag k="building" v="apartments"/>
    <tag k="roof:shape" v="gabled"/>
    <tag k="wikidata" v="Q41180669"/>
  </way>
  <way id="104537416" version="5" timestamp="2023-08-01T11:29:29Z" changeset="139295590" uid="6089796" user="mrey">
    <nd ref="1206194882"/>
    <nd ref="1206194408"/>
    <nd ref="1206194395"/>
    <nd ref="1206194355"/>
    <nd ref="1206194886"/>
    <nd ref="1206194882"/>
    <tag k="addr:housenumber" v="57"/>
    <tag k="addr:postcode" v="80798"/>
    <tag k="addr:street" v="Heßstraße"/>
    <tag k="building" v="apartments"/>
    <tag k="roof:shape" v="gabled"/>
  </way>
  <way id="104537417" version="10" timestamp="2023-08-01T11:29:31Z" changeset="139295597" uid="6089796" user="mrey">
    <nd ref="1206194308"/>
    <nd ref="1206194602"/>
    <nd ref="1206194391"/>
    <nd ref="1206194628"/>
    <nd ref="3703934432"/>
    <nd ref="1206194308"/>
    <tag k="addr:housenumber" v="69"/>
    <tag k="addr:postcode" v="80798"/>
    <tag k="addr:street" v="Heßstraße"/>
    <tag k="building" v="apartments"/>
    <tag k="building:colour" v="#ffe0a0"/>
    <tag k="building:levels" v="4"/>
    <tag k="roof:shape" v="gabled"/>
    <tag k="wikidata" v="Q41180675"/>
  </way>
  <way id="104537419" version="6" timestamp="2024-10-22T06:35:11Z" changeset="158197176" uid="78613" user="heilbron">
    <nd ref="1206194623"/>
    <nd ref="1206194716"/>
    <nd ref="1206194479"/>
    <nd ref="1206194680"/>
    <nd ref="1206194871"/>
    <nd ref="1206194623"/>
    <tag k="addr:city" v="München"/>
    <tag k="addr:country" v="DE"/>
    <tag k="addr:housenumber" v="66"/>
    <tag k="addr:postcode" v="80797"/>
    <tag k="addr:street" v="Schleißheimer Straße"/>
    <tag k="building" v="apartments"/>
    <tag k="building:levels" v="6"/>
    <tag k="roof:levels" v="1"/>
    <tag k="roof:shape" v="gambrel"/>
  </way>
  <way id="104537422" version="5" timestamp="2024-09-14T20:07:39Z" changeset="156626345" uid="78613" user="heilbron">
    <nd ref="1206194305"/>
    <nd ref="1206194871"/>
    <nd ref="1206194680"/>
    <nd ref="1206194812"/>
    <nd ref="1206194572"/>
    <nd ref="1206194305"/>
    <tag k="addr:city" v="München"/>
    <tag k="addr:country" v="DE"/>
    <tag k="addr:housenumber" v="68"/>
    <tag k="addr:postcode" v="80797"/>
    <tag k="addr:street" v="Schleißheimer Straße"/>
    <tag k="building" v="apartments"/>
    <tag k="building:levels" v="4"/>
    <tag k="roof:levels" v="1"/>
    <tag k="roof:shape" v="gambrel"/>
  </way>
  <way id="104537428" version="5" timestamp="2023-06-16T16:27:36Z" changeset="137421115" uid="2491490" user="mseifert">
    <nd ref="1206194781"/>
    <nd ref="1206194346"/>
    <nd ref="1206194745"/>
    <nd ref="1206194237"/>
    <nd ref="1206194650"/>
    <nd ref="1206194781"/>
    <tag k="addr:city" v="München"/>
    <tag k="addr:country" v="DE"/>
    <tag k="addr:housenumber" v="7"/>
    <tag k="addr:street" v="Schwindstraße"/>
    <tag k="building" v="apartments"/>
    <tag k="roof:shape" v="hipped"/>
    <tag k="source:addr:housenumber" v="interpolation"/>
  </way>
  <way id="104537430" version="6" timestamp="2023-08-01T11:29:29Z" changeset="139295590" uid="6089796" user="mrey">
    <nd ref="1206194805"/>
    <nd ref="1206194541"/>
    <nd ref="1206194408"/>
    <nd ref="1206194882"/>
    <nd ref="1206194805"/>
    <tag k="addr:housenumber" v="59"/>
    <tag k="addr:postcode" v="80798"/>
    <tag k="addr:street" v="Heßstraße"/>
    <tag k="building" v="apartments"/>
    <tag k="roof:shape" v="gabled"/>
    <tag k="wikidata" v="Q41180660"/>
  </way>
  <way id="104537433" version="7" timestamp="2023-08-01T11:29:31Z" changeset="139295597" uid="6089796" user="mrey">
    <nd ref="1206194391"/>
    <nd ref="1206194602"/>
    <nd ref="1206194309"/>
    <nd ref="1206194788"/>
    <nd ref="1206194391"/>
    <tag k="addr:housenumber" v="67"/>
    <tag k="addr:postcode" v="80798"/>
    <tag k="addr:street" v="Heßstraße"/>
    <tag k="building" v="apartments"/>
    <tag k="building:colour" v="lightyellow"/>
    <tag k="roof:shape" v="gabled"/>
    <tag k="wikidata" v="Q41180672"/>
  </way>
  <way id="104537434" version="7" timestamp="2020-11-21T22:07:53Z" changeset="94563384" uid="43207" user="kdkeller">
    <nd ref="1206194703"/>
    <nd ref="1206194262"/>
    <nd ref="1206194834"/>
    <nd ref="3703934432"/>
    <nd ref="1206194628"/>
    <nd ref="1206194467"/>
    <nd ref="1206194529"/>
    <nd ref="1206194703"/>
    <tag k="addr:housenumber" v="71"/>
    <tag k="addr:postcode" v="80798"/>
    <tag k="addr:street" v="Heßstraße"/>
    <tag k="building" v="apartments"/>
    <tag k="building:levels" v="4"/>
    <tag k="roof:levels" v="1"/>
    <tag k="wikidata" v="Q41180679"/>
  </way>
  <way id="104537436" version="4" timestamp="2016-12-27T21:54:03Z" changeset="44716820" uid="5033000" user="Maywer">
    <nd ref="1206194879"/>
    <nd ref="1206194273"/>
    <nd ref="1206194531"/>
    <nd ref="1206194883"/>
    <nd ref="1206194302"/>
    <nd ref="1206194560"/>
    <nd ref="1206194879"/>
    <tag k="addr:housenumber" v="3"/>
    <tag k="addr:postcode" v="80798"/>
    <tag k="addr:street" v="Schwindstraße"/>
    <tag k="building" v="yes"/>
    <tag k="roof:shape" v="gabled"/>
  </way>
  <way id="104537439" version="4" timestamp="2023-06-16T16:27:36Z" changeset="137421114" uid="2491490" user="mseifert">
    <nd ref="1376072160"/>
    <nd ref="1376072154"/>
    <nd ref="1206194743"/>
    <nd ref="1206194277"/>
    <nd ref="1376072160"/>
    <tag k="addr:city" v="München"/>
    <tag k="addr:country" v="DE"/>
    <tag k="addr:housenumber" v="5"/>
    <tag k="addr:postcode" v="80798"/>
    <tag k="addr:street" v="Schwindstraße"/>
    <tag k="building" v="apartments"/>
  </way>
  <way id="104537443" version="5" timestamp="2018-10-31T08:31:53Z" changeset="64037585" uid="78613" user="heilbron">
    <nd ref="1206194621"/>
    <nd ref="1206194496"/>
    <nd ref="1206194674"/>
    <nd ref="1206194598"/>
    <nd ref="1206194737"/>
    <nd ref="1206194335"/>
    <nd ref="1206194621"/>
    <tag k="addr:city" v="München"/>
    <tag k="addr:housenumber" v="160"/>
    <tag k="addr:postcode" v="80333"/>
    <tag k="addr:street" v="Theresienstraße"/>
    <tag k="building" v="apartments"/>
    <tag k="building:levels" v="6"/>
  </way>
  <way id="104537445" version="7" timestamp="2023-09-27T19:09:44Z" changeset="141834759" uid="19991561" user="DasKaesebrot">
    <nd ref="1206194444"/>
    <nd ref="1206194519"/>
    <nd ref="1206194541"/>
    <nd ref="1206194805"/>
    <nd ref="1206194444"/>
    <tag k="addr:housenumber" v="61"/>
    <tag k="addr:postcode" v="80798"/>
    <tag k="addr:street" v="Heßstraße"/>
    <tag k="building" v="apartments"/>
    <tag k="building:levels" v="4"/>
    <tag k="roof:levels" v="1"/>
    <tag k="roof:shape" v="gabled"/>
    <tag k="wikidata" v="Q41180663"/>
  </way>
  <way id="105234633" version="6" timestamp="2024-09-14T20:07:48Z" changeset="156626347" uid="78613" user="heilbron">
    <nd ref="1212740188"/>
    <nd ref="1212740259"/>
    <nd ref="1212740049"/>
    <nd ref="1212740093"/>
    <nd ref="1212740046"/>
    <nd ref="1212740188"/>
    <tag k="addr:city" v="München"/>
    <tag k="addr:country" v="DE"/>
    <tag k="addr:housenumber" v="132"/>
    <tag k="addr:postcode" v="80333"/>
    <tag k="addr:street" v="Theresienstraße"/>
    <tag k="building" v="apartments"/>
    <tag k="building:levels" v="6"/>
    <tag k="roof:levels" v="1"/>
    <tag k="roof:shape" v="gabled"/>
  </way>
  <way id="105234634" version="6" timestamp="2021-10-31T14:48:24Z" changeset="113194958" uid="7702726" user="d2quadra">
    <nd ref="1212740248"/>
    <nd ref="1212740190"/>
    <nd ref="1212740241"/>
    <nd ref="1212740245"/>
    <nd ref="1212740248"/>
    <tag k="addr:housenumber" v="47"/>
    <tag k="addr:postcode" v="80798"/>
    <tag k="addr:street" v="Heßstraße"/>
    <tag k="building" v="apartments"/>
  </way>
  <way id="105234635" version="6" timestamp="2024-12-22T09:11:52Z" changeset="160494195" uid="2491490" user="mseifert">
    <nd ref="1212740122"/>
    <nd ref="1212740217"/>
    <nd ref="1212740181"/>
    <nd ref="1212740068"/>
    <nd ref="1212740120"/>
    <nd ref="1212740059"/>
    <nd ref="1212740026"/>
    <nd ref="1212740066"/>
    <nd ref="1212740010"/>
    <nd ref="1212740147"/>
    <nd ref="1212740122"/>
    <tag k="addr:city" v="München"/>
    <tag k="addr:country" v="DE"/>
    <tag k="addr:housenumber" v="6"/>
    <tag k="addr:postcode" v="80798"/>
    <tag k="addr:street" v="Schwindstraße"/>
    <tag k="building" v="apartments"/>
    <tag k="roof:shape" v="quadruple_saltbox"/>
  </way>
  <way id="105234637" version="7" timestamp="2024-09-14T20:07:48Z" changeset="156626347" uid="78613" user="heilbron">
    <nd ref="1212740173"/>
    <nd ref="1212740027"/>
    <nd ref="1212740214"/>
    <nd ref="1212740274"/>
    <nd ref="1212740196"/>
    <nd ref="1212740173"/>
    <tag k="addr:city" v="München"/>
    <tag k="addr:country" v="DE"/>
    <tag k="addr:housenumber" v="136"/>
    <tag k="addr:postcode" v="80333"/>
    <tag k="addr:street" v="Theresienstraße"/>
    <tag k="building" v="residential"/>
    <tag k="building:levels" v="5"/>
    <tag k="roof:levels" v="1"/>
    <tag k="roof:shape" v="gabled"/>
  </way>
  <way id="105234638" version="6" timestamp="2024-12-22T09:11:50Z" changeset="160494195" uid="2491490" user="mseifert">
    <nd ref="1212740231"/>
    <nd ref="1212740051"/>
    <nd ref="1212740152"/>
    <nd ref="1212740198"/>
    <nd ref="1212740119"/>
    <nd ref="1212740255"/>
    <nd ref="1212740231"/>
    <tag k="addr:city" v="München"/>
    <tag k="addr:country" v="DE"/>
    <tag k="addr:housenumber" v="140"/>
    <tag k="addr:postcode" v="80333"/>
    <tag k="addr:street" v="Theresienstraße"/>
    <tag k="building" v="apartments"/>
    <tag k="building:colour" v="grey"/>
    <tag k="building:levels" v="6"/>
    <tag k="roof:shape" v="quadruple_saltbox"/>
  </way>
  <way id="105234639" version="7" timestamp="2021-11-17T11:37:04Z" changeset="113893898" uid="7702726" user="d2quadra">
    <nd ref="1212740215"/>
    <nd ref="1212740257"/>
    <nd ref="3611457253"/>
    <nd ref="3611457254"/>
    <nd ref="1212740013"/>
    <nd ref="1212740260"/>
    <nd ref="1212740156"/>
    <nd ref="1212740215"/>
    <tag k="addr:city" v="München"/>
    <tag k="addr:country" v="DE"/>
    <tag k="addr:housenumber" v="91"/>
    <tag k="addr:postcode" v="80798"/>
    <tag k="addr:street" v="Augustenstraße"/>
    <tag k="building" v="apartments"/>
    <tag k="building:levels" v="6"/>
  </way>
  <way id="105234640" version="6" timestamp="2021-11-17T11:37:03Z" changeset="113893898" uid="7702726" user="d2quadra">
    <nd ref="1212740260"/>
    <nd ref="1212740156"/>
    <nd ref="1212740183"/>
    <nd ref="1212740035"/>
    <nd ref="1212740170"/>
    <nd ref="1212740260"/>
    <tag k="addr:city" v="München"/>
    <tag k="addr:country" v="DE"/>
    <tag k="addr:housenumber" v="93"/>
    <tag k="addr:postcode" v="80798"/>
    <tag k="addr:street" v="Augustenstraße"/>
    <tag k="building" v="apartments"/>
    <tag k="building:levels" v="5"/>
  </way>
  <way id="105234643" version="6" timestamp="2024-09-14T20:07:48Z" changeset="156626347" uid="78613" user="heilbron">
    <nd ref="1212740027"/>
    <nd ref="1212740188"/>
    <nd ref="1212740046"/>
    <nd ref="1212740214"/>
    <nd ref="1212740027"/>
    <tag k="addr:city" v="München"/>
    <tag k="addr:country" v="DE"/>
    <tag k="addr:housenumber" v="134"/>
    <tag k="addr:postcode" v="80333"/>
    <tag k="addr:street" v="Theresienstraße"/>
    <tag k="building" v="apartments"/>
    <tag k="building:levels" v="6"/>
    <tag k="roof:levels" v="1"/>
    <tag k="roof:shape" v="gabled"/>
  </way>
  <way id="105234644" version="6" timestamp="2023-08-01T11:29:27Z" changeset="139295590" uid="6089796" user="mrey">
    <nd ref="1212740150"/>
    <nd ref="1212740158"/>
    <nd ref="1212740237"/>
    <nd ref="1212740138"/>
    <nd ref="1212740072"/>
    <nd ref="1212740150"/>
    <tag k="addr:city" v="München"/>
    <tag k="addr:country" v="DE"/>
    <tag k="addr:housenumber" v="43"/>
    <tag k="addr:postcode" v="80798"/>
    <tag k="addr:street" v="Heßstraße"/>
    <tag k="building" v="apartments"/>
    <tag k="building:levels" v="5"/>
    <tag k="roof:levels" v="1"/>
    <tag k="roof:shape" v="gabled"/>
  </way>
  <way id="105234645" version="8" timestamp="2023-09-27T19:12:42Z" changeset="141834759" uid="19991561" user="DasKaesebrot">
    <nd ref="1212740154"/>
    <nd ref="1212740158"/>
    <nd ref="1212740237"/>
    <nd ref="1212740245"/>
    <nd ref="1212740248"/>
    <nd ref="1212740095"/>
    <nd ref="1212740053"/>
    <nd ref="1212740154"/>
    <tag k="addr:housenumber" v="45"/>
    <tag k="addr:postcode" v="80798"/>
    <tag k="addr:street" v="Heßstraße"/>
    <tag k="building" v="apartments"/>
    <tag k="building:levels" v="4"/>
    <tag k="roof:levels" v="1"/>
    <tag k="roof:shape" v="gabled"/>
  </way>
  <way id="105234646" version="5" timestamp="2017-09-14T22:20:23Z" changeset="52053357" uid="78613" user="heilbron">
    <nd ref="1212740255"/>
    <nd ref="1212740173"/>
    <nd ref="1212740196"/>
    <nd ref="1212740202"/>
    <nd ref="1212740119"/>
    <nd ref="1212740255"/>
    <tag k="addr:city" v="München"/>
    <tag k="addr:country" v="DE"/>
    <tag k="addr:housenumber" v="138"/>
    <tag k="addr:postcode" v="80333"/>
    <tag k="addr:street" v="Theresienstraße"/>
    <tag k="building" v="apartments"/>
    <tag k="building:colour" v="#FFFFC0"/>
    <tag k="building:levels" v="5"/>
    <tag k="roof:colour" v="grey"/>
    <tag k="roof:shape" v="gabled"/>
  </way>
  <way id="105234650" version="7" timestamp="2021-10-31T14:48:23Z" changeset="113194958" uid="7702726" user="d2quadra">
    <nd ref="1212740067"/>
    <nd ref="1212740235"/>
    <nd ref="1212740191"/>
    <nd ref="1212740190"/>
    <nd ref="1212740241"/>
    <nd ref="1212740115"/>
    <nd ref="1212740067"/>
    <tag k="addr:housenumber" v="49"/>
    <tag k="addr:postcode" v="80798"/>
    <tag k="addr:street" v="Heßstraße"/>
    <tag k="building" v="apartments"/>
  </way>
  <way id="105234651" version="7" timestamp="2024-12-22T09:11:52Z" changeset="160494195" uid="2491490" user="mseifert">
    <nd ref="1212740137"/>
    <nd ref="1212740147"/>
    <nd ref="1212740010"/>
    <nd ref="1212740092"/>
    <nd ref="1212740133"/>
    <nd ref="1212740059"/>
    <nd ref="1212740120"/>
    <nd ref="3611490133"/>
    <nd ref="1212740179"/>
    <nd ref="1212740137"/>
    <tag k="addr:city" v="München"/>
    <tag k="addr:country" v="DE"/>
    <tag k="addr:housenumber" v="8"/>
    <tag k="addr:postcode" v="80798"/>
    <tag k="addr:street" v="Schwindstraße"/>
    <tag k="building" v="apartments"/>
    <tag k="roof:shape" v="quadruple_saltbox"/>
  </way>
  <way id="105234654" version="5" timestamp="2023-08-01T11:29:26Z" changeset="139295590" uid="6089796" user="mrey">
    <nd ref="1376072159"/>
    <nd ref="1376072161"/>
    <nd ref="1212740138"/>
    <nd ref="1212740072"/>
    <nd ref="1212740267"/>
    <nd ref="1212740030"/>
    <nd ref="1212740089"/>
    <nd ref="1212740032"/>
    <nd ref="1376072159"/>
    <tag k="addr:city" v="München"/>
    <tag k="addr:country" v="DE"/>
    <tag k="addr:housenumber" v="41"/>
    <tag k="addr:postcode" v="80798"/>
    <tag k="addr:street" v="Heßstraße"/>
    <tag k="building" v="apartments"/>
    <tag k="roof:shape" v="gabled"/>
  </way>
  <way id="105234655" version="7" timestamp="2021-11-17T11:37:05Z" changeset="113893898" uid="7702726" user="d2quadra">
    <nd ref="1212740213"/>
    <nd ref="1212740033"/>
    <nd ref="1372082049"/>
    <nd ref="1212740240"/>
    <nd ref="1212740056"/>
    <nd ref="1212740213"/>
    <tag k="addr:city" v="München"/>
    <tag k="addr:country" v="DE"/>
    <tag k="addr:housenumber" v="85a"/>
    <tag k="addr:postcode" v="80798"/>
    <tag k="addr:street" v="Augustenstraße"/>
    <tag k="building" v="apartments"/>
    <tag k="building:levels" v="5"/>
  </way>
  <way id="105234657" version="5" timestamp="2021-10-31T14:50:02Z" changeset="113194958" uid="7702726" user="d2quadra">
    <nd ref="1212740212"/>
    <nd ref="1212740117"/>
    <nd ref="1212740200"/>
    <nd ref="1212740077"/>
    <nd ref="1212740035"/>
    <nd ref="1212740183"/>
    <nd ref="1212740216"/>
    <nd ref="1212740028"/>
    <nd ref="1212740212"/>
    <tag k="addr:city" v="München"/>
    <tag k="addr:country" v="DE"/>
    <tag k="addr:housenumber" v="95"/>
    <tag k="addr:postcode" v="80798"/>
    <tag k="addr:street" v="Augustenstraße"/>
    <tag k="building" v="apartments"/>
    <tag k="building:levels" v="5"/>
  </way>
  <way id="105234659" version="5" timestamp="2024-12-22T09:11:51Z" changeset="160494196" uid="2491490" user="mseifert">
    <nd ref="1212740239"/>
    <nd ref="1212740131"/>
    <nd ref="1212740075"/>
    <nd ref="1212740140"/>
    <nd ref="1212740239"/>
    <tag k="addr:city" v="München"/>
    <tag k="addr:country" v="DE"/>
    <tag k="addr:housenumber" v="2"/>
    <tag k="addr:postcode" v="80798"/>
    <tag k="addr:street" v="Schwindstraße"/>
    <tag k="building" v="apartments"/>
  </way>
  <way id="105234660" version="6" timestamp="2024-12-22T09:11:51Z" changeset="160494196" uid="2491490" user="mseifert">
    <nd ref="1212740129"/>
    <nd ref="1212740075"/>
    <nd ref="1212740140"/>
    <nd ref="1212740252"/>
    <nd ref="1212740109"/>
    <nd ref="1212740272"/>
    <nd ref="1212740135"/>
    <nd ref="1212740073"/>
    <nd ref="1212740129"/>
    <tag k="addr:city" v="München"/>
    <tag k="addr:country" v="DE"/>
    <tag k="addr:housenumber" v="4"/>
    <tag k="addr:postcode" v="80798"/>
    <tag k="addr:street" v="Schwindstraße"/>
    <tag k="building" v="apartments"/>
    <tag k="wikidata" v="Q98643198"/>
  </way>
  <way id="105234662" version="7" timestamp="2024-09-14T20:07:49Z" changeset="156626347" uid="78613" user="heilbron">
    <nd ref="1212740121"/>
    <nd ref="1212740096"/>
    <nd ref="1212740162"/>
    <nd ref="1212740218"/>
    <nd ref="1212740037"/>
    <nd ref="1212740160"/>
    <nd ref="1212740121"/>
    <tag k="addr:city" v="München"/>
    <tag k="addr:country" v="DE"/>
    <tag k="addr:housenumber" v="128"/>
    <tag k="addr:postcode" v="80333"/>
    <tag k="addr:street" v="Theresienstraße"/>
    <tag k="building" v="apartments"/>
    <tag k="building:levels" v="6"/>
    <tag k="roof:levels" v="1"/>
    <tag k="roof:shape" v="gabled"/>
  </way>
  <way id="105234663" version="8" timestamp="2021-12-14T08:04:46Z" changeset="114911464" uid="78613" user="heilbron">
    <nd ref="1212740259"/>
    <nd ref="1212740121"/>
    <nd ref="1212740160"/>
    <nd ref="1225515567"/>
    <nd ref="1225515577"/>
    <nd ref="1212740049"/>
    <nd ref="1212740259"/>
    <tag k="addr:city" v="München"/>
    <tag k="addr:country" v="DE"/>
    <tag k="addr:housenumber" v="130"/>
    <tag k="addr:postcode" v="80333"/>
    <tag k="addr:street" v="Theresienstraße"/>
    <tag k="building" v="apartments"/>
    <tag k="building:levels" v="6"/>
    <tag k="roof:shape" v="gabled"/>
  </way>
  <way id="105234664" version="8" timestamp="2024-12-22T09:11:53Z" changeset="160494195" uid="2491490" user="mseifert">
    <nd ref="1212740176"/>
    <nd ref="3611490129"/>
    <nd ref="1212740067"/>
    <nd ref="1212740115"/>
    <nd ref="1212740094"/>
    <nd ref="1376072162"/>
    <nd ref="1212740176"/>
    <tag k="addr:city" v="München"/>
    <tag k="addr:country" v="DE"/>
    <tag k="addr:housenumber" v="51"/>
    <tag k="addr:postcode" v="80798"/>
    <tag k="addr:street" v="Heßstraße"/>
    <tag k="building" v="apartments"/>
    <tag k="building:levels" v="5"/>
    <tag k="roof:levels" v="1"/>
    <tag k="roof:shape" v="gabled"/>
  </way>
  <way id="106528673" version="4" timestamp="2013-10-29T05:09:10Z" changeset="18595642" uid="14390" user="BeKri">
    <nd ref="1225515592"/>
    <nd ref="1225515598"/>
    <nd ref="1225515625"/>
    <nd ref="1225515607"/>
    <nd ref="1225515608"/>
    <nd ref="1225515592"/>
    <tag k="addr:housenumber" v="2"/>
    <tag k="addr:postcode" v="80798"/>
    <tag k="addr:street" v="Schwindstraße"/>
    <tag k="building" v="residential"/>
  </way>
  <way id="116940763" version="6" timestamp="2022-08-28T17:19:05Z" changeset="125487420" uid="5798254" user="Nathans-Lab">
    <nd ref="1317215343"/>
    <nd ref="2898191902"/>
    <nd ref="491533964"/>
    <nd ref="491533962"/>
    <nd ref="1317215433"/>
    <nd ref="2898191903"/>
    <nd ref="9983721831"/>
    <nd ref="1317215109"/>
    <nd ref="1317215343"/>
    <tag k="addr:city" v="München"/>
    <tag k="addr:country" v="DE"/>
    <tag k="addr:housenumber" v="27"/>
    <tag k="addr:postcode" v="80798"/>
    <tag k="addr:street" v="Heßstraße"/>
    <tag k="building" v="apartments"/>
    <tag k="level" v="1"/>
  </way>
  <way id="116940811" version="7" timestamp="2024-09-19T18:09:33Z" changeset="156833757" uid="536583" user="Strubbl">
    <nd ref="1317214870"/>
    <nd ref="491533958"/>
    <nd ref="4395948762"/>
    <nd ref="415228913"/>
    <nd ref="415228914"/>
    <nd ref="4395948761"/>
    <nd ref="491533960"/>
    <nd ref="1317215204"/>
    <nd ref="1317214870"/>
    <tag k="addr:city" v="München"/>
    <tag k="addr:housenumber" v="100"/>
    <tag k="addr:postcode" v="80333"/>
    <tag k="addr:street" v="Theresienstraße"/>
    <tag k="building" v="dormitory"/>
    <tag k="building:levels" v="6"/>
    <tag k="contact:website" v="https://www.studienseminar-neuburg.de/leistungen/einrichtungen/wohnheim-m%C3%BCnchen/"/>
    <tag k="name" v="Jacob-Balde Studentenwohnheim"/>
    <tag k="roof:levels" v="1"/>
    <tag k="roof:shape" v="hipped"/>
  </way>
  <way id="116940815" version="3" timestamp="2021-11-01T14:58:16Z" changeset="113239351" uid="78613" user="heilbron">
    <nd ref="1317215109"/>
    <nd ref="1317215752"/>
    <nd ref="1317215591"/>
    <nd ref="1317215343"/>
    <nd ref="1317215109"/>
    <tag k="addr:city" v="München"/>
    <tag k="addr:country" v="DE"/>
    <tag k="addr:housenumber" v="29"/>
    <tag k="addr:postcode" v="80798"/>
    <tag k="addr:street" v="Heßstraße"/>
    <tag k="building" v="apartments"/>
  </way>
  <way id="116940874" version="6" timestamp="2022-08-28T17:10:40Z" changeset="125487058" uid="5798254" user="Nathans-Lab">
    <nd ref="1317215235"/>
    <nd ref="9983737289"/>
    <nd ref="1317215689"/>
    <nd ref="1317214756"/>
    <nd ref="1317215461"/>
    <nd ref="1317215235"/>
    <tag k="addr:city" v="München"/>
    <tag k="addr:country" v="DE"/>
    <tag k="addr:housenumber" v="35"/>
    <tag k="addr:postcode" v="80798"/>
    <tag k="addr:street" v="Heßstraße"/>
    <tag k="building" v="apartments"/>
    <tag k="building:levels" v="5"/>
    <tag k="roof:levels" v="0"/>
  </way>
  <way id="116940877" version="7" timestamp="2025-04-16T08:24:54Z" changeset="165016624" uid="11816441" user="CommanderStorm">
    <nd ref="1317214658"/>
    <nd ref="12128621419"/>
    <nd ref="2440477682"/>
    <nd ref="415228916"/>
    <nd ref="415228908"/>
    <nd ref="12759209249"/>
    <nd ref="12128621420"/>
    <nd ref="1317214548"/>
    <nd ref="1317214658"/>
    <tag k="addr:city" v="München"/>
    <tag k="addr:housenumber" v="67"/>
    <tag k="addr:postcode" v="80798"/>
    <tag k="addr:street" v="Luisenstraße"/>
    <tag k="building" v="apartments"/>
    <tag k="building:levels" v="6"/>
    <tag k="roof:shape" v="gabled"/>
  </way>
  <way id="116940889" version="3" timestamp="2021-12-14T08:17:05Z" changeset="114911461" uid="78613" user="heilbron">
    <nd ref="1317214608"/>
    <nd ref="491533962"/>
    <nd ref="491533964"/>
    <nd ref="1317214741"/>
    <nd ref="1317214608"/>
    <tag k="addr:city" v="München"/>
    <tag k="addr:country" v="DE"/>
    <tag k="addr:housenumber" v="25"/>
    <tag k="addr:postcode" v="80798"/>
    <tag k="addr:street" v="Heßstraße"/>
    <tag k="building" v="apartments"/>
  </way>
  <way id="117378263" version="4" timestamp="2023-09-17T19:11:48Z" changeset="141394785" uid="20273373" user="ugh73">
    <nd ref="1322129264"/>
    <nd ref="1322129271"/>
    <nd ref="1322129273"/>
    <nd ref="1322129298"/>
    <nd ref="1322129310"/>
    <nd ref="1322129370"/>
    <nd ref="1322129377"/>
    <nd ref="1322129361"/>
    <nd ref="1322129372"/>
    <nd ref="1322129313"/>
    <nd ref="1322129306"/>
    <nd ref="1322129266"/>
    <nd ref="1322129264"/>
    <tag k="addr:city" v="München"/>
    <tag k="addr:country" v="DE"/>
    <tag k="addr:housenumber" v="9"/>
    <tag k="addr:postcode" v="80798"/>
    <tag k="addr:street" v="Hiltenspergerstraße"/>
    <tag k="building" v="apartments"/>
  </way>
  <way id="117378321" version="9" timestamp="2024-06-21T13:20:01Z" changeset="152993169" uid="12254208" user="joe248">
    <nd ref="1322129548"/>
    <nd ref="3642218247"/>
    <nd ref="11110719897"/>
    <nd ref="1322129243"/>
    <nd ref="1322129250"/>
    <nd ref="2789251786"/>
    <nd ref="2359374077"/>
    <nd ref="1322129563"/>
    <nd ref="1322129558"/>
    <nd ref="1322129548"/>
    <tag k="addr:housenumber" v="11"/>
    <tag k="addr:street" v="Hiltenspergerstraße"/>
    <tag k="building" v="apartments"/>
    <tag k="building:levels" v="6"/>
    <tag k="roof:levels" v="2"/>
    <tag k="roof:shape" v="gabled"/>
  </way>
  <way id="117378379" version="7" timestamp="2023-04-16T06:04:56Z" changeset="134961812" uid="11660957" user="kiggi">
    <nd ref="1322129067"/>
    <nd ref="1322129088"/>
    <nd ref="1322129089"/>
    <nd ref="1322129109"/>
    <nd ref="1322129096"/>
    <nd ref="1322129075"/>
    <nd ref="4447025974"/>
    <nd ref="1322129083"/>
    <nd ref="1322129059"/>
    <nd ref="1322129067"/>
    <tag k="addr:city" v="München"/>
    <tag k="addr:country" v="DE"/>
    <tag k="addr:housenumber" v="29"/>
    <tag k="addr:postcode" v="80798"/>
    <tag k="addr:street" v="Görresstraße"/>
    <tag k="building" v="apartments"/>
    <tag k="building:levels" v="5"/>
    <tag k="roof:levels" v="1"/>
  </way>
  <way id="117378389" version="6" timestamp="2023-09-17T19:14:59Z" changeset="141394785" uid="20273373" user="ugh73">
    <nd ref="1322129125"/>
    <nd ref="1322129102"/>
    <nd ref="1322129148"/>
    <nd ref="1322129158"/>
    <nd ref="1322129144"/>
    <nd ref="1322129145"/>
    <nd ref="1322129161"/>
    <nd ref="1322129172"/>
    <nd ref="1322129162"/>
    <nd ref="1322129125"/>
    <tag k="addr:city" v="München"/>
    <tag k="addr:country" v="DE"/>
    <tag k="addr:housenumber" v="26"/>
    <tag k="addr:postcode" v="80798"/>
    <tag k="addr:street" v="Görresstraße"/>
    <tag k="building" v="apartments"/>
    <tag k="roof:colour" v="red"/>
  </way>
  <way id="122928558" version="2" timestamp="2014-04-13T21:10:26Z" changeset="21674697" uid="8703" user="rolandg">
    <nd ref="1372082169"/>
    <nd ref="1372082163"/>
    <nd ref="1372082126"/>
    <nd ref="1372082143"/>
    <nd ref="1372082169"/>
    <tag k="addr:city" v="München"/>
    <tag k="addr:country" v="DE"/>
    <tag k="addr:housenumber" v="1a"/>
    <tag k="addr:postcode" v="80798"/>
    <tag k="addr:street" v="Schwindstraße"/>
    <tag k="building" v="yes"/>
  </way>
  <way id="123374878" version="3" timestamp="2024-12-22T09:11:53Z" changeset="160494195" uid="2491490" user="mseifert">
    <nd ref="1212740176"/>
    <nd ref="1376072162"/>
    <nd ref="1212740269"/>
    <nd ref="1212740016"/>
    <nd ref="1212740176"/>
    <tag k="addr:city" v="München"/>
    <tag k="addr:country" v="DE"/>
    <tag k="addr:housenumber" v="10"/>
    <tag k="addr:street" v="Schwindstraße"/>
    <tag k="building" v="apartments"/>
    <tag k="roof:shape" v="gabled"/>
  </way>
  <way id="123374881" version="3" timestamp="2015-06-22T20:57:02Z" changeset="32148452" uid="8703" user="rolandg">
    <nd ref="1376072160"/>
    <nd ref="3611472044"/>
    <nd ref="3611472036"/>
    <nd ref="1206194353"/>
    <nd ref="1206194631"/>
    <nd ref="1376072154"/>
    <nd ref="1376072160"/>
    <tag k="addr:city" v="München"/>
    <tag k="addr:country" v="DE"/>
    <tag k="addr:housenumber" v="3"/>
    <tag k="addr:postcode" v="80798"/>
    <tag k="addr:street" v="Schwindstraße"/>
    <tag k="building" v="yes"/>
  </way>
  <way id="123374883" version="5" timestamp="2023-08-01T11:29:26Z" changeset="139295590" uid="6089796" user="mrey">
    <nd ref="1376072159"/>
    <nd ref="1376072161"/>
    <nd ref="1212740212"/>
    <nd ref="1212740117"/>
    <nd ref="1376072159"/>
    <tag k="addr:city" v="München"/>
    <tag k="addr:country" v="DE"/>
    <tag k="addr:housenumber" v="39"/>
    <tag k="addr:postcode" v="80798"/>
    <tag k="addr:street" v="Heßstraße"/>
    <tag k="building" v="apartments"/>
    <tag k="building:levels" v="5"/>
    <tag k="roof:levels" v="1"/>
    <tag k="roof:shape" v="gabled"/>
  </way>
  <way id="123374887" version="3" timestamp="2021-12-26T13:33:58Z" changeset="115386640" uid="4974073" user="thom_bike_bln">
    <nd ref="1376072166"/>
    <nd ref="1376072164"/>
    <nd ref="1202075845"/>
    <nd ref="1202075909"/>
    <nd ref="1372082270"/>
    <nd ref="1376072166"/>
    <tag k="addr:housenumber" v="99"/>
    <tag k="addr:street" v="Augustenstraße"/>
    <tag k="building" v="apartments"/>
    <tag k="building:levels" v="6"/>
  </way>
  <way id="147557400" version="29" timestamp="2025-03-22T20:41:43Z" changeset="163963753" uid="44217" user="kjon">
    <nd ref="345553442"/>
    <nd ref="2155840700"/>
    <nd ref="2838593984"/>
    <nd ref="2836367319"/>
    <nd ref="2836367310"/>
    <nd ref="21457470"/>
    <nd ref="1954396"/>
    <nd ref="394933373"/>
    <tag k="class:bicycle" v="-1"/>
    <tag k="cycleway:left" v="no"/>
    <tag k="cycleway:right" v="lane"/>
    <tag k="cycleway:right:lane" v="exclusive"/>
    <tag k="foot" v="use_sidepath"/>
    <tag k="highway" v="secondary"/>
    <tag k="lanes" v="1"/>
    <tag k="lit" v="yes"/>
    <tag k="maxspeed" v="50"/>
    <tag k="name" v="Theresienstraße"/>
    <tag k="name:etymology:wikidata" v="Q233198"/>
    <tag k="oneway" v="yes"/>
    <tag k="parking:both" v="yes"/>
    <tag k="parking:both:orientation" v="parallel"/>
    <tag k="postal_code" v="80333"/>
    <tag k="sidewalk:both" v="separate"/>
    <tag k="smoothness" v="excellent"/>
    <tag k="source:maxspeed" v="DE:urban"/>
    <tag k="surface" v="asphalt"/>
    <tag k="width" v="11.2"/>
  </way>
  <way id="155040996" version="18" timestamp="2025-03-31T09:16:44Z" changeset="164319938" uid="22537807" user="CityMappingSuperhero">
    <nd ref="4972221472"/>
    <nd ref="12715535143"/>
    <nd ref="8748885712"/>
    <nd ref="3611472046"/>
    <nd ref="3611472032"/>
    <nd ref="8748896791"/>
    <nd ref="25576127"/>
    <nd ref="8748896792"/>
    <nd ref="7516974416"/>
    <nd ref="6730036"/>
    <tag k="class:bicycle" v="1"/>
    <tag k="cycleway:both" v="no"/>
    <tag k="highway" v="residential"/>
    <tag k="lit" v="yes"/>
    <tag k="maxspeed" v="30"/>
    <tag k="name" v="Schwindstraße"/>
    <tag k="name:etymology:wikidata" v="Q551901"/>
    <tag k="oneway" v="no"/>
    <tag k="parking:lane:left:perpendicular" v="street_side"/>
    <tag k="parking:lane:right:parallel" v="on_kerb"/>
    <tag k="parking:left" v="yes"/>
    <tag k="parking:left:orientation" v="perpendicular"/>
    <tag k="parking:right" v="yes"/>
    <tag k="parking:right:orientation" v="parallel"/>
    <tag k="sidewalk:both" v="separate"/>
    <tag k="smoothness" v="good"/>
    <tag k="surface" v="asphalt"/>
  </way>
  <way id="155040999" version="8" timestamp="2023-06-04T10:03:08Z" changeset="136926980" uid="12657263" user="bascho">
    <nd ref="8748896852"/>
    <nd ref="265280126"/>
    <tag k="highway" v="residential"/>
    <tag k="lanes" v="1"/>
    <tag k="lit" v="yes"/>
    <tag k="maxspeed" v="30"/>
    <tag k="name" v="Tengstraße"/>
    <tag k="sidewalk" v="right"/>
    <tag k="sidewalk:right:surface" v="paving_stones"/>
    <tag k="smoothness" v="excellent"/>
    <tag k="surface" v="asphalt"/>
  </way>
  <way id="155041000" version="11" timestamp="2024-07-28T07:45:00Z" changeset="154508732" uid="18493611" user="MunichWays">
    <nd ref="20835174"/>
    <nd ref="8748896852"/>
    <nd ref="2440511937"/>
    <nd ref="1674855130"/>
    <nd ref="4019702605"/>
    <nd ref="1955535"/>
    <tag k="bicycle" v="designated"/>
    <tag k="bicycle_road" v="yes"/>
    <tag k="class:bicycle" v="-1"/>
    <tag k="highway" v="residential"/>
    <tag k="lane_markings" v="no"/>
    <tag k="lanes" v="2"/>
    <tag k="lit" v="yes"/>
    <tag k="maxspeed" v="30"/>
    <tag k="name" v="Tengstraße"/>
    <tag k="smoothness" v="good"/>
    <tag k="source:maxspeed" v="DE:bicycle_road"/>
    <tag k="surface" v="asphalt"/>
    <tag k="traffic_sign" v="DE:244.1"/>
  </way>
  <way id="155041002" version="12" timestamp="2025-03-22T20:41:43Z" changeset="163963753" uid="44217" user="kjon">
    <nd ref="20835182"/>
    <nd ref="8748896724"/>
    <nd ref="1362751392"/>
    <nd ref="6730038"/>
    <nd ref="1362751391"/>
    <nd ref="265280126"/>
    <nd ref="658546080"/>
    <nd ref="20835174"/>
    <tag k="cycleway:both" v="no"/>
    <tag k="highway" v="residential"/>
    <tag k="lit" v="yes"/>
    <tag k="maxspeed" v="30"/>
    <tag k="name" v="Zieblandstraße"/>
    <tag k="name:etymology:wikidata" v="Q84473"/>
    <tag k="parking:both" v="lane"/>
    <tag k="parking:both:orientation" v="parallel"/>
    <tag k="sidewalk:both" v="separate"/>
    <tag k="source:width" v="ARCore"/>
    <tag k="surface" v="asphalt"/>
    <tag k="width" v="9.6"/>
  </way>
  <way id="155055230" version="11" timestamp="2025-03-22T21:16:15Z" changeset="163964538" uid="44217" user="kjon">
    <nd ref="4264359095"/>
    <nd ref="1088755383"/>
    <nd ref="1955504"/>
    <tag k="cycleway:both" v="no"/>
    <tag k="highway" v="residential"/>
    <tag k="lit" v="yes"/>
    <tag k="maxspeed" v="30"/>
    <tag k="name" v="Josephstraße"/>
    <tag k="parking:both" v="no"/>
    <tag k="sidewalk" v="both"/>
    <tag k="sidewalk:both:surface" v="paving_stones"/>
    <tag k="smoothness" v="good"/>
    <tag k="source:width" v="ARCore"/>
    <tag k="surface" v="asphalt"/>
    <tag k="width" v="6.9"/>
  </way>
  <way id="155055231" version="6" timestamp="2025-04-01T10:25:55Z" changeset="164367899" uid="170763" user="SoulCover">
    <nd ref="265283753"/>
    <nd ref="2147909221"/>
    <tag k="highway" v="residential"/>
    <tag k="lit" v="yes"/>
    <tag k="maxspeed" v="30"/>
    <tag k="name" v="Schwarzmannstraße"/>
    <tag k="oneway" v="yes"/>
    <tag k="sidewalk" v="both"/>
    <tag k="surface" v="asphalt"/>
    <tag k="width" v="5"/>
  </way>
  <way id="155603766" version="14" timestamp="2024-04-20T14:24:23Z" changeset="150265729" uid="20785072" user="Herbart1906">
    <nd ref="1955510"/>
    <nd ref="1078797566"/>
    <nd ref="11154436062"/>
    <nd ref="27735979"/>
    <nd ref="27735978"/>
    <nd ref="3586792921"/>
    <nd ref="27487406"/>
    <nd ref="3586813390"/>
    <nd ref="21090903"/>
    <nd ref="27161278"/>
    <nd ref="1376057547"/>
    <nd ref="1376057544"/>
    <nd ref="28092478"/>
    <nd ref="4523700595"/>
    <nd ref="7983329"/>
    <nd ref="1041089253"/>
    <nd ref="4523700603"/>
    <nd ref="1362751394"/>
    <nd ref="1955534"/>
    <tag k="class:bicycle" v="1"/>
    <tag k="highway" v="residential"/>
    <tag k="lit" v="yes"/>
    <tag k="maxspeed" v="30"/>
    <tag k="name" v="Hiltenspergerstraße"/>
    <tag k="name:etymology:wikidata" v="Q316506"/>
    <tag k="sidewalk" v="separate"/>
    <tag k="smoothness" v="excellent"/>
    <tag k="source:maxspeed" v="DE:zone:30"/>
    <tag k="source:width" v="ARCore"/>
    <tag k="surface" v="asphalt"/>
    <tag k="width" v="7.2"/>
  </way>
  <way id="186553873" version="17" timestamp="2025-03-31T09:16:44Z" changeset="164319938" uid="22537807" user="CityMappingSuperhero">
    <nd ref="4825725133"/>
    <nd ref="4338079345"/>
    <nd ref="12715535150"/>
    <nd ref="1955498"/>
    <tag k="bicycle" v="yes"/>
    <tag k="class:bicycle" v="-2"/>
    <tag k="cycleway:both" v="lane"/>
    <tag k="cycleway:both:lane" v="advisory"/>
    <tag k="foot" v="use_sidepath"/>
    <tag k="highway" v="secondary"/>
    <tag k="lanes" v="3"/>
    <tag k="lanes:backward" v="1"/>
    <tag k="lanes:forward" v="2"/>
    <tag k="lit" v="yes"/>
    <tag k="maxspeed" v="50"/>
    <tag k="name" v="Schleißheimer Straße"/>
    <tag k="oneway" v="no"/>
    <tag k="shoulder" v="no"/>
    <tag k="sidewalk:both" v="separate"/>
    <tag k="surface" v="asphalt"/>
    <tag k="width" v="11.5"/>
    <tag k="width:lanes" v="1.25|3.25|2.75|3|1.25"/>
  </way>
  <way id="204817083" version="6" timestamp="2023-09-17T19:43:34Z" changeset="141394783" uid="20273373" user="ugh73">
    <nd ref="2147909221"/>
    <nd ref="2147909220"/>
    <tag k="highway" v="residential"/>
    <tag k="maxheight" v="3.9"/>
    <tag k="maxspeed" v="30"/>
    <tag k="name" v="Schwarzmannstraße"/>
    <tag k="oneway" v="yes"/>
    <tag k="surface" v="asphalt"/>
    <tag k="tunnel" v="building_passage"/>
    <tag k="width" v="5"/>
  </way>
  <way id="204817084" version="4" timestamp="2025-04-28T20:39:09Z" changeset="165565544" uid="137242" user="Rainero">
    <nd ref="2147909220"/>
    <nd ref="1674957759"/>
    <nd ref="1362751395"/>
    <nd ref="265279893"/>
    <tag k="highway" v="residential"/>
    <tag k="maxspeed" v="30"/>
    <tag k="name" v="Schwarzmannstraße"/>
    <tag k="oneway" v="yes"/>
    <tag k="oneway:bicycle" v="no"/>
    <tag k="surface" v="asphalt"/>
    <tag k="width" v="5"/>
  </way>
  <way id="244464568" version="3" timestamp="2022-06-27T04:41:24Z" changeset="122887805" uid="78613" user="heilbron">
    <nd ref="2517790048"/>
    <nd ref="1202322857"/>
    <nd ref="1202322956"/>
    <nd ref="2517790049"/>
    <nd ref="2517790048"/>
    <tag k="addr:city" v="München"/>
    <tag k="addr:country" v="DE"/>
    <tag k="addr:housenumber" v="51"/>
    <tag k="addr:postcode" v="80797"/>
    <tag k="addr:street" v="Schleißheimer Straße"/>
    <tag k="building" v="apartments"/>
    <tag k="building:levels" v="6"/>
  </way>
  <way id="274154210" version="3" timestamp="2023-09-17T19:15:40Z" changeset="141394785" uid="20273373" user="ugh73">
    <nd ref="2789251796"/>
    <nd ref="4523700383"/>
    <nd ref="1322129085"/>
    <nd ref="1322129082"/>
    <nd ref="2789251750"/>
    <nd ref="1322129104"/>
    <nd ref="2789251796"/>
    <tag k="addr:city" v="München"/>
    <tag k="addr:country" v="DE"/>
    <tag k="addr:housenumber" v="1"/>
    <tag k="addr:postcode" v="80798"/>
    <tag k="addr:street" v="Hiltenspergerstraße"/>
    <tag k="building" v="apartments"/>
  </way>
  <way id="278719732" version="3" timestamp="2021-11-17T11:37:05Z" changeset="113893898" uid="7702726" user="d2quadra">
    <nd ref="2830356262"/>
    <nd ref="2830356232"/>
    <nd ref="1137757292"/>
    <nd ref="1317214756"/>
    <nd ref="1317215689"/>
    <nd ref="1137757320"/>
    <nd ref="2830356262"/>
    <tag k="addr:city" v="München"/>
    <tag k="addr:country" v="DE"/>
    <tag k="addr:housenumber" v="37"/>
    <tag k="addr:postcode" v="80798"/>
    <tag k="addr:street" v="Heßstraße"/>
    <tag k="building" v="apartments"/>
    <tag k="building:levels" v="6"/>
  </way>
  <way id="279437678" version="4" timestamp="2023-04-16T01:10:49Z" changeset="134959315" uid="11660957" user="kiggi">
    <nd ref="2836404001"/>
    <nd ref="1203199177"/>
    <nd ref="2836404010"/>
    <nd ref="2836404002"/>
    <nd ref="2836404013"/>
    <nd ref="2836404009"/>
    <nd ref="2836404001"/>
    <tag k="addr:housenumber" v="33"/>
    <tag k="addr:street" v="Görresstraße"/>
    <tag k="building" v="apartments"/>
  </way>
  <way id="286180060" version="12" timestamp="2025-03-31T14:16:47Z" changeset="164332891" uid="170763" user="SoulCover">
    <nd ref="2898191900"/>
    <nd ref="8748896803"/>
    <nd ref="12715535149"/>
    <nd ref="21457470"/>
    <tag k="cycleway:both" v="no"/>
    <tag k="highway" v="residential"/>
    <tag k="lit" v="yes"/>
    <tag k="maxspeed" v="30"/>
    <tag k="name" v="Steinickeweg"/>
    <tag k="name:etymology:wikidata" v="Q1038257"/>
    <tag k="oneway" v="yes"/>
    <tag k="oneway:bicycle" v="no"/>
    <tag k="sidewalk" v="both"/>
    <tag k="sidewalk:both:surface" v="paving_stones"/>
    <tag k="smoothness" v="good"/>
    <tag k="surface" v="asphalt"/>
    <tag k="width" v="6.5"/>
  </way>
  <way id="286180061" version="10" timestamp="2025-03-22T20:41:43Z" changeset="163963753" uid="44217" user="kjon">
    <nd ref="2898191901"/>
    <nd ref="2898191900"/>
    <tag k="cycleway:both" v="no"/>
    <tag k="highway" v="residential"/>
    <tag k="lit" v="yes"/>
    <tag k="maxheight" v="3.7"/>
    <tag k="maxspeed" v="30"/>
    <tag k="name" v="Steinickeweg"/>
    <tag k="name:etymology:wikidata" v="Q1038257"/>
    <tag k="oneway" v="yes"/>
    <tag k="oneway:bicycle" v="no"/>
    <tag k="sidewalk" v="both"/>
    <tag k="surface" v="asphalt"/>
    <tag k="tunnel" v="building_passage"/>
  </way>
  <way id="286180062" version="12" timestamp="2025-03-31T14:16:49Z" changeset="164332891" uid="170763" user="SoulCover">
    <nd ref="2898191903"/>
    <nd ref="390319381"/>
    <nd ref="3610440804"/>
    <nd ref="3352359501"/>
    <nd ref="679056959"/>
    <nd ref="390319403"/>
    <nd ref="2898191901"/>
    <tag k="cycleway:both" v="no"/>
    <tag k="highway" v="residential"/>
    <tag k="lit" v="yes"/>
    <tag k="maxspeed" v="30"/>
    <tag k="name" v="Steinickeweg"/>
    <tag k="name:etymology:wikidata" v="Q1038257"/>
    <tag k="oneway" v="yes"/>
    <tag k="oneway:bicycle" v="no"/>
    <tag k="sidewalk" v="both"/>
    <tag k="sidewalk:both:surface" v="paving_stones"/>
    <tag k="smoothness" v="good"/>
    <tag k="surface" v="asphalt"/>
  </way>
  <way id="286180063" version="12" timestamp="2025-03-31T14:16:53Z" changeset="164332891" uid="170763" user="SoulCover">
    <nd ref="2898191902"/>
    <nd ref="2898191903"/>
    <tag k="highway" v="residential"/>
    <tag k="lit" v="no"/>
    <tag k="maxheight" v="3.7"/>
    <tag k="maxspeed" v="30"/>
    <tag k="name" v="Steinickeweg"/>
    <tag k="name:etymology:wikidata" v="Q1038257"/>
    <tag k="oneway" v="yes"/>
    <tag k="oneway:bicycle" v="no"/>
    <tag k="sidewalk" v="both"/>
    <tag k="sidewalk:both:surface" v="paving_stones"/>
    <tag k="smoothness" v="good"/>
    <tag k="surface" v="asphalt"/>
    <tag k="tunnel" v="building_passage"/>
    <tag k="width" v="6.1"/>
  </way>
  <way id="312550030" version="15" timestamp="2025-05-09T11:40:54Z" changeset="166023995" uid="18850925" user="cableway">
    <nd ref="6730036"/>
    <nd ref="8748896778"/>
    <nd ref="243666970"/>
    <nd ref="20835182"/>
    <nd ref="1493112889"/>
    <nd ref="1954408"/>
    <tag k="class:bicycle" v="1"/>
    <tag k="cycleway:both" v="no"/>
    <tag k="highway" v="residential"/>
    <tag k="lit" v="yes"/>
    <tag k="maxspeed" v="30"/>
    <tag k="name" v="Schwindstraße"/>
    <tag k="name:etymology:wikidata" v="Q551901"/>
    <tag k="oneway" v="no"/>
    <tag k="parking:lane:left:perpendicular" v="street_side"/>
    <tag k="parking:lane:right:parallel" v="on_kerb"/>
    <tag k="parking:left" v="yes"/>
    <tag k="parking:left:orientation" v="perpendicular"/>
    <tag k="parking:right" v="yes"/>
    <tag k="parking:right:orientation" v="parallel"/>
    <tag k="sidewalk:left" v="yes"/>
    <tag k="sidewalk:left:surface" v="paving_stones"/>
    <tag k="sidewalk:right" v="separate"/>
    <tag k="smoothness" v="excellent"/>
    <tag k="source:width" v="ARCore"/>
    <tag k="surface" v="asphalt"/>
    <tag k="width" v="5.5"/>
  </way>
  <way id="320657425" version="2" timestamp="2024-10-16T10:02:10Z" changeset="157956809" uid="137242" user="Rainero">
    <nd ref="3272774739"/>
    <nd ref="3272774743"/>
    <nd ref="12254739692"/>
    <nd ref="12254739693"/>
    <nd ref="3272774744"/>
    <nd ref="3272774745"/>
    <nd ref="3272774740"/>
    <nd ref="3272774739"/>
    <tag k="addr:city" v="München"/>
    <tag k="addr:housenumber" v="15"/>
    <tag k="addr:postcode" v="80798"/>
    <tag k="addr:street" v="Schwindstraße"/>
    <tag k="building" v="yes"/>
  </way>
  <way id="345839560" version="14" timestamp="2023-08-11T06:57:29Z" changeset="139735932" uid="19842223" user="randomly-generated-name">
    <nd ref="11104047582"/>
    <nd ref="11107106307"/>
    <nd ref="11107072501"/>
    <nd ref="4392101418"/>
    <nd ref="5245666617"/>
    <nd ref="13883947"/>
    <tag k="bicycle" v="yes"/>
    <tag k="class:bicycle" v="-2"/>
    <tag k="cycleway:both" v="lane"/>
    <tag k="cycleway:both:lane" v="advisory"/>
    <tag k="foot" v="use_sidepath"/>
    <tag k="highway" v="secondary"/>
    <tag k="lanes" v="2"/>
    <tag k="lit" v="yes"/>
    <tag k="maxspeed" v="50"/>
    <tag k="name" v="Schleißheimer Straße"/>
    <tag k="sidewalk:both" v="separate"/>
    <tag k="surface" v="asphalt"/>
  </way>
  <way id="360485248" version="13" timestamp="2025-03-31T14:17:11Z" changeset="164332890" uid="170763" user="SoulCover">
    <nd ref="6730035"/>
    <nd ref="8748896843"/>
    <nd ref="1972874111"/>
    <tag k="bicycle" v="yes"/>
    <tag k="class:bicycle" v="-2"/>
    <tag k="cycleway:both" v="lane"/>
    <tag k="cycleway:both:lane" v="advisory"/>
    <tag k="foot" v="use_sidepath"/>
    <tag k="highway" v="secondary"/>
    <tag k="lanes" v="2"/>
    <tag k="lit" v="yes"/>
    <tag k="maxspeed" v="50"/>
    <tag k="name" v="Schleißheimer Straße"/>
    <tag k="parking:both" v="street_side"/>
    <tag k="parking:left:orientation" v="diagonal"/>
    <tag k="parking:right:orientation" v="parallel"/>
    <tag k="sidewalk:both" v="separate"/>
    <tag k="smoothness" v="good"/>
    <tag k="surface" v="asphalt"/>
    <tag k="width" v="8"/>
    <tag k="width:lanes" v="1.25|2.25|2.25|1.25"/>
  </way>
  <way id="392103885" version="11" timestamp="2025-02-21T17:20:27Z" changeset="162786681" uid="22537807" user="CityMappingSuperhero">
    <nd ref="3184231757"/>
    <nd ref="4825239739"/>
    <nd ref="2789251774"/>
    <nd ref="10291599703"/>
    <nd ref="1843938668"/>
    <tag k="class:bicycle" v="1"/>
    <tag k="highway" v="residential"/>
    <tag k="lit" v="yes"/>
    <tag k="maxspeed" v="30"/>
    <tag k="name" v="Görresstraße"/>
    <tag k="name:etymology:wikidata" v="Q215730"/>
    <tag k="sidewalk:both" v="separate"/>
    <tag k="smoothness" v="good"/>
    <tag k="surface" v="asphalt"/>
    <tag k="width" v="9.4"/>
  </way>
  <way id="392103889" version="13" timestamp="2025-03-22T20:41:43Z" changeset="163963753" uid="44217" user="kjon">
    <nd ref="244213414"/>
    <nd ref="11107138981"/>
    <nd ref="6402504470"/>
    <nd ref="2440498769"/>
    <nd ref="11107138974"/>
    <nd ref="11107138968"/>
    <nd ref="2440498754"/>
    <nd ref="11107138962"/>
    <nd ref="244213415"/>
    <tag k="class:bicycle" v="-1"/>
    <tag k="cycleway:both" v="no"/>
    <tag k="highway" v="residential"/>
    <tag k="lanes" v="2"/>
    <tag k="lit" v="yes"/>
    <tag k="maxspeed" v="30"/>
    <tag k="name" v="Schellingstraße"/>
    <tag k="name:etymology:wikidata" v="Q60070"/>
    <tag k="parking:both" v="yes"/>
    <tag k="parking:both:orientation" v="parallel"/>
    <tag k="sidewalk:both" v="separate"/>
    <tag k="surface" v="asphalt"/>
  </way>
  <way id="392103890" version="9" timestamp="2025-03-31T14:16:56Z" changeset="164332890" uid="170763" user="SoulCover">
    <nd ref="244213415"/>
    <nd ref="3811912957"/>
    <nd ref="1362751389"/>
    <nd ref="7983342"/>
    <tag k="class:bicycle" v="-1"/>
    <tag k="cycleway:both" v="no"/>
    <tag k="foot" v="use_sidepath"/>
    <tag k="highway" v="residential"/>
    <tag k="lanes" v="2"/>
    <tag k="lit" v="yes"/>
    <tag k="maxspeed" v="50"/>
    <tag k="name" v="Schellingstraße"/>
    <tag k="name:etymology:wikidata" v="Q60070"/>
    <tag k="sidewalk:both" v="separate"/>
    <tag k="smoothness" v="excellent"/>
    <tag k="surface" v="asphalt"/>
  </way>
  <way id="392103891" version="16" timestamp="2024-12-12T13:38:15Z" changeset="160208458" uid="19001249" user="SaschaFilimon">
    <nd ref="9508370962"/>
    <nd ref="8748896817"/>
    <nd ref="7983343"/>
    <nd ref="3946157843"/>
    <nd ref="3811913159"/>
    <nd ref="244213414"/>
    <tag k="bicycle" v="yes"/>
    <tag k="class:bicycle" v="-1"/>
    <tag k="cycleway:both" v="no"/>
    <tag k="highway" v="residential"/>
    <tag k="lanes" v="2"/>
    <tag k="lit" v="yes"/>
    <tag k="maxspeed" v="30"/>
    <tag k="name" v="Schellingstraße"/>
    <tag k="name:etymology:wikidata" v="Q60070"/>
    <tag k="oneway" v="no"/>
    <tag k="sidewalk:both" v="separate"/>
    <tag k="sidewalk:both:surface" v="paving_stones"/>
    <tag k="smoothness" v="excellent"/>
    <tag k="surface" v="asphalt"/>
  </way>
  <way id="392103894" version="20" timestamp="2025-03-22T20:41:43Z" changeset="163963753" uid="44217" user="kjon">
    <nd ref="2285938307"/>
    <nd ref="2836395549"/>
    <nd ref="8500757261"/>
    <nd ref="8500757266"/>
    <nd ref="4972221472"/>
    <nd ref="2441140808"/>
    <nd ref="2836390094"/>
    <nd ref="4208491067"/>
    <nd ref="3588013147"/>
    <tag k="class:bicycle" v="1"/>
    <tag k="cycleway:left" v="no"/>
    <tag k="cycleway:right" v="lane"/>
    <tag k="cycleway:right:lane" v="exclusive"/>
    <tag k="highway" v="secondary"/>
    <tag k="lanes" v="1"/>
    <tag k="lit" v="yes"/>
    <tag k="maxspeed" v="50"/>
    <tag k="name" v="Theresienstraße"/>
    <tag k="name:etymology:wikidata" v="Q233198"/>
    <tag k="oneway" v="yes"/>
    <tag k="parking:both" v="yes"/>
    <tag k="parking:both:orientation" v="parallel"/>
    <tag k="parking:lane:both:parallel" v="street_side"/>
    <tag k="sidewalk:both" v="separate"/>
    <tag k="source:maxspeed" v="DE:urban"/>
    <tag k="surface" v="asphalt"/>
    <tag k="width" v="8.5"/>
  </way>
  <way id="427190844" version="10" timestamp="2024-04-21T18:17:52Z" changeset="150313736" uid="20785072" user="Herbart1906">
    <nd ref="1955532"/>
    <nd ref="4264311482"/>
    <tag k="cycleway:both" v="no"/>
    <tag k="foot" v="use_sidepath"/>
    <tag k="highway" v="residential"/>
    <tag k="lit" v="yes"/>
    <tag k="maxspeed" v="30"/>
    <tag k="name" v="Augustenstraße"/>
    <tag k="name:etymology:wikidata" v="Q232155"/>
    <tag k="parking:both" v="street_side"/>
    <tag k="parking:left:orientation" v="parallel"/>
    <tag k="parking:right:orientation" v="perpendicular"/>
    <tag k="sidewalk" v="both"/>
    <tag k="sidewalk:both:surface" v="paving_stones"/>
    <tag k="smoothness" v="bad"/>
    <tag k="source:width" v="ARCore"/>
    <tag k="surface" v="sett"/>
    <tag k="width" v="5.9"/>
  </way>
  <way id="427194760" version="12" timestamp="2024-04-21T18:18:35Z" changeset="150313736" uid="20785072" user="Herbart1906">
    <nd ref="1955532"/>
    <nd ref="4523700381"/>
    <nd ref="4523700601"/>
    <nd ref="4264359095"/>
    <tag k="cycleway:both" v="no"/>
    <tag k="highway" v="residential"/>
    <tag k="lit" v="yes"/>
    <tag k="maxspeed" v="30"/>
    <tag k="name" v="Josephstraße"/>
    <tag k="parking:left" v="half_on_kerb"/>
    <tag k="parking:left:orientation" v="diagonal"/>
    <tag k="parking:right" v="lane"/>
    <tag k="parking:right:orientation" v="parallel"/>
    <tag k="sidewalk:left" v="separate"/>
    <tag k="sidewalk:right" v="yes"/>
    <tag k="sidewalk:right:surface" v="paving_stones"/>
    <tag k="smoothness" v="bad"/>
    <tag k="source:width" v="ARCore"/>
    <tag k="surface" v="unhewn_cobblestone"/>
    <tag k="width" v="8"/>
  </way>
  <way id="456746070" version="5" timestamp="2025-05-09T11:40:55Z" changeset="166023995" uid="18850925" user="cableway">
    <nd ref="1362826059"/>
    <nd ref="1954405"/>
    <tag k="cycleway:both" v="separate"/>
    <tag k="foot" v="use_sidepath"/>
    <tag k="highway" v="residential"/>
    <tag k="lit" v="yes"/>
    <tag k="maxspeed" v="30"/>
    <tag k="name" v="Augustenstraße"/>
    <tag k="name:etymology:wikidata" v="Q232155"/>
    <tag k="parking:both" v="no"/>
    <tag k="smoothness" v="good"/>
    <tag k="source:width" v="ARCore"/>
    <tag k="surface" v="asphalt"/>
    <tag k="width" v="6.7"/>
  </way>
  <way id="456746085" version="8" timestamp="2025-03-22T21:16:15Z" changeset="163964538" uid="44217" user="kjon">
    <nd ref="3588013147"/>
    <nd ref="1955498"/>
    <tag k="cycleway:left" v="no"/>
    <tag k="cycleway:right" v="lane"/>
    <tag k="cycleway:right:lane" v="exclusive"/>
    <tag k="highway" v="secondary"/>
    <tag k="lanes" v="1"/>
    <tag k="lit" v="yes"/>
    <tag k="maxspeed" v="50"/>
    <tag k="name" v="Theresienstraße"/>
    <tag k="name:etymology:wikidata" v="Q233198"/>
    <tag k="oneway" v="yes"/>
    <tag k="parking:both" v="no"/>
    <tag k="sidewalk:both" v="separate"/>
    <tag k="surface" v="asphalt"/>
    <tag k="width" v="8.5"/>
  </way>
  <way id="490386700" version="6" timestamp="2023-03-27T15:18:20Z" changeset="134182551" uid="18493611" user="MunichWays">
    <nd ref="1972874111"/>
    <nd ref="8748896842"/>
    <nd ref="4825825586"/>
    <nd ref="4825825587"/>
    <nd ref="4825725133"/>
    <tag k="bicycle" v="yes"/>
    <tag k="class:bicycle" v="-2"/>
    <tag k="cycleway:both" v="lane"/>
    <tag k="cycleway:both:lane" v="advisory"/>
    <tag k="foot" v="use_sidepath"/>
    <tag k="highway" v="secondary"/>
    <tag k="lanes" v="2"/>
    <tag k="lit" v="yes"/>
    <tag k="maxspeed" v="50"/>
    <tag k="name" v="Schleißheimer Straße"/>
    <tag k="oneway" v="no"/>
    <tag k="sidewalk:both" v="separate"/>
    <tag k="surface" v="asphalt"/>
    <tag k="width" v="9.5"/>
    <tag k="width:lanes" v="1.5|3.25|3.25|1.5"/>
  </way>
  <way id="717957943" version="7" timestamp="2025-03-22T20:41:43Z" changeset="163963753" uid="44217" user="kjon">
    <nd ref="6742911193"/>
    <nd ref="8748896793"/>
    <nd ref="25576127"/>
    <tag k="class:bicycle" v="1"/>
    <tag k="cycleway:both" v="no"/>
    <tag k="highway" v="residential"/>
    <tag k="lit" v="yes"/>
    <tag k="maxspeed" v="30"/>
    <tag k="name" v="Heßstraße"/>
    <tag k="oneway" v="yes"/>
    <tag k="oneway:bicycle" v="no"/>
    <tag k="parking:both" v="yes"/>
    <tag k="parking:both:orientation" v="parallel"/>
    <tag k="sidewalk:both" v="separate"/>
    <tag k="smoothness" v="good"/>
    <tag k="surface" v="asphalt"/>
  </way>
  <way id="717957944" version="6" timestamp="2025-03-22T20:41:43Z" changeset="163963753" uid="44217" user="kjon">
    <nd ref="1954400"/>
    <nd ref="1362751411"/>
    <nd ref="6742911193"/>
    <tag k="class:bicycle" v="1"/>
    <tag k="cycleway:both" v="no"/>
    <tag k="highway" v="residential"/>
    <tag k="lit" v="yes"/>
    <tag k="maxspeed" v="30"/>
    <tag k="name" v="Heßstraße"/>
    <tag k="oneway" v="yes"/>
    <tag k="oneway:bicycle" v="no"/>
    <tag k="parking:both" v="yes"/>
    <tag k="parking:both:orientation" v="parallel"/>
    <tag k="sidewalk:both" v="separate"/>
    <tag k="sidewalk:both:surface" v="paving_stones"/>
    <tag k="smoothness" v="good"/>
    <tag k="surface" v="asphalt"/>
  </way>
  <way id="851113019" version="4" timestamp="2025-05-09T11:40:53Z" changeset="166023995" uid="18850925" user="cableway">
    <nd ref="3588013134"/>
    <nd ref="5245663026"/>
    <nd ref="25576847"/>
    <nd ref="946836372"/>
    <nd ref="13883946"/>
    <tag k="class:bicycle" v="1"/>
    <tag k="cycleway:both" v="no"/>
    <tag k="highway" v="residential"/>
    <tag k="lit" v="yes"/>
    <tag k="maxspeed" v="30"/>
    <tag k="name" v="Georgenstraße"/>
    <tag k="parking:lane:both" v="parallel"/>
    <tag k="sidewalk" v="both"/>
    <tag k="surface" v="asphalt"/>
  </way>
  <way id="851113021" version="8" timestamp="2025-05-09T11:40:53Z" changeset="166023995" uid="18850925" user="cableway">
    <nd ref="3586792924"/>
    <nd ref="5245666438"/>
    <nd ref="3588013152"/>
    <nd ref="13883947"/>
    <nd ref="3588013134"/>
    <tag k="class:bicycle" v="1"/>
    <tag k="cycleway:both" v="no"/>
    <tag k="highway" v="residential"/>
    <tag k="lit" v="yes"/>
    <tag k="maxspeed" v="30"/>
    <tag k="name" v="Georgenstraße"/>
    <tag k="parking:left" v="yes"/>
    <tag k="parking:left:orientation" v="parallel"/>
    <tag k="parking:right" v="yes"/>
    <tag k="parking:right:orientation" v="diagonal"/>
    <tag k="sidewalk" v="both"/>
    <tag k="sidewalk:both:surface" v="paving_stones"/>
    <tag k="smoothness" v="good"/>
    <tag k="surface" v="asphalt"/>
  </way>
  <way id="851113023" version="9" timestamp="2025-04-01T10:25:55Z" changeset="164367893" uid="170763" user="SoulCover">
    <nd ref="1839230887"/>
    <nd ref="4708036930"/>
    <nd ref="1420302696"/>
    <nd ref="27161278"/>
    <nd ref="1420302735"/>
    <nd ref="265283753"/>
    <nd ref="3586792935"/>
    <nd ref="27487405"/>
    <nd ref="3586792924"/>
    <tag k="class:bicycle" v="1"/>
    <tag k="highway" v="residential"/>
    <tag k="lit" v="yes"/>
    <tag k="maxspeed" v="30"/>
    <tag k="name" v="Georgenstraße"/>
    <tag k="parking:both" v="street_side"/>
    <tag k="parking:both:orientation" v="parallel"/>
    <tag k="sidewalk:both" v="separate"/>
    <tag k="smoothness" v="good"/>
    <tag k="surface" v="asphalt"/>
  </way>
  <way id="851113024" version="8" timestamp="2024-06-27T12:16:13Z" changeset="153245042" uid="18493611" user="MunichWays">
    <nd ref="1088755472"/>
    <nd ref="7247348196"/>
    <nd ref="4708036923"/>
    <nd ref="1839230887"/>
    <tag k="class:bicycle" v="1"/>
    <tag k="highway" v="residential"/>
    <tag k="lit" v="yes"/>
    <tag k="maxspeed" v="30"/>
    <tag k="name" v="Georgenstraße"/>
    <tag k="parking:both" v="street_side"/>
    <tag k="parking:both:orientation" v="parallel"/>
    <tag k="sidewalk" v="both"/>
    <tag k="sidewalk:both:surface" v="concrete:plates"/>
    <tag k="smoothness" v="excellent"/>
    <tag k="source:width" v="ARCore"/>
    <tag k="surface" v="asphalt"/>
    <tag k="width" v="6.4"/>
  </way>
  <way id="851139057" version="6" timestamp="2023-03-27T15:18:20Z" changeset="134182551" uid="18493611" user="MunichWays">
    <nd ref="27487407"/>
    <nd ref="3586813388"/>
    <nd ref="264949874"/>
    <nd ref="5245665965"/>
    <nd ref="13883947"/>
    <tag k="bicycle" v="yes"/>
    <tag k="class:bicycle" v="-2"/>
    <tag k="cycleway" v="lane"/>
    <tag k="cycleway:both" v="lane"/>
    <tag k="cycleway:both:lane" v="advisory"/>
    <tag k="foot" v="use_sidepath"/>
    <tag k="highway" v="secondary"/>
    <tag k="lanes" v="2"/>
    <tag k="lit" v="yes"/>
    <tag k="maxspeed" v="50"/>
    <tag k="name" v="Schleißheimer Straße"/>
    <tag k="sidewalk:both" v="separate"/>
    <tag k="surface" v="asphalt"/>
  </way>
  <way id="943542796" version="9" timestamp="2025-03-22T20:41:43Z" changeset="163963753" uid="44217" user="kjon">
    <nd ref="4972204765"/>
    <nd ref="1362826056"/>
    <nd ref="2285938304"/>
    <nd ref="2285938307"/>
    <tag k="class:bicycle" v="1"/>
    <tag k="cycleway:left" v="no"/>
    <tag k="cycleway:right" v="lane"/>
    <tag k="cycleway:right:lane" v="exclusive"/>
    <tag k="foot" v="use_sidepath"/>
    <tag k="highway" v="secondary"/>
    <tag k="lanes" v="1"/>
    <tag k="lit" v="yes"/>
    <tag k="maxspeed" v="50"/>
    <tag k="name" v="Theresienstraße"/>
    <tag k="name:etymology:wikidata" v="Q233198"/>
    <tag k="oneway" v="yes"/>
    <tag k="parking:both" v="yes"/>
    <tag k="parking:both:orientation" v="parallel"/>
    <tag k="postal_code" v="80333"/>
    <tag k="sidewalk:both" v="separate"/>
    <tag k="sidewalk:both:surface" v="paving_stones"/>
    <tag k="smoothness" v="excellent"/>
    <tag k="source:maxspeed" v="DE:urban"/>
    <tag k="surface" v="asphalt"/>
    <tag k="width" v="8.5"/>
  </way>
  <way id="1105747007" version="2" timestamp="2024-10-16T10:02:10Z" changeset="157956809" uid="137242" user="Rainero">
    <nd ref="12254739691"/>
    <nd ref="12254739684"/>
    <nd ref="10118454628"/>
    <nd ref="1200453375"/>
    <nd ref="10118454627"/>
    <nd ref="12254739683"/>
    <nd ref="10118454626"/>
    <nd ref="1200452808"/>
    <nd ref="12254739691"/>
    <tag k="addr:city" v="München"/>
    <tag k="addr:housenumber" v="76"/>
    <tag k="addr:postcode" v="80798"/>
    <tag k="addr:street" v="Heßstraße"/>
    <tag k="building" v="apartments"/>
  </way>
  <way id="1105747008" version="4" timestamp="2024-10-16T10:02:10Z" changeset="157956809" uid="137242" user="Rainero">
    <nd ref="1200453173"/>
    <nd ref="12254739682"/>
    <nd ref="1200452562"/>
    <nd ref="1200453317"/>
    <nd ref="12254739681"/>
    <nd ref="1200453359"/>
    <nd ref="1200453173"/>
    <tag k="addr:city" v="München"/>
    <tag k="addr:housenumber" v="74"/>
    <tag k="addr:postcode" v="80798"/>
    <tag k="addr:street" v="Heßstraße"/>
    <tag k="building" v="apartments"/>
    <tag k="building:levels" v="5"/>
    <tag k="roof:levels" v="1"/>
    <tag k="roof:shape" v="gabled"/>
  </way>
  <way id="1373443952" version="2" timestamp="2025-03-31T16:01:20Z" changeset="164338028" uid="11758604" user="map per">
    <nd ref="12716544076"/>
    <nd ref="2830356248"/>
    <nd ref="1113634668"/>
    <nd ref="1113634716"/>
    <nd ref="12716538549"/>
    <nd ref="12716544077"/>
    <nd ref="12716544076"/>
    <tag k="addr:city" v="München"/>
    <tag k="addr:country" v="DE"/>
    <tag k="addr:housenumber" v="96a"/>
    <tag k="addr:postcode" v="80798"/>
    <tag k="addr:street" v="Augustenstraße"/>
    <tag k="building" v="apartments"/>
    <tag k="building:levels" v="6"/>
  </way>
  <relation id="14901748" version="2" timestamp="2022-11-18T04:49:46Z" changeset="129068419" uid="10615579" user="WoSoe">
    <member type="way" ref="131494231" role="outer"/>
    <member type="way" ref="1115121437" role="inner"/>
    <member type="way" ref="1114975046" role="inner"/>
    <tag k="addr:city" v="München"/>
    <tag k="addr:housenumber" v="7"/>
    <tag k="addr:postcode" v="80798"/>
    <tag k="addr:street" v="Steinickeweg"/>
    <tag k="building" v="dormitory"/>
    <tag k="building:levels" v="5"/>
    <tag k="loc_name" v="Schollheim"/>
    <tag k="name" v="Studentenwohnheim Geschwister Scholl"/>
    <tag k="operator" v="Studentenwohnheim Geschwister Scholl Verein e.V."/>
    <tag k="type" v="multipolygon"/>
  </relation>

</osm>
