<?xml version="1.0" encoding="UTF-8"?>
<osm version="0.6" generator="Overpass API 0.7.62.5 1bd436f1">
<note>The data included in this document is from www.openstreetmap.org. The data is made available under ODbL.</note>
<meta osm_base="2025-05-18T03:43:23Z" areas="2024-12-31T00:49:33Z"/>

  <node id="428781" lat="48.1316792" lon="11.5865241" version="8" timestamp="2015-09-16T13:09:15Z" changeset="34062391" uid="2590140" user="Floppy919"/>
  <node id="685297" lat="48.1318968" lon="11.5798204" version="6" timestamp="2012-02-16T03:22:58Z" changeset="10698518" uid="13832" user="Peter14"/>
  <node id="1955028" lat="48.1326886" lon="11.5776021" version="7" timestamp="2018-02-24T10:25:17Z" changeset="56632653" uid="52766" user="sakudo">
    <tag k="highway" v="traffic_signals"/>
  </node>
  <node id="1955042" lat="48.1322869" lon="11.5848499" version="13" timestamp="2015-10-13T11:08:45Z" changeset="34608878" uid="2290263" user="soemisch">
    <tag k="tmc" v="DE:27990;DE:35372"/>
  </node>
  <node id="1955044" lat="48.1321394" lon="11.5800783" version="6" timestamp="2012-02-16T03:22:57Z" changeset="10698518" uid="13832" user="Peter14"/>
  <node id="19088834" lat="48.1302657" lon="11.5780511" version="15" timestamp="2023-11-05T14:53:22Z" changeset="143653620" uid="52766" user="sakudo">
    <tag k="button_operated" v="no"/>
    <tag k="crossing" v="traffic_signals"/>
    <tag k="highway" v="crossing"/>
    <tag k="kerb" v="lowered"/>
    <tag k="tactile_paving" v="no"/>
    <tag k="traffic_signals:sound" v="no"/>
    <tag k="traffic_signals:vibration" v="yes"/>
  </node>
  <node id="19088835" lat="48.1282167" lon="11.5758933" version="12" timestamp="2015-09-14T15:25:35Z" changeset="34022981" uid="1266459" user="PeterMO"/>
  <node id="19090049" lat="48.1286224" lon="11.5800595" version="12" timestamp="2016-06-23T06:50:36Z" changeset="40220727" uid="371369" user="mucx"/>
  <node id="27592258" lat="48.1336897" lon="11.5821569" version="8" timestamp="2012-03-24T18:25:49Z" changeset="11087438" uid="64536" user="Michael Forster"/>
  <node id="638954983" lat="48.1338748" lon="11.5827526" version="6" timestamp="2015-06-02T12:10:54Z" changeset="31661988" uid="8748" user="ToniE"/>
  <node id="1646028225" lat="48.1267835" lon="11.5777811" version="4" timestamp="2015-08-18T02:07:42Z" changeset="33405793" uid="354141" user="Anoniman"/>
  <node id="1679671520" lat="48.1278430" lon="11.5761908" version="2" timestamp="2013-10-07T23:38:41Z" changeset="18239039" uid="342705" user="KonB"/>
  <node id="10135735249" lat="48.1318815" lon="11.5805939" version="1" timestamp="2022-10-28T15:51:22Z" changeset="128181103" uid="999279" user="mc64"/>
  <way id="3992421" version="28" timestamp="2025-03-22T20:57:57Z" changeset="163964101" uid="44217" user="kjon">
    <nd ref="19088834"/>
    <nd ref="11703734856"/>
    <nd ref="1520416571"/>
    <nd ref="1520416590"/>
    <nd ref="7868861206"/>
    <nd ref="19082622"/>
    <tag k="bicycle" v="yes"/>
    <tag k="class:bicycle" v="1"/>
    <tag k="cycleway:both" v="no"/>
    <tag k="highway" v="residential"/>
    <tag k="lit" v="yes"/>
    <tag k="maxspeed" v="30"/>
    <tag k="name" v="Corneliusstraße"/>
    <tag k="oneway" v="yes"/>
    <tag k="oneway:bicycle" v="no"/>
    <tag k="oneway:psv" v="no"/>
    <tag k="sidewalk:both" v="separate"/>
    <tag k="smoothness" v="good"/>
    <tag k="surface" v="asphalt"/>
  </way>
  <way id="4645380" version="17" timestamp="2025-03-22T20:57:57Z" changeset="163964101" uid="44217" user="kjon">
    <nd ref="251741085"/>
    <nd ref="7963856886"/>
    <nd ref="293729469"/>
    <nd ref="428785"/>
    <tag k="bicycle" v="yes"/>
    <tag k="cycleway" v="no"/>
    <tag k="highway" v="residential"/>
    <tag k="lit" v="yes"/>
    <tag k="maxspeed" v="30"/>
    <tag k="name" v="Morassistraße"/>
    <tag k="oneway" v="no"/>
    <tag k="parking:left" v="yes"/>
    <tag k="parking:left:orientation" v="diagonal"/>
    <tag k="parking:right" v="yes"/>
    <tag k="parking:right:orientation" v="parallel"/>
    <tag k="postal_code" v="80469"/>
    <tag k="sidewalk" v="both"/>
    <tag k="sidewalk:both:surface" v="paving_stones"/>
    <tag k="smoothness" v="good"/>
    <tag k="surface" v="asphalt"/>
  </way>
  <way id="4662374" version="29" timestamp="2025-03-22T20:57:57Z" changeset="163964101" uid="44217" user="kjon">
    <nd ref="19088835"/>
    <nd ref="3762862213"/>
    <nd ref="1156361392"/>
    <nd ref="12015822245"/>
    <nd ref="11703734866"/>
    <nd ref="19088834"/>
    <tag k="cycleway:both" v="no"/>
    <tag k="highway" v="residential"/>
    <tag k="lit" v="yes"/>
    <tag k="maxspeed" v="30"/>
    <tag k="name" v="Baaderstraße"/>
    <tag k="oneway" v="yes"/>
    <tag k="oneway:bicycle" v="no"/>
    <tag k="parking:both" v="yes"/>
    <tag k="parking:both:orientation" v="parallel"/>
    <tag k="sidewalk:both" v="separate"/>
    <tag k="smoothness" v="excellent"/>
    <tag k="surface" v="asphalt"/>
  </way>
  <way id="19077974" version="25" timestamp="2023-07-23T05:55:26Z" changeset="138879446" uid="18493611" user="MunichWays">
    <nd ref="428783"/>
    <nd ref="428782"/>
    <tag k="bicycle" v="use_sidepath"/>
    <tag k="bridge" v="yes"/>
    <tag k="class:bicycle" v="-1"/>
    <tag k="foot" v="use_sidepath"/>
    <tag k="highway" v="secondary"/>
    <tag k="lanes" v="2"/>
    <tag k="layer" v="1"/>
    <tag k="lit" v="yes"/>
    <tag k="maxspeed" v="50"/>
    <tag k="maxweight:signed" v="no"/>
    <tag k="name" v="Ludwigsbrücke"/>
    <tag k="oneway" v="yes"/>
    <tag k="sidewalk:left" v="no"/>
    <tag k="sidewalk:right" v="separate"/>
    <tag k="surface" v="asphalt"/>
    <tag k="tmc" v="DE:27990/35402"/>
  </way>
  <way id="19097839" version="18" timestamp="2023-07-23T06:39:15Z" changeset="138880253" uid="18493611" user="MunichWays">
    <nd ref="1955071"/>
    <nd ref="298501052"/>
    <tag k="class:bicycle" v="-1"/>
    <tag k="cycleway:both" v="lane"/>
    <tag k="cycleway:both:lane" v="exclusive"/>
    <tag k="highway" v="tertiary"/>
    <tag k="lanes" v="2"/>
    <tag k="lit" v="yes"/>
    <tag k="maxspeed:type" v="DE:urban"/>
    <tag k="name" v="Corneliusbrücke"/>
    <tag k="sidewalk" v="both"/>
    <tag k="sidewalk:both:surface" v="asphalt"/>
    <tag k="smoothness" v="good"/>
    <tag k="surface" v="asphalt"/>
  </way>
  <way id="19437819" version="19" timestamp="2024-12-17T17:03:46Z" changeset="160311041" uid="18493611" user="MunichWays">
    <nd ref="202147244"/>
    <nd ref="19090047"/>
    <tag k="bridge" v="yes"/>
    <tag k="class:bicycle" v="-1"/>
    <tag k="cycleway:both" v="lane"/>
    <tag k="cycleway:both:lane" v="exclusive"/>
    <tag k="highway" v="tertiary"/>
    <tag k="lanes" v="2"/>
    <tag k="layer" v="1"/>
    <tag k="lit" v="yes"/>
    <tag k="maxspeed" v="50"/>
    <tag k="maxweight:signed" v="no"/>
    <tag k="name" v="Corneliusbrücke"/>
    <tag k="sidewalk" v="both"/>
    <tag k="sidewalk:both:surface" v="concrete"/>
    <tag k="smoothness" v="good"/>
    <tag k="source:maxspeed" v="sign"/>
    <tag k="surface" v="asphalt"/>
  </way>
  <way id="23262330" version="23" timestamp="2025-03-22T20:57:57Z" changeset="163964101" uid="44217" user="kjon">
    <nd ref="10135735248"/>
    <nd ref="7963902955"/>
    <nd ref="1576342379"/>
    <nd ref="10135735249"/>
    <tag k="bicycle" v="yes"/>
    <tag k="class:bicycle" v="1"/>
    <tag k="cycleway:left" v="lane"/>
    <tag k="cycleway:left:lane" v="exclusive"/>
    <tag k="cycleway:left:oneway" v="-1"/>
    <tag k="cycleway:right" v="no"/>
    <tag k="highway" v="residential"/>
    <tag k="lit" v="yes"/>
    <tag k="maxspeed" v="30"/>
    <tag k="name" v="Kohlstraße"/>
    <tag k="oneway" v="yes"/>
    <tag k="oneway:bicycle" v="no"/>
    <tag k="parking:condition:right" v="no_stopping"/>
    <tag k="parking:lane:left:parallel" v="on_street"/>
    <tag k="parking:left" v="yes"/>
    <tag k="parking:left:orientation" v="parallel"/>
    <tag k="parking:right" v="no"/>
    <tag k="postal_code" v="80469"/>
    <tag k="sidewalk" v="both"/>
    <tag k="sidewalk:both:surface" v="paving_stones"/>
    <tag k="smoothness" v="good"/>
    <tag k="surface" v="asphalt"/>
  </way>
  <way id="23262334" version="18" timestamp="2025-03-22T20:57:57Z" changeset="163964101" uid="44217" user="kjon">
    <nd ref="251741085"/>
    <nd ref="7963856888"/>
    <nd ref="1357459853"/>
    <nd ref="1955069"/>
    <tag k="bicycle" v="yes"/>
    <tag k="class:bicycle" v="1"/>
    <tag k="cycleway" v="no"/>
    <tag k="highway" v="residential"/>
    <tag k="lit" v="yes"/>
    <tag k="maxspeed" v="30"/>
    <tag k="name" v="Kohlstraße"/>
    <tag k="parking:both" v="yes"/>
    <tag k="parking:both:orientation" v="parallel"/>
    <tag k="parking:lane:left:parallel" v="painted_area_only"/>
    <tag k="parking:lane:right:parallel" v="street_side"/>
    <tag k="postal_code" v="80469"/>
    <tag k="sidewalk" v="both"/>
    <tag k="sidewalk:both:surface" v="paving_stones"/>
    <tag k="smoothness" v="good"/>
    <tag k="surface" v="asphalt"/>
    <tag k="width" v="5"/>
  </way>
  <way id="27201856" version="14" timestamp="2023-07-23T06:39:15Z" changeset="138880253" uid="18493611" user="MunichWays">
    <nd ref="202147244"/>
    <nd ref="2487367729"/>
    <nd ref="298501052"/>
    <tag k="class:bicycle" v="-1"/>
    <tag k="cycleway:both" v="lane"/>
    <tag k="cycleway:both:lane" v="exclusive"/>
    <tag k="highway" v="tertiary"/>
    <tag k="lanes" v="3"/>
    <tag k="lanes:backward" v="1"/>
    <tag k="lanes:forward" v="2"/>
    <tag k="lit" v="yes"/>
    <tag k="maxspeed:type" v="DE:urban"/>
    <tag k="name" v="Corneliusbrücke"/>
    <tag k="sidewalk" v="both"/>
    <tag k="sidewalk:both:surface" v="concrete"/>
    <tag k="smoothness" v="good"/>
    <tag k="surface" v="asphalt"/>
    <tag k="turn:lanes:forward" v="left|none"/>
  </way>
  <way id="27202778" version="19" timestamp="2023-07-23T05:55:26Z" changeset="138879446" uid="18493611" user="MunichWays">
    <nd ref="428782"/>
    <nd ref="1072765211"/>
    <nd ref="1688834551"/>
    <nd ref="1688834543"/>
    <nd ref="1086078511"/>
    <nd ref="2518733527"/>
    <nd ref="428781"/>
    <tag k="bicycle" v="use_sidepath"/>
    <tag k="class:bicycle" v="-1"/>
    <tag k="foot" v="use_sidepath"/>
    <tag k="highway" v="secondary"/>
    <tag k="lanes" v="2"/>
    <tag k="lit" v="yes"/>
    <tag k="maxspeed" v="50"/>
    <tag k="name" v="Ludwigsbrücke"/>
    <tag k="oneway" v="yes"/>
    <tag k="sidewalk:left" v="no"/>
    <tag k="sidewalk:right" v="separate"/>
    <tag k="surface" v="asphalt"/>
    <tag k="tmc" v="DE:27990/35402"/>
  </way>
  <way id="27202779" version="18" timestamp="2024-12-27T10:20:51Z" changeset="160669072" uid="4974073" user="thom_bike_bln">
    <nd ref="428781"/>
    <nd ref="19096359"/>
    <tag k="bicycle" v="use_sidepath"/>
    <tag k="bridge" v="yes"/>
    <tag k="cycleway:left" v="no"/>
    <tag k="cycleway:right" v="separate"/>
    <tag k="foot" v="use_sidepath"/>
    <tag k="highway" v="secondary"/>
    <tag k="lanes" v="2"/>
    <tag k="layer" v="1"/>
    <tag k="lit" v="yes"/>
    <tag k="maxspeed" v="50"/>
    <tag k="maxweight:signed" v="no"/>
    <tag k="name" v="Ludwigsbrücke"/>
    <tag k="name:etymology:wikidata" v="Q44361"/>
    <tag k="oneway" v="yes"/>
    <tag k="shoulder" v="no"/>
    <tag k="sidewalk:left" v="no"/>
    <tag k="sidewalk:right" v="separate"/>
    <tag k="surface" v="asphalt"/>
    <tag k="tmc" v="DE:27990/35402"/>
  </way>
  <way id="30046693" version="11" timestamp="2024-11-21T16:37:35Z" changeset="159419785" uid="16980532" user="henner9595">
    <nd ref="330925360"/>
    <nd ref="678592489"/>
    <nd ref="330925367"/>
    <nd ref="678592480"/>
    <nd ref="330925370"/>
    <nd ref="330925364"/>
    <nd ref="330925360"/>
    <tag k="addr:city" v="München"/>
    <tag k="addr:housenumber" v="1"/>
    <tag k="addr:place" v="Museumsinsel"/>
    <tag k="addr:postcode" v="80538"/>
    <tag k="building" v="retail"/>
    <tag k="building:levels" v="5"/>
    <tag k="height" v="25"/>
    <tag k="name" v="Forum der Zukunft"/>
    <tag k="old_name" v="Forum am Deutschen Museum (Cinema)"/>
    <tag k="operator" v="Deutsches Museum A.d.ö.R."/>
    <tag k="roof:levels" v="0"/>
    <tag k="roof:shape" v="flat"/>
    <tag k="smoking" v="no"/>
  </way>
  <way id="30923288" version="16" timestamp="2022-09-22T20:26:56Z" changeset="126520665" uid="12120321" user="bollyboll">
    <nd ref="27592258"/>
    <nd ref="1689006915"/>
    <nd ref="1689006913"/>
    <nd ref="1576429550"/>
    <nd ref="343741971"/>
    <tag k="cycleway:both" v="no"/>
    <tag k="highway" v="residential"/>
    <tag k="lanes" v="2"/>
    <tag k="lit" v="yes"/>
    <tag k="maxspeed" v="50"/>
    <tag k="name" v="Baaderstraße"/>
    <tag k="postal_code" v="80469"/>
    <tag k="sidewalk" v="both"/>
    <tag k="sidewalk:both:surface" v="paving_stones"/>
    <tag k="smoothness" v="good"/>
    <tag k="surface" v="asphalt"/>
  </way>
  <way id="35147152" version="16" timestamp="2024-07-15T22:47:10Z" changeset="153991984" uid="4974073" user="thom_bike_bln">
    <nd ref="2487367730"/>
    <nd ref="2487367731"/>
    <nd ref="2481209066"/>
    <nd ref="1955071"/>
    <tag k="bicycle" v="use_sidepath"/>
    <tag k="foot" v="use_sidepath"/>
    <tag k="highway" v="secondary"/>
    <tag k="lanes" v="4"/>
    <tag k="lit" v="yes"/>
    <tag k="maxspeed" v="50"/>
    <tag k="name" v="Erhardtstraße"/>
    <tag k="sidewalk:left" v="yes"/>
    <tag k="sidewalk:right" v="separate"/>
    <tag k="smoothness" v="good"/>
    <tag k="surface" v="asphalt"/>
    <tag k="tmc" v="DE:27953/27954"/>
  </way>
  <way id="38349483" version="15" timestamp="2024-01-31T16:30:12Z" changeset="146911965" uid="8748" user="ToniE">
    <nd ref="428784"/>
    <nd ref="2794931534"/>
    <tag k="bicycle" v="use_sidepath"/>
    <tag k="foot" v="use_sidepath"/>
    <tag k="highway" v="secondary"/>
    <tag k="lanes" v="1"/>
    <tag k="lit" v="yes"/>
    <tag k="maxspeed" v="50"/>
    <tag k="name" v="Zweibrückenstraße"/>
    <tag k="oneway" v="yes"/>
    <tag k="sidewalk:left" v="no"/>
    <tag k="sidewalk:right" v="separate"/>
    <tag k="smoothness" v="good"/>
    <tag k="surface" v="asphalt"/>
    <tag k="tmc" v="DE:35372/35373"/>
  </way>
  <way id="38349485" version="21" timestamp="2022-10-21T08:50:03Z" changeset="127870665" uid="536583" user="Strubbl">
    <nd ref="1955042"/>
    <nd ref="278690117"/>
    <nd ref="8262602431"/>
    <nd ref="1072765282"/>
    <tag k="bicycle" v="use_sidepath"/>
    <tag k="highway" v="secondary"/>
    <tag k="lanes" v="5"/>
    <tag k="lanes:backward" v="3"/>
    <tag k="lanes:forward" v="2"/>
    <tag k="lit" v="yes"/>
    <tag k="maxspeed" v="50"/>
    <tag k="name" v="Erhardtstraße"/>
    <tag k="sidewalk" v="separate"/>
    <tag k="surface" v="asphalt"/>
    <tag k="tmc" v="DE:27953/27954"/>
    <tag k="turn:lanes:backward" v="through|through|right"/>
    <tag k="turn:lanes:forward" v="none|none"/>
  </way>
  <way id="46870052" version="31" timestamp="2024-03-10T18:09:13Z" changeset="148474268" uid="3075580" user="Linda89">
    <nd ref="19088835"/>
    <nd ref="3742874043"/>
    <nd ref="1679671546"/>
    <nd ref="19082650"/>
    <tag k="class:bicycle" v="1"/>
    <tag k="cycleway:left" v="no"/>
    <tag k="cycleway:right" v="lane"/>
    <tag k="cycleway:right:lane" v="exclusive"/>
    <tag k="foot" v="use_sidepath"/>
    <tag k="highway" v="secondary"/>
    <tag k="lanes" v="1"/>
    <tag k="lit" v="yes"/>
    <tag k="maxspeed" v="40"/>
    <tag k="name" v="Fraunhoferstraße"/>
    <tag k="name:etymology:wikidata" v="Q43948"/>
    <tag k="oneway" v="yes"/>
    <tag k="sidewalk:left" v="no"/>
    <tag k="sidewalk:right" v="separate"/>
    <tag k="sidewalk:right:surface" v="paving_stones"/>
    <tag k="smoothness" v="good"/>
    <tag k="source:maxspeed" v="sign"/>
    <tag k="surface" v="asphalt"/>
  </way>
  <way id="50640255" version="25" timestamp="2025-03-01T16:00:49Z" changeset="163093591" uid="1756528" user="HarteKarte">
    <nd ref="19088834"/>
    <nd ref="3870598107"/>
    <nd ref="1159760662"/>
    <nd ref="1245412024"/>
    <nd ref="1245410928"/>
    <nd ref="1520379142"/>
    <nd ref="2487367733"/>
    <nd ref="2481209069"/>
    <nd ref="1955071"/>
    <tag k="bicycle" v="yes"/>
    <tag k="class:bicycle" v="1"/>
    <tag k="cycleway:left" v="lane"/>
    <tag k="cycleway:left:lane" v="advisory"/>
    <tag k="cycleway:left:oneway" v="-1"/>
    <tag k="cycleway:right" v="no"/>
    <tag k="foot" v="use_sidepath"/>
    <tag k="highway" v="residential"/>
    <tag k="lit" v="yes"/>
    <tag k="maxspeed" v="30"/>
    <tag k="name" v="Corneliusstraße"/>
    <tag k="oneway" v="yes"/>
    <tag k="oneway:bicycle" v="no"/>
    <tag k="oneway:psv" v="no"/>
    <tag k="sidewalk:both" v="separate"/>
    <tag k="sidewalk:both:surface" v="paving_stones"/>
    <tag k="smoothness" v="excellent"/>
    <tag k="surface" v="asphalt"/>
  </way>
  <way id="52108080" version="13" timestamp="2023-02-09T12:59:47Z" changeset="132306514" uid="531886" user="drlellinger">
    <nd ref="664043726"/>
    <nd ref="2206477212"/>
    <nd ref="664043733"/>
    <nd ref="664043739"/>
    <nd ref="2206477211"/>
    <nd ref="664043745"/>
    <nd ref="664043751"/>
    <nd ref="664043755"/>
    <nd ref="664043757"/>
    <nd ref="664043758"/>
    <nd ref="664043726"/>
    <tag k="building" v="ship"/>
    <tag k="historic" v="ship"/>
    <tag k="name" v="Seenotrettungskreuzer &quot;Theodor Heuss&quot;"/>
    <tag k="note" v="the ship had been renamed from H. H. Meier to Theodor Heuss, the wikipedia entry of the former contains the appropriate picture and has the full story"/>
    <tag k="old_name" v="H. H. Meier"/>
    <tag k="operator" v="Deutsches Museum München"/>
    <tag k="ship:type" v="lifeboat"/>
    <tag k="tourism" v="attraction"/>
    <tag k="website" v="https://www.deutsches-museum.de/museum/sammlung"/>
    <tag k="wheelchair" v="no"/>
    <tag k="wikimedia_commons" v="File:Seenotrettungskreuzer.jpg"/>
    <tag k="wikipedia" v="de:H. H. Meier (Schiff)"/>
  </way>
  <way id="96539575" version="7" timestamp="2023-11-20T15:44:23Z" changeset="144252658" uid="376477" user="hans007">
    <nd ref="1118356624"/>
    <nd ref="2476966498"/>
    <nd ref="1118356656"/>
    <nd ref="1118356657"/>
    <nd ref="1118356659"/>
    <nd ref="1118356665"/>
    <nd ref="1118356666"/>
    <nd ref="1118356624"/>
    <tag k="addr:city" v="München"/>
    <tag k="addr:country" v="DE"/>
    <tag k="addr:housenumber" v="2"/>
    <tag k="addr:postcode" v="80469"/>
    <tag k="addr:street" v="Morassistraße"/>
    <tag k="building" v="apartments"/>
    <tag k="building:colour" v="orange"/>
    <tag k="building:levels" v="6"/>
    <tag k="roof:levels" v="2"/>
    <tag k="roof:shape" v="gabled"/>
  </way>
  <way id="96539576" version="7" timestamp="2021-07-26T15:22:45Z" changeset="108633109" uid="7532683" user="dendreier">
    <nd ref="1118356669"/>
    <nd ref="1118356691"/>
    <nd ref="1118356657"/>
    <nd ref="1118356656"/>
    <nd ref="2476966513"/>
    <nd ref="1118356672"/>
    <nd ref="1118356669"/>
    <tag k="addr:city" v="München"/>
    <tag k="addr:country" v="DE"/>
    <tag k="addr:housenumber" v="2a"/>
    <tag k="addr:postcode" v="80469"/>
    <tag k="addr:street" v="Morassistraße"/>
    <tag k="building" v="apartments"/>
    <tag k="building:levels" v="5"/>
    <tag k="roof:levels" v="2"/>
    <tag k="roof:shape" v="gabled"/>
  </way>
  <way id="96539577" version="7" timestamp="2021-07-26T15:22:53Z" changeset="108633109" uid="7532683" user="dendreier">
    <nd ref="1118356671"/>
    <nd ref="1118356672"/>
    <nd ref="1118356669"/>
    <nd ref="1118356639"/>
    <nd ref="1118356671"/>
    <tag k="addr:city" v="München"/>
    <tag k="addr:country" v="DE"/>
    <tag k="addr:housenumber" v="4"/>
    <tag k="addr:postcode" v="80469"/>
    <tag k="addr:street" v="Morassistraße"/>
    <tag k="building" v="apartments"/>
    <tag k="building:levels" v="4"/>
    <tag k="roof:levels" v="2"/>
    <tag k="roof:shape" v="gabled"/>
  </way>
  <way id="96712902" version="7" timestamp="2023-11-20T15:44:22Z" changeset="144252658" uid="376477" user="hans007">
    <nd ref="1120008140"/>
    <nd ref="1120008336"/>
    <nd ref="1120008259"/>
    <nd ref="1120008281"/>
    <nd ref="1120008319"/>
    <nd ref="1120008155"/>
    <nd ref="1120008140"/>
    <tag k="addr:city" v="München"/>
    <tag k="addr:country" v="DE"/>
    <tag k="addr:housenumber" v="2"/>
    <tag k="addr:postcode" v="80331"/>
    <tag k="addr:street" v="Zweibrückenstraße"/>
    <tag k="building" v="office"/>
    <tag k="building:colour" v="red"/>
    <tag k="building:levels" v="5"/>
    <tag k="roof:levels" v="1"/>
    <tag k="roof:shape" v="hipped"/>
  </way>
  <way id="96712938" version="7" timestamp="2023-11-20T15:44:22Z" changeset="144252658" uid="376477" user="hans007">
    <nd ref="1120008210"/>
    <nd ref="1120008244"/>
    <nd ref="1120008140"/>
    <nd ref="1120008155"/>
    <nd ref="1120008210"/>
    <tag k="addr:city" v="München"/>
    <tag k="addr:country" v="DE"/>
    <tag k="addr:housenumber" v="4"/>
    <tag k="addr:postcode" v="80331"/>
    <tag k="addr:street" v="Zweibrückenstraße"/>
    <tag k="building" v="apartments"/>
    <tag k="building:colour" v="orange"/>
    <tag k="building:levels" v="5"/>
    <tag k="roof:levels" v="1"/>
    <tag k="roof:shape" v="gabled"/>
  </way>
  <way id="96712943" version="6" timestamp="2023-09-17T16:24:55Z" changeset="141389402" uid="7702726" user="d2quadra">
    <nd ref="1120008124"/>
    <nd ref="1120008265"/>
    <nd ref="1120008301"/>
    <nd ref="1120008322"/>
    <nd ref="1120008124"/>
    <tag k="addr:housenumber" v="8"/>
    <tag k="addr:street" v="Zweibrückenstraße"/>
    <tag k="building" v="apartments"/>
    <tag k="building:levels" v="5"/>
    <tag k="roof:levels" v="2"/>
    <tag k="roof:shape" v="gabled"/>
  </way>
  <way id="96712955" version="7" timestamp="2021-03-15T16:16:11Z" changeset="101063255" uid="7532683" user="dendreier">
    <nd ref="1120008259"/>
    <nd ref="1120008116"/>
    <nd ref="1120008185"/>
    <nd ref="1120008204"/>
    <nd ref="1120008240"/>
    <nd ref="1120008281"/>
    <nd ref="1120008259"/>
    <tag k="addr:city" v="München"/>
    <tag k="addr:country" v="DE"/>
    <tag k="addr:housenumber" v="48"/>
    <tag k="addr:postcode" v="80469"/>
    <tag k="addr:street" v="Rumfordstraße"/>
    <tag k="building" v="apartments"/>
    <tag k="building:levels" v="5"/>
    <tag k="roof:levels" v="1"/>
    <tag k="roof:shape" v="gabled"/>
    <tag k="wikidata" v="Q41179350"/>
  </way>
  <way id="97574117" version="16" timestamp="2023-07-23T06:39:15Z" changeset="138880253" uid="18493611" user="MunichWays">
    <nd ref="19090049"/>
    <nd ref="202146606"/>
    <tag k="bridge" v="yes"/>
    <tag k="class:bicycle" v="-1"/>
    <tag k="cycleway:both" v="lane"/>
    <tag k="cycleway:both:lane" v="exclusive"/>
    <tag k="highway" v="tertiary"/>
    <tag k="lanes" v="2"/>
    <tag k="layer" v="1"/>
    <tag k="lit" v="yes"/>
    <tag k="maxspeed" v="50"/>
    <tag k="maxweight:signed" v="no"/>
    <tag k="name" v="Corneliusbrücke"/>
    <tag k="name:etymology:wikidata" v="Q58833"/>
    <tag k="sidewalk" v="both"/>
    <tag k="sidewalk:both:surface" v="concrete"/>
    <tag k="smoothness" v="good"/>
    <tag k="source:maxspeed" v="sign"/>
    <tag k="surface" v="asphalt"/>
  </way>
  <way id="97574118" version="15" timestamp="2023-07-23T06:39:15Z" changeset="138880253" uid="18493611" user="MunichWays">
    <nd ref="19090047"/>
    <nd ref="4259967240"/>
    <nd ref="1129616387"/>
    <nd ref="8711342012"/>
    <nd ref="19090049"/>
    <tag k="class:bicycle" v="-1"/>
    <tag k="cycleway:both" v="lane"/>
    <tag k="cycleway:both:lane" v="exclusive"/>
    <tag k="highway" v="tertiary"/>
    <tag k="lanes" v="3"/>
    <tag k="lanes:backward" v="2"/>
    <tag k="lanes:forward" v="1"/>
    <tag k="lit" v="yes"/>
    <tag k="maxspeed" v="50"/>
    <tag k="name" v="Corneliusbrücke"/>
    <tag k="sidewalk" v="both"/>
    <tag k="sidewalk:both:surface" v="concrete"/>
    <tag k="smoothness" v="good"/>
    <tag k="source:maxspeed" v="sign"/>
    <tag k="surface" v="asphalt"/>
  </way>
  <way id="101601383" version="12" timestamp="2022-10-18T14:03:23Z" changeset="127729562" uid="59608" user="q5gads4">
    <nd ref="1172983823"/>
    <nd ref="2481209096"/>
    <nd ref="7966074799"/>
    <nd ref="1172984017"/>
    <nd ref="2481209094"/>
    <nd ref="1172983884"/>
    <nd ref="10111456739"/>
    <nd ref="2481209089"/>
    <nd ref="2481209087"/>
    <nd ref="2484181473"/>
    <nd ref="1172983797"/>
    <nd ref="1172984106"/>
    <nd ref="1172984215"/>
    <nd ref="1172984235"/>
    <nd ref="1172983823"/>
    <tag k="addr:city" v="München"/>
    <tag k="addr:country" v="DE"/>
    <tag k="addr:housenumber" v="33"/>
    <tag k="addr:postcode" v="80469"/>
    <tag k="addr:street" v="Baaderstraße"/>
    <tag k="building" v="apartments"/>
    <tag k="building:levels" v="6"/>
    <tag k="roof:levels" v="1"/>
    <tag k="roof:shape" v="hipped"/>
  </way>
  <way id="101601386" version="6" timestamp="2021-03-01T19:27:27Z" changeset="100227051" uid="7532683" user="dendreier">
    <nd ref="1172984263"/>
    <nd ref="1172984155"/>
    <nd ref="1172983727"/>
    <nd ref="1172983915"/>
    <nd ref="1172983870"/>
    <nd ref="1172984263"/>
    <tag k="addr:city" v="München"/>
    <tag k="addr:country" v="DE"/>
    <tag k="addr:housenumber" v="7"/>
    <tag k="addr:postcode" v="80469"/>
    <tag k="addr:street" v="Kohlstraße"/>
    <tag k="building" v="apartments"/>
    <tag k="building:levels" v="6"/>
    <tag k="roof:levels" v="1"/>
    <tag k="roof:shape" v="gabled"/>
  </way>
  <way id="101601390" version="7" timestamp="2021-03-01T19:27:29Z" changeset="100227051" uid="7532683" user="dendreier">
    <nd ref="1172983788"/>
    <nd ref="1172983964"/>
    <nd ref="1172984016"/>
    <nd ref="1172984195"/>
    <nd ref="1172983926"/>
    <nd ref="1172983953"/>
    <nd ref="2476966502"/>
    <nd ref="1172984270"/>
    <nd ref="1172983788"/>
    <tag k="addr:city" v="München"/>
    <tag k="addr:country" v="DE"/>
    <tag k="addr:housenumber" v="26"/>
    <tag k="addr:postcode" v="80469"/>
    <tag k="addr:street" v="Morassistraße"/>
    <tag k="building" v="apartments"/>
    <tag k="building:levels" v="4"/>
    <tag k="roof:levels" v="1"/>
    <tag k="roof:shape" v="gabled"/>
  </way>
  <way id="101601401" version="8" timestamp="2021-03-01T19:27:30Z" changeset="100227051" uid="7532683" user="dendreier">
    <nd ref="1172984022"/>
    <nd ref="7966074801"/>
    <nd ref="2481209105"/>
    <nd ref="2481209102"/>
    <nd ref="2481209098"/>
    <nd ref="2481209099"/>
    <nd ref="7966074800"/>
    <nd ref="1172983823"/>
    <nd ref="1172984235"/>
    <nd ref="1172983830"/>
    <nd ref="1172984022"/>
    <tag k="addr:city" v="München"/>
    <tag k="addr:country" v="DE"/>
    <tag k="addr:housenumber" v="31"/>
    <tag k="addr:postcode" v="80469"/>
    <tag k="addr:street" v="Baaderstraße"/>
    <tag k="building" v="apartments"/>
    <tag k="building:levels" v="5"/>
    <tag k="roof:levels" v="1"/>
    <tag k="roof:shape" v="gabled"/>
  </way>
  <way id="101601405" version="7" timestamp="2021-03-01T19:27:31Z" changeset="100227051" uid="7532683" user="dendreier">
    <nd ref="1172984211"/>
    <nd ref="2481209128"/>
    <nd ref="1172983767"/>
    <nd ref="2481209126"/>
    <nd ref="2481209124"/>
    <nd ref="2481209122"/>
    <nd ref="2481209123"/>
    <nd ref="2481209121"/>
    <nd ref="1172983941"/>
    <nd ref="1172984260"/>
    <nd ref="1172984211"/>
    <tag k="addr:city" v="München"/>
    <tag k="addr:country" v="DE"/>
    <tag k="addr:housenumber" v="23"/>
    <tag k="addr:postcode" v="80469"/>
    <tag k="addr:street" v="Baaderstraße"/>
    <tag k="building" v="apartments"/>
    <tag k="building:levels" v="4"/>
    <tag k="roof:levels" v="1"/>
    <tag k="roof:shape" v="gambrel"/>
  </way>
  <way id="101601407" version="7" timestamp="2021-07-05T16:44:25Z" changeset="107451488" uid="13701272" user="GG2394">
    <nd ref="1172984100"/>
    <nd ref="1172984151"/>
    <nd ref="1172983909"/>
    <nd ref="1172984012"/>
    <nd ref="1172983771"/>
    <nd ref="1172983889"/>
    <nd ref="1172984100"/>
    <tag k="addr:housenumber" v="3"/>
    <tag k="addr:street" v="Baaderstraße"/>
    <tag k="building" v="apartments"/>
    <tag k="building:levels" v="6"/>
    <tag k="roof:levels" v="1"/>
  </way>
  <way id="101601409" version="6" timestamp="2021-03-01T19:27:32Z" changeset="100227051" uid="7532683" user="dendreier">
    <nd ref="1172983829"/>
    <nd ref="1172984246"/>
    <nd ref="1172983699"/>
    <nd ref="1172984115"/>
    <nd ref="1172983829"/>
    <tag k="addr:city" v="München"/>
    <tag k="addr:country" v="DE"/>
    <tag k="addr:housenumber" v="20"/>
    <tag k="addr:postcode" v="80469"/>
    <tag k="addr:street" v="Morassistraße"/>
    <tag k="building" v="apartments"/>
    <tag k="building:levels" v="4"/>
    <tag k="roof:levels" v="1"/>
    <tag k="roof:shape" v="gabled"/>
  </way>
  <way id="101601412" version="6" timestamp="2021-03-01T19:27:33Z" changeset="100227051" uid="7532683" user="dendreier">
    <nd ref="1172984260"/>
    <nd ref="1172983941"/>
    <nd ref="1172984008"/>
    <nd ref="1172983815"/>
    <nd ref="1172984260"/>
    <tag k="addr:city" v="München"/>
    <tag k="addr:country" v="DE"/>
    <tag k="addr:housenumber" v="25"/>
    <tag k="addr:postcode" v="80469"/>
    <tag k="addr:street" v="Baaderstraße"/>
    <tag k="building" v="apartments"/>
    <tag k="building:levels" v="5"/>
    <tag k="roof:levels" v="1"/>
    <tag k="roof:shape" v="gambrel"/>
  </way>
  <way id="101601416" version="6" timestamp="2021-03-01T19:27:42Z" changeset="100227051" uid="7532683" user="dendreier">
    <nd ref="1172984115"/>
    <nd ref="1172983699"/>
    <nd ref="1172983832"/>
    <nd ref="1172984121"/>
    <nd ref="1172984115"/>
    <tag k="addr:city" v="München"/>
    <tag k="addr:country" v="DE"/>
    <tag k="addr:housenumber" v="18"/>
    <tag k="addr:postcode" v="80469"/>
    <tag k="addr:street" v="Morassistraße"/>
    <tag k="building" v="apartments"/>
    <tag k="building:levels" v="4"/>
    <tag k="roof:levels" v="1"/>
    <tag k="roof:shape" v="gabled"/>
  </way>
  <way id="101601418" version="6" timestamp="2023-05-13T14:17:07Z" changeset="136055611" uid="4376164" user="redweizn">
    <nd ref="1172984099"/>
    <nd ref="1172983889"/>
    <nd ref="1172983771"/>
    <nd ref="1172983873"/>
    <nd ref="1172983689"/>
    <nd ref="1172983782"/>
    <nd ref="1172984099"/>
    <tag k="addr:city" v="München"/>
    <tag k="addr:country" v="DE"/>
    <tag k="addr:housenumber" v="3"/>
    <tag k="addr:postcode" v="80469"/>
    <tag k="addr:street" v="Baaderstraße"/>
    <tag k="building" v="apartments"/>
    <tag k="building:levels" v="6"/>
    <tag k="roof:levels" v="1"/>
    <tag k="roof:shape" v="gabled"/>
  </way>
  <way id="101601421" version="6" timestamp="2021-03-01T19:27:43Z" changeset="100227051" uid="7532683" user="dendreier">
    <nd ref="1172984121"/>
    <nd ref="1172983832"/>
    <nd ref="1172983902"/>
    <nd ref="1172983866"/>
    <nd ref="1172983711"/>
    <nd ref="1172984121"/>
    <tag k="addr:city" v="München"/>
    <tag k="addr:country" v="DE"/>
    <tag k="addr:housenumber" v="16"/>
    <tag k="addr:postcode" v="80469"/>
    <tag k="addr:street" v="Morassistraße"/>
    <tag k="building" v="apartments"/>
    <tag k="building:levels" v="4"/>
    <tag k="roof:levels" v="1"/>
    <tag k="roof:shape" v="gabled"/>
  </way>
  <way id="101601445" version="6" timestamp="2021-07-26T15:29:56Z" changeset="108633397" uid="7532683" user="dendreier">
    <nd ref="1172984073"/>
    <nd ref="1172984123"/>
    <nd ref="1172983903"/>
    <nd ref="2481209109"/>
    <nd ref="2481209110"/>
    <nd ref="1172984113"/>
    <nd ref="1172983826"/>
    <nd ref="1172983715"/>
    <nd ref="1172984054"/>
    <nd ref="1172984073"/>
    <tag k="addr:city" v="München"/>
    <tag k="addr:country" v="DE"/>
    <tag k="addr:housenumber" v="27a"/>
    <tag k="addr:postcode" v="80469"/>
    <tag k="addr:street" v="Baaderstraße"/>
    <tag k="building" v="apartments"/>
    <tag k="source" v="Bing"/>
  </way>
  <way id="101601451" version="7" timestamp="2021-03-01T19:27:45Z" changeset="100227051" uid="7532683" user="dendreier">
    <nd ref="1172984253"/>
    <nd ref="1172984128"/>
    <nd ref="2481209160"/>
    <nd ref="2481209158"/>
    <nd ref="2481209153"/>
    <nd ref="2481209154"/>
    <nd ref="1172984003"/>
    <nd ref="1172984091"/>
    <nd ref="1172984253"/>
    <tag k="addr:city" v="München"/>
    <tag k="addr:country" v="DE"/>
    <tag k="addr:housenumber" v="15"/>
    <tag k="addr:postcode" v="80469"/>
    <tag k="addr:street" v="Baaderstraße"/>
    <tag k="building" v="apartments"/>
    <tag k="building:levels" v="4"/>
    <tag k="roof:levels" v="1"/>
    <tag k="roof:shape" v="gabled"/>
  </way>
  <way id="101601455" version="6" timestamp="2021-03-01T19:27:46Z" changeset="100227051" uid="7532683" user="dendreier">
    <nd ref="1172984004"/>
    <nd ref="1172984197"/>
    <nd ref="1172984292"/>
    <nd ref="1172984028"/>
    <nd ref="1172983947"/>
    <nd ref="1172983718"/>
    <nd ref="1172983817"/>
    <nd ref="1172984205"/>
    <nd ref="1172984004"/>
    <tag k="addr:city" v="München"/>
    <tag k="addr:country" v="DE"/>
    <tag k="addr:housenumber" v="2"/>
    <tag k="addr:postcode" v="80469"/>
    <tag k="addr:street" v="Baaderplatz"/>
    <tag k="building" v="apartments"/>
    <tag k="building:levels" v="5"/>
    <tag k="roof:levels" v="1"/>
    <tag k="roof:shape" v="gabled"/>
  </way>
  <way id="101601464" version="6" timestamp="2021-03-01T19:27:47Z" changeset="100227051" uid="7532683" user="dendreier">
    <nd ref="1172983883"/>
    <nd ref="1172983921"/>
    <nd ref="1172983964"/>
    <nd ref="1172983788"/>
    <nd ref="1172983883"/>
    <tag k="addr:city" v="München"/>
    <tag k="addr:country" v="DE"/>
    <tag k="addr:housenumber" v="11"/>
    <tag k="addr:postcode" v="80469"/>
    <tag k="addr:street" v="Kohlstraße"/>
    <tag k="building" v="apartments"/>
    <tag k="building:levels" v="4"/>
    <tag k="roof:levels" v="1"/>
    <tag k="roof:shape" v="gabled"/>
  </way>
  <way id="101601465" version="4" timestamp="2021-07-05T16:51:01Z" changeset="107451558" uid="13701272" user="GG2394">
    <nd ref="2485745718"/>
    <nd ref="2485745732"/>
    <nd ref="1172983935"/>
    <nd ref="1172983737"/>
    <nd ref="1172983899"/>
    <nd ref="1172984044"/>
    <nd ref="1172984097"/>
    <nd ref="1172983728"/>
    <nd ref="1172983813"/>
    <nd ref="2485745740"/>
    <nd ref="2485745718"/>
    <tag k="addr:city" v="München"/>
    <tag k="addr:country" v="DE"/>
    <tag k="addr:housenumber" v="14"/>
    <tag k="addr:postcode" v="80469"/>
    <tag k="addr:street" v="Morassistraße"/>
    <tag k="building" v="apartments"/>
  </way>
  <way id="101601475" version="6" timestamp="2020-12-07T16:37:37Z" changeset="95434140" uid="7532683" user="dendreier">
    <nd ref="1172984085"/>
    <nd ref="1172984310"/>
    <nd ref="1172984149"/>
    <nd ref="1172983951"/>
    <nd ref="1172984085"/>
    <tag k="addr:city" v="München"/>
    <tag k="addr:country" v="DE"/>
    <tag k="addr:housenumber" v="4"/>
    <tag k="addr:postcode" v="80469"/>
    <tag k="addr:street" v="Kohlstraße"/>
    <tag k="building" v="apartments"/>
    <tag k="building:levels" v="5"/>
    <tag k="roof:levels" v="1"/>
    <tag k="roof:shape" v="gambrel"/>
  </way>
  <way id="101601478" version="6" timestamp="2021-03-01T19:27:48Z" changeset="100227051" uid="7532683" user="dendreier">
    <nd ref="1172983727"/>
    <nd ref="1172984155"/>
    <nd ref="1172984175"/>
    <nd ref="1172984213"/>
    <nd ref="1172983921"/>
    <nd ref="1172983883"/>
    <nd ref="1172983727"/>
    <tag k="addr:city" v="München"/>
    <tag k="addr:country" v="DE"/>
    <tag k="addr:housenumber" v="9"/>
    <tag k="addr:postcode" v="80469"/>
    <tag k="addr:street" v="Kohlstraße"/>
    <tag k="building" v="hotel"/>
    <tag k="building:levels" v="5"/>
    <tag k="roof:levels" v="1"/>
    <tag k="roof:shape" v="gabled"/>
  </way>
  <way id="101601482" version="7" timestamp="2021-03-01T19:27:49Z" changeset="100227051" uid="7532683" user="dendreier">
    <nd ref="1172983953"/>
    <nd ref="1172983926"/>
    <nd ref="1172984025"/>
    <nd ref="1172983839"/>
    <nd ref="2476966523"/>
    <nd ref="1172983953"/>
    <tag k="addr:city" v="München"/>
    <tag k="addr:country" v="DE"/>
    <tag k="addr:housenumber" v="24"/>
    <tag k="addr:postcode" v="80469"/>
    <tag k="addr:street" v="Morassistraße"/>
    <tag k="building" v="apartments"/>
    <tag k="building:levels" v="5"/>
    <tag k="roof:levels" v="1"/>
    <tag k="roof:shape" v="gabled"/>
  </way>
  <way id="101601486" version="7" timestamp="2021-03-01T19:27:50Z" changeset="100227051" uid="7532683" user="dendreier">
    <nd ref="1172984028"/>
    <nd ref="1172984250"/>
    <nd ref="1172983996"/>
    <nd ref="3585418333"/>
    <nd ref="3585418332"/>
    <nd ref="1172984075"/>
    <nd ref="1172983851"/>
    <nd ref="1172984018"/>
    <nd ref="1172984292"/>
    <nd ref="1172984028"/>
    <tag k="addr:city" v="München"/>
    <tag k="addr:country" v="DE"/>
    <tag k="addr:housenumber" v="3"/>
    <tag k="addr:postcode" v="80469"/>
    <tag k="addr:street" v="Kohlstraße"/>
    <tag k="building" v="apartments"/>
    <tag k="building:levels" v="4"/>
    <tag k="roof:levels" v="1"/>
    <tag k="roof:shape" v="gabled"/>
  </way>
  <way id="101601488" version="10" timestamp="2023-01-24T04:23:44Z" changeset="131632237" uid="461130" user="Fizzie-DWG">
    <nd ref="1172984018"/>
    <nd ref="1172983851"/>
    <nd ref="1172984263"/>
    <nd ref="1172983870"/>
    <nd ref="1172984018"/>
    <tag k="addr:city" v="München"/>
    <tag k="addr:country" v="DE"/>
    <tag k="addr:housenumber" v="5"/>
    <tag k="addr:postcode" v="80469"/>
    <tag k="addr:street" v="Kohlstraße"/>
    <tag k="building" v="school"/>
    <tag k="building:levels" v="6"/>
    <tag k="roof:levels" v="1"/>
    <tag k="roof:shape" v="gambrel"/>
    <tag k="wikidata" v="Q41179075"/>
  </way>
  <way id="101601500" version="10" timestamp="2021-03-15T16:23:42Z" changeset="101063255" uid="7532683" user="dendreier">
    <nd ref="1172983721"/>
    <nd ref="1576344764"/>
    <nd ref="1576344787"/>
    <nd ref="2481209190"/>
    <nd ref="7966074807"/>
    <nd ref="7966074806"/>
    <nd ref="2481209189"/>
    <nd ref="1172984310"/>
    <nd ref="1172984085"/>
    <nd ref="1172983721"/>
    <tag k="addr:city" v="München"/>
    <tag k="addr:country" v="DE"/>
    <tag k="addr:housenumber" v="2"/>
    <tag k="addr:postcode" v="80469"/>
    <tag k="addr:street" v="Kohlstraße"/>
    <tag k="building" v="apartments"/>
    <tag k="building:levels" v="4"/>
    <tag k="roof:levels" v="1"/>
    <tag k="roof:shape" v="gambrel"/>
  </way>
  <way id="101601505" version="6" timestamp="2021-03-15T16:17:49Z" changeset="101063255" uid="7532683" user="dendreier">
    <nd ref="1172983694"/>
    <nd ref="1172983731"/>
    <nd ref="1172983790"/>
    <nd ref="1172983968"/>
    <nd ref="1172984236"/>
    <nd ref="1172983694"/>
    <tag k="addr:city" v="München"/>
    <tag k="addr:country" v="DE"/>
    <tag k="addr:housenumber" v="7"/>
    <tag k="addr:postcode" v="80469"/>
    <tag k="addr:street" v="Baaderstraße"/>
    <tag k="building" v="apartments"/>
    <tag k="building:levels" v="4"/>
    <tag k="roof:levels" v="1"/>
    <tag k="roof:shape" v="gambrel"/>
  </way>
  <way id="101601516" version="6" timestamp="2021-03-15T16:17:14Z" changeset="101063255" uid="7532683" user="dendreier">
    <nd ref="1172983689"/>
    <nd ref="1172983873"/>
    <nd ref="1172983731"/>
    <nd ref="1172983694"/>
    <nd ref="1172983689"/>
    <tag k="addr:city" v="München"/>
    <tag k="addr:country" v="DE"/>
    <tag k="addr:housenumber" v="5"/>
    <tag k="addr:postcode" v="80469"/>
    <tag k="addr:street" v="Baaderstraße"/>
    <tag k="building" v="apartments"/>
    <tag k="building:levels" v="4"/>
    <tag k="roof:levels" v="2"/>
    <tag k="roof:shape" v="gambrel"/>
  </way>
  <way id="101601527" version="3" timestamp="2013-09-20T18:46:50Z" changeset="17945087" uid="8703" user="rolandg">
    <nd ref="1172984083"/>
    <nd ref="1172983949"/>
    <nd ref="1172984147"/>
    <nd ref="1172983769"/>
    <nd ref="1172984083"/>
    <tag k="addr:city" v="München"/>
    <tag k="addr:country" v="DE"/>
    <tag k="addr:housenumber" v="22a"/>
    <tag k="addr:postcode" v="80469"/>
    <tag k="addr:street" v="Morassistraße"/>
    <tag k="building" v="yes"/>
  </way>
  <way id="101601529" version="7" timestamp="2021-03-01T19:27:54Z" changeset="100227051" uid="7532683" user="dendreier">
    <nd ref="1172983839"/>
    <nd ref="1172984025"/>
    <nd ref="1172984234"/>
    <nd ref="1172984246"/>
    <nd ref="1172983829"/>
    <nd ref="1172983839"/>
    <tag k="addr:city" v="München"/>
    <tag k="addr:country" v="DE"/>
    <tag k="addr:housenumber" v="22"/>
    <tag k="addr:postcode" v="80469"/>
    <tag k="addr:street" v="Morassistraße"/>
    <tag k="building" v="apartments"/>
    <tag k="building:levels" v="4"/>
    <tag k="roof:levels" v="1"/>
    <tag k="roof:shape" v="gabled"/>
  </way>
  <way id="101601532" version="9" timestamp="2021-03-01T19:27:56Z" changeset="100227051" uid="7532683" user="dendreier">
    <nd ref="1172983815"/>
    <nd ref="1172984008"/>
    <nd ref="7966074802"/>
    <nd ref="1172983967"/>
    <nd ref="1172983923"/>
    <nd ref="1172983815"/>
    <tag k="addr:city" v="München"/>
    <tag k="addr:country" v="DE"/>
    <tag k="addr:housenumber" v="27"/>
    <tag k="addr:postcode" v="80469"/>
    <tag k="addr:street" v="Baaderstraße"/>
    <tag k="building" v="apartments"/>
    <tag k="building:levels" v="4"/>
    <tag k="roof:levels" v="1"/>
    <tag k="roof:shape" v="gambrel"/>
    <tag k="wikidata" v="Q41178394"/>
  </way>
  <way id="101601534" version="7" timestamp="2021-03-15T16:16:12Z" changeset="101063255" uid="7532683" user="dendreier">
    <nd ref="1120008240"/>
    <nd ref="1172983821"/>
    <nd ref="1172983853"/>
    <nd ref="1172984254"/>
    <nd ref="1172984248"/>
    <nd ref="1172983722"/>
    <nd ref="1172984087"/>
    <nd ref="1120008204"/>
    <nd ref="1120008240"/>
    <tag k="addr:city" v="München"/>
    <tag k="addr:country" v="DE"/>
    <tag k="addr:housenumber" v="46"/>
    <tag k="addr:postcode" v="80469"/>
    <tag k="addr:street" v="Rumfordstraße"/>
    <tag k="building" v="apartments"/>
    <tag k="building:levels" v="5"/>
    <tag k="roof:levels" v="1"/>
    <tag k="roof:shape" v="gabled"/>
    <tag k="wikidata" v="Q41179347"/>
  </way>
  <way id="112482794" version="7" timestamp="2024-08-27T20:24:24Z" changeset="155850206" uid="13496000" user="geo-d">
    <nd ref="1278404832"/>
    <nd ref="1278404961"/>
    <nd ref="1278404792"/>
    <nd ref="1278404956"/>
    <nd ref="1278404856"/>
    <nd ref="1278405082"/>
    <nd ref="12140802984"/>
    <nd ref="1278404884"/>
    <nd ref="1278404832"/>
    <tag k="addr:city" v="München"/>
    <tag k="addr:country" v="DE"/>
    <tag k="addr:housenumber" v="38"/>
    <tag k="addr:postcode" v="80469"/>
    <tag k="addr:street" v="Corneliusstraße"/>
    <tag k="building" v="apartments"/>
    <tag k="building:levels" v="6"/>
    <tag k="roof:levels" v="1"/>
    <tag k="roof:shape" v="gabled"/>
  </way>
  <way id="112482795" version="5" timestamp="2024-08-27T20:24:24Z" changeset="155850206" uid="13496000" user="geo-d">
    <nd ref="1278405006"/>
    <nd ref="1278404974"/>
    <nd ref="1278404875"/>
    <nd ref="12140826417"/>
    <nd ref="1278404904"/>
    <nd ref="1278404992"/>
    <nd ref="1278405001"/>
    <nd ref="1278404776"/>
    <nd ref="1278404801"/>
    <nd ref="1278405067"/>
    <nd ref="1278404848"/>
    <nd ref="1278404959"/>
    <nd ref="1278405055"/>
    <nd ref="1278405006"/>
    <tag k="addr:city" v="München"/>
    <tag k="addr:country" v="DE"/>
    <tag k="addr:housenumber" v="45"/>
    <tag k="addr:postcode" v="80469"/>
    <tag k="addr:street" v="Baaderstraße"/>
    <tag k="building" v="apartments"/>
  </way>
  <way id="112482796" version="6" timestamp="2021-03-01T19:26:36Z" changeset="100227051" uid="7532683" user="dendreier">
    <nd ref="1278404848"/>
    <nd ref="2476966526"/>
    <nd ref="1278404941"/>
    <nd ref="1278404774"/>
    <nd ref="1278404959"/>
    <nd ref="1278404848"/>
    <tag k="addr:city" v="München"/>
    <tag k="addr:country" v="DE"/>
    <tag k="addr:housenumber" v="47"/>
    <tag k="addr:postcode" v="80469"/>
    <tag k="addr:street" v="Baaderstraße"/>
    <tag k="building" v="apartments"/>
    <tag k="building:levels" v="4"/>
    <tag k="roof:levels" v="1"/>
    <tag k="roof:shape" v="gabled"/>
  </way>
  <way id="112482799" version="4" timestamp="2020-11-02T16:52:40Z" changeset="93429874" uid="7532683" user="dendreier">
    <nd ref="1278405047"/>
    <nd ref="1278404881"/>
    <nd ref="1278405081"/>
    <nd ref="1278404809"/>
    <nd ref="1278405047"/>
    <tag k="addr:city" v="München"/>
    <tag k="addr:country" v="DE"/>
    <tag k="addr:housenumber" v="57"/>
    <tag k="addr:postcode" v="80469"/>
    <tag k="addr:street" v="Baaderstraße"/>
    <tag k="building" v="apartments"/>
    <tag k="building:levels" v="4"/>
    <tag k="roof:shape" v="gabled"/>
  </way>
  <way id="112482800" version="6" timestamp="2021-03-01T19:28:00Z" changeset="100227051" uid="7532683" user="dendreier">
    <nd ref="1278404928"/>
    <nd ref="1278404790"/>
    <nd ref="1278405006"/>
    <nd ref="1278405055"/>
    <nd ref="1278404928"/>
    <tag k="addr:city" v="München"/>
    <tag k="addr:country" v="DE"/>
    <tag k="addr:housenumber" v="43"/>
    <tag k="addr:postcode" v="80469"/>
    <tag k="addr:street" v="Baaderstraße"/>
    <tag k="building" v="apartments"/>
    <tag k="building:levels" v="5"/>
    <tag k="roof:levels" v="1"/>
    <tag k="roof:shape" v="gambrel"/>
  </way>
  <way id="112482806" version="6" timestamp="2024-08-27T20:24:24Z" changeset="155850206" uid="13496000" user="geo-d">
    <nd ref="1278404933"/>
    <nd ref="1278404770"/>
    <nd ref="1320872493"/>
    <nd ref="12140826439"/>
    <nd ref="12140826437"/>
    <nd ref="1320867852"/>
    <nd ref="12140826429"/>
    <nd ref="12140826430"/>
    <nd ref="1320870594"/>
    <nd ref="1278404955"/>
    <nd ref="1278404881"/>
    <nd ref="1278405047"/>
    <nd ref="1278404933"/>
    <tag k="addr:city" v="München"/>
    <tag k="addr:country" v="DE"/>
    <tag k="addr:housenumber" v="55"/>
    <tag k="addr:postcode" v="80469"/>
    <tag k="addr:street" v="Baaderstraße"/>
    <tag k="building" v="apartments"/>
    <tag k="building:levels" v="4"/>
    <tag k="roof:shape" v="gabled"/>
  </way>
  <way id="112482807" version="7" timestamp="2021-03-29T15:40:05Z" changeset="101926957" uid="7532683" user="dendreier">
    <nd ref="1278404976"/>
    <nd ref="1278404825"/>
    <nd ref="1576341859"/>
    <nd ref="1278404777"/>
    <nd ref="1278404976"/>
    <tag k="addr:city" v="München"/>
    <tag k="addr:country" v="DE"/>
    <tag k="addr:housenumber" v="44"/>
    <tag k="addr:postcode" v="80469"/>
    <tag k="addr:street" v="Corneliusstraße"/>
    <tag k="building" v="apartments"/>
    <tag k="building:levels" v="4"/>
    <tag k="roof:levels" v="1"/>
    <tag k="roof:shape" v="gabled"/>
  </way>
  <way id="112482809" version="4" timestamp="2020-11-02T16:52:42Z" changeset="93429874" uid="7532683" user="dendreier">
    <nd ref="1278404809"/>
    <nd ref="1278405081"/>
    <nd ref="1278405075"/>
    <nd ref="1278405069"/>
    <nd ref="1278404849"/>
    <nd ref="1278404944"/>
    <nd ref="1278405031"/>
    <nd ref="1278404882"/>
    <nd ref="1278404809"/>
    <tag k="addr:city" v="München"/>
    <tag k="addr:country" v="DE"/>
    <tag k="addr:housenumber" v="59"/>
    <tag k="addr:postcode" v="80469"/>
    <tag k="addr:street" v="Baaderstraße"/>
    <tag k="building" v="apartments"/>
    <tag k="building:levels" v="4"/>
    <tag k="roof:shape" v="gabled"/>
  </way>
  <way id="112482812" version="8" timestamp="2024-08-27T20:24:24Z" changeset="155850206" uid="13496000" user="geo-d">
    <nd ref="1278404990"/>
    <nd ref="1278404814"/>
    <nd ref="1278404832"/>
    <nd ref="1278404884"/>
    <nd ref="12140802985"/>
    <nd ref="1278404762"/>
    <nd ref="1278404861"/>
    <nd ref="1278404990"/>
    <tag k="addr:city" v="München"/>
    <tag k="addr:country" v="DE"/>
    <tag k="addr:housenumber" v="35"/>
    <tag k="addr:postcode" v="80469"/>
    <tag k="addr:street" v="Baaderstraße"/>
    <tag k="building" v="apartments"/>
    <tag k="building:levels" v="6"/>
    <tag k="roof:levels" v="1"/>
    <tag k="roof:shape" v="gabled"/>
  </way>
  <way id="112482813" version="8" timestamp="2021-03-29T15:39:22Z" changeset="101926957" uid="7532683" user="dendreier">
    <nd ref="1278405074"/>
    <nd ref="1576341863"/>
    <nd ref="1576341873"/>
    <nd ref="1576341869"/>
    <nd ref="1576341862"/>
    <nd ref="1576341861"/>
    <nd ref="1576341875"/>
    <nd ref="1278404851"/>
    <nd ref="1278405003"/>
    <nd ref="1278405074"/>
    <tag k="addr:city" v="München"/>
    <tag k="addr:country" v="DE"/>
    <tag k="addr:housenumber" v="48"/>
    <tag k="addr:postcode" v="80469"/>
    <tag k="addr:street" v="Corneliusstraße"/>
    <tag k="building" v="apartments"/>
    <tag k="building:levels" v="4"/>
    <tag k="roof:levels" v="2"/>
    <tag k="roof:shape" v="gambrel"/>
    <tag k="wikidata" v="Q41178492"/>
  </way>
  <way id="112482814" version="6" timestamp="2021-03-01T19:28:02Z" changeset="100227051" uid="7532683" user="dendreier">
    <nd ref="1278404934"/>
    <nd ref="1278404858"/>
    <nd ref="1278404814"/>
    <nd ref="1278404990"/>
    <nd ref="1278404934"/>
    <tag k="addr:city" v="München"/>
    <tag k="addr:country" v="DE"/>
    <tag k="addr:housenumber" v="39"/>
    <tag k="addr:postcode" v="80469"/>
    <tag k="addr:street" v="Baaderstraße"/>
    <tag k="building" v="apartments"/>
    <tag k="building:levels" v="6"/>
    <tag k="roof:levels" v="1"/>
    <tag k="roof:shape" v="gambrel"/>
  </way>
  <way id="112482816" version="7" timestamp="2024-08-27T20:24:24Z" changeset="155850206" uid="13496000" user="geo-d">
    <nd ref="1278404856"/>
    <nd ref="1278404956"/>
    <nd ref="1278404981"/>
    <nd ref="1278405032"/>
    <nd ref="12140802983"/>
    <nd ref="1278404856"/>
    <tag k="addr:city" v="München"/>
    <tag k="addr:country" v="DE"/>
    <tag k="addr:housenumber" v="40"/>
    <tag k="addr:postcode" v="80469"/>
    <tag k="addr:street" v="Corneliusstraße"/>
    <tag k="building" v="apartments"/>
    <tag k="building:levels" v="5"/>
    <tag k="roof:levels" v="1"/>
    <tag k="roof:shape" v="gabled"/>
  </way>
  <way id="112482822" version="6" timestamp="2021-03-01T19:26:37Z" changeset="100227051" uid="7532683" user="dendreier">
    <nd ref="1278404862"/>
    <nd ref="1278404820"/>
    <nd ref="1278404836"/>
    <nd ref="1278405060"/>
    <nd ref="1278404860"/>
    <nd ref="1278404907"/>
    <nd ref="1278404960"/>
    <nd ref="1278404772"/>
    <nd ref="1278404964"/>
    <nd ref="1278404868"/>
    <nd ref="1278404770"/>
    <nd ref="1278404933"/>
    <nd ref="1278404862"/>
    <tag k="addr:city" v="München"/>
    <tag k="addr:country" v="DE"/>
    <tag k="addr:housenumber" v="53"/>
    <tag k="addr:postcode" v="80469"/>
    <tag k="addr:street" v="Baaderstraße"/>
    <tag k="building" v="apartments"/>
    <tag k="building:levels" v="4"/>
    <tag k="roof:levels" v="1"/>
    <tag k="roof:shape" v="gambrel"/>
    <tag k="wikidata" v="Q41178414"/>
  </way>
  <way id="112482826" version="6" timestamp="2021-03-01T19:28:03Z" changeset="100227051" uid="7532683" user="dendreier">
    <nd ref="1278404934"/>
    <nd ref="1278404790"/>
    <nd ref="1278404928"/>
    <nd ref="1278404858"/>
    <nd ref="1278404934"/>
    <tag k="addr:city" v="München"/>
    <tag k="addr:country" v="DE"/>
    <tag k="addr:housenumber" v="41"/>
    <tag k="addr:postcode" v="80469"/>
    <tag k="addr:street" v="Baaderstraße"/>
    <tag k="building" v="apartments"/>
    <tag k="building:levels" v="4"/>
    <tag k="roof:levels" v="1"/>
    <tag k="roof:shape" v="gambrel"/>
  </way>
  <way id="112482827" version="6" timestamp="2024-08-27T20:24:24Z" changeset="155850206" uid="13496000" user="geo-d">
    <nd ref="1278404774"/>
    <nd ref="1278404941"/>
    <nd ref="12140826419"/>
    <nd ref="1278404885"/>
    <nd ref="1278404793"/>
    <nd ref="1278405004"/>
    <nd ref="1278404788"/>
    <nd ref="12140826428"/>
    <nd ref="1278404913"/>
    <nd ref="1278405009"/>
    <nd ref="1278404820"/>
    <nd ref="1278404862"/>
    <nd ref="1278404774"/>
    <tag k="addr:city" v="München"/>
    <tag k="addr:country" v="DE"/>
    <tag k="addr:housenumber" v="49"/>
    <tag k="addr:postcode" v="80469"/>
    <tag k="addr:street" v="Baaderstraße"/>
    <tag k="building" v="apartments"/>
    <tag k="building:levels" v="4"/>
    <tag k="roof:levels" v="1"/>
    <tag k="roof:shape" v="gabled"/>
  </way>
  <way id="112482830" version="8" timestamp="2024-08-27T20:24:24Z" changeset="155850206" uid="13496000" user="geo-d">
    <nd ref="1278404981"/>
    <nd ref="1278404825"/>
    <nd ref="1278404976"/>
    <nd ref="12140802977"/>
    <nd ref="12140802978"/>
    <nd ref="12140802979"/>
    <nd ref="12140802980"/>
    <nd ref="12140802981"/>
    <nd ref="12140802982"/>
    <nd ref="1278405032"/>
    <nd ref="1278404981"/>
    <tag k="addr:city" v="München"/>
    <tag k="addr:country" v="DE"/>
    <tag k="addr:housenumber" v="42"/>
    <tag k="addr:postcode" v="80469"/>
    <tag k="addr:street" v="Corneliusstraße"/>
    <tag k="building" v="apartments"/>
    <tag k="building:levels" v="4"/>
    <tag k="roof:levels" v="1"/>
    <tag k="roof:shape" v="gabled"/>
    <tag k="wikidata" v="Q41178486"/>
  </way>
  <way id="112482835" version="5" timestamp="2023-06-15T16:17:39Z" changeset="137380133" uid="78613" user="heilbron">
    <nd ref="1278404805"/>
    <nd ref="1278405070"/>
    <nd ref="1278405022"/>
    <nd ref="1278404877"/>
    <nd ref="1278404805"/>
    <tag k="addr:city" v="München"/>
    <tag k="addr:country" v="DE"/>
    <tag k="addr:housenumber" v="63"/>
    <tag k="addr:postcode" v="80469"/>
    <tag k="addr:street" v="Baaderstraße"/>
    <tag k="building" v="apartments"/>
    <tag k="building:colour" v="#FFFFD0"/>
    <tag k="building:levels" v="4"/>
    <tag k="roof:levels" v="1"/>
    <tag k="roof:shape" v="gabled"/>
  </way>
  <way id="112482838" version="7" timestamp="2024-08-27T20:24:24Z" changeset="155850206" uid="13496000" user="geo-d">
    <nd ref="1278404882"/>
    <nd ref="1278405031"/>
    <nd ref="12140826438"/>
    <nd ref="1278405070"/>
    <nd ref="1278404805"/>
    <nd ref="1278404882"/>
    <tag k="addr:city" v="München"/>
    <tag k="addr:country" v="DE"/>
    <tag k="addr:housenumber" v="61"/>
    <tag k="addr:postcode" v="80469"/>
    <tag k="addr:street" v="Baaderstraße"/>
    <tag k="building" v="apartments"/>
    <tag k="building:levels" v="4"/>
    <tag k="roof:levels" v="1"/>
    <tag k="roof:shape" v="gabled"/>
    <tag k="wikidata" v="Q41178428"/>
  </way>
  <way id="112482841" version="6" timestamp="2021-03-29T15:39:04Z" changeset="101926957" uid="7532683" user="dendreier">
    <nd ref="1278404851"/>
    <nd ref="1278405020"/>
    <nd ref="1278404924"/>
    <nd ref="1278404977"/>
    <nd ref="1278404951"/>
    <nd ref="1278404853"/>
    <nd ref="1278405003"/>
    <nd ref="1278404851"/>
    <tag k="addr:city" v="München"/>
    <tag k="addr:country" v="DE"/>
    <tag k="addr:housenumber" v="15"/>
    <tag k="addr:postcode" v="80469"/>
    <tag k="addr:street" v="Erhardtstraße"/>
    <tag k="building" v="apartments"/>
    <tag k="building:levels" v="4"/>
    <tag k="roof:levels" v="1"/>
    <tag k="roof:shape" v="gambrel"/>
  </way>
  <way id="144051834" version="5" timestamp="2021-03-29T15:39:30Z" changeset="101926957" uid="7532683" user="dendreier">
    <nd ref="1278404777"/>
    <nd ref="1576341859"/>
    <nd ref="1576341875"/>
    <nd ref="1576341861"/>
    <nd ref="1576341855"/>
    <nd ref="1576341876"/>
    <nd ref="1576341860"/>
    <nd ref="1576341867"/>
    <nd ref="1278404979"/>
    <nd ref="1278404777"/>
    <tag k="addr:city" v="München"/>
    <tag k="addr:country" v="DE"/>
    <tag k="addr:housenumber" v="46"/>
    <tag k="addr:postcode" v="80469"/>
    <tag k="addr:street" v="Corneliusstraße"/>
    <tag k="building" v="apartments"/>
    <tag k="building:levels" v="4"/>
    <tag k="roof:levels" v="1"/>
    <tag k="roof:shape" v="gabled"/>
    <tag k="wikidata" v="Q41178489"/>
  </way>
  <way id="144052032" version="6" timestamp="2024-03-31T09:05:06Z" changeset="149380902" uid="4974073" user="thom_bike_bln">
    <nd ref="1172984253"/>
    <nd ref="1172984128"/>
    <nd ref="1576343874"/>
    <nd ref="1576343873"/>
    <nd ref="1576343879"/>
    <nd ref="2481209169"/>
    <nd ref="1576344790"/>
    <nd ref="1576344761"/>
    <nd ref="1172984253"/>
    <tag k="addr:city" v="München"/>
    <tag k="addr:country" v="DE"/>
    <tag k="addr:housenumber" v="13"/>
    <tag k="addr:postcode" v="80469"/>
    <tag k="addr:street" v="Baaderstraße"/>
    <tag k="building" v="apartments"/>
    <tag k="building:levels" v="4"/>
    <tag k="roof:levels" v="1"/>
    <tag k="wikidata" v="Q41178389"/>
  </way>
  <way id="144052033" version="7" timestamp="2021-03-01T19:28:05Z" changeset="100227051" uid="7532683" user="dendreier">
    <nd ref="1172984322"/>
    <nd ref="1576343878"/>
    <nd ref="1576343875"/>
    <nd ref="1576343876"/>
    <nd ref="1172983726"/>
    <nd ref="1172984322"/>
    <tag k="addr:city" v="München"/>
    <tag k="addr:country" v="DE"/>
    <tag k="addr:housenumber" v="19"/>
    <tag k="addr:postcode" v="80469"/>
    <tag k="addr:street" v="Baaderstraße"/>
    <tag k="building" v="apartments"/>
    <tag k="building:levels" v="4"/>
    <tag k="roof:levels" v="1"/>
    <tag k="roof:shape" v="gambrel"/>
  </way>
  <way id="144052034" version="6" timestamp="2021-07-26T15:29:07Z" changeset="108633109" uid="7532683" user="dendreier">
    <nd ref="1172984091"/>
    <nd ref="1172984003"/>
    <nd ref="1576343878"/>
    <nd ref="1172984322"/>
    <nd ref="1172984091"/>
    <tag k="addr:city" v="München"/>
    <tag k="addr:country" v="DE"/>
    <tag k="addr:housenumber" v="17"/>
    <tag k="addr:postcode" v="80469"/>
    <tag k="addr:street" v="Baaderstraße"/>
    <tag k="building" v="apartments"/>
    <tag k="building:levels" v="4"/>
    <tag k="roof:levels" v="1"/>
    <tag k="roof:shape" v="gabled"/>
    <tag k="wikidata" v="Q41178392"/>
  </way>
  <way id="144052035" version="6" timestamp="2021-03-01T19:28:06Z" changeset="100227051" uid="7532683" user="dendreier">
    <nd ref="1172983726"/>
    <nd ref="1576343876"/>
    <nd ref="2481209128"/>
    <nd ref="1172984211"/>
    <nd ref="1172983726"/>
    <tag k="addr:city" v="München"/>
    <tag k="addr:country" v="DE"/>
    <tag k="addr:housenumber" v="21"/>
    <tag k="addr:postcode" v="80469"/>
    <tag k="addr:street" v="Baaderstraße"/>
    <tag k="building" v="apartments"/>
    <tag k="building:levels" v="5"/>
    <tag k="roof:levels" v="1"/>
    <tag k="roof:shape" v="gambrel"/>
  </way>
  <way id="144052075" version="6" timestamp="2021-03-15T16:24:01Z" changeset="101063255" uid="7532683" user="dendreier">
    <nd ref="1576344768"/>
    <nd ref="2481209175"/>
    <nd ref="2481209171"/>
    <nd ref="2481209174"/>
    <nd ref="1576344790"/>
    <nd ref="1576344761"/>
    <nd ref="1576344759"/>
    <nd ref="7966074809"/>
    <nd ref="7966074808"/>
    <nd ref="7966074810"/>
    <nd ref="1576344787"/>
    <nd ref="1576344764"/>
    <nd ref="2481209180"/>
    <nd ref="1576344768"/>
    <tag k="addr:city" v="München"/>
    <tag k="addr:country" v="DE"/>
    <tag k="addr:housenumber" v="11"/>
    <tag k="addr:postcode" v="80469"/>
    <tag k="addr:street" v="Baaderstraße"/>
    <tag k="building" v="apartments"/>
    <tag k="building:levels" v="4"/>
    <tag k="roof:levels" v="1"/>
    <tag k="roof:shape" v="gambrel"/>
  </way>
  <way id="144052076" version="5" timestamp="2021-03-15T16:22:10Z" changeset="101063255" uid="7532683" user="dendreier">
    <nd ref="1172984070"/>
    <nd ref="1576344784"/>
    <nd ref="1576344766"/>
    <nd ref="1172984137"/>
    <nd ref="1172984070"/>
    <tag k="addr:city" v="München"/>
    <tag k="addr:country" v="DE"/>
    <tag k="addr:housenumber" v="9a"/>
    <tag k="addr:postcode" v="80469"/>
    <tag k="addr:street" v="Baaderstraße"/>
    <tag k="building" v="apartments"/>
    <tag k="building:levels" v="4"/>
    <tag k="roof:levels" v="2"/>
    <tag k="roof:shape" v="gabled"/>
  </way>
  <way id="144052077" version="4" timestamp="2021-03-15T16:21:40Z" changeset="101063255" uid="7532683" user="dendreier">
    <nd ref="1576344784"/>
    <nd ref="1172984236"/>
    <nd ref="1172983968"/>
    <nd ref="1576344766"/>
    <nd ref="1576344784"/>
    <tag k="addr:city" v="München"/>
    <tag k="addr:country" v="DE"/>
    <tag k="addr:housenumber" v="9"/>
    <tag k="addr:postcode" v="80469"/>
    <tag k="addr:street" v="Baaderstraße"/>
    <tag k="building" v="apartments"/>
    <tag k="building:levels" v="4"/>
    <tag k="roof:levels" v="2"/>
    <tag k="roof:shape" v="gambrel"/>
  </way>
  <way id="144052189" version="5" timestamp="2023-05-13T14:17:03Z" changeset="136055611" uid="4376164" user="redweizn">
    <nd ref="1172983696"/>
    <nd ref="1172984110"/>
    <nd ref="1172983853"/>
    <nd ref="1172984254"/>
    <nd ref="1576346220"/>
    <nd ref="1576346224"/>
    <nd ref="1172983729"/>
    <nd ref="1172983931"/>
    <nd ref="1576346222"/>
    <nd ref="1576346219"/>
    <nd ref="1576346221"/>
    <nd ref="1576346223"/>
    <nd ref="1172983696"/>
    <tag k="addr:city" v="München"/>
    <tag k="addr:country" v="DE"/>
    <tag k="addr:housenumber" v="1"/>
    <tag k="addr:postcode" v="80469"/>
    <tag k="addr:street" v="Baaderstraße"/>
    <tag k="building" v="apartments"/>
    <tag k="building:levels" v="7"/>
    <tag k="roof:levels" v="1"/>
    <tag k="roof:shape" v="gabled"/>
  </way>
  <way id="144052190" version="4" timestamp="2021-03-15T16:16:24Z" changeset="101063262" uid="7532683" user="dendreier">
    <nd ref="1576346219"/>
    <nd ref="1576346222"/>
    <nd ref="1172983831"/>
    <nd ref="1172984100"/>
    <nd ref="1172983889"/>
    <nd ref="1172984099"/>
    <nd ref="1172984110"/>
    <nd ref="1172983696"/>
    <nd ref="1172984167"/>
    <nd ref="1172984068"/>
    <nd ref="1576346219"/>
    <tag k="addr:city" v="München"/>
    <tag k="addr:country" v="DE"/>
    <tag k="addr:housenumber" v="1a"/>
    <tag k="addr:postcode" v="80469"/>
    <tag k="addr:street" v="Baaderstraße"/>
    <tag k="building" v="apartments"/>
    <tag k="building:levels" v="4"/>
    <tag k="roof:levels" v="2"/>
    <tag k="wikidata" v="Q41178383"/>
  </way>
  <way id="145628202" version="9" timestamp="2025-05-09T20:36:58Z" changeset="166045777" uid="137242" user="Rainero">
    <nd ref="1955042"/>
    <nd ref="298503481"/>
    <nd ref="428783"/>
    <tag k="bicycle" v="use_sidepath"/>
    <tag k="dual_carriageway" v="yes"/>
    <tag k="foot" v="use_sidepath"/>
    <tag k="highway" v="secondary"/>
    <tag k="lanes" v="2"/>
    <tag k="lit" v="yes"/>
    <tag k="maxspeed" v="50"/>
    <tag k="name" v="Ludwigsbrücke"/>
    <tag k="oneway" v="yes"/>
    <tag k="sidewalk:left" v="no"/>
    <tag k="sidewalk:right" v="separate"/>
    <tag k="surface" v="asphalt"/>
    <tag k="tmc" v="DE:27990/35402"/>
  </way>
  <way id="145628204" version="10" timestamp="2022-10-21T08:50:07Z" changeset="127870665" uid="536583" user="Strubbl">
    <nd ref="1955042"/>
    <nd ref="213532505"/>
    <nd ref="1688834607"/>
    <nd ref="28097497"/>
    <tag k="bicycle" v="use_sidepath"/>
    <tag k="foot" v="use_sidepath"/>
    <tag k="highway" v="secondary"/>
    <tag k="lanes" v="4"/>
    <tag k="lit" v="yes"/>
    <tag k="maxspeed" v="50"/>
    <tag k="name" v="Steinsdorfstraße"/>
    <tag k="sidewalk" v="separate"/>
    <tag k="smoothness" v="good"/>
    <tag k="surface" v="asphalt"/>
    <tag k="tmc" v="DE:27954"/>
  </way>
  <way id="145628205" version="17" timestamp="2025-05-09T20:36:58Z" changeset="166045777" uid="137242" user="Rainero">
    <nd ref="638954983"/>
    <nd ref="3566017430"/>
    <nd ref="3566017426"/>
    <nd ref="3566017425"/>
    <nd ref="1688834618"/>
    <nd ref="2319758104"/>
    <nd ref="6806050240"/>
    <nd ref="428785"/>
    <nd ref="6806050239"/>
    <nd ref="428784"/>
    <tag k="bicycle" v="use_sidepath"/>
    <tag k="dual_carriageway" v="yes"/>
    <tag k="foot" v="use_sidepath"/>
    <tag k="highway" v="secondary"/>
    <tag k="lanes" v="1"/>
    <tag k="lit" v="yes"/>
    <tag k="maxspeed" v="50"/>
    <tag k="name" v="Zweibrückenstraße"/>
    <tag k="oneway" v="yes"/>
    <tag k="sidewalk:left" v="no"/>
    <tag k="sidewalk:right" v="separate"/>
    <tag k="smoothness" v="excellent"/>
    <tag k="surface" v="asphalt"/>
    <tag k="tmc" v="DE:35372/35373"/>
  </way>
  <way id="155572663" version="8" timestamp="2022-01-29T18:04:20Z" changeset="116754392" uid="536583" user="Strubbl">
    <nd ref="1679671520"/>
    <nd ref="1637005934"/>
    <nd ref="1955081"/>
    <nd ref="1823313499"/>
    <tag k="bicycle" v="use_sidepath"/>
    <tag k="foot" v="use_sidepath"/>
    <tag k="highway" v="secondary"/>
    <tag k="lanes" v="2"/>
    <tag k="lit" v="yes"/>
    <tag k="maxspeed" v="50"/>
    <tag k="name" v="Auenstraße"/>
    <tag k="smoothness" v="good"/>
    <tag k="surface" v="asphalt"/>
  </way>
  <way id="155572665" version="15" timestamp="2024-07-13T17:51:13Z" changeset="153904112" uid="4974073" user="thom_bike_bln">
    <nd ref="1679671529"/>
    <nd ref="1679671543"/>
    <tag k="bicycle" v="use_sidepath"/>
    <tag k="cycleway:left" v="no"/>
    <tag k="cycleway:right" v="separate"/>
    <tag k="foot" v="use_sidepath"/>
    <tag k="highway" v="secondary"/>
    <tag k="lanes" v="2"/>
    <tag k="lit" v="yes"/>
    <tag k="maxspeed" v="40"/>
    <tag k="name" v="Fraunhoferstraße"/>
    <tag k="name:etymology:wikidata" v="Q43948"/>
    <tag k="oneway" v="yes"/>
    <tag k="smoothness" v="good"/>
    <tag k="source:maxspeed" v="sign"/>
    <tag k="surface" v="asphalt"/>
  </way>
  <way id="155572670" version="13" timestamp="2024-07-13T17:50:55Z" changeset="153904112" uid="4974073" user="thom_bike_bln">
    <nd ref="1646028225"/>
    <nd ref="3702167200"/>
    <tag k="bicycle" v="use_sidepath"/>
    <tag k="bridge" v="yes"/>
    <tag k="cycleway:left" v="no"/>
    <tag k="cycleway:right" v="separate"/>
    <tag k="foot" v="use_sidepath"/>
    <tag k="highway" v="secondary"/>
    <tag k="lanes" v="2"/>
    <tag k="layer" v="1"/>
    <tag k="lit" v="yes"/>
    <tag k="maxspeed" v="50"/>
    <tag k="maxweight:signed" v="no"/>
    <tag k="name" v="Reichenbachbrücke"/>
    <tag k="name:etymology:wikidata" v="Q69736"/>
    <tag k="oneway" v="yes"/>
    <tag k="shoulder" v="no"/>
    <tag k="sidewalk:left" v="no"/>
    <tag k="sidewalk:right" v="separate"/>
    <tag k="smoothness" v="excellent"/>
    <tag k="surface" v="asphalt"/>
    <tag k="turn:lanes" v="through|through;right"/>
  </way>
  <way id="155572672" version="10" timestamp="2024-07-13T17:51:08Z" changeset="153904112" uid="4974073" user="thom_bike_bln">
    <nd ref="1646028232"/>
    <nd ref="11926336192"/>
    <nd ref="1679671501"/>
    <nd ref="1679671529"/>
    <tag k="bicycle" v="use_sidepath"/>
    <tag k="cycleway:left" v="no"/>
    <tag k="cycleway:right" v="separate"/>
    <tag k="foot" v="use_sidepath"/>
    <tag k="highway" v="secondary"/>
    <tag k="lanes" v="2"/>
    <tag k="lit" v="yes"/>
    <tag k="maxspeed" v="50"/>
    <tag k="name" v="Reichenbachbrücke"/>
    <tag k="oneway" v="yes"/>
    <tag k="sidewalk:left" v="no"/>
    <tag k="sidewalk:right" v="separate"/>
    <tag k="smoothness" v="good"/>
    <tag k="source:maxspeed" v="DE:urban"/>
    <tag k="surface" v="asphalt"/>
    <tag k="turn:lanes" v="through|through;right"/>
  </way>
  <way id="171272228" version="6" timestamp="2022-01-29T18:04:24Z" changeset="116754392" uid="536583" user="Strubbl">
    <nd ref="1823313499"/>
    <nd ref="1679671529"/>
    <tag k="bicycle" v="use_sidepath"/>
    <tag k="foot" v="use_sidepath"/>
    <tag k="highway" v="secondary"/>
    <tag k="lanes" v="2"/>
    <tag k="lit" v="yes"/>
    <tag k="maxspeed" v="50"/>
    <tag k="name" v="Erhardtstraße"/>
    <tag k="smoothness" v="good"/>
    <tag k="surface" v="asphalt"/>
  </way>
  <way id="238782357" version="1" timestamp="2013-09-20T18:46:50Z" changeset="17945087" uid="8703" user="rolandg">
    <nd ref="2465792025"/>
    <nd ref="1172983985"/>
    <nd ref="1172983792"/>
    <nd ref="1172983893"/>
    <nd ref="2465792025"/>
    <tag k="addr:city" v="München"/>
    <tag k="addr:country" v="DE"/>
    <tag k="addr:housenumber" v="22b"/>
    <tag k="addr:postcode" v="80469"/>
    <tag k="addr:street" v="Morassistraße"/>
    <tag k="building" v="yes"/>
  </way>
  <way id="239928276" version="2" timestamp="2013-10-07T23:38:26Z" changeset="18239039" uid="342705" user="KonB">
    <nd ref="1118356688"/>
    <nd ref="1118356679"/>
    <nd ref="1118356640"/>
    <nd ref="1118356639"/>
    <nd ref="1118356668"/>
    <nd ref="1118356642"/>
    <nd ref="1118356688"/>
    <tag k="addr:city" v="München"/>
    <tag k="addr:country" v="DE"/>
    <tag k="addr:housenumber" v="6a"/>
    <tag k="addr:postcode" v="80469"/>
    <tag k="addr:street" v="Morassistraße"/>
    <tag k="building" v="yes"/>
  </way>
  <way id="239928278" version="5" timestamp="2021-03-01T19:28:08Z" changeset="100227051" uid="7532683" user="dendreier">
    <nd ref="1118356668"/>
    <nd ref="1118356639"/>
    <nd ref="1118356671"/>
    <nd ref="1118356641"/>
    <nd ref="1118356668"/>
    <tag k="addr:city" v="München"/>
    <tag k="addr:country" v="DE"/>
    <tag k="addr:housenumber" v="6"/>
    <tag k="addr:postcode" v="80469"/>
    <tag k="addr:street" v="Morassistraße"/>
    <tag k="building" v="apartments"/>
    <tag k="building:levels" v="5"/>
    <tag k="roof:levels" v="1"/>
    <tag k="roof:shape" v="gabled"/>
  </way>
  <way id="240884756" version="1" timestamp="2013-10-06T23:01:56Z" changeset="18221715" uid="342705" user="KonB">
    <nd ref="2485745740"/>
    <nd ref="1172983910"/>
    <nd ref="1172983746"/>
    <nd ref="1172983706"/>
    <nd ref="1172983989"/>
    <nd ref="1172984314"/>
    <nd ref="1172983773"/>
    <nd ref="2485745718"/>
    <nd ref="2485745740"/>
    <tag k="addr:city" v="München"/>
    <tag k="addr:country" v="DE"/>
    <tag k="addr:housenumber" v="12"/>
    <tag k="addr:postcode" v="80469"/>
    <tag k="addr:street" v="Morassistraße"/>
    <tag k="building" v="yes"/>
  </way>
  <way id="241052498" version="19" timestamp="2025-03-22T20:57:57Z" changeset="163964101" uid="44217" user="kjon">
    <nd ref="2487367730"/>
    <nd ref="1245411058"/>
    <nd ref="3734832673"/>
    <nd ref="2794931519"/>
    <nd ref="9056452260"/>
    <nd ref="11926336194"/>
    <nd ref="2487367723"/>
    <nd ref="1679671529"/>
    <tag k="bicycle" v="use_sidepath"/>
    <tag k="foot" v="use_sidepath"/>
    <tag k="highway" v="secondary"/>
    <tag k="lanes" v="5"/>
    <tag k="lanes:backward" v="2"/>
    <tag k="lanes:forward" v="3"/>
    <tag k="lit" v="yes"/>
    <tag k="maxspeed" v="50"/>
    <tag k="name" v="Erhardtstraße"/>
    <tag k="parking:right" v="yes"/>
    <tag k="parking:right:orientation" v="parallel"/>
    <tag k="sidewalk:left" v="separate"/>
    <tag k="sidewalk:right" v="yes"/>
    <tag k="sidewalk:right:surface" v="paving_stones"/>
    <tag k="smoothness" v="good"/>
    <tag k="surface" v="asphalt"/>
    <tag k="tmc" v="DE:27953/27954"/>
    <tag k="turn:lanes:forward" v="left|through|through;right"/>
  </way>
  <way id="286883095" version="9" timestamp="2024-06-27T21:43:17Z" changeset="153267654" uid="137242" user="Rainero">
    <nd ref="1278404877"/>
    <nd ref="2905604840"/>
    <nd ref="4801178314"/>
    <nd ref="2905604841"/>
    <nd ref="4801178315"/>
    <nd ref="12015854275"/>
    <nd ref="4801178316"/>
    <nd ref="1320872450"/>
    <nd ref="1320869317"/>
    <nd ref="2905604842"/>
    <nd ref="1278405022"/>
    <nd ref="1278404877"/>
    <tag k="addr:city" v="München"/>
    <tag k="addr:housenumber" v="43"/>
    <tag k="addr:postcode" v="80469"/>
    <tag k="addr:street" v="Fraunhoferstraße"/>
    <tag k="building" v="apartments"/>
    <tag k="building:levels" v="5"/>
    <tag k="name" v="Glockenbachsuiten"/>
    <tag k="operator" v="Conceptbau GmbH"/>
    <tag k="roof:levels" v="1"/>
    <tag k="roof:shape" v="quadruple_saltbox"/>
    <tag k="start_date" v="2014"/>
  </way>
  <way id="316433714" version="10" timestamp="2025-05-09T20:36:58Z" changeset="166045777" uid="137242" user="Rainero">
    <nd ref="2794931534"/>
    <nd ref="1072765098"/>
    <nd ref="3784483199"/>
    <nd ref="1955042"/>
    <tag k="bicycle" v="use_sidepath"/>
    <tag k="dual_carriageway" v="yes"/>
    <tag k="foot" v="use_sidepath"/>
    <tag k="highway" v="secondary"/>
    <tag k="lanes" v="2"/>
    <tag k="lit" v="yes"/>
    <tag k="maxspeed" v="50"/>
    <tag k="name" v="Zweibrückenstraße"/>
    <tag k="oneway" v="yes"/>
    <tag k="sidewalk:left" v="no"/>
    <tag k="sidewalk:right" v="separate"/>
    <tag k="smoothness" v="good"/>
    <tag k="surface" v="asphalt"/>
    <tag k="tmc" v="DE:35372/35373"/>
    <tag k="turn:lanes" v="through|right"/>
  </way>
  <way id="331340037" version="10" timestamp="2023-10-29T22:34:48Z" changeset="143334523" uid="6285042" user="Biclmont">
    <nd ref="1955044"/>
    <nd ref="332703030"/>
    <nd ref="18220770"/>
    <nd ref="1576439538"/>
    <nd ref="1576439537"/>
    <nd ref="685298"/>
    <tag k="cycleway:both" v="no"/>
    <tag k="highway" v="residential"/>
    <tag k="lit" v="yes"/>
    <tag k="maxspeed" v="30"/>
    <tag k="name" v="Baaderstraße"/>
    <tag k="sidewalk" v="both"/>
    <tag k="smoothness" v="good"/>
    <tag k="surface" v="asphalt"/>
  </way>
  <way id="350873888" version="6" timestamp="2022-10-21T08:50:03Z" changeset="127870665" uid="536583" user="Strubbl">
    <nd ref="1072765282"/>
    <nd ref="3566017421"/>
    <nd ref="1955080"/>
    <nd ref="2518807505"/>
    <nd ref="2794931509"/>
    <nd ref="2481209127"/>
    <nd ref="1955069"/>
    <tag k="bicycle" v="use_sidepath"/>
    <tag k="highway" v="secondary"/>
    <tag k="lanes" v="4"/>
    <tag k="lit" v="yes"/>
    <tag k="maxspeed" v="50"/>
    <tag k="name" v="Erhardtstraße"/>
    <tag k="sidewalk" v="separate"/>
    <tag k="smoothness" v="good"/>
    <tag k="surface" v="asphalt"/>
    <tag k="tmc" v="DE:27953/27954"/>
  </way>
  <way id="366231812" version="14" timestamp="2024-03-10T18:09:14Z" changeset="148474268" uid="3075580" user="Linda89">
    <nd ref="1679671543"/>
    <nd ref="19088835"/>
    <tag k="class:bicycle" v="1"/>
    <tag k="cycleway:left" v="no"/>
    <tag k="cycleway:right" v="lane"/>
    <tag k="cycleway:right:lane" v="exclusive"/>
    <tag k="foot" v="use_sidepath"/>
    <tag k="highway" v="secondary"/>
    <tag k="lanes" v="1"/>
    <tag k="lit" v="yes"/>
    <tag k="maxspeed" v="40"/>
    <tag k="name" v="Fraunhoferstraße"/>
    <tag k="name:etymology:wikidata" v="Q43948"/>
    <tag k="oneway" v="yes"/>
    <tag k="sidewalk:left" v="no"/>
    <tag k="sidewalk:right" v="separate"/>
    <tag k="sidewalk:right:surface" v="paving_stones"/>
    <tag k="smoothness" v="good"/>
    <tag k="source:maxspeed" v="sign"/>
    <tag k="surface" v="asphalt"/>
  </way>
  <way id="366231826" version="8" timestamp="2024-07-13T17:51:01Z" changeset="153904112" uid="4974073" user="thom_bike_bln">
    <nd ref="3702167200"/>
    <nd ref="1646028232"/>
    <tag k="bicycle" v="use_sidepath"/>
    <tag k="bridge" v="yes"/>
    <tag k="cycleway:left" v="no"/>
    <tag k="cycleway:right" v="separate"/>
    <tag k="foot" v="use_sidepath"/>
    <tag k="highway" v="secondary"/>
    <tag k="lanes" v="2"/>
    <tag k="layer" v="1"/>
    <tag k="lit" v="yes"/>
    <tag k="maxspeed" v="50"/>
    <tag k="maxweight:signed" v="no"/>
    <tag k="name" v="Reichenbachbrücke"/>
    <tag k="oneway" v="yes"/>
    <tag k="shoulder" v="no"/>
    <tag k="sidewalk:left" v="no"/>
    <tag k="sidewalk:right" v="separate"/>
    <tag k="smoothness" v="excellent"/>
    <tag k="surface" v="asphalt"/>
    <tag k="turn:lanes" v="through|right"/>
  </way>
  <way id="370739441" version="6" timestamp="2022-10-21T08:50:03Z" changeset="127870665" uid="536583" user="Strubbl">
    <nd ref="1955069"/>
    <nd ref="1357459855"/>
    <nd ref="2794931508"/>
    <nd ref="1357459854"/>
    <nd ref="1357459852"/>
    <nd ref="2500755391"/>
    <nd ref="3913034851"/>
    <nd ref="2487367732"/>
    <nd ref="2481209068"/>
    <nd ref="1955071"/>
    <tag k="bicycle" v="use_sidepath"/>
    <tag k="foot" v="use_sidepath"/>
    <tag k="highway" v="secondary"/>
    <tag k="lanes" v="4"/>
    <tag k="lit" v="yes"/>
    <tag k="maxspeed" v="50"/>
    <tag k="name" v="Erhardtstraße"/>
    <tag k="sidewalk" v="separate"/>
    <tag k="smoothness" v="good"/>
    <tag k="surface" v="asphalt"/>
    <tag k="tmc" v="DE:27953/27954"/>
  </way>
  <way id="1107766684" version="5" timestamp="2025-03-22T20:57:57Z" changeset="163964101" uid="44217" user="kjon">
    <nd ref="251741085"/>
    <nd ref="10135735248"/>
    <tag k="bicycle" v="yes"/>
    <tag k="class:bicycle" v="1"/>
    <tag k="cycleway:left" v="lane"/>
    <tag k="cycleway:left:lane" v="exclusive"/>
    <tag k="cycleway:left:oneway" v="-1"/>
    <tag k="cycleway:right" v="no"/>
    <tag k="highway" v="residential"/>
    <tag k="lit" v="yes"/>
    <tag k="maxspeed" v="30"/>
    <tag k="name" v="Kohlstraße"/>
    <tag k="oneway" v="yes"/>
    <tag k="oneway:bicycle" v="no"/>
    <tag k="parking:lane:left:diagonal" v="street_side"/>
    <tag k="parking:left" v="yes"/>
    <tag k="parking:left:orientation" v="diagonal"/>
    <tag k="parking:right" v="lane"/>
    <tag k="parking:right:orientation" v="parallel"/>
    <tag k="postal_code" v="80469"/>
    <tag k="sidewalk" v="both"/>
    <tag k="smoothness" v="good"/>
    <tag k="surface" v="asphalt"/>
  </way>
  <way id="1107766685" version="4" timestamp="2025-03-22T20:57:57Z" changeset="163964101" uid="44217" user="kjon">
    <nd ref="10135735249"/>
    <nd ref="332702996"/>
    <nd ref="1955044"/>
    <tag k="bicycle" v="yes"/>
    <tag k="class:bicycle" v="1"/>
    <tag k="cycleway:left" v="lane"/>
    <tag k="cycleway:left:lane" v="exclusive"/>
    <tag k="cycleway:left:oneway" v="-1"/>
    <tag k="cycleway:right" v="no"/>
    <tag k="highway" v="residential"/>
    <tag k="lit" v="yes"/>
    <tag k="maxspeed" v="30"/>
    <tag k="name" v="Kohlstraße"/>
    <tag k="oneway" v="yes"/>
    <tag k="oneway:bicycle" v="no"/>
    <tag k="parking:both" v="yes"/>
    <tag k="parking:both:orientation" v="parallel"/>
    <tag k="parking:lane:left:parallel" v="on_street"/>
    <tag k="parking:lane:right:parallel" v="street_side"/>
    <tag k="postal_code" v="80469"/>
    <tag k="sidewalk" v="both"/>
    <tag k="sidewalk:both:surface" v="paving_stones"/>
    <tag k="smoothness" v="good"/>
    <tag k="surface" v="asphalt"/>
  </way>
  <way id="1191544258" version="5" timestamp="2024-12-26T12:05:26Z" changeset="160634185" uid="4974073" user="thom_bike_bln">
    <nd ref="685297"/>
    <nd ref="1955044"/>
    <tag k="class:bicycle" v="1"/>
    <tag k="cycleway:both" v="no"/>
    <tag k="highway" v="residential"/>
    <tag k="lit" v="yes"/>
    <tag k="maxspeed" v="30"/>
    <tag k="name" v="Baaderstraße"/>
    <tag k="sidewalk" v="both"/>
    <tag k="sidewalk:both:surface" v="paving_stones"/>
    <tag k="smoothness" v="good"/>
    <tag k="surface" v="asphalt"/>
  </way>
  <way id="1191544259" version="5" timestamp="2024-03-31T09:06:33Z" changeset="149380817" uid="4974073" user="thom_bike_bln">
    <nd ref="19088834"/>
    <nd ref="11703734860"/>
    <nd ref="4485697622"/>
    <nd ref="685297"/>
    <tag k="cycleway:both" v="no"/>
    <tag k="highway" v="residential"/>
    <tag k="lit" v="yes"/>
    <tag k="maxspeed" v="30"/>
    <tag k="name" v="Baaderstraße"/>
    <tag k="sidewalk:left" v="separate"/>
    <tag k="sidewalk:right" v="yes"/>
    <tag k="sidewalk:right:surface" v="paving_stones"/>
    <tag k="smoothness" v="good"/>
    <tag k="surface" v="asphalt"/>
  </way>
  <way id="1191544260" version="7" timestamp="2025-03-22T20:57:57Z" changeset="163964101" uid="44217" user="kjon">
    <nd ref="1955028"/>
    <nd ref="11241805176"/>
    <nd ref="2485745705"/>
    <nd ref="4258420415"/>
    <nd ref="11115677573"/>
    <nd ref="11703734819"/>
    <nd ref="685297"/>
    <tag k="bicycle" v="yes"/>
    <tag k="class:bicycle" v="1"/>
    <tag k="cycleway" v="no"/>
    <tag k="highway" v="residential"/>
    <tag k="lit" v="yes"/>
    <tag k="maxspeed" v="30"/>
    <tag k="name" v="Buttermelcherstraße"/>
    <tag k="oneway" v="yes"/>
    <tag k="oneway:bicycle" v="no"/>
    <tag k="parking:both" v="lane"/>
    <tag k="parking:both:orientation" v="parallel"/>
    <tag k="sidewalk:both" v="separate"/>
    <tag k="smoothness" v="good"/>
    <tag k="surface" v="asphalt"/>
  </way>
  <relation id="1665166" version="10" timestamp="2021-02-22T15:43:48Z" changeset="99757282" uid="7532683" user="dendreier">
    <member type="way" ref="496783566" role="outer"/>
    <member type="way" ref="847549163" role="inner"/>
    <tag k="addr:city" v="München"/>
    <tag k="addr:country" v="DE"/>
    <tag k="addr:housenumber" v="12"/>
    <tag k="addr:postcode" v="80331"/>
    <tag k="addr:street" v="Zweibrückenstraße"/>
    <tag k="alt_name" v="Deutsches Patentamt"/>
    <tag k="building" v="office"/>
    <tag k="building:levels" v="12"/>
    <tag k="government" v="patent_office"/>
    <tag k="name" v="Deutsches Patent- und Markenamt"/>
    <tag k="office" v="government"/>
    <tag k="roof:levels" v="1"/>
    <tag k="roof:shape" v="flat"/>
    <tag k="type" v="multipolygon"/>
    <tag k="wikidata" v="Q314296"/>
  </relation>
  <relation id="3866522" version="50" timestamp="2025-01-03T13:18:47Z" changeset="160948749" uid="13987295" user="Arthur B E">
    <member type="way" ref="865150162" role="outer"/>
    <member type="way" ref="865150161" role="outer"/>
    <member type="way" ref="1336519678" role="outer"/>
    <member type="way" ref="1336519677" role="outer"/>
    <member type="way" ref="865150159" role="outer"/>
    <member type="way" ref="865150163" role="outer"/>
    <member type="way" ref="865150154" role="outer"/>
    <member type="way" ref="865150151" role="outer"/>
    <member type="way" ref="865150150" role="outer"/>
    <member type="way" ref="865146149" role="outer"/>
    <member type="way" ref="865144304" role="outer"/>
    <member type="way" ref="865144305" role="outer"/>
    <member type="way" ref="865146143" role="outer"/>
    <member type="way" ref="865146147" role="outer"/>
    <member type="way" ref="865150148" role="outer"/>
    <member type="way" ref="208141434" role="outer"/>
    <member type="way" ref="865155284" role="outer"/>
    <member type="way" ref="865155283" role="outer"/>
    <member type="way" ref="865155282" role="outer"/>
    <member type="way" ref="865155281" role="outer"/>
    <member type="way" ref="865155278" role="outer"/>
    <member type="way" ref="865153063" role="inner"/>
    <member type="way" ref="865153061" role="inner"/>
    <member type="way" ref="865144301" role="inner"/>
    <member type="way" ref="865146146" role="inner"/>
    <member type="way" ref="865146144" role="inner"/>
    <member type="way" ref="865144303" role="inner"/>
    <member type="way" ref="156389492" role="inner"/>
    <member type="way" ref="865146150" role="inner"/>
    <member type="way" ref="28364409" role="inner"/>
    <member type="way" ref="28364408" role="inner"/>
    <tag k="addr:city" v="München"/>
    <tag k="addr:country" v="DE"/>
    <tag k="addr:housenumber" v="1"/>
    <tag k="addr:postcode" v="80538"/>
    <tag k="addr:street" v="Museumsinsel"/>
    <tag k="air_conditioning" v="yes"/>
    <tag k="building" v="museum"/>
    <tag k="check_date" v="2025-01-03"/>
    <tag k="contact:fax" v="+49 89 2179-324"/>
    <tag k="contact:phone" v="+49 89 2179-1"/>
    <tag k="contact:website" v="https://www.deutsches-museum.de/"/>
    <tag k="contact:youtube" v="https://www.youtube.com/@DeutschesMuseum"/>
    <tag k="fee" v="yes"/>
    <tag k="image" v="https://photos.google.com/share/AF1QipM_WgaTaZpERmsR_FUYYjh9l-J9Yb_S16S5Rak8xXbIRQN0WyKJTH8EHjbf_DPjFA/photo/AF1QipMhbmCVrg_OJvPXGc2sTyHx3kUq9EkNZIVdj5-k?key=QnpkX1dTa2hiNkVrcEhmVUc4VHM5T1RnZWxaQjlB"/>
    <tag k="internet_access" v="wlan"/>
    <tag k="internet_access:fee" v="no"/>
    <tag k="museum" v="technology"/>
    <tag k="name" v="Deutsches Museum"/>
    <tag k="name:bar" v="Deitsches Museum"/>
    <tag k="name:de" v="Deutsches Museum"/>
    <tag k="name:en" v="German Museum"/>
    <tag k="name:es" v="Museo Alemán"/>
    <tag k="name:ru" v="Немецкий музей"/>
    <tag k="note" v="Öffentlicher Bereich"/>
    <tag k="official_name" v="Deutsches Museum von Meisterwerken der Naturwissenschaft und Technik"/>
    <tag k="official_name:de" v="Deutsches Museum von Meisterwerken der Naturwissenschaft und Technik"/>
    <tag k="official_name:ru" v="Немецкий музей достижений естественных наук и техники"/>
    <tag k="opening_hours" v="Mo-Su 09:00-17:00"/>
    <tag k="payment:cash" v="yes"/>
    <tag k="payment:credit_cards" v="yes"/>
    <tag k="payment:debit_cards" v="yes"/>
    <tag k="toilets" v="yes"/>
    <tag k="toilets:wheelchair" v="yes"/>
    <tag k="tourism" v="museum"/>
    <tag k="type" v="multipolygon"/>
    <tag k="wheelchair" v="yes"/>
    <tag k="wikidata" v="Q131617"/>
    <tag k="wikipedia" v="de:Deutsches Museum"/>
  </relation>
  <relation id="11701898" version="7" timestamp="2023-09-08T12:34:40Z" changeset="140985458" uid="536583" user="Strubbl">
    <member type="way" ref="240378629" role="outer"/>
    <member type="way" ref="854172278" role="inner"/>
    <tag k="addr:city" v="München"/>
    <tag k="addr:country" v="DE"/>
    <tag k="addr:housenumber" v="1"/>
    <tag k="addr:postcode" v="80469"/>
    <tag k="addr:street" v="Bob-van-Benthem-Platz"/>
    <tag k="building" v="office"/>
    <tag k="building:levels" v="11"/>
    <tag k="government" v="patent_office"/>
    <tag k="heritage" v="4"/>
    <tag k="heritage:operator" v="BLfD"/>
    <tag k="internet_access" v="wlan"/>
    <tag k="name" v="Europäisches Patentamt"/>
    <tag k="name:en" v="European Patent Office - Isar building"/>
    <tag k="office" v="government"/>
    <tag k="ref:BLfD" v="D-1-62-000-9006"/>
    <tag k="roof:levels" v="1"/>
    <tag k="roof:shape" v="flat"/>
    <tag k="type" v="multipolygon"/>
    <tag k="website" v="https://www.epo.org/de/service-support/contact-us"/>
    <tag k="wikidata" v="Q7132151"/>
    <tag k="wikimedia_commons" v="Category:European Patent Office (Bob-van-Benthem-Platz, Munich)"/>
    <tag k="wikipedia" v="de:Europäische Patentorganisation"/>
  </relation>

</osm>
