<?xml version="1.0" encoding="UTF-8"?>
<osm version="0.6" generator="Overpass API 0.7.62.5 1bd436f1">
<note>The data included in this document is from www.openstreetmap.org. The data is made available under ODbL.</note>
<meta osm_base="2025-05-18T03:17:56Z" areas="2024-12-31T00:49:33Z"/>

  <node id="277381" lat="48.1375509" lon="11.5498035" version="11" timestamp="2025-04-29T16:11:07Z" changeset="165599594" uid="38546" user="wikimax">
    <tag k="TMC:cid_58:tabcd_1:Class" v="Point"/>
    <tag k="TMC:cid_58:tabcd_1:Direction" v="positive"/>
    <tag k="TMC:cid_58:tabcd_1:LCLversion" v="9.00"/>
    <tag k="TMC:cid_58:tabcd_1:LocationCode" v="36029"/>
    <tag k="TMC:cid_58:tabcd_1:NextLocationCode" v="35429"/>
    <tag k="TMC:cid_58:tabcd_1:PrevLocationCode" v="35428"/>
    <tag k="tmc" v="DE:27975"/>
  </node>
  <node id="277383" lat="48.1374958" lon="11.5559027" version="9" timestamp="2025-04-29T16:11:07Z" changeset="165599594" uid="38546" user="wikimax"/>
  <node id="1955288" lat="48.1258534" lon="11.5455428" version="3" timestamp="2017-01-31T21:39:49Z" changeset="45698575" uid="38546" user="wikimax"/>
  <node id="1955292" lat="48.1277750" lon="11.5448245" version="12" timestamp="2015-08-11T14:14:25Z" changeset="33267619" uid="354141" user="Anoniman">
    <tag k="TMC:cid_58:tabcd_1:Class" v="Point"/>
    <tag k="TMC:cid_58:tabcd_1:Direction" v="both"/>
    <tag k="TMC:cid_58:tabcd_1:LCLversion" v="9.00"/>
    <tag k="TMC:cid_58:tabcd_1:LocationCode" v="35426"/>
    <tag k="TMC:cid_58:tabcd_1:NextLocationCode" v="35427"/>
    <tag k="TMC:cid_58:tabcd_1:PrevLocationCode" v="35425"/>
    <tag k="tmc" v="DE:35443"/>
  </node>
  <node id="1955330" lat="48.1300071" lon="11.5557955" version="8" timestamp="2023-11-08T15:48:43Z" changeset="143787066" uid="8748" user="ToniE"/>
  <node id="1955341" lat="48.1363843" lon="11.5558655" version="9" timestamp="2015-05-04T23:26:33Z" changeset="30794039" uid="354141" user="Anoniman"/>
  <node id="1955407" lat="48.1361264" lon="11.5490016" version="7" timestamp="2025-04-29T16:11:07Z" changeset="165599594" uid="38546" user="wikimax"/>
  <node id="1955427" lat="48.1257605" lon="11.5507481" version="6" timestamp="2012-02-05T18:19:50Z" changeset="10596544" uid="224490" user="Geo-Tobi"/>
  <node id="5071771" lat="48.1267076" lon="11.5527986" version="10" timestamp="2020-10-18T15:17:15Z" changeset="92660250" uid="26299" user="uboot"/>
  <node id="18696707" lat="48.1312314" lon="11.5557775" version="4" timestamp="2017-07-04T20:11:12Z" changeset="50043664" uid="38546" user="wikimax"/>
  <node id="20981713" lat="48.1419861" lon="11.5560446" version="7" timestamp="2015-10-27T16:40:36Z" changeset="34907255" uid="2385132" user="MENTZ_TU">
    <tag k="TMC:cid_58:tabcd_1:Class" v="Point"/>
    <tag k="TMC:cid_58:tabcd_1:Direction" v="positive"/>
    <tag k="TMC:cid_58:tabcd_1:LCLversion" v="9.00"/>
    <tag k="TMC:cid_58:tabcd_1:LocationCode" v="35357"/>
    <tag k="TMC:cid_58:tabcd_1:NextLocationCode" v="35358"/>
    <tag k="TMC:cid_58:tabcd_1:PrevLocationCode" v="35356"/>
  </node>
  <node id="21134985" lat="48.1391821" lon="11.5470930" version="7" timestamp="2017-04-09T15:22:41Z" changeset="47595746" uid="367380" user="Mloni">
    <tag k="TMC:cid_58:tabcd_1:Class" v="Point"/>
    <tag k="TMC:cid_58:tabcd_1:Direction" v="positive"/>
    <tag k="TMC:cid_58:tabcd_1:LCLversion" v="9.00"/>
    <tag k="TMC:cid_58:tabcd_1:LocationCode" v="46560"/>
    <tag k="TMC:cid_58:tabcd_1:NextLocationCode" v="35388"/>
    <tag k="TMC:cid_58:tabcd_1:PrevLocationCode" v="35387"/>
  </node>
  <node id="21279697" lat="48.1398190" lon="11.5558698" version="5" timestamp="2025-04-29T13:10:07Z" changeset="165592014" uid="38546" user="wikimax"/>
  <node id="21324003" lat="48.1421070" lon="11.5560807" version="6" timestamp="2015-10-27T16:40:36Z" changeset="34907255" uid="2385132" user="MENTZ_TU">
    <tag k="TMC:cid_58:tabcd_1:Class" v="Point"/>
    <tag k="TMC:cid_58:tabcd_1:Direction" v="negative"/>
    <tag k="TMC:cid_58:tabcd_1:LCLversion" v="9.00"/>
    <tag k="TMC:cid_58:tabcd_1:LocationCode" v="35369"/>
    <tag k="TMC:cid_58:tabcd_1:NextLocationCode" v="35370"/>
    <tag k="TMC:cid_58:tabcd_1:PrevLocationCode" v="35368"/>
  </node>
  <node id="21531316" lat="48.1323135" lon="11.5555067" version="7" timestamp="2017-07-04T20:11:12Z" changeset="50043664" uid="38546" user="wikimax"/>
  <node id="26553626" lat="48.1393063" lon="11.5471389" version="11" timestamp="2015-10-13T07:43:47Z" changeset="34605213" uid="2290263" user="soemisch">
    <tag k="TMC:cid_58:tabcd_1:Class" v="Point"/>
    <tag k="TMC:cid_58:tabcd_1:Direction" v="negative"/>
    <tag k="TMC:cid_58:tabcd_1:LCLversion" v="9.00"/>
    <tag k="TMC:cid_58:tabcd_1:LocationCode" v="46560"/>
    <tag k="TMC:cid_58:tabcd_1:NextLocationCode" v="35388"/>
    <tag k="TMC:cid_58:tabcd_1:PrevLocationCode" v="35387"/>
    <tag k="tmc" v="DE:61451"/>
  </node>
  <node id="27470267" lat="48.1301603" lon="11.5535620" version="7" timestamp="2023-11-08T15:48:43Z" changeset="143787066" uid="8748" user="ToniE"/>
  <node id="27579741" lat="48.1274899" lon="11.5542186" version="6" timestamp="2012-03-03T16:02:13Z" changeset="10859210" uid="342705" user="KonB"/>
  <node id="309890117" lat="48.1427111" lon="11.5528729" version="7" timestamp="2012-05-10T19:48:21Z" changeset="11562366" uid="367380" user="Mloni"/>
  <node id="315271030" lat="48.1363088" lon="11.5490312" version="4" timestamp="2025-04-29T16:11:07Z" changeset="165599594" uid="38546" user="wikimax">
    <tag k="tmc" v="DE:35428"/>
  </node>
  <node id="324697324" lat="48.1276379" lon="11.5512050" version="3" timestamp="2011-12-04T22:25:52Z" changeset="10038198" uid="367380" user="Mloni"/>
  <node id="324699243" lat="48.1348683" lon="11.5525662" version="5" timestamp="2013-05-30T11:08:26Z" changeset="16350063" uid="8748" user="ToniE"/>
  <node id="353290785" lat="48.1435697" lon="11.5487827" version="10" timestamp="2025-05-08T09:41:14Z" changeset="165973913" uid="16061279" user="YellowSoul">
    <tag k="TMC:cid_58:tabcd_1:Class" v="Point"/>
    <tag k="TMC:cid_58:tabcd_1:Direction" v="both"/>
    <tag k="TMC:cid_58:tabcd_1:LCLversion" v="9.00"/>
    <tag k="TMC:cid_58:tabcd_1:LocationCode" v="61453"/>
    <tag k="TMC:cid_58:tabcd_1:PrevLocationCode" v="61452"/>
    <tag k="crossing:barrier" v="no"/>
    <tag k="railway" v="tram_level_crossing"/>
  </node>
  <node id="480314303" lat="48.1448170" lon="11.5425827" version="3" timestamp="2011-10-30T16:47:20Z" changeset="9695595" uid="534662" user="Q12"/>
  <node id="737219016" lat="48.1425278" lon="11.5540608" version="8" timestamp="2022-11-21T16:19:29Z" changeset="129203875" uid="8225234" user="94621">
    <tag k="button_operated" v="yes"/>
    <tag k="crossing" v="traffic_signals"/>
    <tag k="crossing_ref" v="toucan"/>
    <tag k="highway" v="traffic_signals"/>
  </node>
  <node id="814227811" lat="48.1431584" lon="11.5503752" version="6" timestamp="2012-04-21T15:02:06Z" changeset="11374628" uid="13832" user="Peter14"/>
  <node id="1091830710" lat="48.1254923" lon="11.5502270" version="2" timestamp="2015-08-10T20:37:32Z" changeset="33250969" uid="354141" user="Anoniman"/>
  <node id="1098025376" lat="48.1327189" lon="11.5557978" version="3" timestamp="2015-05-04T23:26:27Z" changeset="30794039" uid="354141" user="Anoniman"/>
  <node id="1147573035" lat="48.1237170" lon="11.5528570" version="5" timestamp="2024-05-01T18:27:21Z" changeset="150763558" uid="11758604" user="map per"/>
  <node id="1301165271" lat="48.1325062" lon="11.5556653" version="3" timestamp="2017-07-04T20:11:12Z" changeset="50043664" uid="38546" user="wikimax"/>
  <node id="1537519383" lat="48.1359527" lon="11.5485256" version="3" timestamp="2025-04-29T16:11:07Z" changeset="165599594" uid="38546" user="wikimax"/>
  <node id="2450895114" lat="48.1273651" lon="11.5540033" version="1" timestamp="2013-09-08T19:29:20Z" changeset="17738634" uid="8703" user="rolandg"/>
  <node id="2460131497" lat="48.1246184" lon="11.5489289" version="1" timestamp="2013-09-16T07:41:22Z" changeset="17862603" uid="224490" user="Geo-Tobi"/>
  <node id="2964955572" lat="48.1358541" lon="11.5482641" version="2" timestamp="2025-04-29T16:11:07Z" changeset="165599594" uid="38546" user="wikimax"/>
  <node id="3078842206" lat="48.1391565" lon="11.5553398" version="1" timestamp="2014-09-15T18:35:10Z" changeset="25462433" uid="2675" user="Eckhart Wörner"/>
  <node id="3078842209" lat="48.1392177" lon="11.5559494" version="2" timestamp="2015-05-04T23:26:39Z" changeset="30794039" uid="354141" user="Anoniman"/>
  <node id="5327842376" lat="48.1301970" lon="11.5557932" version="1" timestamp="2018-01-08T18:28:50Z" changeset="55271828" uid="85116" user="JIDB"/>
  <node id="5588969009" lat="48.1345375" lon="11.5557984" version="1" timestamp="2018-04-30T18:20:13Z" changeset="58563381" uid="367380" user="Mloni"/>
  <node id="11252506900" lat="48.1250850" lon="11.5496422" version="3" timestamp="2024-05-01T18:27:21Z" changeset="150763558" uid="11758604" user="map per"/>
  <way id="3811828" version="20" timestamp="2023-10-21T16:46:36Z" changeset="142932422" uid="4674266" user="Florent Ch">
    <nd ref="1955411"/>
    <nd ref="324699243"/>
    <tag k="bicycle" v="yes"/>
    <tag k="cycleway" v="no"/>
    <tag k="highway" v="residential"/>
    <tag k="lanes" v="2"/>
    <tag k="maxspeed" v="50"/>
    <tag k="name" v="Pettenkoferstraße"/>
    <tag k="name:etymology:wikidata" v="Q44993"/>
    <tag k="sidewalk" v="no"/>
    <tag k="surface" v="asphalt"/>
  </way>
  <way id="3812293" version="29" timestamp="2023-10-29T16:43:53Z" changeset="143320662" uid="6285042" user="Biclmont">
    <nd ref="739548467"/>
    <nd ref="6615416240"/>
    <nd ref="6615416247"/>
    <nd ref="6615416248"/>
    <nd ref="332727522"/>
    <tag k="bicycle" v="use_sidepath"/>
    <tag k="foot" v="use_sidepath"/>
    <tag k="highway" v="tertiary"/>
    <tag k="lanes" v="3"/>
    <tag k="lanes:backward" v="2"/>
    <tag k="lanes:forward" v="1"/>
    <tag k="lit" v="yes"/>
    <tag k="maxspeed" v="50"/>
    <tag k="name" v="Bayerstraße"/>
    <tag k="old_ref" v="B 2;B 12"/>
    <tag k="parking:left" v="no"/>
    <tag k="parking:right" v="street_side"/>
    <tag k="parking:right:orientation" v="parallel"/>
    <tag k="sidewalk:both" v="separate"/>
    <tag k="smoothness" v="good"/>
    <tag k="surface" v="asphalt"/>
    <tag k="tmc" v="DE:35388/35389"/>
  </way>
  <way id="3812295" version="23" timestamp="2025-04-29T16:11:07Z" changeset="165599594" uid="38546" user="wikimax">
    <nd ref="19107557"/>
    <nd ref="19107561"/>
    <nd ref="12798177409"/>
    <nd ref="12798177408"/>
    <nd ref="21004291"/>
    <nd ref="6552462356"/>
    <nd ref="7989811265"/>
    <nd ref="6552462355"/>
    <nd ref="7989811266"/>
    <nd ref="7989811264"/>
    <tag k="cycleway:both" v="no"/>
    <tag k="highway" v="residential"/>
    <tag k="lit" v="yes"/>
    <tag k="maxspeed" v="30"/>
    <tag k="name" v="Sankt-Pauls-Platz"/>
    <tag k="name:etymology:wikidata" v="Q9200"/>
    <tag k="oneway" v="yes"/>
    <tag k="oneway:bicycle" v="yes"/>
    <tag k="sidewalk:left" v="separate"/>
    <tag k="sidewalk:right" v="yes"/>
    <tag k="source:maxspeed" v="DE:zone30"/>
    <tag k="surface" v="asphalt"/>
  </way>
  <way id="3812296" version="30" timestamp="2023-11-15T19:09:18Z" changeset="144065112" uid="536583" user="Strubbl">
    <nd ref="19107563"/>
    <nd ref="7989811268"/>
    <nd ref="7989774079"/>
    <nd ref="7989774080"/>
    <nd ref="2326139421"/>
    <nd ref="1955345"/>
    <tag k="cycleway:both" v="no"/>
    <tag k="highway" v="residential"/>
    <tag k="lane_markings" v="no"/>
    <tag k="lit" v="yes"/>
    <tag k="maxspeed" v="50"/>
    <tag k="name" v="Sankt-Pauls-Platz"/>
    <tag k="name:etymology:wikidata" v="Q9200"/>
    <tag k="sidewalk:both" v="separate"/>
    <tag k="smoothness" v="good"/>
    <tag k="surface" v="paving_stones"/>
    <tag k="width" v="5"/>
  </way>
  <way id="4002315" version="22" timestamp="2024-11-03T12:01:59Z" changeset="158695142" uid="20085156" user="map per StreetComplete">
    <nd ref="18696707"/>
    <nd ref="1955336"/>
    <nd ref="4951567460"/>
    <nd ref="1301165275"/>
    <nd ref="1301173627"/>
    <nd ref="8199882912"/>
    <nd ref="4951567457"/>
    <nd ref="1955337"/>
    <nd ref="1301165254"/>
    <tag k="class:bicycle" v="1"/>
    <tag k="cycleway:left" v="no"/>
    <tag k="cycleway:right" v="lane"/>
    <tag k="cycleway:right:lane" v="exclusive"/>
    <tag k="highway" v="secondary"/>
    <tag k="lanes" v="1"/>
    <tag k="lit" v="yes"/>
    <tag k="maxspeed" v="30"/>
    <tag k="maxspeed:conditional" v="50 @ (Mo-Fr 18:00-07:00; Sa, Su, PH)"/>
    <tag k="name" v="Kaiser-Ludwig-Platz"/>
    <tag k="oneway" v="yes"/>
    <tag k="sidewalk:left" v="no"/>
    <tag k="sidewalk:right" v="separate"/>
    <tag k="sidewalk:right:surface" v="paving_stones"/>
    <tag k="surface" v="asphalt"/>
    <tag k="tmc" v="DE:27997/30131"/>
  </way>
  <way id="4074692" version="15" timestamp="2024-07-06T11:55:37Z" changeset="153620787" uid="18493611" user="MunichWays">
    <nd ref="21134985"/>
    <nd ref="1099906528"/>
    <nd ref="340352174"/>
    <nd ref="26553626"/>
    <tag k="class:bicycle" v="-1"/>
    <tag k="cycleway:both" v="no"/>
    <tag k="highway" v="tertiary"/>
    <tag k="lane_markings" v="no"/>
    <tag k="lit" v="yes"/>
    <tag k="maxspeed" v="50"/>
    <tag k="name" v="Grasserstraße"/>
    <tag k="sidewalk:both" v="separate"/>
    <tag k="smoothness" v="intermediate"/>
    <tag k="surface" v="asphalt"/>
  </way>
  <way id="4074938" version="20" timestamp="2024-07-25T16:30:59Z" changeset="154402786" uid="11758604" user="map per">
    <nd ref="2326139300"/>
    <nd ref="2326139283"/>
    <nd ref="1134203051"/>
    <nd ref="1955328"/>
    <tag k="class:bicycle" v="1"/>
    <tag k="cycleway:both" v="no"/>
    <tag k="highway" v="residential"/>
    <tag k="lanes" v="2"/>
    <tag k="maxspeed" v="30"/>
    <tag k="name" v="Bavariaring"/>
    <tag k="name:etymology:wikidata" v="Q707669"/>
    <tag k="sidewalk:both" v="separate"/>
    <tag k="smoothness" v="good"/>
    <tag k="surface" v="asphalt"/>
  </way>
  <way id="4074939" version="16" timestamp="2023-10-29T16:43:24Z" changeset="143320662" uid="6285042" user="Biclmont">
    <nd ref="8402835812"/>
    <nd ref="3498172718"/>
    <nd ref="2456450696"/>
    <nd ref="277381"/>
    <tag k="bicycle" v="use_sidepath"/>
    <tag k="highway" v="secondary"/>
    <tag k="lanes" v="4"/>
    <tag k="lit" v="yes"/>
    <tag k="maxspeed" v="50"/>
    <tag k="name" v="Bavariaring"/>
    <tag k="oneway" v="yes"/>
    <tag k="sidewalk:right" v="separate"/>
    <tag k="smoothness" v="excellent"/>
    <tag k="surface" v="asphalt"/>
    <tag k="tmc" v="DE:35428/36029"/>
    <tag k="turn:lanes" v="left|through|right|right"/>
  </way>
  <way id="4231251" version="14" timestamp="2023-10-29T16:45:31Z" changeset="143320662" uid="6285042" user="Biclmont">
    <nd ref="6580081893"/>
    <nd ref="324697339"/>
    <nd ref="1955327"/>
    <tag k="bicycle" v="yes"/>
    <tag k="class:bicycle" v="1"/>
    <tag k="highway" v="residential"/>
    <tag k="lanes" v="2"/>
    <tag k="lanes:backward" v="2"/>
    <tag k="lit" v="yes"/>
    <tag k="maxspeed" v="30"/>
    <tag k="name" v="Beethovenstraße"/>
    <tag k="name:etymology:wikidata" v="Q255"/>
    <tag k="oneway" v="no"/>
    <tag k="sidewalk:both" v="separate"/>
    <tag k="smoothness" v="excellent"/>
    <tag k="source:maxspeed" v="DE:zone30"/>
    <tag k="surface" v="asphalt"/>
  </way>
  <way id="4288011" version="22" timestamp="2024-07-06T07:55:02Z" changeset="153612959" uid="78613" user="heilbron">
    <nd ref="6577975"/>
    <nd ref="2223530650"/>
    <nd ref="1218363709"/>
    <tag k="class:bicycle" v="-1"/>
    <tag k="cycleway:both" v="no"/>
    <tag k="highway" v="residential"/>
    <tag k="lanes" v="2"/>
    <tag k="lit" v="yes"/>
    <tag k="maxspeed" v="30"/>
    <tag k="name" v="Bavariastraße"/>
    <tag k="name:etymology:wikidata" v="Q707669"/>
    <tag k="sidewalk" v="both"/>
    <tag k="sidewalk:both:surface" v="paving_stones"/>
    <tag k="surface" v="asphalt"/>
  </way>
  <way id="4470791" version="21" timestamp="2025-04-29T16:11:07Z" changeset="165599594" uid="38546" user="wikimax">
    <nd ref="1955407"/>
    <nd ref="12798177448"/>
    <nd ref="12798177449"/>
    <nd ref="12798177450"/>
    <nd ref="21134977"/>
    <tag k="cycleway:left" v="no"/>
    <tag k="cycleway:right" v="lane"/>
    <tag k="cycleway:right:lane" v="exclusive"/>
    <tag k="highway" v="tertiary"/>
    <tag k="lanes" v="2"/>
    <tag k="lit" v="yes"/>
    <tag k="maxspeed" v="50"/>
    <tag k="name" v="Theresienhöhe"/>
    <tag k="name:etymology:wikidata" v="Q233198"/>
    <tag k="oneway" v="yes"/>
    <tag k="sidewalk:both" v="separate"/>
    <tag k="smoothness" v="good"/>
    <tag k="surface" v="asphalt"/>
  </way>
  <way id="4471065" version="19" timestamp="2025-04-27T20:56:41Z" changeset="165523611" uid="38546" user="wikimax">
    <nd ref="277381"/>
    <nd ref="1099934871"/>
    <nd ref="3498172724"/>
    <nd ref="3498172728"/>
    <nd ref="3498172730"/>
    <nd ref="3498172737"/>
    <nd ref="1099934849"/>
    <nd ref="1099934750"/>
    <tag k="bicycle" v="use_sidepath"/>
    <tag k="foot" v="use_sidepath"/>
    <tag k="highway" v="secondary"/>
    <tag k="lanes" v="2"/>
    <tag k="lit" v="yes"/>
    <tag k="maxspeed" v="50"/>
    <tag k="name" v="Martin-Greif-Straße"/>
    <tag k="oneway" v="yes"/>
    <tag k="sidewalk:right" v="separate"/>
    <tag k="smoothness" v="excellent"/>
    <tag k="surface" v="asphalt"/>
    <tag k="tmc" v="DE:36029/35429"/>
    <tag k="turn:lanes" v="left|none"/>
  </way>
  <way id="4513916" version="19" timestamp="2024-12-31T15:53:07Z" changeset="160838945" uid="11652964" user="Olufanz">
    <nd ref="21324404"/>
    <nd ref="1077566729"/>
    <nd ref="20981713"/>
    <tag k="bicycle" v="use_sidepath"/>
    <tag k="cycleway:left" v="no"/>
    <tag k="cycleway:right" v="separate"/>
    <tag k="foot" v="use_sidepath"/>
    <tag k="highway" v="tertiary"/>
    <tag k="lanes" v="2"/>
    <tag k="lit" v="yes"/>
    <tag k="maxspeed" v="50"/>
    <tag k="name" v="Arnulfstraße"/>
    <tag k="oneway" v="yes"/>
    <tag k="sidewalk:left" v="no"/>
    <tag k="sidewalk:right" v="separate"/>
    <tag k="surface" v="asphalt"/>
    <tag k="tmc" v="DE:35356/35357"/>
  </way>
  <way id="4590768" version="20" timestamp="2023-10-21T13:13:53Z" changeset="142923907" uid="18493611" user="MunichWays">
    <nd ref="27790741"/>
    <nd ref="8199882858"/>
    <nd ref="1098382068"/>
    <nd ref="7491588803"/>
    <nd ref="2326139337"/>
    <nd ref="2326139335"/>
    <nd ref="27790749"/>
    <tag k="class:bicycle" v="1"/>
    <tag k="cycleway:both" v="no"/>
    <tag k="highway" v="residential"/>
    <tag k="lane_markings" v="no"/>
    <tag k="lit" v="yes"/>
    <tag k="maxspeed" v="50"/>
    <tag k="name" v="Uhlandstraße"/>
    <tag k="oneway" v="yes"/>
    <tag k="parking:both" v="lane"/>
    <tag k="parking:both:orientation" v="parallel"/>
    <tag k="sidewalk" v="both"/>
    <tag k="smoothness" v="good"/>
    <tag k="source:maxspeed" v="DE:urban"/>
    <tag k="surface" v="asphalt"/>
  </way>
  <way id="4590916" version="20" timestamp="2025-01-21T22:45:43Z" changeset="161617886" uid="16061279" user="YellowSoul">
    <nd ref="27470267"/>
    <nd ref="11333277267"/>
    <nd ref="8091258269"/>
    <nd ref="8091262675"/>
    <nd ref="3498157184"/>
    <nd ref="6902577568"/>
    <nd ref="3498157186"/>
    <nd ref="8199882873"/>
    <nd ref="20833978"/>
    <tag k="cycleway:both" v="no"/>
    <tag k="highway" v="residential"/>
    <tag k="lanes" v="1"/>
    <tag k="lit" v="yes"/>
    <tag k="maxspeed" v="30"/>
    <tag k="name" v="Schubertstraße"/>
    <tag k="oneway" v="yes"/>
    <tag k="oneway:bicycle" v="no"/>
    <tag k="parking:both" v="lane"/>
    <tag k="parking:both:orientation" v="parallel"/>
    <tag k="sidewalk" v="both"/>
    <tag k="sidewalk:both:surface" v="paving_stones"/>
    <tag k="surface" v="asphalt"/>
  </way>
  <way id="4590917" version="22" timestamp="2024-06-07T07:52:41Z" changeset="152362713" uid="11758604" user="map per">
    <nd ref="27470267"/>
    <nd ref="1319848563"/>
    <nd ref="8091258273"/>
    <nd ref="27469675"/>
    <nd ref="8091262680"/>
    <nd ref="1869121761"/>
    <nd ref="27469676"/>
    <nd ref="1319848558"/>
    <nd ref="27469677"/>
    <nd ref="1319848566"/>
    <nd ref="27469678"/>
    <nd ref="2450535123"/>
    <nd ref="1319848555"/>
    <nd ref="27469679"/>
    <nd ref="11962120899"/>
    <nd ref="1319842796"/>
    <nd ref="1955331"/>
    <tag k="bicycle" v="yes"/>
    <tag k="class:bicycle" v="1"/>
    <tag k="cycleway" v="no"/>
    <tag k="highway" v="residential"/>
    <tag k="lit" v="yes"/>
    <tag k="maxspeed" v="30"/>
    <tag k="name" v="Kobellstraße"/>
    <tag k="oneway" v="yes"/>
    <tag k="oneway:bicycle" v="no"/>
    <tag k="parking:both" v="lane"/>
    <tag k="parking:both:orientation" v="parallel"/>
    <tag k="sidewalk" v="both"/>
    <tag k="sidewalk:both:surface" v="paving_stones"/>
    <tag k="smoothness" v="good"/>
    <tag k="surface" v="asphalt"/>
  </way>
  <way id="4590985" version="12" timestamp="2024-11-22T12:16:34Z" changeset="159456377" uid="11758604" user="map per">
    <nd ref="27554993"/>
    <nd ref="2455452694"/>
    <nd ref="1319848561"/>
    <nd ref="27469678"/>
    <tag k="cycleway:both" v="no"/>
    <tag k="highway" v="residential"/>
    <tag k="lit" v="yes"/>
    <tag k="maxspeed" v="30"/>
    <tag k="name" v="Platenstraße"/>
    <tag k="sidewalk" v="both"/>
    <tag k="smoothness" v="excellent"/>
    <tag k="surface" v="asphalt"/>
    <tag k="width" v="6"/>
  </way>
  <way id="4590986" version="9" timestamp="2024-11-22T12:16:34Z" changeset="159456377" uid="11758604" user="map per">
    <nd ref="27579741"/>
    <nd ref="255417913"/>
    <nd ref="27554985"/>
    <nd ref="27554993"/>
    <nd ref="324697326"/>
    <nd ref="1955360"/>
    <tag k="cycleway:both" v="no"/>
    <tag k="highway" v="residential"/>
    <tag k="lit" v="yes"/>
    <tag k="maxspeed" v="30"/>
    <tag k="name" v="Hermann-Schmid-Straße"/>
    <tag k="sidewalk" v="both"/>
    <tag k="surface" v="asphalt"/>
  </way>
  <way id="4590987" version="13" timestamp="2024-07-06T11:55:37Z" changeset="153620787" uid="18493611" user="MunichWays">
    <nd ref="5071767"/>
    <nd ref="324697324"/>
    <tag k="class:bicycle" v="-1"/>
    <tag k="highway" v="residential"/>
    <tag k="lit" v="yes"/>
    <tag k="maxspeed" v="30"/>
    <tag k="name" v="Stielerstraße"/>
    <tag k="oneway" v="no"/>
    <tag k="smoothness" v="good"/>
    <tag k="surface" v="asphalt"/>
  </way>
  <way id="4590989" version="16" timestamp="2023-05-06T14:06:26Z" changeset="135777669" uid="29096" user="buergi">
    <nd ref="1955427"/>
    <nd ref="324550812"/>
    <nd ref="29030274"/>
    <nd ref="324697321"/>
    <nd ref="1955358"/>
    <tag k="highway" v="residential"/>
    <tag k="lit" v="yes"/>
    <tag k="maxspeed" v="30"/>
    <tag k="name" v="Güllstraße"/>
    <tag k="name:etymology:wikidata" v="Q92008"/>
    <tag k="parking:both:orientation" v="parallel"/>
    <tag k="sidewalk" v="both"/>
    <tag k="smoothness" v="good"/>
    <tag k="source:maxspeed" v="DE:zone30"/>
    <tag k="source:width" v="ARCore"/>
    <tag k="surface" v="asphalt"/>
    <tag k="width" v="8.5"/>
  </way>
  <way id="4592545" version="15" timestamp="2023-03-19T12:32:33Z" changeset="133856029" uid="18493611" user="MunichWays">
    <nd ref="2326139300"/>
    <nd ref="27790749"/>
    <tag k="class:bicycle" v="-1"/>
    <tag k="cycleway:left" v="lane"/>
    <tag k="highway" v="tertiary"/>
    <tag k="lanes" v="3"/>
    <tag k="lanes:backward" v="2"/>
    <tag k="lanes:forward" v="1"/>
    <tag k="maxspeed" v="50"/>
    <tag k="name" v="Bavariaring"/>
    <tag k="name:etymology:wikidata" v="Q707669"/>
    <tag k="surface" v="asphalt"/>
  </way>
  <way id="4645383" version="22" timestamp="2024-11-22T12:16:34Z" changeset="159456377" uid="11758604" user="map per">
    <nd ref="2326139300"/>
    <nd ref="2326139256"/>
    <nd ref="6911420018"/>
    <nd ref="3498157191"/>
    <nd ref="8199882864"/>
    <nd ref="1301165244"/>
    <tag k="class:bicycle" v="-1"/>
    <tag k="cycleway:both" v="no"/>
    <tag k="highway" v="tertiary"/>
    <tag k="lanes" v="2"/>
    <tag k="lit" v="yes"/>
    <tag k="maxspeed" v="50"/>
    <tag k="name" v="Rückertstraße"/>
    <tag k="oneway" v="no"/>
    <tag k="parking:both" v="yes"/>
    <tag k="parking:both:orientation" v="parallel"/>
    <tag k="sidewalk" v="both"/>
    <tag k="smoothness" v="good"/>
    <tag k="source:maxspeed" v="DE:urban"/>
    <tag k="surface" v="asphalt"/>
  </way>
  <way id="10070820" version="26" timestamp="2025-04-27T20:56:41Z" changeset="165523611" uid="38546" user="wikimax">
    <nd ref="21134978"/>
    <nd ref="728481971"/>
    <nd ref="332731127"/>
    <nd ref="747490248"/>
    <nd ref="1956109"/>
    <tag k="bicycle" v="yes"/>
    <tag k="class:bicycle" v="-1"/>
    <tag k="cycleway:both" v="no"/>
    <tag k="highway" v="tertiary"/>
    <tag k="lanes" v="2"/>
    <tag k="lit" v="yes"/>
    <tag k="maxheight" v="3.3"/>
    <tag k="maxspeed" v="30"/>
    <tag k="name" v="Grasserstraße"/>
    <tag k="parking:both" v="no"/>
    <tag k="shoulder" v="no"/>
    <tag k="sidewalk:both" v="separate"/>
    <tag k="smoothness" v="good"/>
    <tag k="source:maxspeed" v="sign"/>
    <tag k="surface" v="asphalt"/>
    <tag k="tmc" v="DE:61451/61452"/>
  </way>
  <way id="24513641" version="43" timestamp="2024-08-02T20:43:49Z" changeset="154752702" uid="1717726" user="UKausch">
    <nd ref="266580024"/>
    <nd ref="3100919785"/>
    <nd ref="3100919784"/>
    <nd ref="9248894216"/>
    <nd ref="266580051"/>
    <nd ref="1098132652"/>
    <nd ref="3100857435"/>
    <nd ref="3100898641"/>
    <nd ref="3100857432"/>
    <nd ref="266580052"/>
    <nd ref="1098132642"/>
    <nd ref="1098132648"/>
    <nd ref="266580053"/>
    <nd ref="266580027"/>
    <nd ref="3100857429"/>
    <nd ref="3100898636"/>
    <nd ref="3100856828"/>
    <nd ref="266580028"/>
    <nd ref="268268442"/>
    <nd ref="266580029"/>
    <nd ref="268267662"/>
    <nd ref="268267663"/>
    <nd ref="266580030"/>
    <nd ref="268267664"/>
    <nd ref="11023455567"/>
    <nd ref="268268634"/>
    <nd ref="268267665"/>
    <nd ref="268267667"/>
    <nd ref="266580031"/>
    <nd ref="268268445"/>
    <nd ref="266580032"/>
    <nd ref="268268446"/>
    <nd ref="266580033"/>
    <nd ref="3100857436"/>
    <nd ref="3100898643"/>
    <nd ref="266580024"/>
    <tag k="addr:city" v="München"/>
    <tag k="addr:country" v="DE"/>
    <tag k="addr:housenumber" v="11"/>
    <tag k="addr:postcode" v="80336"/>
    <tag k="addr:street" v="Sankt-Pauls-Platz"/>
    <tag k="addr:suburb" v="Ludwigsvorstadt"/>
    <tag k="alt_name" v="Paulskirche"/>
    <tag k="amenity" v="place_of_worship"/>
    <tag k="architect" v="Georg von Hauberrisser"/>
    <tag k="architect:wikidata" v="Q45399"/>
    <tag k="building" v="church"/>
    <tag k="building:architecture" v="neo-gothic"/>
    <tag k="denomination" v="roman_catholic"/>
    <tag k="diocese" v="Erzbistum München und Freising"/>
    <tag k="heritage" v="4"/>
    <tag k="heritage:operator" v="BLfD"/>
    <tag k="name" v="St. Paul"/>
    <tag k="name:de" v="St. Paul"/>
    <tag k="name:en" v="Saint Paul's Church"/>
    <tag k="parish" v="Kath. Pfarrverband München-Westend"/>
    <tag k="ref:BLfD" v="D-1-62-000-6105"/>
    <tag k="religion" v="christian"/>
    <tag k="start_date" v="1906"/>
    <tag k="wheelchair" v="no"/>
    <tag k="wikidata" v="Q247638"/>
    <tag k="wikimedia_commons" v="Category:St. Paul (Munich)"/>
    <tag k="wikipedia" v="de:St. Paul (München)"/>
  </way>
  <way id="24556809" version="22" timestamp="2024-11-22T12:08:53Z" changeset="159456115" uid="11758604" user="map per">
    <nd ref="7989811264"/>
    <nd ref="7989811267"/>
    <nd ref="7989811263"/>
    <nd ref="277382"/>
    <tag k="cycleway:both" v="no"/>
    <tag k="highway" v="residential"/>
    <tag k="lit" v="yes"/>
    <tag k="maxspeed" v="30"/>
    <tag k="name" v="Hermann-Lingg-Straße"/>
    <tag k="oneway" v="yes"/>
    <tag k="oneway:bicycle" v="no"/>
    <tag k="sidewalk" v="both"/>
    <tag k="smoothness" v="good"/>
    <tag k="source:maxspeed" v="DE:zone30"/>
    <tag k="surface" v="asphalt"/>
  </way>
  <way id="24556810" version="13" timestamp="2023-10-21T16:46:49Z" changeset="142932422" uid="4674266" user="Florent Ch">
    <nd ref="267010308"/>
    <nd ref="1412543639"/>
    <nd ref="7989811263"/>
    <tag k="highway" v="residential"/>
    <tag k="maxspeed" v="30"/>
    <tag k="name" v="Sankt-Pauls-Platz"/>
    <tag k="name:etymology:wikidata" v="Q9200"/>
    <tag k="source:maxspeed" v="DE:zone30"/>
    <tag k="source:width" v="ARCore"/>
    <tag k="surface" v="paving_stones"/>
    <tag k="width" v="4.5"/>
  </way>
  <way id="27145267" version="20" timestamp="2024-07-25T16:30:59Z" changeset="154402786" uid="11758604" user="map per">
    <nd ref="1955325"/>
    <nd ref="1319848554"/>
    <nd ref="8091258267"/>
    <nd ref="21531318"/>
    <nd ref="1955360"/>
    <nd ref="7412997511"/>
    <nd ref="5071767"/>
    <tag k="class:bicycle" v="1"/>
    <tag k="cycleway:both" v="no"/>
    <tag k="highway" v="residential"/>
    <tag k="lanes" v="2"/>
    <tag k="lit" v="yes"/>
    <tag k="maxspeed" v="30"/>
    <tag k="name" v="Bavariaring"/>
    <tag k="name:etymology:wikidata" v="Q707669"/>
    <tag k="oneway" v="no"/>
    <tag k="sidewalk:left" v="separate"/>
    <tag k="sidewalk:right" v="no"/>
    <tag k="smoothness" v="excellent"/>
    <tag k="surface" v="asphalt"/>
  </way>
  <way id="27145268" version="15" timestamp="2024-07-25T16:30:59Z" changeset="154402786" uid="11758604" user="map per">
    <nd ref="272665454"/>
    <nd ref="2964709775"/>
    <nd ref="3691451331"/>
    <nd ref="1955291"/>
    <tag k="cycleway:both" v="no"/>
    <tag k="highway" v="residential"/>
    <tag k="lanes" v="3"/>
    <tag k="lanes:backward" v="1"/>
    <tag k="lanes:forward" v="2"/>
    <tag k="lit" v="yes"/>
    <tag k="maxspeed" v="30"/>
    <tag k="name" v="Bavariaring"/>
    <tag k="name:etymology:wikidata" v="Q707669"/>
    <tag k="sidewalk:left" v="separate"/>
    <tag k="source:maxspeed" v="DE:zone30"/>
    <tag k="surface" v="asphalt"/>
    <tag k="turn:lanes:forward" v="left|none"/>
  </way>
  <way id="27145269" version="20" timestamp="2024-07-25T16:30:59Z" changeset="154402786" uid="11758604" user="map per">
    <nd ref="1955292"/>
    <nd ref="324555295"/>
    <nd ref="3691451341"/>
    <nd ref="1640974078"/>
    <tag k="bicycle" v="use_sidepath"/>
    <tag k="cycleway:both" v="separate"/>
    <tag k="foot" v="use_sidepath"/>
    <tag k="highway" v="secondary"/>
    <tag k="lanes" v="4"/>
    <tag k="lit" v="yes"/>
    <tag k="maxspeed" v="50"/>
    <tag k="name" v="Hans-Fischer-Straße"/>
    <tag k="name:etymology:wikidata" v="Q76604"/>
    <tag k="sidewalk" v="separate"/>
    <tag k="smoothness" v="excellent"/>
    <tag k="surface" v="asphalt"/>
    <tag k="tmc" v="DE:35442/35443"/>
    <tag k="turn:lanes:backward" v="left|none"/>
  </way>
  <way id="27149709" version="24" timestamp="2024-11-22T11:37:20Z" changeset="159455006" uid="11758604" user="map per">
    <nd ref="2964955586"/>
    <nd ref="1388945564"/>
    <nd ref="3498172710"/>
    <nd ref="21134979"/>
    <nd ref="3498172715"/>
    <nd ref="1134203039"/>
    <tag k="class:bicycle" v="-1"/>
    <tag k="cycleway:left" v="no"/>
    <tag k="cycleway:right" v="lane"/>
    <tag k="cycleway:right:lane" v="exclusive"/>
    <tag k="highway" v="secondary"/>
    <tag k="lanes" v="2"/>
    <tag k="lit" v="yes"/>
    <tag k="maxspeed" v="50"/>
    <tag k="name" v="Theresienhöhe"/>
    <tag k="name:etymology:wikidata" v="Q233198"/>
    <tag k="oneway" v="yes"/>
    <tag k="sidewalk:left" v="no"/>
    <tag k="sidewalk:right" v="separate"/>
    <tag k="smoothness" v="excellent"/>
    <tag k="surface" v="asphalt"/>
    <tag k="tmc" v="DE:35428"/>
  </way>
  <way id="27567925" version="61" timestamp="2025-05-01T21:27:20Z" changeset="165694927" uid="38546" user="wikimax">
    <nd ref="302699929"/>
    <nd ref="768867112"/>
    <nd ref="302700325"/>
    <nd ref="768867122"/>
    <nd ref="302699930"/>
    <nd ref="302699931"/>
    <nd ref="602742219"/>
    <nd ref="7013420606"/>
    <nd ref="7013420608"/>
    <nd ref="7013420605"/>
    <nd ref="302699932"/>
    <nd ref="638292487"/>
    <nd ref="7013254669"/>
    <nd ref="7013420609"/>
    <nd ref="602742214"/>
    <nd ref="7013254665"/>
    <nd ref="321922705"/>
    <nd ref="7013254666"/>
    <nd ref="704381153"/>
    <nd ref="302699929"/>
    <tag k="addr:city" v="München"/>
    <tag k="addr:housenumber" v="21"/>
    <tag k="addr:postcode" v="80335"/>
    <tag k="addr:street" v="Arnulfstraße"/>
    <tag k="amenity" v="bus_station"/>
    <tag k="building" v="transportation"/>
    <tag k="building:levels" v="3"/>
    <tag k="bus" v="yes"/>
    <tag k="layer" v="1"/>
    <tag k="name" v="Zentraler Omnibusbahnhof München (ZOB Hackerbrücke)"/>
    <tag k="name:cs" v="Centrální autobusové nádraží Mnichov"/>
    <tag k="name:de" v="Zentraler Omnibusbahnhof München (ZOB Hackerbrücke)"/>
    <tag k="name:en" v="Central bus station Munich"/>
    <tag k="name:ru" v="Центральный автовокзал"/>
    <tag k="public_transport" v="station"/>
    <tag k="roof:shape" v="flat"/>
    <tag k="short_name" v="ZOB München"/>
    <tag k="start_date" v="2009-09-01"/>
    <tag k="toilets:wheelchair" v="no"/>
    <tag k="website" v="https://www.muenchen-zob.de/"/>
    <tag k="wheelchair" v="limited"/>
    <tag k="wikidata" v="Q190384"/>
    <tag k="wikipedia" v="de:Zentraler Omnibusbahnhof München"/>
  </way>
  <way id="27570497" version="8" timestamp="2013-09-28T20:23:23Z" changeset="18082585" uid="8703" user="rolandg">
    <nd ref="302727555"/>
    <nd ref="303768251"/>
    <nd ref="303768252"/>
    <nd ref="302727556"/>
    <nd ref="302727557"/>
    <nd ref="303768253"/>
    <nd ref="303768254"/>
    <nd ref="302727558"/>
    <nd ref="2475749798"/>
    <nd ref="2475749823"/>
    <nd ref="2475749793"/>
    <nd ref="2475749803"/>
    <nd ref="302727555"/>
    <tag k="addr:city" v="München"/>
    <tag k="addr:country" v="DE"/>
    <tag k="addr:housenumber" v="23"/>
    <tag k="addr:postcode" v="80335"/>
    <tag k="addr:street" v="Arnulfstraße"/>
    <tag k="building" v="yes"/>
    <tag k="name" v="Bundeseisenbahnvermögen Dienststelle Süd"/>
  </way>
  <way id="27570533" version="26" timestamp="2024-07-21T09:55:04Z" changeset="154211320" uid="13987295" user="Arthur B E">
    <nd ref="302727678"/>
    <nd ref="303768797"/>
    <nd ref="303768798"/>
    <nd ref="303768799"/>
    <nd ref="303768800"/>
    <nd ref="303768801"/>
    <nd ref="303768802"/>
    <nd ref="303768803"/>
    <nd ref="303768804"/>
    <nd ref="302727679"/>
    <nd ref="302727680"/>
    <nd ref="303768805"/>
    <nd ref="303768806"/>
    <nd ref="303768807"/>
    <nd ref="303768808"/>
    <nd ref="2475749806"/>
    <nd ref="303768809"/>
    <nd ref="303768810"/>
    <nd ref="303768811"/>
    <nd ref="303768812"/>
    <nd ref="302727681"/>
    <nd ref="302727678"/>
    <tag k="addr:housenumber" v="19"/>
    <tag k="addr:street" v="Arnulfstraße"/>
    <tag k="building" v="office"/>
  </way>
  <way id="27570544" version="22" timestamp="2025-05-01T20:26:57Z" changeset="165693341" uid="38546" user="wikimax">
    <nd ref="302727834"/>
    <nd ref="303769132"/>
    <nd ref="303769133"/>
    <nd ref="12802993576"/>
    <nd ref="302727835"/>
    <nd ref="302727836"/>
    <nd ref="2475749826"/>
    <nd ref="303769178"/>
    <nd ref="303769136"/>
    <nd ref="12802993599"/>
    <nd ref="12802993598"/>
    <nd ref="302727837"/>
    <nd ref="302727834"/>
    <tag k="addr:city" v="München"/>
    <tag k="addr:country" v="DE"/>
    <tag k="addr:housenumber" v="15"/>
    <tag k="addr:postcode" v="80335"/>
    <tag k="addr:street" v="Arnulfstraße"/>
    <tag k="building" v="office"/>
    <tag k="source" v="survey by BenE München"/>
    <tag k="wheelchair" v="yes"/>
  </way>
  <way id="27612749" version="28" timestamp="2025-05-01T21:27:20Z" changeset="165694927" uid="38546" user="wikimax">
    <nd ref="303204376"/>
    <nd ref="12803064550"/>
    <nd ref="303204228"/>
    <nd ref="303204229"/>
    <nd ref="303204230"/>
    <nd ref="303204231"/>
    <nd ref="303204219"/>
    <nd ref="5604958354"/>
    <nd ref="303204220"/>
    <nd ref="2475749800"/>
    <nd ref="303204221"/>
    <nd ref="303204222"/>
    <nd ref="303204371"/>
    <nd ref="2774568830"/>
    <nd ref="303204372"/>
    <nd ref="303204224"/>
    <nd ref="2774568814"/>
    <nd ref="303204225"/>
    <nd ref="303204226"/>
    <nd ref="4685788774"/>
    <nd ref="4685788754"/>
    <nd ref="4685791897"/>
    <nd ref="4685788780"/>
    <nd ref="303204227"/>
    <nd ref="12803064551"/>
    <nd ref="303204375"/>
    <nd ref="12803064549"/>
    <nd ref="12803064548"/>
    <nd ref="303204376"/>
    <tag k="addr:postcode" v="80335"/>
    <tag k="addr:street" v="Arnulfstraße"/>
    <tag k="building" v="office"/>
    <tag k="building:levels" v="3"/>
    <tag k="name" v="Eisenbahn-Bundesamt Außenstelle München"/>
    <tag k="roof:levels" v="2"/>
  </way>
  <way id="27694847" version="47" timestamp="2025-05-15T12:03:15Z" changeset="166300977" uid="22889607" user="Rowemu">
    <nd ref="304145459"/>
    <nd ref="728473483"/>
    <nd ref="304145460"/>
    <nd ref="304145804"/>
    <nd ref="304145805"/>
    <nd ref="304145463"/>
    <nd ref="304145465"/>
    <nd ref="304145466"/>
    <nd ref="304146171"/>
    <nd ref="304145467"/>
    <nd ref="304145468"/>
    <nd ref="304145806"/>
    <nd ref="304145807"/>
    <nd ref="304145459"/>
    <tag k="building" v="industrial"/>
    <tag k="building:colour" v="grey"/>
    <tag k="building:levels" v="7"/>
    <tag k="image" v="https://commons.wikimedia.org/wiki/File:DB_BR_423_%3F%3F%3F-%3F,_M%C3%BCnchen_S-Bahn,_Stellwerk_M%C3%BCnchen_Hbf_-_(DE)_M%C3%BCnchen_Hbf_-_26.04.2014_(14101621291).jpg"/>
    <tag k="name" v="München Hbf Mf"/>
    <tag k="old_name" v="Zentralstellwerk"/>
    <tag k="operator" v="DB InfraGO AG"/>
    <tag k="railway" v="signal_box"/>
    <tag k="railway:local_operated" v="yes"/>
    <tag k="railway:ref" v="Mf"/>
    <tag k="railway:signal_box" v="track_diagram"/>
    <tag k="roof:shape" v="flat"/>
    <tag k="smoking" v="no"/>
    <tag k="start_date" v="1964-10-11"/>
  </way>
  <way id="28372271" version="28" timestamp="2025-05-07T13:48:54Z" changeset="165940172" uid="22526712" user="ÖA-RAW">
    <nd ref="311621111"/>
    <nd ref="311621112"/>
    <nd ref="5924095152"/>
    <nd ref="3101121791"/>
    <nd ref="2467640181"/>
    <nd ref="5109236102"/>
    <nd ref="311621113"/>
    <nd ref="311621114"/>
    <nd ref="1406892690"/>
    <nd ref="1406892689"/>
    <nd ref="1406892686"/>
    <nd ref="1406892687"/>
    <nd ref="1406892684"/>
    <nd ref="1406892682"/>
    <nd ref="1406892680"/>
    <nd ref="1406892681"/>
    <nd ref="1406892679"/>
    <nd ref="1406892678"/>
    <nd ref="1406892675"/>
    <nd ref="1406892676"/>
    <nd ref="1406892674"/>
    <nd ref="1406892672"/>
    <nd ref="1406892669"/>
    <nd ref="1406892670"/>
    <nd ref="311621111"/>
    <tag k="addr:city" v="München"/>
    <tag k="addr:country" v="DE"/>
    <tag k="addr:housenumber" v="4"/>
    <tag k="addr:postcode" v="80336"/>
    <tag k="addr:street" v="Matthias-Pschorr-Straße"/>
    <tag k="building" v="public"/>
    <tag k="building:levels" v="1"/>
    <tag k="building:levels:underground" v="1"/>
    <tag k="roof:colour" v="#999999"/>
    <tag k="roof:shape" v="flat"/>
  </way>
  <way id="28716660" version="10" timestamp="2024-11-22T12:16:34Z" changeset="159456377" uid="11758604" user="map per">
    <nd ref="27470267"/>
    <nd ref="324697334"/>
    <nd ref="1955325"/>
    <tag k="class:bicycle" v="-1"/>
    <tag k="cycleway:both" v="no"/>
    <tag k="highway" v="residential"/>
    <tag k="lit" v="yes"/>
    <tag k="maxspeed" v="30"/>
    <tag k="name" v="Esperantoplatz"/>
    <tag k="smoothness" v="good"/>
    <tag k="surface" v="asphalt"/>
  </way>
  <way id="29448441" version="19" timestamp="2024-03-24T19:12:29Z" changeset="149102996" uid="20085156" user="map per StreetComplete">
    <nd ref="324550815"/>
    <nd ref="2460131497"/>
    <tag k="bicycle" v="use_sidepath"/>
    <tag k="cycleway:left" v="no"/>
    <tag k="cycleway:right" v="separate"/>
    <tag k="foot" v="use_sidepath"/>
    <tag k="highway" v="secondary"/>
    <tag k="lanes" v="1"/>
    <tag k="lit" v="yes"/>
    <tag k="maxheight" v="3.7 m"/>
    <tag k="maxspeed" v="50"/>
    <tag k="name" v="Lindwurmstraße"/>
    <tag k="old_ref" v="B 2;B 11"/>
    <tag k="oneway" v="yes"/>
    <tag k="sidewalk" v="separate"/>
    <tag k="surface" v="asphalt"/>
    <tag k="tmc" v="DE:28008/35410"/>
  </way>
  <way id="29448442" version="25" timestamp="2023-10-10T09:17:33Z" changeset="142383539" uid="12500175" user="Danfost">
    <nd ref="324550815"/>
    <nd ref="1877959881"/>
    <nd ref="11252506903"/>
    <nd ref="3745748142"/>
    <nd ref="11252506900"/>
    <tag k="bicycle" v="use_sidepath"/>
    <tag k="foot" v="use_sidepath"/>
    <tag k="highway" v="secondary"/>
    <tag k="lanes" v="5"/>
    <tag k="lanes:forward" v="3"/>
    <tag k="lit" v="yes"/>
    <tag k="maxspeed" v="50"/>
    <tag k="name" v="Lindwurmstraße"/>
    <tag k="old_ref" v="B 2;B 11"/>
    <tag k="psv" v="yes"/>
    <tag k="sidewalk" v="separate"/>
    <tag k="surface" v="asphalt"/>
    <tag k="tmc" v="DE:28008/35410"/>
    <tag k="turn:lanes:forward" v="left|through|through;right"/>
  </way>
  <way id="29448842" version="13" timestamp="2024-07-25T16:30:59Z" changeset="154402786" uid="11758604" user="map per">
    <nd ref="272665454"/>
    <nd ref="3691451336"/>
    <nd ref="8060136690"/>
    <nd ref="3691451338"/>
    <tag k="bicycle" v="use_sidepath"/>
    <tag k="cycleway:both" v="no"/>
    <tag k="highway" v="residential"/>
    <tag k="lit" v="yes"/>
    <tag k="maxspeed" v="30"/>
    <tag k="name" v="Bavariaring"/>
    <tag k="name:etymology:wikidata" v="Q707669"/>
    <tag k="oneway" v="yes"/>
    <tag k="source" v="survey"/>
    <tag k="source:maxspeed" v="DE:zone30"/>
    <tag k="surface" v="asphalt"/>
  </way>
  <way id="29460537" version="14" timestamp="2024-07-25T16:30:59Z" changeset="154402786" uid="11758604" user="map per">
    <nd ref="2964709779"/>
    <nd ref="324684390"/>
    <tag k="bicycle" v="use_sidepath"/>
    <tag k="cycleway:both" v="no"/>
    <tag k="highway" v="residential"/>
    <tag k="lanes" v="1"/>
    <tag k="lit" v="yes"/>
    <tag k="maxspeed" v="50"/>
    <tag k="name" v="Bavariastraße"/>
    <tag k="name:etymology:wikidata" v="Q707669"/>
    <tag k="oneway" v="yes"/>
    <tag k="sidewalk" v="both"/>
    <tag k="surface" v="asphalt"/>
  </way>
  <way id="29461884" version="20" timestamp="2024-04-26T14:11:37Z" changeset="150540499" uid="29096" user="buergi">
    <nd ref="21531320"/>
    <nd ref="1134202982"/>
    <nd ref="1955414"/>
    <nd ref="1404711821"/>
    <tag k="class:bicycle" v="-1"/>
    <tag k="cycleway:both" v="lane"/>
    <tag k="cycleway:both:lane" v="exclusive"/>
    <tag k="highway" v="tertiary"/>
    <tag k="lanes" v="3"/>
    <tag k="lanes:backward" v="2"/>
    <tag k="lanes:forward" v="1"/>
    <tag k="lit" v="yes"/>
    <tag k="maxspeed" v="50"/>
    <tag k="name" v="Bavariaring"/>
    <tag k="name:etymology:wikidata" v="Q707669"/>
    <tag k="sidewalk" v="no"/>
    <tag k="smoothness" v="excellent"/>
    <tag k="surface" v="asphalt"/>
  </way>
  <way id="30195879" version="20" timestamp="2025-05-01T13:45:02Z" changeset="165677117" uid="38546" user="wikimax">
    <nd ref="332727522"/>
    <nd ref="6532808659"/>
    <nd ref="776257402"/>
    <nd ref="332727724"/>
    <nd ref="2464392495"/>
    <nd ref="2464392498"/>
    <nd ref="3672151616"/>
    <nd ref="332727725"/>
    <nd ref="332727726"/>
    <tag k="cycleway:both" v="no"/>
    <tag k="highway" v="residential"/>
    <tag k="lane_markings" v="no"/>
    <tag k="lit" v="yes"/>
    <tag k="maxspeed" v="50"/>
    <tag k="name" v="Zollstraße"/>
    <tag k="parking:both" v="street_side"/>
    <tag k="parking:both:orientation" v="parallel"/>
    <tag k="sidewalk" v="both"/>
    <tag k="source:maxspeed" v="sign"/>
    <tag k="surface" v="asphalt"/>
  </way>
  <way id="33487047" version="12" timestamp="2024-07-25T16:30:59Z" changeset="154402786" uid="11758604" user="map per">
    <nd ref="5071767"/>
    <nd ref="9053292115"/>
    <nd ref="9053292112"/>
    <nd ref="1955358"/>
    <nd ref="1955418"/>
    <nd ref="272665454"/>
    <tag k="class:bicycle" v="1"/>
    <tag k="cycleway:both" v="no"/>
    <tag k="highway" v="residential"/>
    <tag k="lanes" v="2"/>
    <tag k="lit" v="yes"/>
    <tag k="maxspeed" v="30"/>
    <tag k="name" v="Bavariaring"/>
    <tag k="name:etymology:wikidata" v="Q707669"/>
    <tag k="sidewalk:left" v="separate"/>
    <tag k="source:maxspeed" v="DE:zone30"/>
    <tag k="surface" v="asphalt"/>
  </way>
  <way id="33487049" version="23" timestamp="2025-04-29T16:11:07Z" changeset="165599594" uid="38546" user="wikimax">
    <nd ref="20457728"/>
    <nd ref="12798177436"/>
    <nd ref="324699250"/>
    <nd ref="2440802231"/>
    <nd ref="12798177434"/>
    <nd ref="1098132644"/>
    <nd ref="12798177435"/>
    <nd ref="11808972444"/>
    <nd ref="2440802192"/>
    <nd ref="8402878918"/>
    <nd ref="2440802157"/>
    <nd ref="1152549947"/>
    <nd ref="21134980"/>
    <tag k="class:bicycle" v="-1"/>
    <tag k="cycleway:left" v="no"/>
    <tag k="cycleway:right" v="lane"/>
    <tag k="cycleway:right:lane" v="exclusive"/>
    <tag k="highway" v="tertiary"/>
    <tag k="lanes" v="2"/>
    <tag k="maxspeed" v="50"/>
    <tag k="name" v="Bavariaring"/>
    <tag k="name:etymology:wikidata" v="Q707669"/>
    <tag k="oneway" v="yes"/>
    <tag k="sidewalk:left" v="yes"/>
    <tag k="sidewalk:right" v="separate"/>
    <tag k="smoothness" v="good"/>
    <tag k="surface" v="asphalt"/>
  </way>
  <way id="33487057" version="29" timestamp="2025-05-01T15:29:22Z" changeset="165681711" uid="38546" user="wikimax">
    <nd ref="26553626"/>
    <nd ref="1239794076"/>
    <nd ref="10711526826"/>
    <nd ref="3498172764"/>
    <nd ref="3498172765"/>
    <nd ref="12156232937"/>
    <nd ref="267509123"/>
    <nd ref="1026639337"/>
    <nd ref="12802522446"/>
    <nd ref="3498172775"/>
    <nd ref="3498172776"/>
    <nd ref="12802522460"/>
    <nd ref="1437821467"/>
    <nd ref="267507679"/>
    <nd ref="3498172780"/>
    <nd ref="21004639"/>
    <tag k="bicycle" v="use_sidepath"/>
    <tag k="foot" v="use_sidepath"/>
    <tag k="highway" v="secondary"/>
    <tag k="lanes" v="2"/>
    <tag k="lit" v="yes"/>
    <tag k="maxspeed" v="50"/>
    <tag k="name" v="Landsberger Straße"/>
    <tag k="old_ref" v="B 2;B 12"/>
    <tag k="oneway" v="yes"/>
    <tag k="sidewalk:left" v="no"/>
    <tag k="sidewalk:right" v="separate"/>
    <tag k="smoothness" v="excellent"/>
    <tag k="surface" v="asphalt"/>
    <tag k="tmc" v="DE:35387/46560"/>
  </way>
  <way id="37665696" version="29" timestamp="2025-04-29T16:11:07Z" changeset="165599594" uid="38546" user="wikimax">
    <nd ref="277383"/>
    <nd ref="3498172720"/>
    <nd ref="8882693681"/>
    <nd ref="7321490141"/>
    <nd ref="9924975399"/>
    <nd ref="6987431236"/>
    <nd ref="19107558"/>
    <tag k="class:bicycle" v="1"/>
    <tag k="cycleway:both" v="lane"/>
    <tag k="cycleway:both:lane" v="exclusive"/>
    <tag k="highway" v="secondary"/>
    <tag k="lanes" v="3"/>
    <tag k="lit" v="yes"/>
    <tag k="maxspeed" v="30"/>
    <tag k="maxspeed:conditional" v="50 @ (Mo-Fr 18:00-07:00; Sa, Su, PH)"/>
    <tag k="name" v="Schwanthalerstraße"/>
    <tag k="name:etymology:wikidata" v="Q448426"/>
    <tag k="oneway" v="no"/>
    <tag k="parking:both" v="yes"/>
    <tag k="parking:both:orientation" v="parallel"/>
    <tag k="sidewalk:both" v="yes"/>
    <tag k="sidewalk:both:surface" v="paving_stones"/>
    <tag k="smoothness" v="excellent"/>
    <tag k="surface" v="asphalt"/>
    <tag k="tmc" v="DE:27975/27976"/>
  </way>
  <way id="37760229" version="25" timestamp="2024-02-06T14:29:15Z" changeset="147138036" uid="13987295" user="Arthur B E">
    <nd ref="1956110"/>
    <nd ref="3674741466"/>
    <nd ref="8421279995"/>
    <nd ref="2464392507"/>
    <nd ref="1430460242"/>
    <nd ref="3575982477"/>
    <nd ref="8158904989"/>
    <nd ref="3078842206"/>
    <tag k="bicycle" v="use_sidepath"/>
    <tag k="foot" v="use_sidepath"/>
    <tag k="highway" v="tertiary"/>
    <tag k="lanes" v="2"/>
    <tag k="lit" v="yes"/>
    <tag k="maxspeed" v="50"/>
    <tag k="name" v="Bayerstraße"/>
    <tag k="old_ref" v="B 2;B 12"/>
    <tag k="parking:left" v="no"/>
    <tag k="sidewalk:both" v="separate"/>
    <tag k="smoothness" v="good"/>
    <tag k="surface" v="asphalt"/>
    <tag k="tmc" v="DE:35388/35389"/>
  </way>
  <way id="40314704" version="6" timestamp="2018-09-22T13:30:16Z" changeset="62825921" uid="78613" user="heilbron">
    <nd ref="486477961"/>
    <nd ref="486477974"/>
    <nd ref="2449901065"/>
    <nd ref="486477977"/>
    <nd ref="486477979"/>
    <nd ref="486477982"/>
    <nd ref="2487952029"/>
    <nd ref="486478023"/>
    <nd ref="2487952030"/>
    <nd ref="2487952028"/>
    <nd ref="486477985"/>
    <nd ref="486477961"/>
    <tag k="building" v="office"/>
    <tag k="building:colour" v="#DDFFDD"/>
    <tag k="building:levels" v="6"/>
    <tag k="name" v="Lindwurmhof"/>
  </way>
  <way id="46766189" version="5" timestamp="2021-03-05T15:03:17Z" changeset="100499581" uid="17011" user="muc-osm">
    <nd ref="597660532"/>
    <nd ref="597660533"/>
    <nd ref="597660534"/>
    <nd ref="597660535"/>
    <nd ref="597660536"/>
    <nd ref="4082479912"/>
    <nd ref="597660532"/>
    <tag k="addr:city" v="München"/>
    <tag k="addr:country" v="DE"/>
    <tag k="addr:housenumber" v="6"/>
    <tag k="addr:postcode" v="80336"/>
    <tag k="addr:street" v="Uhlandstraße"/>
    <tag k="building" v="office"/>
  </way>
  <way id="46829480" version="6" timestamp="2022-11-06T18:06:12Z" changeset="128565640" uid="235018" user="uwe-s">
    <nd ref="598156991"/>
    <nd ref="598156995"/>
    <nd ref="598156996"/>
    <nd ref="598156997"/>
    <nd ref="598156998"/>
    <nd ref="598156999"/>
    <nd ref="2470455108"/>
    <nd ref="598157000"/>
    <nd ref="598156991"/>
    <tag k="addr:city" v="München"/>
    <tag k="addr:housenumber" v="38"/>
    <tag k="addr:postcode" v="80336"/>
    <tag k="addr:street" v="Paul-Heyse-Straße"/>
    <tag k="building" v="yes"/>
    <tag k="check_date:opening_hours" v="2022-11-06"/>
    <tag k="name" v="VHV Versicherungen"/>
    <tag k="office" v="insurance"/>
    <tag k="opening_hours:signed" v="no"/>
    <tag k="website" v="https://www.vhv.de/"/>
  </way>
  <way id="48919211" version="29" timestamp="2025-04-29T16:11:07Z" changeset="165599594" uid="38546" user="wikimax">
    <nd ref="19107558"/>
    <nd ref="1146756722"/>
    <nd ref="8678913446"/>
    <nd ref="8678913443"/>
    <nd ref="277382"/>
    <tag k="class:bicycle" v="1"/>
    <tag k="cycleway:both" v="lane"/>
    <tag k="cycleway:both:lane" v="exclusive"/>
    <tag k="highway" v="secondary"/>
    <tag k="lanes" v="4"/>
    <tag k="lit" v="yes"/>
    <tag k="maxspeed" v="30"/>
    <tag k="maxspeed:conditional" v="50 @ (Mo-Fr 18:00-07:00; Sa, Su, PH)"/>
    <tag k="name" v="Schwanthalerstraße"/>
    <tag k="name:etymology:wikidata" v="Q448426"/>
    <tag k="oneway" v="no"/>
    <tag k="parking:lane:left" v="parallel"/>
    <tag k="parking:lane:right" v="parallel"/>
    <tag k="sidewalk:both" v="yes"/>
    <tag k="sidewalk:both:surface" v="paving_stones"/>
    <tag k="surface" v="asphalt"/>
    <tag k="tmc" v="DE:27975/27976"/>
  </way>
  <way id="49707121" version="24" timestamp="2024-04-12T19:45:53Z" changeset="149926689" uid="11652964" user="Olufanz">
    <nd ref="739548467"/>
    <nd ref="1239619386"/>
    <nd ref="1099934759"/>
    <nd ref="1099934713"/>
    <tag k="bicycle" v="use_sidepath"/>
    <tag k="foot" v="use_sidepath"/>
    <tag k="highway" v="tertiary"/>
    <tag k="lanes" v="2"/>
    <tag k="lit" v="yes"/>
    <tag k="maxspeed" v="50"/>
    <tag k="name" v="Bayerstraße"/>
    <tag k="old_ref" v="B 2;B 12"/>
    <tag k="oneway" v="yes"/>
    <tag k="parking:both" v="no"/>
    <tag k="sidewalk:both" v="separate"/>
    <tag k="surface" v="asphalt"/>
    <tag k="tmc" v="DE:35388/35389"/>
  </way>
  <way id="51733708" version="12" timestamp="2024-07-06T11:55:37Z" changeset="153620787" uid="18493611" user="MunichWays">
    <nd ref="353290785"/>
    <nd ref="353290796"/>
    <nd ref="1956100"/>
    <tag k="bicycle" v="yes"/>
    <tag k="class:bicycle" v="-1"/>
    <tag k="cycleway:both" v="no"/>
    <tag k="foot" v="yes"/>
    <tag k="highway" v="tertiary"/>
    <tag k="lane_markings" v="no"/>
    <tag k="lit" v="yes"/>
    <tag k="maxspeed" v="50"/>
    <tag k="name" v="Wredestraße"/>
    <tag k="name:etymology:wikidata" v="Q64759"/>
    <tag k="sidewalk:both" v="separate"/>
    <tag k="smoothness" v="good"/>
    <tag k="surface" v="asphalt"/>
  </way>
  <way id="60734641" version="18" timestamp="2024-12-31T15:53:13Z" changeset="160838945" uid="11652964" user="Olufanz">
    <nd ref="602750514"/>
    <nd ref="1022404024"/>
    <nd ref="3805295700"/>
    <nd ref="1387117359"/>
    <nd ref="1020955812"/>
    <nd ref="1747884037"/>
    <nd ref="21324404"/>
    <tag k="bicycle" v="use_sidepath"/>
    <tag k="cycleway:lanes" v="no|no"/>
    <tag k="cycleway:left" v="no"/>
    <tag k="cycleway:right" v="separate"/>
    <tag k="foot" v="use_sidepath"/>
    <tag k="highway" v="tertiary"/>
    <tag k="lanes" v="2"/>
    <tag k="lit" v="yes"/>
    <tag k="maxspeed" v="50"/>
    <tag k="name" v="Arnulfstraße"/>
    <tag k="oneway" v="yes"/>
    <tag k="sidewalk:left" v="no"/>
    <tag k="sidewalk:right" v="separate"/>
    <tag k="surface" v="asphalt"/>
    <tag k="tmc" v="DE:35356/35357"/>
  </way>
  <way id="61051326" version="22" timestamp="2025-04-17T13:56:59Z" changeset="165073398" uid="13987295" user="Arthur B E">
    <nd ref="1956109"/>
    <nd ref="601733623"/>
    <nd ref="321922704"/>
    <tag k="TMC:cid_58:tabcd_1:Class" v="Point"/>
    <tag k="TMC:cid_58:tabcd_1:Direction" v="both"/>
    <tag k="TMC:cid_58:tabcd_1:LCLversion" v="9.00"/>
    <tag k="TMC:cid_58:tabcd_1:LocationCode" v="61452"/>
    <tag k="TMC:cid_58:tabcd_1:NextLocationCode" v="61453"/>
    <tag k="TMC:cid_58:tabcd_1:PrevLocationCode" v="61451"/>
    <tag k="bicycle" v="yes"/>
    <tag k="bridge" v="yes"/>
    <tag k="bridge:structure" v="truss"/>
    <tag k="class:bicycle" v="-1"/>
    <tag k="cycleway:both" v="no"/>
    <tag k="foot" v="use_sidepath"/>
    <tag k="highway" v="tertiary"/>
    <tag k="lanes" v="2"/>
    <tag k="layer" v="2"/>
    <tag k="level" v="2"/>
    <tag k="lit" v="yes"/>
    <tag k="maxheight" v="3.3"/>
    <tag k="maxspeed" v="30"/>
    <tag k="maxweight" v="18"/>
    <tag k="name" v="Hackerbrücke"/>
    <tag k="parking:both" v="no"/>
    <tag k="segregated" v="yes"/>
    <tag k="shoulder" v="no"/>
    <tag k="sidewalk:both" v="separate"/>
    <tag k="smoothness" v="good"/>
    <tag k="source:maxspeed" v="sign"/>
    <tag k="surface" v="asphalt"/>
    <tag k="tmc" v="DE:61452"/>
  </way>
  <way id="67433180" version="20" timestamp="2025-05-17T04:32:39Z" changeset="166375926" uid="2199434" user="xinon">
    <nd ref="814227811"/>
    <nd ref="602742221"/>
    <tag k="class:bicycle" v="-1"/>
    <tag k="cycleway:left" v="no"/>
    <tag k="cycleway:right" v="lane"/>
    <tag k="cycleway:right:lane" v="exclusive"/>
    <tag k="highway" v="tertiary"/>
    <tag k="lanes" v="2"/>
    <tag k="lit" v="yes"/>
    <tag k="maxspeed" v="50"/>
    <tag k="name" v="Arnulfstraße"/>
    <tag k="oneway" v="yes"/>
    <tag k="segregated" v="yes"/>
    <tag k="sidewalk" v="right"/>
    <tag k="sidewalk:right:surface" v="paving_stones"/>
    <tag k="surface" v="asphalt"/>
    <tag k="tmc" v="DE:35356/35357"/>
  </way>
  <way id="90394173" version="5" timestamp="2024-12-31T15:56:42Z" changeset="160837879" uid="11652964" user="Olufanz">
    <nd ref="309890117"/>
    <nd ref="1022404038"/>
    <nd ref="1022404031"/>
    <nd ref="1022404024"/>
    <tag k="highway" v="residential"/>
    <tag k="lane_markings" v="no"/>
    <tag k="maxspeed" v="50"/>
    <tag k="name" v="Herbststraße"/>
    <tag k="sidewalk" v="no"/>
    <tag k="surface" v="asphalt"/>
  </way>
  <way id="90394180" version="12" timestamp="2024-12-31T15:53:48Z" changeset="160838945" uid="11652964" user="Olufanz">
    <nd ref="737219016"/>
    <nd ref="309890165"/>
    <nd ref="1020955835"/>
    <nd ref="1020955834"/>
    <nd ref="1387117359"/>
    <tag k="class:bicycle" v="-1"/>
    <tag k="cycleway:both" v="no"/>
    <tag k="highway" v="residential"/>
    <tag k="lane_markings" v="no"/>
    <tag k="lit" v="yes"/>
    <tag k="maxspeed" v="50"/>
    <tag k="name" v="Hopfenstraße"/>
    <tag k="sidewalk" v="no"/>
    <tag k="surface" v="asphalt"/>
  </way>
  <way id="90400540" version="14" timestamp="2024-11-22T12:21:13Z" changeset="159456567" uid="11758604" user="map per">
    <nd ref="20981713"/>
    <nd ref="1956101"/>
    <tag k="class:bicycle" v="-2"/>
    <tag k="cycleway:left" v="no"/>
    <tag k="cycleway:right" v="lane"/>
    <tag k="cycleway:right:lane" v="exclusive"/>
    <tag k="highway" v="tertiary"/>
    <tag k="lanes" v="2"/>
    <tag k="lit" v="yes"/>
    <tag k="maxspeed" v="50"/>
    <tag k="name" v="Arnulfstraße"/>
    <tag k="oneway" v="yes"/>
    <tag k="sidewalk:left" v="separate"/>
    <tag k="sidewalk:right" v="no"/>
    <tag k="smoothness" v="intermediate"/>
    <tag k="surface" v="asphalt"/>
    <tag k="tmc" v="DE:35357"/>
  </way>
  <way id="93336957" version="13" timestamp="2024-09-26T15:35:36Z" changeset="157134948" uid="2226887" user="déni">
    <nd ref="2477061946"/>
    <nd ref="2477061947"/>
    <nd ref="12021276848"/>
    <nd ref="1082199337"/>
    <nd ref="1082199262"/>
    <nd ref="2477061948"/>
    <nd ref="1082199284"/>
    <nd ref="2477061946"/>
    <tag k="addr:city" v="München"/>
    <tag k="addr:housenumber" v="58-60"/>
    <tag k="addr:postcode" v="80336"/>
    <tag k="addr:street" v="Schwanthalerstraße"/>
    <tag k="building" v="yes"/>
    <tag k="building:levels" v="7"/>
    <tag k="internet_access" v="wlan"/>
    <tag k="name" v="relexa hotel"/>
    <tag k="toilets:wheelchair" v="yes"/>
    <tag k="tourism" v="hotel"/>
    <tag k="website" v="https://www.relexa-hotel-muenchen.de/"/>
    <tag k="wheelchair" v="yes"/>
    <tag k="wikidata" v="Q111387959"/>
  </way>
  <way id="94541822" version="5" timestamp="2016-02-07T22:17:42Z" changeset="37069714" uid="152074" user="beweta">
    <nd ref="1098139522"/>
    <nd ref="1098139532"/>
    <nd ref="1098139518"/>
    <nd ref="1098139491"/>
    <nd ref="1098139522"/>
    <tag k="addr:city" v="München"/>
    <tag k="addr:country" v="DE"/>
    <tag k="addr:housenumber" v="23"/>
    <tag k="addr:postcode" v="80336"/>
    <tag k="addr:street" v="Bavariaring"/>
    <tag k="building" v="yes"/>
  </way>
  <way id="94541823" version="5" timestamp="2025-05-16T21:38:43Z" changeset="166370226" uid="2554996" user="Nanoilite">
    <nd ref="1098139467"/>
    <nd ref="1098139451"/>
    <nd ref="1098139385"/>
    <nd ref="1098139427"/>
    <nd ref="12843090917"/>
    <nd ref="1098139480"/>
    <nd ref="1098139514"/>
    <nd ref="1098139424"/>
    <nd ref="1098139467"/>
    <tag k="addr:city" v="München"/>
    <tag k="addr:country" v="DE"/>
    <tag k="addr:housenumber" v="20"/>
    <tag k="addr:postcode" v="80336"/>
    <tag k="addr:street" v="Bavariaring"/>
    <tag k="building" v="yes"/>
    <tag k="wikidata" v="Q41179696"/>
  </way>
  <way id="94541825" version="3" timestamp="2016-02-07T22:17:43Z" changeset="37069714" uid="152074" user="beweta">
    <nd ref="1098139506"/>
    <nd ref="1098139465"/>
    <nd ref="3994372252"/>
    <nd ref="3994372251"/>
    <nd ref="1098139401"/>
    <nd ref="1098139449"/>
    <nd ref="1098139459"/>
    <nd ref="1098139468"/>
    <nd ref="3994372253"/>
    <nd ref="3994372254"/>
    <nd ref="2450548917"/>
    <nd ref="1098139506"/>
    <tag k="addr:city" v="München"/>
    <tag k="addr:country" v="DE"/>
    <tag k="addr:housenumber" v="3"/>
    <tag k="addr:postcode" v="80336"/>
    <tag k="addr:street" v="Rückertstraße"/>
    <tag k="building" v="yes"/>
  </way>
  <way id="94541826" version="4" timestamp="2021-03-08T15:20:38Z" changeset="100647203" uid="17011" user="muc-osm">
    <nd ref="3994372250"/>
    <nd ref="3994372248"/>
    <nd ref="2450548938"/>
    <nd ref="3994372246"/>
    <nd ref="3994372244"/>
    <nd ref="1098139414"/>
    <nd ref="1098139410"/>
    <nd ref="3994372250"/>
    <tag k="addr:city" v="München"/>
    <tag k="addr:country" v="DE"/>
    <tag k="addr:housenumber" v="14"/>
    <tag k="addr:postcode" v="80336"/>
    <tag k="addr:street" v="Beethovenstraße"/>
    <tag k="building" v="office"/>
    <tag k="building:levels" v="5"/>
    <tag k="roof:levels" v="1"/>
  </way>
  <way id="94541829" version="5" timestamp="2025-05-16T21:38:43Z" changeset="166370226" uid="2554996" user="Nanoilite">
    <nd ref="1098139443"/>
    <nd ref="12843090903"/>
    <nd ref="12843090904"/>
    <nd ref="12843090905"/>
    <nd ref="12843090902"/>
    <nd ref="1098139503"/>
    <nd ref="2450548872"/>
    <nd ref="12843090901"/>
    <nd ref="12843090900"/>
    <nd ref="1098139547"/>
    <nd ref="12843090907"/>
    <nd ref="12843090906"/>
    <nd ref="1098139423"/>
    <nd ref="1098139443"/>
    <tag k="addr:city" v="München"/>
    <tag k="addr:country" v="DE"/>
    <tag k="addr:housenumber" v="7"/>
    <tag k="addr:postcode" v="80336"/>
    <tag k="addr:street" v="Rückertstraße"/>
    <tag k="building" v="yes"/>
    <tag k="wikidata" v="Q41180046"/>
  </way>
  <way id="94541830" version="7" timestamp="2024-04-26T14:10:35Z" changeset="150541213" uid="29096" user="buergi">
    <nd ref="1098139453"/>
    <nd ref="1098139504"/>
    <nd ref="1098139501"/>
    <nd ref="3994372249"/>
    <nd ref="1098139484"/>
    <nd ref="1098139481"/>
    <nd ref="3994372239"/>
    <nd ref="3994372242"/>
    <nd ref="3994372241"/>
    <nd ref="3994372240"/>
    <nd ref="3994372243"/>
    <nd ref="3994372245"/>
    <nd ref="3994372247"/>
    <nd ref="1098139521"/>
    <nd ref="1098139453"/>
    <tag k="addr:city" v="München"/>
    <tag k="addr:country" v="DE"/>
    <tag k="addr:housenumber" v="24"/>
    <tag k="addr:postcode" v="80336"/>
    <tag k="addr:street" v="Bavariaring"/>
    <tag k="building" v="apartments"/>
    <tag k="building:levels" v="3"/>
    <tag k="roof:levels" v="1"/>
    <tag k="roof:shape" v="hipped"/>
  </way>
  <way id="94541832" version="4" timestamp="2021-03-04T15:22:31Z" changeset="100431732" uid="17011" user="muc-osm">
    <nd ref="1098139526"/>
    <nd ref="1098139396"/>
    <nd ref="1098139388"/>
    <nd ref="1098139461"/>
    <nd ref="1098139409"/>
    <nd ref="1098139510"/>
    <nd ref="1098139452"/>
    <nd ref="3994375961"/>
    <nd ref="1098139494"/>
    <nd ref="1098139526"/>
    <tag k="addr:city" v="München"/>
    <tag k="addr:country" v="DE"/>
    <tag k="addr:housenumber" v="4"/>
    <tag k="addr:postcode" v="80336"/>
    <tag k="addr:street" v="Rückertstraße"/>
    <tag k="building" v="apartments"/>
  </way>
  <way id="94541833" version="6" timestamp="2020-11-21T22:07:24Z" changeset="94563384" uid="43207" user="kdkeller">
    <nd ref="3994375959"/>
    <nd ref="3994375960"/>
    <nd ref="1098139492"/>
    <nd ref="1098139486"/>
    <nd ref="1098139520"/>
    <nd ref="2440802242"/>
    <nd ref="3994375957"/>
    <nd ref="1098139489"/>
    <nd ref="3994375959"/>
    <tag k="addr:city" v="München"/>
    <tag k="addr:country" v="DE"/>
    <tag k="addr:housenumber" v="22"/>
    <tag k="addr:postcode" v="80336"/>
    <tag k="addr:street" v="Bavariaring"/>
    <tag k="building" v="yes"/>
    <tag k="wikidata" v="Q41179703"/>
  </way>
  <way id="94541834" version="5" timestamp="2020-11-21T22:07:29Z" changeset="94563384" uid="43207" user="kdkeller">
    <nd ref="1098139447"/>
    <nd ref="1098139541"/>
    <nd ref="1098139386"/>
    <nd ref="1098139429"/>
    <nd ref="1098139531"/>
    <nd ref="1657638611"/>
    <nd ref="1657638614"/>
    <nd ref="1657638615"/>
    <nd ref="2450548868"/>
    <nd ref="1098139447"/>
    <tag k="addr:city" v="München"/>
    <tag k="addr:country" v="DE"/>
    <tag k="addr:housenumber" v="1"/>
    <tag k="addr:postcode" v="80336"/>
    <tag k="addr:street" v="Rückertstraße"/>
    <tag k="building" v="yes"/>
    <tag k="wikidata" v="Q41180039"/>
  </way>
  <way id="94541835" version="5" timestamp="2021-03-03T15:41:26Z" changeset="100361476" uid="17011" user="muc-osm">
    <nd ref="1098139499"/>
    <nd ref="1098139478"/>
    <nd ref="1098139533"/>
    <nd ref="3994375962"/>
    <nd ref="1098139507"/>
    <nd ref="1098139499"/>
    <tag k="addr:city" v="München"/>
    <tag k="addr:country" v="DE"/>
    <tag k="addr:housenumber" v="6"/>
    <tag k="addr:postcode" v="80336"/>
    <tag k="addr:street" v="Rückertstraße"/>
    <tag k="building" v="apartments"/>
    <tag k="roof:shape" v="hipped"/>
  </way>
  <way id="94541836" version="7" timestamp="2024-07-06T07:55:01Z" changeset="153612958" uid="78613" user="heilbron">
    <nd ref="1098139498"/>
    <nd ref="1098139394"/>
    <nd ref="1098139395"/>
    <nd ref="1098139391"/>
    <nd ref="1098139393"/>
    <nd ref="1098139392"/>
    <nd ref="1098139529"/>
    <nd ref="1098139542"/>
    <nd ref="2450535149"/>
    <nd ref="1098139498"/>
    <tag k="addr:city" v="München"/>
    <tag k="addr:country" v="DE"/>
    <tag k="addr:housenumber" v="10"/>
    <tag k="addr:postcode" v="80336"/>
    <tag k="addr:street" v="Herzog-Heinrich-Straße"/>
    <tag k="building" v="office"/>
    <tag k="building:levels" v="4"/>
    <tag k="roof:levels" v="1"/>
  </way>
  <way id="94541838" version="4" timestamp="2016-02-07T22:17:47Z" changeset="37069714" uid="152074" user="beweta">
    <nd ref="1098139528"/>
    <nd ref="1143639935"/>
    <nd ref="1098139534"/>
    <nd ref="1098139512"/>
    <nd ref="1098139509"/>
    <nd ref="1143639895"/>
    <nd ref="1098139505"/>
    <nd ref="1143639938"/>
    <nd ref="1098139479"/>
    <nd ref="1143639937"/>
    <nd ref="1143639940"/>
    <nd ref="1098139495"/>
    <nd ref="1143639928"/>
    <nd ref="1098139493"/>
    <nd ref="1098139546"/>
    <nd ref="1098139397"/>
    <nd ref="1098139528"/>
    <tag k="addr:city" v="München"/>
    <tag k="addr:country" v="DE"/>
    <tag k="addr:housenumber" v="2"/>
    <tag k="addr:postcode" v="80336"/>
    <tag k="addr:street" v="Rückertstraße"/>
    <tag k="amenity" v="place_of_worship"/>
    <tag k="building" v="church"/>
    <tag k="denomination" v="mormon"/>
    <tag k="name" v="Kirche Jesu Christi der Heiligen der Letzten Tage"/>
    <tag k="religion" v="christian"/>
  </way>
  <way id="94541839" version="4" timestamp="2025-05-16T21:38:43Z" changeset="166370226" uid="2554996" user="Nanoilite">
    <nd ref="637381419"/>
    <nd ref="1098139496"/>
    <nd ref="1098139497"/>
    <nd ref="1098139513"/>
    <nd ref="12843090990"/>
    <nd ref="1098139475"/>
    <nd ref="1098139517"/>
    <nd ref="637381419"/>
    <tag k="addr:city" v="München"/>
    <tag k="addr:country" v="DE"/>
    <tag k="addr:housenumber" v="6"/>
    <tag k="addr:postcode" v="80336"/>
    <tag k="addr:street" v="Uhlandstraße"/>
    <tag k="building" v="yes"/>
  </way>
  <way id="94541840" version="5" timestamp="2020-11-21T22:07:30Z" changeset="94563384" uid="43207" user="kdkeller">
    <nd ref="1098139404"/>
    <nd ref="1098139413"/>
    <nd ref="1098139412"/>
    <nd ref="3994372256"/>
    <nd ref="3994372255"/>
    <nd ref="1098139516"/>
    <nd ref="2450548981"/>
    <nd ref="1098139404"/>
    <tag k="addr:city" v="München"/>
    <tag k="addr:country" v="DE"/>
    <tag k="addr:housenumber" v="5"/>
    <tag k="addr:postcode" v="80336"/>
    <tag k="addr:street" v="Rückertstraße"/>
    <tag k="building" v="yes"/>
    <tag k="roof:shape" v="hipped"/>
    <tag k="wikidata" v="Q41180044"/>
  </way>
  <way id="94552988" version="8" timestamp="2016-02-07T22:17:45Z" changeset="37069714" uid="152074" user="beweta">
    <nd ref="1098250054"/>
    <nd ref="1098250327"/>
    <nd ref="1098249883"/>
    <nd ref="1098249954"/>
    <nd ref="1098250054"/>
    <tag k="addr:city" v="München"/>
    <tag k="addr:country" v="DE"/>
    <tag k="addr:housenumber" v="5"/>
    <tag k="addr:postcode" v="80336"/>
    <tag k="addr:street" v="Schubertstraße"/>
    <tag k="building" v="yes"/>
    <tag k="roof:colour" v="grey"/>
    <tag k="roof:shape" v="hipped"/>
  </way>
  <way id="94552991" version="9" timestamp="2021-03-07T14:49:59Z" changeset="100577602" uid="17011" user="muc-osm">
    <nd ref="1098250048"/>
    <nd ref="1098250225"/>
    <nd ref="2450535187"/>
    <nd ref="1098250130"/>
    <nd ref="1098250232"/>
    <nd ref="1098250048"/>
    <tag k="addr:city" v="München"/>
    <tag k="addr:country" v="DE"/>
    <tag k="addr:housenumber" v="22"/>
    <tag k="addr:postcode" v="80336"/>
    <tag k="addr:street" v="Herzog-Heinrich-Straße"/>
    <tag k="building" v="apartments"/>
    <tag k="building:colour" v="white"/>
    <tag k="building:levels" v="4"/>
    <tag k="roof:shape" v="hipped"/>
  </way>
  <way id="94552993" version="12" timestamp="2022-04-25T12:33:23Z" changeset="120164670" uid="4238158" user="RiderOnTheStorm">
    <nd ref="1098250044"/>
    <nd ref="2450548925"/>
    <nd ref="1098250401"/>
    <nd ref="1744753387"/>
    <nd ref="1744753388"/>
    <nd ref="1744753386"/>
    <nd ref="1744753385"/>
    <nd ref="1098250713"/>
    <nd ref="1098250567"/>
    <nd ref="1098250088"/>
    <nd ref="1744753382"/>
    <nd ref="1744753380"/>
    <nd ref="1744753379"/>
    <nd ref="1744753381"/>
    <nd ref="1098250355"/>
    <nd ref="1098250434"/>
    <nd ref="1098250283"/>
    <nd ref="1744753378"/>
    <nd ref="1744753377"/>
    <nd ref="1744753383"/>
    <nd ref="1744753384"/>
    <nd ref="1098250044"/>
    <tag k="addr:city" v="München"/>
    <tag k="addr:country" v="DE"/>
    <tag k="addr:housenumber" v="5"/>
    <tag k="addr:postcode" v="80336"/>
    <tag k="addr:street" v="Beethovenstraße"/>
    <tag k="amenity" v="police"/>
    <tag k="building" v="office"/>
    <tag k="building:levels" v="3"/>
    <tag k="name" v="Polizeiinspektion München 14 (Westend)"/>
    <tag k="opening_hours" v="24/7"/>
    <tag k="phone" v="+49 89 543320"/>
    <tag k="roof:colour" v="#DDDDDD"/>
    <tag k="roof:levels" v="1"/>
    <tag k="website" v="https://www.polizei.bayern.de/wir-ueber-uns/organisation/dienststellen/0900811040000.html"/>
    <tag k="wikidata" v="Q41179771"/>
  </way>
  <way id="94553005" version="9" timestamp="2020-11-21T22:07:31Z" changeset="94563384" uid="43207" user="kdkeller">
    <nd ref="3994372233"/>
    <nd ref="1098250113"/>
    <nd ref="1098250571"/>
    <nd ref="1098250526"/>
    <nd ref="1098250165"/>
    <nd ref="1869121767"/>
    <nd ref="1869121766"/>
    <nd ref="3994372232"/>
    <nd ref="3994372233"/>
    <tag k="addr:city" v="München"/>
    <tag k="addr:country" v="DE"/>
    <tag k="addr:housenumber" v="1"/>
    <tag k="addr:postcode" v="80336"/>
    <tag k="addr:street" v="Schubertstraße"/>
    <tag k="building" v="yes"/>
    <tag k="wikidata" v="Q41180058"/>
  </way>
  <way id="94553007" version="7" timestamp="2016-02-07T22:17:43Z" changeset="37069714" uid="152074" user="beweta">
    <nd ref="1098250644"/>
    <nd ref="1152551238"/>
    <nd ref="1152551223"/>
    <nd ref="1098249970"/>
    <nd ref="1152551209"/>
    <nd ref="1152551268"/>
    <nd ref="1098250077"/>
    <nd ref="1098250154"/>
    <nd ref="1098250644"/>
    <tag k="addr:city" v="München"/>
    <tag k="addr:country" v="DE"/>
    <tag k="addr:housenumber" v="29"/>
    <tag k="addr:postcode" v="80336"/>
    <tag k="addr:street" v="Bavariaring"/>
    <tag k="building" v="yes"/>
  </way>
  <way id="94553008" version="4" timestamp="2016-02-07T22:17:42Z" changeset="37069714" uid="152074" user="beweta">
    <nd ref="1098250584"/>
    <nd ref="1098250270"/>
    <nd ref="1098250345"/>
    <nd ref="1098250699"/>
    <nd ref="1098250584"/>
    <tag k="addr:city" v="München"/>
    <tag k="addr:country" v="DE"/>
    <tag k="addr:housenumber" v="25"/>
    <tag k="addr:postcode" v="80336"/>
    <tag k="addr:street" v="Bavariaring"/>
    <tag k="building" v="yes"/>
  </way>
  <way id="94553012" version="6" timestamp="2021-11-12T09:18:55Z" changeset="113686331" uid="10534552" user="Avelarius">
    <nd ref="1098250469"/>
    <nd ref="1098250397"/>
    <nd ref="1098250554"/>
    <nd ref="1098250751"/>
    <nd ref="1098250543"/>
    <nd ref="1152551222"/>
    <nd ref="1152551214"/>
    <nd ref="1152551220"/>
    <nd ref="1152551196"/>
    <nd ref="1098250469"/>
    <tag k="addr:city" v="München"/>
    <tag k="addr:country" v="DE"/>
    <tag k="addr:housenumber" v="12"/>
    <tag k="addr:postcode" v="80336"/>
    <tag k="addr:street" v="Schubertstraße"/>
    <tag k="building" v="apartments"/>
  </way>
  <way id="94553013" version="8" timestamp="2021-03-05T15:03:19Z" changeset="100499581" uid="17011" user="muc-osm">
    <nd ref="1098250597"/>
    <nd ref="1098250359"/>
    <nd ref="4082478156"/>
    <nd ref="4082478155"/>
    <nd ref="4082478154"/>
    <nd ref="4082478150"/>
    <nd ref="1098250342"/>
    <nd ref="1098250116"/>
    <nd ref="1098250593"/>
    <nd ref="1098250739"/>
    <nd ref="1098250597"/>
    <tag k="addr:city" v="München"/>
    <tag k="addr:country" v="DE"/>
    <tag k="addr:housenumber" v="7"/>
    <tag k="addr:postcode" v="80336"/>
    <tag k="addr:street" v="Schubertstraße"/>
    <tag k="building" v="apartments"/>
  </way>
  <way id="94553016" version="8" timestamp="2021-03-07T14:49:59Z" changeset="100577602" uid="17011" user="muc-osm">
    <nd ref="2389022297"/>
    <nd ref="2450535143"/>
    <nd ref="1098250606"/>
    <nd ref="1098250234"/>
    <nd ref="1869121764"/>
    <nd ref="1869121765"/>
    <nd ref="2389022298"/>
    <nd ref="2389022297"/>
    <tag k="addr:city" v="München"/>
    <tag k="addr:country" v="DE"/>
    <tag k="addr:housenumber" v="16"/>
    <tag k="addr:postcode" v="80336"/>
    <tag k="addr:street" v="Herzog-Heinrich-Straße"/>
    <tag k="building" v="apartments"/>
  </way>
  <way id="94553017" version="5" timestamp="2016-08-22T05:06:55Z" changeset="41606235" uid="3925482" user="Senor_Gomez">
    <nd ref="1098250272"/>
    <nd ref="1098250647"/>
    <nd ref="1657638602"/>
    <nd ref="1098249942"/>
    <nd ref="1098250669"/>
    <nd ref="1098250258"/>
    <nd ref="1098250123"/>
    <nd ref="1098250272"/>
    <tag k="addr:city" v="München"/>
    <tag k="addr:country" v="DE"/>
    <tag k="addr:housenumber" v="6"/>
    <tag k="addr:postcode" v="80336"/>
    <tag k="addr:street" v="Kaiser-Ludwig-Platz"/>
    <tag k="building" v="yes"/>
    <tag k="name" v="Praxis Dr. Vocke Dipl. Psychologin"/>
    <tag k="name:de" v="Praxis Dr. Vocke Dipl. Psychologin"/>
  </way>
  <way id="94553018" version="10" timestamp="2021-12-30T13:07:23Z" changeset="115564670" uid="9333062" user="zorae">
    <nd ref="1098250633"/>
    <nd ref="9379216781"/>
    <nd ref="871078202"/>
    <nd ref="2450535150"/>
    <nd ref="1098250754"/>
    <nd ref="1098250578"/>
    <nd ref="1098250633"/>
    <tag k="addr:city" v="München"/>
    <tag k="addr:country" v="DE"/>
    <tag k="addr:housenumber" v="20"/>
    <tag k="addr:postcode" v="80336"/>
    <tag k="addr:street" v="Herzog-Heinrich-Straße"/>
    <tag k="building" v="yes"/>
    <tag k="building:colour" v="white"/>
    <tag k="building:levels" v="4"/>
    <tag k="roof:colour" v="grey"/>
    <tag k="roof:shape" v="hipped"/>
  </way>
  <way id="94553020" version="9" timestamp="2023-09-19T17:45:25Z" changeset="141479730" uid="78613" user="heilbron">
    <nd ref="1098249972"/>
    <nd ref="1098250737"/>
    <nd ref="1098250139"/>
    <nd ref="1098249962"/>
    <nd ref="1098250084"/>
    <nd ref="1098250509"/>
    <nd ref="1098250564"/>
    <nd ref="1430680620"/>
    <nd ref="1430680619"/>
    <nd ref="1098249972"/>
    <tag k="addr:city" v="München"/>
    <tag k="addr:country" v="DE"/>
    <tag k="addr:housenumber" v="18"/>
    <tag k="addr:postcode" v="80336"/>
    <tag k="addr:street" v="Mozartstraße"/>
    <tag k="building" v="apartments"/>
    <tag k="building:colour" v="#FFF0D0"/>
    <tag k="building:levels" v="4"/>
    <tag k="roof:shape" v="flat"/>
  </way>
  <way id="94553022" version="6" timestamp="2016-02-07T22:17:43Z" changeset="37069714" uid="152074" user="beweta">
    <nd ref="2440802236"/>
    <nd ref="1098250519"/>
    <nd ref="1098250161"/>
    <nd ref="2440802169"/>
    <nd ref="2440802236"/>
    <tag k="addr:city" v="München"/>
    <tag k="addr:country" v="DE"/>
    <tag k="addr:housenumber" v="27"/>
    <tag k="addr:postcode" v="80336"/>
    <tag k="addr:street" v="Bavariaring"/>
    <tag k="building" v="yes"/>
  </way>
  <way id="94553024" version="6" timestamp="2016-02-07T22:17:47Z" changeset="37069714" uid="152074" user="beweta">
    <nd ref="1098249989"/>
    <nd ref="1098250332"/>
    <nd ref="1098250157"/>
    <nd ref="1098250169"/>
    <nd ref="1098250489"/>
    <nd ref="1098249982"/>
    <nd ref="1098250349"/>
    <nd ref="1098250080"/>
    <nd ref="1098249989"/>
    <tag k="addr:city" v="München"/>
    <tag k="addr:country" v="DE"/>
    <tag k="addr:housenumber" v="8"/>
    <tag k="addr:postcode" v="80336"/>
    <tag k="addr:street" v="Schubertstraße"/>
    <tag k="building" v="yes"/>
  </way>
  <way id="94553026" version="9" timestamp="2021-03-04T15:22:31Z" changeset="100431732" uid="17011" user="muc-osm">
    <nd ref="1098250063"/>
    <nd ref="1098250709"/>
    <nd ref="1098250288"/>
    <nd ref="1098250385"/>
    <nd ref="1098250063"/>
    <tag k="addr:city" v="München"/>
    <tag k="addr:country" v="DE"/>
    <tag k="addr:housenumber" v="10"/>
    <tag k="addr:postcode" v="80336"/>
    <tag k="addr:street" v="Schubertstraße"/>
    <tag k="building" v="apartments"/>
    <tag k="roof:shape" v="hipped"/>
    <tag k="wikidata" v="Q18785050"/>
  </way>
  <way id="94553027" version="11" timestamp="2020-10-07T18:15:32Z" changeset="92127349" uid="3249777" user="opendcc">
    <nd ref="1098250276"/>
    <nd ref="4082479811"/>
    <nd ref="4082479813"/>
    <nd ref="4082479812"/>
    <nd ref="4082479810"/>
    <nd ref="1098250278"/>
    <nd ref="4082479809"/>
    <nd ref="4082479808"/>
    <nd ref="4082479806"/>
    <nd ref="1098250706"/>
    <nd ref="4082479801"/>
    <nd ref="4082479797"/>
    <nd ref="4082479798"/>
    <nd ref="1098250239"/>
    <nd ref="4082479794"/>
    <nd ref="4082479792"/>
    <nd ref="4082479793"/>
    <nd ref="4082479795"/>
    <nd ref="1098250051"/>
    <nd ref="1098250276"/>
    <tag k="addr:city" v="München"/>
    <tag k="addr:country" v="DE"/>
    <tag k="addr:housenumber" v="26"/>
    <tag k="addr:postcode" v="80336"/>
    <tag k="addr:street" v="Bavariaring"/>
    <tag k="building" v="yes"/>
  </way>
  <way id="94563365" version="4" timestamp="2023-08-14T05:45:58Z" changeset="139853436" uid="11758604" user="map per">
    <nd ref="2498823803"/>
    <nd ref="1098334513"/>
    <nd ref="1098334564"/>
    <nd ref="1098334504"/>
    <nd ref="1098334389"/>
    <nd ref="2258701668"/>
    <nd ref="2514307031"/>
    <nd ref="2514307032"/>
    <nd ref="1098334586"/>
    <nd ref="1098334366"/>
    <nd ref="1098334430"/>
    <nd ref="2498823803"/>
    <tag k="building" v="yes"/>
    <tag k="building:levels" v="3"/>
    <tag k="leisure" v="sports_hall"/>
    <tag k="name" v="Turnhalle Stielerschule"/>
  </way>
  <way id="94563375" version="8" timestamp="2022-05-14T11:29:10Z" changeset="120975200" uid="78613" user="heilbron">
    <nd ref="1098334485"/>
    <nd ref="1098334496"/>
    <nd ref="1098334380"/>
    <nd ref="1098334478"/>
    <nd ref="1098334500"/>
    <nd ref="1098334595"/>
    <nd ref="2449879784"/>
    <nd ref="1417402884"/>
    <nd ref="1098334485"/>
    <tag k="addr:city" v="München"/>
    <tag k="addr:country" v="DE"/>
    <tag k="addr:housenumber" v="64"/>
    <tag k="addr:postcode" v="80337"/>
    <tag k="addr:street" v="Lindwurmstraße"/>
    <tag k="building" v="apartments"/>
    <tag k="building:levels" v="6"/>
    <tag k="roof:levels" v="0"/>
    <tag k="roof:shape" v="hipped"/>
  </way>
  <way id="94570268" version="4" timestamp="2021-03-05T15:03:19Z" changeset="100499581" uid="17011" user="muc-osm">
    <nd ref="1098382070"/>
    <nd ref="1098382060"/>
    <nd ref="597660532"/>
    <nd ref="4082479912"/>
    <nd ref="1098382062"/>
    <nd ref="1098382070"/>
    <tag k="addr:housenumber" v="4"/>
    <tag k="addr:postcode" v="80336"/>
    <tag k="addr:street" v="Uhlandstraße"/>
    <tag k="building" v="office"/>
  </way>
  <way id="96951693" version="15" timestamp="2024-02-06T14:25:21Z" changeset="147137904" uid="13987295" user="Arthur B E">
    <nd ref="3078842209"/>
    <nd ref="3078842208"/>
    <nd ref="3078842207"/>
    <nd ref="6532762705"/>
    <nd ref="3078842206"/>
    <tag k="bicycle" v="use_sidepath"/>
    <tag k="foot" v="use_sidepath"/>
    <tag k="highway" v="tertiary"/>
    <tag k="lanes" v="2"/>
    <tag k="lit" v="yes"/>
    <tag k="maxspeed" v="50"/>
    <tag k="name" v="Bayerstraße"/>
    <tag k="old_ref" v="B 2;B 12"/>
    <tag k="oneway" v="yes"/>
    <tag k="sidewalk:left" v="no"/>
    <tag k="sidewalk:right" v="separate"/>
    <tag k="smoothness" v="good"/>
    <tag k="surface" v="asphalt"/>
    <tag k="tmc" v="DE:35388/35389"/>
  </way>
  <way id="98855280" version="5" timestamp="2024-05-24T18:38:32Z" changeset="151784226" uid="1717726" user="UKausch">
    <nd ref="1143639909"/>
    <nd ref="1143639900"/>
    <nd ref="1143639932"/>
    <nd ref="1143639897"/>
    <nd ref="1143639888"/>
    <nd ref="1143639878"/>
    <nd ref="1143639863"/>
    <nd ref="2440802206"/>
    <nd ref="1143639861"/>
    <nd ref="1143639884"/>
    <nd ref="1143639883"/>
    <nd ref="1143639881"/>
    <nd ref="1143639879"/>
    <nd ref="1143639877"/>
    <nd ref="1143639874"/>
    <nd ref="1143639870"/>
    <nd ref="1143639869"/>
    <nd ref="1143639909"/>
    <tag k="building" v="yes"/>
    <tag k="heritage" v="4"/>
    <tag k="heritage:operator" v="BLfD"/>
    <tag k="name" v="Ehemaliges Brausebad"/>
    <tag k="ref:BLfD" v="Q294135"/>
    <tag k="wikidata" v="Q294135"/>
    <tag k="wikipedia" v="de:Öffentliche Bedürfnisanstalt am Bavariaring"/>
  </way>
  <way id="99144031" version="5" timestamp="2022-08-29T17:01:56Z" changeset="125533220" uid="16518908" user="Mapandy">
    <nd ref="1146756692"/>
    <nd ref="1146756743"/>
    <nd ref="1146756666"/>
    <nd ref="1146756697"/>
    <nd ref="3751088055"/>
    <nd ref="1146756692"/>
    <tag k="addr:city" v="München"/>
    <tag k="addr:country" v="DE"/>
    <tag k="addr:housenumber" v="74"/>
    <tag k="addr:postcode" v="80336"/>
    <tag k="addr:street" v="Schwanthalerstraße"/>
    <tag k="building" v="apartments"/>
    <tag k="building:levels" v="7"/>
  </way>
  <way id="99144037" version="8" timestamp="2022-10-04T18:58:03Z" changeset="127011139" uid="536583" user="Strubbl">
    <nd ref="1146756743"/>
    <nd ref="6987533570"/>
    <nd ref="1146756735"/>
    <nd ref="1146756645"/>
    <nd ref="1146756780"/>
    <nd ref="6987533569"/>
    <nd ref="1146756666"/>
    <nd ref="1146756743"/>
    <tag k="addr:city" v="München"/>
    <tag k="addr:country" v="DE"/>
    <tag k="addr:housenumber" v="76"/>
    <tag k="addr:postcode" v="80336"/>
    <tag k="addr:street" v="Schwanthalerstraße"/>
    <tag k="building" v="yes"/>
    <tag k="building:levels" v="7"/>
  </way>
  <way id="99144042" version="11" timestamp="2022-11-02T20:46:24Z" changeset="128410017" uid="139820" user="m-ride">
    <nd ref="6961546586"/>
    <nd ref="6961548186"/>
    <nd ref="6961546587"/>
    <nd ref="6961547987"/>
    <nd ref="1146756747"/>
    <nd ref="6961548086"/>
    <nd ref="6961547788"/>
    <nd ref="6961547887"/>
    <nd ref="6961547985"/>
    <nd ref="6961547785"/>
    <nd ref="6961548187"/>
    <nd ref="6961547786"/>
    <nd ref="6961547789"/>
    <nd ref="6961546589"/>
    <nd ref="6961547787"/>
    <nd ref="6961547885"/>
    <nd ref="6961548185"/>
    <nd ref="6961546586"/>
    <tag k="addr:housenumber" v="80"/>
    <tag k="addr:street" v="Schwanthalerstraße"/>
    <tag k="building" v="retail"/>
    <tag k="building:levels" v="1"/>
  </way>
  <way id="99144044" version="4" timestamp="2021-06-19T20:29:36Z" changeset="106645726" uid="2040341" user="teasu">
    <nd ref="1635684990"/>
    <nd ref="1146756776"/>
    <nd ref="1146756749"/>
    <nd ref="1146756792"/>
    <nd ref="1146756791"/>
    <nd ref="1635684983"/>
    <nd ref="1635684990"/>
    <tag k="addr:city" v="München"/>
    <tag k="addr:country" v="DE"/>
    <tag k="addr:housenumber" v="70"/>
    <tag k="addr:postcode" v="80336"/>
    <tag k="addr:street" v="Schwanthalerstraße"/>
    <tag k="building" v="apartments"/>
  </way>
  <way id="114563165" version="7" timestamp="2019-12-17T04:19:16Z" changeset="78503301" uid="5359" user="user_5359">
    <nd ref="1297443963"/>
    <nd ref="2469452674"/>
    <nd ref="1297444003"/>
    <nd ref="1297443985"/>
    <nd ref="1297444057"/>
    <nd ref="1297443888"/>
    <nd ref="1297444055"/>
    <nd ref="1297443963"/>
    <tag k="addr:city" v="München"/>
    <tag k="addr:housenumber" v="91"/>
    <tag k="addr:postcode" v="80336"/>
    <tag k="addr:street" v="Schwanthalerstraße"/>
    <tag k="building" v="commercial"/>
    <tag k="building:levels" v="4"/>
    <tag k="roof:levels" v="1"/>
    <tag k="roof:shape" v="hipped"/>
  </way>
  <way id="114563167" version="8" timestamp="2020-10-12T20:59:32Z" changeset="92375851" uid="11758604" user="map per">
    <nd ref="1297443908"/>
    <nd ref="1297443994"/>
    <nd ref="2470442457"/>
    <nd ref="1297444060"/>
    <nd ref="1297443913"/>
    <nd ref="1297444032"/>
    <nd ref="1771791777"/>
    <nd ref="1771791775"/>
    <nd ref="1297444024"/>
    <nd ref="1297443904"/>
    <nd ref="1297443932"/>
    <nd ref="1297443906"/>
    <nd ref="1297443912"/>
    <nd ref="1297443908"/>
    <tag k="addr:housename" v="Kath. Pfarramt St. Paul"/>
    <tag k="addr:housenumber" v="10"/>
    <tag k="addr:postcode" v="80336"/>
    <tag k="addr:street" v="Sankt-Pauls-Platz"/>
    <tag k="building" v="house"/>
    <tag k="building:levels" v="4"/>
    <tag k="name" v="Kath. Pfarramt St. Paul"/>
  </way>
  <way id="114563170" version="10" timestamp="2023-02-09T19:08:13Z" changeset="132323632" uid="519916" user="googlenaut">
    <nd ref="1297443998"/>
    <nd ref="2469452657"/>
    <nd ref="4082319825"/>
    <nd ref="4082319824"/>
    <nd ref="4082319823"/>
    <nd ref="1297443911"/>
    <nd ref="4082319820"/>
    <nd ref="6008516487"/>
    <nd ref="1297443908"/>
    <nd ref="1297443912"/>
    <nd ref="1297444051"/>
    <nd ref="4082319819"/>
    <nd ref="4082319822"/>
    <nd ref="1297443910"/>
    <nd ref="3115173666"/>
    <nd ref="1297443998"/>
    <tag k="addr:city" v="München"/>
    <tag k="addr:country" v="DE"/>
    <tag k="addr:housenumber" v="87"/>
    <tag k="addr:postcode" v="80336"/>
    <tag k="addr:street" v="Schwanthalerstraße"/>
    <tag k="building" v="school"/>
    <tag k="building:levels" v="5"/>
    <tag k="disused:amenity" v="school"/>
    <tag k="disused:name" v="Marie-Luise-Fleißer-Realschule"/>
    <tag k="disused:website" v="http://www.mfrs.musin.de/"/>
    <tag k="note" v="https://www.mfrs-schule.de/unsere-schule/neubau.html"/>
    <tag k="school:de" v="Grundschule"/>
  </way>
  <way id="114564816" version="6" timestamp="2022-09-22T21:48:34Z" changeset="126523000" uid="78613" user="heilbron">
    <nd ref="2260181566"/>
    <nd ref="2260181567"/>
    <nd ref="1297446416"/>
    <nd ref="1297446419"/>
    <nd ref="2260181563"/>
    <nd ref="2260181566"/>
    <tag k="addr:city" v="München"/>
    <tag k="addr:housenumber" v="83"/>
    <tag k="addr:postcode" v="80336"/>
    <tag k="addr:street" v="Schwanthalerstraße"/>
    <tag k="building" v="apartments"/>
    <tag k="roof:orientation" v="across"/>
    <tag k="roof:shape" v="gabled"/>
  </way>
  <way id="115013496" version="18" timestamp="2024-11-03T12:51:11Z" changeset="158697726" uid="20085156" user="map per StreetComplete">
    <nd ref="1098025376"/>
    <nd ref="1301165257"/>
    <nd ref="8199882901"/>
    <nd ref="3498157190"/>
    <nd ref="4951567435"/>
    <nd ref="1301165271"/>
    <tag k="class:bicycle" v="1"/>
    <tag k="cycleway:left" v="no"/>
    <tag k="cycleway:right" v="lane"/>
    <tag k="cycleway:right:lane" v="exclusive"/>
    <tag k="highway" v="secondary"/>
    <tag k="lanes" v="1"/>
    <tag k="lit" v="yes"/>
    <tag k="maxspeed" v="50"/>
    <tag k="name" v="Herzog-Heinrich-Straße"/>
    <tag k="name:etymology:wikidata" v="Q105378"/>
    <tag k="oneway" v="yes"/>
    <tag k="parking:both" v="no"/>
    <tag k="parking:both:restriction" v="no_stopping"/>
    <tag k="sidewalk:both" v="separate"/>
    <tag k="surface" v="asphalt"/>
    <tag k="tmc" v="DE:27997/30131"/>
  </way>
  <way id="115013497" version="13" timestamp="2024-11-03T12:51:12Z" changeset="158697726" uid="20085156" user="map per StreetComplete">
    <nd ref="1301165271"/>
    <nd ref="1301165244"/>
    <tag k="cycleway:both" v="no"/>
    <tag k="highway" v="tertiary"/>
    <tag k="lanes" v="1"/>
    <tag k="lit" v="yes"/>
    <tag k="maxspeed" v="50"/>
    <tag k="name" v="Rückertstraße"/>
    <tag k="oneway" v="yes"/>
    <tag k="sidewalk:both" v="separate"/>
    <tag k="surface" v="asphalt"/>
  </way>
  <way id="115013500" version="14" timestamp="2024-11-03T12:51:12Z" changeset="158697726" uid="20085156" user="map per StreetComplete">
    <nd ref="1301165244"/>
    <nd ref="1955329"/>
    <tag k="cycleway:both" v="no"/>
    <tag k="highway" v="tertiary"/>
    <tag k="lanes" v="1"/>
    <tag k="lit" v="yes"/>
    <tag k="maxspeed" v="50"/>
    <tag k="name" v="Rückertstraße"/>
    <tag k="oneway" v="yes"/>
    <tag k="sidewalk:both" v="separate"/>
    <tag k="surface" v="asphalt"/>
  </way>
  <way id="115108892" version="7" timestamp="2024-11-22T11:41:56Z" changeset="159455166" uid="11758604" user="map per">
    <nd ref="1301970699"/>
    <nd ref="1301970623"/>
    <nd ref="1301970614"/>
    <nd ref="1301970684"/>
    <nd ref="1301970681"/>
    <nd ref="3656472923"/>
    <nd ref="3656472921"/>
    <nd ref="1301970677"/>
    <nd ref="1301970699"/>
    <tag k="addr:housenumber" v="97"/>
    <tag k="addr:street" v="Schwanthalerstraße"/>
    <tag k="building" v="apartments"/>
    <tag k="building:levels" v="7"/>
  </way>
  <way id="115108894" version="4" timestamp="2023-09-04T15:23:36Z" changeset="140811265" uid="3117751" user="Verzweifler">
    <nd ref="1301970589"/>
    <nd ref="1301970649"/>
    <nd ref="1301970651"/>
    <nd ref="3125486968"/>
    <nd ref="3125486969"/>
    <nd ref="3125486967"/>
    <nd ref="3125486966"/>
    <nd ref="3125486965"/>
    <nd ref="1301970650"/>
    <nd ref="1301970591"/>
    <nd ref="1301970605"/>
    <nd ref="1301970708"/>
    <nd ref="1301970666"/>
    <nd ref="1301970589"/>
    <tag k="amenity" v="community_centre"/>
    <tag k="building" v="yes"/>
    <tag k="name" v="Pfarrheim St. Paul"/>
    <tag k="opening_hours" v="Mo-Sa 08:00-22:00"/>
    <tag k="operator" v="Römisch-katholische Kirche"/>
  </way>
  <way id="115113737" version="5" timestamp="2022-09-20T22:21:33Z" changeset="126441073" uid="78613" user="heilbron">
    <nd ref="1302012882"/>
    <nd ref="1302012926"/>
    <nd ref="1302013070"/>
    <nd ref="1635684985"/>
    <nd ref="1302013081"/>
    <nd ref="1302012882"/>
    <tag k="addr:city" v="München"/>
    <tag k="addr:country" v="DE"/>
    <tag k="addr:housenumber" v="68"/>
    <tag k="addr:postcode" v="80336"/>
    <tag k="addr:street" v="Schwanthalerstraße"/>
    <tag k="building" v="apartments"/>
    <tag k="roof:shape" v="mansard"/>
    <tag k="wikidata" v="Q41180093"/>
  </way>
  <way id="115113739" version="5" timestamp="2018-11-21T18:10:43Z" changeset="64751036" uid="2040341" user="teasu">
    <nd ref="1302012887"/>
    <nd ref="3679340330"/>
    <nd ref="6080430582"/>
    <nd ref="1302013072"/>
    <nd ref="1302013059"/>
    <nd ref="1302012881"/>
    <nd ref="1302012887"/>
    <tag k="addr:city" v="München"/>
    <tag k="addr:housenumber" v="86"/>
    <tag k="addr:postcode" v="80336"/>
    <tag k="addr:street" v="Schwanthalerstraße"/>
    <tag k="building" v="yes"/>
    <tag k="building:levels" v="7"/>
  </way>
  <way id="115626053" version="5" timestamp="2022-11-23T18:59:47Z" changeset="129294256" uid="13496000" user="geo-d">
    <nd ref="1305817353"/>
    <nd ref="1305817256"/>
    <nd ref="1305817293"/>
    <nd ref="1305817239"/>
    <nd ref="1305817353"/>
    <tag k="addr:city" v="München"/>
    <tag k="addr:country" v="DE"/>
    <tag k="addr:housenumber" v="12"/>
    <tag k="addr:postcode" v="80336"/>
    <tag k="addr:street" v="Hermann-Lingg-Straße"/>
    <tag k="amenity" v="nursing_home"/>
    <tag k="building" v="yes"/>
    <tag k="email" v="hermannlinggstr@sozialedienste.net"/>
    <tag k="fax" v="+49 89 1434761719"/>
    <tag k="name" v="Tagesstätte &quot;Werkstattcafé&quot;"/>
    <tag k="note" v="gehört zu Nr.12"/>
    <tag k="operator" v="Soziale Dienste Psychiatrie gemeinnützige GmbH"/>
    <tag k="phone" v="+49 89 14347615"/>
    <tag k="website" v="https://sozialedienste.net/betreuung-ohne-wohnen"/>
  </way>
  <way id="115626055" version="6" timestamp="2020-11-29T17:58:04Z" changeset="94993985" uid="2040341" user="teasu">
    <nd ref="1305817264"/>
    <nd ref="1305817312"/>
    <nd ref="1305817356"/>
    <nd ref="1305817275"/>
    <nd ref="1305817264"/>
    <tag k="addr:city" v="München"/>
    <tag k="addr:country" v="DE"/>
    <tag k="addr:housenumber" v="10"/>
    <tag k="addr:postcode" v="80336"/>
    <tag k="addr:street" v="Hermann-Lingg-Straße"/>
    <tag k="building" v="apartments"/>
    <tag k="building:levels" v="4"/>
    <tag k="roof:levels" v="0"/>
  </way>
  <way id="117724483" version="6" timestamp="2025-05-16T21:38:43Z" changeset="166370226" uid="2554996" user="Nanoilite">
    <nd ref="1098139423"/>
    <nd ref="12843090908"/>
    <nd ref="12843090909"/>
    <nd ref="12843090910"/>
    <nd ref="1325687047"/>
    <nd ref="12843090912"/>
    <nd ref="12843090911"/>
    <nd ref="2450548914"/>
    <nd ref="1325687044"/>
    <nd ref="12843090913"/>
    <nd ref="12843090915"/>
    <nd ref="12843090916"/>
    <nd ref="12843090914"/>
    <nd ref="1098139443"/>
    <nd ref="1098139423"/>
    <tag k="addr:city" v="München"/>
    <tag k="addr:country" v="DE"/>
    <tag k="addr:housenumber" v="9"/>
    <tag k="addr:postcode" v="80336"/>
    <tag k="addr:street" v="Rückertstraße"/>
    <tag k="building" v="yes"/>
  </way>
  <way id="124559493" version="11" timestamp="2024-07-06T11:55:37Z" changeset="153620787" uid="18493611" user="MunichWays">
    <nd ref="1386432419"/>
    <nd ref="3221291121"/>
    <tag k="bicycle" v="yes"/>
    <tag k="class:bicycle" v="-1"/>
    <tag k="cycleway:both" v="no"/>
    <tag k="foot" v="yes"/>
    <tag k="highway" v="tertiary"/>
    <tag k="lanes" v="2"/>
    <tag k="lit" v="yes"/>
    <tag k="maxheight" v="3.3"/>
    <tag k="maxspeed" v="50"/>
    <tag k="name" v="Hackerbrücke"/>
    <tag k="segregated" v="yes"/>
    <tag k="shoulder" v="no"/>
    <tag k="sidewalk:both" v="separate"/>
    <tag k="smoothness" v="good"/>
    <tag k="source:maxspeed" v="DE:urban"/>
    <tag k="surface" v="asphalt"/>
    <tag k="tmc" v="DE:61452/61453"/>
  </way>
  <way id="138754981" version="6" timestamp="2022-06-27T04:41:15Z" changeset="122887805" uid="78613" user="heilbron">
    <nd ref="1521543200"/>
    <nd ref="1521543197"/>
    <nd ref="2471598940"/>
    <nd ref="7476878295"/>
    <nd ref="1302012894"/>
    <nd ref="1302013006"/>
    <nd ref="1521543186"/>
    <nd ref="1521543187"/>
    <nd ref="1521543188"/>
    <nd ref="7476878294"/>
    <nd ref="1521543189"/>
    <nd ref="1521543193"/>
    <nd ref="1521543201"/>
    <nd ref="1521543200"/>
    <tag k="building" v="apartments"/>
    <tag k="building:levels" v="5"/>
    <tag k="name" v="Münchner Pressehaus"/>
  </way>
  <way id="139788273" version="10" timestamp="2025-04-19T13:23:01Z" changeset="165153748" uid="29096" user="buergi">
    <nd ref="324697324"/>
    <nd ref="5110996118"/>
    <nd ref="7320336423"/>
    <nd ref="8018721672"/>
    <nd ref="255417911"/>
    <nd ref="5071771"/>
    <tag k="bicycle" v="designated"/>
    <tag k="bicycle_road" v="yes"/>
    <tag k="bus:backward" v="no"/>
    <tag k="bus:forward" v="yes"/>
    <tag k="class:bicycle" v="-1"/>
    <tag k="highway" v="residential"/>
    <tag k="lit" v="no"/>
    <tag k="maxspeed" v="30"/>
    <tag k="motor_vehicle:backward" v="destination"/>
    <tag k="motor_vehicle:forward" v="yes"/>
    <tag k="name" v="Stielerstraße"/>
    <tag k="oneway" v="no"/>
    <tag k="sidewalk" v="both"/>
    <tag k="smoothness" v="good"/>
    <tag k="source:width" v="ARCore"/>
    <tag k="surface" v="asphalt"/>
    <tag k="width" v="8"/>
  </way>
  <way id="140321547" version="14" timestamp="2025-04-29T16:11:07Z" changeset="165599594" uid="38546" user="wikimax">
    <nd ref="1134202987"/>
    <nd ref="12798177444"/>
    <nd ref="2964955582"/>
    <nd ref="2964955583"/>
    <nd ref="4784622492"/>
    <nd ref="1153076902"/>
    <nd ref="2964955584"/>
    <nd ref="1955343"/>
    <nd ref="12798177445"/>
    <nd ref="1955407"/>
    <tag k="class:bicycle" v="-1"/>
    <tag k="cycleway:left" v="no"/>
    <tag k="cycleway:right" v="lane"/>
    <tag k="cycleway:right:lane" v="exclusive"/>
    <tag k="highway" v="tertiary"/>
    <tag k="lanes" v="2"/>
    <tag k="lit" v="yes"/>
    <tag k="maxspeed" v="50"/>
    <tag k="name" v="Bavariaring"/>
    <tag k="name:etymology:wikidata" v="Q707669"/>
    <tag k="oneway" v="yes"/>
    <tag k="sidewalk:both" v="separate"/>
    <tag k="smoothness" v="good"/>
    <tag k="surface" v="asphalt"/>
  </way>
  <way id="140321548" version="12" timestamp="2025-04-29T16:11:07Z" changeset="165599594" uid="38546" user="wikimax">
    <nd ref="2964955572"/>
    <nd ref="12798177454"/>
    <nd ref="12798177453"/>
    <nd ref="12798177455"/>
    <nd ref="1537519384"/>
    <nd ref="12798177441"/>
    <nd ref="1537519385"/>
    <nd ref="2964955579"/>
    <nd ref="1537519386"/>
    <nd ref="2964955580"/>
    <nd ref="2964955581"/>
    <nd ref="12798177438"/>
    <nd ref="1134202987"/>
    <tag k="bicycle" v="use_sidepath"/>
    <tag k="cycleway:both" v="separate"/>
    <tag k="highway" v="tertiary"/>
    <tag k="lanes" v="2"/>
    <tag k="lit" v="yes"/>
    <tag k="maxspeed" v="50"/>
    <tag k="name" v="Bavariaring"/>
    <tag k="name:etymology:wikidata" v="Q707669"/>
    <tag k="oneway" v="yes"/>
    <tag k="sidewalk:left" v="no"/>
    <tag k="sidewalk:right" v="separate"/>
    <tag k="smoothness" v="good"/>
    <tag k="surface" v="asphalt"/>
  </way>
  <way id="140321550" version="11" timestamp="2025-04-29T16:11:07Z" changeset="165599594" uid="38546" user="wikimax">
    <nd ref="315271030"/>
    <nd ref="12798177443"/>
    <nd ref="12798177442"/>
    <nd ref="1537519400"/>
    <nd ref="1955407"/>
    <tag k="cycleway:left" v="separate"/>
    <tag k="cycleway:right" v="no"/>
    <tag k="highway" v="tertiary"/>
    <tag k="lanes" v="2"/>
    <tag k="lit" v="yes"/>
    <tag k="maxspeed" v="50"/>
    <tag k="noname" v="yes"/>
    <tag k="oneway" v="yes"/>
    <tag k="sidewalk:both" v="separate"/>
    <tag k="smoothness" v="good"/>
    <tag k="surface" v="asphalt"/>
  </way>
  <way id="140321552" version="11" timestamp="2025-04-29T16:11:07Z" changeset="165599594" uid="38546" user="wikimax">
    <nd ref="1955407"/>
    <nd ref="12798177439"/>
    <nd ref="1537519390"/>
    <nd ref="12798177440"/>
    <nd ref="1537519385"/>
    <tag k="cycleway:left" v="separate"/>
    <tag k="cycleway:right" v="no"/>
    <tag k="highway" v="tertiary"/>
    <tag k="lanes" v="2"/>
    <tag k="lit" v="yes"/>
    <tag k="maxspeed" v="50"/>
    <tag k="noname" v="yes"/>
    <tag k="oneway" v="yes"/>
    <tag k="sidewalk:both" v="separate"/>
    <tag k="smoothness" v="good"/>
    <tag k="surface" v="asphalt"/>
  </way>
  <way id="142115348" version="11" timestamp="2024-07-25T16:30:59Z" changeset="154402786" uid="11758604" user="map per">
    <nd ref="1955328"/>
    <nd ref="1651048176"/>
    <nd ref="21531317"/>
    <nd ref="7116461746"/>
    <nd ref="1955327"/>
    <tag k="class:bicycle" v="1"/>
    <tag k="cycleway:both" v="no"/>
    <tag k="highway" v="residential"/>
    <tag k="lanes" v="2"/>
    <tag k="lit" v="yes"/>
    <tag k="maxspeed" v="30"/>
    <tag k="name" v="Bavariaring"/>
    <tag k="name:etymology:wikidata" v="Q707669"/>
    <tag k="sidewalk" v="no"/>
    <tag k="smoothness" v="good"/>
    <tag k="surface" v="asphalt"/>
  </way>
  <way id="142143440" version="16" timestamp="2024-11-22T12:16:34Z" changeset="159456377" uid="11758604" user="map per">
    <nd ref="1955330"/>
    <nd ref="8199882876"/>
    <nd ref="1319848557"/>
    <nd ref="8091258274"/>
    <nd ref="27470267"/>
    <tag k="class:bicycle" v="1"/>
    <tag k="cycleway:both" v="no"/>
    <tag k="highway" v="residential"/>
    <tag k="lit" v="no"/>
    <tag k="maxspeed" v="30"/>
    <tag k="name" v="Mozartstraße"/>
    <tag k="name:etymology:wikidata" v="Q254"/>
    <tag k="oneway" v="yes"/>
    <tag k="oneway:bicycle" v="no"/>
    <tag k="parking:both" v="lane"/>
    <tag k="parking:both:orientation" v="parallel"/>
    <tag k="sidewalk:both" v="separate"/>
    <tag k="smoothness" v="good"/>
    <tag k="source:maxspeed" v="DE:zone30"/>
    <tag k="surface" v="asphalt"/>
  </way>
  <way id="148858907" version="10" timestamp="2024-07-06T07:55:02Z" changeset="153612959" uid="78613" user="heilbron">
    <nd ref="1218363709"/>
    <nd ref="315269429"/>
    <nd ref="325847355"/>
    <nd ref="1406779199"/>
    <nd ref="1955289"/>
    <nd ref="1406779198"/>
    <nd ref="486478133"/>
    <nd ref="486478135"/>
    <tag k="class:bicycle" v="-1"/>
    <tag k="cycleway:both" v="no"/>
    <tag k="highway" v="residential"/>
    <tag k="lanes" v="2"/>
    <tag k="lit" v="yes"/>
    <tag k="maxspeed" v="50"/>
    <tag k="name" v="Bavariastraße"/>
    <tag k="name:etymology:wikidata" v="Q707669"/>
    <tag k="sidewalk" v="both"/>
    <tag k="sidewalk:both:surface" v="paving_stones"/>
    <tag k="surface" v="asphalt"/>
  </way>
  <way id="150092262" version="24" timestamp="2025-03-22T20:41:43Z" changeset="163963753" uid="44217" user="kjon">
    <nd ref="1633101769"/>
    <nd ref="21279697"/>
    <tag k="bicycle" v="use_sidepath"/>
    <tag k="check_date" v="2022-03-16"/>
    <tag k="highway" v="secondary"/>
    <tag k="lanes" v="2"/>
    <tag k="layer" v="-1"/>
    <tag k="level" v="-1"/>
    <tag k="lit" v="24/7"/>
    <tag k="maxheight" v="3.5"/>
    <tag k="maxspeed" v="50"/>
    <tag k="name" v="Paul-Heyse-Unterführung"/>
    <tag k="name:etymology:wikidata" v="Q76487"/>
    <tag k="oneway" v="yes"/>
    <tag k="parking:both" v="no"/>
    <tag k="shoulder" v="no"/>
    <tag k="sidewalk:left" v="no"/>
    <tag k="sidewalk:right" v="separate"/>
    <tag k="smoothness" v="excellent"/>
    <tag k="surface" v="asphalt"/>
    <tag k="tmc" v="DE:35368"/>
    <tag k="tunnel" v="yes"/>
  </way>
  <way id="150393011" version="13" timestamp="2025-04-29T13:10:07Z" changeset="165592014" uid="38546" user="wikimax">
    <nd ref="20981713"/>
    <nd ref="3805414340"/>
    <nd ref="1633101769"/>
    <tag k="bicycle" v="use_sidepath"/>
    <tag k="highway" v="secondary"/>
    <tag k="lanes" v="2"/>
    <tag k="lit" v="yes"/>
    <tag k="maxspeed" v="50"/>
    <tag k="name" v="Paul-Heyse-Unterführung"/>
    <tag k="name:etymology:wikidata" v="Q76487"/>
    <tag k="oneway" v="yes"/>
    <tag k="sidewalk:left" v="no"/>
    <tag k="sidewalk:right" v="separate"/>
    <tag k="smoothness" v="intermediate"/>
    <tag k="surface" v="asphalt"/>
    <tag k="tmc" v="DE:35368/35369"/>
  </way>
  <way id="150393013" version="13" timestamp="2024-01-09T12:47:41Z" changeset="146065544" uid="16625708" user="JohannesTf">
    <nd ref="21279697"/>
    <nd ref="1670444827"/>
    <nd ref="1670444823"/>
    <tag k="bicycle" v="use_sidepath"/>
    <tag k="highway" v="secondary"/>
    <tag k="lanes" v="2"/>
    <tag k="lit" v="yes"/>
    <tag k="maxspeed" v="50"/>
    <tag k="name" v="Paul-Heyse-Unterführung"/>
    <tag k="name:etymology:wikidata" v="Q76487"/>
    <tag k="oneway" v="yes"/>
    <tag k="sidewalk:left" v="no"/>
    <tag k="sidewalk:right" v="separate"/>
    <tag k="smoothness" v="excellent"/>
    <tag k="surface" v="asphalt"/>
    <tag k="tmc" v="DE:27998/35368"/>
  </way>
  <way id="150680676" version="5" timestamp="2021-06-19T20:29:36Z" changeset="106645726" uid="2040341" user="teasu">
    <nd ref="1635684983"/>
    <nd ref="1146756692"/>
    <nd ref="3751088055"/>
    <nd ref="1146756636"/>
    <nd ref="1146756783"/>
    <nd ref="1146756678"/>
    <nd ref="1146756724"/>
    <nd ref="1635684990"/>
    <nd ref="1635684983"/>
    <tag k="addr:city" v="München"/>
    <tag k="addr:country" v="DE"/>
    <tag k="addr:housenumber" v="72"/>
    <tag k="addr:postcode" v="80336"/>
    <tag k="addr:street" v="Schwanthalerstraße"/>
    <tag k="building" v="apartments"/>
  </way>
  <way id="151278278" version="16" timestamp="2024-07-25T16:30:59Z" changeset="154402786" uid="11758604" user="map per">
    <nd ref="1955291"/>
    <nd ref="3691451327"/>
    <nd ref="1640974073"/>
    <nd ref="2964709773"/>
    <tag k="bicycle" v="use_sidepath"/>
    <tag k="cycleway:both" v="separate"/>
    <tag k="highway" v="secondary"/>
    <tag k="lanes" v="3"/>
    <tag k="lanes:backward" v="1"/>
    <tag k="lanes:forward" v="2"/>
    <tag k="lit" v="yes"/>
    <tag k="maxspeed" v="50"/>
    <tag k="name" v="Poccistraße"/>
    <tag k="name:etymology:wikidata" v="Q94757738"/>
    <tag k="psv" v="yes"/>
    <tag k="sidewalk" v="separate"/>
    <tag k="surface" v="asphalt"/>
    <tag k="tmc" v="DE:35441/35442"/>
  </way>
  <way id="154361180" version="18" timestamp="2023-10-23T16:39:59Z" changeset="143026225" uid="6285042" user="Biclmont">
    <nd ref="1955330"/>
    <nd ref="3108216888"/>
    <nd ref="3498157183"/>
    <nd ref="5327842376"/>
    <tag k="cycleway:both" v="lane"/>
    <tag k="cycleway:both:lane" v="exclusive"/>
    <tag k="highway" v="secondary"/>
    <tag k="lanes" v="2"/>
    <tag k="lit" v="yes"/>
    <tag k="maxspeed:backward" v="50"/>
    <tag k="maxspeed:forward" v="30"/>
    <tag k="maxspeed:forward:conditional" v="50 @ (Mo-Fr 18:00-07:00; Sa, Su, PH)"/>
    <tag k="name" v="Herzog-Heinrich-Straße"/>
    <tag k="name:etymology:wikidata" v="Q105378"/>
    <tag k="parking:both" v="no"/>
    <tag k="parking:both:restriction" v="no_stopping"/>
    <tag k="sidewalk:both" v="separate"/>
    <tag k="sidewalk:both:surface" v="paving_stones"/>
    <tag k="smoothness" v="excellent"/>
    <tag k="surface" v="asphalt"/>
    <tag k="tmc" v="DE:27997/30131"/>
  </way>
  <way id="155229192" version="12" timestamp="2025-04-29T16:11:07Z" changeset="165599594" uid="38546" user="wikimax">
    <nd ref="19107558"/>
    <nd ref="1147977157"/>
    <nd ref="1146916903"/>
    <nd ref="19107557"/>
    <tag k="cycleway:both" v="no"/>
    <tag k="highway" v="residential"/>
    <tag k="maxspeed" v="30"/>
    <tag k="name" v="Sankt-Paul-Straße"/>
    <tag k="oneway" v="yes"/>
    <tag k="oneway:bicycle" v="no"/>
    <tag k="parking:both" v="yes"/>
    <tag k="parking:left:orientation" v="diagonal"/>
    <tag k="parking:right:orientation" v="parallel"/>
    <tag k="sidewalk" v="both"/>
    <tag k="sidewalk:both:surface" v="paving_stones"/>
    <tag k="source:maxspeed" v="DE:zone30"/>
    <tag k="surface" v="asphalt"/>
  </way>
  <way id="157798419" version="11" timestamp="2023-10-22T11:45:31Z" changeset="142964085" uid="11758604" user="map per">
    <nd ref="11252506900"/>
    <nd ref="11252506901"/>
    <nd ref="3690186223"/>
    <nd ref="1091830710"/>
    <tag k="bicycle" v="use_sidepath"/>
    <tag k="foot" v="use_sidepath"/>
    <tag k="highway" v="secondary"/>
    <tag k="lanes" v="6"/>
    <tag k="lanes:backward" v="3"/>
    <tag k="lit" v="yes"/>
    <tag k="maxspeed" v="50"/>
    <tag k="name" v="Lindwurmstraße"/>
    <tag k="old_ref" v="B 2;B 11"/>
    <tag k="sidewalk" v="separate"/>
    <tag k="surface" v="asphalt"/>
    <tag k="tmc" v="DE:35410/28009"/>
    <tag k="turn:lanes:backward" v="left|through|through|right"/>
  </way>
  <way id="158803935" version="9" timestamp="2024-07-06T07:55:02Z" changeset="153612959" uid="78613" user="heilbron">
    <nd ref="1955288"/>
    <nd ref="6577975"/>
    <tag k="bicycle" v="yes"/>
    <tag k="class:bicycle" v="-1"/>
    <tag k="cycleway:both" v="no"/>
    <tag k="highway" v="residential"/>
    <tag k="lanes" v="2"/>
    <tag k="lit" v="yes"/>
    <tag k="maxheight" v="3.7"/>
    <tag k="maxspeed" v="30"/>
    <tag k="name" v="Bavariastraße"/>
    <tag k="name:etymology:wikidata" v="Q707669"/>
    <tag k="sidewalk" v="both"/>
    <tag k="sidewalk:both:surface" v="paving_stones"/>
    <tag k="surface" v="asphalt"/>
  </way>
  <way id="160489258" version="7" timestamp="2023-04-22T08:53:56Z" changeset="135220113" uid="1849074" user="vmicho">
    <nd ref="814227811"/>
    <nd ref="1020955833"/>
    <nd ref="1020955832"/>
    <nd ref="309889867"/>
    <nd ref="737219028"/>
    <nd ref="745764066"/>
    <tag k="cycleway:both" v="no"/>
    <tag k="highway" v="residential"/>
    <tag k="lane_markings" v="no"/>
    <tag k="lit" v="yes"/>
    <tag k="maxspeed" v="50"/>
    <tag k="name" v="Zirkus-Krone-Straße"/>
    <tag k="oneway" v="yes"/>
    <tag k="sidewalk" v="both"/>
    <tag k="surface" v="asphalt"/>
  </way>
  <way id="172593385" version="8" timestamp="2023-04-27T09:53:25Z" changeset="135419804" uid="11758604" user="map per">
    <nd ref="29030274"/>
    <nd ref="1834824232"/>
    <nd ref="2449879843"/>
    <tag k="highway" v="residential"/>
    <tag k="lit" v="yes"/>
    <tag k="maxspeed" v="30"/>
    <tag k="name" v="Grimmstraße"/>
    <tag k="parking:both" v="on_street"/>
    <tag k="parking:both:orientation" v="parallel"/>
    <tag k="sidewalk" v="both"/>
    <tag k="source:maxspeed" v="DE:zone30"/>
    <tag k="surface" v="asphalt"/>
  </way>
  <way id="180321496" version="5" timestamp="2024-03-31T19:55:49Z" changeset="149406292" uid="33223" user="k127">
    <nd ref="11776233699"/>
    <nd ref="1907527857"/>
    <nd ref="2464392501"/>
    <nd ref="1907527856"/>
    <nd ref="11776233706"/>
    <nd ref="11776233705"/>
    <nd ref="11776233701"/>
    <nd ref="11776233700"/>
    <nd ref="11776233698"/>
    <nd ref="11776233699"/>
    <tag k="addr:city" v="München"/>
    <tag k="addr:country" v="DE"/>
    <tag k="addr:housenumber" v="4"/>
    <tag k="addr:postcode" v="80335"/>
    <tag k="addr:street" v="Zollstraße"/>
    <tag k="building" v="apartments"/>
    <tag k="building:levels" v="5"/>
  </way>
  <way id="183873316" version="6" timestamp="2025-05-01T13:45:02Z" changeset="165677117" uid="38546" user="wikimax">
    <nd ref="1942881203"/>
    <nd ref="1942881129"/>
    <nd ref="3703572869"/>
    <nd ref="4685788786"/>
    <nd ref="4685788766"/>
    <nd ref="1948198681"/>
    <nd ref="2858870440"/>
    <nd ref="4685788758"/>
    <nd ref="4685788771"/>
    <nd ref="1948198685"/>
    <nd ref="1948198686"/>
    <nd ref="12802283050"/>
    <nd ref="1948198683"/>
    <nd ref="1942881203"/>
    <tag k="addr:city" v="München"/>
    <tag k="addr:country" v="DE"/>
    <tag k="addr:housenumber" v="14"/>
    <tag k="addr:postcode" v="80335"/>
    <tag k="addr:street" v="Bayerstraße"/>
    <tag k="amenity" v="police"/>
    <tag k="building" v="yes"/>
    <tag k="fax" v="+49 89 545829 28"/>
    <tag k="name" v="Polizeiinspektion München 16 (Hauptbahnhof)"/>
    <tag k="phone" v="+49 89 545829 0"/>
    <tag k="roof:shape" v="hipped"/>
    <tag k="website" v="https://www.polizei.bayern.de/wir-ueber-uns/organisation/dienststellen/0900811060000.html"/>
  </way>
  <way id="183873324" version="8" timestamp="2024-09-27T07:57:33Z" changeset="157158592" uid="136861" user="loffa">
    <nd ref="1942881117"/>
    <nd ref="3681346756"/>
    <nd ref="3681346759"/>
    <nd ref="2464392494"/>
    <nd ref="1146756751"/>
    <nd ref="1146756777"/>
    <nd ref="1942881127"/>
    <nd ref="1942881117"/>
    <tag k="building" v="yes"/>
    <tag k="check_date" v="2024-09-27"/>
    <tag k="internet_access" v="wlan"/>
    <tag k="name" v="Bayernland"/>
    <tag k="toilets:wheelchair" v="no"/>
    <tag k="tourism" v="hotel"/>
    <tag k="wheelchair" v="yes"/>
  </way>
  <way id="216626422" version="6" timestamp="2023-11-23T12:37:30Z" changeset="144364497" uid="16517917" user="nahatri">
    <nd ref="2469452677"/>
    <nd ref="2260181564"/>
    <nd ref="2260181561"/>
    <nd ref="2469452672"/>
    <nd ref="2469452677"/>
    <tag k="addr:city" v="München"/>
    <tag k="addr:housenumber" v="77"/>
    <tag k="addr:postcode" v="80336"/>
    <tag k="addr:street" v="Schwanthalerstraße"/>
    <tag k="building" v="apartments"/>
    <tag k="roof:orientation" v="across"/>
    <tag k="roof:shape" v="gabled"/>
    <tag k="wikidata" v="Q41180096"/>
  </way>
  <way id="216626423" version="5" timestamp="2022-09-22T21:48:34Z" changeset="126523000" uid="78613" user="heilbron">
    <nd ref="2260181564"/>
    <nd ref="2260181565"/>
    <nd ref="2260181562"/>
    <nd ref="2260181561"/>
    <nd ref="2260181564"/>
    <tag k="addr:city" v="München"/>
    <tag k="addr:housenumber" v="79"/>
    <tag k="addr:postcode" v="80336"/>
    <tag k="addr:street" v="Schwanthalerstraße"/>
    <tag k="building" v="apartments"/>
    <tag k="roof:orientation" v="across"/>
    <tag k="roof:shape" v="gabled"/>
  </way>
  <way id="216626424" version="6" timestamp="2023-11-23T12:37:28Z" changeset="144364497" uid="16517917" user="nahatri">
    <nd ref="2260181565"/>
    <nd ref="2260181566"/>
    <nd ref="2260181563"/>
    <nd ref="4082479998"/>
    <nd ref="2260181562"/>
    <nd ref="2260181565"/>
    <tag k="addr:city" v="München"/>
    <tag k="addr:country" v="DE"/>
    <tag k="addr:housenumber" v="81"/>
    <tag k="addr:postcode" v="80336"/>
    <tag k="addr:street" v="Schwanthalerstraße"/>
    <tag k="building" v="apartments"/>
    <tag k="roof:orientation" v="across"/>
    <tag k="roof:shape" v="gabled"/>
  </way>
  <way id="223668628" version="10" timestamp="2024-04-26T14:12:07Z" changeset="150540499" uid="29096" user="buergi">
    <nd ref="1404711821"/>
    <nd ref="1955411"/>
    <tag k="class:bicycle" v="-1"/>
    <tag k="cycleway:both" v="lane"/>
    <tag k="cycleway:both:lane" v="exclusive"/>
    <tag k="highway" v="tertiary"/>
    <tag k="lanes" v="3"/>
    <tag k="lanes:backward" v="2"/>
    <tag k="lanes:forward" v="1"/>
    <tag k="lit" v="yes"/>
    <tag k="maxspeed" v="50"/>
    <tag k="name" v="Bavariaring"/>
    <tag k="name:etymology:wikidata" v="Q707669"/>
    <tag k="sidewalk" v="separate"/>
    <tag k="smoothness" v="excellent"/>
    <tag k="surface" v="asphalt"/>
  </way>
  <way id="223668629" version="7" timestamp="2023-03-19T12:32:33Z" changeset="133856029" uid="18493611" user="MunichWays">
    <nd ref="1955411"/>
    <nd ref="20461266"/>
    <tag k="class:bicycle" v="-1"/>
    <tag k="cycleway:both" v="lane"/>
    <tag k="cycleway:both:lane" v="exclusive"/>
    <tag k="highway" v="tertiary"/>
    <tag k="lanes" v="3"/>
    <tag k="lanes:backward" v="2"/>
    <tag k="lanes:forward" v="1"/>
    <tag k="maxspeed" v="50"/>
    <tag k="name" v="Bavariaring"/>
    <tag k="name:etymology:wikidata" v="Q707669"/>
    <tag k="surface" v="asphalt"/>
  </way>
  <way id="223668630" version="10" timestamp="2023-03-19T12:32:33Z" changeset="133856029" uid="18493611" user="MunichWays">
    <nd ref="20461266"/>
    <nd ref="1404711847"/>
    <nd ref="1955413"/>
    <tag k="class:bicycle" v="-1"/>
    <tag k="cycleway:both" v="lane"/>
    <tag k="cycleway:both:lane" v="exclusive"/>
    <tag k="highway" v="tertiary"/>
    <tag k="lanes" v="3"/>
    <tag k="lanes:backward" v="2"/>
    <tag k="lanes:forward" v="1"/>
    <tag k="lit" v="yes"/>
    <tag k="maxspeed" v="50"/>
    <tag k="name" v="Bavariaring"/>
    <tag k="name:etymology:wikidata" v="Q707669"/>
    <tag k="sidewalk" v="separate"/>
    <tag k="surface" v="asphalt"/>
  </way>
  <way id="223668631" version="12" timestamp="2024-04-26T14:12:26Z" changeset="150540499" uid="29096" user="buergi">
    <nd ref="1955413"/>
    <nd ref="324550786"/>
    <nd ref="7989958838"/>
    <nd ref="1955345"/>
    <tag k="class:bicycle" v="-1"/>
    <tag k="cycleway:both" v="lane"/>
    <tag k="cycleway:both:lane" v="exclusive"/>
    <tag k="highway" v="tertiary"/>
    <tag k="lanes" v="3"/>
    <tag k="lanes:backward" v="2"/>
    <tag k="lanes:forward" v="1"/>
    <tag k="lit" v="yes"/>
    <tag k="maxspeed" v="50"/>
    <tag k="name" v="Bavariaring"/>
    <tag k="name:etymology:wikidata" v="Q707669"/>
    <tag k="sidewalk" v="separate"/>
    <tag k="smoothness" v="excellent"/>
    <tag k="surface" v="asphalt"/>
  </way>
  <way id="223668632" version="12" timestamp="2023-10-21T16:46:36Z" changeset="142932422" uid="4674266" user="Florent Ch">
    <nd ref="324699243"/>
    <nd ref="2326139397"/>
    <nd ref="1404711845"/>
    <nd ref="7655255703"/>
    <nd ref="19099996"/>
    <nd ref="1143639919"/>
    <nd ref="1143639922"/>
    <nd ref="7655255714"/>
    <nd ref="3498172706"/>
    <nd ref="1098382073"/>
    <nd ref="8174120287"/>
    <nd ref="19099998"/>
    <tag k="bicycle" v="yes"/>
    <tag k="class:bicycle" v="1"/>
    <tag k="cycleway" v="no"/>
    <tag k="highway" v="residential"/>
    <tag k="lanes" v="2"/>
    <tag k="lit" v="yes"/>
    <tag k="maxspeed" v="50"/>
    <tag k="name" v="Pettenkoferstraße"/>
    <tag k="name:etymology:wikidata" v="Q44993"/>
    <tag k="sidewalk" v="both"/>
    <tag k="smoothness" v="good"/>
    <tag k="source:maxspeed" v="DE:urban"/>
    <tag k="surface" v="asphalt"/>
  </way>
  <way id="223971541" version="11" timestamp="2024-04-26T14:12:03Z" changeset="150540499" uid="29096" user="buergi">
    <nd ref="27790749"/>
    <nd ref="21531320"/>
    <tag k="class:bicycle" v="-1"/>
    <tag k="cycleway:both" v="lane"/>
    <tag k="cycleway:both:lane" v="exclusive"/>
    <tag k="highway" v="tertiary"/>
    <tag k="lanes" v="3"/>
    <tag k="lanes:backward" v="2"/>
    <tag k="lanes:forward" v="1"/>
    <tag k="lit" v="yes"/>
    <tag k="maxspeed" v="50"/>
    <tag k="name" v="Bavariaring"/>
    <tag k="name:etymology:wikidata" v="Q707669"/>
    <tag k="sidewalk" v="no"/>
    <tag k="smoothness" v="excellent"/>
    <tag k="surface" v="asphalt"/>
  </way>
  <way id="226979011" version="11" timestamp="2024-11-03T12:54:58Z" changeset="158697726" uid="20085156" user="map per StreetComplete">
    <nd ref="21324003"/>
    <nd ref="353290783"/>
    <nd ref="353290800"/>
    <nd ref="20981713"/>
    <tag k="bicycle" v="yes"/>
    <tag k="class:bicycle" v="-2"/>
    <tag k="cycleway:left" v="no"/>
    <tag k="cycleway:right" v="lane"/>
    <tag k="cycleway:right:lane" v="exclusive"/>
    <tag k="highway" v="secondary"/>
    <tag k="lanes" v="2"/>
    <tag k="lit" v="yes"/>
    <tag k="maxspeed" v="50"/>
    <tag k="name" v="Seidlstraße"/>
    <tag k="name:etymology:wikidata" v="Q86955"/>
    <tag k="oneway" v="yes"/>
    <tag k="sidewalk:left" v="no"/>
    <tag k="sidewalk:right" v="separate"/>
    <tag k="surface" v="asphalt"/>
    <tag k="tmc" v="DE:35369"/>
  </way>
  <way id="227043221" version="17" timestamp="2024-12-31T15:56:49Z" changeset="160837879" uid="11652964" user="Olufanz">
    <nd ref="602742221"/>
    <nd ref="602750514"/>
    <tag k="class:bicycle" v="-1"/>
    <tag k="cycleway:left" v="no"/>
    <tag k="cycleway:right" v="lane"/>
    <tag k="cycleway:right:lane" v="exclusive"/>
    <tag k="highway" v="tertiary"/>
    <tag k="lanes" v="2"/>
    <tag k="lit" v="yes"/>
    <tag k="maxspeed" v="50"/>
    <tag k="name" v="Arnulfstraße"/>
    <tag k="oneway" v="yes"/>
    <tag k="segregated" v="yes"/>
    <tag k="sidewalk:left" v="no"/>
    <tag k="sidewalk:right" v="separate"/>
    <tag k="smoothness" v="good"/>
    <tag k="surface" v="asphalt"/>
    <tag k="tmc" v="DE:35356/35357"/>
  </way>
  <way id="230392356" version="5" timestamp="2021-03-07T14:50:03Z" changeset="100577602" uid="17011" user="muc-osm">
    <nd ref="2389022297"/>
    <nd ref="2450535118"/>
    <nd ref="1098250072"/>
    <nd ref="1098250688"/>
    <nd ref="1098250587"/>
    <nd ref="1098250374"/>
    <nd ref="2389022298"/>
    <nd ref="2389022297"/>
    <tag k="addr:city" v="München"/>
    <tag k="addr:country" v="DE"/>
    <tag k="addr:housenumber" v="18"/>
    <tag k="addr:postcode" v="80336"/>
    <tag k="addr:street" v="Herzog-Heinrich-Straße"/>
    <tag k="building" v="office"/>
    <tag k="wikidata" v="Q41179850"/>
  </way>
  <way id="236006130" version="4" timestamp="2020-11-21T22:07:25Z" changeset="94563384" uid="43207" user="kdkeller">
    <nd ref="2440802169"/>
    <nd ref="1098250476"/>
    <nd ref="1098250636"/>
    <nd ref="2440802236"/>
    <nd ref="2440802169"/>
    <tag k="addr:city" v="München"/>
    <tag k="addr:country" v="DE"/>
    <tag k="addr:housenumber" v="28"/>
    <tag k="addr:postcode" v="80336"/>
    <tag k="addr:street" v="Bavariaring"/>
    <tag k="building" v="yes"/>
    <tag k="wikidata" v="Q41179719"/>
  </way>
  <way id="237039573" version="9" timestamp="2025-05-16T19:56:06Z" changeset="166367423" uid="2554996" user="Nanoilite">
    <nd ref="1098334552"/>
    <nd ref="12842870793"/>
    <nd ref="12842870792"/>
    <nd ref="1098334587"/>
    <nd ref="12842870795"/>
    <nd ref="12842870794"/>
    <nd ref="1098334585"/>
    <nd ref="1098334383"/>
    <nd ref="2449879853"/>
    <nd ref="2449879821"/>
    <nd ref="1417402872"/>
    <nd ref="1098334552"/>
    <tag k="addr:city" v="München"/>
    <tag k="addr:country" v="DE"/>
    <tag k="addr:housenumber" v="70a"/>
    <tag k="addr:postcode" v="80337"/>
    <tag k="addr:street" v="Lindwurmstraße"/>
    <tag k="building" v="yes"/>
    <tag k="building:levels" v="7"/>
    <tag k="check_date" v="2024-10-27"/>
    <tag k="name" v="Bold"/>
    <tag k="tourism" v="hotel"/>
    <tag k="website" v="https://bold-hotels.com/de/hotels/bold-muenchen-zentrum/"/>
    <tag k="wheelchair" v="yes"/>
  </way>
  <way id="237039578" version="4" timestamp="2020-06-22T09:21:43Z" changeset="86970223" uid="57158" user="kay_D">
    <nd ref="2449879706"/>
    <nd ref="2449879735"/>
    <nd ref="1306900134"/>
    <nd ref="7298920946"/>
    <nd ref="7298947015"/>
    <nd ref="2449879830"/>
    <nd ref="2449879773"/>
    <nd ref="2449879808"/>
    <nd ref="2449879706"/>
    <tag k="addr:city" v="München"/>
    <tag k="addr:country" v="DE"/>
    <tag k="addr:housenumber" v="46"/>
    <tag k="addr:postcode" v="80336"/>
    <tag k="addr:street" v="Bavariaring"/>
    <tag k="building" v="hospital"/>
    <tag k="building:levels" v="4"/>
    <tag k="wheelchair" v="limited"/>
  </way>
  <way id="237106452" version="6" timestamp="2021-11-08T20:35:38Z" changeset="113537839" uid="536583" user="Strubbl">
    <nd ref="2450548909"/>
    <nd ref="1098250657"/>
    <nd ref="1098250261"/>
    <nd ref="1098250580"/>
    <nd ref="1098249985"/>
    <nd ref="1098250446"/>
    <nd ref="3994372235"/>
    <nd ref="3994372234"/>
    <nd ref="3994372236"/>
    <nd ref="3994372238"/>
    <nd ref="3994372237"/>
    <nd ref="2450548979"/>
    <nd ref="2450548909"/>
    <tag k="addr:city" v="München"/>
    <tag k="addr:country" v="DE"/>
    <tag k="addr:housenumber" v="2"/>
    <tag k="addr:postcode" v="80336"/>
    <tag k="addr:street" v="Schubertstraße"/>
    <tag k="building" v="apartments"/>
    <tag k="wikidata" v="Q41180061"/>
  </way>
  <way id="237106453" version="2" timestamp="2021-03-04T15:22:32Z" changeset="100431732" uid="17011" user="muc-osm">
    <nd ref="1098250492"/>
    <nd ref="1098250560"/>
    <nd ref="2450548909"/>
    <nd ref="2450548979"/>
    <nd ref="1098250720"/>
    <nd ref="1098250038"/>
    <nd ref="1098250492"/>
    <tag k="addr:city" v="München"/>
    <tag k="addr:country" v="DE"/>
    <tag k="addr:housenumber" v="8"/>
    <tag k="addr:postcode" v="80336"/>
    <tag k="addr:street" v="Kaiser-Ludwig-Platz"/>
    <tag k="building" v="apartments"/>
  </way>
  <way id="237520660" version="4" timestamp="2021-03-08T15:21:02Z" changeset="100647203" uid="17011" user="muc-osm">
    <nd ref="2454101181"/>
    <nd ref="1143639880"/>
    <nd ref="1098139432"/>
    <nd ref="1098139446"/>
    <nd ref="1098139458"/>
    <nd ref="3994375958"/>
    <nd ref="1098139408"/>
    <nd ref="1098139502"/>
    <nd ref="2454101169"/>
    <nd ref="2454101181"/>
    <tag k="addr:city" v="München"/>
    <tag k="addr:country" v="DE"/>
    <tag k="addr:housenumber" v="2"/>
    <tag k="addr:postcode" v="80336"/>
    <tag k="addr:street" v="Kaiser-Ludwig-Platz"/>
    <tag k="building" v="apartments"/>
    <tag k="building:levels" v="3"/>
    <tag k="roof:levels" v="1"/>
  </way>
  <way id="239137508" version="3" timestamp="2023-11-23T12:37:33Z" changeset="144364497" uid="16517917" user="nahatri">
    <nd ref="2469452677"/>
    <nd ref="2469452672"/>
    <nd ref="1297446457"/>
    <nd ref="2469452663"/>
    <nd ref="1297446423"/>
    <nd ref="2469452677"/>
    <tag k="addr:city" v="München"/>
    <tag k="addr:housenumber" v="75"/>
    <tag k="addr:postcode" v="80336"/>
    <tag k="addr:street" v="Schwanthalerstraße"/>
    <tag k="building" v="apartments"/>
  </way>
  <way id="239241452" version="5" timestamp="2023-11-23T12:32:37Z" changeset="144364497" uid="16517917" user="nahatri">
    <nd ref="2470455066"/>
    <nd ref="4082479962"/>
    <nd ref="2470455085"/>
    <nd ref="2470455091"/>
    <nd ref="2470455075"/>
    <nd ref="2471605666"/>
    <nd ref="2470455106"/>
    <nd ref="2470455066"/>
    <tag k="addr:city" v="München"/>
    <tag k="addr:housenumber" v="81"/>
    <tag k="addr:postcode" v="80336"/>
    <tag k="addr:street" v="Landwehrstraße"/>
    <tag k="building" v="apartments"/>
    <tag k="roof:orientation" v="across"/>
    <tag k="roof:shape" v="gabled"/>
  </way>
  <way id="239241455" version="3" timestamp="2023-05-04T18:27:16Z" changeset="135712638" uid="4674266" user="Florent Ch">
    <nd ref="2470455088"/>
    <nd ref="1098229595"/>
    <nd ref="2470442429"/>
    <nd ref="2470442453"/>
    <nd ref="1300877827"/>
    <nd ref="2470455068"/>
    <nd ref="2470455088"/>
    <tag k="addr:city" v="München"/>
    <tag k="addr:housenumber" v="87"/>
    <tag k="addr:postcode" v="80336"/>
    <tag k="addr:street" v="Landwehrstraße"/>
    <tag k="building" v="apartments"/>
    <tag k="building:levels" v="6"/>
  </way>
  <way id="239241456" version="8" timestamp="2023-11-14T18:58:36Z" changeset="144022355" uid="536583" user="Strubbl">
    <nd ref="2223545328"/>
    <nd ref="4082479956"/>
    <nd ref="4082479957"/>
    <nd ref="2470455064"/>
    <nd ref="2470455072"/>
    <nd ref="2470455100"/>
    <nd ref="2471605669"/>
    <nd ref="2116349293"/>
    <nd ref="2223545328"/>
    <tag k="addr:city" v="München"/>
    <tag k="addr:housenumber" v="77"/>
    <tag k="addr:postcode" v="80336"/>
    <tag k="addr:street" v="Landwehrstraße"/>
    <tag k="brand" v="B&amp;B Hotels"/>
    <tag k="brand:wikidata" v="Q794939"/>
    <tag k="building" v="yes"/>
    <tag k="contact:website" v="https://www.hotel-bb.com/de/hotel/muenchen-hbf"/>
    <tag k="internet_access" v="wlan"/>
    <tag k="internet_access:fee" v="no"/>
    <tag k="name" v="B&amp;B Hotel München-Hbf"/>
    <tag k="tourism" v="hotel"/>
  </way>
  <way id="239241459" version="6" timestamp="2023-11-23T12:32:39Z" changeset="144364497" uid="16517917" user="nahatri">
    <nd ref="2470455110"/>
    <nd ref="2471605667"/>
    <nd ref="2470455075"/>
    <nd ref="2470455091"/>
    <nd ref="4082479963"/>
    <nd ref="2470455076"/>
    <nd ref="2470455110"/>
    <tag k="addr:city" v="München"/>
    <tag k="addr:housenumber" v="83"/>
    <tag k="addr:postcode" v="80336"/>
    <tag k="addr:street" v="Landwehrstraße"/>
    <tag k="building" v="apartments"/>
    <tag k="building:levels" v="5"/>
    <tag k="roof:orientation" v="across"/>
    <tag k="roof:shape" v="gabled"/>
  </way>
  <way id="239241460" version="5" timestamp="2022-03-18T13:07:52Z" changeset="118630992" uid="4376164" user="redweizn">
    <nd ref="2470455061"/>
    <nd ref="597660528"/>
    <nd ref="2450548861"/>
    <nd ref="597660529"/>
    <nd ref="597660530"/>
    <nd ref="2470455061"/>
    <tag k="addr:housenumber" v="2"/>
    <tag k="addr:postcode" v="80336"/>
    <tag k="addr:street" v="Uhlandstraße"/>
    <tag k="building" v="apartments"/>
    <tag k="building:levels" v="3"/>
    <tag k="roof:levels" v="1"/>
    <tag k="roof:shape" v="gabled"/>
    <tag k="wikidata" v="Q41180151"/>
  </way>
  <way id="239241462" version="4" timestamp="2023-05-04T18:27:13Z" changeset="135712638" uid="4674266" user="Florent Ch">
    <nd ref="2470455076"/>
    <nd ref="2470455088"/>
    <nd ref="2470455068"/>
    <nd ref="2470455110"/>
    <nd ref="2470455076"/>
    <tag k="addr:city" v="München"/>
    <tag k="addr:housenumber" v="85"/>
    <tag k="addr:postcode" v="80336"/>
    <tag k="addr:street" v="Landwehrstraße"/>
    <tag k="building" v="apartments"/>
    <tag k="building:levels" v="5"/>
    <tag k="roof:shape" v="gabled"/>
  </way>
  <way id="263733110" version="10" timestamp="2024-07-06T11:55:37Z" changeset="153620787" uid="18493611" user="MunichWays">
    <nd ref="26553626"/>
    <nd ref="776257440"/>
    <tag k="bicycle" v="yes"/>
    <tag k="check_date:surface" v="2021-07-08"/>
    <tag k="class:bicycle" v="-1"/>
    <tag k="cycleway:both" v="no"/>
    <tag k="highway" v="tertiary"/>
    <tag k="lane_markings" v="no"/>
    <tag k="lit" v="yes"/>
    <tag k="maxspeed" v="50"/>
    <tag k="name" v="Grasserstraße"/>
    <tag k="sidewalk:left" v="separate"/>
    <tag k="sidewalk:right" v="yes"/>
    <tag k="smoothness" v="good"/>
    <tag k="surface" v="asphalt"/>
    <tag k="tmc" v="DE:61451/61452"/>
  </way>
  <way id="292767090" version="9" timestamp="2024-11-22T11:37:20Z" changeset="159455006" uid="11758604" user="map per">
    <nd ref="277381"/>
    <nd ref="656235766"/>
    <nd ref="295209"/>
    <tag k="class:bicycle" v="-1"/>
    <tag k="cycleway:both" v="lane"/>
    <tag k="cycleway:both:lane" v="exclusive"/>
    <tag k="highway" v="secondary"/>
    <tag k="lanes" v="4"/>
    <tag k="lit" v="yes"/>
    <tag k="maxspeed" v="50"/>
    <tag k="name" v="Schwanthalerstraße"/>
    <tag k="name:etymology:wikidata" v="Q448426"/>
    <tag k="sidewalk" v="separate"/>
    <tag k="smoothness" v="excellent"/>
    <tag k="surface" v="asphalt"/>
  </way>
  <way id="292914312" version="11" timestamp="2023-07-22T14:06:35Z" changeset="138855888" uid="9352598" user="JakobMunichways">
    <nd ref="324684384"/>
    <nd ref="2964709774"/>
    <nd ref="3691451330"/>
    <tag k="class:bicycle" v="-1"/>
    <tag k="cycleway:both" v="no"/>
    <tag k="highway" v="residential"/>
    <tag k="lanes" v="3"/>
    <tag k="lanes:backward" v="1"/>
    <tag k="lanes:forward" v="2"/>
    <tag k="lit" v="yes"/>
    <tag k="maxspeed" v="50"/>
    <tag k="name" v="Bavariastraße"/>
    <tag k="name:etymology:wikidata" v="Q707669"/>
    <tag k="sidewalk" v="both"/>
    <tag k="surface" v="asphalt"/>
    <tag k="turn:lanes:forward" v="left|through;right"/>
  </way>
  <way id="292914313" version="8" timestamp="2024-07-25T16:30:59Z" changeset="154402786" uid="11758604" user="map per">
    <nd ref="2964709779"/>
    <nd ref="272665591"/>
    <tag k="bicycle" v="use_sidepath"/>
    <tag k="cycleway:both" v="separate"/>
    <tag k="foot" v="use_sidepath"/>
    <tag k="highway" v="secondary"/>
    <tag k="lanes" v="4"/>
    <tag k="lit" v="yes"/>
    <tag k="maxspeed" v="50"/>
    <tag k="name" v="Hans-Fischer-Straße"/>
    <tag k="name:etymology:wikidata" v="Q76604"/>
    <tag k="sidewalk" v="separate"/>
    <tag k="surface" v="asphalt"/>
    <tag k="tmc" v="DE:35442/35443"/>
  </way>
  <way id="292914314" version="9" timestamp="2024-07-25T16:30:59Z" changeset="154402786" uid="11758604" user="map per">
    <nd ref="272665591"/>
    <nd ref="3691451337"/>
    <nd ref="3691451334"/>
    <nd ref="1955291"/>
    <tag k="bicycle" v="use_sidepath"/>
    <tag k="cycleway:both" v="separate"/>
    <tag k="foot" v="use_sidepath"/>
    <tag k="highway" v="secondary"/>
    <tag k="lanes" v="4"/>
    <tag k="lit" v="yes"/>
    <tag k="maxspeed" v="50"/>
    <tag k="name" v="Hans-Fischer-Straße"/>
    <tag k="name:etymology:wikidata" v="Q76604"/>
    <tag k="sidewalk" v="separate"/>
    <tag k="surface" v="asphalt"/>
    <tag k="tmc" v="DE:35442/35443"/>
  </way>
  <way id="292944722" version="7" timestamp="2023-08-03T11:55:52Z" changeset="139389828" uid="13987295" user="Arthur B E">
    <nd ref="1099934750"/>
    <nd ref="1099934918"/>
    <nd ref="1099934886"/>
    <nd ref="1099934713"/>
    <tag k="bicycle" v="use_sidepath"/>
    <tag k="foot" v="use_sidepath"/>
    <tag k="highway" v="secondary"/>
    <tag k="lanes" v="2"/>
    <tag k="lit" v="yes"/>
    <tag k="maxspeed" v="50"/>
    <tag k="name" v="Martin-Greif-Straße"/>
    <tag k="oneway" v="yes"/>
    <tag k="parking:both" v="no"/>
    <tag k="smoothness" v="good"/>
    <tag k="surface" v="asphalt"/>
    <tag k="turn:lanes" v="left|none"/>
  </way>
  <way id="292944723" version="7" timestamp="2023-11-15T19:09:25Z" changeset="144065108" uid="536583" user="Strubbl">
    <nd ref="1537519383"/>
    <nd ref="1955407"/>
    <tag k="bicycle" v="use_sidepath"/>
    <tag k="check_date:smoothness" v="2023-01-02"/>
    <tag k="highway" v="secondary"/>
    <tag k="lanes" v="2"/>
    <tag k="lit" v="yes"/>
    <tag k="maxspeed" v="50"/>
    <tag k="name" v="Theresienhöhe"/>
    <tag k="name:etymology:wikidata" v="Q233198"/>
    <tag k="oneway" v="yes"/>
    <tag k="smoothness" v="excellent"/>
    <tag k="surface" v="asphalt"/>
    <tag k="tmc" v="DE:35428"/>
  </way>
  <way id="292946856" version="8" timestamp="2025-04-29T11:42:59Z" changeset="165588304" uid="38546" user="wikimax">
    <nd ref="1099934750"/>
    <nd ref="3498172744"/>
    <nd ref="3498172742"/>
    <nd ref="739548467"/>
    <tag k="bicycle" v="use_sidepath"/>
    <tag k="foot" v="use_sidepath"/>
    <tag k="highway" v="tertiary"/>
    <tag k="lanes" v="1"/>
    <tag k="lit" v="yes"/>
    <tag k="maxspeed" v="50"/>
    <tag k="name" v="Bayerstraße"/>
    <tag k="old_ref" v="B 2;B 12"/>
    <tag k="oneway" v="yes"/>
    <tag k="sidewalk:both" v="separate"/>
    <tag k="surface" v="asphalt"/>
    <tag k="tmc" v="DE:35388/35389"/>
  </way>
  <way id="292946857" version="12" timestamp="2025-04-29T11:42:59Z" changeset="165588304" uid="38546" user="wikimax">
    <nd ref="1099934713"/>
    <nd ref="1099934800"/>
    <nd ref="12797717859"/>
    <nd ref="12793425828"/>
    <nd ref="12793425827"/>
    <nd ref="1099906537"/>
    <nd ref="21926877"/>
    <nd ref="83089238"/>
    <tag k="bicycle" v="use_sidepath"/>
    <tag k="foot" v="use_sidepath"/>
    <tag k="highway" v="secondary"/>
    <tag k="lanes" v="2"/>
    <tag k="lit" v="yes"/>
    <tag k="maxheight" v="default"/>
    <tag k="maxspeed" v="50"/>
    <tag k="name" v="Bayerstraße"/>
    <tag k="old_ref" v="B 2;B 12"/>
    <tag k="oneway" v="yes"/>
    <tag k="sidewalk:left" v="no"/>
    <tag k="sidewalk:right" v="separate"/>
    <tag k="smoothness" v="intermediate"/>
    <tag k="surface" v="asphalt"/>
    <tag k="tmc" v="DE:46560/35388"/>
  </way>
  <way id="292950392" version="12" timestamp="2024-12-31T15:54:32Z" changeset="160838945" uid="11652964" user="Olufanz">
    <nd ref="1956100"/>
    <nd ref="3757126940"/>
    <nd ref="3221291122"/>
    <tag k="bicycle" v="use_sidepath"/>
    <tag k="class:bicycle" v="-1"/>
    <tag k="cycleway:left" v="no"/>
    <tag k="cycleway:right" v="separate"/>
    <tag k="highway" v="tertiary"/>
    <tag k="lanes" v="2"/>
    <tag k="lit" v="yes"/>
    <tag k="maxspeed" v="50"/>
    <tag k="name" v="Arnulfstraße"/>
    <tag k="oneway" v="yes"/>
    <tag k="sidewalk:left" v="no"/>
    <tag k="sidewalk:right" v="separate"/>
    <tag k="source:maxspeed" v="DE:urban"/>
    <tag k="surface" v="asphalt"/>
    <tag k="tmc" v="DE:35356/35357"/>
    <tag k="turn:lanes" v="merge_to_right|none"/>
  </way>
  <way id="303515077" version="13" timestamp="2024-02-06T14:25:16Z" changeset="147137904" uid="13987295" user="Arthur B E">
    <nd ref="3078842206"/>
    <nd ref="6532762706"/>
    <nd ref="3078842205"/>
    <nd ref="3805316942"/>
    <nd ref="3162916863"/>
    <nd ref="20981714"/>
    <tag k="bicycle" v="use_sidepath"/>
    <tag k="foot" v="use_sidepath"/>
    <tag k="highway" v="tertiary"/>
    <tag k="lane_markings" v="no"/>
    <tag k="lit" v="yes"/>
    <tag k="maxspeed" v="50"/>
    <tag k="name" v="Bayerstraße"/>
    <tag k="old_ref" v="B 2;B 12"/>
    <tag k="oneway" v="yes"/>
    <tag k="sidewalk:left" v="no"/>
    <tag k="sidewalk:right" v="separate"/>
    <tag k="smoothness" v="good"/>
    <tag k="surface" v="asphalt"/>
    <tag k="tmc" v="DE:35388/35389"/>
  </way>
  <way id="304423855" version="7" timestamp="2023-07-22T14:06:35Z" changeset="138855888" uid="9352598" user="JakobMunichways">
    <nd ref="486478135"/>
    <nd ref="324684384"/>
    <tag k="class:bicycle" v="-1"/>
    <tag k="cycleway:both" v="no"/>
    <tag k="highway" v="residential"/>
    <tag k="lanes" v="3"/>
    <tag k="lanes:backward" v="1"/>
    <tag k="lanes:forward" v="2"/>
    <tag k="lit" v="yes"/>
    <tag k="maxspeed" v="50"/>
    <tag k="name" v="Bavariastraße"/>
    <tag k="name:etymology:wikidata" v="Q707669"/>
    <tag k="sidewalk" v="both"/>
    <tag k="surface" v="asphalt"/>
    <tag k="turn:lanes:forward" v="left|through;right"/>
  </way>
  <way id="304423860" version="17" timestamp="2024-11-03T12:28:24Z" changeset="158696739" uid="11758604" user="map per">
    <nd ref="2449879737"/>
    <nd ref="490689839"/>
    <nd ref="1877959883"/>
    <nd ref="3088651791"/>
    <nd ref="1955296"/>
    <nd ref="12067781622"/>
    <nd ref="324550813"/>
    <nd ref="11252506900"/>
    <tag k="class:bicycle" v="-2"/>
    <tag k="cycleway:both" v="no"/>
    <tag k="destination:backward" v="Stuttgart;Lindau"/>
    <tag k="destination:ref:backward" v="A 96"/>
    <tag k="foot" v="use_sidepath"/>
    <tag k="highway" v="secondary"/>
    <tag k="lanes" v="4"/>
    <tag k="lanes:backward" v="1"/>
    <tag k="lanes:forward" v="3"/>
    <tag k="lit" v="yes"/>
    <tag k="maxspeed" v="50"/>
    <tag k="name" v="Poccistraße"/>
    <tag k="name:etymology:wikidata" v="Q94757738"/>
    <tag k="parking:both" v="no"/>
    <tag k="psv" v="yes"/>
    <tag k="sidewalk" v="separate"/>
    <tag k="surface" v="asphalt"/>
    <tag k="tmc" v="DE:35441/35442"/>
    <tag k="turn:lanes:forward" v="left|through|right"/>
  </way>
  <way id="310827995" version="10" timestamp="2024-02-06T14:58:14Z" changeset="147139227" uid="13987295" user="Arthur B E">
    <nd ref="83089238"/>
    <nd ref="8412456892"/>
    <nd ref="1239794139"/>
    <nd ref="26553626"/>
    <tag k="bicycle" v="use_sidepath"/>
    <tag k="foot" v="use_sidepath"/>
    <tag k="highway" v="secondary"/>
    <tag k="lanes" v="2"/>
    <tag k="lit" v="yes"/>
    <tag k="maxspeed" v="50"/>
    <tag k="name" v="Landsberger Straße"/>
    <tag k="old_ref" v="B 2;B 12"/>
    <tag k="oneway" v="yes"/>
    <tag k="sidewalk:left" v="no"/>
    <tag k="sidewalk:right" v="separate"/>
    <tag k="smoothness" v="excellent"/>
    <tag k="surface" v="asphalt"/>
    <tag k="tmc" v="DE:46560/35388"/>
  </way>
  <way id="315127282" version="14" timestamp="2025-05-08T09:41:14Z" changeset="165973913" uid="16061279" user="YellowSoul">
    <nd ref="480314303"/>
    <nd ref="1643342630"/>
    <nd ref="1643342628"/>
    <nd ref="1643342625"/>
    <nd ref="3757105315"/>
    <nd ref="302721332"/>
    <nd ref="3757105310"/>
    <nd ref="309857388"/>
    <nd ref="1643342615"/>
    <nd ref="1643342613"/>
    <nd ref="4696310003"/>
    <nd ref="430262633"/>
    <nd ref="1956100"/>
    <tag k="bicycle" v="use_sidepath"/>
    <tag k="cycleway:left" v="no"/>
    <tag k="cycleway:right" v="separate"/>
    <tag k="highway" v="tertiary"/>
    <tag k="lanes" v="2"/>
    <tag k="lit" v="yes"/>
    <tag k="maxspeed" v="50"/>
    <tag k="name" v="Arnulfstraße"/>
    <tag k="name:etymology:wikidata" v="Q64956"/>
    <tag k="oneway" v="yes"/>
    <tag k="parking:right" v="yes"/>
    <tag k="parking:right:orientation" v="parallel"/>
    <tag k="sidewalk:left" v="no"/>
    <tag k="sidewalk:right" v="separate"/>
    <tag k="source:maxspeed" v="DE:urban"/>
    <tag k="surface" v="asphalt"/>
    <tag k="tmc" v="DE:35355/35356"/>
  </way>
  <way id="316009875" version="11" timestamp="2025-05-01T21:27:20Z" changeset="165694927" uid="38546" user="wikimax">
    <nd ref="3221291122"/>
    <nd ref="12803064554"/>
    <nd ref="3998064858"/>
    <tag k="bicycle" v="use_sidepath"/>
    <tag k="class:bicycle" v="-1"/>
    <tag k="cycleway:left" v="no"/>
    <tag k="cycleway:right" v="separate"/>
    <tag k="highway" v="tertiary"/>
    <tag k="lanes" v="1"/>
    <tag k="lit" v="yes"/>
    <tag k="maxspeed" v="50"/>
    <tag k="name" v="Arnulfstraße"/>
    <tag k="oneway" v="yes"/>
    <tag k="sidewalk:left" v="no"/>
    <tag k="sidewalk:right" v="separate"/>
    <tag k="surface" v="asphalt"/>
    <tag k="tmc" v="DE:35356/35357"/>
  </way>
  <way id="316009879" version="9" timestamp="2024-07-06T11:55:37Z" changeset="153620787" uid="18493611" user="MunichWays">
    <nd ref="3221291121"/>
    <nd ref="4696310002"/>
    <nd ref="739381844"/>
    <nd ref="1956100"/>
    <tag k="bicycle" v="yes"/>
    <tag k="class:bicycle" v="-1"/>
    <tag k="cycleway:both" v="no"/>
    <tag k="foot" v="yes"/>
    <tag k="highway" v="tertiary"/>
    <tag k="lanes" v="2"/>
    <tag k="lanes:backward" v="1"/>
    <tag k="lanes:forward" v="2"/>
    <tag k="lit" v="yes"/>
    <tag k="maxheight" v="3.3"/>
    <tag k="maxspeed" v="50"/>
    <tag k="name" v="Hackerbrücke"/>
    <tag k="segregated" v="yes"/>
    <tag k="sidewalk:both" v="separate"/>
    <tag k="smoothness" v="good"/>
    <tag k="source:maxspeed" v="DE:urban"/>
    <tag k="surface" v="asphalt"/>
    <tag k="tmc" v="DE:61452/61453"/>
    <tag k="turn:lanes:forward" v="left|through;right"/>
  </way>
  <way id="325541870" version="11" timestamp="2025-04-27T18:02:53Z" changeset="165517606" uid="38546" user="wikimax">
    <nd ref="321922704"/>
    <nd ref="1386432419"/>
    <tag k="TMC:cid_58:tabcd_1:Class" v="Point"/>
    <tag k="TMC:cid_58:tabcd_1:Direction" v="both"/>
    <tag k="TMC:cid_58:tabcd_1:LCLversion" v="9.00"/>
    <tag k="TMC:cid_58:tabcd_1:LocationCode" v="61452"/>
    <tag k="TMC:cid_58:tabcd_1:NextLocationCode" v="61453"/>
    <tag k="TMC:cid_58:tabcd_1:PrevLocationCode" v="61451"/>
    <tag k="bicycle" v="yes"/>
    <tag k="bridge" v="yes"/>
    <tag k="class:bicycle" v="-1"/>
    <tag k="cycleway:both" v="no"/>
    <tag k="foot" v="use_sidepath"/>
    <tag k="highway" v="tertiary"/>
    <tag k="lanes" v="2"/>
    <tag k="layer" v="1"/>
    <tag k="level" v="1"/>
    <tag k="lit" v="yes"/>
    <tag k="maxheight" v="3.3"/>
    <tag k="maxspeed" v="30"/>
    <tag k="maxweight" v="18"/>
    <tag k="name" v="Hackerbrücke"/>
    <tag k="segregated" v="yes"/>
    <tag k="shoulder" v="both"/>
    <tag k="sidewalk:both" v="separate"/>
    <tag k="sidewalk:both:surface" v="paving_stones"/>
    <tag k="smoothness" v="good"/>
    <tag k="source:maxspeed" v="sign"/>
    <tag k="surface" v="asphalt"/>
    <tag k="tmc" v="DE:61452"/>
  </way>
  <way id="327134664" version="9" timestamp="2025-04-29T16:11:07Z" changeset="165599594" uid="38546" user="wikimax">
    <nd ref="1956110"/>
    <nd ref="3550729686"/>
    <nd ref="776257466"/>
    <nd ref="8421279997"/>
    <nd ref="277382"/>
    <tag k="cycleway:both" v="no"/>
    <tag k="highway" v="residential"/>
    <tag k="lane_markings" v="no"/>
    <tag k="lit" v="yes"/>
    <tag k="maxspeed" v="50"/>
    <tag k="name" v="Hermann-Lingg-Straße"/>
    <tag k="parking:left" v="street_side"/>
    <tag k="parking:left:orientation" v="perpendicular"/>
    <tag k="parking:right" v="lane"/>
    <tag k="parking:right:orientation" v="parallel"/>
    <tag k="sidewalk:both" v="yes"/>
    <tag k="sidewalk:both:surface" v="paving_stones"/>
    <tag k="smoothness" v="good"/>
    <tag k="source:maxspeed" v="DE:urban"/>
    <tag k="surface" v="asphalt"/>
  </way>
  <way id="331121251" version="4" timestamp="2020-11-29T17:57:50Z" changeset="94993994" uid="2040341" user="teasu">
    <nd ref="3381797622"/>
    <nd ref="3381797625"/>
    <nd ref="3381797626"/>
    <nd ref="3381797624"/>
    <nd ref="3381797622"/>
    <tag k="addr:city" v="München"/>
    <tag k="addr:country" v="DE"/>
    <tag k="addr:housenumber" v="12"/>
    <tag k="addr:postcode" v="80336"/>
    <tag k="addr:street" v="Hermann-Lingg-Straße"/>
    <tag k="building" v="apartments"/>
    <tag k="building:levels" v="6"/>
    <tag k="roof:levels" v="1"/>
    <tag k="roof:shape" v="quadruple_saltbox"/>
  </way>
  <way id="342520847" version="10" timestamp="2023-10-29T16:43:59Z" changeset="143320662" uid="6285042" user="Biclmont">
    <nd ref="332727522"/>
    <nd ref="8421279996"/>
    <nd ref="3674741465"/>
    <nd ref="1956110"/>
    <tag k="bicycle" v="use_sidepath"/>
    <tag k="foot" v="use_sidepath"/>
    <tag k="highway" v="tertiary"/>
    <tag k="lanes" v="3"/>
    <tag k="lanes:backward" v="2"/>
    <tag k="lanes:forward" v="1"/>
    <tag k="lit" v="yes"/>
    <tag k="maxspeed" v="50"/>
    <tag k="name" v="Bayerstraße"/>
    <tag k="old_ref" v="B 2;B 12"/>
    <tag k="parking:both" v="no"/>
    <tag k="sidewalk:both" v="separate"/>
    <tag k="smoothness" v="good"/>
    <tag k="surface" v="asphalt"/>
    <tag k="tmc" v="DE:35388/35389"/>
  </way>
  <way id="342863190" version="12" timestamp="2024-11-22T11:37:20Z" changeset="159455006" uid="11758604" user="map per">
    <nd ref="1134203039"/>
    <nd ref="9848655237"/>
    <nd ref="21134980"/>
    <tag k="cycleway:left" v="no"/>
    <tag k="cycleway:right" v="lane"/>
    <tag k="cycleway:right:lane" v="exclusive"/>
    <tag k="highway" v="secondary"/>
    <tag k="lanes" v="2"/>
    <tag k="lit" v="yes"/>
    <tag k="maxspeed" v="50"/>
    <tag k="name" v="Theresienhöhe"/>
    <tag k="name:etymology:wikidata" v="Q233198"/>
    <tag k="oneway" v="yes"/>
    <tag k="smoothness" v="excellent"/>
    <tag k="surface" v="asphalt"/>
    <tag k="tmc" v="DE:35428"/>
  </way>
  <way id="360621029" version="5" timestamp="2024-09-26T15:35:38Z" changeset="157134948" uid="2226887" user="déni">
    <nd ref="3651429090"/>
    <nd ref="6615416251"/>
    <nd ref="2478907518"/>
    <nd ref="3651429091"/>
    <nd ref="3651429086"/>
    <nd ref="6615416238"/>
    <nd ref="6615416250"/>
    <nd ref="3651429084"/>
    <nd ref="3651429090"/>
    <tag k="addr:city" v="München"/>
    <tag k="addr:country" v="DE"/>
    <tag k="addr:housenumber" v="95"/>
    <tag k="addr:postcode" v="80335"/>
    <tag k="addr:street" v="Bayerstraße"/>
    <tag k="building" v="hotel"/>
    <tag k="contact:email" v="info@hotel-jedermann.de"/>
    <tag k="contact:fax" v="+49 89 543 241 11"/>
    <tag k="contact:phone" v="+49 89 543 240"/>
    <tag k="contact:website" v="https://www.hotel-jedermann.de/"/>
    <tag k="internet_access" v="wlan"/>
    <tag k="internet_access:fee" v="no"/>
    <tag k="name" v="Jedermann"/>
    <tag k="operator" v="Hotel garni Jedermann Jenke GmbH &amp; Co. KG"/>
    <tag k="rooms" v="55"/>
    <tag k="tourism" v="hotel"/>
    <tag k="wheelchair" v="limited"/>
    <tag k="wikidata" v="Q111388084"/>
  </way>
  <way id="360621031" version="2" timestamp="2019-02-11T13:51:07Z" changeset="67101074" uid="1796573" user="Socke555">
    <nd ref="3651429083"/>
    <nd ref="3651429079"/>
    <nd ref="3651429078"/>
    <nd ref="3651429077"/>
    <nd ref="1305817330"/>
    <nd ref="1305817292"/>
    <nd ref="3651429083"/>
    <tag k="building" v="yes"/>
    <tag k="name" v="KFZ-Team Zeitler"/>
    <tag k="shop" v="car_repair"/>
  </way>
  <way id="363805324" version="22" timestamp="2024-08-18T18:57:50Z" changeset="155430273" uid="17308617" user="PizzaTreeIsland">
    <nd ref="3679340334"/>
    <nd ref="6961636098"/>
    <nd ref="6961582109"/>
    <nd ref="6961582106"/>
    <nd ref="6961582105"/>
    <nd ref="6961593997"/>
    <nd ref="6961581890"/>
    <nd ref="6961640096"/>
    <nd ref="6961624392"/>
    <nd ref="6961593989"/>
    <nd ref="6961636792"/>
    <nd ref="6961582099"/>
    <nd ref="6961636089"/>
    <nd ref="6961624222"/>
    <nd ref="6961636791"/>
    <nd ref="6961547986"/>
    <nd ref="6961624395"/>
    <nd ref="1146756761"/>
    <nd ref="6961624223"/>
    <nd ref="6961623901"/>
    <nd ref="6961624216"/>
    <nd ref="6961624217"/>
    <nd ref="6961624087"/>
    <nd ref="6961635989"/>
    <nd ref="1146756699"/>
    <nd ref="1146756710"/>
    <nd ref="6961623893"/>
    <nd ref="6961547994"/>
    <nd ref="6961593986"/>
    <nd ref="6961593990"/>
    <nd ref="6961582095"/>
    <nd ref="6961582103"/>
    <nd ref="6961624215"/>
    <nd ref="6961640098"/>
    <nd ref="6961623789"/>
    <nd ref="6961582093"/>
    <nd ref="6961547995"/>
    <nd ref="6961594004"/>
    <nd ref="6961582092"/>
    <nd ref="6961582113"/>
    <nd ref="6961582091"/>
    <nd ref="3679340329"/>
    <nd ref="6961624094"/>
    <nd ref="6961582110"/>
    <nd ref="6961624202"/>
    <nd ref="6961623899"/>
    <nd ref="3679340334"/>
    <tag k="addr:city" v="München"/>
    <tag k="addr:country" v="DE"/>
    <tag k="addr:housename" v="EineWeltHaus"/>
    <tag k="addr:housenumber" v="80"/>
    <tag k="addr:postcode" v="80336"/>
    <tag k="addr:street" v="Schwanthalerstraße"/>
    <tag k="amenity" v="community_centre"/>
    <tag k="building" v="civic"/>
    <tag k="building:levels" v="3"/>
    <tag k="building:levels:underground" v="1"/>
    <tag k="dog" v="no"/>
    <tag k="internet_access" v="wlan"/>
    <tag k="name" v="EineWeltHaus"/>
    <tag k="opening_hours" v="off &quot;COVID-19&quot;"/>
    <tag k="operator" v="Trägerkreis EineWeltHaus München e.V."/>
    <tag k="phone" v="+49 89 8563 750"/>
    <tag k="roof:levels" v="0"/>
    <tag k="website" v="https://www.einewelthaus.de/"/>
    <tag k="wheelchair" v="limited"/>
    <tag k="wikidata" v="Q1306250"/>
  </way>
  <way id="363805325" version="6" timestamp="2019-11-10T11:42:50Z" changeset="76865806" uid="9333062" user="zorae">
    <nd ref="1146756782"/>
    <nd ref="1146756672"/>
    <nd ref="2456204085"/>
    <nd ref="3679340331"/>
    <nd ref="1146756761"/>
    <nd ref="6961624395"/>
    <nd ref="6961547986"/>
    <nd ref="3679340332"/>
    <nd ref="1146756782"/>
    <tag k="building" v="yes"/>
    <tag k="building:levels" v="5"/>
    <tag k="name" v="Fidelio"/>
    <tag k="tourism" v="hotel"/>
  </way>
  <way id="363805328" version="5" timestamp="2024-09-27T07:57:37Z" changeset="157158592" uid="136861" user="loffa">
    <nd ref="1302012828"/>
    <nd ref="3679340335"/>
    <nd ref="3679340336"/>
    <nd ref="2469452639"/>
    <nd ref="1302012922"/>
    <nd ref="1302012828"/>
    <tag k="building" v="hotel"/>
    <tag k="building:levels" v="4"/>
    <tag k="check_date" v="2024-09-27"/>
    <tag k="name" v="Margit"/>
    <tag k="roof:levels" v="1"/>
    <tag k="roof:shape" v="gabled"/>
    <tag k="tourism" v="guest_house"/>
  </way>
  <way id="364024992" version="8" timestamp="2024-09-26T15:35:33Z" changeset="157134948" uid="2226887" user="déni">
    <nd ref="1146756726"/>
    <nd ref="1146756638"/>
    <nd ref="3681346760"/>
    <nd ref="2464392511"/>
    <nd ref="3681346759"/>
    <nd ref="3681346756"/>
    <nd ref="1146756726"/>
    <tag k="addr:city" v="München"/>
    <tag k="addr:housenumber" v="75"/>
    <tag k="addr:postcode" v="80335"/>
    <tag k="addr:street" v="Bayerstraße"/>
    <tag k="brand" v="A&amp;O"/>
    <tag k="brand:wikidata" v="Q15890910"/>
    <tag k="brand:wikipedia" v="de:A&amp;O Hotels and Hostels"/>
    <tag k="building" v="yes"/>
    <tag k="internet_access" v="wlan"/>
    <tag k="name" v="A&amp;O München Hauptbahnhof"/>
    <tag k="toilets:wheelchair" v="no"/>
    <tag k="tourism" v="hostel"/>
    <tag k="website" v="https://www.aohostels.com/de/muenchen"/>
    <tag k="wheelchair" v="no"/>
    <tag k="wikidata" v="Q111117226"/>
  </way>
  <way id="364024993" version="7" timestamp="2024-05-05T11:12:00Z" changeset="150915116" uid="536583" user="Strubbl">
    <nd ref="1302012980"/>
    <nd ref="1302013046"/>
    <nd ref="1302013018"/>
    <nd ref="1302013044"/>
    <nd ref="1302013029"/>
    <nd ref="1302012867"/>
    <nd ref="2464392503"/>
    <nd ref="1302012980"/>
    <tag k="brand" v="vi vadi"/>
    <tag k="building" v="yes"/>
    <tag k="check_date" v="2024-05-04"/>
    <tag k="name" v="vi vadi hotel bayer 89"/>
    <tag k="stars" v="3S"/>
    <tag k="toilets:wheelchair" v="no"/>
    <tag k="tourism" v="hotel"/>
    <tag k="wheelchair" v="no"/>
  </way>
  <way id="364988561" version="8" timestamp="2024-07-25T16:30:59Z" changeset="154402786" uid="11758604" user="map per">
    <nd ref="1640974078"/>
    <nd ref="1640974077"/>
    <nd ref="2964709781"/>
    <nd ref="1640974076"/>
    <nd ref="2964709780"/>
    <nd ref="1640974075"/>
    <nd ref="1640974074"/>
    <nd ref="2964709779"/>
    <tag k="bicycle" v="use_sidepath"/>
    <tag k="cycleway:both" v="separate"/>
    <tag k="foot" v="use_sidepath"/>
    <tag k="highway" v="secondary"/>
    <tag k="lanes" v="4"/>
    <tag k="lit" v="yes"/>
    <tag k="maxspeed" v="50"/>
    <tag k="name" v="Hans-Fischer-Straße"/>
    <tag k="name:etymology:wikidata" v="Q76604"/>
    <tag k="sidewalk" v="separate"/>
    <tag k="surface" v="asphalt"/>
    <tag k="tmc" v="DE:35442/35443"/>
  </way>
  <way id="364988570" version="6" timestamp="2022-07-15T09:58:36Z" changeset="123642639" uid="999279" user="mc64">
    <nd ref="1091830710"/>
    <nd ref="1955427"/>
    <tag k="bicycle" v="use_sidepath"/>
    <tag k="foot" v="use_sidepath"/>
    <tag k="highway" v="secondary"/>
    <tag k="lanes" v="5"/>
    <tag k="lanes:backward" v="3"/>
    <tag k="lit" v="yes"/>
    <tag k="maxspeed" v="50"/>
    <tag k="name" v="Lindwurmstraße"/>
    <tag k="old_ref" v="B 2;B 11"/>
    <tag k="sidewalk" v="separate"/>
    <tag k="surface" v="asphalt"/>
    <tag k="tmc" v="DE:35410/28009"/>
    <tag k="turn:lanes:backward" v="left|through|through;right"/>
  </way>
  <way id="365100748" version="9" timestamp="2024-07-25T16:30:59Z" changeset="154402786" uid="11758604" user="map per">
    <nd ref="3691451330"/>
    <nd ref="1955291"/>
    <tag k="cycleway:both" v="no"/>
    <tag k="highway" v="residential"/>
    <tag k="lanes" v="3"/>
    <tag k="lanes:backward" v="1"/>
    <tag k="lanes:forward" v="2"/>
    <tag k="lit" v="yes"/>
    <tag k="maxspeed" v="50"/>
    <tag k="name" v="Bavariastraße"/>
    <tag k="name:etymology:wikidata" v="Q707669"/>
    <tag k="sidewalk" v="both"/>
    <tag k="surface" v="asphalt"/>
    <tag k="turn:lanes:forward" v="left|through;right"/>
  </way>
  <way id="365100750" version="9" timestamp="2024-11-03T12:28:24Z" changeset="158696739" uid="11758604" user="map per">
    <nd ref="3691450323"/>
    <nd ref="4673278141"/>
    <nd ref="2449879737"/>
    <tag k="class:bicycle" v="-2"/>
    <tag k="cycleway:both" v="no"/>
    <tag k="highway" v="secondary"/>
    <tag k="lanes" v="3"/>
    <tag k="lanes:backward" v="1"/>
    <tag k="lanes:forward" v="2"/>
    <tag k="lit" v="yes"/>
    <tag k="maxspeed" v="50"/>
    <tag k="name" v="Poccistraße"/>
    <tag k="name:etymology:wikidata" v="Q94757738"/>
    <tag k="psv" v="yes"/>
    <tag k="sidewalk" v="separate"/>
    <tag k="surface" v="asphalt"/>
    <tag k="tmc" v="DE:35441/35442"/>
  </way>
  <way id="396618083" version="4" timestamp="2025-05-16T21:38:43Z" changeset="166370226" uid="2554996" user="Nanoilite">
    <nd ref="1098139498"/>
    <nd ref="2450535149"/>
    <nd ref="2454101181"/>
    <nd ref="2454101169"/>
    <nd ref="12843090965"/>
    <nd ref="1098139498"/>
    <tag k="addr:city" v="München"/>
    <tag k="addr:country" v="DE"/>
    <tag k="addr:housenumber" v="12"/>
    <tag k="addr:postcode" v="80336"/>
    <tag k="addr:street" v="Herzog-Heinrich-Straße"/>
    <tag k="building" v="apartments"/>
    <tag k="building:levels" v="3"/>
    <tag k="roof:levels" v="1"/>
  </way>
  <way id="396618084" version="1" timestamp="2016-02-07T22:17:32Z" changeset="37069714" uid="152074" user="beweta">
    <nd ref="3994375959"/>
    <nd ref="1098139500"/>
    <nd ref="1098139425"/>
    <nd ref="3994375960"/>
    <nd ref="3994375959"/>
    <tag k="addr:city" v="München"/>
    <tag k="addr:country" v="DE"/>
    <tag k="addr:housenumber" v="21"/>
    <tag k="addr:postcode" v="80336"/>
    <tag k="addr:street" v="Bavariaring"/>
    <tag k="building" v="yes"/>
  </way>
  <way id="396618085" version="1" timestamp="2016-02-07T22:17:32Z" changeset="37069714" uid="152074" user="beweta">
    <nd ref="3994372232"/>
    <nd ref="1098249939"/>
    <nd ref="1098250574"/>
    <nd ref="1098250695"/>
    <nd ref="1098249933"/>
    <nd ref="3994372233"/>
    <nd ref="3994372232"/>
    <tag k="addr:city" v="München"/>
    <tag k="addr:country" v="DE"/>
    <tag k="addr:housenumber" v="3"/>
    <tag k="addr:postcode" v="80336"/>
    <tag k="addr:street" v="Schubertstraße"/>
    <tag k="building" v="yes"/>
  </way>
  <way id="396618101" version="4" timestamp="2021-03-08T15:20:40Z" changeset="100647203" uid="17011" user="muc-osm">
    <nd ref="3994372250"/>
    <nd ref="1098139535"/>
    <nd ref="1098139411"/>
    <nd ref="2450548999"/>
    <nd ref="3994372248"/>
    <nd ref="3994372250"/>
    <tag k="addr:city" v="München"/>
    <tag k="addr:country" v="DE"/>
    <tag k="addr:housenumber" v="12"/>
    <tag k="addr:postcode" v="80336"/>
    <tag k="addr:street" v="Beethovenstraße"/>
    <tag k="building" v="office"/>
    <tag k="building:levels" v="3"/>
    <tag k="roof:levels" v="1"/>
    <tag k="wikidata" v="Q41179776"/>
  </way>
  <way id="453346887" version="4" timestamp="2024-11-22T12:08:53Z" changeset="159456115" uid="11758604" user="map per">
    <nd ref="130074540"/>
    <nd ref="2326139417"/>
    <nd ref="19099996"/>
    <tag k="cycleway:both" v="no"/>
    <tag k="highway" v="residential"/>
    <tag k="maxspeed" v="30"/>
    <tag k="name" v="Sankt-Paul-Straße"/>
    <tag k="oneway" v="yes"/>
    <tag k="oneway:bicycle" v="no"/>
    <tag k="sidewalk" v="both"/>
    <tag k="source:maxspeed" v="DE:zone30"/>
    <tag k="surface" v="asphalt"/>
  </way>
  <way id="453346889" version="3" timestamp="2024-11-22T12:08:53Z" changeset="159456115" uid="11758604" user="map per">
    <nd ref="19107557"/>
    <nd ref="2517730905"/>
    <nd ref="130074540"/>
    <tag k="cycleway:both" v="no"/>
    <tag k="highway" v="residential"/>
    <tag k="maxspeed" v="30"/>
    <tag k="name" v="Sankt-Paul-Straße"/>
    <tag k="oneway" v="no"/>
    <tag k="source:maxspeed" v="DE:zone30"/>
    <tag k="surface" v="asphalt"/>
  </way>
  <way id="457360991" version="12" timestamp="2025-04-29T16:11:07Z" changeset="165599594" uid="38546" user="wikimax">
    <nd ref="1955341"/>
    <nd ref="19107557"/>
    <tag k="cycleway:both" v="no"/>
    <tag k="highway" v="residential"/>
    <tag k="lit" v="yes"/>
    <tag k="maxspeed" v="30"/>
    <tag k="name" v="Landwehrstraße"/>
    <tag k="oneway" v="yes"/>
    <tag k="oneway:bicycle" v="yes"/>
    <tag k="parking:both" v="street_side"/>
    <tag k="parking:both:orientation" v="parallel"/>
    <tag k="sidewalk:both" v="yes"/>
    <tag k="sidewalk:both:surface" v="paving_stones"/>
    <tag k="source:maxspeed" v="DE:zone30"/>
    <tag k="surface" v="asphalt"/>
  </way>
  <way id="474175243" version="11" timestamp="2025-04-29T16:11:07Z" changeset="165599594" uid="38546" user="wikimax">
    <nd ref="20457728"/>
    <nd ref="12798177437"/>
    <nd ref="2964955576"/>
    <nd ref="12798177467"/>
    <nd ref="1134202986"/>
    <nd ref="12798177466"/>
    <nd ref="2964955577"/>
    <nd ref="12798177465"/>
    <nd ref="20458798"/>
    <nd ref="1134202987"/>
    <tag k="class:bicycle" v="-1"/>
    <tag k="cycleway:left" v="separate"/>
    <tag k="cycleway:right" v="lane"/>
    <tag k="cycleway:right:lane" v="exclusive"/>
    <tag k="highway" v="tertiary"/>
    <tag k="lanes" v="4"/>
    <tag k="lit" v="yes"/>
    <tag k="maxspeed" v="50"/>
    <tag k="name" v="Bavariaring"/>
    <tag k="name:etymology:wikidata" v="Q707669"/>
    <tag k="sidewalk:left" v="separate"/>
    <tag k="smoothness" v="good"/>
    <tag k="surface" v="asphalt"/>
  </way>
  <way id="490504562" version="5" timestamp="2024-12-31T15:54:24Z" changeset="160838945" uid="11652964" user="Olufanz">
    <nd ref="3998064858"/>
    <nd ref="814227811"/>
    <tag k="bicycle" v="use_sidepath"/>
    <tag k="class:bicycle" v="-2"/>
    <tag k="cycleway:left" v="no"/>
    <tag k="cycleway:right" v="separate"/>
    <tag k="foot" v="use_sidepath"/>
    <tag k="highway" v="tertiary"/>
    <tag k="lanes" v="1"/>
    <tag k="lit" v="yes"/>
    <tag k="maxspeed" v="50"/>
    <tag k="name" v="Arnulfstraße"/>
    <tag k="oneway" v="yes"/>
    <tag k="sidewalk:left" v="no"/>
    <tag k="sidewalk:right" v="separate"/>
    <tag k="surface" v="asphalt"/>
    <tag k="tmc" v="DE:35356/35357"/>
  </way>
  <way id="515633521" version="4" timestamp="2024-08-31T22:39:58Z" changeset="156034288" uid="13496000" user="geo-d">
    <nd ref="5035233210"/>
    <nd ref="5035233211"/>
    <nd ref="5035233212"/>
    <nd ref="5035233213"/>
    <nd ref="12148687061"/>
    <nd ref="5035233210"/>
    <tag k="addr:city" v="München"/>
    <tag k="addr:country" v="DE"/>
    <tag k="addr:housenumber" v="88"/>
    <tag k="addr:postcode" v="80336"/>
    <tag k="addr:street" v="Schwanthalerstraße"/>
    <tag k="building" v="yes"/>
    <tag k="building:levels" v="7"/>
    <tag k="roof:levels" v="1"/>
    <tag k="roof:shape" v="flat"/>
  </way>
  <way id="543004595" version="10" timestamp="2025-04-01T07:32:41Z" changeset="164360913" uid="170763" user="SoulCover">
    <nd ref="5249554563"/>
    <nd ref="3498172722"/>
    <tag k="class:bicycle" v="1"/>
    <tag k="cycleway:both" v="lane"/>
    <tag k="cycleway:both:lane" v="exclusive"/>
    <tag k="highway" v="secondary"/>
    <tag k="lanes:backward" v="2"/>
    <tag k="lanes:forward" v="2"/>
    <tag k="lit" v="yes"/>
    <tag k="maxspeed" v="50"/>
    <tag k="name" v="Schwanthalerstraße"/>
    <tag k="name:etymology:wikidata" v="Q448426"/>
    <tag k="sidewalk" v="both"/>
    <tag k="sidewalk:both:surface" v="paving_stones"/>
    <tag k="smoothness" v="excellent"/>
    <tag k="surface" v="asphalt"/>
    <tag k="tmc" v="DE:27975/27976"/>
  </way>
  <way id="543004596" version="11" timestamp="2025-04-01T07:32:41Z" changeset="164360913" uid="170763" user="SoulCover">
    <nd ref="277382"/>
    <nd ref="5249554563"/>
    <tag k="class:bicycle" v="1"/>
    <tag k="cycleway:both" v="lane"/>
    <tag k="cycleway:both:lane" v="exclusive"/>
    <tag k="highway" v="secondary"/>
    <tag k="lanes:backward" v="3"/>
    <tag k="lanes:forward" v="2"/>
    <tag k="lit" v="yes"/>
    <tag k="maxspeed" v="50"/>
    <tag k="name" v="Schwanthalerstraße"/>
    <tag k="name:etymology:wikidata" v="Q448426"/>
    <tag k="sidewalk" v="both"/>
    <tag k="sidewalk:both:surface" v="paving_stones"/>
    <tag k="smoothness" v="excellent"/>
    <tag k="surface" v="asphalt"/>
    <tag k="tmc" v="DE:27975/27976"/>
    <tag k="turn:lanes:backward" v="left||"/>
  </way>
  <way id="543004597" version="11" timestamp="2023-08-12T17:22:37Z" changeset="139796396" uid="18493611" user="MunichWays">
    <nd ref="3498172722"/>
    <nd ref="3498172721"/>
    <nd ref="775283935"/>
    <nd ref="277381"/>
    <tag k="check_date:smoothness" v="2023-01-02"/>
    <tag k="class:bicycle" v="1"/>
    <tag k="cycleway:both" v="lane"/>
    <tag k="cycleway:both:lane" v="exclusive"/>
    <tag k="destination:backward" v="Zentrum"/>
    <tag k="highway" v="secondary"/>
    <tag k="lanes" v="4"/>
    <tag k="lanes:backward" v="2"/>
    <tag k="lanes:forward" v="2"/>
    <tag k="lit" v="yes"/>
    <tag k="maxspeed" v="50"/>
    <tag k="name" v="Schwanthalerstraße"/>
    <tag k="name:etymology:wikidata" v="Q448426"/>
    <tag k="sidewalk" v="both"/>
    <tag k="smoothness" v="excellent"/>
    <tag k="surface" v="asphalt"/>
    <tag k="tmc" v="DE:27975/27976"/>
    <tag k="turn:lanes:forward" v="left|left|through;right"/>
  </way>
  <way id="551702989" version="12" timestamp="2023-10-29T22:40:52Z" changeset="143334622" uid="6285042" user="Biclmont">
    <nd ref="5327842376"/>
    <nd ref="11285585709"/>
    <nd ref="5646290895"/>
    <nd ref="18696707"/>
    <tag k="class:bicycle" v="1"/>
    <tag k="cycleway:both" v="lane"/>
    <tag k="cycleway:both:lane" v="exclusive"/>
    <tag k="highway" v="secondary"/>
    <tag k="lanes" v="2"/>
    <tag k="lit" v="yes"/>
    <tag k="maxspeed:backward" v="50"/>
    <tag k="maxspeed:forward" v="30"/>
    <tag k="maxspeed:forward:conditional" v="50 @ (Mo-Fr 18:00-07:00; Sa, Su, PH)"/>
    <tag k="name" v="Herzog-Heinrich-Straße"/>
    <tag k="name:etymology:wikidata" v="Q105378"/>
    <tag k="parking:both" v="no"/>
    <tag k="parking:both:restriction" v="no_stopping"/>
    <tag k="sidewalk:both" v="separate"/>
    <tag k="surface" v="asphalt"/>
    <tag k="tmc" v="DE:27997/30131"/>
  </way>
  <way id="551702991" version="10" timestamp="2024-11-03T12:01:59Z" changeset="158695142" uid="20085156" user="map per StreetComplete">
    <nd ref="21531316"/>
    <nd ref="1301165260"/>
    <nd ref="4951567463"/>
    <nd ref="20833978"/>
    <nd ref="18696707"/>
    <tag k="class:bicycle" v="1"/>
    <tag k="cycleway:left" v="no"/>
    <tag k="cycleway:right" v="lane"/>
    <tag k="cycleway:right:lane" v="exclusive"/>
    <tag k="highway" v="secondary"/>
    <tag k="lanes" v="1"/>
    <tag k="lit" v="yes"/>
    <tag k="maxspeed" v="50"/>
    <tag k="name" v="Kaiser-Ludwig-Platz"/>
    <tag k="oneway" v="yes"/>
    <tag k="parking:left" v="no"/>
    <tag k="parking:right" v="lane"/>
    <tag k="parking:right:orientation" v="parallel"/>
    <tag k="sidewalk:left" v="no"/>
    <tag k="sidewalk:right" v="separate"/>
    <tag k="surface" v="asphalt"/>
    <tag k="tmc" v="DE:27997/30131"/>
    <tag k="width" v="10"/>
  </way>
  <way id="551702992" version="9" timestamp="2024-11-22T12:16:34Z" changeset="159456377" uid="11758604" user="map per">
    <nd ref="1301165271"/>
    <nd ref="4951567437"/>
    <nd ref="3498157189"/>
    <nd ref="4951567436"/>
    <nd ref="1955329"/>
    <nd ref="8199882915"/>
    <nd ref="21531316"/>
    <tag k="class:bicycle" v="1"/>
    <tag k="cycleway:left" v="separate"/>
    <tag k="cycleway:right" v="lane"/>
    <tag k="cycleway:right:lane" v="exclusive"/>
    <tag k="highway" v="secondary"/>
    <tag k="lanes" v="2"/>
    <tag k="lit" v="yes"/>
    <tag k="maxspeed" v="50"/>
    <tag k="name" v="Kaiser-Ludwig-Platz"/>
    <tag k="oneway" v="yes"/>
    <tag k="sidewalk:both" v="separate"/>
    <tag k="surface" v="asphalt"/>
    <tag k="tmc" v="DE:27997/30131"/>
    <tag k="turn:lanes" v="through|right"/>
  </way>
  <way id="584745737" version="8" timestamp="2024-11-03T12:02:00Z" changeset="158695142" uid="20085156" user="map per StreetComplete">
    <nd ref="5588969009"/>
    <nd ref="8174120289"/>
    <nd ref="27790741"/>
    <nd ref="8174120278"/>
    <nd ref="3498172704"/>
    <nd ref="1833107687"/>
    <tag k="class:bicycle" v="1"/>
    <tag k="cycleway:both" v="lane"/>
    <tag k="cycleway:both:lane" v="exclusive"/>
    <tag k="highway" v="secondary"/>
    <tag k="lanes" v="2"/>
    <tag k="lit" v="yes"/>
    <tag k="maxspeed" v="50"/>
    <tag k="name" v="Herzog-Heinrich-Straße"/>
    <tag k="name:etymology:wikidata" v="Q105378"/>
    <tag k="parking:both" v="no"/>
    <tag k="sidewalk" v="separate"/>
    <tag k="surface" v="asphalt"/>
    <tag k="tmc" v="DE:27997/30131"/>
  </way>
  <way id="610857386" version="8" timestamp="2023-10-21T13:13:53Z" changeset="142923907" uid="18493611" user="MunichWays">
    <nd ref="5784707498"/>
    <nd ref="7638710493"/>
    <nd ref="1956105"/>
    <nd ref="7638710490"/>
    <tag k="bicycle" v="yes"/>
    <tag k="class:bicycle" v="-2"/>
    <tag k="cycleway:both" v="no"/>
    <tag k="highway" v="tertiary"/>
    <tag k="lanes" v="2"/>
    <tag k="lit" v="yes"/>
    <tag k="maxspeed" v="50"/>
    <tag k="name" v="Grasserstraße"/>
    <tag k="shoulder" v="no"/>
    <tag k="sidewalk:left" v="separate"/>
    <tag k="sidewalk:right" v="yes"/>
    <tag k="sidewalk:right:surface" v="paving_stones"/>
    <tag k="smoothness" v="good"/>
    <tag k="source:maxspeed" v="DE:urban"/>
    <tag k="surface" v="asphalt"/>
    <tag k="tmc" v="DE:61451/61452"/>
  </way>
  <way id="610857387" version="8" timestamp="2023-10-22T09:02:44Z" changeset="142958062" uid="16960231" user="DLystopadov">
    <nd ref="776257440"/>
    <nd ref="3784300059"/>
    <nd ref="2464420252"/>
    <nd ref="5784707498"/>
    <tag k="bicycle" v="yes"/>
    <tag k="class:bicycle" v="-1"/>
    <tag k="cycleway:left" v="lane"/>
    <tag k="cycleway:left:lane" v="exclusive"/>
    <tag k="cycleway:right" v="no"/>
    <tag k="highway" v="tertiary"/>
    <tag k="lanes" v="3"/>
    <tag k="lanes:backward" v="1"/>
    <tag k="lanes:forward" v="2"/>
    <tag k="lit" v="yes"/>
    <tag k="maxspeed" v="50"/>
    <tag k="name" v="Grasserstraße"/>
    <tag k="shoulder" v="no"/>
    <tag k="sidewalk:left" v="separate"/>
    <tag k="sidewalk:right" v="yes"/>
    <tag k="sidewalk:right:surface" v="paving_stones"/>
    <tag k="smoothness" v="good"/>
    <tag k="source:maxspeed" v="DE:urban"/>
    <tag k="surface" v="asphalt"/>
    <tag k="tmc" v="DE:61451/61452"/>
    <tag k="turn:lanes:forward" v="left|right"/>
  </way>
  <way id="627522164" version="10" timestamp="2024-05-27T17:09:58Z" changeset="151910352" uid="11758604" user="map per">
    <nd ref="2460131497"/>
    <nd ref="78416019"/>
    <tag k="access:conditional" v="no @ (2024 Jun 03 - 2024 Jul 08; 2025 Oct 24 - 2025 Dec 05)"/>
    <tag k="bicycle" v="yes"/>
    <tag k="class:bicycle" v="-1"/>
    <tag k="cycleway:left" v="no"/>
    <tag k="cycleway:right" v="lane"/>
    <tag k="cycleway:right:lane" v="exclusive"/>
    <tag k="foot" v="use_sidepath"/>
    <tag k="highway" v="secondary"/>
    <tag k="lanes" v="1"/>
    <tag k="lit" v="yes"/>
    <tag k="maxheight" v="3.7 m"/>
    <tag k="maxspeed" v="30"/>
    <tag k="name" v="Lindwurmstraße"/>
    <tag k="old_ref" v="B 2;B 11"/>
    <tag k="oneway" v="yes"/>
    <tag k="sidewalk:left" v="no"/>
    <tag k="sidewalk:right" v="separate"/>
    <tag k="smoothness" v="good"/>
    <tag k="source:maxspeed" v="sign"/>
    <tag k="surface" v="asphalt"/>
    <tag k="tmc" v="DE:28008/35410"/>
  </way>
  <way id="637955132" version="7" timestamp="2024-07-25T16:30:59Z" changeset="154402786" uid="11758604" user="map per">
    <nd ref="1955327"/>
    <nd ref="1869121781"/>
    <nd ref="21531319"/>
    <nd ref="8091258271"/>
    <nd ref="1955325"/>
    <tag k="class:bicycle" v="1"/>
    <tag k="cycleway:both" v="no"/>
    <tag k="highway" v="residential"/>
    <tag k="lanes" v="2"/>
    <tag k="lit" v="yes"/>
    <tag k="maxspeed" v="30"/>
    <tag k="name" v="Bavariaring"/>
    <tag k="name:etymology:wikidata" v="Q707669"/>
    <tag k="oneway" v="no"/>
    <tag k="sidewalk:left" v="separate"/>
    <tag k="sidewalk:right" v="no"/>
    <tag k="smoothness" v="excellent"/>
    <tag k="surface" v="asphalt"/>
  </way>
  <way id="685006606" version="6" timestamp="2024-01-21T20:29:07Z" changeset="146527089" uid="497849" user="pyram">
    <nd ref="6418468189"/>
    <nd ref="6418468190"/>
    <nd ref="6418468191"/>
    <nd ref="6418468192"/>
    <nd ref="6418468193"/>
    <nd ref="6418468194"/>
    <nd ref="6418468195"/>
    <nd ref="6418468196"/>
    <nd ref="11537941370"/>
    <nd ref="11537941371"/>
    <nd ref="6418468197"/>
    <nd ref="11537941369"/>
    <nd ref="6418468198"/>
    <nd ref="2440802233"/>
    <nd ref="6418468199"/>
    <nd ref="6418468200"/>
    <nd ref="6418468201"/>
    <nd ref="6418468202"/>
    <nd ref="2440802155"/>
    <nd ref="6418468203"/>
    <nd ref="6418468204"/>
    <nd ref="6418468205"/>
    <nd ref="6418468206"/>
    <nd ref="11537932766"/>
    <nd ref="6418468189"/>
    <tag k="building" v="apartments"/>
    <tag k="building:levels" v="4"/>
    <tag k="name" v="Bavaria Palais"/>
    <tag k="roof:levels" v="2"/>
    <tag k="roof:shape" v="hipped"/>
  </way>
  <way id="700687020" version="7" timestamp="2023-10-29T16:45:36Z" changeset="143320662" uid="6285042" user="Biclmont">
    <nd ref="21531316"/>
    <nd ref="8199882874"/>
    <nd ref="6580081893"/>
    <tag k="bicycle" v="yes"/>
    <tag k="bicycle:lanes" v="designated|yes"/>
    <tag k="class:bicycle" v="1"/>
    <tag k="highway" v="residential"/>
    <tag k="lanes:backward" v="2"/>
    <tag k="lanes:forward" v="1"/>
    <tag k="lit" v="yes"/>
    <tag k="maxspeed" v="30"/>
    <tag k="name" v="Beethovenstraße"/>
    <tag k="name:etymology:wikidata" v="Q255"/>
    <tag k="oneway" v="no"/>
    <tag k="sidewalk:both" v="separate"/>
    <tag k="smoothness" v="excellent"/>
    <tag k="source:maxspeed" v="DE:zone30"/>
    <tag k="surface" v="asphalt"/>
    <tag k="turn:lanes" v="through|right"/>
    <tag k="vehicle:lanes" v="no|yes"/>
  </way>
  <way id="817926748" version="7" timestamp="2023-10-21T13:13:53Z" changeset="142923907" uid="18493611" user="MunichWays">
    <nd ref="7638710490"/>
    <nd ref="728481964"/>
    <tag k="bicycle" v="yes"/>
    <tag k="class:bicycle" v="-1"/>
    <tag k="cycleway:both" v="no"/>
    <tag k="highway" v="tertiary"/>
    <tag k="lanes" v="2"/>
    <tag k="lit" v="yes"/>
    <tag k="maxheight" v="3.3"/>
    <tag k="maxspeed" v="50"/>
    <tag k="name" v="Grasserstraße"/>
    <tag k="shoulder" v="no"/>
    <tag k="sidewalk:left" v="separate"/>
    <tag k="sidewalk:right" v="yes"/>
    <tag k="sidewalk:right:surface" v="paving_stones"/>
    <tag k="smoothness" v="good"/>
    <tag k="surface" v="asphalt"/>
    <tag k="tmc" v="DE:61451/61452"/>
  </way>
  <way id="849528714" version="8" timestamp="2023-08-12T17:22:37Z" changeset="139796396" uid="18493611" user="MunichWays">
    <nd ref="2964709773"/>
    <nd ref="2964709772"/>
    <nd ref="7998921324"/>
    <nd ref="3691450323"/>
    <tag k="class:bicycle" v="-2"/>
    <tag k="cycleway:left" v="no"/>
    <tag k="cycleway:right" v="lane"/>
    <tag k="cycleway:right:lane" v="exclusive"/>
    <tag k="highway" v="secondary"/>
    <tag k="lanes" v="3"/>
    <tag k="lanes:backward" v="1"/>
    <tag k="lanes:forward" v="2"/>
    <tag k="lit" v="yes"/>
    <tag k="maxspeed" v="50"/>
    <tag k="name" v="Poccistraße"/>
    <tag k="name:etymology:wikidata" v="Q94757738"/>
    <tag k="psv" v="yes"/>
    <tag k="sidewalk" v="separate"/>
    <tag k="surface" v="asphalt"/>
    <tag k="tmc" v="DE:35441/35442"/>
  </way>
  <way id="849528715" version="5" timestamp="2021-05-05T20:01:48Z" changeset="104205781" uid="29096" user="buergi">
    <nd ref="324684390"/>
    <nd ref="2964709777"/>
    <nd ref="3691451332"/>
    <tag k="cycleway:both" v="no"/>
    <tag k="highway" v="residential"/>
    <tag k="lanes" v="1"/>
    <tag k="lit" v="yes"/>
    <tag k="maxspeed" v="50"/>
    <tag k="name" v="Bavariastraße"/>
    <tag k="name:etymology:wikidata" v="Q707669"/>
    <tag k="oneway" v="yes"/>
    <tag k="sidewalk" v="both"/>
    <tag k="surface" v="asphalt"/>
  </way>
  <way id="849528718" version="7" timestamp="2024-04-20T11:57:28Z" changeset="150259962" uid="78613" user="heilbron">
    <nd ref="3691451332"/>
    <nd ref="324684384"/>
    <tag k="cycleway:both" v="no"/>
    <tag k="highway" v="residential"/>
    <tag k="lanes" v="1"/>
    <tag k="lit" v="yes"/>
    <tag k="maxspeed" v="50"/>
    <tag k="name" v="Bavariastraße"/>
    <tag k="name:etymology:wikidata" v="Q707669"/>
    <tag k="oneway" v="yes"/>
    <tag k="sidewalk" v="right"/>
    <tag k="sidewalk:right:surface" v="asphalt"/>
    <tag k="surface" v="asphalt"/>
  </way>
  <way id="856968474" version="8" timestamp="2023-11-15T19:09:19Z" changeset="144065112" uid="536583" user="Strubbl">
    <nd ref="1955345"/>
    <nd ref="9378324321"/>
    <nd ref="2964955574"/>
    <nd ref="20457728"/>
    <tag k="class:bicycle" v="-1"/>
    <tag k="cycleway:both" v="lane"/>
    <tag k="cycleway:both:lane" v="exclusive"/>
    <tag k="highway" v="tertiary"/>
    <tag k="lanes" v="3"/>
    <tag k="lanes:backward" v="2"/>
    <tag k="lanes:forward" v="1"/>
    <tag k="lit" v="yes"/>
    <tag k="maxspeed" v="50"/>
    <tag k="name" v="Bavariaring"/>
    <tag k="name:etymology:wikidata" v="Q707669"/>
    <tag k="sidewalk" v="separate"/>
    <tag k="smoothness" v="good"/>
    <tag k="surface" v="asphalt"/>
  </way>
  <way id="864760012" version="4" timestamp="2024-07-25T16:30:59Z" changeset="154402786" uid="11758604" user="map per">
    <nd ref="3691451338"/>
    <nd ref="272665591"/>
    <tag k="bicycle" v="use_sidepath"/>
    <tag k="cycleway:both" v="no"/>
    <tag k="highway" v="residential"/>
    <tag k="lit" v="yes"/>
    <tag k="maxspeed" v="30"/>
    <tag k="name" v="Bavariaring"/>
    <tag k="name:etymology:wikidata" v="Q707669"/>
    <tag k="oneway" v="yes"/>
    <tag k="source" v="survey"/>
    <tag k="source:maxspeed" v="DE:zone30"/>
    <tag k="surface" v="asphalt"/>
  </way>
  <way id="883869780" version="5" timestamp="2023-10-29T16:46:15Z" changeset="143320662" uid="6285042" user="Biclmont">
    <nd ref="5071771"/>
    <nd ref="11252506897"/>
    <nd ref="8018721670"/>
    <nd ref="4660674492"/>
    <nd ref="1657638537"/>
    <nd ref="2450895114"/>
    <tag k="bicycle" v="use_sidepath"/>
    <tag k="foot" v="use_sidepath"/>
    <tag k="highway" v="secondary"/>
    <tag k="lanes" v="4"/>
    <tag k="lit" v="yes"/>
    <tag k="maxspeed" v="50"/>
    <tag k="name" v="Lindwurmstraße"/>
    <tag k="old_ref" v="B 2;B 11"/>
    <tag k="psv" v="yes"/>
    <tag k="sidewalk:both" v="separate"/>
    <tag k="surface" v="asphalt"/>
    <tag k="tmc" v="DE:35410/28009"/>
  </way>
  <way id="904809883" version="8" timestamp="2024-11-22T11:37:20Z" changeset="159455006" uid="11758604" user="map per">
    <nd ref="21134980"/>
    <nd ref="1134203032"/>
    <nd ref="8402835812"/>
    <tag k="class:bicycle" v="-1"/>
    <tag k="cycleway:left" v="no"/>
    <tag k="cycleway:right" v="lane"/>
    <tag k="cycleway:right:lane" v="exclusive"/>
    <tag k="highway" v="secondary"/>
    <tag k="lanes" v="4"/>
    <tag k="lit" v="yes"/>
    <tag k="maxspeed" v="50"/>
    <tag k="name" v="Bavariaring"/>
    <tag k="name:etymology:wikidata" v="Q707669"/>
    <tag k="oneway" v="yes"/>
    <tag k="smoothness" v="excellent"/>
    <tag k="surface" v="asphalt"/>
    <tag k="tmc" v="DE:35428/36029"/>
    <tag k="turn:lanes" v="left|through|right|right"/>
  </way>
  <way id="904809885" version="5" timestamp="2023-11-15T19:09:26Z" changeset="144065108" uid="536583" user="Strubbl">
    <nd ref="1955407"/>
    <nd ref="324699257"/>
    <nd ref="2964955586"/>
    <tag k="bicycle" v="use_sidepath"/>
    <tag k="cycleway:both" v="separate"/>
    <tag k="highway" v="secondary"/>
    <tag k="lanes" v="2"/>
    <tag k="lit" v="yes"/>
    <tag k="maxspeed" v="50"/>
    <tag k="name" v="Theresienhöhe"/>
    <tag k="name:etymology:wikidata" v="Q233198"/>
    <tag k="oneway" v="yes"/>
    <tag k="smoothness" v="good"/>
    <tag k="surface" v="asphalt"/>
    <tag k="tmc" v="DE:35428"/>
  </way>
  <way id="984435667" version="3" timestamp="2023-10-29T16:46:21Z" changeset="143320662" uid="6285042" user="Biclmont">
    <nd ref="2450895114"/>
    <nd ref="27579741"/>
    <tag k="bicycle" v="use_sidepath"/>
    <tag k="foot" v="use_sidepath"/>
    <tag k="highway" v="secondary"/>
    <tag k="lanes" v="4"/>
    <tag k="lit" v="yes"/>
    <tag k="maxspeed" v="50"/>
    <tag k="name" v="Lindwurmstraße"/>
    <tag k="old_ref" v="B 2;B 11"/>
    <tag k="psv" v="yes"/>
    <tag k="sidewalk:both" v="separate"/>
    <tag k="surface" v="asphalt"/>
    <tag k="tmc" v="DE:35410/28009"/>
  </way>
  <way id="1112880487" version="10" timestamp="2024-12-17T17:25:37Z" changeset="160312269" uid="8353937" user="Helge Kreutzmannn">
    <nd ref="1147573035"/>
    <nd ref="27579740"/>
    <nd ref="8197765005"/>
    <nd ref="4208993072"/>
    <nd ref="4208993078"/>
    <nd ref="489934216"/>
    <nd ref="11252506902"/>
    <nd ref="290826559"/>
    <nd ref="11252506900"/>
    <tag k="class:bicycle" v="-2"/>
    <tag k="cycleway:both" v="no"/>
    <tag k="highway" v="residential"/>
    <tag k="lane_markings" v="no"/>
    <tag k="lit" v="yes"/>
    <tag k="maxspeed" v="30"/>
    <tag k="name" v="Ruppertstraße"/>
    <tag k="oneway" v="no"/>
    <tag k="parking:left" v="no"/>
    <tag k="parking:right" v="yes"/>
    <tag k="parking:right:orientation" v="parallel"/>
    <tag k="parking:right:parallel" v="on_street"/>
    <tag k="sidewalk:left" v="separate"/>
    <tag k="sidewalk:right" v="yes"/>
    <tag k="sidewalk:right:surface" v="paving_stones"/>
    <tag k="source:maxspeed" v="sign"/>
    <tag k="surface" v="asphalt"/>
  </way>
  <way id="1158709895" version="7" timestamp="2025-04-27T18:02:53Z" changeset="165517606" uid="38546" user="wikimax">
    <nd ref="728481964"/>
    <nd ref="12792109221"/>
    <nd ref="12792109220"/>
    <nd ref="11951476387"/>
    <nd ref="11951476386"/>
    <nd ref="21134978"/>
    <tag k="bicycle" v="yes"/>
    <tag k="class:bicycle" v="-1"/>
    <tag k="cycleway:both" v="no"/>
    <tag k="highway" v="tertiary"/>
    <tag k="lanes" v="2"/>
    <tag k="lit" v="yes"/>
    <tag k="maxheight" v="3.3"/>
    <tag k="maxspeed" v="30"/>
    <tag k="name" v="Grasserstraße"/>
    <tag k="shoulder" v="no"/>
    <tag k="sidewalk:left" v="separate"/>
    <tag k="sidewalk:right" v="yes"/>
    <tag k="sidewalk:right:surface" v="paving_stones"/>
    <tag k="smoothness" v="good"/>
    <tag k="source:maxspeed" v="sign"/>
    <tag k="surface" v="asphalt"/>
    <tag k="tmc" v="DE:61451/61452"/>
  </way>
  <way id="1267964637" version="1" timestamp="2024-03-31T19:55:49Z" changeset="149406292" uid="33223" user="k127">
    <nd ref="11776233698"/>
    <nd ref="11776233702"/>
    <nd ref="11776233703"/>
    <nd ref="11776233704"/>
    <nd ref="11776233707"/>
    <nd ref="1907527849"/>
    <nd ref="2464392479"/>
    <nd ref="1907527852"/>
    <nd ref="11776233699"/>
    <nd ref="11776233698"/>
    <tag k="addr:city" v="München"/>
    <tag k="addr:country" v="DE"/>
    <tag k="addr:housenumber" v="2b"/>
    <tag k="addr:postcode" v="80335"/>
    <tag k="addr:street" v="Zollstraße"/>
    <tag k="building" v="apartments"/>
    <tag k="building:levels" v="5"/>
  </way>
  <relation id="15461926" version="2" timestamp="2024-06-02T05:42:59Z" changeset="152145186" uid="13987295" user="Arthur B E">
    <member type="way" ref="115626054" role="outer"/>
    <member type="way" ref="1143903905" role="inner"/>
    <tag k="brand" v="HUK-Coburg"/>
    <tag k="brand:wikidata" v="Q1566111"/>
    <tag k="brand:wikipedia" v="de:HUK-Coburg"/>
    <tag k="building" v="office"/>
    <tag k="building:levels" v="5"/>
    <tag k="name" v="HUK-Coburg"/>
    <tag k="office" v="insurance"/>
    <tag k="opening_hours" v="Mo-Th 08:00-18:00; Fr 08:00-16:00"/>
    <tag k="roof:shape" v="flat"/>
    <tag k="type" v="multipolygon"/>
    <tag k="wheelchair" v="yes"/>
  </relation>

</osm>
