<?xml version="1.0" encoding="UTF-8"?>
<osm version="0.6" generator="Overpass API 0.7.62.5 1bd436f1">
<note>The data included in this document is from www.openstreetmap.org. The data is made available under ODbL.</note>
<meta osm_base="2025-05-18T03:24:03Z" areas="2024-12-31T00:49:33Z"/>

  <node id="361803" lat="48.1509794" lon="11.5579849" version="8" timestamp="2015-10-06T14:01:57Z" changeset="34467781" uid="2626894" user="valle129"/>
  <node id="1955536" lat="48.1567869" lon="11.5584906" version="4" timestamp="2022-12-28T16:11:00Z" changeset="130609140" uid="2554996" user="Nanoilite">
    <tag k="highway" v="traffic_signals"/>
  </node>
  <node id="25576847" lat="48.1575003" lon="11.5606124" version="8" timestamp="2022-12-28T16:11:00Z" changeset="130609140" uid="2554996" user="Nanoilite"/>
  <node id="25576849" lat="48.1548917" lon="11.5595718" version="7" timestamp="2025-01-29T20:56:36Z" changeset="161913737" uid="21643154" user="sw_uwu"/>
  <node id="25576850" lat="48.1538933" lon="11.5591351" version="2" timestamp="2011-01-01T22:14:39Z" changeset="6832927" uid="29061" user="KPG"/>
  <node id="27479665" lat="48.1568763" lon="11.5542887" version="4" timestamp="2017-04-09T14:42:54Z" changeset="47594767" uid="367380" user="Mloni"/>
  <node id="246879854" lat="48.1520948" lon="11.5601434" version="4" timestamp="2022-10-26T15:02:06Z" changeset="128089233" uid="393359" user="Robot8A"/>
  <node id="679217457" lat="48.1599046" lon="11.5547255" version="3" timestamp="2022-12-28T16:11:00Z" changeset="130609140" uid="2554996" user="Nanoilite"/>
  <node id="1972874111" lat="48.1533886" lon="11.5608298" version="2" timestamp="2017-04-29T19:24:36Z" changeset="48264848" uid="6998" user="saerdnaer">
    <tag k="highway" v="traffic_signals"/>
  </node>
  <node id="2828788601" lat="48.1546273" lon="11.5545168" version="8" timestamp="2024-04-10T19:11:47Z" changeset="149835544" uid="11758604" user="map per">
    <tag k="bus" v="yes"/>
    <tag k="mvv:zone" v="M"/>
    <tag k="name" v="Hochschule München (Lothstraße)"/>
    <tag k="network" v="Münchner Verkehrs- und Tarifverbund"/>
    <tag k="network:guid" v="DE-BY-MVV"/>
    <tag k="network:short" v="MVV"/>
    <tag k="network:wikidata" v="Q259000"/>
    <tag k="operator" v="MVG"/>
    <tag k="public_transport" v="stop_position"/>
    <tag k="ref" v="5"/>
    <tag k="ref:IFOPT" v="de:09162:12:5:5"/>
  </node>
  <node id="3184231757" lat="48.1561451" lon="11.5615692" version="1" timestamp="2014-11-13T08:59:07Z" changeset="26751643" uid="26299" user="uboot"/>
  <node id="3195741456" lat="48.1536665" lon="11.5547289" version="3" timestamp="2023-02-01T14:20:27Z" changeset="131965744" uid="531886" user="drlellinger">
    <tag k="highway" v="traffic_signals"/>
    <tag k="traffic_signals:direction" v="forward"/>
  </node>
  <node id="3588013134" lat="48.1572060" lon="11.5621298" version="9" timestamp="2025-04-01T10:25:47Z" changeset="164367888" uid="170763" user="SoulCover">
    <tag k="button_operated" v="no"/>
    <tag k="crossing:island" v="no"/>
    <tag k="crossing:signals" v="yes"/>
    <tag k="highway" v="crossing"/>
    <tag k="tactile_paving" v="no"/>
    <tag k="traffic_signals:sound" v="yes"/>
    <tag k="traffic_signals:vibration" v="yes"/>
  </node>
  <node id="4825725133" lat="48.1525782" lon="11.5605696" version="2" timestamp="2017-04-29T19:24:37Z" changeset="48264848" uid="6998" user="saerdnaer"/>
  <node id="10111593434" lat="48.1513209" lon="11.5586503" version="1" timestamp="2022-10-18T15:17:14Z" changeset="127733122" uid="999279" user="mc64"/>
  <way id="4000195" version="31" timestamp="2024-06-29T09:20:02Z" changeset="153323361" uid="13987295" user="Arthur B E">
    <nd ref="361803"/>
    <nd ref="1077566711"/>
    <tag k="bicycle" v="use_sidepath"/>
    <tag k="highway" v="secondary"/>
    <tag k="lanes" v="2"/>
    <tag k="lit" v="yes"/>
    <tag k="maxspeed" v="50"/>
    <tag k="name" v="Dachauer Straße"/>
    <tag k="oneway" v="yes"/>
    <tag k="sidewalk:left" v="no"/>
    <tag k="sidewalk:right" v="separate"/>
    <tag k="smoothness" v="excellent"/>
    <tag k="surface" v="asphalt"/>
    <tag k="tmc" v="DE:27959/27960"/>
  </way>
  <way id="4262232" version="14" timestamp="2024-12-08T17:56:13Z" changeset="160065477" uid="17119645" user="dmlls">
    <nd ref="25576849"/>
    <nd ref="10101081612"/>
    <nd ref="12405178275"/>
    <nd ref="12405178274"/>
    <nd ref="3588013141"/>
    <nd ref="6730035"/>
    <tag k="highway" v="residential"/>
    <tag k="lit" v="yes"/>
    <tag k="maxspeed" v="30"/>
    <tag k="name" v="Schellingstraße"/>
    <tag k="name:etymology:wikidata" v="Q60070"/>
    <tag k="parking:lane:both" v="parallel"/>
    <tag k="sidewalk:both" v="separate"/>
    <tag k="surface" v="asphalt"/>
  </way>
  <way id="4520027" version="28" timestamp="2023-11-08T23:47:25Z" changeset="143801725" uid="3075580" user="Linda89">
    <nd ref="679217457"/>
    <nd ref="692187686"/>
    <nd ref="1542204218"/>
    <nd ref="2786152388"/>
    <nd ref="679217451"/>
    <nd ref="2787301356"/>
    <nd ref="1542204006"/>
    <nd ref="967126053"/>
    <nd ref="1955536"/>
    <tag k="bicycle" v="yes"/>
    <tag k="cycleway:both" v="separate"/>
    <tag k="foot" v="use_sidepath"/>
    <tag k="highway" v="residential"/>
    <tag k="lanes" v="2"/>
    <tag k="lit" v="yes"/>
    <tag k="maxspeed" v="50"/>
    <tag k="name" v="Infanteriestraße"/>
    <tag k="sidewalk" v="separate"/>
    <tag k="surface" v="asphalt"/>
  </way>
  <way id="4520029" version="19" timestamp="2024-03-25T07:32:39Z" changeset="149116761" uid="18493611" user="MunichWays">
    <nd ref="6730042"/>
    <nd ref="967126070"/>
    <nd ref="2789272920"/>
    <nd ref="444211737"/>
    <nd ref="4171372279"/>
    <nd ref="25576841"/>
    <nd ref="4228712689"/>
    <nd ref="2789275785"/>
    <nd ref="2789200544"/>
    <nd ref="4228712735"/>
    <nd ref="2789200492"/>
    <nd ref="2789200517"/>
    <nd ref="2789200479"/>
    <nd ref="25576842"/>
    <nd ref="10101081611"/>
    <nd ref="25576849"/>
    <tag k="class:bicycle" v="-1"/>
    <tag k="highway" v="residential"/>
    <tag k="maxspeed" v="30"/>
    <tag k="name" v="Schellingstraße"/>
    <tag k="name:etymology:wikidata" v="Q60070"/>
    <tag k="parking:lane:both" v="parallel"/>
    <tag k="sidewalk:both" v="separate"/>
    <tag k="surface" v="asphalt"/>
  </way>
  <way id="4520030" version="24" timestamp="2025-03-10T11:15:24Z" changeset="163437225" uid="16061279" user="YellowSoul">
    <nd ref="27479665"/>
    <nd ref="2787252814"/>
    <nd ref="8589877801"/>
    <nd ref="4927131170"/>
    <nd ref="2787252813"/>
    <nd ref="418983000"/>
    <nd ref="2787252809"/>
    <nd ref="2394230286"/>
    <nd ref="946872553"/>
    <nd ref="25576845"/>
    <tag k="class:bicycle" v="1"/>
    <tag k="cycleway:both" v="no"/>
    <tag k="highway" v="unclassified"/>
    <tag k="lane_markings" v="no"/>
    <tag k="maxspeed" v="50"/>
    <tag k="name" v="Heßstraße"/>
    <tag k="name:etymology:wikidata" v="Q76135"/>
    <tag k="parking:condition:both" v="residents;disc"/>
    <tag k="parking:condition:both:maxstay" v="4 h"/>
    <tag k="parking:right" v="street_side"/>
    <tag k="parking:right:orientation" v="parallel"/>
    <tag k="sidewalk" v="both"/>
    <tag k="smoothness" v="good"/>
    <tag k="surface" v="asphalt"/>
  </way>
  <way id="4645396" version="18" timestamp="2024-02-10T20:04:21Z" changeset="147306550" uid="14742734" user="The_Nickname">
    <nd ref="25576850"/>
    <nd ref="11608548077"/>
    <nd ref="2789200523"/>
    <nd ref="10101081610"/>
    <nd ref="25576849"/>
    <nd ref="8748896772"/>
    <nd ref="444211748"/>
    <nd ref="11051418089"/>
    <nd ref="1843938668"/>
    <tag k="highway" v="residential"/>
    <tag k="lit" v="yes"/>
    <tag k="maxspeed" v="30"/>
    <tag k="name" v="Winzererstraße"/>
    <tag k="name:etymology:wikidata" v="Q1735060"/>
    <tag k="sidewalk:both" v="separate"/>
    <tag k="surface" v="asphalt"/>
  </way>
  <way id="16786171" version="20" timestamp="2024-08-14T19:05:54Z" changeset="155255800" uid="14742734" user="The_Nickname">
    <nd ref="25576850"/>
    <nd ref="4322460089"/>
    <nd ref="4475024850"/>
    <nd ref="950634156"/>
    <nd ref="1972874111"/>
    <tag k="class:bicycle" v="1"/>
    <tag k="cycleway:both" v="no"/>
    <tag k="highway" v="residential"/>
    <tag k="lit" v="yes"/>
    <tag k="maxspeed" v="30"/>
    <tag k="name" v="Heßstraße"/>
    <tag k="oneway" v="yes"/>
    <tag k="oneway:bicycle" v="no"/>
    <tag k="sidewalk:both" v="separate"/>
    <tag k="smoothness" v="good"/>
    <tag k="surface" v="asphalt"/>
    <tag k="width" v="9"/>
  </way>
  <way id="24998128" version="16" timestamp="2025-05-13T13:17:12Z" changeset="166202633" uid="170763" user="SoulCover">
    <nd ref="25576847"/>
    <nd ref="10291599701"/>
    <nd ref="10291599700"/>
    <nd ref="1041093298"/>
    <nd ref="946836355"/>
    <nd ref="967126093"/>
    <tag k="highway" v="residential"/>
    <tag k="lit" v="yes"/>
    <tag k="maxspeed" v="30"/>
    <tag k="name" v="Winzererstraße"/>
    <tag k="oneway" v="yes"/>
    <tag k="sidewalk" v="both"/>
    <tag k="sidewalk:both:surface" v="paving_stones"/>
    <tag k="smoothness" v="excellent"/>
    <tag k="surface" v="asphalt"/>
    <tag k="width" v="3.9"/>
  </way>
  <way id="24998184" version="12" timestamp="2024-02-10T20:04:21Z" changeset="147306550" uid="14742734" user="The_Nickname">
    <nd ref="25576841"/>
    <nd ref="8748896753"/>
    <nd ref="11608548075"/>
    <nd ref="271755125"/>
    <tag k="highway" v="residential"/>
    <tag k="maxspeed" v="30"/>
    <tag k="name" v="Cranachstraße"/>
    <tag k="name:etymology:wikidata" v="Q191748"/>
    <tag k="oneway" v="yes"/>
    <tag k="parking:condition:both" v="residents"/>
    <tag k="parking:condition:both:default" v="free"/>
    <tag k="parking:condition:both:residents" v="Schleißheimer Straße"/>
    <tag k="parking:condition:both:time_interval" v="Mo-Sa 09:00-23:00"/>
    <tag k="parking:lane:both" v="parallel"/>
    <tag k="sidewalk:both" v="separate"/>
    <tag k="surface" v="sett"/>
  </way>
  <way id="24998362" version="21" timestamp="2025-05-13T13:17:09Z" changeset="166202626" uid="170763" user="SoulCover">
    <nd ref="25576845"/>
    <nd ref="946836361"/>
    <nd ref="27737373"/>
    <nd ref="271755125"/>
    <nd ref="25576844"/>
    <nd ref="4228712703"/>
    <nd ref="4228712754"/>
    <nd ref="1077606506"/>
    <nd ref="25576843"/>
    <nd ref="3528517050"/>
    <nd ref="25576129"/>
    <nd ref="4322460121"/>
    <nd ref="4322460136"/>
    <nd ref="2789170980"/>
    <nd ref="4322460091"/>
    <nd ref="25576850"/>
    <tag k="class:bicycle" v="1"/>
    <tag k="cycleway:both" v="no"/>
    <tag k="highway" v="residential"/>
    <tag k="lit" v="yes"/>
    <tag k="maxspeed" v="30"/>
    <tag k="name" v="Heßstraße"/>
    <tag k="oneway" v="yes"/>
    <tag k="oneway:bicycle" v="no"/>
    <tag k="sidewalk:both" v="separate"/>
    <tag k="smoothness" v="good"/>
    <tag k="surface" v="asphalt"/>
  </way>
  <way id="37693940" version="9" timestamp="2023-10-20T10:54:53Z" changeset="142864386" uid="531886" user="drlellinger">
    <nd ref="442006816"/>
    <nd ref="2773686839"/>
    <nd ref="2773686893"/>
    <nd ref="442006810"/>
    <nd ref="2773686855"/>
    <nd ref="442006811"/>
    <nd ref="3831549081"/>
    <nd ref="442006812"/>
    <nd ref="2773686836"/>
    <nd ref="442006814"/>
    <nd ref="442005154"/>
    <nd ref="3831549082"/>
    <nd ref="442006815"/>
    <nd ref="442005156"/>
    <nd ref="442005155"/>
    <nd ref="442006816"/>
    <tag k="addr:city" v="München"/>
    <tag k="addr:country" v="DE"/>
    <tag k="addr:housenumber" v="62"/>
    <tag k="addr:postcode" v="80335"/>
    <tag k="addr:street" v="Lothstraße"/>
    <tag k="building" v="dormitory"/>
    <tag k="building:levels" v="4"/>
    <tag k="operator" v="Studentenwerk München"/>
  </way>
  <way id="38759698" version="19" timestamp="2024-05-09T09:58:35Z" changeset="151090279" uid="13987295" user="Arthur B E">
    <nd ref="1659064515"/>
    <nd ref="3528516642"/>
    <nd ref="3195741456"/>
    <tag k="bicycle" v="use_sidepath"/>
    <tag k="foot" v="use_sidepath"/>
    <tag k="highway" v="secondary"/>
    <tag k="lanes" v="2"/>
    <tag k="lit" v="yes"/>
    <tag k="maxspeed" v="50"/>
    <tag k="name" v="Dachauer Straße"/>
    <tag k="oneway" v="yes"/>
    <tag k="parking:left" v="no"/>
    <tag k="sidewalk:left" v="no"/>
    <tag k="sidewalk:right" v="separate"/>
    <tag k="smoothness" v="good"/>
    <tag k="surface" v="asphalt"/>
    <tag k="tmc" v="DE:27959/27960"/>
  </way>
  <way id="39322226" version="26" timestamp="2025-05-09T07:44:54Z" changeset="166015014" uid="16061279" user="YellowSoul">
    <nd ref="1955536"/>
    <nd ref="529366448"/>
    <nd ref="1542204165"/>
    <nd ref="3811913891"/>
    <nd ref="13883946"/>
    <nd ref="3811915058"/>
    <nd ref="1077606476"/>
    <nd ref="1077606433"/>
    <nd ref="967126093"/>
    <tag k="bicycle" v="yes"/>
    <tag k="class:bicycle" v="1"/>
    <tag k="cycleway:left" v="separate"/>
    <tag k="cycleway:right" v="lane"/>
    <tag k="cycleway:right:lane" v="exclusive"/>
    <tag k="foot" v="use_sidepath"/>
    <tag k="highway" v="tertiary"/>
    <tag k="lanes" v="2"/>
    <tag k="lit" v="yes"/>
    <tag k="maxspeed" v="50"/>
    <tag k="name" v="Lothstraße"/>
    <tag k="name:etymology:wikidata" v="Q1696418"/>
    <tag k="parking:both" v="yes"/>
    <tag k="parking:both:orientation" v="parallel"/>
    <tag k="sidewalk:both" v="separate"/>
    <tag k="smoothness" v="excellent"/>
    <tag k="surface" v="asphalt"/>
  </way>
  <way id="97390347" version="13" timestamp="2024-02-10T18:13:50Z" changeset="147303135" uid="14742734" user="The_Nickname">
    <nd ref="1127962866"/>
    <nd ref="6482326562"/>
    <nd ref="1127962830"/>
    <nd ref="1127962898"/>
    <nd ref="1127962943"/>
    <nd ref="11342319823"/>
    <nd ref="11573401882"/>
    <nd ref="11573401883"/>
    <nd ref="1127962992"/>
    <nd ref="1127962863"/>
    <nd ref="10589061173"/>
    <nd ref="1127962866"/>
    <tag k="access" v="customers"/>
    <tag k="addr:city" v="München"/>
    <tag k="addr:country" v="DE"/>
    <tag k="addr:housenumber" v="64"/>
    <tag k="addr:postcode" v="80335"/>
    <tag k="addr:street" v="Lothstraße"/>
    <tag k="building" v="university"/>
    <tag k="building:colour" v="red"/>
    <tag k="building:levels" v="2"/>
    <tag k="description" v="Erdgeschoss: Cafe für Studentenwerk-Karten-Besitzer&#x0a;1. Obergeschoss: Hörsaal R1.046"/>
    <tag k="name" v="Roter Würfel"/>
    <tag k="roof:shape" v="flat"/>
    <tag k="wheelchair" v="yes"/>
  </way>
  <way id="97399424" version="21" timestamp="2024-10-25T09:27:03Z" changeset="158328404" uid="531886" user="drlellinger">
    <nd ref="3528516653"/>
    <nd ref="3528516652"/>
    <nd ref="3528516650"/>
    <nd ref="3528516649"/>
    <nd ref="3528516647"/>
    <nd ref="1127962961"/>
    <nd ref="3528516645"/>
    <nd ref="3528516646"/>
    <nd ref="1127962858"/>
    <nd ref="1127962806"/>
    <nd ref="1127962956"/>
    <nd ref="1129823002"/>
    <nd ref="1127962798"/>
    <nd ref="1127962872"/>
    <nd ref="1127962844"/>
    <nd ref="1127962861"/>
    <nd ref="1659064528"/>
    <nd ref="1127962815"/>
    <nd ref="1127963015"/>
    <nd ref="3528517032"/>
    <nd ref="3528517054"/>
    <nd ref="1659064537"/>
    <nd ref="1127962840"/>
    <nd ref="1127963000"/>
    <nd ref="1127962996"/>
    <nd ref="1127962944"/>
    <nd ref="1127962916"/>
    <nd ref="3528517082"/>
    <nd ref="3528517084"/>
    <nd ref="3528517086"/>
    <nd ref="1127962825"/>
    <nd ref="1127962860"/>
    <nd ref="3528517100"/>
    <nd ref="1127962863"/>
    <nd ref="1127962992"/>
    <nd ref="11573401883"/>
    <nd ref="11573401882"/>
    <nd ref="11342319823"/>
    <nd ref="1127962943"/>
    <nd ref="1127962898"/>
    <nd ref="3528517112"/>
    <nd ref="3528517115"/>
    <nd ref="442006471"/>
    <nd ref="1127962959"/>
    <nd ref="1127962864"/>
    <nd ref="3528517076"/>
    <nd ref="1127962875"/>
    <nd ref="1127962823"/>
    <nd ref="3528517068"/>
    <nd ref="1127962900"/>
    <nd ref="1127962977"/>
    <nd ref="12287747079"/>
    <nd ref="1127962846"/>
    <nd ref="3528517059"/>
    <nd ref="3528517052"/>
    <nd ref="1127962985"/>
    <nd ref="1127962849"/>
    <nd ref="1127962946"/>
    <nd ref="1127962958"/>
    <nd ref="3528516687"/>
    <nd ref="3528516996"/>
    <nd ref="3528517002"/>
    <nd ref="3528516999"/>
    <nd ref="3528517000"/>
    <nd ref="3528517001"/>
    <nd ref="3528517003"/>
    <nd ref="3528517006"/>
    <nd ref="12287747063"/>
    <nd ref="3528517009"/>
    <nd ref="12287747064"/>
    <nd ref="3528517014"/>
    <nd ref="3528517015"/>
    <nd ref="3528517010"/>
    <nd ref="3528517030"/>
    <nd ref="3528517042"/>
    <nd ref="3528517051"/>
    <nd ref="3528517046"/>
    <nd ref="3762911713"/>
    <nd ref="3762911714"/>
    <nd ref="3762911712"/>
    <nd ref="3762911711"/>
    <nd ref="3762911710"/>
    <nd ref="3762911709"/>
    <nd ref="3762911708"/>
    <nd ref="3762911707"/>
    <nd ref="3762911706"/>
    <nd ref="3762911705"/>
    <nd ref="3762911704"/>
    <nd ref="3762911703"/>
    <nd ref="3762911702"/>
    <nd ref="3762911701"/>
    <nd ref="3762911700"/>
    <nd ref="3762911699"/>
    <nd ref="3762911698"/>
    <nd ref="3528516997"/>
    <nd ref="3528516681"/>
    <nd ref="3528516679"/>
    <nd ref="3528516675"/>
    <nd ref="3528516665"/>
    <nd ref="3528516677"/>
    <nd ref="3528516663"/>
    <nd ref="1127962845"/>
    <nd ref="1129823004"/>
    <nd ref="1127962951"/>
    <nd ref="3528516653"/>
    <tag k="addr:city" v="München"/>
    <tag k="addr:country" v="DE"/>
    <tag k="addr:housenumber" v="64"/>
    <tag k="addr:postcode" v="80335"/>
    <tag k="addr:street" v="Lothstraße"/>
    <tag k="alt_name" v="R-Bau"/>
    <tag k="building" v="university"/>
    <tag k="building:levels" v="3"/>
    <tag k="building:levels:underground" v="2"/>
    <tag k="building:prefabricated" v="no"/>
    <tag k="image" v="https://upload.wikimedia.org/wikipedia/commons/6/64/Hochschule_Muenchen_Ansicht_Lothstrasse.jpg"/>
    <tag k="name" v="Gebäude R"/>
    <tag k="polling_station" v="no"/>
    <tag k="ref" v="R"/>
    <tag k="smoking" v="no"/>
    <tag k="start_date" v="2004"/>
    <tag k="wheelchair" v="yes"/>
    <tag k="wikimedia_commons" v="File:Hochschule_Muenchen_Ansicht_Lothstrasse.jpg"/>
  </way>
  <way id="172457732" version="17" timestamp="2025-05-16T21:53:06Z" changeset="166370569" uid="531886" user="drlellinger">
    <nd ref="1077566711"/>
    <nd ref="2768215600"/>
    <nd ref="2786251086"/>
    <nd ref="1833633054"/>
    <nd ref="12843100347"/>
    <nd ref="1833633055"/>
    <nd ref="4471506476"/>
    <nd ref="1659064515"/>
    <tag k="bicycle" v="use_sidepath"/>
    <tag k="highway" v="secondary"/>
    <tag k="lanes" v="2"/>
    <tag k="lit" v="yes"/>
    <tag k="maxspeed" v="50"/>
    <tag k="name" v="Dachauer Straße"/>
    <tag k="oneway" v="yes"/>
    <tag k="parking:left" v="no"/>
    <tag k="sidewalk:left" v="no"/>
    <tag k="sidewalk:right" v="separate"/>
    <tag k="smoothness" v="excellent"/>
    <tag k="source:maxspeed" v="DE:urban"/>
    <tag k="surface" v="asphalt"/>
    <tag k="tmc" v="DE:27959/27960"/>
    <tag k="width" v="8.5"/>
  </way>
  <way id="186553873" version="17" timestamp="2025-03-31T09:16:44Z" changeset="164319938" uid="22537807" user="CityMappingSuperhero">
    <nd ref="4825725133"/>
    <nd ref="4338079345"/>
    <nd ref="12715535150"/>
    <nd ref="1955498"/>
    <tag k="bicycle" v="yes"/>
    <tag k="class:bicycle" v="-2"/>
    <tag k="cycleway:both" v="lane"/>
    <tag k="cycleway:both:lane" v="advisory"/>
    <tag k="foot" v="use_sidepath"/>
    <tag k="highway" v="secondary"/>
    <tag k="lanes" v="3"/>
    <tag k="lanes:backward" v="1"/>
    <tag k="lanes:forward" v="2"/>
    <tag k="lit" v="yes"/>
    <tag k="maxspeed" v="50"/>
    <tag k="name" v="Schleißheimer Straße"/>
    <tag k="oneway" v="no"/>
    <tag k="shoulder" v="no"/>
    <tag k="sidewalk:both" v="separate"/>
    <tag k="surface" v="asphalt"/>
    <tag k="width" v="11.5"/>
    <tag k="width:lanes" v="1.25|3.25|2.75|3|1.25"/>
  </way>
  <way id="278513971" version="20" timestamp="2024-05-09T09:26:55Z" changeset="151090132" uid="13987295" user="Arthur B E">
    <nd ref="2828788601"/>
    <nd ref="11273969843"/>
    <nd ref="1659064546"/>
    <nd ref="2773686872"/>
    <nd ref="2773686854"/>
    <nd ref="1659064558"/>
    <nd ref="442006470"/>
    <nd ref="4184324340"/>
    <nd ref="1737279708"/>
    <tag k="bicycle" v="yes"/>
    <tag k="class:bicycle" v="2"/>
    <tag k="cycleway:both" v="lane"/>
    <tag k="cycleway:both:lane" v="exclusive"/>
    <tag k="foot" v="use_sidepath"/>
    <tag k="highway" v="tertiary"/>
    <tag k="lanes" v="2"/>
    <tag k="lit" v="yes"/>
    <tag k="maxspeed" v="50"/>
    <tag k="name" v="Lothstraße"/>
    <tag k="parking:both:orientation" v="parallel"/>
    <tag k="parking:left" v="lane"/>
    <tag k="parking:right" v="street_side"/>
    <tag k="sidewalk" v="separate"/>
    <tag k="smoothness" v="excellent"/>
    <tag k="surface" v="asphalt"/>
  </way>
  <way id="292630184" version="11" timestamp="2023-11-21T10:44:54Z" changeset="144281363" uid="2409957" user="firefoxinspace">
    <nd ref="1737279708"/>
    <nd ref="25576845"/>
    <nd ref="6730042"/>
    <nd ref="2773665296"/>
    <tag k="bicycle" v="yes"/>
    <tag k="class:bicycle" v="1"/>
    <tag k="cycleway:left" v="separate"/>
    <tag k="cycleway:right" v="lane"/>
    <tag k="cycleway:right:lane" v="exclusive"/>
    <tag k="foot" v="use_sidepath"/>
    <tag k="highway" v="tertiary"/>
    <tag k="lanes" v="2"/>
    <tag k="lit" v="yes"/>
    <tag k="maxspeed" v="50"/>
    <tag k="name" v="Lothstraße"/>
    <tag k="parking:lane:left" v="diagonal"/>
    <tag k="parking:lane:right" v="parallel"/>
    <tag k="sidewalk" v="separate"/>
    <tag k="smoothness" v="excellent"/>
    <tag k="surface" v="asphalt"/>
  </way>
  <way id="312549779" version="11" timestamp="2025-02-21T17:19:13Z" changeset="162786681" uid="22537807" user="CityMappingSuperhero">
    <nd ref="2739597053"/>
    <nd ref="2739597062"/>
    <nd ref="2789200429"/>
    <nd ref="2789200485"/>
    <nd ref="10291643610"/>
    <nd ref="25576846"/>
    <nd ref="946836368"/>
    <nd ref="1955536"/>
    <tag k="class:bicycle" v="1"/>
    <tag k="foot" v="use_sidepath"/>
    <tag k="highway" v="residential"/>
    <tag k="lit" v="yes"/>
    <tag k="maxspeed" v="30"/>
    <tag k="name" v="Görresstraße"/>
    <tag k="name:etymology:wikidata" v="Q215730"/>
    <tag k="sidewalk" v="separate"/>
    <tag k="smoothness" v="good"/>
    <tag k="surface" v="asphalt"/>
    <tag k="width" v="9.9"/>
  </way>
  <way id="312549780" version="6" timestamp="2022-12-28T16:11:00Z" changeset="130609140" uid="2554996" user="Nanoilite">
    <nd ref="1843938668"/>
    <nd ref="10291643616"/>
    <nd ref="10291599702"/>
    <nd ref="10291599694"/>
    <nd ref="25576847"/>
    <tag k="highway" v="residential"/>
    <tag k="lit" v="yes"/>
    <tag k="maxspeed" v="30"/>
    <tag k="name" v="Winzererstraße"/>
    <tag k="name:etymology:wikidata" v="Q1735060"/>
    <tag k="parking:condition:both" v="residents"/>
    <tag k="parking:condition:both:default" v="free"/>
    <tag k="parking:condition:both:residents" v="Schleißheimer Straße"/>
    <tag k="parking:condition:both:time_interval" v="Mo-Sa 09:00-23:00"/>
    <tag k="parking:lane:left" v="parallel"/>
    <tag k="parking:lane:right" v="diagonal"/>
    <tag k="sidewalk" v="both"/>
    <tag k="surface" v="asphalt"/>
  </way>
  <way id="313576543" version="11" timestamp="2025-05-14T10:32:33Z" changeset="166248108" uid="170763" user="SoulCover">
    <nd ref="3195741456"/>
    <nd ref="3528516657"/>
    <nd ref="3528517035"/>
    <nd ref="967126082"/>
    <nd ref="20980542"/>
    <tag k="bicycle" v="use_sidepath"/>
    <tag k="foot" v="use_sidepath"/>
    <tag k="highway" v="secondary"/>
    <tag k="lanes" v="2"/>
    <tag k="lit" v="yes"/>
    <tag k="maxspeed" v="50"/>
    <tag k="name" v="Dachauer Straße"/>
    <tag k="oneway" v="yes"/>
    <tag k="parking:both" v="no"/>
    <tag k="sidewalk:left" v="no"/>
    <tag k="sidewalk:right" v="separate"/>
    <tag k="smoothness" v="good"/>
    <tag k="surface" v="asphalt"/>
    <tag k="tmc" v="DE:27959/27960"/>
    <tag k="turn:lanes" v="through|through;right"/>
  </way>
  <way id="372739498" version="5" timestamp="2023-05-17T10:43:18Z" changeset="136206681" uid="531886" user="drlellinger">
    <nd ref="3528517046"/>
    <nd ref="3528517045"/>
    <nd ref="3528517044"/>
    <nd ref="3528517043"/>
    <nd ref="3528517039"/>
    <nd ref="3528517036"/>
    <nd ref="3528517034"/>
    <nd ref="3528517028"/>
    <nd ref="3528517024"/>
    <nd ref="3528517017"/>
    <nd ref="3528517011"/>
    <nd ref="3528517005"/>
    <nd ref="3528516998"/>
    <nd ref="3528516692"/>
    <nd ref="3528516691"/>
    <nd ref="3528516993"/>
    <nd ref="3528516997"/>
    <nd ref="3762911698"/>
    <nd ref="3762911699"/>
    <nd ref="3762911700"/>
    <nd ref="3762911701"/>
    <nd ref="3762911702"/>
    <nd ref="3762911703"/>
    <nd ref="3762911704"/>
    <nd ref="3762911705"/>
    <nd ref="3762911706"/>
    <nd ref="3762911707"/>
    <nd ref="3762911708"/>
    <nd ref="3762911709"/>
    <nd ref="3762911710"/>
    <nd ref="3762911711"/>
    <nd ref="3762911712"/>
    <nd ref="3762911714"/>
    <nd ref="3762911713"/>
    <nd ref="3528517046"/>
    <tag k="building" v="university"/>
    <tag k="building:colour" v="blue"/>
    <tag k="building:levels" v="3"/>
    <tag k="name" v="Falk F. Strascheg Hörsaal / Blaue Tonne"/>
    <tag k="ref" v="R1.049"/>
    <tag k="room" v="auditorium"/>
    <tag k="wheelchair" v="yes"/>
  </way>
  <way id="392103885" version="11" timestamp="2025-02-21T17:20:27Z" changeset="162786681" uid="22537807" user="CityMappingSuperhero">
    <nd ref="3184231757"/>
    <nd ref="4825239739"/>
    <nd ref="2789251774"/>
    <nd ref="10291599703"/>
    <nd ref="1843938668"/>
    <tag k="class:bicycle" v="1"/>
    <tag k="highway" v="residential"/>
    <tag k="lit" v="yes"/>
    <tag k="maxspeed" v="30"/>
    <tag k="name" v="Görresstraße"/>
    <tag k="name:etymology:wikidata" v="Q215730"/>
    <tag k="sidewalk:both" v="separate"/>
    <tag k="smoothness" v="good"/>
    <tag k="surface" v="asphalt"/>
    <tag k="width" v="9.4"/>
  </way>
  <way id="433685600" version="5" timestamp="2025-05-15T16:50:31Z" changeset="166314585" uid="170763" user="SoulCover">
    <nd ref="4322460087"/>
    <nd ref="4322460164"/>
    <nd ref="4322460064"/>
    <nd ref="4322460005"/>
    <nd ref="4322460185"/>
    <nd ref="4322460087"/>
    <tag k="building" v="yes"/>
    <tag k="building:levels" v="1"/>
    <tag k="building:material" v="concrete:plates"/>
    <tag k="man_made" v="monitoring_station"/>
    <tag k="monitoring:air_quality" v="yes"/>
    <tag k="name" v="Luftgüte-Messstation"/>
    <tag k="operator" v="Bayerisches Landesamt für Umwelt"/>
    <tag k="recording:automated" v="yes"/>
    <tag k="recording:remote" v="yes"/>
    <tag k="roof:shape" v="flat"/>
    <tag k="website" v="https://www.lfu.bayern.de/luft/"/>
  </way>
  <way id="456486315" version="12" timestamp="2025-03-22T21:16:15Z" changeset="163964538" uid="44217" user="kjon">
    <nd ref="10111593434"/>
    <nd ref="4790383003"/>
    <nd ref="3775036590"/>
    <nd ref="773275867"/>
    <nd ref="361803"/>
    <tag k="bicycle" v="use_sidepath"/>
    <tag k="highway" v="secondary"/>
    <tag k="incline" v="up"/>
    <tag k="lanes" v="2"/>
    <tag k="lit" v="yes"/>
    <tag k="maxspeed" v="50"/>
    <tag k="name" v="Maßmannstraße"/>
    <tag k="name:etymology:wikidata" v="Q68085"/>
    <tag k="oneway" v="yes"/>
    <tag k="parking:both" v="no"/>
    <tag k="parking:condition:both" v="no_stopping"/>
    <tag k="sidewalk:left" v="yes"/>
    <tag k="sidewalk:left:surface" v="paving_stones"/>
    <tag k="sidewalk:right" v="separate"/>
    <tag k="smoothness" v="good"/>
    <tag k="source:maxspeed" v="DE:urban"/>
    <tag k="surface" v="asphalt"/>
  </way>
  <way id="490386700" version="6" timestamp="2023-03-27T15:18:20Z" changeset="134182551" uid="18493611" user="MunichWays">
    <nd ref="1972874111"/>
    <nd ref="8748896842"/>
    <nd ref="4825825586"/>
    <nd ref="4825825587"/>
    <nd ref="4825725133"/>
    <tag k="bicycle" v="yes"/>
    <tag k="class:bicycle" v="-2"/>
    <tag k="cycleway:both" v="lane"/>
    <tag k="cycleway:both:lane" v="advisory"/>
    <tag k="foot" v="use_sidepath"/>
    <tag k="highway" v="secondary"/>
    <tag k="lanes" v="2"/>
    <tag k="lit" v="yes"/>
    <tag k="maxspeed" v="50"/>
    <tag k="name" v="Schleißheimer Straße"/>
    <tag k="oneway" v="no"/>
    <tag k="sidewalk:both" v="separate"/>
    <tag k="surface" v="asphalt"/>
    <tag k="width" v="9.5"/>
    <tag k="width:lanes" v="1.5|3.25|3.25|1.5"/>
  </way>
  <way id="851113019" version="4" timestamp="2025-05-09T11:40:53Z" changeset="166023995" uid="18850925" user="cableway">
    <nd ref="3588013134"/>
    <nd ref="5245663026"/>
    <nd ref="25576847"/>
    <nd ref="946836372"/>
    <nd ref="13883946"/>
    <tag k="class:bicycle" v="1"/>
    <tag k="cycleway:both" v="no"/>
    <tag k="highway" v="residential"/>
    <tag k="lit" v="yes"/>
    <tag k="maxspeed" v="30"/>
    <tag k="name" v="Georgenstraße"/>
    <tag k="parking:lane:both" v="parallel"/>
    <tag k="sidewalk" v="both"/>
    <tag k="surface" v="asphalt"/>
  </way>
  <way id="851177627" version="9" timestamp="2025-05-09T07:44:54Z" changeset="166015014" uid="16061279" user="YellowSoul">
    <nd ref="2773665296"/>
    <nd ref="967126075"/>
    <nd ref="1955536"/>
    <tag k="bicycle" v="yes"/>
    <tag k="class:bicycle" v="1"/>
    <tag k="cycleway:left" v="separate"/>
    <tag k="cycleway:right" v="lane"/>
    <tag k="cycleway:right:lane" v="exclusive"/>
    <tag k="foot" v="use_sidepath"/>
    <tag k="highway" v="tertiary"/>
    <tag k="lanes" v="2"/>
    <tag k="lit" v="yes"/>
    <tag k="maxspeed" v="50"/>
    <tag k="name" v="Lothstraße"/>
    <tag k="parking:left" v="yes"/>
    <tag k="parking:left:orientation" v="parallel"/>
    <tag k="parking:right" v="yes"/>
    <tag k="parking:right:orientation" v="parallel"/>
    <tag k="sidewalk" v="separate"/>
    <tag k="smoothness" v="excellent"/>
    <tag k="surface" v="asphalt"/>
  </way>
  <way id="1104982515" version="6" timestamp="2023-07-11T22:18:47Z" changeset="138397513" uid="17363627" user="FreeMapper98">
    <nd ref="246879854"/>
    <nd ref="1643352149"/>
    <nd ref="10968421313"/>
    <nd ref="3079787399"/>
    <nd ref="10111593433"/>
    <tag k="bicycle" v="use_sidepath"/>
    <tag k="fixme" v="Please provide the position of the parked cars with parking:left=lane|street_side|etc."/>
    <tag k="highway" v="secondary"/>
    <tag k="incline" v="up"/>
    <tag k="lanes" v="2"/>
    <tag k="lit" v="yes"/>
    <tag k="maxspeed" v="50"/>
    <tag k="name" v="Maßmannstraße"/>
    <tag k="name:etymology:wikidata" v="Q68085"/>
    <tag k="oneway" v="yes"/>
    <tag k="parking:left:orientation" v="parallel"/>
    <tag k="parking:right" v="no"/>
    <tag k="parking:right:restriction" v="no_stopping"/>
    <tag k="sidewalk:left" v="yes"/>
    <tag k="sidewalk:left:surface" v="paving_stones"/>
    <tag k="sidewalk:right" v="separate"/>
    <tag k="surface" v="asphalt"/>
  </way>
  <way id="1104982516" version="5" timestamp="2025-03-22T21:16:15Z" changeset="163964538" uid="44217" user="kjon">
    <nd ref="10111593433"/>
    <nd ref="10111593434"/>
    <tag k="bicycle" v="use_sidepath"/>
    <tag k="highway" v="secondary"/>
    <tag k="incline" v="up"/>
    <tag k="lanes" v="2"/>
    <tag k="lit" v="yes"/>
    <tag k="maxspeed" v="50"/>
    <tag k="name" v="Maßmannstraße"/>
    <tag k="name:etymology:wikidata" v="Q68085"/>
    <tag k="oneway" v="yes"/>
    <tag k="parking:both" v="no"/>
    <tag k="parking:condition:left" v="no_stopping"/>
    <tag k="parking:condition:right" v="no_parking"/>
    <tag k="sidewalk:left" v="yes"/>
    <tag k="sidewalk:left:surface" v="paving_stones"/>
    <tag k="sidewalk:right" v="separate"/>
    <tag k="surface" v="asphalt"/>
  </way>
  <way id="1125436667" version="4" timestamp="2025-02-21T17:19:38Z" changeset="162786681" uid="22537807" user="CityMappingSuperhero">
    <nd ref="1843938668"/>
    <nd ref="10291599704"/>
    <nd ref="10291599697"/>
    <nd ref="2739597053"/>
    <tag k="class:bicycle" v="1"/>
    <tag k="highway" v="residential"/>
    <tag k="lit" v="yes"/>
    <tag k="maxspeed" v="30"/>
    <tag k="name" v="Görresstraße"/>
    <tag k="name:etymology:wikidata" v="Q215730"/>
    <tag k="sidewalk" v="separate"/>
    <tag k="smoothness" v="good"/>
    <tag k="surface" v="asphalt"/>
    <tag k="width" v="9.4"/>
  </way>
  <way id="1221489640" version="2" timestamp="2023-11-07T12:33:40Z" changeset="143735222" uid="531886" user="drlellinger">
    <nd ref="4228577600"/>
    <nd ref="11331030188"/>
    <nd ref="11331030172"/>
    <nd ref="11331030173"/>
    <nd ref="4213118301"/>
    <nd ref="6482326993"/>
    <nd ref="279302753"/>
    <nd ref="2773686837"/>
    <nd ref="6482326992"/>
    <nd ref="6482326997"/>
    <nd ref="2773686862"/>
    <nd ref="6482327000"/>
    <nd ref="4228577594"/>
    <nd ref="6482326995"/>
    <nd ref="6482326574"/>
    <nd ref="279302121"/>
    <nd ref="4322460035"/>
    <nd ref="4322460144"/>
    <nd ref="4322460075"/>
    <nd ref="4322460016"/>
    <nd ref="2773686845"/>
    <nd ref="4228577603"/>
    <nd ref="6439626638"/>
    <nd ref="11328853121"/>
    <nd ref="4228577597"/>
    <nd ref="4228577592"/>
    <nd ref="4228577600"/>
    <tag k="building" v="university"/>
    <tag k="name" v="Gebäude B"/>
  </way>
  <relation id="156362" version="5" timestamp="2023-08-22T09:23:32Z" changeset="140219521" uid="531886" user="drlellinger">
    <member type="way" ref="35834765" role="outer"/>
    <member type="way" ref="35834767" role="inner"/>
    <member type="way" ref="35834766" role="inner"/>
    <tag k="addr:city" v="München"/>
    <tag k="addr:housenumber" v="9"/>
    <tag k="addr:postcode" v="80797"/>
    <tag k="addr:street" v="Winzererstraße"/>
    <tag k="building" v="public"/>
    <tag k="office" v="government"/>
    <tag k="roof:shape" v="flat"/>
    <tag k="type" v="multipolygon"/>
    <tag k="website" v="https://www.stmas.bayern.de/"/>
  </relation>
  <relation id="168809" version="7" timestamp="2023-10-19T07:09:00Z" changeset="142797364" uid="531886" user="drlellinger">
    <member type="way" ref="37437553" role="inner"/>
    <member type="way" ref="35589806" role="outer"/>
    <tag k="addr:city" v="München"/>
    <tag k="addr:housenumber" v="77"/>
    <tag k="addr:postcode" v="80797"/>
    <tag k="addr:street" v="Heßstraße"/>
    <tag k="building" v="dormitory"/>
    <tag k="building:levels" v="2"/>
    <tag k="operator" v="Wohnheimsiedlung Massmannplatz e.V."/>
    <tag k="roof:levels" v="0"/>
    <tag k="type" v="multipolygon"/>
    <tag k="website" v="https://massmannplatz.de/"/>
  </relation>
  <relation id="1620469" version="5" timestamp="2016-11-29T15:43:34Z" changeset="44037234" uid="753289" user="Marsupium">
    <member type="way" ref="117195430" role="outer"/>
    <member type="way" ref="117195452" role="inner"/>
    <tag k="addr:city" v="München"/>
    <tag k="addr:country" v="DE"/>
    <tag k="addr:housenumber" v="96"/>
    <tag k="addr:postcode" v="80335"/>
    <tag k="addr:street" v="Dachauer Straße"/>
    <tag k="building" v="school"/>
    <tag k="type" v="multipolygon"/>
  </relation>
  <relation id="16659316" version="1" timestamp="2023-11-06T08:03:53Z" changeset="143680566" uid="531886" user="drlellinger">
    <member type="way" ref="25626259" role="outer"/>
    <member type="way" ref="423153578" role="inner"/>
    <member type="way" ref="423153579" role="inner"/>
    <tag k="building" v="university"/>
    <tag k="name" v="Gebäude E"/>
    <tag k="type" v="multipolygon"/>
  </relation>

</osm>
