<?xml version="1.0" encoding="UTF-8"?>
<osm version="0.6" generator="Overpass API 0.7.62.5 1bd436f1">
<note>The data included in this document is from www.openstreetmap.org. The data is made available under ODbL.</note>
<meta osm_base="2025-05-18T03:21:02Z" areas="2024-12-31T00:49:33Z"/>

  <node id="1954920" lat="48.1409177" lon="11.5985053" version="13" timestamp="2025-03-13T10:36:58Z" changeset="163563957" uid="16061279" user="YellowSoul"/>
  <node id="1954922" lat="48.1409312" lon="11.5989968" version="9" timestamp="2015-03-01T15:11:48Z" changeset="29178817" uid="367380" user="Mloni"/>
  <node id="28097231" lat="48.1327258" lon="11.5912384" version="16" timestamp="2022-10-02T15:40:43Z" changeset="126899168" uid="43972" user="chris66">
    <tag k="button_operated" v="yes"/>
    <tag k="crossing" v="traffic_signals"/>
    <tag k="crossing_ref" v="pelican"/>
    <tag k="highway" v="traffic_signals"/>
    <tag k="tactile_paving" v="no"/>
    <tag k="traffic_signals:sound" v="yes"/>
    <tag k="traffic_signals:vibration" v="yes"/>
  </node>
  <node id="28097234" lat="48.1322359" lon="11.5912573" version="7" timestamp="2012-03-05T22:05:51Z" changeset="10885111" uid="13832" user="Peter14"/>
  <node id="28097332" lat="48.1317134" lon="11.5895995" version="7" timestamp="2022-03-22T16:28:47Z" changeset="118785768" uid="11895847" user="rigilk3nt">
    <tag k="tmc" v="DE:35421"/>
  </node>
  <node id="28097353" lat="48.1317862" lon="11.5894883" version="11" timestamp="2022-03-22T16:28:47Z" changeset="118785768" uid="11895847" user="rigilk3nt">
    <tag k="TMC:cid_58:tabcd_1:Class" v="Point"/>
    <tag k="TMC:cid_58:tabcd_1:Direction" v="negative"/>
    <tag k="TMC:cid_58:tabcd_1:LCLversion" v="8.00"/>
    <tag k="TMC:cid_58:tabcd_1:LocationCode" v="35402"/>
    <tag k="TMC:cid_58:tabcd_1:NextLocationCode" v="27991"/>
    <tag k="TMC:cid_58:tabcd_1:PrevLocationCode" v="27990"/>
    <tag k="tmc" v="DE:35421"/>
  </node>
  <node id="28097358" lat="48.1317912" lon="11.5865749" version="9" timestamp="2015-10-13T11:08:46Z" changeset="34608878" uid="2290263" user="soemisch"/>
  <node id="248565572" lat="48.1325939" lon="11.5908451" version="6" timestamp="2019-11-21T09:26:22Z" changeset="77365317" uid="8748" user="ToniE"/>
  <node id="330927218" lat="48.1315078" lon="11.5877301" version="5" timestamp="2013-11-03T15:00:36Z" changeset="18695542" uid="8748" user="ToniE"/>
  <node id="335664152" lat="48.1407121" lon="11.6000964" version="10" timestamp="2015-10-13T11:57:09Z" changeset="34609881" uid="2290263" user="soemisch">
    <tag k="TMC:cid_58:tabcd_1:Class" v="Point"/>
    <tag k="TMC:cid_58:tabcd_1:Direction" v="both"/>
    <tag k="TMC:cid_58:tabcd_1:LCLversion" v="9.00"/>
    <tag k="TMC:cid_58:tabcd_1:LocationCode" v="27981"/>
    <tag k="TMC:cid_58:tabcd_1:NextLocationCode" v="27982"/>
    <tag k="TMC:cid_58:tabcd_1:PrevLocationCode" v="27980"/>
  </node>
  <node id="424275442" lat="48.1368339" lon="11.5966920" version="3" timestamp="2012-03-17T17:13:43Z" changeset="11010218" uid="13832" user="Peter14"/>
  <node id="430234724" lat="48.1366777" lon="11.5981307" version="4" timestamp="2012-03-24T13:24:09Z" changeset="11084269" uid="64536" user="Michael Forster"/>
  <node id="430234728" lat="48.1373162" lon="11.5984305" version="5" timestamp="2012-03-24T13:24:09Z" changeset="11084269" uid="64536" user="Michael Forster"/>
  <node id="430234730" lat="48.1365502" lon="11.5966371" version="4" timestamp="2013-11-08T18:29:53Z" changeset="18787167" uid="8748" user="ToniE"/>
  <node id="609553064" lat="48.1342972" lon="11.5969435" version="5" timestamp="2012-03-24T16:02:20Z" changeset="11085865" uid="64536" user="Michael Forster"/>
  <node id="637877338" lat="48.1356748" lon="11.5978922" version="15" timestamp="2024-04-22T21:32:57Z" changeset="150367022" uid="137242" user="Rainero">
    <tag k="TMC:cid_58:tabcd_1:Class" v="Point"/>
    <tag k="TMC:cid_58:tabcd_1:Direction" v="both"/>
    <tag k="TMC:cid_58:tabcd_1:LCLversion" v="9.00"/>
    <tag k="TMC:cid_58:tabcd_1:LocationCode" v="35423"/>
    <tag k="TMC:cid_58:tabcd_1:PrevLocationCode" v="35422"/>
    <tag k="railway" v="tram_level_crossing"/>
  </node>
  <node id="1337701122" lat="48.1341767" lon="11.5962530" version="6" timestamp="2019-11-21T09:26:22Z" changeset="77365317" uid="8748" user="ToniE"/>
  <node id="1351611447" lat="48.1349137" lon="11.5976048" version="3" timestamp="2012-03-24T16:02:17Z" changeset="11085865" uid="64536" user="Michael Forster"/>
  <node id="1670330671" lat="48.1351497" lon="11.5977867" version="3" timestamp="2023-10-09T04:16:09Z" changeset="142330028" uid="206929" user="Supt_of_Printing"/>
  <node id="1688588916" lat="48.1357271" lon="11.5978875" version="6" timestamp="2024-04-22T21:32:57Z" changeset="150367022" uid="137242" user="Rainero">
    <tag k="TMC:cid_58:tabcd_1:Class" v="Point"/>
    <tag k="TMC:cid_58:tabcd_1:Direction" v="negative"/>
    <tag k="TMC:cid_58:tabcd_1:LCLversion" v="9.00"/>
    <tag k="TMC:cid_58:tabcd_1:LocationCode" v="27987"/>
    <tag k="TMC:cid_58:tabcd_1:NextLocationCode" v="27988"/>
    <tag k="TMC:cid_58:tabcd_1:PrevLocationCode" v="27986"/>
  </node>
  <node id="1688588969" lat="48.1360820" lon="11.5979339" version="1" timestamp="2012-03-24T13:23:22Z" changeset="11084269" uid="64536" user="Michael Forster"/>
  <node id="1688813346" lat="48.1323434" lon="11.5904996" version="3" timestamp="2020-09-26T13:06:24Z" changeset="91550958" uid="26299" user="uboot"/>
  <node id="1688813349" lat="48.1323980" lon="11.5903923" version="1" timestamp="2012-03-24T16:01:46Z" changeset="11085865" uid="64536" user="Michael Forster"/>
  <node id="1688834491" lat="48.1316570" lon="11.5882008" version="5" timestamp="2016-10-02T17:21:21Z" changeset="42587475" uid="78613" user="heilbron"/>
  <node id="3971602396" lat="48.1372120" lon="11.5899161" version="2" timestamp="2018-03-05T09:28:21Z" changeset="56895975" uid="8748" user="ToniE"/>
  <node id="4427961044" lat="48.1357581" lon="11.5971810" version="1" timestamp="2016-10-02T17:06:31Z" changeset="42587205" uid="78613" user="heilbron"/>
  <node id="12512837969" lat="48.1409190" lon="11.5985285" version="1" timestamp="2025-01-18T19:47:02Z" changeset="161503978" uid="16061279" user="YellowSoul"/>
  <way id="4008984" version="29" timestamp="2025-05-09T20:36:58Z" changeset="166045777" uid="137242" user="Rainero">
    <nd ref="28097353"/>
    <nd ref="28097359"/>
    <nd ref="2518733529"/>
    <nd ref="1072765216"/>
    <nd ref="28097354"/>
    <nd ref="1688834500"/>
    <nd ref="197763135"/>
    <tag k="bicycle" v="use_sidepath"/>
    <tag k="cycleway:left" v="no"/>
    <tag k="cycleway:right" v="separate"/>
    <tag k="dual_carriageway" v="yes"/>
    <tag k="foot" v="use_sidepath"/>
    <tag k="highway" v="secondary"/>
    <tag k="lanes" v="2"/>
    <tag k="lit" v="yes"/>
    <tag k="maxspeed" v="50"/>
    <tag k="name" v="Rosenheimer Straße"/>
    <tag k="name:etymology:wikidata" v="Q4007"/>
    <tag k="oneway" v="yes"/>
    <tag k="sidewalk:left" v="no"/>
    <tag k="sidewalk:right" v="separate"/>
    <tag k="smoothness" v="excellent"/>
    <tag k="surface" v="asphalt"/>
    <tag k="tmc" v="DE:27990/35402"/>
  </way>
  <way id="4673733" version="14" timestamp="2024-08-03T07:12:23Z" changeset="154761559" uid="3594360" user="kosmer">
    <nd ref="28097332"/>
    <nd ref="1688813314"/>
    <nd ref="1688813318"/>
    <nd ref="28097353"/>
    <tag k="bicycle" v="use_sidepath"/>
    <tag k="foot" v="use_sidepath"/>
    <tag k="highway" v="secondary"/>
    <tag k="lanes" v="2"/>
    <tag k="lit" v="yes"/>
    <tag k="maxspeed" v="50"/>
    <tag k="name" v="Rosenheimer Straße"/>
    <tag k="name:etymology:wikidata" v="Q4007"/>
    <tag k="oneway" v="yes"/>
    <tag k="sidewalk:left" v="no"/>
    <tag k="sidewalk:right" v="separate"/>
    <tag k="surface" v="asphalt"/>
    <tag k="tmc" v="DE:35402"/>
  </way>
  <way id="8426370" version="18" timestamp="2023-11-07T07:04:46Z" changeset="143721855" uid="6285042" user="Biclmont">
    <nd ref="21677818"/>
    <nd ref="1688589010"/>
    <nd ref="9048025538"/>
    <nd ref="1688589012"/>
    <nd ref="9048025539"/>
    <nd ref="21677822"/>
    <tag k="highway" v="residential"/>
    <tag k="lit" v="yes"/>
    <tag k="maxspeed" v="30"/>
    <tag k="name" v="Langerstraße"/>
    <tag k="name:etymology:wikidata" v="Q602103"/>
    <tag k="oneway" v="yes"/>
    <tag k="oneway:bicycle" v="no"/>
    <tag k="sidewalk:both" v="separate"/>
    <tag k="source:maxspeed" v="DE:zone:30"/>
    <tag k="surface" v="asphalt"/>
  </way>
  <way id="18954474" version="23" timestamp="2023-06-18T15:48:55Z" changeset="137483746" uid="16518908" user="Mapandy">
    <nd ref="196195464"/>
    <nd ref="196195507"/>
    <nd ref="196195501"/>
    <nd ref="6994667588"/>
    <nd ref="6994667587"/>
    <nd ref="196195494"/>
    <nd ref="196195489"/>
    <nd ref="1563586533"/>
    <nd ref="1563586538"/>
    <nd ref="1313725562"/>
    <nd ref="1313725569"/>
    <nd ref="196195484"/>
    <nd ref="609807963"/>
    <nd ref="6994667590"/>
    <nd ref="196195477"/>
    <nd ref="6994667589"/>
    <nd ref="196195471"/>
    <nd ref="196195464"/>
    <tag k="addr:city" v="München"/>
    <tag k="addr:country" v="DE"/>
    <tag k="addr:housenumber" v="19"/>
    <tag k="addr:postcode" v="81667"/>
    <tag k="addr:street" v="Innere Wiener Straße"/>
    <tag k="amenity" v="restaurant"/>
    <tag k="brewery" v="Hofbräu München"/>
    <tag k="building" v="yes"/>
    <tag k="building:colour" v="#AAAAAA"/>
    <tag k="check_date" v="2023-06-18"/>
    <tag k="diet:vegan" v="yes"/>
    <tag k="diet:vegetarian" v="yes"/>
    <tag k="fax" v="+49 89 4483587"/>
    <tag k="internet_access" v="wlan"/>
    <tag k="name" v="Hofbräukeller"/>
    <tag k="note" v="Kinderland mit Betreuung"/>
    <tag k="opening_hours" v="Mo-Su 10:00-23:00"/>
    <tag k="opening_hours:covid19" v="off"/>
    <tag k="phone" v="+49 89 459925-0"/>
    <tag k="toilets:wheelchair" v="yes"/>
    <tag k="website" v="https://www.hofbraeukeller.de/"/>
    <tag k="wheelchair" v="yes"/>
    <tag k="wheelchair:description" v="steile Rampe auf der Rückseite des Gebäudes (im Biergarten), innen Rollstuhltoilette vorhanden, Aufzug in den ersten Stock"/>
  </way>
  <way id="18954892" version="17" timestamp="2024-12-27T10:20:44Z" changeset="160669072" uid="4974073" user="thom_bike_bln">
    <nd ref="28097356"/>
    <nd ref="28097357"/>
    <nd ref="28097358"/>
    <tag k="bicycle" v="use_sidepath"/>
    <tag k="bridge" v="yes"/>
    <tag k="cycleway:left" v="no"/>
    <tag k="cycleway:right" v="separate"/>
    <tag k="foot" v="use_sidepath"/>
    <tag k="highway" v="secondary"/>
    <tag k="lanes" v="2"/>
    <tag k="layer" v="1"/>
    <tag k="lit" v="yes"/>
    <tag k="maxspeed" v="50"/>
    <tag k="maxweight:signed" v="no"/>
    <tag k="name" v="Ludwigsbrücke"/>
    <tag k="name:etymology:wikidata" v="Q44361"/>
    <tag k="oneway" v="yes"/>
    <tag k="shoulder" v="no"/>
    <tag k="sidewalk:left" v="no"/>
    <tag k="sidewalk:right" v="separate"/>
    <tag k="surface" v="asphalt"/>
    <tag k="tmc" v="DE:27990/35402"/>
  </way>
  <way id="18954895" version="18" timestamp="2022-10-21T08:49:57Z" changeset="127870665" uid="536583" user="Strubbl">
    <nd ref="28097358"/>
    <nd ref="27342955"/>
    <nd ref="1688834589"/>
    <nd ref="27342956"/>
    <tag k="bicycle" v="use_sidepath"/>
    <tag k="foot" v="use_sidepath"/>
    <tag k="highway" v="secondary"/>
    <tag k="lanes" v="2"/>
    <tag k="lit" v="yes"/>
    <tag k="maxspeed" v="50"/>
    <tag k="name" v="Ludwigsbrücke"/>
    <tag k="name:etymology:wikidata" v="Q44361"/>
    <tag k="oneway" v="yes"/>
    <tag k="sidewalk:left" v="no"/>
    <tag k="sidewalk:right" v="separate"/>
    <tag k="surface" v="asphalt"/>
    <tag k="tmc" v="DE:27990/35402"/>
  </way>
  <way id="18955820" version="16" timestamp="2025-01-23T15:53:35Z" changeset="161679908" uid="22208132" user="Helena Polyakovka">
    <nd ref="196213023"/>
    <nd ref="715447791"/>
    <nd ref="3681175754"/>
    <nd ref="715447800"/>
    <nd ref="3681175753"/>
    <nd ref="12526673662"/>
    <nd ref="8675771888"/>
    <nd ref="196213046"/>
    <nd ref="12526673660"/>
    <nd ref="196213038"/>
    <nd ref="6625142369"/>
    <nd ref="12526673661"/>
    <nd ref="3681346789"/>
    <nd ref="3681346790"/>
    <nd ref="12526673663"/>
    <nd ref="12526673659"/>
    <nd ref="196213033"/>
    <nd ref="196213030"/>
    <nd ref="715447799"/>
    <nd ref="715447795"/>
    <nd ref="196213023"/>
    <tag k="addr:city" v="München"/>
    <tag k="addr:country" v="DE"/>
    <tag k="addr:housenumber" v="4"/>
    <tag k="addr:postcode" v="81667"/>
    <tag k="addr:street" v="Zellstraße"/>
    <tag k="amenity" v="events_venue"/>
    <tag k="building" v="industrial"/>
    <tag k="name" v="Muffathalle"/>
    <tag k="source" v="survey"/>
    <tag k="wheelchair" v="yes"/>
    <tag k="wikidata" v="Q1951759"/>
  </way>
  <way id="18957151" version="32" timestamp="2022-10-21T08:49:28Z" changeset="127870665" uid="536583" user="Strubbl">
    <nd ref="197770081"/>
    <nd ref="1239117113"/>
    <tag k="bicycle" v="use_sidepath"/>
    <tag k="bridge" v="yes"/>
    <tag k="foot" v="use_sidepath"/>
    <tag k="highway" v="secondary"/>
    <tag k="lanes" v="2"/>
    <tag k="layer" v="1"/>
    <tag k="maxspeed" v="30"/>
    <tag k="maxweight:signed" v="no"/>
    <tag k="name" v="Max-Planck-Straße"/>
    <tag k="name:etymology:wikidata" v="Q9021"/>
    <tag k="old_ref" v="B 12"/>
    <tag k="oneway" v="yes"/>
    <tag k="shoulder" v="no"/>
    <tag k="sidewalk:left" v="no"/>
    <tag k="sidewalk:right" v="separate"/>
    <tag k="surface" v="sett"/>
    <tag k="tmc" v="DE:27986/27987"/>
  </way>
  <way id="19565906" version="36" timestamp="2024-04-22T21:32:57Z" changeset="150367022" uid="137242" user="Rainero">
    <nd ref="1670330671"/>
    <nd ref="11250282306"/>
    <nd ref="1670330688"/>
    <nd ref="609807996"/>
    <nd ref="201741328"/>
    <nd ref="6816818776"/>
    <nd ref="6475552594"/>
    <nd ref="1670330693"/>
    <nd ref="11250084169"/>
    <nd ref="18292348"/>
    <tag k="class:bicycle" v="-1"/>
    <tag k="cycleway:both" v="no"/>
    <tag k="highway" v="secondary"/>
    <tag k="lanes" v="4"/>
    <tag k="lanes:backward" v="2"/>
    <tag k="lanes:forward" v="2"/>
    <tag k="lit" v="yes"/>
    <tag k="maxspeed" v="50"/>
    <tag k="name" v="Max-Weber-Platz"/>
    <tag k="name:etymology:wikidata" v="Q9387"/>
    <tag k="sidewalk" v="separate"/>
    <tag k="surface" v="asphalt"/>
    <tag k="tmc" v="DE:35422/35423"/>
    <tag k="turn:lanes:forward" v="left;through|right"/>
  </way>
  <way id="23039984" version="18" timestamp="2024-11-18T09:29:39Z" changeset="159274208" uid="18069" user="Claudius Henrichs">
    <nd ref="248565458"/>
    <nd ref="8024855661"/>
    <nd ref="8024855660"/>
    <nd ref="248565460"/>
    <nd ref="8024855658"/>
    <nd ref="8024855659"/>
    <nd ref="248565462"/>
    <nd ref="8024855663"/>
    <nd ref="8024855662"/>
    <nd ref="248565464"/>
    <nd ref="8024855665"/>
    <nd ref="8024855664"/>
    <nd ref="248565458"/>
    <tag k="addr:housenumber" v="2"/>
    <tag k="addr:street" v="Max-Planck-Straße"/>
    <tag k="alt_name" v="Maxwerk"/>
    <tag k="building" v="industrial"/>
    <tag k="man_made" v="pipeline"/>
    <tag k="name" v="Maximilianswerk"/>
    <tag k="operator" v="Stadtwerke München"/>
    <tag k="operator:short" v="SWM"/>
    <tag k="operator:wikidata" v="Q882871"/>
    <tag k="plant:method" v="run-of-the-river"/>
    <tag k="plant:output:electricity" v="410 kW"/>
    <tag k="plant:source" v="hydro"/>
    <tag k="power" v="plant"/>
    <tag k="short_name" v="Maxwerk"/>
    <tag k="source" v="survey"/>
    <tag k="start_date" v="1895"/>
    <tag k="wikidata" v="Q1528541"/>
  </way>
  <way id="24462849" version="25" timestamp="2025-05-09T20:36:58Z" changeset="166045777" uid="137242" user="Rainero">
    <nd ref="1688834491"/>
    <nd ref="248564077"/>
    <nd ref="2518733519"/>
    <nd ref="1688834484"/>
    <nd ref="28097356"/>
    <tag k="bicycle" v="use_sidepath"/>
    <tag k="cycleway:left" v="no"/>
    <tag k="cycleway:right" v="separate"/>
    <tag k="dual_carriageway" v="yes"/>
    <tag k="foot" v="use_sidepath"/>
    <tag k="highway" v="secondary"/>
    <tag k="lanes" v="2"/>
    <tag k="lit" v="yes"/>
    <tag k="maxspeed" v="50"/>
    <tag k="name" v="Rosenheimer Straße"/>
    <tag k="name:etymology:wikidata" v="Q4007"/>
    <tag k="oneway" v="yes"/>
    <tag k="sidewalk:left" v="no"/>
    <tag k="sidewalk:right" v="separate"/>
    <tag k="surface" v="asphalt"/>
    <tag k="tmc" v="DE:27990/35402"/>
  </way>
  <way id="24526611" version="12" timestamp="2023-11-07T06:33:41Z" changeset="143720737" uid="6285042" user="Biclmont">
    <nd ref="28097234"/>
    <nd ref="1688813363"/>
    <nd ref="28097231"/>
    <tag k="highway" v="residential"/>
    <tag k="lit" v="yes"/>
    <tag k="maxspeed" v="30"/>
    <tag k="name" v="Stubenvollstraße"/>
    <tag k="sidewalk:both:surface" v="paving_stones"/>
    <tag k="sidewalk:left" v="yes"/>
    <tag k="sidewalk:right" v="separate"/>
    <tag k="source:maxspeed" v="DE:zone30"/>
    <tag k="surface" v="asphalt"/>
  </way>
  <way id="24680710" version="26" timestamp="2025-01-18T19:47:02Z" changeset="161503978" uid="16061279" user="YellowSoul">
    <nd ref="1954922"/>
    <nd ref="1020993698"/>
    <nd ref="12512837972"/>
    <tag k="bicycle" v="use_sidepath"/>
    <tag k="cycleway:right" v="separate"/>
    <tag k="foot" v="use_sidepath"/>
    <tag k="highway" v="secondary"/>
    <tag k="lanes" v="2"/>
    <tag k="lit" v="yes"/>
    <tag k="maxspeed" v="50"/>
    <tag k="name" v="Prinzregentenstraße"/>
    <tag k="name:etymology:wikidata" v="Q44785"/>
    <tag k="oneway" v="yes"/>
    <tag k="sidewalk:left" v="no"/>
    <tag k="sidewalk:right" v="separate"/>
    <tag k="surface" v="asphalt"/>
    <tag k="tmc" v="DE:27980/27981"/>
    <tag k="wikipedia" v="de:Prinzregentenstraße"/>
  </way>
  <way id="30046199" version="6" timestamp="2022-01-17T16:32:32Z" changeset="116261264" uid="7532683" user="dendreier">
    <nd ref="330913634"/>
    <nd ref="330913638"/>
    <nd ref="330913643"/>
    <nd ref="330913640"/>
    <nd ref="330913634"/>
    <tag k="addr:city" v="München"/>
    <tag k="addr:country" v="DE"/>
    <tag k="addr:housenumber" v="8"/>
    <tag k="addr:postcode" v="81667"/>
    <tag k="addr:street" v="Zellstraße"/>
    <tag k="building" v="detached"/>
    <tag k="building:levels" v="3"/>
    <tag k="roof:levels" v="2"/>
    <tag k="roof:shape" v="hipped"/>
    <tag k="source" v="survey"/>
  </way>
  <way id="30046344" version="9" timestamp="2022-03-05T14:39:54Z" changeset="118128703" uid="9657752" user="AnnoDietz">
    <nd ref="1557146814"/>
    <nd ref="1557146821"/>
    <nd ref="330917734"/>
    <nd ref="330917532"/>
    <nd ref="330917527"/>
    <nd ref="330917520"/>
    <nd ref="1557146814"/>
    <tag k="addr:city" v="München"/>
    <tag k="addr:country" v="DE"/>
    <tag k="addr:housenumber" v="5"/>
    <tag k="addr:postcode" v="81667"/>
    <tag k="addr:street" v="Innere Wiener Straße"/>
    <tag k="building" v="apartments"/>
  </way>
  <way id="30749241" version="21" timestamp="2025-05-09T20:36:58Z" changeset="166045777" uid="137242" user="Rainero">
    <nd ref="1688813349"/>
    <nd ref="1688813345"/>
    <nd ref="1688813338"/>
    <nd ref="1688813327"/>
    <nd ref="298511500"/>
    <nd ref="28097353"/>
    <tag k="bicycle" v="use_sidepath"/>
    <tag k="cycleway:left" v="no"/>
    <tag k="cycleway:right" v="separate"/>
    <tag k="dual_carriageway" v="yes"/>
    <tag k="foot" v="use_sidepath"/>
    <tag k="highway" v="secondary"/>
    <tag k="lanes" v="2"/>
    <tag k="lit" v="yes"/>
    <tag k="maxspeed" v="50"/>
    <tag k="name" v="Am Gasteig"/>
    <tag k="oneway" v="yes"/>
    <tag k="parking:right" v="no"/>
    <tag k="parking:right:restriction" v="no_stopping"/>
    <tag k="sidewalk:left" v="no"/>
    <tag k="sidewalk:right" v="separate"/>
    <tag k="smoothness" v="excellent"/>
    <tag k="source:maxspeed" v="DE:urban"/>
    <tag k="surface" v="asphalt"/>
    <tag k="tmc" v="DE:35421/35422"/>
    <tag k="turn:lanes" v="left|through"/>
  </way>
  <way id="31173302" version="24" timestamp="2025-04-03T21:44:18Z" changeset="164484291" uid="16061279" user="YellowSoul">
    <nd ref="335664152"/>
    <nd ref="1688589113"/>
    <nd ref="3712021223"/>
    <nd ref="1954922"/>
    <tag k="bicycle" v="use_sidepath"/>
    <tag k="cycleway:both" v="separate"/>
    <tag k="foot" v="use_sidepath"/>
    <tag k="highway" v="secondary"/>
    <tag k="lanes" v="4"/>
    <tag k="lit" v="yes"/>
    <tag k="maxspeed" v="50"/>
    <tag k="name" v="Prinzregentenstraße"/>
    <tag k="name:etymology:wikidata" v="Q44785"/>
    <tag k="sidewalk" v="separate"/>
    <tag k="smoothness" v="excellent"/>
    <tag k="surface" v="asphalt"/>
    <tag k="tmc" v="DE:27980/27981"/>
    <tag k="wikipedia" v="de:Prinzregentenstraße"/>
  </way>
  <way id="36993743" version="9" timestamp="2023-11-07T07:04:51Z" changeset="143721855" uid="6285042" user="Biclmont">
    <nd ref="424275442"/>
    <nd ref="9048025537"/>
    <nd ref="2262670275"/>
    <nd ref="1688589008"/>
    <nd ref="430234724"/>
    <tag k="highway" v="residential"/>
    <tag k="lit" v="yes"/>
    <tag k="maxspeed" v="30"/>
    <tag k="name" v="Untere Feldstraße"/>
    <tag k="oneway" v="yes"/>
    <tag k="sidewalk:both" v="separate"/>
    <tag k="source:maxspeed" v="DE:zone:30"/>
    <tag k="surface" v="asphalt"/>
  </way>
  <way id="36993745" version="12" timestamp="2025-03-22T20:57:57Z" changeset="163964101" uid="44217" user="kjon">
    <nd ref="430234730"/>
    <nd ref="3691186029"/>
    <nd ref="1688589002"/>
    <nd ref="430234731"/>
    <tag k="highway" v="residential"/>
    <tag k="lit" v="yes"/>
    <tag k="maxspeed" v="30"/>
    <tag k="name" v="Bogenstraße"/>
    <tag k="oneway" v="yes"/>
    <tag k="parking:right" v="yes"/>
    <tag k="parking:right:orientation" v="parallel"/>
    <tag k="sidewalk:both" v="separate"/>
    <tag k="source:maxspeed" v="DE:zone:30"/>
    <tag k="surface" v="asphalt"/>
  </way>
  <way id="36993746" version="16" timestamp="2025-04-23T23:03:53Z" changeset="165354907" uid="137242" user="Rainero">
    <nd ref="609553052"/>
    <nd ref="248793580"/>
    <nd ref="2520264886"/>
    <nd ref="6816818780"/>
    <nd ref="643083546"/>
    <nd ref="18292347"/>
    <tag k="class:bicycle" v="1"/>
    <tag k="highway" v="residential"/>
    <tag k="lit" v="yes"/>
    <tag k="maxspeed" v="30"/>
    <tag k="name" v="Sckellstraße"/>
    <tag k="name:etymology:wikidata" v="Q68169"/>
    <tag k="parking:left" v="yes"/>
    <tag k="parking:left:orientation" v="diagonal"/>
    <tag k="parking:right" v="yes"/>
    <tag k="parking:right:orientation" v="parallel"/>
    <tag k="sidewalk" v="right"/>
    <tag k="smoothness" v="good"/>
    <tag k="source:maxspeed" v="DE:zone:30"/>
    <tag k="surface" v="asphalt"/>
  </way>
  <way id="47928124" version="7" timestamp="2023-10-13T06:53:19Z" changeset="142508205" uid="18493611" user="MunichWays">
    <nd ref="609553052"/>
    <nd ref="1954905"/>
    <tag k="class:bicycle" v="2"/>
    <tag k="highway" v="residential"/>
    <tag k="lit" v="yes"/>
    <tag k="maxspeed" v="30"/>
    <tag k="name" v="Grütznerstraße"/>
    <tag k="parking:condition:left" v="yes"/>
    <tag k="parking:condition:right" v="no"/>
    <tag k="smoothness" v="good"/>
    <tag k="source:maxspeed" v="DE:zone:30"/>
    <tag k="surface" v="asphalt"/>
  </way>
  <way id="51776621" version="29" timestamp="2025-04-12T16:46:50Z" changeset="164864406" uid="18850925" user="cableway">
    <nd ref="1688588916"/>
    <nd ref="11250084167"/>
    <nd ref="11250084168"/>
    <nd ref="1079043023"/>
    <nd ref="6816818775"/>
    <nd ref="3189158461"/>
    <nd ref="3189158462"/>
    <nd ref="5390989480"/>
    <nd ref="3189158463"/>
    <nd ref="1688588969"/>
    <tag k="class:bicycle" v="-2"/>
    <tag k="cycleway:both" v="no"/>
    <tag k="foot" v="use_sidepath"/>
    <tag k="highway" v="tertiary"/>
    <tag k="lanes" v="3"/>
    <tag k="lanes:backward" v="2"/>
    <tag k="lanes:forward" v="1"/>
    <tag k="lit" v="yes"/>
    <tag k="maxspeed" v="30"/>
    <tag k="name" v="Ismaninger Straße"/>
    <tag k="sidewalk" v="separate"/>
    <tag k="source:maxspeed" v="sign"/>
    <tag k="surface" v="asphalt"/>
    <tag k="turn:lanes:backward" v="|through;right"/>
  </way>
  <way id="75376221" version="8" timestamp="2021-09-01T05:59:05Z" changeset="110543514" uid="78613" user="heilbron">
    <nd ref="890028500"/>
    <nd ref="890029249"/>
    <nd ref="890029014"/>
    <nd ref="890028754"/>
    <nd ref="890028500"/>
    <tag k="addr:housenumber" v="15"/>
    <tag k="addr:street" v="Ismaninger Straße"/>
    <tag k="amenity" v="clinic"/>
    <tag k="building" v="hospital"/>
    <tag k="building:levels" v="4"/>
    <tag k="healthcare" v="clinic"/>
    <tag k="name" v="Klinik für Strahlentherapie"/>
    <tag k="source" v="Bing"/>
    <tag k="wheelchair" v="limited"/>
  </way>
  <way id="75376237" version="7" timestamp="2023-06-06T09:26:10Z" changeset="137005951" uid="8748" user="ToniE">
    <nd ref="1407762833"/>
    <nd ref="890028515"/>
    <nd ref="4244407780"/>
    <nd ref="4244407778"/>
    <nd ref="890028285"/>
    <nd ref="890028901"/>
    <nd ref="890028390"/>
    <nd ref="890029034"/>
    <nd ref="890028260"/>
    <nd ref="890028890"/>
    <nd ref="1407762833"/>
    <tag k="addr:city" v="München"/>
    <tag k="addr:country" v="DE"/>
    <tag k="addr:housenumber" v="3"/>
    <tag k="addr:street" v="Langerstraße"/>
    <tag k="building" v="office"/>
    <tag k="building:levels" v="3"/>
    <tag k="name" v="518"/>
    <tag k="roof:levels" v="2"/>
    <tag k="roof:shape" v="hipped"/>
  </way>
  <way id="85213201" version="5" timestamp="2023-10-24T14:33:57Z" changeset="143068510" uid="78613" user="heilbron">
    <nd ref="988188590"/>
    <nd ref="988188222"/>
    <nd ref="988188339"/>
    <nd ref="988188512"/>
    <nd ref="988188590"/>
    <tag k="addr:housenumber" v="35"/>
    <tag k="addr:street" v="Ismaninger Straße"/>
    <tag k="building" v="apartments"/>
    <tag k="building:levels" v="3"/>
    <tag k="roof:levels" v="1"/>
    <tag k="source" v="Bing"/>
  </way>
  <way id="85213203" version="2" timestamp="2011-08-03T00:33:57Z" changeset="8906149" uid="64164" user="osmkurt">
    <nd ref="988188577"/>
    <nd ref="988188572"/>
    <nd ref="988188711"/>
    <nd ref="988188783"/>
    <nd ref="988188577"/>
    <tag k="addr:housenumber" v="10"/>
    <tag k="addr:street" v="Maria-Theresia-Straße"/>
    <tag k="building" v="yes"/>
    <tag k="source" v="Bing"/>
  </way>
  <way id="85213204" version="2" timestamp="2011-07-08T01:14:37Z" changeset="8662391" uid="64164" user="osmkurt">
    <nd ref="988188597"/>
    <nd ref="988188393"/>
    <nd ref="988188223"/>
    <nd ref="988188777"/>
    <nd ref="988188743"/>
    <nd ref="988188521"/>
    <nd ref="988188290"/>
    <nd ref="988188597"/>
    <tag k="addr:housenumber" v="7"/>
    <tag k="addr:street" v="Maria-Theresia-Straße"/>
    <tag k="building" v="yes"/>
    <tag k="source" v="Bing"/>
  </way>
  <way id="85213205" version="4" timestamp="2023-07-14T12:24:25Z" changeset="138505713" uid="4238158" user="RiderOnTheStorm">
    <nd ref="988188620"/>
    <nd ref="11046368444"/>
    <nd ref="11046368445"/>
    <nd ref="988188796"/>
    <nd ref="988188324"/>
    <nd ref="988188546"/>
    <nd ref="988188620"/>
    <tag k="addr:housenumber" v="4"/>
    <tag k="addr:street" v="Maria-Theresia-Straße"/>
    <tag k="building" v="yes"/>
  </way>
  <way id="85213206" version="4" timestamp="2020-11-21T22:11:08Z" changeset="94563384" uid="43207" user="kdkeller">
    <nd ref="988188259"/>
    <nd ref="988188251"/>
    <nd ref="988188478"/>
    <nd ref="988188578"/>
    <nd ref="988188259"/>
    <tag k="addr:housenumber" v="5"/>
    <tag k="addr:street" v="Maria-Theresia-Straße"/>
    <tag k="building" v="yes"/>
    <tag k="wikidata" v="Q41185382"/>
  </way>
  <way id="85213207" version="8" timestamp="2023-02-09T11:53:12Z" changeset="132303691" uid="16057666" user="masse_BKG">
    <nd ref="988188705"/>
    <nd ref="988188674"/>
    <nd ref="988188744"/>
    <nd ref="988188637"/>
    <nd ref="988188705"/>
    <tag k="addr:housenumber" v="29"/>
    <tag k="addr:street" v="Ismaninger Straße"/>
    <tag k="amenity" v="music_school"/>
    <tag k="building" v="yes"/>
    <tag k="building:levels" v="3"/>
    <tag k="name" v="Freies Musikzentrum"/>
    <tag k="roof:levels" v="1"/>
    <tag k="source" v="Bing"/>
    <tag k="website" v="https://www.freies-musikzentrum.de/"/>
    <tag k="wheelchair" v="limited"/>
    <tag k="wikidata" v="Q98739691"/>
  </way>
  <way id="85213208" version="3" timestamp="2017-01-04T20:48:08Z" changeset="44908515" uid="427807" user="Tungmar">
    <nd ref="988188693"/>
    <nd ref="4589771414"/>
    <nd ref="4589771423"/>
    <nd ref="4589771417"/>
    <nd ref="4589771419"/>
    <nd ref="4589771424"/>
    <nd ref="4589771416"/>
    <nd ref="988188628"/>
    <nd ref="988188286"/>
    <nd ref="4589771418"/>
    <nd ref="4589771409"/>
    <nd ref="4589771406"/>
    <nd ref="4589771415"/>
    <nd ref="4589771410"/>
    <nd ref="988188693"/>
    <tag k="addr:housenumber" v="15"/>
    <tag k="addr:street" v="Maria-Theresia-Straße"/>
    <tag k="building" v="yes"/>
    <tag k="source" v="Bing"/>
  </way>
  <way id="85213210" version="2" timestamp="2011-08-03T00:33:56Z" changeset="8906149" uid="64164" user="osmkurt">
    <nd ref="988188240"/>
    <nd ref="988188774"/>
    <nd ref="988188565"/>
    <nd ref="988188626"/>
    <nd ref="988188240"/>
    <tag k="addr:housenumber" v="11"/>
    <tag k="addr:street" v="Maria-Theresia-Straße"/>
    <tag k="building" v="yes"/>
    <tag k="source" v="Bing"/>
  </way>
  <way id="85213212" version="4" timestamp="2022-11-10T21:37:04Z" changeset="128752251" uid="536583" user="Strubbl">
    <nd ref="988188426"/>
    <nd ref="988188589"/>
    <nd ref="988188509"/>
    <nd ref="988188721"/>
    <nd ref="988188426"/>
    <tag k="addr:housenumber" v="4a"/>
    <tag k="addr:street" v="Maria-Theresia-Straße"/>
    <tag k="building" v="yes"/>
  </way>
  <way id="85213213" version="4" timestamp="2021-09-01T05:59:03Z" changeset="110543514" uid="78613" user="heilbron">
    <nd ref="890029014"/>
    <nd ref="890029249"/>
    <nd ref="988188800"/>
    <nd ref="988188770"/>
    <nd ref="988188736"/>
    <nd ref="890029014"/>
    <tag k="addr:housenumber" v="17"/>
    <tag k="addr:street" v="Ismaninger Straße"/>
    <tag k="building" v="office"/>
    <tag k="building:levels" v="4"/>
    <tag k="source" v="Bing"/>
  </way>
  <way id="85213214" version="7" timestamp="2022-11-07T19:33:42Z" changeset="128611250" uid="536583" user="Strubbl">
    <nd ref="988188770"/>
    <nd ref="988188800"/>
    <nd ref="988188297"/>
    <nd ref="988188384"/>
    <nd ref="988188713"/>
    <nd ref="988188770"/>
    <tag k="addr:housenumber" v="19"/>
    <tag k="addr:street" v="Ismaninger Straße"/>
    <tag k="building" v="office"/>
    <tag k="building:levels" v="4"/>
    <tag k="healthcare" v="mammography"/>
    <tag k="healthcare:speciality" v="breast_cancer"/>
    <tag k="name" v="Mamma-Zentrum"/>
    <tag k="website" v="https://www.die-radiologie.de/brustdiagnostik"/>
  </way>
  <way id="85213215" version="3" timestamp="2021-09-01T05:58:57Z" changeset="110543364" uid="78613" user="heilbron">
    <nd ref="988188474"/>
    <nd ref="988188421"/>
    <nd ref="988188535"/>
    <nd ref="988188354"/>
    <nd ref="988188474"/>
    <tag k="addr:housenumber" v="6"/>
    <tag k="addr:street" v="Maria-Theresia-Straße"/>
    <tag k="building" v="apartments"/>
    <tag k="source" v="Bing"/>
  </way>
  <way id="85213217" version="45" timestamp="2024-05-22T19:24:59Z" changeset="151693949" uid="1717726" user="UKausch">
    <nd ref="988188543"/>
    <nd ref="988188423"/>
    <nd ref="4589764364"/>
    <nd ref="4589764365"/>
    <nd ref="4589764368"/>
    <nd ref="4589764362"/>
    <nd ref="988188280"/>
    <nd ref="988188380"/>
    <nd ref="4589764360"/>
    <nd ref="4589764366"/>
    <nd ref="4244407788"/>
    <nd ref="4244408490"/>
    <nd ref="988188436"/>
    <nd ref="988188326"/>
    <nd ref="4244407786"/>
    <nd ref="4244407787"/>
    <nd ref="4244408489"/>
    <nd ref="4244408491"/>
    <nd ref="988188623"/>
    <nd ref="4244408493"/>
    <nd ref="4244408492"/>
    <nd ref="4244408494"/>
    <nd ref="4244408495"/>
    <nd ref="988188764"/>
    <nd ref="1411523304"/>
    <nd ref="1411523311"/>
    <nd ref="1411523309"/>
    <nd ref="1411523303"/>
    <nd ref="988188543"/>
    <tag k="addr:city" v="München"/>
    <tag k="addr:country" v="DE"/>
    <tag k="addr:housenumber" v="60"/>
    <tag k="addr:postcode" v="81675"/>
    <tag k="addr:street" v="Prinzregentenstraße"/>
    <tag k="architect" v="Franz von Stuck"/>
    <tag k="architect:wikidata" v="Q45006"/>
    <tag k="building" v="yes"/>
    <tag k="building:architecture" v="neoclassicism;art_nouveau"/>
    <tag k="contact:email" v="villastuck@muenchen.de"/>
    <tag k="contact:fax" v="+49 89 455 551-24"/>
    <tag k="contact:phone" v="+49 89 455 551-0"/>
    <tag k="contact:website" v="https://www.villastuck.de/"/>
    <tag k="fee" v="yes"/>
    <tag k="heritage" v="4"/>
    <tag k="heritage:operator" v="BLfD"/>
    <tag k="lit" v="yes"/>
    <tag k="name" v="Villa Stuck"/>
    <tag k="name:ru" v="Вилла Штука"/>
    <tag k="opening_hours" v="Tu-Su 11:00-18:00"/>
    <tag k="ref:BLfD" v="D-1-62-000-5588"/>
    <tag k="start_date" v="1898"/>
    <tag k="tourism" v="museum"/>
    <tag k="wheelchair" v="yes"/>
    <tag k="wheelchair:description" v="Der Zugang zur Villa Stuck ist barrierefrei und stufenlos, auch sind alle Ausstellungsräume über Aufzüge erreichbar. Rollstuhlgerechte Toiletten befinden sich im Mittelgeschoss."/>
    <tag k="wikidata" v="Q264573"/>
    <tag k="wikimedia_commons" v="Category:Villa Stuck"/>
    <tag k="wikipedia" v="de:Villa Stuck"/>
  </way>
  <way id="85213218" version="4" timestamp="2023-10-24T14:33:57Z" changeset="143068510" uid="78613" user="heilbron">
    <nd ref="988188803"/>
    <nd ref="988188337"/>
    <nd ref="988188443"/>
    <nd ref="988188740"/>
    <nd ref="988188803"/>
    <tag k="addr:housenumber" v="33"/>
    <tag k="addr:street" v="Ismaninger Straße"/>
    <tag k="building" v="apartments"/>
    <tag k="building:levels" v="3"/>
    <tag k="roof:levels" v="1"/>
    <tag k="source" v="Bing"/>
  </way>
  <way id="85213219" version="5" timestamp="2023-10-24T14:33:56Z" changeset="143068510" uid="78613" user="heilbron">
    <nd ref="988188339"/>
    <nd ref="988188591"/>
    <nd ref="988188445"/>
    <nd ref="988188512"/>
    <nd ref="988188339"/>
    <tag k="addr:housenumber" v="37"/>
    <tag k="addr:street" v="Ismaninger Straße"/>
    <tag k="building" v="apartments"/>
    <tag k="building:levels" v="3"/>
    <tag k="roof:levels" v="1"/>
  </way>
  <way id="85213221" version="2" timestamp="2011-08-03T00:33:57Z" changeset="8906149" uid="64164" user="osmkurt">
    <nd ref="988188668"/>
    <nd ref="988188657"/>
    <nd ref="988188390"/>
    <nd ref="988188515"/>
    <nd ref="988188668"/>
    <tag k="addr:housenumber" v="14"/>
    <tag k="addr:street" v="Maria-Theresia-Straße"/>
    <tag k="building" v="yes"/>
    <tag k="source" v="Bing"/>
  </way>
  <way id="85213222" version="5" timestamp="2021-09-01T05:58:59Z" changeset="110543538" uid="78613" user="heilbron">
    <nd ref="988188614"/>
    <nd ref="988188642"/>
    <nd ref="1353397518"/>
    <nd ref="1353397517"/>
    <nd ref="988188614"/>
    <tag k="addr:housenumber" v="21"/>
    <tag k="addr:street" v="Ismaninger Straße"/>
    <tag k="building" v="office"/>
    <tag k="building:levels" v="3"/>
    <tag k="roof:shape" v="flat"/>
    <tag k="source" v="Bing"/>
  </way>
  <way id="85213223" version="4" timestamp="2023-06-18T13:00:46Z" changeset="137477804" uid="16518908" user="Mapandy">
    <nd ref="988188395"/>
    <nd ref="988188292"/>
    <nd ref="988188229"/>
    <nd ref="988188673"/>
    <nd ref="988188600"/>
    <nd ref="988188636"/>
    <nd ref="988188472"/>
    <nd ref="988188524"/>
    <nd ref="988188710"/>
    <nd ref="988188575"/>
    <nd ref="988188395"/>
    <tag k="addr:housenumber" v="1"/>
    <tag k="addr:street" v="Langerstraße"/>
    <tag k="building" v="apartments"/>
  </way>
  <way id="85213224" version="2" timestamp="2011-08-03T00:33:56Z" changeset="8906149" uid="64164" user="osmkurt">
    <nd ref="988188393"/>
    <nd ref="988188597"/>
    <nd ref="988188469"/>
    <nd ref="988188349"/>
    <nd ref="988188393"/>
    <tag k="addr:housenumber" v="8"/>
    <tag k="addr:street" v="Maria-Theresia-Straße"/>
    <tag k="building" v="yes"/>
    <tag k="source" v="Bing"/>
  </way>
  <way id="85213226" version="3" timestamp="2011-07-08T01:15:44Z" changeset="8662391" uid="64164" user="osmkurt">
    <nd ref="988188401"/>
    <nd ref="988188532"/>
    <nd ref="1353210661"/>
    <nd ref="1353210662"/>
    <nd ref="988188602"/>
    <nd ref="988188293"/>
    <nd ref="988188401"/>
    <tag k="addr:housenumber" v="9"/>
    <tag k="addr:street" v="Maria-Theresia-Straße"/>
    <tag k="building" v="yes"/>
    <tag k="source" v="Bing"/>
  </way>
  <way id="85213227" version="7" timestamp="2023-10-24T14:33:58Z" changeset="143068510" uid="78613" user="heilbron">
    <nd ref="988188655"/>
    <nd ref="988188649"/>
    <nd ref="4244407783"/>
    <nd ref="4244407781"/>
    <nd ref="988188802"/>
    <nd ref="4244407779"/>
    <nd ref="988188328"/>
    <nd ref="4244407782"/>
    <nd ref="988188655"/>
    <tag k="addr:housenumber" v="13"/>
    <tag k="addr:street" v="Ismaninger Straße"/>
    <tag k="building" v="apartments"/>
    <tag k="building:levels" v="5"/>
    <tag k="roof:levels" v="0"/>
  </way>
  <way id="85213230" version="6" timestamp="2021-09-01T05:59:26Z" changeset="110543514" uid="78613" user="heilbron">
    <nd ref="988188686"/>
    <nd ref="7905867233"/>
    <nd ref="988188747"/>
    <nd ref="988188265"/>
    <nd ref="7905867234"/>
    <nd ref="988188617"/>
    <nd ref="988188684"/>
    <nd ref="7905867235"/>
    <nd ref="988188316"/>
    <nd ref="7905867236"/>
    <nd ref="988188717"/>
    <nd ref="988188540"/>
    <nd ref="988188686"/>
    <tag k="addr:housenumber" v="27"/>
    <tag k="addr:street" v="Ismaninger Straße"/>
    <tag k="building" v="office"/>
    <tag k="building:levels" v="3"/>
    <tag k="roof:levels" v="2"/>
    <tag k="source" v="Bing"/>
    <tag k="wikidata" v="Q41185051"/>
  </way>
  <way id="85213231" version="3" timestamp="2023-06-18T12:59:39Z" changeset="137477804" uid="16518908" user="Mapandy">
    <nd ref="988188689"/>
    <nd ref="988188431"/>
    <nd ref="988188268"/>
    <nd ref="988188376"/>
    <nd ref="988188689"/>
    <tag k="addr:housenumber" v="3a"/>
    <tag k="addr:street" v="Maria-Theresia-Straße"/>
    <tag k="building" v="apartments"/>
    <tag k="source" v="Bing"/>
  </way>
  <way id="96636040" version="9" timestamp="2025-04-01T12:49:15Z" changeset="164371786" uid="9244608" user="LittleJoeMuc">
    <nd ref="1119260002"/>
    <nd ref="1119259963"/>
    <nd ref="1557146794"/>
    <nd ref="1119260001"/>
    <nd ref="1119259990"/>
    <nd ref="1119259978"/>
    <nd ref="1119259982"/>
    <nd ref="1119260116"/>
    <nd ref="1119260071"/>
    <nd ref="1119260107"/>
    <nd ref="1119260002"/>
    <tag k="addr:city" v="München"/>
    <tag k="addr:country" v="DE"/>
    <tag k="addr:housenumber" v="1"/>
    <tag k="addr:postcode" v="81667"/>
    <tag k="addr:street" v="Innere Wiener Straße"/>
    <tag k="amenity" v="place_of_worship"/>
    <tag k="building" v="church"/>
    <tag k="building:colour" v="white"/>
    <tag k="check_date" v="2025-04-01"/>
    <tag k="denomination" v="catholic"/>
    <tag k="name" v="Sankt Nikolai"/>
    <tag k="religion" v="christian"/>
    <tag k="wheelchair" v="limited"/>
    <tag k="wikidata" v="Q2321909"/>
    <tag k="wikimedia_commons" v="Category:St. Nikolai am Gasteig"/>
    <tag k="wikipedia" v="de:St. Nikolai am Gasteig"/>
  </way>
  <way id="107741911" version="10" timestamp="2025-04-12T16:46:49Z" changeset="164864406" uid="18850925" user="cableway">
    <nd ref="637877338"/>
    <nd ref="11250084170"/>
    <nd ref="1688588916"/>
    <tag k="cycleway:both" v="no"/>
    <tag k="highway" v="secondary"/>
    <tag k="lanes" v="4"/>
    <tag k="lit" v="yes"/>
    <tag k="maxspeed" v="50"/>
    <tag k="name" v="Ismaninger Straße"/>
    <tag k="sidewalk" v="separate"/>
    <tag k="surface" v="asphalt"/>
  </way>
  <way id="116949136" version="9" timestamp="2024-07-18T15:31:50Z" changeset="154107282" uid="14742734" user="The_Nickname">
    <nd ref="1317290707"/>
    <nd ref="1350031687"/>
    <nd ref="1317286917"/>
    <nd ref="1317286915"/>
    <nd ref="1350031689"/>
    <nd ref="1337822284"/>
    <nd ref="1317290708"/>
    <nd ref="1317290707"/>
    <tag k="addr:city" v="München"/>
    <tag k="addr:country" v="DE"/>
    <tag k="addr:housenumber" v="8"/>
    <tag k="addr:postcode" v="81667"/>
    <tag k="addr:street" v="Wiener Platz"/>
    <tag k="building" v="apartments"/>
    <tag k="building:levels" v="4"/>
    <tag k="wikidata" v="Q41186239"/>
  </way>
  <way id="116949163" version="8" timestamp="2024-11-18T22:42:36Z" changeset="159303557" uid="22029607" user="seboyee">
    <nd ref="1317290708"/>
    <nd ref="12352423269"/>
    <nd ref="1317290953"/>
    <nd ref="1317299763"/>
    <nd ref="1317290949"/>
    <nd ref="1317290950"/>
    <nd ref="1317290952"/>
    <nd ref="1317290951"/>
    <nd ref="1317290955"/>
    <nd ref="12352423268"/>
    <nd ref="1317290707"/>
    <nd ref="1317290708"/>
    <tag k="addr:city" v="München"/>
    <tag k="addr:country" v="DE"/>
    <tag k="addr:housenumber" v="7"/>
    <tag k="addr:postcode" v="81667"/>
    <tag k="addr:street" v="Wiener Platz"/>
    <tag k="building" v="apartments"/>
    <tag k="roof:shape" v="gabled"/>
    <tag k="wikidata" v="Q41186238"/>
  </way>
  <way id="116949381" version="6" timestamp="2023-06-05T10:06:32Z" changeset="136964962" uid="531886" user="drlellinger">
    <nd ref="10956921646"/>
    <nd ref="1317293729"/>
    <nd ref="1317293726"/>
    <nd ref="1317293727"/>
    <nd ref="1317293730"/>
    <nd ref="6994667591"/>
    <nd ref="10956921647"/>
    <nd ref="10956921646"/>
    <tag k="addr:city" v="München"/>
    <tag k="addr:country" v="DE"/>
    <tag k="addr:housenumber" v="2"/>
    <tag k="addr:postcode" v="81667"/>
    <tag k="addr:street" v="Wiener Platz"/>
    <tag k="building" v="yes"/>
    <tag k="wikidata" v="Q41186226"/>
  </way>
  <way id="116950031" version="7" timestamp="2023-01-14T10:20:51Z" changeset="131258881" uid="4376164" user="redweizn">
    <nd ref="1317299756"/>
    <nd ref="1563586569"/>
    <nd ref="1563586566"/>
    <nd ref="1317299754"/>
    <nd ref="1317299761"/>
    <nd ref="1563586573"/>
    <nd ref="1317299765"/>
    <nd ref="1317299756"/>
    <tag k="addr:city" v="München"/>
    <tag k="addr:country" v="DE"/>
    <tag k="addr:housenumber" v="5"/>
    <tag k="addr:postcode" v="81667"/>
    <tag k="addr:street" v="Wiener Platz"/>
    <tag k="building" v="house"/>
    <tag k="roof:shape" v="half-hipped"/>
    <tag k="wikidata" v="Q41186232"/>
  </way>
  <way id="116950032" version="6" timestamp="2024-01-25T16:57:33Z" changeset="146681334" uid="563478" user="tuttiton">
    <nd ref="1317290953"/>
    <nd ref="330918848"/>
    <nd ref="1563586559"/>
    <nd ref="1317299755"/>
    <nd ref="1317299763"/>
    <nd ref="1317290953"/>
    <tag k="addr:city" v="München"/>
    <tag k="addr:country" v="DE"/>
    <tag k="addr:housenumber" v="6"/>
    <tag k="addr:postcode" v="81667"/>
    <tag k="addr:street" v="Wiener Platz"/>
    <tag k="building" v="retail"/>
    <tag k="wikidata" v="Q41186235"/>
  </way>
  <way id="116950525" version="8" timestamp="2023-04-14T10:37:53Z" changeset="134895962" uid="4376164" user="redweizn">
    <nd ref="1317306521"/>
    <nd ref="1317306520"/>
    <nd ref="1317306523"/>
    <nd ref="1317306522"/>
    <nd ref="1317306521"/>
    <tag k="addr:city" v="München"/>
    <tag k="addr:country" v="DE"/>
    <tag k="addr:housenumber" v="6"/>
    <tag k="addr:street" v="Sckellstraße"/>
    <tag k="building" v="apartments"/>
    <tag k="building:colour" v="cream"/>
    <tag k="building:levels" v="4"/>
    <tag k="roof:shape" v="hipped"/>
    <tag k="source" v="Bing"/>
    <tag k="wikidata" v="Q41185981"/>
  </way>
  <way id="116951662" version="5" timestamp="2021-10-09T14:24:41Z" changeset="112303222" uid="8312062" user="Fadatag">
    <nd ref="1317321349"/>
    <nd ref="1317321330"/>
    <nd ref="1317321333"/>
    <nd ref="1317321327"/>
    <nd ref="1317321349"/>
    <tag k="addr:city" v="München"/>
    <tag k="addr:country" v="DE"/>
    <tag k="addr:housenumber" v="3"/>
    <tag k="addr:postcode" v="81667"/>
    <tag k="addr:street" v="Sckellstraße"/>
    <tag k="building" v="apartments"/>
    <tag k="building:levels" v="4"/>
    <tag k="wikidata" v="Q41185974"/>
  </way>
  <way id="116951707" version="5" timestamp="2021-10-09T14:24:41Z" changeset="112303222" uid="8312062" user="Fadatag">
    <nd ref="1317321327"/>
    <nd ref="1317321333"/>
    <nd ref="1317323981"/>
    <nd ref="1317323980"/>
    <nd ref="1317321327"/>
    <tag k="addr:city" v="München"/>
    <tag k="addr:country" v="DE"/>
    <tag k="addr:housenumber" v="2"/>
    <tag k="addr:postcode" v="81667"/>
    <tag k="addr:street" v="Sckellstraße"/>
    <tag k="building" v="apartments"/>
    <tag k="building:colour" v="#FFF0B0"/>
    <tag k="building:levels" v="4"/>
    <tag k="roof:colour" v="#DDDDDD"/>
    <tag k="wikidata" v="Q41185972"/>
  </way>
  <way id="116951767" version="4" timestamp="2021-10-09T14:24:41Z" changeset="112303222" uid="8312062" user="Fadatag">
    <nd ref="1317327881"/>
    <nd ref="1317327883"/>
    <nd ref="1317327882"/>
    <nd ref="1317327884"/>
    <nd ref="1317327881"/>
    <tag k="addr:city" v="München"/>
    <tag k="addr:country" v="DE"/>
    <tag k="addr:housenumber" v="1"/>
    <tag k="addr:postcode" v="81667"/>
    <tag k="addr:street" v="Sckellstraße"/>
    <tag k="building" v="apartments"/>
    <tag k="building:colour" v="#DDDDDD"/>
    <tag k="building:levels" v="4"/>
    <tag k="roof:shape" v="hipped"/>
  </way>
  <way id="117231843" version="6" timestamp="2025-04-01T13:00:38Z" changeset="164371560" uid="9244608" user="LittleJoeMuc">
    <nd ref="1320497416"/>
    <nd ref="1320497414"/>
    <nd ref="1320497412"/>
    <nd ref="1320497413"/>
    <nd ref="1320497415"/>
    <nd ref="1320497418"/>
    <nd ref="1320497419"/>
    <nd ref="1320497420"/>
    <nd ref="1320497416"/>
    <tag k="addr:housenumber" v="12"/>
    <tag k="addr:street" v="Max-Planck-Straße"/>
    <tag k="building" v="apartments"/>
    <tag k="building:levels" v="5"/>
    <tag k="roof:levels" v="1"/>
    <tag k="roof:shape" v="gabled"/>
    <tag k="source" v="Bing"/>
    <tag k="wikidata" v="Q41185419"/>
  </way>
  <way id="117232140" version="7" timestamp="2023-10-09T05:41:08Z" changeset="142332033" uid="552493" user="lberges">
    <nd ref="1320497416"/>
    <nd ref="5390989474"/>
    <nd ref="1320502087"/>
    <nd ref="1320502086"/>
    <nd ref="5390989473"/>
    <nd ref="1320502085"/>
    <nd ref="1320502089"/>
    <nd ref="1320497420"/>
    <nd ref="1320497416"/>
    <tag k="addr:city" v="München"/>
    <tag k="addr:country" v="DE"/>
    <tag k="addr:housenumber" v="1"/>
    <tag k="addr:postcode" v="81675"/>
    <tag k="addr:street" v="Ismaninger Straße"/>
    <tag k="building" v="apartments"/>
    <tag k="building:levels" v="5"/>
    <tag k="source" v="Bing"/>
    <tag k="wikidata" v="Q41185033"/>
  </way>
  <way id="117232291" version="8" timestamp="2025-04-01T13:01:13Z" changeset="164371560" uid="9244608" user="LittleJoeMuc">
    <nd ref="1320502087"/>
    <nd ref="1320505349"/>
    <nd ref="1320505350"/>
    <nd ref="2524542826"/>
    <nd ref="1320502086"/>
    <nd ref="1320502087"/>
    <tag k="addr:housenumber" v="3"/>
    <tag k="addr:street" v="Ismaninger Straße"/>
    <tag k="building" v="apartments"/>
    <tag k="building:levels" v="5"/>
    <tag k="roof:levels" v="1"/>
    <tag k="roof:shape" v="gabled"/>
    <tag k="source" v="Bing"/>
    <tag k="wikidata" v="Q98644525"/>
  </way>
  <way id="117232418" version="6" timestamp="2025-04-01T13:01:28Z" changeset="164371564" uid="9244608" user="LittleJoeMuc">
    <nd ref="1320505349"/>
    <nd ref="1320512442"/>
    <nd ref="1320512446"/>
    <nd ref="1320512447"/>
    <nd ref="1320505350"/>
    <nd ref="1320505349"/>
    <tag k="addr:housenumber" v="5"/>
    <tag k="addr:street" v="Ismaninger Straße"/>
    <tag k="building" v="apartments"/>
    <tag k="building:levels" v="3"/>
    <tag k="roof:levels" v="2"/>
    <tag k="roof:shape" v="mansard"/>
    <tag k="source" v="Bing"/>
    <tag k="wikidata" v="Q41185043"/>
  </way>
  <way id="118715837" version="5" timestamp="2021-09-25T08:21:29Z" changeset="111677237" uid="78613" user="heilbron">
    <nd ref="1334583119"/>
    <nd ref="1334583125"/>
    <nd ref="1334583123"/>
    <nd ref="1334583121"/>
    <nd ref="1334583116"/>
    <nd ref="1334583114"/>
    <nd ref="1334583105"/>
    <nd ref="1334583119"/>
    <tag k="addr:city" v="München"/>
    <tag k="addr:country" v="DE"/>
    <tag k="addr:housenumber" v="3"/>
    <tag k="addr:street" v="Max-Weber-Platz"/>
    <tag k="building" v="apartments"/>
    <tag k="building:levels" v="5"/>
    <tag k="source" v="Bing"/>
  </way>
  <way id="118990219" version="9" timestamp="2022-09-02T17:51:28Z" changeset="125709614" uid="4376164" user="redweizn">
    <nd ref="1337618748"/>
    <nd ref="1320497415"/>
    <nd ref="1320497413"/>
    <nd ref="1337618749"/>
    <nd ref="1337618747"/>
    <nd ref="1337618748"/>
    <tag k="addr:city" v="München"/>
    <tag k="addr:country" v="DE"/>
    <tag k="addr:housenumber" v="10"/>
    <tag k="addr:postcode" v="81675"/>
    <tag k="addr:street" v="Max-Planck-Straße"/>
    <tag k="building" v="apartments"/>
    <tag k="building:levels" v="4"/>
    <tag k="roof:levels" v="1"/>
    <tag k="roof:shape" v="gabled"/>
    <tag k="source" v="Bing"/>
    <tag k="wikidata" v="Q41185415"/>
  </way>
  <way id="118990276" version="8" timestamp="2022-09-02T17:51:35Z" changeset="125709614" uid="4376164" user="redweizn">
    <nd ref="1337619254"/>
    <nd ref="1337619257"/>
    <nd ref="1337619256"/>
    <nd ref="1337619253"/>
    <nd ref="1337619258"/>
    <nd ref="1337619260"/>
    <nd ref="1337619259"/>
    <nd ref="1337619255"/>
    <nd ref="1337619254"/>
    <tag k="addr:city" v="München"/>
    <tag k="addr:country" v="DE"/>
    <tag k="addr:housenumber" v="6"/>
    <tag k="addr:postcode" v="81675"/>
    <tag k="addr:street" v="Max-Planck-Straße"/>
    <tag k="building" v="apartments"/>
    <tag k="building:levels" v="5"/>
    <tag k="roof:levels" v="2"/>
    <tag k="roof:shape" v="gabled"/>
    <tag k="source" v="Bing"/>
    <tag k="wikidata" v="Q41185410"/>
  </way>
  <way id="118990277" version="6" timestamp="2021-09-25T08:59:34Z" changeset="111679201" uid="78613" user="heilbron">
    <nd ref="1337618747"/>
    <nd ref="1337619255"/>
    <nd ref="1337619254"/>
    <nd ref="1337618749"/>
    <nd ref="1337618747"/>
    <tag k="addr:city" v="München"/>
    <tag k="addr:country" v="DE"/>
    <tag k="addr:housenumber" v="8"/>
    <tag k="addr:postcode" v="81675"/>
    <tag k="addr:street" v="Max-Planck-Straße"/>
    <tag k="building" v="apartments"/>
    <tag k="building:levels" v="4"/>
    <tag k="roof:levels" v="1"/>
    <tag k="source" v="Bing"/>
  </way>
  <way id="118990298" version="8" timestamp="2021-09-25T08:59:35Z" changeset="111679201" uid="78613" user="heilbron">
    <nd ref="1337619642"/>
    <nd ref="1337619256"/>
    <nd ref="1337619257"/>
    <nd ref="1337619640"/>
    <nd ref="1337619642"/>
    <tag k="addr:city" v="München"/>
    <tag k="addr:country" v="DE"/>
    <tag k="addr:housenumber" v="4"/>
    <tag k="addr:postcode" v="81675"/>
    <tag k="addr:street" v="Max-Planck-Straße"/>
    <tag k="building" v="apartments"/>
    <tag k="building:levels" v="4"/>
    <tag k="roof:levels" v="1"/>
    <tag k="source" v="Bing"/>
    <tag k="wikidata" v="Q41185405"/>
  </way>
  <way id="118990428" version="7" timestamp="2023-04-14T10:38:08Z" changeset="134895962" uid="4376164" user="redweizn">
    <nd ref="1337619640"/>
    <nd ref="1337620449"/>
    <nd ref="2524542816"/>
    <nd ref="1337620448"/>
    <nd ref="1337620446"/>
    <nd ref="1337620447"/>
    <nd ref="1337619642"/>
    <nd ref="1337619640"/>
    <tag k="addr:housenumber" v="1"/>
    <tag k="addr:street" v="Maria-Theresia-Straße"/>
    <tag k="building" v="apartments"/>
    <tag k="building:levels" v="4"/>
    <tag k="roof:levels" v="1"/>
    <tag k="roof:shape" v="quadruple_saltbox"/>
    <tag k="source" v="Bing"/>
    <tag k="wikidata" v="Q41185371"/>
  </way>
  <way id="118990542" version="4" timestamp="2022-01-25T08:35:16Z" changeset="116574212" uid="4238158" user="RiderOnTheStorm">
    <nd ref="1337621168"/>
    <nd ref="1337621173"/>
    <nd ref="1337621169"/>
    <nd ref="1337621171"/>
    <nd ref="1337621168"/>
    <tag k="addr:housenumber" v="1a"/>
    <tag k="addr:street" v="Maria-Theresia-Straße"/>
    <tag k="building" v="apartments"/>
    <tag k="source" v="Bing"/>
    <tag k="wikidata" v="Q41185373"/>
  </way>
  <way id="118990556" version="3" timestamp="2022-01-25T08:35:15Z" changeset="116574212" uid="4238158" user="RiderOnTheStorm">
    <nd ref="1337621173"/>
    <nd ref="1337621553"/>
    <nd ref="1337621554"/>
    <nd ref="1337621169"/>
    <nd ref="1337621173"/>
    <tag k="addr:housenumber" v="2"/>
    <tag k="addr:street" v="Maria-Theresia-Straße"/>
    <tag k="building" v="apartments"/>
    <tag k="source" v="Bing"/>
  </way>
  <way id="118990770" version="4" timestamp="2021-09-01T05:59:15Z" changeset="110543364" uid="78613" user="heilbron">
    <nd ref="1337623252"/>
    <nd ref="1320512446"/>
    <nd ref="1320512447"/>
    <nd ref="1337623249"/>
    <nd ref="1337623250"/>
    <nd ref="1337623248"/>
    <nd ref="1337623253"/>
    <nd ref="1337623251"/>
    <nd ref="1337623252"/>
    <tag k="addr:housenumber" v="1"/>
    <tag k="addr:street" v="Bogenstraße"/>
    <tag k="building" v="apartments"/>
    <tag k="source" v="Bing"/>
    <tag k="wikidata" v="Q98644172"/>
  </way>
  <way id="118991330" version="8" timestamp="2023-04-14T10:36:49Z" changeset="134895962" uid="4376164" user="redweizn">
    <nd ref="1317306520"/>
    <nd ref="1337629022"/>
    <nd ref="1337629021"/>
    <nd ref="1337629023"/>
    <nd ref="1337629019"/>
    <nd ref="1337629020"/>
    <nd ref="1317306523"/>
    <nd ref="1317306520"/>
    <tag k="addr:city" v="München"/>
    <tag k="addr:country" v="DE"/>
    <tag k="addr:housenumber" v="3"/>
    <tag k="addr:street" v="Max-Planck-Straße"/>
    <tag k="building" v="apartments"/>
    <tag k="building:colour" v="cream"/>
    <tag k="building:levels" v="4"/>
    <tag k="roof:shape" v="gabled"/>
    <tag k="source" v="Bing"/>
    <tag k="wikidata" v="Q41185401"/>
  </way>
  <way id="118991331" version="7" timestamp="2023-04-14T10:36:35Z" changeset="134895962" uid="4376164" user="redweizn">
    <nd ref="1337628881"/>
    <nd ref="1337629022"/>
    <nd ref="1337629021"/>
    <nd ref="1337628882"/>
    <nd ref="1337628881"/>
    <tag k="addr:city" v="München"/>
    <tag k="addr:country" v="DE"/>
    <tag k="addr:housenumber" v="5"/>
    <tag k="addr:street" v="Max-Planck-Straße"/>
    <tag k="building" v="apartments"/>
    <tag k="building:colour" v="cream"/>
    <tag k="building:levels" v="4"/>
    <tag k="roof:shape" v="gabled"/>
    <tag k="source" v="Bing"/>
  </way>
  <way id="118994969" version="10" timestamp="2023-10-24T14:34:00Z" changeset="143068510" uid="78613" user="heilbron">
    <nd ref="1337682201"/>
    <nd ref="1337683322"/>
    <nd ref="8259783396"/>
    <nd ref="1337683326"/>
    <nd ref="1337683325"/>
    <nd ref="1350044302"/>
    <nd ref="1337683323"/>
    <nd ref="1337683327"/>
    <nd ref="1337683324"/>
    <nd ref="1337680570"/>
    <nd ref="9918805622"/>
    <nd ref="1337680566"/>
    <nd ref="1337682200"/>
    <nd ref="1337682201"/>
    <tag k="addr:city" v="München"/>
    <tag k="addr:country" v="DE"/>
    <tag k="addr:housenumber" v="1"/>
    <tag k="addr:street" v="Max-Weber-Platz"/>
    <tag k="building" v="apartments"/>
    <tag k="building:levels" v="5"/>
    <tag k="roof:levels" v="1"/>
    <tag k="roof:shape" v="quadruple_saltbox"/>
    <tag k="source" v="Bing"/>
    <tag k="wikidata" v="Q41185425"/>
  </way>
  <way id="118998191" version="6" timestamp="2023-01-14T10:21:04Z" changeset="131258881" uid="4376164" user="redweizn">
    <nd ref="1337694489"/>
    <nd ref="1337694491"/>
    <nd ref="1337694492"/>
    <nd ref="1563586572"/>
    <nd ref="1563586576"/>
    <nd ref="1563586573"/>
    <nd ref="1317299761"/>
    <nd ref="1337694489"/>
    <tag k="addr:city" v="München"/>
    <tag k="addr:country" v="DE"/>
    <tag k="addr:housenumber" v="4"/>
    <tag k="addr:postcode" v="81667"/>
    <tag k="addr:street" v="Wiener Platz"/>
    <tag k="building" v="retail"/>
    <tag k="roof:shape" v="gabled"/>
    <tag k="wikidata" v="Q41186229"/>
  </way>
  <way id="119002676" version="16" timestamp="2025-04-12T16:46:47Z" changeset="164864406" uid="18850925" user="cableway">
    <nd ref="1337701122"/>
    <nd ref="3784530091"/>
    <nd ref="1688813390"/>
    <nd ref="1337725341"/>
    <nd ref="1688813396"/>
    <nd ref="609553064"/>
    <tag k="class:bicycle" v="-2"/>
    <tag k="cycleway:both" v="no"/>
    <tag k="highway" v="secondary"/>
    <tag k="lanes" v="2"/>
    <tag k="lit" v="yes"/>
    <tag k="maxspeed" v="30"/>
    <tag k="name" v="Innere Wiener Straße"/>
    <tag k="parking:right" v="yes"/>
    <tag k="parking:right:orientation" v="parallel"/>
    <tag k="sidewalk" v="separate"/>
    <tag k="source:maxspeed" v="sign"/>
    <tag k="surface" v="asphalt"/>
    <tag k="tmc" v="DE:35422/35423"/>
  </way>
  <way id="119003859" version="7" timestamp="2023-01-14T10:21:42Z" changeset="131258881" uid="4376164" user="redweizn">
    <nd ref="1337786066"/>
    <nd ref="1337786068"/>
    <nd ref="1317293727"/>
    <nd ref="1337786065"/>
    <nd ref="1337786066"/>
    <tag k="addr:city" v="München"/>
    <tag k="addr:country" v="DE"/>
    <tag k="addr:housenumber" v="8"/>
    <tag k="addr:postcode" v="81667"/>
    <tag k="addr:street" v="Grütznerstraße"/>
    <tag k="building" v="office"/>
    <tag k="roof:shape" v="gabled"/>
    <tag k="wikidata" v="Q98643904"/>
  </way>
  <way id="119051580" version="7" timestamp="2023-01-14T10:22:00Z" changeset="131258881" uid="4376164" user="redweizn">
    <nd ref="1337786633"/>
    <nd ref="1337786632"/>
    <nd ref="1338434664"/>
    <nd ref="1563586596"/>
    <nd ref="1338434666"/>
    <nd ref="1338434667"/>
    <nd ref="1338434665"/>
    <nd ref="1338434663"/>
    <nd ref="2524542769"/>
    <nd ref="1338434668"/>
    <nd ref="1338434669"/>
    <nd ref="1337786633"/>
    <tag k="addr:city" v="München"/>
    <tag k="addr:country" v="DE"/>
    <tag k="addr:housenumber" v="6"/>
    <tag k="addr:postcode" v="81667"/>
    <tag k="addr:street" v="Grütznerstraße"/>
    <tag k="building" v="apartments"/>
    <tag k="roof:shape" v="gabled"/>
    <tag k="wikidata" v="Q41184965"/>
  </way>
  <way id="119051722" version="7" timestamp="2023-05-18T18:45:15Z" changeset="136268766" uid="8312062" user="Fadatag">
    <nd ref="1338435657"/>
    <nd ref="1338435658"/>
    <nd ref="1338435659"/>
    <nd ref="1338435656"/>
    <nd ref="1338435657"/>
    <tag k="addr:city" v="München"/>
    <tag k="addr:country" v="DE"/>
    <tag k="addr:housenumber" v="5"/>
    <tag k="addr:postcode" v="81667"/>
    <tag k="addr:street" v="Grütznerstraße"/>
    <tag k="building" v="apartments"/>
    <tag k="building:levels" v="3"/>
    <tag k="roof:levels" v="1"/>
    <tag k="roof:shape" v="quadruple_saltbox"/>
    <tag k="wikidata" v="Q41184964"/>
  </way>
  <way id="119051906" version="6" timestamp="2023-05-18T18:45:16Z" changeset="136268766" uid="8312062" user="Fadatag">
    <nd ref="1338437040"/>
    <nd ref="1338437044"/>
    <nd ref="1338437042"/>
    <nd ref="1338437061"/>
    <nd ref="1338437050"/>
    <nd ref="1338437054"/>
    <nd ref="1338437055"/>
    <nd ref="1338437041"/>
    <nd ref="1338437040"/>
    <tag k="addr:housenumber" v="1"/>
    <tag k="addr:street" v="Grütznerstraße"/>
    <tag k="building" v="apartments"/>
    <tag k="building:levels" v="3"/>
    <tag k="name" v="Eduard-von-Grützner-Haus"/>
    <tag k="roof:levels" v="1"/>
    <tag k="source" v="Bing"/>
    <tag k="wikidata" v="Q41184959"/>
    <tag k="wikipedia" v="de:Eduard von Grützner"/>
  </way>
  <way id="119051908" version="6" timestamp="2023-05-18T18:45:15Z" changeset="136268766" uid="8312062" user="Fadatag">
    <nd ref="1338437052"/>
    <nd ref="1338437039"/>
    <nd ref="1338437045"/>
    <nd ref="1338437049"/>
    <nd ref="1338437064"/>
    <nd ref="1338437052"/>
    <tag k="addr:housenumber" v="3"/>
    <tag k="addr:street" v="Grütznerstraße"/>
    <tag k="building" v="apartments"/>
    <tag k="building:levels" v="3"/>
    <tag k="roof:levels" v="1"/>
    <tag k="roof:shape" v="quadruple_saltbox"/>
    <tag k="source" v="Bing"/>
    <tag k="wikidata" v="Q41184962"/>
  </way>
  <way id="119051910" version="6" timestamp="2023-05-18T18:45:15Z" changeset="136268766" uid="8312062" user="Fadatag">
    <nd ref="1338437047"/>
    <nd ref="1338437046"/>
    <nd ref="1338437064"/>
    <nd ref="1338437052"/>
    <nd ref="1338437047"/>
    <tag k="addr:housenumber" v="4"/>
    <tag k="addr:street" v="Grütznerstraße"/>
    <tag k="building" v="apartments"/>
    <tag k="building:levels" v="3"/>
    <tag k="roof:levels" v="1"/>
    <tag k="roof:shape" v="quadruple_saltbox"/>
    <tag k="source" v="Bing"/>
    <tag k="wikidata" v="Q41184963"/>
  </way>
  <way id="119051911" version="5" timestamp="2023-05-18T18:45:16Z" changeset="136268766" uid="8312062" user="Fadatag">
    <nd ref="1338437039"/>
    <nd ref="1338437043"/>
    <nd ref="1338437041"/>
    <nd ref="1338437040"/>
    <nd ref="1338437045"/>
    <nd ref="1338437039"/>
    <tag k="addr:housenumber" v="2"/>
    <tag k="addr:street" v="Grütznerstraße"/>
    <tag k="building" v="office"/>
    <tag k="building:levels" v="4"/>
    <tag k="roof:levels" v="1"/>
    <tag k="roof:shape" v="quadruple_saltbox"/>
    <tag k="source" v="Bing"/>
  </way>
  <way id="120393472" version="5" timestamp="2020-11-21T22:10:15Z" changeset="94563384" uid="43207" user="kdkeller">
    <nd ref="1350036527"/>
    <nd ref="1350036528"/>
    <nd ref="1350036530"/>
    <nd ref="1563586614"/>
    <nd ref="1563586617"/>
    <nd ref="1350036529"/>
    <nd ref="1410401850"/>
    <nd ref="1350036527"/>
    <tag k="addr:city" v="München"/>
    <tag k="addr:country" v="DE"/>
    <tag k="addr:housenumber" v="5"/>
    <tag k="addr:postcode" v="81667"/>
    <tag k="addr:street" v="An der Kreppe"/>
    <tag k="amenity" v="social_facility"/>
    <tag k="building" v="yes"/>
    <tag k="contact:email" v="kreppe-jade@kinderschutz.de"/>
    <tag k="contact:phone" v="+49 89 231716-7611"/>
    <tag k="name" v="Kreppe JADE"/>
    <tag k="social_facility" v="outreach"/>
    <tag k="social_facility:for" v="juvenile"/>
    <tag k="wikidata" v="Q41184757"/>
  </way>
  <way id="120394581" version="8" timestamp="2023-10-24T14:34:00Z" changeset="143068510" uid="78613" user="heilbron">
    <nd ref="1337683325"/>
    <nd ref="1337683326"/>
    <nd ref="1350030726"/>
    <nd ref="1350030724"/>
    <nd ref="1337683325"/>
    <tag k="addr:city" v="München"/>
    <tag k="addr:country" v="DE"/>
    <tag k="addr:housenumber" v="61"/>
    <tag k="addr:street" v="Innere Wiener Straße"/>
    <tag k="building" v="apartments"/>
    <tag k="building:levels" v="5"/>
    <tag k="roof:levels" v="1"/>
    <tag k="roof:shape" v="gabled"/>
    <tag k="source" v="Bing"/>
    <tag k="wikidata" v="Q41185030"/>
  </way>
  <way id="120394756" version="7" timestamp="2023-10-24T14:34:00Z" changeset="143068510" uid="78613" user="heilbron">
    <nd ref="1350030726"/>
    <nd ref="1350030725"/>
    <nd ref="1350030723"/>
    <nd ref="1350030724"/>
    <nd ref="1350030726"/>
    <tag k="addr:city" v="München"/>
    <tag k="addr:country" v="DE"/>
    <tag k="addr:housenumber" v="59"/>
    <tag k="addr:postcode" v="81667"/>
    <tag k="addr:street" v="Innere Wiener Straße"/>
    <tag k="building" v="apartments"/>
    <tag k="building:levels" v="4"/>
    <tag k="roof:levels" v="1"/>
    <tag k="roof:shape" v="gabled"/>
    <tag k="source" v="Bing"/>
    <tag k="wikidata" v="Q41185024"/>
  </way>
  <way id="120567066" version="15" timestamp="2025-04-12T16:46:46Z" changeset="164864406" uid="18850925" user="cableway">
    <nd ref="1351611447"/>
    <nd ref="1350044986"/>
    <nd ref="4971744027"/>
    <nd ref="1670330667"/>
    <nd ref="2846988376"/>
    <tag k="class:bicycle" v="-2"/>
    <tag k="cycleway:both" v="no"/>
    <tag k="highway" v="secondary"/>
    <tag k="lanes" v="2"/>
    <tag k="lit" v="yes"/>
    <tag k="maxspeed" v="50"/>
    <tag k="name" v="Innere Wiener Straße"/>
    <tag k="sidewalk" v="separate"/>
    <tag k="source:maxspeed" v="DE:urban"/>
    <tag k="surface" v="asphalt"/>
    <tag k="tmc" v="DE:35422/35423"/>
  </way>
  <way id="120567069" version="10" timestamp="2025-04-12T16:46:48Z" changeset="164864406" uid="18850925" user="cableway">
    <nd ref="1351611447"/>
    <nd ref="1688813419"/>
    <tag k="cycleway:both" v="no"/>
    <tag k="highway" v="residential"/>
    <tag k="lane_markings" v="no"/>
    <tag k="lit" v="yes"/>
    <tag k="maxspeed" v="50"/>
    <tag k="name" v="Kirchenstraße"/>
    <tag k="oneway" v="yes"/>
    <tag k="sidewalk:right" v="separate"/>
    <tag k="source:maxspeed" v="DE:urban"/>
    <tag k="surface" v="asphalt"/>
  </way>
  <way id="120751146" version="3" timestamp="2023-10-24T14:33:58Z" changeset="143068509" uid="78613" user="heilbron">
    <nd ref="1353145885"/>
    <nd ref="1353145930"/>
    <nd ref="1353145895"/>
    <nd ref="1353145915"/>
    <nd ref="1353145885"/>
    <tag k="addr:housenumber" v="10"/>
    <tag k="addr:street" v="Untere Feldstraße"/>
    <tag k="building" v="apartments"/>
    <tag k="source" v="Bing"/>
  </way>
  <way id="120751147" version="2" timestamp="2011-07-08T00:07:06Z" changeset="8662281" uid="64164" user="osmkurt">
    <nd ref="1353145930"/>
    <nd ref="1353145923"/>
    <nd ref="1353145899"/>
    <nd ref="1353145889"/>
    <nd ref="1353145895"/>
    <nd ref="1353145930"/>
    <tag k="addr:housenumber" v="12"/>
    <tag k="addr:street" v="Untere Feldstraße"/>
    <tag k="building" v="yes"/>
    <tag k="source" v="Bing"/>
  </way>
  <way id="120751149" version="2" timestamp="2011-07-29T00:21:40Z" changeset="8859642" uid="64164" user="osmkurt">
    <nd ref="1353138229"/>
    <nd ref="1353145905"/>
    <nd ref="1353145896"/>
    <nd ref="1353138224"/>
    <nd ref="1353138229"/>
    <tag k="addr:housenumber" v="8"/>
    <tag k="addr:street" v="Bogenstraße"/>
    <tag k="building" v="yes"/>
    <tag k="source" v="Bing"/>
  </way>
  <way id="120751150" version="2" timestamp="2011-07-07T23:53:36Z" changeset="8662198" uid="64164" user="osmkurt">
    <nd ref="1353145905"/>
    <nd ref="1353145910"/>
    <nd ref="1353145887"/>
    <nd ref="1353145896"/>
    <nd ref="1353145905"/>
    <tag k="addr:housenumber" v="9"/>
    <tag k="addr:street" v="Bogenstraße"/>
    <tag k="building" v="yes"/>
    <tag k="source" v="Bing"/>
  </way>
  <way id="120751151" version="6" timestamp="2023-06-06T09:26:10Z" changeset="137005951" uid="8748" user="ToniE">
    <nd ref="1353145891"/>
    <nd ref="1353145900"/>
    <nd ref="1353145916"/>
    <nd ref="1353145923"/>
    <nd ref="1353145899"/>
    <nd ref="1353145909"/>
    <nd ref="1353145902"/>
    <nd ref="1353145903"/>
    <nd ref="1353145931"/>
    <nd ref="1353145891"/>
    <tag k="addr:city" v="München"/>
    <tag k="addr:country" v="DE"/>
    <tag k="addr:housenumber" v="7"/>
    <tag k="addr:street" v="Ismaninger Straße"/>
    <tag k="building" v="apartments"/>
    <tag k="building:levels" v="4"/>
    <tag k="source" v="Bing"/>
  </way>
  <way id="120751152" version="4" timestamp="2023-10-24T14:33:59Z" changeset="143068510" uid="78613" user="heilbron">
    <nd ref="1353145920"/>
    <nd ref="1353145921"/>
    <nd ref="1353145932"/>
    <nd ref="1353145918"/>
    <nd ref="1353145920"/>
    <tag k="addr:housenumber" v="6"/>
    <tag k="addr:street" v="Untere Feldstraße"/>
    <tag k="building" v="apartments"/>
    <tag k="building:levels" v="2"/>
    <tag k="roof:levels" v="1"/>
    <tag k="source" v="Bing"/>
  </way>
  <way id="120752598" version="4" timestamp="2023-10-24T14:33:58Z" changeset="143068510" uid="78613" user="heilbron">
    <nd ref="1353138230"/>
    <nd ref="1353138232"/>
    <nd ref="1353138231"/>
    <nd ref="1353138238"/>
    <nd ref="1353161190"/>
    <nd ref="1353161189"/>
    <nd ref="1353138230"/>
    <tag k="addr:housenumber" v="2"/>
    <tag k="addr:street" v="Untere Feldstraße"/>
    <tag k="building" v="apartments"/>
    <tag k="building:levels" v="4"/>
    <tag k="roof:levels" v="1"/>
    <tag k="source" v="Bing"/>
  </way>
  <way id="120752602" version="3" timestamp="2021-09-01T05:59:16Z" changeset="110543514" uid="78613" user="heilbron">
    <nd ref="1353138242"/>
    <nd ref="1353138229"/>
    <nd ref="1353138224"/>
    <nd ref="1353138240"/>
    <nd ref="1353161189"/>
    <nd ref="1353161190"/>
    <nd ref="1353138242"/>
    <tag k="addr:housenumber" v="2a"/>
    <tag k="addr:street" v="Maria-Theresia-Straße"/>
    <tag k="building" v="hotel"/>
    <tag k="building:levels" v="4"/>
    <tag k="roof:levels" v="2"/>
    <tag k="source" v="Bing"/>
  </way>
  <way id="120753142" version="6" timestamp="2023-10-24T14:33:58Z" changeset="143068510" uid="78613" user="heilbron">
    <nd ref="1353165711"/>
    <nd ref="1353165714"/>
    <nd ref="1353165713"/>
    <nd ref="1353200614"/>
    <nd ref="1353165712"/>
    <nd ref="1353165716"/>
    <nd ref="1353165711"/>
    <tag k="addr:city" v="München"/>
    <tag k="addr:country" v="DE"/>
    <tag k="addr:housenumber" v="9"/>
    <tag k="addr:street" v="Ismaninger Straße"/>
    <tag k="building" v="apartments"/>
    <tag k="building:levels" v="4"/>
    <tag k="roof:levels" v="1"/>
    <tag k="source" v="Bing"/>
  </way>
  <way id="120753191" version="1" timestamp="2011-07-08T00:04:57Z" changeset="8662281" uid="64164" user="osmkurt">
    <nd ref="1353167498"/>
    <nd ref="1353167496"/>
    <nd ref="1353167497"/>
    <nd ref="1353167499"/>
    <nd ref="1353167498"/>
    <tag k="addr:housenumber" v="9"/>
    <tag k="addr:street" v="Untere Feldstraße"/>
    <tag k="building" v="yes"/>
    <tag k="source" v="Bing"/>
  </way>
  <way id="120753237" version="7" timestamp="2024-02-10T23:11:23Z" changeset="147311369" uid="18069" user="Claudius Henrichs">
    <nd ref="1353182459"/>
    <nd ref="1353190823"/>
    <nd ref="1353169389"/>
    <nd ref="1353169398"/>
    <nd ref="1353182460"/>
    <nd ref="1353182459"/>
    <tag k="amenity" v="place_of_worship"/>
    <tag k="building" v="church"/>
    <tag k="denomination" v="christ_scientist"/>
    <tag k="name" v="Zweite Kirche Christi Wissenschafter München"/>
    <tag k="religion" v="christian"/>
    <tag k="source" v="Bing"/>
  </way>
  <way id="120753238" version="2" timestamp="2011-07-08T00:07:59Z" changeset="8662281" uid="64164" user="osmkurt">
    <nd ref="1353169394"/>
    <nd ref="1353169388"/>
    <nd ref="1353169389"/>
    <nd ref="1353169393"/>
    <nd ref="1353169394"/>
    <tag k="addr:housenumber" v="5"/>
    <tag k="addr:street" v="Untere Feldstraße"/>
    <tag k="building" v="yes"/>
    <tag k="source" v="Bing"/>
  </way>
  <way id="120753239" version="2" timestamp="2011-07-08T00:07:59Z" changeset="8662281" uid="64164" user="osmkurt">
    <nd ref="1353167497"/>
    <nd ref="1353169394"/>
    <nd ref="1353169393"/>
    <nd ref="1353169395"/>
    <nd ref="1353169387"/>
    <nd ref="1353167497"/>
    <tag k="addr:housenumber" v="7"/>
    <tag k="addr:street" v="Untere Feldstraße"/>
    <tag k="building" v="yes"/>
    <tag k="source" v="Bing"/>
  </way>
  <way id="120753541" version="1" timestamp="2011-07-08T00:10:23Z" changeset="8662281" uid="64164" user="osmkurt">
    <nd ref="1353145920"/>
    <nd ref="1353175673"/>
    <nd ref="1353175671"/>
    <nd ref="1353145918"/>
    <nd ref="1353145920"/>
    <tag k="addr:housenumber" v="4"/>
    <tag k="addr:street" v="Untere Feldstraße"/>
    <tag k="building" v="yes"/>
    <tag k="source" v="Bing"/>
  </way>
  <way id="120755109" version="3" timestamp="2020-11-21T22:11:08Z" changeset="94563384" uid="43207" user="kdkeller">
    <nd ref="1353182460"/>
    <nd ref="1353196608"/>
    <nd ref="1353196609"/>
    <nd ref="1353196610"/>
    <nd ref="1353196612"/>
    <nd ref="1353182459"/>
    <nd ref="1353182460"/>
    <tag k="addr:housenumber" v="3"/>
    <tag k="addr:street" v="Maria-Theresia-Straße"/>
    <tag k="building" v="yes"/>
    <tag k="source" v="Bing"/>
    <tag k="wikidata" v="Q41185378"/>
  </way>
  <way id="120755664" version="4" timestamp="2021-09-01T05:59:10Z" changeset="110543514" uid="78613" user="heilbron">
    <nd ref="1353200616"/>
    <nd ref="1353200617"/>
    <nd ref="1353200613"/>
    <nd ref="1353200633"/>
    <nd ref="1353200616"/>
    <tag k="addr:housenumber" v="6"/>
    <tag k="addr:street" v="Langerstraße"/>
    <tag k="building" v="apartments"/>
    <tag k="building:levels" v="5"/>
    <tag k="roof:levels" v="1"/>
    <tag k="source" v="Bing"/>
  </way>
  <way id="120755665" version="4" timestamp="2021-09-01T05:59:09Z" changeset="110543514" uid="78613" user="heilbron">
    <nd ref="1353200630"/>
    <nd ref="1353200635"/>
    <nd ref="1353200634"/>
    <nd ref="1353200629"/>
    <nd ref="1353200628"/>
    <nd ref="1353200611"/>
    <nd ref="1353200630"/>
    <tag k="addr:housenumber" v="2"/>
    <tag k="addr:street" v="Langerstraße"/>
    <tag k="building" v="apartments"/>
    <tag k="building:levels" v="5"/>
    <tag k="roof:levels" v="1"/>
    <tag k="source" v="Bing"/>
  </way>
  <way id="120755666" version="4" timestamp="2021-09-01T05:59:09Z" changeset="110543514" uid="78613" user="heilbron">
    <nd ref="1353200629"/>
    <nd ref="1353200616"/>
    <nd ref="1353200633"/>
    <nd ref="1353200615"/>
    <nd ref="1353200634"/>
    <nd ref="1353200629"/>
    <tag k="addr:housenumber" v="4"/>
    <tag k="addr:street" v="Langerstraße"/>
    <tag k="building" v="apartments"/>
    <tag k="building:levels" v="4"/>
    <tag k="roof:levels" v="1"/>
    <tag k="source" v="Bing"/>
  </way>
  <way id="120755667" version="5" timestamp="2023-06-06T09:26:10Z" changeset="137005951" uid="8748" user="ToniE">
    <nd ref="1353200617"/>
    <nd ref="1353200632"/>
    <nd ref="1353200612"/>
    <nd ref="1353200613"/>
    <nd ref="1353200617"/>
    <tag k="addr:city" v="München"/>
    <tag k="addr:country" v="DE"/>
    <tag k="addr:housenumber" v="8"/>
    <tag k="addr:street" v="Langerstraße"/>
    <tag k="building" v="apartments"/>
    <tag k="building:levels" v="4"/>
    <tag k="roof:levels" v="1"/>
    <tag k="source" v="Bing"/>
  </way>
  <way id="120759639" version="4" timestamp="2022-11-07T19:33:42Z" changeset="128611250" uid="536583" user="Strubbl">
    <nd ref="1353252172"/>
    <nd ref="1353252159"/>
    <nd ref="1353252181"/>
    <nd ref="1353252174"/>
    <nd ref="1353252172"/>
    <tag k="addr:housenumber" v="16"/>
    <tag k="addr:postcode" v="81675"/>
    <tag k="addr:street" v="Maria-Theresia-Straße"/>
    <tag k="building" v="yes"/>
    <tag k="website" v="https://www.ubs.com/de/de.html"/>
  </way>
  <way id="120770915" version="4" timestamp="2021-09-01T05:59:00Z" changeset="110543538" uid="78613" user="heilbron">
    <nd ref="1353397518"/>
    <nd ref="988188360"/>
    <nd ref="988188483"/>
    <nd ref="1353397517"/>
    <nd ref="1353397518"/>
    <tag k="addr:housenumber" v="23"/>
    <tag k="addr:street" v="Ismaninger Straße"/>
    <tag k="building" v="office"/>
    <tag k="building:levels" v="3"/>
    <tag k="roof:shape" v="flat"/>
    <tag k="source" v="Bing"/>
  </way>
  <way id="122475448" version="6" timestamp="2023-06-18T15:48:55Z" changeset="137483746" uid="16518908" user="Mapandy">
    <nd ref="1368513617"/>
    <nd ref="1368513623"/>
    <nd ref="4427961040"/>
    <nd ref="1368513621"/>
    <nd ref="4427961038"/>
    <nd ref="1368513612"/>
    <nd ref="4427961039"/>
    <nd ref="1368513617"/>
    <tag k="addr:city" v="München"/>
    <tag k="addr:country" v="DE"/>
    <tag k="addr:housenumber" v="1a"/>
    <tag k="addr:postcode" v="81667"/>
    <tag k="addr:street" v="Sckellstraße"/>
    <tag k="building" v="yes"/>
    <tag k="building:levels" v="1"/>
    <tag k="check_date" v="2023-06-18"/>
    <tag k="name" v="Haidhauser Brotzeitstandl"/>
    <tag k="roof:shape" v="pyramidal"/>
    <tag k="shop" v="kiosk"/>
    <tag k="toilets:wheelchair" v="no"/>
    <tag k="wheelchair" v="yes"/>
  </way>
  <way id="127237617" version="9" timestamp="2024-08-03T07:12:25Z" changeset="154761559" uid="3594360" user="kosmer">
    <nd ref="28097353"/>
    <nd ref="1688813316"/>
    <nd ref="1408793568"/>
    <nd ref="428777"/>
    <tag k="bicycle" v="use_sidepath"/>
    <tag k="foot" v="use_sidepath"/>
    <tag k="highway" v="secondary"/>
    <tag k="lane_markings" v="no"/>
    <tag k="lit" v="yes"/>
    <tag k="maxspeed" v="50"/>
    <tag k="name" v="Rosenheimer Straße"/>
    <tag k="name:etymology:wikidata" v="Q4007"/>
    <tag k="oneway" v="yes"/>
    <tag k="surface" v="asphalt"/>
  </way>
  <way id="127419272" version="3" timestamp="2020-11-21T22:10:14Z" changeset="94563384" uid="43207" user="kdkeller">
    <nd ref="1410401850"/>
    <nd ref="1350036529"/>
    <nd ref="1410401859"/>
    <nd ref="1410401861"/>
    <nd ref="1410401860"/>
    <nd ref="1563586615"/>
    <nd ref="1410401850"/>
    <tag k="addr:city" v="München"/>
    <tag k="addr:country" v="DE"/>
    <tag k="addr:housenumber" v="1"/>
    <tag k="addr:postcode" v="81667"/>
    <tag k="addr:street" v="An der Kreppe"/>
    <tag k="building" v="yes"/>
    <tag k="wikidata" v="Q41184753"/>
  </way>
  <way id="127419538" version="3" timestamp="2020-11-21T22:10:14Z" changeset="94563384" uid="43207" user="kdkeller">
    <nd ref="1410405096"/>
    <nd ref="1563586621"/>
    <nd ref="1410405094"/>
    <nd ref="1410405089"/>
    <nd ref="1410405092"/>
    <nd ref="1410405096"/>
    <tag k="addr:city" v="München"/>
    <tag k="addr:country" v="DE"/>
    <tag k="addr:housenumber" v="3"/>
    <tag k="addr:postcode" v="81667"/>
    <tag k="addr:street" v="An der Kreppe"/>
    <tag k="building" v="yes"/>
    <tag k="wikidata" v="Q41184754"/>
  </way>
  <way id="142266679" version="3" timestamp="2021-09-11T15:13:00Z" changeset="111066562" uid="78613" user="heilbron">
    <nd ref="330917685"/>
    <nd ref="2524590457"/>
    <nd ref="1557146888"/>
    <nd ref="1557146890"/>
    <nd ref="1557146893"/>
    <nd ref="1557146897"/>
    <nd ref="1557146898"/>
    <nd ref="1557146896"/>
    <nd ref="330917677"/>
    <nd ref="330917581"/>
    <nd ref="2524590448"/>
    <nd ref="330917575"/>
    <nd ref="330917685"/>
    <tag k="addr:city" v="München"/>
    <tag k="addr:country" v="DE"/>
    <tag k="addr:housenumber" v="11"/>
    <tag k="addr:postcode" v="81667"/>
    <tag k="addr:street" v="Innere Wiener Straße"/>
    <tag k="building" v="apartments"/>
  </way>
  <way id="142266680" version="1" timestamp="2011-12-21T13:57:58Z" changeset="10171820" uid="109029" user="shorty_de">
    <nd ref="1557146904"/>
    <nd ref="330917653"/>
    <nd ref="330917599"/>
    <nd ref="330917594"/>
    <nd ref="330917587"/>
    <nd ref="330917581"/>
    <nd ref="330917677"/>
    <nd ref="1557146903"/>
    <nd ref="1557146904"/>
    <tag k="addr:city" v="München"/>
    <tag k="addr:country" v="DE"/>
    <tag k="addr:housenumber" v="11a"/>
    <tag k="addr:postcode" v="81667"/>
    <tag k="addr:street" v="Innere Wiener Straße"/>
    <tag k="building" v="yes"/>
  </way>
  <way id="142266681" version="2" timestamp="2013-11-08T19:14:43Z" changeset="18787912" uid="8748" user="ToniE">
    <nd ref="330917606"/>
    <nd ref="2524590484"/>
    <nd ref="330917599"/>
    <nd ref="330917653"/>
    <nd ref="2524590494"/>
    <nd ref="1557146905"/>
    <nd ref="1557146907"/>
    <nd ref="1557146910"/>
    <nd ref="1557146906"/>
    <nd ref="330917644"/>
    <nd ref="330917606"/>
    <tag k="addr:city" v="München"/>
    <tag k="addr:country" v="DE"/>
    <tag k="addr:housenumber" v="13"/>
    <tag k="addr:postcode" v="81667"/>
    <tag k="addr:street" v="Innere Wiener Straße"/>
    <tag k="building" v="yes"/>
  </way>
  <way id="142266682" version="2" timestamp="2022-01-25T08:34:53Z" changeset="116574212" uid="4238158" user="RiderOnTheStorm">
    <nd ref="1557146903"/>
    <nd ref="1557146908"/>
    <nd ref="1557146913"/>
    <nd ref="1557146904"/>
    <nd ref="1557146903"/>
    <tag k="addr:city" v="München"/>
    <tag k="addr:country" v="DE"/>
    <tag k="addr:housenumber" v="13a"/>
    <tag k="addr:postcode" v="81667"/>
    <tag k="addr:street" v="Innere Wiener Straße"/>
    <tag k="building" v="apartments"/>
  </way>
  <way id="142266683" version="2" timestamp="2022-01-25T08:34:52Z" changeset="116574212" uid="4238158" user="RiderOnTheStorm">
    <nd ref="1557146908"/>
    <nd ref="330917669"/>
    <nd ref="330917663"/>
    <nd ref="1557146913"/>
    <nd ref="1557146908"/>
    <tag k="addr:city" v="München"/>
    <tag k="addr:country" v="DE"/>
    <tag k="addr:housenumber" v="13b"/>
    <tag k="addr:postcode" v="81667"/>
    <tag k="addr:street" v="Innere Wiener Straße"/>
    <tag k="building" v="apartments"/>
  </way>
  <way id="142266684" version="3" timestamp="2016-10-02T19:39:52Z" changeset="42590204" uid="78613" user="heilbron">
    <nd ref="1557146918"/>
    <nd ref="330917638"/>
    <nd ref="330917629"/>
    <nd ref="2524542706"/>
    <nd ref="1557146919"/>
    <nd ref="1557146918"/>
    <tag k="addr:city" v="München"/>
    <tag k="addr:country" v="DE"/>
    <tag k="addr:housenumber" v="13c"/>
    <tag k="addr:postcode" v="81667"/>
    <tag k="addr:street" v="Innere Wiener Straße"/>
    <tag k="building" v="yes"/>
    <tag k="building:levels" v="5"/>
  </way>
  <way id="142266685" version="2" timestamp="2016-10-02T19:39:53Z" changeset="42590204" uid="78613" user="heilbron">
    <nd ref="1557146918"/>
    <nd ref="1557146919"/>
    <nd ref="330917622"/>
    <nd ref="330917614"/>
    <nd ref="330917606"/>
    <nd ref="330917644"/>
    <nd ref="1557146918"/>
    <tag k="addr:city" v="München"/>
    <tag k="addr:country" v="DE"/>
    <tag k="addr:housenumber" v="15"/>
    <tag k="addr:postcode" v="81667"/>
    <tag k="addr:street" v="Innere Wiener Straße"/>
    <tag k="building" v="yes"/>
    <tag k="building:colour" v="#FFFFC0"/>
    <tag k="building:levels" v="5"/>
  </way>
  <way id="142266687" version="3" timestamp="2022-03-05T14:39:14Z" changeset="118128703" uid="9657752" user="AnnoDietz">
    <nd ref="1557146927"/>
    <nd ref="1557146931"/>
    <nd ref="1557146933"/>
    <nd ref="1557146929"/>
    <nd ref="1557146927"/>
    <tag k="addr:city" v="München"/>
    <tag k="addr:country" v="DE"/>
    <tag k="addr:housenumber" v="3a"/>
    <tag k="addr:postcode" v="81667"/>
    <tag k="addr:street" v="Innere Wiener Straße"/>
    <tag k="building" v="yes"/>
  </way>
  <way id="142266691" version="4" timestamp="2022-03-05T14:39:50Z" changeset="118128729" uid="9657752" user="AnnoDietz">
    <nd ref="330917746"/>
    <nd ref="330917740"/>
    <nd ref="1557146864"/>
    <nd ref="1557146866"/>
    <nd ref="1557146861"/>
    <nd ref="1557146858"/>
    <nd ref="1557146821"/>
    <nd ref="1557146814"/>
    <nd ref="1313729942"/>
    <nd ref="1313729936"/>
    <nd ref="1313729937"/>
    <nd ref="1557146862"/>
    <nd ref="1557146867"/>
    <nd ref="330917746"/>
    <tag k="addr:city" v="München"/>
    <tag k="addr:country" v="DE"/>
    <tag k="addr:housenumber" v="5a"/>
    <tag k="addr:postcode" v="81667"/>
    <tag k="addr:street" v="Innere Wiener Straße"/>
    <tag k="building" v="apartments"/>
    <tag k="building:levels" v="5"/>
    <tag k="roof:levels" v="1"/>
    <tag k="roof:shape" v="flat"/>
  </way>
  <way id="142266692" version="3" timestamp="2013-11-08T19:24:26Z" changeset="18788066" uid="8748" user="ToniE">
    <nd ref="1557146831"/>
    <nd ref="1557146819"/>
    <nd ref="2524598485"/>
    <nd ref="1557146810"/>
    <nd ref="1557146811"/>
    <nd ref="2524590396"/>
    <nd ref="330917532"/>
    <nd ref="330917734"/>
    <nd ref="2524590402"/>
    <nd ref="1557146820"/>
    <nd ref="1557146822"/>
    <nd ref="2524598486"/>
    <nd ref="1557146824"/>
    <nd ref="1557146830"/>
    <nd ref="1557146835"/>
    <nd ref="1557146828"/>
    <nd ref="1557146831"/>
    <tag k="addr:city" v="München"/>
    <tag k="addr:country" v="DE"/>
    <tag k="addr:housenumber" v="5b"/>
    <tag k="addr:postcode" v="81667"/>
    <tag k="addr:street" v="Innere Wiener Straße"/>
    <tag k="building" v="yes"/>
  </way>
  <way id="142266693" version="1" timestamp="2011-12-21T13:58:03Z" changeset="10171820" uid="109029" user="shorty_de">
    <nd ref="330917539"/>
    <nd ref="1557146826"/>
    <nd ref="1557146825"/>
    <nd ref="1557146819"/>
    <nd ref="1557146831"/>
    <nd ref="1557146836"/>
    <nd ref="1557146842"/>
    <nd ref="1557146845"/>
    <nd ref="1557146839"/>
    <nd ref="1557146843"/>
    <nd ref="1557146838"/>
    <nd ref="1557146841"/>
    <nd ref="330917539"/>
    <tag k="addr:city" v="München"/>
    <tag k="addr:country" v="DE"/>
    <tag k="addr:housenumber" v="5c"/>
    <tag k="addr:postcode" v="81667"/>
    <tag k="addr:street" v="Innere Wiener Straße"/>
    <tag k="building" v="yes"/>
  </way>
  <way id="142266694" version="2" timestamp="2023-10-24T14:34:02Z" changeset="143068509" uid="78613" user="heilbron">
    <nd ref="1557146863"/>
    <nd ref="330917711"/>
    <nd ref="330917554"/>
    <nd ref="330917549"/>
    <nd ref="330917545"/>
    <nd ref="330917539"/>
    <nd ref="1557146841"/>
    <nd ref="330917729"/>
    <nd ref="1557146863"/>
    <tag k="addr:city" v="München"/>
    <tag k="addr:country" v="DE"/>
    <tag k="addr:housenumber" v="7"/>
    <tag k="addr:postcode" v="81667"/>
    <tag k="addr:street" v="Innere Wiener Straße"/>
    <tag k="building" v="apartments"/>
  </way>
  <way id="142266697" version="4" timestamp="2022-03-05T15:03:27Z" changeset="118128729" uid="9657752" user="AnnoDietz">
    <nd ref="1557146901"/>
    <nd ref="330917716"/>
    <nd ref="1557146899"/>
    <nd ref="1557146900"/>
    <nd ref="1557146895"/>
    <nd ref="1557146894"/>
    <nd ref="1557146863"/>
    <nd ref="330917729"/>
    <nd ref="1313729944"/>
    <nd ref="1557146892"/>
    <nd ref="1313729943"/>
    <nd ref="1313729939"/>
    <nd ref="330917724"/>
    <nd ref="1557146901"/>
    <tag k="addr:city" v="München"/>
    <tag k="addr:country" v="DE"/>
    <tag k="addr:housenumber" v="7a"/>
    <tag k="addr:postcode" v="81667"/>
    <tag k="addr:street" v="Innere Wiener Straße"/>
    <tag k="building" v="apartments"/>
    <tag k="building:levels" v="5"/>
    <tag k="roof:levels" v="1"/>
    <tag k="roof:shape" v="flat"/>
  </way>
  <way id="142266698" version="3" timestamp="2021-09-11T15:13:02Z" changeset="111066562" uid="78613" user="heilbron">
    <nd ref="1557146874"/>
    <nd ref="1557146859"/>
    <nd ref="1557146847"/>
    <nd ref="1557146848"/>
    <nd ref="2524590411"/>
    <nd ref="330917554"/>
    <nd ref="330917711"/>
    <nd ref="2524590416"/>
    <nd ref="1557146860"/>
    <nd ref="1557146865"/>
    <nd ref="1557146868"/>
    <nd ref="1557146873"/>
    <nd ref="1557146875"/>
    <nd ref="1557146871"/>
    <nd ref="1557146874"/>
    <tag k="addr:city" v="München"/>
    <tag k="addr:country" v="DE"/>
    <tag k="addr:housenumber" v="7b"/>
    <tag k="addr:postcode" v="81667"/>
    <tag k="addr:street" v="Innere Wiener Straße"/>
    <tag k="building" v="apartments"/>
  </way>
  <way id="142266699" version="2" timestamp="2021-09-11T15:13:02Z" changeset="111066562" uid="78613" user="heilbron">
    <nd ref="330917559"/>
    <nd ref="1557146872"/>
    <nd ref="1557146870"/>
    <nd ref="1557146859"/>
    <nd ref="1557146874"/>
    <nd ref="1557146876"/>
    <nd ref="1557146880"/>
    <nd ref="1557146884"/>
    <nd ref="1557146878"/>
    <nd ref="1557146881"/>
    <nd ref="1557146877"/>
    <nd ref="330917705"/>
    <nd ref="330917559"/>
    <tag k="addr:city" v="München"/>
    <tag k="addr:country" v="DE"/>
    <tag k="addr:housenumber" v="7c"/>
    <tag k="addr:postcode" v="81667"/>
    <tag k="addr:street" v="Innere Wiener Straße"/>
    <tag k="building" v="apartments"/>
  </way>
  <way id="142266701" version="2" timestamp="2021-09-11T15:13:01Z" changeset="111066562" uid="78613" user="heilbron">
    <nd ref="1557146887"/>
    <nd ref="1557146889"/>
    <nd ref="330917685"/>
    <nd ref="330917575"/>
    <nd ref="330917569"/>
    <nd ref="330917564"/>
    <nd ref="330917559"/>
    <nd ref="330917705"/>
    <nd ref="1557146887"/>
    <tag k="addr:city" v="München"/>
    <tag k="addr:country" v="DE"/>
    <tag k="addr:housenumber" v="9"/>
    <tag k="addr:postcode" v="81667"/>
    <tag k="addr:street" v="Innere Wiener Straße"/>
    <tag k="building" v="apartments"/>
  </way>
  <way id="142266702" version="4" timestamp="2022-03-05T15:03:36Z" changeset="118128729" uid="9657752" user="AnnoDietz">
    <nd ref="330917699"/>
    <nd ref="330917692"/>
    <nd ref="1313728814"/>
    <nd ref="1313728817"/>
    <nd ref="1313728816"/>
    <nd ref="1313728815"/>
    <nd ref="1557146889"/>
    <nd ref="1557146887"/>
    <nd ref="1313729941"/>
    <nd ref="1313729940"/>
    <nd ref="1313729938"/>
    <nd ref="1557146911"/>
    <nd ref="1557146912"/>
    <nd ref="330917699"/>
    <tag k="addr:city" v="München"/>
    <tag k="addr:country" v="DE"/>
    <tag k="addr:housenumber" v="9a"/>
    <tag k="addr:postcode" v="81667"/>
    <tag k="addr:street" v="Innere Wiener Straße"/>
    <tag k="building" v="apartments"/>
    <tag k="building:levels" v="5"/>
    <tag k="roof:levels" v="1"/>
    <tag k="roof:shape" v="flat"/>
  </way>
  <way id="142266703" version="8" timestamp="2025-04-01T12:49:20Z" changeset="164371786" uid="9244608" user="LittleJoeMuc">
    <nd ref="1119260002"/>
    <nd ref="1119260107"/>
    <nd ref="1119260068"/>
    <nd ref="1119260065"/>
    <nd ref="1119260009"/>
    <nd ref="1119260013"/>
    <nd ref="1557146796"/>
    <nd ref="1119260017"/>
    <nd ref="1557146793"/>
    <nd ref="1119259952"/>
    <nd ref="1119260052"/>
    <nd ref="1557146789"/>
    <nd ref="1557146788"/>
    <nd ref="1557146791"/>
    <nd ref="1557146792"/>
    <nd ref="1557146794"/>
    <nd ref="1119259963"/>
    <nd ref="1119260002"/>
    <tag k="addr:city" v="München"/>
    <tag k="addr:country" v="DE"/>
    <tag k="addr:housenumber" v="3"/>
    <tag k="addr:postcode" v="81667"/>
    <tag k="addr:street" v="Innere Wiener Straße"/>
    <tag k="amenity" v="place_of_worship"/>
    <tag k="building" v="chapel"/>
    <tag k="building:colour" v="white"/>
    <tag k="check_date" v="2025-04-01"/>
    <tag k="denomination" v="catholic"/>
    <tag k="name" v="Loretokapelle"/>
    <tag k="religion" v="christian"/>
    <tag k="wheelchair" v="limited"/>
    <tag k="wikidata" v="Q98739249"/>
    <tag k="wikimedia_commons" v="Category:Loretokapelle (St. Nikolai am Gasteig)"/>
  </way>
  <way id="142899301" version="4" timestamp="2023-01-14T10:21:45Z" changeset="131258881" uid="4376164" user="redweizn">
    <nd ref="1337786631"/>
    <nd ref="1563586599"/>
    <nd ref="1337786632"/>
    <nd ref="1337786633"/>
    <nd ref="1563586600"/>
    <nd ref="1337786631"/>
    <tag k="addr:city" v="München"/>
    <tag k="addr:country" v="DE"/>
    <tag k="addr:housenumber" v="7"/>
    <tag k="addr:postcode" v="81667"/>
    <tag k="addr:street" v="Grütznerstraße"/>
    <tag k="building" v="apartments"/>
    <tag k="roof:shape" v="gabled"/>
    <tag k="wikidata" v="Q41184966"/>
  </way>
  <way id="147716800" version="11" timestamp="2023-12-27T15:11:24Z" changeset="145580336" uid="18493611" user="MunichWays">
    <nd ref="18292347"/>
    <nd ref="1079043019"/>
    <nd ref="1239085741"/>
    <nd ref="1954903"/>
    <tag k="class:bicycle" v="1"/>
    <tag k="highway" v="residential"/>
    <tag k="lit" v="yes"/>
    <tag k="maxspeed" v="30"/>
    <tag k="name" v="Maria-Theresia-Straße"/>
    <tag k="name:etymology:wikidata" v="Q131706"/>
    <tag k="sidewalk" v="both"/>
    <tag k="surface" v="asphalt"/>
  </way>
  <way id="147856213" version="22" timestamp="2025-05-12T20:26:52Z" changeset="166171947" uid="11385732" user="jakrill">
    <nd ref="430234728"/>
    <nd ref="7905893707"/>
    <nd ref="1688589049"/>
    <nd ref="7905730383"/>
    <nd ref="7905867265"/>
    <nd ref="7905867263"/>
    <nd ref="10960117106"/>
    <nd ref="1354260546"/>
    <nd ref="7905867230"/>
    <nd ref="7905867257"/>
    <nd ref="7905867248"/>
    <nd ref="1688589057"/>
    <nd ref="4244407785"/>
    <nd ref="1325213299"/>
    <nd ref="7905867231"/>
    <nd ref="1688589084"/>
    <nd ref="4589764361"/>
    <nd ref="1688589093"/>
    <nd ref="1688589104"/>
    <nd ref="1020933107"/>
    <nd ref="335664152"/>
    <tag k="class:bicycle" v="-2"/>
    <tag k="cycleway:both" v="no"/>
    <tag k="highway" v="tertiary"/>
    <tag k="lanes" v="2"/>
    <tag k="lit" v="yes"/>
    <tag k="maxspeed" v="30"/>
    <tag k="name" v="Ismaninger Straße"/>
    <tag k="parking:both" v="yes"/>
    <tag k="parking:both:orientation" v="parallel"/>
    <tag k="sidewalk" v="both"/>
    <tag k="sidewalk:both:surface" v="paving_stones"/>
    <tag k="source:maxspeed" v="sign"/>
    <tag k="surface" v="asphalt"/>
  </way>
  <way id="147856344" version="12" timestamp="2025-05-12T20:22:20Z" changeset="166171947" uid="11385732" user="jakrill">
    <nd ref="1610015075"/>
    <nd ref="430234728"/>
    <tag k="class:bicycle" v="-2"/>
    <tag k="cycleway:both" v="no"/>
    <tag k="highway" v="tertiary"/>
    <tag k="lanes" v="2"/>
    <tag k="lit" v="yes"/>
    <tag k="maxspeed" v="50"/>
    <tag k="name" v="Ismaninger Straße"/>
    <tag k="parking:right" v="no"/>
    <tag k="parking:right:restriction" v="no_stopping"/>
    <tag k="sidewalk:left" v="separate"/>
    <tag k="sidewalk:right" v="yes"/>
    <tag k="sidewalk:right:surface" v="paving_stones"/>
    <tag k="source:maxspeed" v="DE:urban"/>
    <tag k="surface" v="asphalt"/>
  </way>
  <way id="147857361" version="15" timestamp="2025-05-12T20:22:24Z" changeset="166171947" uid="11385732" user="jakrill">
    <nd ref="7905893697"/>
    <nd ref="21677818"/>
    <nd ref="11059730710"/>
    <nd ref="11059730713"/>
    <nd ref="1610015075"/>
    <tag k="class:bicycle" v="-2"/>
    <tag k="cycleway:both" v="no"/>
    <tag k="highway" v="tertiary"/>
    <tag k="lanes" v="2"/>
    <tag k="lit" v="yes"/>
    <tag k="maxspeed" v="30"/>
    <tag k="name" v="Ismaninger Straße"/>
    <tag k="parking:right" v="no"/>
    <tag k="parking:right:restriction" v="no_stopping"/>
    <tag k="sidewalk:left" v="separate"/>
    <tag k="sidewalk:right" v="yes"/>
    <tag k="sidewalk:right:surface" v="sett"/>
    <tag k="source:maxspeed" v="sign"/>
    <tag k="surface" v="asphalt"/>
  </way>
  <way id="149755008" version="21" timestamp="2025-02-11T21:11:59Z" changeset="162407487" uid="22488435" user="purplelynx">
    <nd ref="1688588916"/>
    <nd ref="1413262757"/>
    <nd ref="11250084155"/>
    <nd ref="11250084151"/>
    <nd ref="11250084150"/>
    <nd ref="1351611409"/>
    <nd ref="11250084149"/>
    <nd ref="1627065685"/>
    <nd ref="1337634280"/>
    <nd ref="10769407168"/>
    <tag k="bicycle" v="use_sidepath"/>
    <tag k="dual_carriageway" v="yes"/>
    <tag k="foot" v="use_sidepath"/>
    <tag k="highway" v="secondary"/>
    <tag k="lanes" v="2"/>
    <tag k="lit" v="yes"/>
    <tag k="maxspeed" v="50"/>
    <tag k="name" v="Max-Planck-Straße"/>
    <tag k="name:etymology:wikidata" v="Q9021"/>
    <tag k="old_ref" v="B 12"/>
    <tag k="oneway" v="yes"/>
    <tag k="parking:both" v="no"/>
    <tag k="sidewalk:left" v="no"/>
    <tag k="sidewalk:right" v="separate"/>
    <tag k="smoothness" v="good"/>
    <tag k="surface" v="asphalt"/>
    <tag k="tmc" v="DE:27986/27987"/>
  </way>
  <way id="151995291" version="14" timestamp="2025-04-12T16:46:47Z" changeset="164864406" uid="18850925" user="cableway">
    <nd ref="609553064"/>
    <nd ref="1688813401"/>
    <nd ref="1648262553"/>
    <nd ref="1688813406"/>
    <nd ref="1648262557"/>
    <nd ref="1688813411"/>
    <nd ref="1648262573"/>
    <nd ref="1351611447"/>
    <tag k="class:bicycle" v="-2"/>
    <tag k="cycleway:both" v="no"/>
    <tag k="highway" v="secondary"/>
    <tag k="lanes" v="2"/>
    <tag k="lit" v="yes"/>
    <tag k="maxspeed" v="30"/>
    <tag k="name" v="Innere Wiener Straße"/>
    <tag k="parking:right" v="yes"/>
    <tag k="parking:right:orientation" v="parallel"/>
    <tag k="sidewalk" v="separate"/>
    <tag k="source:maxspeed" v="sign"/>
    <tag k="surface" v="asphalt"/>
    <tag k="tmc" v="DE:35422/35423"/>
  </way>
  <way id="153469498" version="11" timestamp="2024-10-29T19:38:34Z" changeset="158514089" uid="536583" user="Strubbl">
    <nd ref="1688813349"/>
    <nd ref="1688813348"/>
    <nd ref="1688813347"/>
    <nd ref="1688813346"/>
    <tag k="cycleway:both" v="no"/>
    <tag k="highway" v="residential"/>
    <tag k="lane_markings" v="no"/>
    <tag k="lit" v="yes"/>
    <tag k="maxspeed" v="50"/>
    <tag k="name" v="Preysingstraße"/>
    <tag k="name:etymology:wikidata" v="Q1642217"/>
    <tag k="sidewalk" v="no"/>
    <tag k="surface" v="asphalt"/>
  </way>
  <way id="155448733" version="13" timestamp="2025-03-13T10:45:16Z" changeset="163564330" uid="16061279" user="YellowSoul">
    <nd ref="12658255145"/>
    <nd ref="424275597"/>
    <nd ref="417618959"/>
    <nd ref="1678444971"/>
    <nd ref="1678444969"/>
    <nd ref="21677822"/>
    <tag k="class:bicycle" v="1"/>
    <tag k="highway" v="residential"/>
    <tag k="lit" v="yes"/>
    <tag k="maxspeed" v="30"/>
    <tag k="name" v="Maria-Theresia-Straße"/>
    <tag k="name:etymology:wikidata" v="Q131706"/>
    <tag k="parking:both:orientation" v="parallel"/>
    <tag k="parking:left" v="lane"/>
    <tag k="parking:right" v="street_side"/>
    <tag k="sidewalk:left" v="separate"/>
    <tag k="sidewalk:right" v="no"/>
    <tag k="source:maxspeed" v="DE:zone:30"/>
    <tag k="surface" v="asphalt"/>
  </way>
  <way id="156646480" version="19" timestamp="2025-01-19T22:54:39Z" changeset="161542987" uid="16061279" user="YellowSoul">
    <nd ref="28097231"/>
    <nd ref="8823202565"/>
    <nd ref="2524590364"/>
    <nd ref="2524590368"/>
    <nd ref="2524598483"/>
    <nd ref="2524590404"/>
    <nd ref="2524590422"/>
    <nd ref="1688813366"/>
    <nd ref="1688813369"/>
    <nd ref="2524590464"/>
    <nd ref="301173295"/>
    <nd ref="1317267171"/>
    <nd ref="391304019"/>
    <nd ref="1337776127"/>
    <nd ref="6994667585"/>
    <nd ref="3745326315"/>
    <nd ref="12517071294"/>
    <nd ref="1337719984"/>
    <nd ref="1337701122"/>
    <tag k="class:bicycle" v="-2"/>
    <tag k="cycleway:both" v="no"/>
    <tag k="highway" v="secondary"/>
    <tag k="lanes" v="2"/>
    <tag k="lit" v="yes"/>
    <tag k="maxspeed" v="30"/>
    <tag k="name" v="Innere Wiener Straße"/>
    <tag k="parking:left" v="no"/>
    <tag k="parking:left:restriction" v="no_stopping"/>
    <tag k="sidewalk" v="separate"/>
    <tag k="source:maxspeed" v="sign"/>
    <tag k="surface" v="asphalt"/>
    <tag k="tmc" v="DE:35421/35422"/>
  </way>
  <way id="156646484" version="8" timestamp="2023-10-24T14:34:03Z" changeset="143068513" uid="78613" user="heilbron">
    <nd ref="1688813346"/>
    <nd ref="1688813354"/>
    <nd ref="1688813358"/>
    <nd ref="248565572"/>
    <tag k="class:bicycle" v="-2"/>
    <tag k="cycleway:right" v="no"/>
    <tag k="highway" v="secondary"/>
    <tag k="lanes" v="1"/>
    <tag k="lit" v="yes"/>
    <tag k="maxspeed" v="50"/>
    <tag k="name" v="Innere Wiener Straße"/>
    <tag k="oneway" v="yes"/>
    <tag k="sidewalk" v="right"/>
    <tag k="sidewalk:right:surface" v="paving_stones"/>
    <tag k="source:maxspeed" v="DE:urban"/>
    <tag k="surface" v="asphalt"/>
    <tag k="tmc" v="DE:35421/35422"/>
  </way>
  <way id="156646487" version="10" timestamp="2025-03-22T20:57:57Z" changeset="163964101" uid="44217" user="kjon">
    <nd ref="248565572"/>
    <nd ref="1688813360"/>
    <nd ref="1688813359"/>
    <nd ref="1688813353"/>
    <nd ref="1688813349"/>
    <tag k="class:bicycle" v="-2"/>
    <tag k="cycleway:right" v="no"/>
    <tag k="highway" v="secondary"/>
    <tag k="lanes" v="1"/>
    <tag k="lit" v="yes"/>
    <tag k="maxspeed" v="50"/>
    <tag k="name" v="Innere Wiener Straße"/>
    <tag k="oneway" v="yes"/>
    <tag k="parking:right" v="no"/>
    <tag k="parking:right:restriction" v="no_stopping"/>
    <tag k="sidewalk" v="right"/>
    <tag k="sidewalk:right:surface" v="paving_stones"/>
    <tag k="source:maxspeed" v="DE:urban"/>
    <tag k="surface" v="asphalt"/>
    <tag k="tmc" v="DE:35421/35422"/>
  </way>
  <way id="156648669" version="9" timestamp="2025-05-01T08:21:38Z" changeset="165664025" uid="42123" user="Ropino">
    <nd ref="1688834491"/>
    <nd ref="1688834469"/>
    <nd ref="2518733517"/>
    <nd ref="1688834466"/>
    <nd ref="2518733511"/>
    <nd ref="330927218"/>
    <tag k="highway" v="residential"/>
    <tag k="lanes" v="2"/>
    <tag k="lit" v="yes"/>
    <tag k="maxspeed" v="50"/>
    <tag k="name" v="Rosenheimer Straße"/>
    <tag k="name:etymology:wikidata" v="Q4007"/>
    <tag k="oneway" v="yes"/>
    <tag k="surface" v="asphalt"/>
    <tag k="turn:lanes" v="left|left"/>
  </way>
  <way id="164000181" version="15" timestamp="2023-07-27T20:56:36Z" changeset="139107115" uid="137242" user="Rainero">
    <nd ref="4427961044"/>
    <nd ref="6816818777"/>
    <nd ref="1351611351"/>
    <nd ref="1688788300"/>
    <nd ref="18292348"/>
    <tag k="bicycle" v="use_sidepath"/>
    <tag k="dual_carriageway" v="yes"/>
    <tag k="foot" v="use_sidepath"/>
    <tag k="highway" v="secondary"/>
    <tag k="lanes" v="2"/>
    <tag k="lit" v="yes"/>
    <tag k="maxspeed" v="30"/>
    <tag k="name" v="Max-Planck-Straße"/>
    <tag k="name:etymology:wikidata" v="Q9021"/>
    <tag k="old_ref" v="B 12"/>
    <tag k="oneway" v="yes"/>
    <tag k="parking:both" v="no"/>
    <tag k="sidewalk:left" v="no"/>
    <tag k="sidewalk:right" v="separate"/>
    <tag k="smoothness" v="good"/>
    <tag k="surface" v="asphalt"/>
    <tag k="tmc" v="DE:27986/27987"/>
    <tag k="turn:lanes" v="through|through;right"/>
  </way>
  <way id="244567238" version="7" timestamp="2024-10-29T19:38:34Z" changeset="158514089" uid="536583" user="Strubbl">
    <nd ref="330927218"/>
    <nd ref="2518733509"/>
    <nd ref="2518733513"/>
    <nd ref="1688834477"/>
    <nd ref="1688834484"/>
    <tag k="cycleway:both" v="no"/>
    <tag k="highway" v="residential"/>
    <tag k="lit" v="yes"/>
    <tag k="maxspeed" v="50"/>
    <tag k="name" v="Rosenheimer Straße"/>
    <tag k="name:etymology:wikidata" v="Q4007"/>
    <tag k="oneway" v="yes"/>
    <tag k="sidewalk" v="no"/>
    <tag k="surface" v="asphalt"/>
  </way>
  <way id="258467430" version="3" timestamp="2023-10-24T14:33:57Z" changeset="143068510" uid="78613" user="heilbron">
    <nd ref="2638178529"/>
    <nd ref="2638178527"/>
    <nd ref="2638178530"/>
    <nd ref="2638178528"/>
    <nd ref="2638178525"/>
    <nd ref="2638178523"/>
    <nd ref="2638178521"/>
    <nd ref="2638178522"/>
    <nd ref="2638178526"/>
    <nd ref="2638178524"/>
    <nd ref="2638178529"/>
    <tag k="addr:housenumber" v="31"/>
    <tag k="addr:postcode" v="81675"/>
    <tag k="addr:street" v="Ismaninger Straße"/>
    <tag k="building" v="apartments"/>
    <tag k="building:levels" v="3"/>
    <tag k="roof:levels" v="1"/>
  </way>
  <way id="306093992" version="14" timestamp="2024-04-01T08:17:54Z" changeset="149421624" uid="513434" user="whellmut">
    <nd ref="1954903"/>
    <nd ref="1488492476"/>
    <nd ref="1627065688"/>
    <nd ref="1627065689"/>
    <nd ref="1627065690"/>
    <nd ref="3773515341"/>
    <nd ref="1667715148"/>
    <nd ref="1627065691"/>
    <nd ref="3871473632"/>
    <nd ref="1627065695"/>
    <nd ref="3871473631"/>
    <nd ref="1627065697"/>
    <nd ref="3871473634"/>
    <nd ref="1627065698"/>
    <nd ref="3871473638"/>
    <nd ref="1627065700"/>
    <nd ref="2520264923"/>
    <nd ref="1627065702"/>
    <nd ref="2520264927"/>
    <nd ref="1627065705"/>
    <nd ref="2520264928"/>
    <nd ref="1627065703"/>
    <nd ref="2520264924"/>
    <nd ref="1627065701"/>
    <nd ref="2520264921"/>
    <nd ref="1627065699"/>
    <nd ref="1627065696"/>
    <nd ref="1627065694"/>
    <nd ref="2520264915"/>
    <nd ref="1627065692"/>
    <nd ref="3487104288"/>
    <nd ref="1239117132"/>
    <tag k="bicycle" v="use_sidepath"/>
    <tag k="dual_carriageway" v="yes"/>
    <tag k="foot" v="use_sidepath"/>
    <tag k="highway" v="secondary"/>
    <tag k="incline" v="down"/>
    <tag k="lanes" v="2"/>
    <tag k="lit" v="yes"/>
    <tag k="maxspeed" v="30"/>
    <tag k="name" v="Max-Planck-Straße"/>
    <tag k="name:etymology:wikidata" v="Q9021"/>
    <tag k="old_name" v="B 12"/>
    <tag k="old_ref" v="B 12"/>
    <tag k="oneway" v="yes"/>
    <tag k="sidewalk:left" v="no"/>
    <tag k="sidewalk:right" v="separate"/>
    <tag k="smoothness" v="intermediate"/>
    <tag k="source:maxspeed" v="sign"/>
    <tag k="surface" v="sett"/>
    <tag k="tmc" v="DE:27986/27987"/>
  </way>
  <way id="325929848" version="36" timestamp="2024-05-22T19:24:59Z" changeset="151693949" uid="1717726" user="UKausch">
    <nd ref="196246493"/>
    <nd ref="196246538"/>
    <nd ref="4305721194"/>
    <nd ref="4305721195"/>
    <nd ref="196246532"/>
    <nd ref="196246529"/>
    <nd ref="196246524"/>
    <nd ref="196246518"/>
    <nd ref="4305720975"/>
    <nd ref="196246517"/>
    <nd ref="2299323216"/>
    <nd ref="4305720976"/>
    <nd ref="4305720980"/>
    <nd ref="4305720977"/>
    <nd ref="196246514"/>
    <nd ref="672986044"/>
    <nd ref="672986043"/>
    <nd ref="672986042"/>
    <nd ref="672986041"/>
    <nd ref="4305720969"/>
    <nd ref="672986040"/>
    <nd ref="4305720961"/>
    <nd ref="4305720951"/>
    <nd ref="672986037"/>
    <nd ref="4305720945"/>
    <nd ref="672986036"/>
    <nd ref="672986035"/>
    <nd ref="672986034"/>
    <nd ref="672986033"/>
    <nd ref="196246509"/>
    <nd ref="4305720930"/>
    <nd ref="4305720929"/>
    <nd ref="4305720931"/>
    <nd ref="672986032"/>
    <nd ref="4305720940"/>
    <nd ref="672986030"/>
    <nd ref="672986026"/>
    <nd ref="672986022"/>
    <nd ref="196246508"/>
    <nd ref="4305720934"/>
    <nd ref="4305720932"/>
    <nd ref="196246505"/>
    <nd ref="196246499"/>
    <nd ref="672986010"/>
    <nd ref="672986007"/>
    <nd ref="672985999"/>
    <nd ref="672985997"/>
    <nd ref="672985995"/>
    <nd ref="672985994"/>
    <nd ref="672985993"/>
    <nd ref="672985992"/>
    <nd ref="4305720950"/>
    <nd ref="4305720949"/>
    <nd ref="4305720957"/>
    <nd ref="4305720958"/>
    <nd ref="672985991"/>
    <nd ref="672985990"/>
    <nd ref="672985987"/>
    <nd ref="672985984"/>
    <nd ref="4305720972"/>
    <nd ref="4305720970"/>
    <nd ref="672985981"/>
    <nd ref="672985977"/>
    <nd ref="672985973"/>
    <nd ref="672985972"/>
    <nd ref="672985971"/>
    <nd ref="672985970"/>
    <nd ref="672985969"/>
    <nd ref="672985968"/>
    <nd ref="672985967"/>
    <nd ref="672985966"/>
    <nd ref="196246493"/>
    <tag k="addr:city" v="München"/>
    <tag k="addr:country" v="DE"/>
    <tag k="addr:housename" v="Maximilianeum"/>
    <tag k="addr:housenumber" v="1"/>
    <tag k="addr:postcode" v="81675"/>
    <tag k="addr:street" v="Max-Planck-Straße"/>
    <tag k="architect" v="Georg Friedrich Christian Bürklein"/>
    <tag k="architect:wikidata" v="Q70722"/>
    <tag k="building" v="yes"/>
    <tag k="building:architecture" v="maximilian_style"/>
    <tag k="contact:phone" v="+49 89 419 444 11"/>
    <tag k="heritage" v="4"/>
    <tag k="heritage:operator" v="BLfD"/>
    <tag k="image" v="https://upload.wikimedia.org/wikipedia/commons/2/29/M%C3%BCnchen_-_Maximilianeum_%28Luftbild%29_-_edit.jpg"/>
    <tag k="name" v="Maximilianeum"/>
    <tag k="name:ru" v="Дворец Maximilianeum"/>
    <tag k="ref:BLfD" v="D-1-62-000-4476"/>
    <tag k="tourism" v="attraction"/>
    <tag k="wikidata" v="Q266759"/>
    <tag k="wikimedia_commons" v="Category:Maximilianeum"/>
    <tag k="wikipedia" v="de:Maximilianeum"/>
  </way>
  <way id="341550123" version="10" timestamp="2022-10-21T08:49:28Z" changeset="127870665" uid="536583" user="Strubbl">
    <nd ref="1239117132"/>
    <nd ref="197770081"/>
    <tag k="bicycle" v="use_sidepath"/>
    <tag k="bridge" v="yes"/>
    <tag k="foot" v="use_sidepath"/>
    <tag k="highway" v="secondary"/>
    <tag k="lanes" v="2"/>
    <tag k="layer" v="1"/>
    <tag k="maxspeed" v="30"/>
    <tag k="maxweight:signed" v="no"/>
    <tag k="name" v="Max-Planck-Straße"/>
    <tag k="name:etymology:wikidata" v="Q9021"/>
    <tag k="old_ref" v="B 12"/>
    <tag k="oneway" v="yes"/>
    <tag k="shoulder" v="no"/>
    <tag k="sidewalk:left" v="no"/>
    <tag k="sidewalk:right" v="separate"/>
    <tag k="surface" v="sett"/>
    <tag k="tmc" v="DE:27986/27987"/>
  </way>
  <way id="341550124" version="13" timestamp="2023-07-27T20:56:36Z" changeset="139107115" uid="137242" user="Rainero">
    <nd ref="1239117113"/>
    <nd ref="3871473647"/>
    <nd ref="429576076"/>
    <nd ref="2520264912"/>
    <nd ref="18292340"/>
    <nd ref="1097998237"/>
    <nd ref="198017454"/>
    <nd ref="3871473652"/>
    <nd ref="2518807580"/>
    <nd ref="2520264906"/>
    <nd ref="18292355"/>
    <nd ref="201376549"/>
    <nd ref="3871473653"/>
    <nd ref="198017451"/>
    <nd ref="2520264896"/>
    <nd ref="18292357"/>
    <nd ref="2520264893"/>
    <nd ref="198017448"/>
    <nd ref="2520264889"/>
    <nd ref="18292342"/>
    <nd ref="2520264888"/>
    <nd ref="198017436"/>
    <nd ref="2520264890"/>
    <nd ref="18292356"/>
    <nd ref="196244600"/>
    <nd ref="198017423"/>
    <nd ref="8809691372"/>
    <tag k="bicycle" v="use_sidepath"/>
    <tag k="dual_carriageway" v="yes"/>
    <tag k="foot" v="use_sidepath"/>
    <tag k="highway" v="secondary"/>
    <tag k="incline" v="up"/>
    <tag k="lanes" v="2"/>
    <tag k="lit" v="yes"/>
    <tag k="maxspeed" v="30"/>
    <tag k="name" v="Max-Planck-Straße"/>
    <tag k="name:etymology:wikidata" v="Q9021"/>
    <tag k="old_ref" v="B 12"/>
    <tag k="oneway" v="yes"/>
    <tag k="sidewalk:left" v="no"/>
    <tag k="sidewalk:right" v="separate"/>
    <tag k="source:maxspeed" v="sign"/>
    <tag k="surface" v="sett"/>
    <tag k="tmc" v="DE:27986/27987"/>
  </way>
  <way id="364235405" version="6" timestamp="2025-04-12T16:21:54Z" changeset="164863314" uid="18850925" user="cableway">
    <nd ref="715447777"/>
    <nd ref="3682910588"/>
    <nd ref="3682910586"/>
    <nd ref="3682910587"/>
    <nd ref="715447777"/>
    <tag k="addr:housenumber" v="4"/>
    <tag k="addr:street" v="Zellstraße"/>
    <tag k="building" v="retail"/>
    <tag k="building:levels" v="1"/>
  </way>
  <way id="389867038" version="9" timestamp="2024-12-27T10:19:20Z" changeset="160669072" uid="4974073" user="thom_bike_bln">
    <nd ref="197763135"/>
    <nd ref="1688834491"/>
    <tag k="cycleway:left" v="no"/>
    <tag k="cycleway:right" v="separate"/>
    <tag k="foot" v="use_sidepath"/>
    <tag k="highway" v="secondary"/>
    <tag k="lanes" v="3"/>
    <tag k="lit" v="yes"/>
    <tag k="maxspeed" v="50"/>
    <tag k="name" v="Rosenheimer Straße"/>
    <tag k="name:etymology:wikidata" v="Q4007"/>
    <tag k="oneway" v="yes"/>
    <tag k="sidewalk:left" v="no"/>
    <tag k="sidewalk:right" v="separate"/>
    <tag k="surface" v="asphalt"/>
    <tag k="tmc" v="DE:27990/35402"/>
    <tag k="turn:lanes" v="left|through|through"/>
  </way>
  <way id="394139280" version="11" timestamp="2025-03-22T20:57:57Z" changeset="163964101" uid="44217" user="kjon">
    <nd ref="3971602396"/>
    <nd ref="6816818784"/>
    <nd ref="197770081"/>
    <tag k="bicycle" v="use_sidepath"/>
    <tag k="bridge" v="yes"/>
    <tag k="bridge:name" v="Maximiliansbrücke"/>
    <tag k="foot" v="use_sidepath"/>
    <tag k="highway" v="secondary"/>
    <tag k="lanes" v="2"/>
    <tag k="layer" v="1"/>
    <tag k="lit" v="yes"/>
    <tag k="maxspeed" v="50"/>
    <tag k="maxweight:signed" v="no"/>
    <tag k="name" v="Maximilianstraße"/>
    <tag k="name:etymology:wikidata" v="Q44530"/>
    <tag k="old_ref" v="B 12"/>
    <tag k="parking:both" v="no"/>
    <tag k="parking:condition:both" v="no_stopping"/>
    <tag k="shoulder" v="no"/>
    <tag k="sidewalk" v="separate"/>
    <tag k="smoothness" v="intermediate"/>
    <tag k="surface" v="sett"/>
    <tag k="tmc" v="DE:27986/27987"/>
    <tag k="wikipedia" v="de:Maximiliansbrücke"/>
  </way>
  <way id="445350800" version="9" timestamp="2025-04-12T16:46:50Z" changeset="164864406" uid="18850925" user="cableway">
    <nd ref="1688588969"/>
    <nd ref="3189158464"/>
    <nd ref="7905695817"/>
    <nd ref="1688588996"/>
    <nd ref="430234731"/>
    <tag k="class:bicycle" v="-2"/>
    <tag k="cycleway:both" v="no"/>
    <tag k="foot" v="use_sidepath"/>
    <tag k="highway" v="tertiary"/>
    <tag k="lanes" v="3"/>
    <tag k="lanes:backward" v="2"/>
    <tag k="lanes:forward" v="1"/>
    <tag k="lit" v="yes"/>
    <tag k="maxspeed" v="30"/>
    <tag k="name" v="Ismaninger Straße"/>
    <tag k="sidewalk" v="separate"/>
    <tag k="source:maxspeed" v="sign"/>
    <tag k="surface" v="asphalt"/>
  </way>
  <way id="445350801" version="10" timestamp="2025-03-10T19:53:50Z" changeset="163457863" uid="22488435" user="purplelynx">
    <nd ref="18292347"/>
    <nd ref="3971163884"/>
    <nd ref="4427961044"/>
    <tag k="bicycle" v="use_sidepath"/>
    <tag k="dual_carriageway" v="yes"/>
    <tag k="foot" v="use_sidepath"/>
    <tag k="highway" v="secondary"/>
    <tag k="lanes" v="2"/>
    <tag k="lit" v="yes"/>
    <tag k="maxspeed" v="50"/>
    <tag k="name" v="Max-Planck-Straße"/>
    <tag k="name:etymology:wikidata" v="Q9021"/>
    <tag k="old_ref" v="B 12"/>
    <tag k="oneway" v="yes"/>
    <tag k="parking:both" v="no"/>
    <tag k="sidewalk:left" v="no"/>
    <tag k="sidewalk:right" v="separate"/>
    <tag k="smoothness" v="good"/>
    <tag k="source:maxspeed" v="sign"/>
    <tag k="surface" v="asphalt"/>
    <tag k="tmc" v="DE:27986/27987"/>
  </way>
  <way id="445351846" version="8" timestamp="2025-03-22T20:57:57Z" changeset="163964101" uid="44217" user="kjon">
    <nd ref="248565572"/>
    <nd ref="28097231"/>
    <tag k="class:bicycle" v="-2"/>
    <tag k="cycleway:both" v="no"/>
    <tag k="highway" v="secondary"/>
    <tag k="lanes" v="2"/>
    <tag k="lit" v="yes"/>
    <tag k="maxspeed" v="50"/>
    <tag k="name" v="Innere Wiener Straße"/>
    <tag k="parking:left" v="no"/>
    <tag k="parking:left:restriction" v="no_stopping"/>
    <tag k="sidewalk" v="both"/>
    <tag k="sidewalk:both:surface" v="paving_stones"/>
    <tag k="surface" v="asphalt"/>
    <tag k="tmc" v="DE:35421/35422"/>
  </way>
  <way id="847235966" version="8" timestamp="2025-05-12T20:21:43Z" changeset="166171947" uid="11385732" user="jakrill">
    <nd ref="430234724"/>
    <nd ref="7905893697"/>
    <tag k="class:bicycle" v="-2"/>
    <tag k="cycleway:both" v="no"/>
    <tag k="highway" v="tertiary"/>
    <tag k="lanes" v="2"/>
    <tag k="lit" v="yes"/>
    <tag k="maxspeed" v="30"/>
    <tag k="name" v="Ismaninger Straße"/>
    <tag k="sidewalk:left" v="separate"/>
    <tag k="sidewalk:right" v="yes"/>
    <tag k="sidewalk:right:surface" v="paving_stones"/>
    <tag k="source:maxspeed" v="sign"/>
    <tag k="surface" v="asphalt"/>
  </way>
  <way id="951782737" version="7" timestamp="2024-04-27T06:06:41Z" changeset="150565337" uid="16061279" user="YellowSoul">
    <nd ref="8809691372"/>
    <nd ref="18292359"/>
    <nd ref="1667715141"/>
    <nd ref="3773515284"/>
    <nd ref="2520264901"/>
    <nd ref="3773515290"/>
    <nd ref="198017409"/>
    <nd ref="3773515293"/>
    <nd ref="3773515295"/>
    <nd ref="292949328"/>
    <nd ref="3773515294"/>
    <nd ref="1079043015"/>
    <nd ref="6816818779"/>
    <nd ref="417618961"/>
    <nd ref="18292347"/>
    <tag k="bicycle" v="use_sidepath"/>
    <tag k="dual_carriageway" v="yes"/>
    <tag k="foot" v="use_sidepath"/>
    <tag k="highway" v="secondary"/>
    <tag k="incline" v="up"/>
    <tag k="lanes" v="2"/>
    <tag k="lit" v="yes"/>
    <tag k="maxspeed" v="30"/>
    <tag k="name" v="Max-Planck-Straße"/>
    <tag k="name:etymology:wikidata" v="Q9021"/>
    <tag k="old_ref" v="B 12"/>
    <tag k="oneway" v="yes"/>
    <tag k="parking:both" v="no"/>
    <tag k="sidewalk:left" v="no"/>
    <tag k="sidewalk:right" v="separate"/>
    <tag k="source:maxspeed" v="sign"/>
    <tag k="surface" v="asphalt"/>
    <tag k="tmc" v="DE:27986/27987"/>
  </way>
  <way id="1158009185" version="3" timestamp="2025-02-11T21:11:59Z" changeset="162407487" uid="22488435" user="purplelynx">
    <nd ref="10769407168"/>
    <nd ref="1627065687"/>
    <nd ref="6816818781"/>
    <nd ref="3971163886"/>
    <nd ref="1954903"/>
    <tag k="bicycle" v="use_sidepath"/>
    <tag k="dual_carriageway" v="yes"/>
    <tag k="foot" v="use_sidepath"/>
    <tag k="highway" v="secondary"/>
    <tag k="lanes" v="2"/>
    <tag k="lit" v="yes"/>
    <tag k="maxspeed" v="50"/>
    <tag k="name" v="Max-Planck-Straße"/>
    <tag k="name:etymology:wikidata" v="Q9021"/>
    <tag k="old_ref" v="B 12"/>
    <tag k="oneway" v="yes"/>
    <tag k="parking:both" v="no"/>
    <tag k="sidewalk:left" v="no"/>
    <tag k="sidewalk:right" v="separate"/>
    <tag k="smoothness" v="good"/>
    <tag k="surface" v="asphalt"/>
    <tag k="tmc" v="DE:27986/27987"/>
    <tag k="turn:lanes" v="through|through;right"/>
  </way>
  <way id="1192132888" version="3" timestamp="2025-03-13T10:36:58Z" changeset="163563957" uid="16061279" user="YellowSoul">
    <nd ref="12512837969"/>
    <nd ref="6223296858"/>
    <nd ref="1954922"/>
    <tag k="bicycle" v="use_sidepath"/>
    <tag k="cycleway:right" v="separate"/>
    <tag k="foot" v="use_sidepath"/>
    <tag k="highway" v="secondary"/>
    <tag k="lanes" v="2"/>
    <tag k="lit" v="yes"/>
    <tag k="maxspeed" v="50"/>
    <tag k="name" v="Prinzregentenstraße"/>
    <tag k="name:etymology:wikidata" v="Q44785"/>
    <tag k="oneway" v="yes"/>
    <tag k="sidewalk:left" v="no"/>
    <tag k="sidewalk:right" v="separate"/>
    <tag k="smoothness" v="excellent"/>
    <tag k="surface" v="asphalt"/>
    <tag k="tmc" v="DE:27980/27981"/>
    <tag k="wikipedia" v="de:Prinzregentenstraße"/>
  </way>
  <way id="1366785731" version="1" timestamp="2025-03-13T10:45:16Z" changeset="163564330" uid="16061279" user="YellowSoul">
    <nd ref="1954920"/>
    <nd ref="1020933178"/>
    <nd ref="9147737683"/>
    <nd ref="12658255142"/>
    <tag k="class:bicycle" v="1"/>
    <tag k="highway" v="residential"/>
    <tag k="lit" v="yes"/>
    <tag k="maxspeed" v="30"/>
    <tag k="name" v="Maria-Theresia-Straße"/>
    <tag k="name:etymology:wikidata" v="Q131706"/>
    <tag k="parking:left" v="lane"/>
    <tag k="parking:left:orientation" v="parallel"/>
    <tag k="sidewalk:left" v="separate"/>
    <tag k="sidewalk:right" v="no"/>
    <tag k="source:maxspeed" v="DE:zone:30"/>
    <tag k="surface" v="asphalt"/>
  </way>
  <way id="1366785732" version="1" timestamp="2025-03-13T10:45:16Z" changeset="163564330" uid="16061279" user="YellowSoul">
    <nd ref="12658255142"/>
    <nd ref="7648513363"/>
    <nd ref="1678444986"/>
    <nd ref="12658255143"/>
    <tag k="class:bicycle" v="1"/>
    <tag k="highway" v="residential"/>
    <tag k="lit" v="yes"/>
    <tag k="maxspeed" v="30"/>
    <tag k="name" v="Maria-Theresia-Straße"/>
    <tag k="name:etymology:wikidata" v="Q131706"/>
    <tag k="parking:both" v="lane"/>
    <tag k="parking:left:orientation" v="parallel"/>
    <tag k="parking:right:orientation" v="diagonal"/>
    <tag k="sidewalk:left" v="separate"/>
    <tag k="sidewalk:right" v="no"/>
    <tag k="source:maxspeed" v="DE:zone:30"/>
    <tag k="surface" v="asphalt"/>
  </way>
  <way id="1366785733" version="1" timestamp="2025-03-13T10:45:16Z" changeset="163564330" uid="16061279" user="YellowSoul">
    <nd ref="12658255143"/>
    <nd ref="1678444975"/>
    <nd ref="1678444973"/>
    <nd ref="12658255144"/>
    <tag k="class:bicycle" v="1"/>
    <tag k="highway" v="residential"/>
    <tag k="lit" v="yes"/>
    <tag k="maxspeed" v="30"/>
    <tag k="name" v="Maria-Theresia-Straße"/>
    <tag k="name:etymology:wikidata" v="Q131706"/>
    <tag k="parking:both:orientation" v="parallel"/>
    <tag k="parking:left" v="lane"/>
    <tag k="parking:right" v="street_side"/>
    <tag k="sidewalk:left" v="separate"/>
    <tag k="sidewalk:right" v="no"/>
    <tag k="source:maxspeed" v="DE:zone:30"/>
    <tag k="surface" v="asphalt"/>
  </way>
  <way id="1366785734" version="1" timestamp="2025-03-13T10:45:16Z" changeset="163564330" uid="16061279" user="YellowSoul">
    <nd ref="12658255144"/>
    <nd ref="248047391"/>
    <nd ref="12658255145"/>
    <tag k="class:bicycle" v="1"/>
    <tag k="highway" v="residential"/>
    <tag k="lit" v="yes"/>
    <tag k="maxspeed" v="30"/>
    <tag k="name" v="Maria-Theresia-Straße"/>
    <tag k="name:etymology:wikidata" v="Q131706"/>
    <tag k="parking:left" v="lane"/>
    <tag k="parking:left:orientation" v="parallel"/>
    <tag k="sidewalk:left" v="separate"/>
    <tag k="sidewalk:right" v="no"/>
    <tag k="source:maxspeed" v="DE:zone:30"/>
    <tag k="surface" v="asphalt"/>
  </way>
  <way id="1366785735" version="1" timestamp="2025-03-13T10:45:16Z" changeset="163564330" uid="16061279" user="YellowSoul">
    <nd ref="21677822"/>
    <nd ref="424275442"/>
    <nd ref="430234730"/>
    <nd ref="2524542838"/>
    <nd ref="2524542819"/>
    <nd ref="6816818782"/>
    <nd ref="643083205"/>
    <nd ref="1954903"/>
    <tag k="class:bicycle" v="1"/>
    <tag k="highway" v="residential"/>
    <tag k="lit" v="yes"/>
    <tag k="maxspeed" v="30"/>
    <tag k="name" v="Maria-Theresia-Straße"/>
    <tag k="name:etymology:wikidata" v="Q131706"/>
    <tag k="parking:both" v="lane"/>
    <tag k="parking:both:orientation" v="parallel"/>
    <tag k="sidewalk:left" v="separate"/>
    <tag k="sidewalk:right" v="no"/>
    <tag k="source:maxspeed" v="DE:zone:30"/>
    <tag k="surface" v="asphalt"/>
  </way>
  <relation id="5412847" version="12" timestamp="2024-05-22T19:24:59Z" changeset="151693949" uid="1717726" user="UKausch">
    <member type="way" ref="363805838" role="inner"/>
    <member type="way" ref="18955733" role="outer"/>
    <tag k="addr:city" v="München"/>
    <tag k="addr:country" v="DE"/>
    <tag k="addr:housenumber" v="1"/>
    <tag k="addr:postcode" v="81667"/>
    <tag k="addr:street" v="Rosenheimer Straße"/>
    <tag k="alt_name" v="Müller’sches Volksbad"/>
    <tag k="architect" v="Carl Hocheder"/>
    <tag k="architect:wikidata" v="Q106449"/>
    <tag k="building" v="civic"/>
    <tag k="building:architecture" v="art_nouveau"/>
    <tag k="building:colour" v="beige"/>
    <tag k="charge" v="5.50 EUR, 4.00 EUR/Kurzschwimmen"/>
    <tag k="contact:email" v="m-baeder@swm.de"/>
    <tag k="contact:phone" v="+49 89 2361-5050"/>
    <tag k="contact:website" v="https://www.swm.de/baeder/muellersches-volksbad"/>
    <tag k="fee" v="yes"/>
    <tag k="height" v="11.25"/>
    <tag k="heritage" v="4"/>
    <tag k="heritage:operator" v="BLfD"/>
    <tag k="leisure" v="sports_centre"/>
    <tag k="name" v="Müllersches Volksbad"/>
    <tag k="note" v="Detailierung -Masskontrolle folgt"/>
    <tag k="opening_hours" v="We-Su,PH 07:30-23:00; Mo 07:30-23:00 open &quot;Große Halle Montags nur bis 17 Uhr geöffnet&quot;; Tu 07:30-23:00 open &quot;15:00-20Uhr Frauenbadetag in der kleinen Halle&quot;"/>
    <tag k="ref:BLfD" v="D-1-62-000-5917"/>
    <tag k="reg_name" v="Müller’sches Volksbad"/>
    <tag k="roof:colour" v="gray"/>
    <tag k="sport" v="swimming"/>
    <tag k="start_date" v="1901"/>
    <tag k="tourism" v="attraction"/>
    <tag k="type" v="multipolygon"/>
    <tag k="wheelchair" v="limited"/>
    <tag k="wikidata" v="Q1958790"/>
    <tag k="wikimedia_commons" v="Category:Müllersches Volksbad"/>
    <tag k="wikipedia" v="de:Müllersches Volksbad"/>
  </relation>
  <relation id="17938077" version="1" timestamp="2024-08-14T23:31:18Z" changeset="155262541" uid="13496000" user="geo-d">
    <member type="way" ref="118994936" role="outer"/>
    <member type="way" ref="118994895" role="outer"/>
    <tag k="addr:city" v="München"/>
    <tag k="addr:country" v="DE"/>
    <tag k="addr:housenumber" v="2"/>
    <tag k="addr:postcode" v="81675"/>
    <tag k="addr:street" v="Max-Weber-Platz"/>
    <tag k="building" v="apartments"/>
    <tag k="type" v="multipolygon"/>
  </relation>
  <relation id="17938078" version="1" timestamp="2024-08-14T23:31:18Z" changeset="155262541" uid="13496000" user="geo-d">
    <member type="way" ref="1082277273" role="outer"/>
    <member type="way" ref="118991317" role="outer"/>
    <tag k="addr:city" v="München"/>
    <tag k="addr:country" v="DE"/>
    <tag k="addr:housenumber" v="7"/>
    <tag k="addr:postcode" v="81675"/>
    <tag k="addr:street" v="Max-Planck-Straße"/>
    <tag k="building" v="apartments"/>
    <tag k="roof:shape" v="gabled"/>
    <tag k="type" v="multipolygon"/>
  </relation>

</osm>
