<?xml version="1.0" encoding="UTF-8"?>
<osm version="0.6" generator="Overpass API 0.7.62.5 1bd436f1">
<note>The data included in this document is from www.openstreetmap.org. The data is made available under ODbL.</note>
<meta osm_base="2025-05-17T01:21:11Z" areas="2024-12-31T00:49:33Z"/>

  <node id="615635" lat="55.9809314" lon="-3.2235691" version="6" timestamp="2020-03-02T16:04:33Z" changeset="81688489" uid="3432400" user="GinaroZ"/>
  <node id="637271" lat="55.9711890" lon="-3.2089326" version="10" timestamp="2021-01-30T16:43:39Z" changeset="98421414" uid="388774" user="drnoble">
    <tag k="highway" v="traffic_signals"/>
    <tag k="source" v="Bing;survey"/>
  </node>
  <node id="638320" lat="55.9738778" lon="-3.1890780" version="9" timestamp="2021-12-04T20:46:12Z" changeset="114565908" uid="3432400" user="GinaroZ">
    <tag k="highway" v="traffic_signals"/>
    <tag k="source" v="Bing;survey"/>
  </node>
  <node id="638322" lat="55.9743380" lon="-3.1859213" version="8" timestamp="2015-01-17T03:57:24Z" changeset="28200803" uid="1798469" user="eric_"/>
  <node id="30089872" lat="55.9724408" lon="-3.2188338" version="5" timestamp="2016-06-23T15:16:00Z" changeset="40236458" uid="553175" user="michaelbrown"/>
  <node id="30089873" lat="55.9720618" lon="-3.2186687" version="3" timestamp="2015-02-13T23:31:19Z" changeset="28832435" uid="27824" user="phut"/>
  <node id="30096052" lat="55.9705464" lon="-3.2159302" version="8" timestamp="2016-02-26T12:27:23Z" changeset="37458694" uid="1798469" user="eric_"/>
  <node id="30730913" lat="55.9768000" lon="-3.2204769" version="6" timestamp="2016-08-12T14:36:33Z" changeset="41411936" uid="553175" user="michaelbrown"/>
  <node id="30784020" lat="55.9712092" lon="-3.2073035" version="12" timestamp="2015-04-09T16:54:10Z" changeset="30097891" uid="1939732" user="eisa"/>
  <node id="31273047" lat="55.9723322" lon="-3.1996097" version="11" timestamp="2015-04-09T15:55:57Z" changeset="30096568" uid="1939732" user="eisa"/>
  <node id="31303438" lat="55.9770286" lon="-3.2178012" version="4" timestamp="2016-03-30T16:38:58Z" changeset="38172757" uid="553175" user="michaelbrown"/>
  <node id="31303511" lat="55.9748103" lon="-3.2177675" version="6" timestamp="2016-03-25T18:30:33Z" changeset="38068578" uid="553175" user="michaelbrown"/>
  <node id="31348137" lat="55.9803780" lon="-3.1981612" version="10" timestamp="2015-04-30T18:06:37Z" changeset="30667701" uid="1798469" user="eric_"/>
  <node id="31469684" lat="55.9778480" lon="-3.1961789" version="5" timestamp="2015-04-28T15:39:33Z" changeset="30584982" uid="1798469" user="eric_"/>
  <node id="31469686" lat="55.9782652" lon="-3.1941765" version="4" timestamp="2013-08-05T18:12:22Z" changeset="17231351" uid="199963" user="TheBaron"/>
  <node id="31469687" lat="55.9784270" lon="-3.1934121" version="5" timestamp="2015-04-28T15:39:33Z" changeset="30584982" uid="1798469" user="eric_"/>
  <node id="32461239" lat="55.9725837" lon="-3.1979025" version="10" timestamp="2015-04-09T15:55:58Z" changeset="30096568" uid="1939732" user="eisa"/>
  <node id="32461250" lat="55.9731521" lon="-3.1940168" version="12" timestamp="2016-03-01T18:54:59Z" changeset="37551065" uid="1798469" user="eric_"/>
  <node id="43492270" lat="55.9734539" lon="-3.1919659" version="7" timestamp="2015-04-10T10:12:30Z" changeset="30114705" uid="1939732" user="eisa"/>
  <node id="262691112" lat="55.9709561" lon="-3.2251002" version="4" timestamp="2017-03-13T15:45:28Z" changeset="46816409" uid="2234934" user="sophiemccallum">
    <tag k="highway" v="turning_circle"/>
    <tag k="source" v="Bing;survey"/>
  </node>
  <node id="265557608" lat="55.9711260" lon="-3.2102329" version="13" timestamp="2015-04-16T17:07:21Z" changeset="30269960" uid="1939732" user="eisa"/>
  <node id="289143982" lat="55.9803269" lon="-3.1979803" version="8" timestamp="2015-04-30T18:06:37Z" changeset="30667701" uid="1798469" user="eric_"/>
  <node id="764566745" lat="55.9784652" lon="-3.1934200" version="3" timestamp="2015-04-28T15:39:39Z" changeset="30584982" uid="1798469" user="eric_"/>
  <node id="1067562423" lat="55.9803693" lon="-3.2237774" version="2" timestamp="2015-05-01T11:03:07Z" changeset="30688119" uid="1939732" user="eisa"/>
  <node id="1260900543" lat="55.9727758" lon="-3.1965643" version="3" timestamp="2015-04-10T10:12:23Z" changeset="30114705" uid="1939732" user="eisa"/>
  <node id="4030565680" lat="55.9685456" lon="-3.2353552" version="1" timestamp="2016-02-27T22:25:53Z" changeset="37490590" uid="2922304" user="smeÃ²rach">
    <tag k="crossing" v="traffic_signals"/>
    <tag k="highway" v="crossing"/>
  </node>
  <node id="4035234544" lat="55.9733913" lon="-3.1924069" version="1" timestamp="2016-03-01T18:54:35Z" changeset="37551065" uid="1798469" user="eric_"/>
  <node id="4715604212" lat="55.9684194" lon="-3.2250078" version="1" timestamp="2017-03-03T19:47:41Z" changeset="46557011" uid="2042390" user="sairfeet"/>
  <node id="4742309624" lat="55.9721781" lon="-3.1997062" version="1" timestamp="2017-03-19T00:02:00Z" changeset="46969394" uid="33764" user="Rostranimin"/>
  <node id="4742309635" lat="55.9778581" lon="-3.1973561" version="1" timestamp="2017-03-19T00:02:00Z" changeset="46969394" uid="33764" user="Rostranimin"/>
  <way id="4533242" version="31" timestamp="2024-11-30T15:13:24Z" changeset="159777411" uid="3432400" user="GinaroZ">
    <nd ref="3490830341"/>
    <nd ref="1281696308"/>
    <nd ref="615615"/>
    <nd ref="3490830336"/>
    <nd ref="759691191"/>
    <nd ref="615614"/>
    <nd ref="3490830330"/>
    <nd ref="3490830326"/>
    <nd ref="2906449486"/>
    <nd ref="2906449492"/>
    <nd ref="759690835"/>
    <nd ref="3490830315"/>
    <nd ref="615611"/>
    <nd ref="11999245795"/>
    <nd ref="11999245796"/>
    <nd ref="1281696290"/>
    <nd ref="3705324331"/>
    <nd ref="3490830313"/>
    <nd ref="3705324332"/>
    <nd ref="28137576"/>
    <tag k="cycleway:right" v="no"/>
    <tag k="highway" v="primary"/>
    <tag k="lanes" v="2"/>
    <tag k="lit" v="yes"/>
    <tag k="maxspeed" v="20 mph"/>
    <tag k="name" v="Trinity Crescent"/>
    <tag k="ref" v="A901"/>
    <tag k="sidewalk" v="both"/>
    <tag k="smoothness" v="excellent"/>
    <tag k="source" v="Bing;survey"/>
    <tag k="source:ref" v="OS_OpenData_StreetView"/>
    <tag k="surface" v="asphalt"/>
  </way>
  <way id="4534221" version="12" timestamp="2023-09-24T11:32:36Z" changeset="141677227" uid="7400464" user="Moohan">
    <nd ref="33256757"/>
    <nd ref="797643526"/>
    <nd ref="3490830193"/>
    <nd ref="28144916"/>
    <nd ref="3490821791"/>
    <nd ref="763622355"/>
    <nd ref="763622768"/>
    <nd ref="28144921"/>
    <nd ref="763622824"/>
    <nd ref="319597703"/>
    <tag k="cycleway:both" v="no"/>
    <tag k="highway" v="residential"/>
    <tag k="lanes" v="2"/>
    <tag k="lit" v="yes"/>
    <tag k="maxspeed" v="20 mph"/>
    <tag k="name" v="Wardie Road"/>
    <tag k="source" v="Bing;survey"/>
    <tag k="surface" v="asphalt"/>
    <tag k="traffic_calming" v="cushion"/>
  </way>
  <way id="4534222" version="10" timestamp="2023-09-24T11:32:28Z" changeset="141678295" uid="7400464" user="Moohan">
    <nd ref="28144916"/>
    <nd ref="4742262974"/>
    <tag k="cycleway:both" v="no"/>
    <tag k="highway" v="residential"/>
    <tag k="lanes" v="2"/>
    <tag k="lit" v="yes"/>
    <tag k="maxspeed" v="20 mph"/>
    <tag k="name" v="Afton Terrace"/>
    <tag k="sidewalk" v="both"/>
    <tag k="source" v="Bing;survey"/>
    <tag k="surface" v="asphalt"/>
    <tag k="traffic_calming" v="hump"/>
    <tag k="width" v="8"/>
  </way>
  <way id="4534223" version="15" timestamp="2023-09-24T11:33:19Z" changeset="141678295" uid="7400464" user="Moohan">
    <nd ref="28144985"/>
    <nd ref="28144905"/>
    <nd ref="3490830195"/>
    <nd ref="3491331209"/>
    <nd ref="3490830196"/>
    <nd ref="3490830197"/>
    <nd ref="3491331220"/>
    <nd ref="28144904"/>
    <nd ref="3491331226"/>
    <nd ref="28144902"/>
    <nd ref="3491331236"/>
    <nd ref="31348172"/>
    <tag k="cycleway:both" v="no"/>
    <tag k="highway" v="residential"/>
    <tag k="lanes" v="2"/>
    <tag k="maxspeed" v="20 mph"/>
    <tag k="name" v="East Trinity Road"/>
    <tag k="sidewalk" v="both"/>
    <tag k="source" v="Bing;survey"/>
  </way>
  <way id="4534225" version="11" timestamp="2016-02-26T12:27:14Z" changeset="37458694" uid="1798469" user="eric_">
    <nd ref="31348170"/>
    <nd ref="4027854134"/>
    <nd ref="4027854135"/>
    <nd ref="3491331313"/>
    <nd ref="28144976"/>
    <tag k="highway" v="residential"/>
    <tag k="lanes" v="2"/>
    <tag k="maxspeed" v="20 mph"/>
    <tag k="name" v="Lennox Row"/>
    <tag k="source" v="Bing;survey"/>
  </way>
  <way id="4534226" version="8" timestamp="2022-09-20T14:23:30Z" changeset="126425740" uid="3432400" user="GinaroZ">
    <nd ref="10039652100"/>
    <nd ref="3705324319"/>
    <nd ref="3705324318"/>
    <nd ref="28137579"/>
    <nd ref="3705324314"/>
    <nd ref="3705324312"/>
    <nd ref="28137580"/>
    <nd ref="28137581"/>
    <tag k="highway" v="residential"/>
    <tag k="maxspeed" v="20 mph"/>
    <tag k="name" v="York Road"/>
    <tag k="source" v="Bing;survey"/>
    <tag k="surface" v="sett"/>
  </way>
  <way id="4534227" version="15" timestamp="2023-09-24T11:32:49Z" changeset="141677227" uid="7400464" user="Moohan">
    <nd ref="28144912"/>
    <nd ref="3491331202"/>
    <nd ref="3490830199"/>
    <nd ref="3531006787"/>
    <nd ref="632418205"/>
    <nd ref="3491331256"/>
    <nd ref="1265746984"/>
    <nd ref="31348185"/>
    <nd ref="4027854131"/>
    <nd ref="3491331292"/>
    <nd ref="3491331304"/>
    <nd ref="28144937"/>
    <nd ref="3490830237"/>
    <nd ref="3490830242"/>
    <nd ref="632418233"/>
    <nd ref="31348170"/>
    <nd ref="3531007505"/>
    <nd ref="675788290"/>
    <nd ref="797643544"/>
    <nd ref="3531007601"/>
    <nd ref="28144942"/>
    <nd ref="3490830288"/>
    <nd ref="28144943"/>
    <tag k="cycleway:both" v="no"/>
    <tag k="highway" v="residential"/>
    <tag k="lanes" v="2"/>
    <tag k="lit" v="yes"/>
    <tag k="maxspeed" v="20 mph"/>
    <tag k="name" v="Netherby Road"/>
    <tag k="source" v="Bing;survey"/>
  </way>
  <way id="4592665" version="11" timestamp="2022-09-20T14:23:30Z" changeset="126425740" uid="3432400" user="GinaroZ">
    <nd ref="28137581"/>
    <nd ref="28137582"/>
    <nd ref="3484674328"/>
    <nd ref="7085427389"/>
    <nd ref="3705324254"/>
    <nd ref="28137583"/>
    <nd ref="3705324248"/>
    <nd ref="3484674304"/>
    <nd ref="778778363"/>
    <tag k="highway" v="residential"/>
    <tag k="maxspeed" v="20 mph"/>
    <tag k="name" v="York Road"/>
    <tag k="source" v="Bing;survey"/>
    <tag k="surface" v="sett"/>
  </way>
  <way id="4592666" version="8" timestamp="2019-02-27T14:24:31Z" changeset="67619714" uid="3432400" user="GinaroZ">
    <nd ref="28137581"/>
    <nd ref="3705324308"/>
    <nd ref="3705324307"/>
    <nd ref="3484674499"/>
    <nd ref="3682748966"/>
    <nd ref="3682748965"/>
    <nd ref="28144884"/>
    <tag k="highway" v="residential"/>
    <tag k="maxspeed" v="20 mph"/>
    <tag k="name" v="York Road"/>
    <tag k="source" v="Bing;survey"/>
  </way>
  <way id="4592667" version="11" timestamp="2021-06-28T10:36:24Z" changeset="107080284" uid="13479299" user="Peter JB King">
    <nd ref="33654852"/>
    <nd ref="28137589"/>
    <nd ref="4027854140"/>
    <nd ref="3682748908"/>
    <nd ref="31348189"/>
    <nd ref="33654856"/>
    <nd ref="7149244276"/>
    <nd ref="3536375191"/>
    <nd ref="3491331261"/>
    <nd ref="28144891"/>
    <tag k="highway" v="residential"/>
    <tag k="maxspeed" v="20 mph"/>
    <tag k="name" v="Russell Place"/>
    <tag k="source" v="Bing;survey"/>
    <tag k="surface" v="asphalt"/>
  </way>
  <way id="4592670" version="17" timestamp="2021-06-28T10:36:24Z" changeset="107080284" uid="13479299" user="Peter JB King">
    <nd ref="3490830272"/>
    <nd ref="3490830274"/>
    <nd ref="3490830276"/>
    <nd ref="3490830278"/>
    <nd ref="28144962"/>
    <nd ref="3490830285"/>
    <nd ref="3490830287"/>
    <nd ref="675788163"/>
    <nd ref="3490830290"/>
    <nd ref="3680835025"/>
    <nd ref="28144960"/>
    <nd ref="3490830292"/>
    <nd ref="3490830293"/>
    <nd ref="3535906204"/>
    <nd ref="3490830294"/>
    <nd ref="3535906206"/>
    <nd ref="28144959"/>
    <nd ref="3490830296"/>
    <nd ref="797643541"/>
    <nd ref="3491331351"/>
    <nd ref="3490830299"/>
    <nd ref="28144958"/>
    <nd ref="3490830298"/>
    <nd ref="775865053"/>
    <nd ref="3490830295"/>
    <nd ref="28144956"/>
    <nd ref="3533941969"/>
    <nd ref="59636957"/>
    <nd ref="3533941966"/>
    <nd ref="28144943"/>
    <tag k="highway" v="residential"/>
    <tag k="lanes" v="2"/>
    <tag k="lit" v="yes"/>
    <tag k="maxspeed" v="20 mph"/>
    <tag k="name" v="Boswall Road"/>
    <tag k="source" v="Bing;survey"/>
    <tag k="surface" v="asphalt"/>
  </way>
  <way id="4592671" version="11" timestamp="2023-09-24T11:33:09Z" changeset="141677227" uid="7400464" user="Moohan">
    <nd ref="31348187"/>
    <nd ref="3490830207"/>
    <nd ref="3531006788"/>
    <nd ref="28144972"/>
    <nd ref="3490830203"/>
    <nd ref="3531006786"/>
    <nd ref="3490830198"/>
    <nd ref="28144985"/>
    <tag k="cycleway:both" v="no"/>
    <tag k="highway" v="residential"/>
    <tag k="lanes" v="2"/>
    <tag k="maxspeed" v="20 mph"/>
    <tag k="name" v="Stirling Road"/>
    <tag k="source" v="Bing;survey"/>
    <tag k="surface" v="asphalt"/>
    <tag k="traffic_calming" v="cushion"/>
  </way>
  <way id="4592672" version="11" timestamp="2021-06-28T10:36:24Z" changeset="107080284" uid="13479299" user="Peter JB King">
    <nd ref="763622355"/>
    <nd ref="3531006781"/>
    <nd ref="797643520"/>
    <nd ref="3491331135"/>
    <nd ref="3531006782"/>
    <nd ref="28144968"/>
    <nd ref="3491331140"/>
    <nd ref="3491331141"/>
    <nd ref="3491331143"/>
    <nd ref="28144970"/>
    <tag k="highway" v="residential"/>
    <tag k="lanes" v="2"/>
    <tag k="maxspeed" v="20 mph"/>
    <tag k="name" v="Darnell Road"/>
    <tag k="source" v="Bing;survey"/>
    <tag k="surface" v="asphalt"/>
  </way>
  <way id="4592673" version="9" timestamp="2017-03-18T23:09:38Z" changeset="46968481" uid="33764" user="Rostranimin">
    <nd ref="28144921"/>
    <nd ref="3491329374"/>
    <nd ref="763622542"/>
    <nd ref="4742262972"/>
    <tag k="highway" v="residential"/>
    <tag k="is_in" v="Edinburgh, Scotland, UK"/>
    <tag k="lanes" v="2"/>
    <tag k="maxspeed" v="20 mph"/>
    <tag k="name" v="Rosebank Road"/>
    <tag k="source" v="Bing;survey"/>
    <tag k="traffic_calming" v="hump"/>
  </way>
  <way id="4592674" version="40" timestamp="2025-03-16T11:59:27Z" changeset="163685263" uid="7400464" user="Moohan">
    <nd ref="9244044969"/>
    <nd ref="3491329334"/>
    <nd ref="9244044966"/>
    <nd ref="3491329336"/>
    <nd ref="775865057"/>
    <nd ref="3491329339"/>
    <nd ref="28144925"/>
    <nd ref="3491329344"/>
    <nd ref="265557608"/>
    <nd ref="3459792679"/>
    <nd ref="2892492635"/>
    <nd ref="9244044976"/>
    <nd ref="3447037931"/>
    <nd ref="637271"/>
    <tag k="cycleway:both" v="lane"/>
    <tag k="cycleway:both:lane" v="advisory"/>
    <tag k="highway" v="primary"/>
    <tag k="lanes" v="2"/>
    <tag k="lit" v="yes"/>
    <tag k="maxspeed" v="30 mph"/>
    <tag k="name" v="Ferry Road"/>
    <tag k="name:gd" v="Rathad a' Phuirt"/>
    <tag k="name:left" v="Ferry Road"/>
    <tag k="name:right" v="Inverleith Gardens"/>
    <tag k="ref" v="A902"/>
    <tag k="sidewalk" v="both"/>
    <tag k="source" v="Bing;survey"/>
    <tag k="surface" v="asphalt"/>
    <tag k="wikidata" v="Q5445503"/>
  </way>
  <way id="4627398" version="40" timestamp="2024-08-22T20:24:21Z" changeset="155625297" uid="21762849" user="jSeke">
    <nd ref="4030565680"/>
    <nd ref="3446947926"/>
    <nd ref="637295"/>
    <nd ref="7149244268"/>
    <nd ref="7149244269"/>
    <nd ref="6255691649"/>
    <nd ref="1419974612"/>
    <nd ref="637294"/>
    <nd ref="5101051242"/>
    <nd ref="250413823"/>
    <nd ref="5101051243"/>
    <nd ref="5101051244"/>
    <nd ref="254964533"/>
    <nd ref="637292"/>
    <nd ref="25634082"/>
    <nd ref="262691125"/>
    <nd ref="262691123"/>
    <nd ref="637289"/>
    <nd ref="637288"/>
    <nd ref="34421610"/>
    <nd ref="1450635482"/>
    <nd ref="637286"/>
    <nd ref="7149244273"/>
    <tag k="cycleway" v="track"/>
    <tag k="highway" v="primary"/>
    <tag k="lanes" v="2"/>
    <tag k="lit" v="yes"/>
    <tag k="maxspeed" v="30 mph"/>
    <tag k="name" v="Ferry Road"/>
    <tag k="name:gd" v="Rathad a' Phuirt"/>
    <tag k="ref" v="A902"/>
    <tag k="sidewalk" v="both"/>
    <tag k="source" v="Bing;survey"/>
    <tag k="surface" v="asphalt"/>
    <tag k="wikidata" v="Q5445503"/>
  </way>
  <way id="4714248" version="9" timestamp="2021-06-28T10:36:24Z" changeset="107080284" uid="13479299" user="Peter JB King">
    <nd ref="30012207"/>
    <nd ref="4027672471"/>
    <nd ref="3491329377"/>
    <nd ref="30012211"/>
    <nd ref="4027672479"/>
    <nd ref="675788644"/>
    <tag k="highway" v="residential"/>
    <tag k="lanes" v="2"/>
    <tag k="maxspeed" v="20 mph"/>
    <tag k="name" v="Denham Green Avenue"/>
    <tag k="source" v="Bing;survey"/>
    <tag k="surface" v="asphalt"/>
    <tag k="traffic_calming" v="hump"/>
  </way>
  <way id="4715305" version="13" timestamp="2023-09-24T11:33:10Z" changeset="141677227" uid="7400464" user="Moohan">
    <nd ref="28144985"/>
    <nd ref="1265746998"/>
    <nd ref="675788062"/>
    <nd ref="28144971"/>
    <nd ref="3531006785"/>
    <nd ref="28144970"/>
    <nd ref="1067775763"/>
    <nd ref="30012203"/>
    <nd ref="30012207"/>
    <nd ref="31263139"/>
    <tag k="cycleway:both" v="no"/>
    <tag k="highway" v="residential"/>
    <tag k="lanes" v="2"/>
    <tag k="maxspeed" v="20 mph"/>
    <tag k="name" v="South Trinity Road"/>
    <tag k="source" v="Bing;survey"/>
    <tag k="surface" v="asphalt"/>
  </way>
  <way id="4724480" version="4" timestamp="2016-02-26T12:27:15Z" changeset="37458694" uid="1798469" user="eric_">
    <nd ref="30096052"/>
    <nd ref="4027854120"/>
    <nd ref="4027854124"/>
    <nd ref="30096058"/>
    <tag k="highway" v="residential"/>
    <tag k="maxspeed" v="20 mph"/>
    <tag k="name" v="Wardie Avenue"/>
  </way>
  <way id="4724579" version="15" timestamp="2018-06-11T11:19:28Z" changeset="59735081" uid="8401375" user="anonBHuaMxLWPaeQ">
    <nd ref="30096052"/>
    <nd ref="3446948006"/>
    <nd ref="1450635478"/>
    <nd ref="30097143"/>
    <nd ref="1450635473"/>
    <nd ref="4805660417"/>
    <nd ref="3482038408"/>
    <nd ref="3482038407"/>
    <nd ref="30097146"/>
    <nd ref="3482038404"/>
    <nd ref="1450635472"/>
    <nd ref="3482038395"/>
    <nd ref="30097147"/>
    <nd ref="1314028509"/>
    <nd ref="1314028518"/>
    <nd ref="3482038372"/>
    <nd ref="3482038370"/>
    <nd ref="30097148"/>
    <nd ref="3434681910"/>
    <nd ref="30097149"/>
    <nd ref="1450635471"/>
    <nd ref="30097150"/>
    <nd ref="1450635479"/>
    <nd ref="30097153"/>
    <nd ref="1450635483"/>
    <nd ref="1450635480"/>
    <nd ref="30097154"/>
    <nd ref="30097157"/>
    <nd ref="3482038328"/>
    <nd ref="3482038327"/>
    <nd ref="1450635484"/>
    <nd ref="3482038319"/>
    <nd ref="1450635475"/>
    <nd ref="1450635481"/>
    <nd ref="3434143974"/>
    <nd ref="25336809"/>
    <tag k="highway" v="residential"/>
    <tag k="maxspeed" v="20 mph"/>
    <tag k="name" v="Arboretum Road"/>
    <tag k="source" v="Bing;survey"/>
    <tag k="surface" v="asphalt"/>
  </way>
  <way id="4741966" version="8" timestamp="2023-02-27T03:52:55Z" changeset="133067955" uid="14032651" user="esaikthu">
    <nd ref="30089872"/>
    <nd ref="1327947157"/>
    <nd ref="10696124226"/>
    <nd ref="4742262973"/>
    <tag k="highway" v="residential"/>
    <tag k="maxspeed" v="20 mph"/>
    <tag k="name" v="Fraser Avenue"/>
    <tag k="source" v="Bing;survey"/>
  </way>
  <way id="4786084" version="23" timestamp="2024-08-22T20:24:21Z" changeset="155625297" uid="21762849" user="jSeke">
    <nd ref="1260900543"/>
    <nd ref="31348057"/>
    <nd ref="1946701867"/>
    <nd ref="4742309634"/>
    <tag k="highway" v="primary"/>
    <tag k="lanes" v="2"/>
    <tag k="lit" v="yes"/>
    <tag k="maxspeed" v="30 mph"/>
    <tag k="maxspeed:variable" v="school_zone"/>
    <tag k="name" v="Ferry Road"/>
    <tag k="name:gd" v="Rathad a' Phuirt"/>
    <tag k="name:right" v="Chancelot Terrace"/>
    <tag k="ref" v="A902"/>
    <tag k="sidewalk" v="both"/>
    <tag k="source" v="Bing;survey"/>
    <tag k="surface" v="asphalt"/>
    <tag k="wikidata" v="Q5445503"/>
  </way>
  <way id="4786085" version="17" timestamp="2024-08-22T20:24:21Z" changeset="155625297" uid="21762849" user="jSeke">
    <nd ref="638316"/>
    <nd ref="30655866"/>
    <tag k="bridge" v="yes"/>
    <tag k="highway" v="primary"/>
    <tag k="lanes" v="2"/>
    <tag k="layer" v="1"/>
    <tag k="lit" v="yes"/>
    <tag k="maxspeed" v="30 mph"/>
    <tag k="name" v="Ferry Road"/>
    <tag k="name:gd" v="Rathad a' Phuirt"/>
    <tag k="ref" v="A902"/>
    <tag k="sidewalk" v="both"/>
    <tag k="source" v="Bing;survey"/>
    <tag k="surface" v="asphalt"/>
    <tag k="wikidata" v="Q5445503"/>
  </way>
  <way id="4786090" version="11" timestamp="2023-09-24T11:35:28Z" changeset="141677227" uid="7400464" user="Moohan">
    <nd ref="28144943"/>
    <nd ref="1265651516"/>
    <nd ref="1265651520"/>
    <nd ref="4027854148"/>
    <nd ref="31348159"/>
    <nd ref="3533941962"/>
    <nd ref="31348184"/>
    <nd ref="4027854145"/>
    <nd ref="4027854144"/>
    <nd ref="28144951"/>
    <tag k="cycleway:both" v="no"/>
    <tag k="highway" v="residential"/>
    <tag k="lanes" v="2"/>
    <tag k="lit" v="yes"/>
    <tag k="maxspeed" v="20 mph"/>
    <tag k="name" v="Primrose Bank Road"/>
    <tag k="source" v="Bing;survey"/>
    <tag k="traffic_calming" v="hump"/>
  </way>
  <way id="4786156" version="9" timestamp="2021-06-28T10:36:24Z" changeset="107080284" uid="13479299" user="Peter JB King">
    <nd ref="31303511"/>
    <nd ref="4078631313"/>
    <nd ref="30113444"/>
    <nd ref="3491331233"/>
    <nd ref="4221286814"/>
    <nd ref="30113449"/>
    <tag k="highway" v="residential"/>
    <tag k="maxspeed" v="20 mph"/>
    <tag k="name" v="Boswall Green"/>
    <tag k="source" v="Bing;survey"/>
    <tag k="surface" v="asphalt"/>
  </way>
  <way id="4786159" version="8" timestamp="2021-06-28T10:36:24Z" changeset="107080284" uid="13479299" user="Peter JB King">
    <nd ref="31303438"/>
    <nd ref="30113433"/>
    <nd ref="4217415654"/>
    <nd ref="4086774129"/>
    <nd ref="30113430"/>
    <tag k="highway" v="residential"/>
    <tag k="maxspeed" v="20 mph"/>
    <tag k="name" v="Grierson Avenue"/>
    <tag k="surface" v="asphalt"/>
  </way>
  <way id="4790705" version="16" timestamp="2021-06-28T10:36:24Z" changeset="107080284" uid="13479299" user="Peter JB King">
    <nd ref="30730913"/>
    <nd ref="4347447680"/>
    <nd ref="1175755937"/>
    <nd ref="30082265"/>
    <nd ref="30082264"/>
    <nd ref="3728634539"/>
    <nd ref="4086774136"/>
    <nd ref="30082263"/>
    <nd ref="4086774144"/>
    <nd ref="4841605136"/>
    <nd ref="4086774145"/>
    <nd ref="4347447861"/>
    <nd ref="3728634557"/>
    <nd ref="30082262"/>
    <nd ref="4347447877"/>
    <nd ref="4841605149"/>
    <nd ref="4347447888"/>
    <nd ref="3728634568"/>
    <nd ref="33204328"/>
    <nd ref="4841605154"/>
    <nd ref="4217416089"/>
    <nd ref="30082260"/>
    <nd ref="4347550123"/>
    <nd ref="1175755934"/>
    <nd ref="4347550126"/>
    <nd ref="4550786897"/>
    <nd ref="30082259"/>
    <nd ref="4347550129"/>
    <nd ref="4347550132"/>
    <nd ref="30082258"/>
    <nd ref="4347550130"/>
    <nd ref="3728634587"/>
    <nd ref="4347550127"/>
    <nd ref="4217416101"/>
    <nd ref="1175755942"/>
    <nd ref="4347550125"/>
    <nd ref="3728634585"/>
    <nd ref="1175755936"/>
    <nd ref="4347550124"/>
    <nd ref="4742262977"/>
    <tag k="highway" v="tertiary"/>
    <tag k="maxspeed" v="20 mph"/>
    <tag k="name" v="Wardie Crescent"/>
    <tag k="surface" v="asphalt"/>
  </way>
  <way id="4831033" version="13" timestamp="2024-11-14T12:10:06Z" changeset="159126228" uid="20156270" user="Radiotea">
    <nd ref="638322"/>
    <nd ref="4035235006"/>
    <nd ref="258479748"/>
    <nd ref="4035234552"/>
    <nd ref="31067212"/>
    <tag k="highway" v="residential"/>
    <tag k="maxspeed" v="20 mph"/>
    <tag k="name" v="Trafalgar Street"/>
    <tag k="sidewalk" v="both"/>
    <tag k="sidewalk:both:surface" v="paving_stones"/>
    <tag k="source" v="Bing;survey"/>
    <tag k="surface" v="sett"/>
  </way>
  <way id="4850339" version="9" timestamp="2021-06-28T10:36:24Z" changeset="107080284" uid="13479299" user="Peter JB King">
    <nd ref="28144970"/>
    <nd ref="3491331144"/>
    <nd ref="3531006783"/>
    <nd ref="31263150"/>
    <nd ref="3531006784"/>
    <nd ref="1067775776"/>
    <nd ref="3491331158"/>
    <nd ref="31261124"/>
    <tag k="highway" v="residential"/>
    <tag k="lanes" v="2"/>
    <tag k="maxspeed" v="20 mph"/>
    <tag k="name" v="Denham Green Terrace"/>
    <tag k="source" v="Bing;survey"/>
    <tag k="surface" v="asphalt"/>
  </way>
  <way id="4850340" version="6" timestamp="2016-02-26T11:09:09Z" changeset="37457374" uid="1798469" user="eric_">
    <nd ref="31263150"/>
    <nd ref="4027672900"/>
    <nd ref="4027672898"/>
    <nd ref="4027672893"/>
    <nd ref="4027672488"/>
    <nd ref="4027672486"/>
    <nd ref="4027672482"/>
    <nd ref="3491329390"/>
    <nd ref="30012211"/>
    <tag k="highway" v="residential"/>
    <tag k="lanes" v="2"/>
    <tag k="maxspeed" v="20 mph"/>
    <tag k="name" v="Denham Green Place"/>
    <tag k="source" v="Bing;survey"/>
    <tag k="traffic_calming" v="hump"/>
  </way>
  <way id="4850341" version="13" timestamp="2023-09-24T11:34:06Z" changeset="141677227" uid="7400464" user="Moohan">
    <nd ref="31261126"/>
    <nd ref="610475597"/>
    <nd ref="31261124"/>
    <nd ref="31263158"/>
    <nd ref="1277661379"/>
    <nd ref="675788644"/>
    <nd ref="31261122"/>
    <tag k="cycleway:both" v="no"/>
    <tag k="highway" v="residential"/>
    <tag k="lanes" v="2"/>
    <tag k="maxspeed" v="20 mph"/>
    <tag k="name" v="Clark Road"/>
    <tag k="source" v="Bing;survey"/>
    <tag k="surface" v="asphalt"/>
    <tag k="traffic_calming" v="cushion"/>
    <tag k="width" v="10"/>
  </way>
  <way id="4850343" version="5" timestamp="2015-05-27T15:59:15Z" changeset="31507049" uid="1939732" user="eisa">
    <nd ref="31263144"/>
    <nd ref="31263157"/>
    <tag k="highway" v="residential"/>
    <tag k="lanes" v="1"/>
    <tag k="maxspeed" v="20 mph"/>
    <tag k="name" v="Bangholm Bower Avenue"/>
    <tag k="source" v="Bing;survey"/>
  </way>
  <way id="4850344" version="10" timestamp="2015-05-27T15:59:19Z" changeset="31507049" uid="1939732" user="eisa">
    <nd ref="31263158"/>
    <nd ref="3491331152"/>
    <nd ref="623102538"/>
    <nd ref="1275883054"/>
    <nd ref="1275883508"/>
    <nd ref="3491331154"/>
    <nd ref="1275882871"/>
    <nd ref="31263159"/>
    <nd ref="1275883253"/>
    <nd ref="3550800519"/>
    <nd ref="3550800513"/>
    <nd ref="1275883654"/>
    <nd ref="623102540"/>
    <nd ref="3550800500"/>
    <nd ref="3550800495"/>
    <nd ref="610470067"/>
    <nd ref="31263160"/>
    <tag k="highway" v="residential"/>
    <tag k="maxspeed" v="20 mph"/>
    <tag k="name" v="East Lillypot"/>
    <tag k="source" v="Bing;survey"/>
  </way>
  <way id="4850345" version="11" timestamp="2017-03-19T00:02:03Z" changeset="46969394" uid="33764" user="Rostranimin">
    <nd ref="31261121"/>
    <nd ref="3498914683"/>
    <nd ref="1283271309"/>
    <nd ref="1275883284"/>
    <nd ref="32461223"/>
    <nd ref="32461234"/>
    <nd ref="797643577"/>
    <nd ref="3498914688"/>
    <nd ref="32461225"/>
    <tag k="highway" v="residential"/>
    <tag k="lanes" v="1"/>
    <tag k="maxspeed" v="20 mph"/>
    <tag k="name" v="Bangholm Road"/>
    <tag k="source" v="Bing;survey"/>
    <tag k="width" v="3"/>
  </way>
  <way id="4850346" version="11" timestamp="2022-06-26T09:47:31Z" changeset="122861431" uid="11965237" user="markbeech">
    <nd ref="31261120"/>
    <nd ref="3447037940"/>
    <nd ref="3447037938"/>
    <nd ref="32461237"/>
    <nd ref="1152070792"/>
    <nd ref="3447037937"/>
    <nd ref="1152070773"/>
    <nd ref="3447037939"/>
    <nd ref="608653724"/>
    <nd ref="3447037942"/>
    <nd ref="608653729"/>
    <nd ref="3447037943"/>
    <nd ref="3447037944"/>
    <nd ref="3447037945"/>
    <nd ref="608653728"/>
    <nd ref="608653723"/>
    <nd ref="32461238"/>
    <tag k="highway" v="residential"/>
    <tag k="lit" v="yes"/>
    <tag k="maxspeed" v="20 mph"/>
    <tag k="name" v="Clark Place"/>
    <tag k="sidewalk" v="right"/>
    <tag k="source" v="Bing;survey"/>
    <tag k="surface" v="asphalt"/>
  </way>
  <way id="4850347" version="7" timestamp="2021-06-28T10:36:24Z" changeset="107080284" uid="13479299" user="Peter JB King">
    <nd ref="30012203"/>
    <nd ref="3491329382"/>
    <nd ref="4027672472"/>
    <nd ref="3491329381"/>
    <nd ref="610476637"/>
    <nd ref="610476636"/>
    <nd ref="3491329378"/>
    <nd ref="3491329380"/>
    <nd ref="610476638"/>
    <nd ref="3491329383"/>
    <nd ref="3491329385"/>
    <nd ref="610476639"/>
    <nd ref="3491329387"/>
    <nd ref="610476632"/>
    <nd ref="3491329386"/>
    <nd ref="610476633"/>
    <nd ref="3491329384"/>
    <nd ref="610476634"/>
    <nd ref="3491329379"/>
    <nd ref="610476635"/>
    <nd ref="3491329375"/>
    <tag k="highway" v="residential"/>
    <tag k="maxspeed" v="20 mph"/>
    <tag k="name" v="Rose Park"/>
    <tag k="source" v="Bing;survey"/>
    <tag k="surface" v="asphalt"/>
  </way>
  <way id="4854373" version="5" timestamp="2021-06-28T10:36:24Z" changeset="107080284" uid="13479299" user="Peter JB King">
    <nd ref="30113448"/>
    <nd ref="30113452"/>
    <tag k="highway" v="residential"/>
    <tag k="maxspeed" v="30 mph"/>
    <tag k="name" v="Granton Road"/>
    <tag k="source" v="Bing;survey"/>
    <tag k="surface" v="asphalt"/>
  </way>
  <way id="4858707" version="14" timestamp="2024-04-02T01:01:34Z" changeset="149457756" uid="21265105" user="David4ff">
    <nd ref="31348132"/>
    <nd ref="3679101074"/>
    <nd ref="797643642"/>
    <nd ref="3679101075"/>
    <nd ref="1317767464"/>
    <nd ref="616020941"/>
    <nd ref="4742309636"/>
    <tag k="highway" v="tertiary"/>
    <tag k="lanes" v="2"/>
    <tag k="lit" v="yes"/>
    <tag k="maxspeed" v="20 mph"/>
    <tag k="name" v="Craighall Road"/>
    <tag k="surface" v="asphalt"/>
  </way>
  <way id="4858730" version="7" timestamp="2015-05-27T15:59:26Z" changeset="31507049" uid="1939732" user="eisa">
    <nd ref="31348178"/>
    <nd ref="1267803443"/>
    <nd ref="31348179"/>
    <nd ref="3533220100"/>
    <nd ref="31348180"/>
    <tag k="highway" v="residential"/>
    <tag k="lanes" v="2"/>
    <tag k="maxspeed" v="20 mph"/>
    <tag k="name" v="Lomond Road"/>
    <tag k="source" v="Bing;survey"/>
  </way>
  <way id="4858731" version="5" timestamp="2015-05-27T15:59:28Z" changeset="31507049" uid="1939732" user="eisa">
    <nd ref="31348188"/>
    <nd ref="33654854"/>
    <nd ref="3533220001"/>
    <nd ref="3533220011"/>
    <nd ref="31348189"/>
    <tag k="highway" v="residential"/>
    <tag k="lanes" v="2"/>
    <tag k="maxspeed" v="20 mph"/>
    <tag k="name" v="Spencer Place"/>
    <tag k="source" v="Bing;survey"/>
  </way>
  <way id="4873510" version="16" timestamp="2024-04-02T01:01:34Z" changeset="149457756" uid="21265105" user="David4ff">
    <nd ref="31348057"/>
    <nd ref="4035234527"/>
    <nd ref="4035234528"/>
    <nd ref="3448247902"/>
    <nd ref="4035234531"/>
    <nd ref="4517236374"/>
    <nd ref="7217207423"/>
    <nd ref="32461268"/>
    <nd ref="3565263058"/>
    <nd ref="32461251"/>
    <nd ref="793814847"/>
    <nd ref="4742309632"/>
    <tag k="highway" v="tertiary"/>
    <tag k="lanes" v="2"/>
    <tag k="lit" v="yes"/>
    <tag k="maxspeed" v="20 mph"/>
    <tag k="maxspeed:variable" v="school_zone"/>
    <tag k="name" v="Craighall Road"/>
    <tag k="source" v="Bing;survey"/>
    <tag k="surface" v="asphalt"/>
  </way>
  <way id="4873511" version="8" timestamp="2024-04-02T01:01:34Z" changeset="149457756" uid="21265105" user="David4ff">
    <nd ref="1317767582"/>
    <nd ref="31348132"/>
    <tag k="bridge" v="yes"/>
    <tag k="highway" v="tertiary"/>
    <tag k="lanes" v="2"/>
    <tag k="layer" v="1"/>
    <tag k="lit" v="yes"/>
    <tag k="maxspeed" v="20 mph"/>
    <tag k="name" v="Craighall Road"/>
    <tag k="source" v="gps"/>
    <tag k="surface" v="asphalt"/>
  </way>
  <way id="4873512" version="8" timestamp="2024-04-02T01:01:34Z" changeset="149457756" uid="21265105" user="David4ff">
    <nd ref="31467349"/>
    <nd ref="31467348"/>
    <tag k="bridge" v="yes"/>
    <tag k="highway" v="tertiary"/>
    <tag k="lanes" v="2"/>
    <tag k="layer" v="1"/>
    <tag k="lit" v="yes"/>
    <tag k="maxspeed" v="20 mph"/>
    <tag k="maxspeed:variable" v="school_zone"/>
    <tag k="name" v="Craighall Road"/>
    <tag k="source" v="gps"/>
    <tag k="surface" v="asphalt"/>
  </way>
  <way id="4873513" version="9" timestamp="2024-04-02T01:01:34Z" changeset="149457756" uid="21265105" user="David4ff">
    <nd ref="31467348"/>
    <nd ref="1118499784"/>
    <nd ref="1317767971"/>
    <nd ref="1317767582"/>
    <tag k="highway" v="tertiary"/>
    <tag k="lanes" v="2"/>
    <tag k="lit" v="yes"/>
    <tag k="maxspeed" v="20 mph"/>
    <tag k="name" v="Craighall Road"/>
    <tag k="source" v="gps"/>
    <tag k="surface" v="asphalt"/>
  </way>
  <way id="4873889" version="10" timestamp="2021-06-28T10:36:24Z" changeset="107080284" uid="13479299" user="Peter JB King">
    <nd ref="31348185"/>
    <nd ref="3491331262"/>
    <nd ref="3682748835"/>
    <nd ref="4027854130"/>
    <nd ref="3682748836"/>
    <nd ref="3490830208"/>
    <nd ref="31348187"/>
    <tag k="highway" v="residential"/>
    <tag k="lanes" v="2"/>
    <tag k="maxspeed" v="20 mph"/>
    <tag k="name" v="Zetland Place"/>
    <tag k="source" v="Bing;survey"/>
    <tag k="surface" v="asphalt"/>
    <tag k="traffic_calming" v="hump"/>
    <tag k="width" v="8"/>
  </way>
  <way id="4873890" version="15" timestamp="2023-09-24T11:34:50Z" changeset="141678295" uid="7400464" user="Moohan">
    <nd ref="31348188"/>
    <nd ref="3490830221"/>
    <nd ref="3533220040"/>
    <nd ref="4546788606"/>
    <nd ref="31469661"/>
    <nd ref="3533220139"/>
    <nd ref="28144982"/>
    <nd ref="28144983"/>
    <nd ref="28144984"/>
    <nd ref="3839960412"/>
    <nd ref="3490830262"/>
    <nd ref="3490830264"/>
    <nd ref="28144951"/>
    <nd ref="3490830275"/>
    <nd ref="3490830280"/>
    <nd ref="3490830286"/>
    <nd ref="3533220275"/>
    <nd ref="28144952"/>
    <nd ref="1069918735"/>
    <tag k="cycleway:both" v="no"/>
    <tag k="highway" v="residential"/>
    <tag k="lanes" v="2"/>
    <tag k="maxspeed" v="20 mph"/>
    <tag k="name" v="Trinity Road"/>
    <tag k="sidewalk" v="both"/>
    <tag k="source" v="Bing;survey"/>
    <tag k="surface" v="asphalt"/>
  </way>
  <way id="4873894" version="13" timestamp="2020-02-16T18:54:27Z" changeset="81079129" uid="388774" user="drnoble">
    <nd ref="764566745"/>
    <nd ref="764566708"/>
    <nd ref="2238605083"/>
    <nd ref="4846010092"/>
    <nd ref="4846010091"/>
    <nd ref="33654821"/>
    <nd ref="4846010090"/>
    <nd ref="4846010089"/>
    <nd ref="3681022932"/>
    <nd ref="31469691"/>
    <nd ref="3481558657"/>
    <nd ref="3481558662"/>
    <nd ref="628230602"/>
    <nd ref="31469693"/>
    <nd ref="2868685735"/>
    <nd ref="615596"/>
    <tag k="highway" v="residential"/>
    <tag k="lanes" v="2"/>
    <tag k="lit" v="yes"/>
    <tag k="maxspeed" v="20 mph"/>
    <tag k="name" v="Hawthornvale"/>
    <tag k="sidewalk" v="both"/>
    <tag k="source" v="Bing;survey"/>
    <tag k="surface" v="asphalt"/>
  </way>
  <way id="4873895" version="8" timestamp="2021-06-28T10:36:24Z" changeset="107080284" uid="13479299" user="Peter JB King">
    <nd ref="33654850"/>
    <nd ref="3491331293"/>
    <nd ref="3484673700"/>
    <nd ref="31469680"/>
    <nd ref="31469681"/>
    <tag k="highway" v="residential"/>
    <tag k="maxspeed" v="20 mph"/>
    <tag k="name" v="Beresford Avenue"/>
    <tag k="source" v="Bing;survey"/>
    <tag k="surface" v="asphalt"/>
  </way>
  <way id="4873896" version="6" timestamp="2021-06-28T10:36:24Z" changeset="107080284" uid="13479299" user="Peter JB King">
    <nd ref="31469680"/>
    <nd ref="3484673698"/>
    <nd ref="3484673699"/>
    <nd ref="31469677"/>
    <tag k="highway" v="residential"/>
    <tag k="maxspeed" v="20 mph"/>
    <tag k="name" v="Beresford Gardens"/>
    <tag k="source" v="Bing;survey"/>
    <tag k="surface" v="asphalt"/>
  </way>
  <way id="4873897" version="7" timestamp="2021-06-28T10:36:24Z" changeset="107080284" uid="13479299" user="Peter JB King">
    <nd ref="31469667"/>
    <nd ref="3484673702"/>
    <nd ref="3484673701"/>
    <nd ref="31469677"/>
    <nd ref="31469678"/>
    <tag k="highway" v="residential"/>
    <tag k="maxspeed" v="20 mph"/>
    <tag k="name" v="Lixmount Avenue"/>
    <tag k="source" v="Bing;survey"/>
    <tag k="surface" v="asphalt"/>
  </way>
  <way id="4878398" version="15" timestamp="2020-12-27T14:56:33Z" changeset="96486703" uid="53626" user="jambamkin">
    <nd ref="4033185257"/>
    <nd ref="3475324504"/>
    <nd ref="3475324505"/>
    <nd ref="31469683"/>
    <nd ref="31469684"/>
    <nd ref="4516919077"/>
    <nd ref="769860344"/>
    <nd ref="31469686"/>
    <nd ref="31469687"/>
    <tag k="cycleway:both" v="no"/>
    <tag k="highway" v="tertiary"/>
    <tag k="lanes" v="2"/>
    <tag k="lit" v="yes"/>
    <tag k="maxspeed" v="20 mph"/>
    <tag k="name" v="Stanley Road"/>
    <tag k="sidewalk" v="both"/>
    <tag k="source" v="Bing;survey"/>
    <tag k="surface" v="asphalt"/>
  </way>
  <way id="4878400" version="6" timestamp="2023-02-20T21:00:29Z" changeset="132808447" uid="3432400" user="GinaroZ">
    <nd ref="31469686"/>
    <nd ref="3484360828"/>
    <nd ref="10681734330"/>
    <nd ref="33654813"/>
    <tag k="highway" v="residential"/>
    <tag k="maxspeed" v="20 mph"/>
    <tag k="name" v="Derby Street"/>
    <tag k="source" v="Bing;survey"/>
    <tag k="surface" v="asphalt"/>
  </way>
  <way id="4878404" version="6" timestamp="2020-11-10T13:34:27Z" changeset="93865501" uid="2110168" user="TheEditor101">
    <nd ref="31469683"/>
    <nd ref="31518315"/>
    <nd ref="848186132"/>
    <nd ref="33654807"/>
    <nd ref="3475324503"/>
    <nd ref="3475324501"/>
    <nd ref="848186133"/>
    <nd ref="3475324499"/>
    <nd ref="3475324500"/>
    <nd ref="3475324502"/>
    <nd ref="33654808"/>
    <tag k="highway" v="residential"/>
    <tag k="maxspeed" v="20 mph"/>
    <tag k="name" v="West Cherrybank"/>
    <tag k="surface" v="asphalt"/>
  </way>
  <way id="4878405" version="6" timestamp="2021-06-27T17:30:09Z" changeset="107045475" uid="13479299" user="Peter JB King">
    <nd ref="31469684"/>
    <nd ref="31518318"/>
    <nd ref="33654809"/>
    <nd ref="33654810"/>
    <tag k="highway" v="residential"/>
    <tag k="maxspeed" v="20 mph"/>
    <tag k="name" v="Park Road"/>
    <tag k="surface" v="asphalt"/>
  </way>
  <way id="4878406" version="8" timestamp="2018-06-11T11:25:56Z" changeset="59735082" uid="8401375" user="anonBHuaMxLWPaeQ">
    <nd ref="763622688"/>
    <nd ref="3484674815"/>
    <nd ref="3484674813"/>
    <nd ref="3484674800"/>
    <nd ref="33654826"/>
    <nd ref="33654825"/>
    <nd ref="3681018423"/>
    <nd ref="3681018405"/>
    <nd ref="31469673"/>
    <tag k="highway" v="residential"/>
    <tag k="lit" v="yes"/>
    <tag k="maxspeed" v="20 mph"/>
    <tag k="name" v="Laverockbank Terrace"/>
    <tag k="source" v="Bing;survey"/>
    <tag k="surface" v="asphalt"/>
  </way>
  <way id="4878407" version="5" timestamp="2015-08-05T18:19:02Z" changeset="33136126" uid="1798469" user="eric_">
    <nd ref="31469670"/>
    <nd ref="3484674045"/>
    <nd ref="31518324"/>
    <nd ref="33654828"/>
    <nd ref="3484674338"/>
    <nd ref="3682807329"/>
    <nd ref="33654829"/>
    <tag k="highway" v="residential"/>
    <tag k="maxspeed" v="20 mph"/>
    <tag k="name" v="South Laverockbank Avenue"/>
    <tag k="source" v="Bing;survey"/>
  </way>
  <way id="4878416" version="6" timestamp="2017-03-19T00:02:04Z" changeset="46969394" uid="33764" user="Rostranimin">
    <nd ref="31518412"/>
    <nd ref="3484674565"/>
    <nd ref="33654830"/>
    <nd ref="3484674561"/>
    <nd ref="3484674559"/>
    <nd ref="3484674555"/>
    <nd ref="3484674543"/>
    <nd ref="33654831"/>
    <nd ref="3484674537"/>
    <nd ref="3484674534"/>
    <nd ref="33654832"/>
    <nd ref="3484674523"/>
    <nd ref="3484674519"/>
    <nd ref="3484674518"/>
    <nd ref="3484674517"/>
    <nd ref="33654833"/>
    <nd ref="33654829"/>
    <nd ref="3484674532"/>
    <nd ref="33654835"/>
    <tag k="highway" v="residential"/>
    <tag k="maxspeed" v="20 mph"/>
    <tag k="name" v="Laverockbank Crescent"/>
    <tag k="source" v="Bing;survey"/>
  </way>
  <way id="4878417" version="10" timestamp="2023-02-04T12:02:54Z" changeset="132073579" uid="8742205" user="Cobi00">
    <nd ref="31518414"/>
    <nd ref="31518418"/>
    <nd ref="33654838"/>
    <nd ref="8086692035"/>
    <nd ref="3484674322"/>
    <nd ref="10605882771"/>
    <nd ref="3978874300"/>
    <nd ref="3484674058"/>
    <nd ref="33654839"/>
    <nd ref="33654840"/>
    <nd ref="33654841"/>
    <nd ref="31518335"/>
    <nd ref="31469668"/>
    <tag k="highway" v="residential"/>
    <tag k="maxspeed" v="20 mph"/>
    <tag k="name" v="Laverockbank Road"/>
    <tag k="source" v="Bing;survey"/>
    <tag k="surface" v="asphalt"/>
  </way>
  <way id="4878419" version="18" timestamp="2024-02-22T22:46:30Z" changeset="147792103" uid="14047157" user="osmuser63783">
    <nd ref="28137576"/>
    <nd ref="2906449490"/>
    <nd ref="3572172546"/>
    <nd ref="2906449487"/>
    <nd ref="3484674805"/>
    <nd ref="31518414"/>
    <nd ref="3484674808"/>
    <nd ref="3484674810"/>
    <nd ref="2906449491"/>
    <nd ref="3484674814"/>
    <nd ref="615609"/>
    <nd ref="31518409"/>
    <nd ref="3484674816"/>
    <nd ref="763622688"/>
    <nd ref="3484361093"/>
    <nd ref="3484674817"/>
    <tag k="cycleway:both" v="no"/>
    <tag k="highway" v="primary"/>
    <tag k="lanes" v="2"/>
    <tag k="lit" v="yes"/>
    <tag k="maxspeed" v="20 mph"/>
    <tag k="name" v="Starbank Road"/>
    <tag k="ref" v="A901"/>
    <tag k="sidewalk" v="both"/>
    <tag k="source" v="Bing;survey"/>
    <tag k="source:ref" v="OS_OpenData_StreetView"/>
    <tag k="surface" v="asphalt"/>
  </way>
  <way id="4878421" version="6" timestamp="2025-03-16T12:00:24Z" changeset="163685263" uid="7400464" user="Moohan">
    <nd ref="637289"/>
    <nd ref="31518548"/>
    <tag k="cycleway:both" v="no"/>
    <tag k="highway" v="residential"/>
    <tag k="maxspeed" v="20 mph"/>
    <tag k="name" v="West Ferryfield"/>
    <tag k="source" v="Bing;survey"/>
  </way>
  <way id="4878424" version="4" timestamp="2015-04-09T15:55:51Z" changeset="30096568" uid="1939732" user="eisa">
    <nd ref="31518595"/>
    <nd ref="31518600"/>
    <nd ref="31518575"/>
    <nd ref="31518567"/>
    <nd ref="31518561"/>
    <nd ref="3446948019"/>
    <nd ref="31518558"/>
    <nd ref="3446947989"/>
    <nd ref="3446947987"/>
    <nd ref="3446947986"/>
    <nd ref="31518554"/>
    <nd ref="31518548"/>
    <nd ref="31518551"/>
    <tag k="highway" v="residential"/>
    <tag k="maxspeed" v="20 mph"/>
    <tag k="name" v="West Ferryfield"/>
  </way>
  <way id="4878427" version="4" timestamp="2014-12-31T17:40:36Z" changeset="27827178" uid="42123" user="Ropino">
    <nd ref="31518600"/>
    <nd ref="31518602"/>
    <tag k="highway" v="residential"/>
    <tag k="maxspeed" v="20 mph"/>
    <tag k="name" v="West Ferryfield"/>
  </way>
  <way id="4933728" version="8" timestamp="2017-03-19T00:02:05Z" changeset="46969394" uid="33764" user="Rostranimin">
    <nd ref="32461228"/>
    <nd ref="32461225"/>
    <nd ref="32461227"/>
    <nd ref="608660876"/>
    <tag k="highway" v="residential"/>
    <tag k="lanes" v="2"/>
    <tag k="maxspeed" v="20 mph"/>
    <tag k="name" v="Clark Avenue"/>
    <tag k="source" v="Bing;survey"/>
    <tag k="width" v="8"/>
  </way>
  <way id="4933729" version="10" timestamp="2018-06-11T09:56:19Z" changeset="59735081" uid="8401375" user="anonBHuaMxLWPaeQ">
    <nd ref="32461223"/>
    <nd ref="4036437280"/>
    <nd ref="797643572"/>
    <nd ref="32461226"/>
    <nd ref="608660875"/>
    <tag k="highway" v="residential"/>
    <tag k="lanes" v="1"/>
    <tag k="maxspeed" v="20 mph"/>
    <tag k="name" v="Bangholm Place"/>
    <tag k="source" v="Bing;survey"/>
    <tag k="surface" v="asphalt"/>
    <tag k="width" v="3"/>
  </way>
  <way id="4933730" version="8" timestamp="2017-03-19T00:02:05Z" changeset="46969394" uid="33764" user="Rostranimin">
    <nd ref="32461227"/>
    <nd ref="1341376724"/>
    <nd ref="32461226"/>
    <nd ref="1283271315"/>
    <nd ref="32461222"/>
    <tag k="highway" v="residential"/>
    <tag k="lanes" v="1"/>
    <tag k="maxspeed" v="20 mph"/>
    <tag k="name" v="Bangholm Avenue"/>
    <tag k="source" v="Bing;survey"/>
    <tag k="width" v="3"/>
  </way>
  <way id="4933731" version="6" timestamp="2017-03-19T00:02:05Z" changeset="46969394" uid="33764" user="Rostranimin">
    <nd ref="32461234"/>
    <nd ref="4036437281"/>
    <nd ref="32461235"/>
    <tag k="highway" v="residential"/>
    <tag k="maxspeed" v="20 mph"/>
    <tag k="name" v="Bangholm Park"/>
    <tag k="source" v="Bing;survey"/>
    <tag k="width" v="3"/>
  </way>
  <way id="4933732" version="9" timestamp="2018-06-11T11:24:13Z" changeset="59735082" uid="8401375" user="anonBHuaMxLWPaeQ">
    <nd ref="32461239"/>
    <nd ref="4155827502"/>
    <nd ref="3446948079"/>
    <nd ref="32461243"/>
    <tag k="highway" v="residential"/>
    <tag k="lit" v="yes"/>
    <tag k="maxspeed" v="30 mph"/>
    <tag k="name" v="Chancelot Grove"/>
    <tag k="source" v="Bing;survey"/>
    <tag k="surface" v="asphalt"/>
  </way>
  <way id="4933733" version="7" timestamp="2018-06-11T11:24:22Z" changeset="59735081" uid="8401375" user="anonBHuaMxLWPaeQ">
    <nd ref="1260900543"/>
    <nd ref="32461244"/>
    <nd ref="32461245"/>
    <tag k="highway" v="residential"/>
    <tag k="maxspeed" v="30 mph"/>
    <tag k="name" v="Chancelot Crescent"/>
    <tag k="source" v="Bing;survey"/>
    <tag k="surface" v="asphalt"/>
  </way>
  <way id="4933735" version="13" timestamp="2020-02-16T20:58:56Z" changeset="81081716" uid="388774" user="drnoble">
    <nd ref="1118499784"/>
    <nd ref="4038729451"/>
    <nd ref="7217178818"/>
    <nd ref="32461259"/>
    <nd ref="3481752015"/>
    <nd ref="32461260"/>
    <nd ref="3475324165"/>
    <nd ref="3475324166"/>
    <nd ref="32461261"/>
    <nd ref="610466438"/>
    <nd ref="1277725684"/>
    <nd ref="1600598123"/>
    <nd ref="32461262"/>
    <tag k="highway" v="residential"/>
    <tag k="maxspeed" v="20 mph"/>
    <tag k="name" v="Craighall Avenue"/>
    <tag k="source" v="Bing;survey"/>
  </way>
  <way id="4933736" version="3" timestamp="2017-03-19T00:02:05Z" changeset="46969394" uid="33764" user="Rostranimin">
    <nd ref="32461259"/>
    <nd ref="32461263"/>
    <tag k="highway" v="residential"/>
    <tag k="maxspeed" v="20 mph"/>
    <tag k="name" v="Craighall Bank"/>
  </way>
  <way id="4933737" version="7" timestamp="2020-02-16T21:04:45Z" changeset="81081849" uid="388774" user="drnoble">
    <nd ref="32461266"/>
    <nd ref="7217207417"/>
    <nd ref="4742309630"/>
    <tag k="highway" v="residential"/>
    <tag k="maxspeed" v="20 mph"/>
    <tag k="name" v="Craighall Terrace"/>
    <tag k="source" v="Bing;survey"/>
    <tag k="surface" v="asphalt"/>
  </way>
  <way id="4933739" version="8" timestamp="2017-03-19T00:02:05Z" changeset="46969394" uid="33764" user="Rostranimin">
    <nd ref="4742309633"/>
    <nd ref="32461270"/>
    <nd ref="3448247910"/>
    <nd ref="32461271"/>
    <nd ref="3448247912"/>
    <nd ref="797643613"/>
    <nd ref="32461493"/>
    <nd ref="616020898"/>
    <nd ref="32461494"/>
    <nd ref="32461495"/>
    <nd ref="3448247921"/>
    <nd ref="3448247922"/>
    <nd ref="3448247923"/>
    <nd ref="616020891"/>
    <nd ref="616020900"/>
    <nd ref="4517236506"/>
    <nd ref="4517236514"/>
    <nd ref="4517236500"/>
    <nd ref="4517236512"/>
    <nd ref="4517236501"/>
    <nd ref="4517236513"/>
    <nd ref="4517236511"/>
    <nd ref="4517236507"/>
    <nd ref="616020903"/>
    <nd ref="4517236510"/>
    <nd ref="4517236509"/>
    <nd ref="4517236508"/>
    <nd ref="4517236377"/>
    <nd ref="616020894"/>
    <tag k="highway" v="residential"/>
    <tag k="maxspeed" v="20 mph"/>
    <tag k="name" v="New Cut Rigg"/>
    <tag k="source" v="Bing;survey"/>
  </way>
  <way id="4933740" version="8" timestamp="2021-06-28T10:36:24Z" changeset="107080284" uid="13479299" user="Peter JB King">
    <nd ref="32461275"/>
    <nd ref="797643607"/>
    <nd ref="3492742671"/>
    <nd ref="4742309629"/>
    <tag k="highway" v="residential"/>
    <tag k="maxspeed" v="20 mph"/>
    <tag k="name" v="Craighall Gardens"/>
    <tag k="source" v="Bing;survey"/>
    <tag k="surface" v="asphalt"/>
  </way>
  <way id="4933741" version="9" timestamp="2021-06-28T10:36:24Z" changeset="107080284" uid="13479299" user="Peter JB King">
    <nd ref="32461999"/>
    <nd ref="7217178822"/>
    <nd ref="32461986"/>
    <nd ref="4038801858"/>
    <nd ref="4038801860"/>
    <nd ref="797643606"/>
    <nd ref="4038801868"/>
    <nd ref="4038801867"/>
    <nd ref="4038801865"/>
    <nd ref="1118499715"/>
    <nd ref="7217178859"/>
    <nd ref="32461973"/>
    <nd ref="4038801852"/>
    <nd ref="616020873"/>
    <nd ref="4038801851"/>
    <nd ref="616020874"/>
    <nd ref="7217178835"/>
    <nd ref="7217178830"/>
    <nd ref="32461258"/>
    <nd ref="4038801862"/>
    <nd ref="4038801864"/>
    <nd ref="32461257"/>
    <nd ref="4038801871"/>
    <nd ref="616020932"/>
    <nd ref="7217178860"/>
    <nd ref="616020930"/>
    <nd ref="4038801887"/>
    <nd ref="4038801889"/>
    <nd ref="4038801890"/>
    <nd ref="32461256"/>
    <nd ref="4038801896"/>
    <nd ref="32461255"/>
    <nd ref="4038801898"/>
    <nd ref="32461254"/>
    <nd ref="4038801900"/>
    <nd ref="4038801901"/>
    <nd ref="4742309627"/>
    <tag k="highway" v="residential"/>
    <tag k="maxspeed" v="20 mph"/>
    <tag k="name" v="Grandfield"/>
    <tag k="source" v="Bing;survey"/>
    <tag k="surface" v="asphalt"/>
  </way>
  <way id="4933743" version="9" timestamp="2016-12-09T12:34:52Z" changeset="44281112" uid="2234934" user="sophiemccallum">
    <nd ref="1317767464"/>
    <nd ref="763622515"/>
    <nd ref="3675319532"/>
    <nd ref="3675319531"/>
    <nd ref="3675319530"/>
    <nd ref="32461278"/>
    <nd ref="1317767636"/>
    <nd ref="3484673707"/>
    <nd ref="612495200"/>
    <nd ref="3675319529"/>
    <nd ref="3484673706"/>
    <nd ref="612495199"/>
    <nd ref="3484673705"/>
    <nd ref="612495191"/>
    <nd ref="4546453531"/>
    <nd ref="32461281"/>
    <nd ref="3484360598"/>
    <nd ref="3484360596"/>
    <nd ref="1317767456"/>
    <nd ref="3484360593"/>
    <nd ref="763622586"/>
    <nd ref="3484360592"/>
    <nd ref="1317767666"/>
    <nd ref="1317767379"/>
    <nd ref="32461282"/>
    <tag k="highway" v="residential"/>
    <tag k="maxspeed" v="20 mph"/>
    <tag k="name" v="Craighall Crescent"/>
    <tag k="source" v="Bing;survey"/>
  </way>
  <way id="4933744" version="6" timestamp="2020-02-16T20:58:56Z" changeset="81081716" uid="388774" user="drnoble">
    <nd ref="32461278"/>
    <nd ref="612495202"/>
    <nd ref="612495203"/>
    <nd ref="3675319528"/>
    <nd ref="3675319527"/>
    <nd ref="4546453522"/>
    <nd ref="4546453523"/>
    <nd ref="4546453524"/>
    <tag k="highway" v="residential"/>
    <tag k="maxspeed" v="20 mph"/>
    <tag k="name" v="Craighall Crescent"/>
    <tag k="source" v="Bing;survey"/>
  </way>
  <way id="4933745" version="4" timestamp="2014-12-31T16:59:39Z" changeset="27827178" uid="42123" user="Ropino">
    <nd ref="32461281"/>
    <nd ref="612495192"/>
    <nd ref="32461284"/>
    <tag k="highway" v="residential"/>
    <tag k="maxspeed" v="20 mph"/>
    <tag k="name" v="Craighall Crescent"/>
  </way>
  <way id="4933748" version="6" timestamp="2015-08-06T10:58:07Z" changeset="33152006" uid="1798469" user="eric_">
    <nd ref="31469669"/>
    <nd ref="3683770551"/>
    <nd ref="32461282"/>
    <tag k="highway" v="residential"/>
    <tag k="maxspeed" v="20 mph"/>
    <tag k="name" v="Lixmount Gardens"/>
    <tag k="source" v="Bing;survey"/>
  </way>
  <way id="4940926" version="3" timestamp="2017-03-18T23:09:39Z" changeset="46968481" uid="33764" user="Rostranimin">
    <nd ref="32549439"/>
    <nd ref="32549440"/>
    <tag k="highway" v="residential"/>
    <tag k="maxspeed" v="30 mph"/>
    <tag k="name" v="Rosebank Grove"/>
    <tag k="source" v="Bing;survey"/>
  </way>
  <way id="4940927" version="9" timestamp="2021-06-28T10:36:24Z" changeset="107080284" uid="13479299" user="Peter JB King">
    <nd ref="763622768"/>
    <nd ref="3491329376"/>
    <nd ref="3505223967"/>
    <nd ref="32549443"/>
    <tag k="highway" v="residential"/>
    <tag k="maxspeed" v="20 mph"/>
    <tag k="name" v="Trinity Court"/>
    <tag k="source" v="Bing;survey"/>
    <tag k="surface" v="asphalt"/>
    <tag k="traffic_calming" v="hump"/>
  </way>
  <way id="5014373" version="17" timestamp="2024-01-13T14:32:32Z" changeset="146216356" uid="7400464" user="Moohan">
    <nd ref="289143982"/>
    <nd ref="2256257486"/>
    <nd ref="2256257469"/>
    <nd ref="2268558593"/>
    <tag k="cycleway:left" v="no"/>
    <tag k="highway" v="primary"/>
    <tag k="junction" v="roundabout"/>
    <tag k="lane_markings" v="no"/>
    <tag k="lit" v="yes"/>
    <tag k="maxspeed" v="30 mph"/>
    <tag k="ref" v="A901"/>
    <tag k="sidewalk" v="left"/>
    <tag k="smoothness" v="excellent"/>
    <tag k="source:ref" v="OS_OpenData_StreetView"/>
    <tag k="surface" v="asphalt"/>
  </way>
  <way id="5016411" version="26" timestamp="2024-11-14T12:33:17Z" changeset="159127579" uid="20156270" user="Radiotea">
    <nd ref="33414677"/>
    <nd ref="3481550781"/>
    <nd ref="33654282"/>
    <nd ref="1277725686"/>
    <nd ref="33415181"/>
    <nd ref="3484360614"/>
    <nd ref="3484360612"/>
    <nd ref="8776084816"/>
    <nd ref="628230591"/>
    <nd ref="33415139"/>
    <nd ref="4037672797"/>
    <nd ref="33415182"/>
    <nd ref="43494866"/>
    <nd ref="793814879"/>
    <nd ref="3475324130"/>
    <nd ref="4233635814"/>
    <nd ref="7575774019"/>
    <nd ref="3448247919"/>
    <nd ref="7575774023"/>
    <nd ref="638320"/>
    <tag k="highway" v="tertiary"/>
    <tag k="lanes" v="2"/>
    <tag k="maxspeed" v="20 mph"/>
    <tag k="name" v="Newhaven Road"/>
    <tag k="sidewalk" v="both"/>
    <tag k="source" v="Bing;survey"/>
    <tag k="surface" v="asphalt"/>
  </way>
  <way id="5016416" version="10" timestamp="2020-12-27T14:56:02Z" changeset="96486031" uid="53626" user="jambamkin">
    <nd ref="31469687"/>
    <nd ref="3484360741"/>
    <nd ref="3484360726"/>
    <nd ref="3484360715"/>
    <nd ref="3484360703"/>
    <nd ref="31518312"/>
    <nd ref="33414676"/>
    <tag k="cycleway:both" v="no"/>
    <tag k="highway" v="tertiary"/>
    <tag k="lanes" v="2"/>
    <tag k="maxspeed" v="20 mph"/>
    <tag k="name" v="Newhaven Road"/>
    <tag k="source" v="Bing;survey"/>
    <tag k="surface" v="asphalt"/>
  </way>
  <way id="5016417" version="10" timestamp="2023-01-22T19:06:36Z" changeset="131578167" uid="14047157" user="osmuser63783">
    <nd ref="33414676"/>
    <nd ref="33414677"/>
    <tag k="bridge" v="yes"/>
    <tag k="cycleway:both" v="no"/>
    <tag k="highway" v="tertiary"/>
    <tag k="layer" v="1"/>
    <tag k="maxspeed" v="20 mph"/>
    <tag k="maxweight:signed" v="no"/>
    <tag k="name" v="Newhaven Road"/>
    <tag k="surface" v="asphalt"/>
  </way>
  <way id="5034599" version="9" timestamp="2024-11-14T12:12:56Z" changeset="159126228" uid="20156270" user="Radiotea">
    <nd ref="33654657"/>
    <nd ref="4036468120"/>
    <nd ref="33654669"/>
    <tag k="highway" v="residential"/>
    <tag k="maxspeed" v="20 mph"/>
    <tag k="name" v="Dudley Avenue South"/>
    <tag k="sidewalk" v="both"/>
    <tag k="sidewalk:both:surface" v="asphalt"/>
    <tag k="source" v="Bing;survey"/>
    <tag k="surface" v="sett"/>
  </way>
  <way id="5034600" version="6" timestamp="2020-10-09T17:07:16Z" changeset="92248602" uid="417398" user="saintam1">
    <nd ref="33654567"/>
    <nd ref="4847339347"/>
    <nd ref="4847339346"/>
    <nd ref="4847339348"/>
    <nd ref="33654577"/>
    <nd ref="33654655"/>
    <nd ref="33654657"/>
    <tag k="highway" v="residential"/>
    <tag k="maxspeed" v="20 mph"/>
    <tag k="name" v="Dudley Avenue"/>
    <tag k="source" v="Bing;survey"/>
    <tag k="surface" v="asphalt"/>
  </way>
  <way id="5034601" version="9" timestamp="2021-06-27T17:30:09Z" changeset="107045475" uid="13479299" user="Peter JB King">
    <nd ref="33654282"/>
    <nd ref="4037092362"/>
    <nd ref="3481550780"/>
    <nd ref="628230589"/>
    <nd ref="4037092364"/>
    <nd ref="4037092365"/>
    <nd ref="33654291"/>
    <nd ref="3475028203"/>
    <nd ref="628230596"/>
    <nd ref="3475028216"/>
    <nd ref="33654499"/>
    <nd ref="3475028224"/>
    <nd ref="4847339349"/>
    <nd ref="33654567"/>
    <tag k="highway" v="residential"/>
    <tag k="maxspeed" v="20 mph"/>
    <tag k="name" v="Dudley Crescent"/>
    <tag k="source" v="Bing;survey"/>
    <tag k="surface" v="asphalt"/>
  </way>
  <way id="5034603" version="10" timestamp="2021-06-27T17:30:09Z" changeset="107045475" uid="13479299" user="Peter JB King">
    <nd ref="33415182"/>
    <nd ref="4037092357"/>
    <nd ref="1081282641"/>
    <nd ref="3294055228"/>
    <nd ref="3294055229"/>
    <nd ref="3293661124"/>
    <nd ref="33654673"/>
    <nd ref="33654680"/>
    <nd ref="4037092360"/>
    <nd ref="3481550757"/>
    <nd ref="4037092361"/>
    <nd ref="33654655"/>
    <tag k="highway" v="residential"/>
    <tag k="maxspeed" v="20 mph"/>
    <tag k="name" v="Dudley Gardens"/>
    <tag k="source" v="Bing;survey"/>
    <tag k="surface" v="asphalt"/>
  </way>
  <way id="5034605" version="7" timestamp="2021-06-27T17:30:09Z" changeset="107045475" uid="13479299" user="Peter JB King">
    <nd ref="33654499"/>
    <nd ref="4037092367"/>
    <nd ref="4037092363"/>
    <nd ref="3475028173"/>
    <nd ref="3293661151"/>
    <nd ref="3475028122"/>
    <nd ref="4037092359"/>
    <nd ref="33654680"/>
    <tag k="highway" v="residential"/>
    <tag k="maxspeed" v="20 mph"/>
    <tag k="name" v="Dudley Grove"/>
    <tag k="source" v="Bing;survey"/>
    <tag k="surface" v="asphalt"/>
  </way>
  <way id="5034606" version="6" timestamp="2021-06-27T17:30:09Z" changeset="107045475" uid="13479299" user="Peter JB King">
    <nd ref="33654291"/>
    <nd ref="4037092366"/>
    <nd ref="628230598"/>
    <nd ref="4037092358"/>
    <nd ref="33654673"/>
    <tag k="highway" v="residential"/>
    <tag k="maxspeed" v="20 mph"/>
    <tag k="name" v="Dudley Terrace"/>
    <tag k="surface" v="asphalt"/>
  </way>
  <way id="5034608" version="4" timestamp="2021-06-27T17:30:09Z" changeset="107045475" uid="13479299" user="Peter JB King">
    <nd ref="33654809"/>
    <nd ref="33654816"/>
    <tag k="highway" v="residential"/>
    <tag k="maxspeed" v="20 mph"/>
    <tag k="name" v="Park Place"/>
    <tag k="source" v="Bing;survey"/>
    <tag k="surface" v="asphalt"/>
  </way>
  <way id="5034609" version="8" timestamp="2021-06-27T17:30:09Z" changeset="107045475" uid="13479299" user="Peter JB King">
    <nd ref="31518318"/>
    <nd ref="4517236665"/>
    <nd ref="33654817"/>
    <nd ref="3484360691"/>
    <nd ref="1317767479"/>
    <nd ref="3484360694"/>
    <nd ref="764566722"/>
    <nd ref="764566778"/>
    <nd ref="853715938"/>
    <nd ref="33654818"/>
    <tag k="highway" v="residential"/>
    <tag k="maxspeed" v="20 mph"/>
    <tag k="name" v="Belvedere Park"/>
    <tag k="surface" v="asphalt"/>
  </way>
  <way id="5034611" version="13" timestamp="2022-02-11T16:25:45Z" changeset="117294178" uid="3432400" user="GinaroZ">
    <nd ref="31469687"/>
    <nd ref="764566745"/>
    <nd ref="3484360758"/>
    <nd ref="4831035005"/>
    <nd ref="1987666530"/>
    <nd ref="628230594"/>
    <tag k="highway" v="residential"/>
    <tag k="lanes" v="2"/>
    <tag k="maxspeed" v="20 mph"/>
    <tag k="name" v="Newhaven Road"/>
    <tag k="source" v="Bing;survey"/>
    <tag k="surface" v="asphalt"/>
  </way>
  <way id="5034614" version="7" timestamp="2023-10-06T12:32:19Z" changeset="142231021" uid="13459" user="scvalex">
    <nd ref="31518409"/>
    <nd ref="797643638"/>
    <nd ref="31518412"/>
    <tag k="highway" v="residential"/>
    <tag k="maxspeed" v="20 mph"/>
    <tag k="name" v="Laverockbank Avenue"/>
    <tag k="source" v="Bing;survey"/>
    <tag k="surface" v="asphalt"/>
  </way>
  <way id="5034615" version="4" timestamp="2015-04-28T17:50:51Z" changeset="30589737" uid="1798469" user="eric_">
    <nd ref="33654828"/>
    <nd ref="33654836"/>
    <tag k="highway" v="residential"/>
    <tag k="maxspeed" v="20 mph"/>
    <tag k="name" v="Laverockbank Gardens"/>
    <tag k="source" v="Bing;survey"/>
  </way>
  <way id="5034616" version="4" timestamp="2015-04-28T17:50:51Z" changeset="30589737" uid="1798469" user="eric_">
    <nd ref="31518324"/>
    <nd ref="3484674052"/>
    <nd ref="33654837"/>
    <tag k="highway" v="residential"/>
    <tag k="maxspeed" v="20 mph"/>
    <tag k="name" v="Mayville Gardens East"/>
    <tag k="source" v="Bing;survey"/>
  </way>
  <way id="5034619" version="6" timestamp="2015-08-19T16:34:53Z" changeset="33444018" uid="1798469" user="eric_">
    <nd ref="33654839"/>
    <nd ref="33654847"/>
    <tag k="highway" v="residential"/>
    <tag k="maxspeed" v="20 mph"/>
    <tag k="name" v="Laverockbank Grove"/>
    <tag k="source" v="Bing;survey"/>
  </way>
  <way id="5034620" version="5" timestamp="2015-04-29T18:06:55Z" changeset="30631524" uid="1798469" user="eric_">
    <nd ref="33654840"/>
    <nd ref="3484674034"/>
    <nd ref="33654848"/>
    <tag k="highway" v="residential"/>
    <tag k="maxspeed" v="20 mph"/>
    <tag k="name" v="Mayville Gardens"/>
    <tag k="source" v="Bing;survey"/>
  </way>
  <way id="5034621" version="4" timestamp="2015-04-28T17:50:53Z" changeset="30589737" uid="1798469" user="eric_">
    <nd ref="33654841"/>
    <nd ref="33654849"/>
    <tag k="highway" v="residential"/>
    <tag k="maxspeed" v="20 mph"/>
    <tag k="name" v="Roseville Gardens"/>
    <tag k="source" v="Bing;survey"/>
  </way>
  <way id="5034622" version="8" timestamp="2023-09-24T11:34:17Z" changeset="141677227" uid="7400464" user="Moohan">
    <nd ref="31348172"/>
    <nd ref="3533219991"/>
    <nd ref="31348178"/>
    <tag k="cycleway:both" v="no"/>
    <tag k="highway" v="residential"/>
    <tag k="lanes" v="2"/>
    <tag k="maxspeed" v="20 mph"/>
    <tag k="name" v="Trinity Road"/>
    <tag k="source" v="Bing;survey"/>
  </way>
  <way id="5034623" version="8" timestamp="2023-09-24T11:34:38Z" changeset="141678295" uid="7400464" user="Moohan">
    <nd ref="31348178"/>
    <nd ref="1265746990"/>
    <nd ref="3531006789"/>
    <nd ref="31348188"/>
    <tag k="cycleway:both" v="no"/>
    <tag k="highway" v="residential"/>
    <tag k="lanes" v="2"/>
    <tag k="maxspeed" v="20 mph"/>
    <tag k="name" v="Trinity Road"/>
    <tag k="sidewalk" v="both"/>
    <tag k="source" v="Bing;survey"/>
  </way>
  <way id="5034624" version="4" timestamp="2021-06-28T10:36:24Z" changeset="107080284" uid="13479299" user="Peter JB King">
    <nd ref="33654854"/>
    <nd ref="33654855"/>
    <nd ref="33654856"/>
    <tag k="highway" v="residential"/>
    <tag k="maxspeed" v="20 mph"/>
    <tag k="name" v="Trinity Grove"/>
    <tag k="source" v="Bing;survey"/>
    <tag k="surface" v="unpaved"/>
  </way>
  <way id="5034625" version="13" timestamp="2021-01-30T16:43:39Z" changeset="98421414" uid="388774" user="drnoble">
    <nd ref="31263140"/>
    <nd ref="2095330602"/>
    <nd ref="1990045980"/>
    <nd ref="31263144"/>
    <nd ref="797643560"/>
    <tag k="highway" v="residential"/>
    <tag k="lanes" v="2"/>
    <tag k="lit" v="yes"/>
    <tag k="maxspeed" v="20 mph"/>
    <tag k="name" v="South Trinity Road"/>
    <tag k="sidewalk" v="both"/>
    <tag k="source" v="Bing;survey"/>
    <tag k="surface" v="asphalt"/>
  </way>
  <way id="5034626" version="6" timestamp="2021-06-28T10:36:24Z" changeset="107080284" uid="13479299" user="Peter JB King">
    <nd ref="31263139"/>
    <nd ref="31263140"/>
    <tag k="bridge" v="yes"/>
    <tag k="highway" v="residential"/>
    <tag k="lanes" v="2"/>
    <tag k="layer" v="1"/>
    <tag k="maxspeed" v="20 mph"/>
    <tag k="name" v="South Trinity Road"/>
    <tag k="source" v="Bing;survey"/>
    <tag k="surface" v="asphalt"/>
  </way>
  <way id="5034627" version="12" timestamp="2022-06-26T09:47:34Z" changeset="122861431" uid="11965237" user="markbeech">
    <nd ref="33216830"/>
    <nd ref="31261121"/>
    <tag k="highway" v="residential"/>
    <tag k="lanes" v="2"/>
    <tag k="lit" v="yes"/>
    <tag k="maxspeed" v="20 mph"/>
    <tag k="name" v="Clark Road"/>
    <tag k="sidewalk" v="both"/>
    <tag k="source" v="Bing;survey"/>
    <tag k="surface" v="asphalt"/>
    <tag k="width" v="10"/>
  </way>
  <way id="5034628" version="7" timestamp="2015-05-27T15:59:17Z" changeset="31507049" uid="1939732" user="eisa">
    <nd ref="31261122"/>
    <nd ref="33216830"/>
    <tag k="bridge" v="yes"/>
    <tag k="highway" v="residential"/>
    <tag k="lanes" v="2"/>
    <tag k="layer" v="1"/>
    <tag k="maxspeed" v="20 mph"/>
    <tag k="name" v="Clark Road"/>
    <tag k="source" v="Bing;survey"/>
    <tag k="width" v="10"/>
  </way>
  <way id="5074959" version="6" timestamp="2017-05-24T10:44:18Z" changeset="48943622" uid="2234934" user="sophiemccallum">
    <nd ref="34421597"/>
    <nd ref="34421596"/>
    <nd ref="34421595"/>
    <nd ref="4314582492"/>
    <nd ref="4873950592"/>
    <nd ref="4314582495"/>
    <nd ref="4873950593"/>
    <nd ref="34421594"/>
    <nd ref="4314582501"/>
    <nd ref="4314582503"/>
    <nd ref="4314582510"/>
    <nd ref="4314582516"/>
    <nd ref="4314582519"/>
    <nd ref="34421592"/>
    <nd ref="3446948051"/>
    <nd ref="3446948052"/>
    <nd ref="34421591"/>
    <nd ref="3446948054"/>
    <nd ref="3446948057"/>
    <nd ref="3446948059"/>
    <nd ref="3446948060"/>
    <nd ref="34421587"/>
    <tag k="highway" v="residential"/>
    <tag k="maxspeed" v="20 mph"/>
    <tag k="name" v="Ferryfield"/>
  </way>
  <way id="5074960" version="7" timestamp="2017-05-24T11:57:01Z" changeset="48945531" uid="2234934" user="sophiemccallum">
    <nd ref="34421595"/>
    <nd ref="3446948038"/>
    <nd ref="3446948042"/>
    <nd ref="4874063914"/>
    <nd ref="1668946792"/>
    <nd ref="4874063913"/>
    <nd ref="3446948050"/>
    <nd ref="3446948053"/>
    <nd ref="3446948055"/>
    <nd ref="4874063915"/>
    <nd ref="1668946799"/>
    <nd ref="34421599"/>
    <tag k="highway" v="residential"/>
    <tag k="maxspeed" v="20 mph"/>
    <tag k="name" v="Ferryfield"/>
  </way>
  <way id="5074961" version="8" timestamp="2017-05-24T11:57:01Z" changeset="48945531" uid="2234934" user="sophiemccallum">
    <nd ref="34421600"/>
    <nd ref="34421599"/>
    <nd ref="3446948070"/>
    <nd ref="4874064428"/>
    <nd ref="3446948071"/>
    <nd ref="4874064429"/>
    <nd ref="4874064430"/>
    <nd ref="3446948072"/>
    <nd ref="262691106"/>
    <nd ref="3446948075"/>
    <nd ref="34421601"/>
    <tag k="highway" v="residential"/>
    <tag k="maxspeed" v="20 mph"/>
    <tag k="name" v="Ferryfield"/>
  </way>
  <way id="5074962" version="5" timestamp="2016-07-21T16:19:32Z" changeset="40925288" uid="2234934" user="sophiemccallum">
    <nd ref="34421612"/>
    <nd ref="4314582778"/>
    <nd ref="4314582770"/>
    <nd ref="4314582762"/>
    <nd ref="4314582751"/>
    <nd ref="34421602"/>
    <nd ref="34421591"/>
    <tag k="highway" v="residential"/>
    <tag k="maxspeed" v="20 mph"/>
    <tag k="name" v="Ferryfield"/>
  </way>
  <way id="5074963" version="4" timestamp="2017-03-13T13:19:43Z" changeset="46812586" uid="2234934" user="sophiemccallum">
    <nd ref="34421592"/>
    <nd ref="34421613"/>
    <nd ref="4732212197"/>
    <nd ref="34421604"/>
    <tag k="highway" v="residential"/>
    <tag k="maxspeed" v="20 mph"/>
    <tag k="name" v="Ferryfield"/>
  </way>
  <way id="5074964" version="6" timestamp="2017-05-24T12:01:43Z" changeset="48945660" uid="2234934" user="sophiemccallum">
    <nd ref="34421596"/>
    <nd ref="3446948004"/>
    <nd ref="34421605"/>
    <nd ref="4874070146"/>
    <nd ref="3446948001"/>
    <nd ref="4874070145"/>
    <nd ref="3446948003"/>
    <nd ref="3446948009"/>
    <nd ref="3446948010"/>
    <nd ref="3446948012"/>
    <nd ref="3446948013"/>
    <nd ref="3446948011"/>
    <nd ref="34421608"/>
    <nd ref="34421607"/>
    <nd ref="262691107"/>
    <tag k="highway" v="residential"/>
    <tag k="maxspeed" v="20 mph"/>
    <tag k="name" v="Ferryfield"/>
  </way>
  <way id="5074965" version="4" timestamp="2015-04-09T15:55:46Z" changeset="30096568" uid="1939732" user="eisa">
    <nd ref="34421608"/>
    <nd ref="3446948008"/>
    <nd ref="3446948002"/>
    <nd ref="34421609"/>
    <tag k="highway" v="residential"/>
    <tag k="maxspeed" v="20 mph"/>
    <tag k="name" v="Ferryfield"/>
  </way>
  <way id="5074967" version="7" timestamp="2015-05-29T12:03:57Z" changeset="31560691" uid="1939732" user="eisa">
    <nd ref="34421587"/>
    <nd ref="3446948063"/>
    <nd ref="3446948065"/>
    <nd ref="3446948067"/>
    <nd ref="3446948068"/>
    <nd ref="3556271458"/>
    <nd ref="3556271467"/>
    <nd ref="3446948069"/>
    <nd ref="34421589"/>
    <tag k="highway" v="residential"/>
    <tag k="maxspeed" v="20 mph"/>
    <tag k="name" v="Wardie Park"/>
  </way>
  <way id="5376439" version="3" timestamp="2017-03-18T23:09:40Z" changeset="46968481" uid="33764" user="Rostranimin">
    <nd ref="38561903"/>
    <nd ref="38561906"/>
    <tag k="highway" v="residential"/>
    <tag k="maxspeed" v="30 mph"/>
    <tag k="name" v="Afton Place"/>
    <tag k="source" v="Bing;survey"/>
  </way>
  <way id="5731781" version="13" timestamp="2024-11-14T12:30:49Z" changeset="159126228" uid="20156270" user="Radiotea">
    <nd ref="638321"/>
    <nd ref="4035235004"/>
    <nd ref="3294156518"/>
    <nd ref="4036468122"/>
    <nd ref="3294156546"/>
    <nd ref="3294156554"/>
    <nd ref="4036468124"/>
    <nd ref="4036468125"/>
    <nd ref="43494838"/>
    <tag k="highway" v="residential"/>
    <tag k="maxspeed" v="20 mph"/>
    <tag k="name" v="Summerside Street"/>
    <tag k="sidewalk" v="both"/>
    <tag k="sidewalk:both:surface" v="asphalt"/>
    <tag k="source" v="Bing;survey"/>
    <tag k="surface" v="asphalt"/>
  </way>
  <way id="5731801" version="17" timestamp="2024-11-14T12:10:48Z" changeset="159127579" uid="20156270" user="Radiotea">
    <nd ref="43494866"/>
    <nd ref="4036468123"/>
    <nd ref="3475324139"/>
    <nd ref="3294156557"/>
    <nd ref="4515737395"/>
    <nd ref="3484360579"/>
    <nd ref="3484360580"/>
    <nd ref="3484360581"/>
    <nd ref="43494838"/>
    <nd ref="1081282586"/>
    <nd ref="43495234"/>
    <nd ref="43495237"/>
    <nd ref="3294156531"/>
    <nd ref="3294156530"/>
    <nd ref="3294156528"/>
    <nd ref="3294156526"/>
    <nd ref="3294156524"/>
    <nd ref="3294156522"/>
    <nd ref="3294156523"/>
    <nd ref="3294156525"/>
    <nd ref="3294156527"/>
    <nd ref="3294156529"/>
    <nd ref="3294156535"/>
    <nd ref="3294156537"/>
    <nd ref="3294156539"/>
    <nd ref="3294156541"/>
    <nd ref="3294156542"/>
    <nd ref="3294156540"/>
    <nd ref="3294156538"/>
    <nd ref="3294156536"/>
    <nd ref="3294156534"/>
    <nd ref="3294156533"/>
    <nd ref="43495238"/>
    <nd ref="4260091368"/>
    <nd ref="4260091365"/>
    <nd ref="1571726573"/>
    <nd ref="4036468121"/>
    <nd ref="4036468119"/>
    <nd ref="3293661086"/>
    <tag k="highway" v="residential"/>
    <tag k="maxspeed" v="20 mph"/>
    <tag k="name" v="Summerside Place"/>
    <tag k="sidewalk" v="both"/>
    <tag k="source" v="Bing;survey"/>
    <tag k="surface" v="asphalt"/>
  </way>
  <way id="7973868" version="8" timestamp="2016-02-26T12:27:11Z" changeset="37458694" uid="1798469" user="eric_">
    <nd ref="59636957"/>
    <nd ref="59636979"/>
    <nd ref="1281528312"/>
    <nd ref="1281528322"/>
    <nd ref="1281528310"/>
    <nd ref="59636978"/>
    <nd ref="3533942102"/>
    <nd ref="3533942098"/>
    <nd ref="1281528333"/>
    <nd ref="3533941970"/>
    <nd ref="4027854149"/>
    <nd ref="1265651516"/>
    <tag k="highway" v="residential"/>
    <tag k="maxspeed" v="20 mph"/>
    <tag k="name" v="Boswall Road"/>
    <tag k="source" v="Bing;survey"/>
  </way>
  <way id="24263079" version="2" timestamp="2010-02-13T19:01:41Z" changeset="3867547" uid="161886" user="David Fiddes">
    <nd ref="30089873"/>
    <nd ref="30089874"/>
    <tag k="bridge" v="yes"/>
    <tag k="highway" v="residential"/>
    <tag k="layer" v="1"/>
    <tag k="maxspeed" v="20 mph"/>
    <tag k="name" v="Boswall Drive"/>
  </way>
  <way id="24263080" version="5" timestamp="2025-03-16T12:00:05Z" changeset="163685263" uid="7400464" user="Moohan">
    <nd ref="30089874"/>
    <nd ref="34421587"/>
    <nd ref="4319686388"/>
    <nd ref="3446947990"/>
    <nd ref="637286"/>
    <tag k="cycleway:both" v="no"/>
    <tag k="highway" v="residential"/>
    <tag k="maxspeed" v="20 mph"/>
    <tag k="name" v="Boswall Drive"/>
  </way>
  <way id="24263081" version="4" timestamp="2016-07-25T09:41:46Z" changeset="41007144" uid="2234934" user="sophiemccallum">
    <nd ref="31518567"/>
    <nd ref="4319260719"/>
    <nd ref="4319260721"/>
    <nd ref="4319260725"/>
    <nd ref="4319260727"/>
    <nd ref="4319260729"/>
    <nd ref="4319260731"/>
    <nd ref="4319260735"/>
    <nd ref="4319260738"/>
    <nd ref="4319260740"/>
    <nd ref="4319260744"/>
    <nd ref="4319260745"/>
    <nd ref="4319260746"/>
    <nd ref="4319260747"/>
    <nd ref="262691109"/>
    <nd ref="262691108"/>
    <tag k="highway" v="residential"/>
    <tag k="maxspeed" v="20 mph"/>
    <tag k="name" v="West Ferryfield"/>
  </way>
  <way id="24263082" version="4" timestamp="2017-03-13T15:15:55Z" changeset="46815713" uid="2234934" user="sophiemccallum">
    <nd ref="262691109"/>
    <nd ref="4732343771"/>
    <nd ref="262691110"/>
    <tag k="highway" v="residential"/>
    <tag k="maxspeed" v="20 mph"/>
    <tag k="name" v="West Ferryfield"/>
  </way>
  <way id="24263083" version="7" timestamp="2017-03-13T15:45:29Z" changeset="46816409" uid="2234934" user="sophiemccallum">
    <nd ref="262691112"/>
    <nd ref="4732377101"/>
    <nd ref="4732377102"/>
    <nd ref="4732377100"/>
    <nd ref="3446948044"/>
    <nd ref="3556588709"/>
    <nd ref="3446948046"/>
    <nd ref="4732377099"/>
    <nd ref="4732377098"/>
    <nd ref="4319260773"/>
    <nd ref="31518586"/>
    <nd ref="3446948039"/>
    <nd ref="3446948037"/>
    <nd ref="31518583"/>
    <nd ref="3446948035"/>
    <nd ref="3446948034"/>
    <nd ref="3446948033"/>
    <nd ref="3446948036"/>
    <nd ref="31518579"/>
    <nd ref="31518575"/>
    <tag k="highway" v="residential"/>
    <tag k="maxspeed" v="20 mph"/>
    <tag k="name" v="West Ferryfield"/>
  </way>
  <way id="24433101" version="7" timestamp="2025-03-16T11:58:54Z" changeset="163685263" uid="7400464" user="Moohan">
    <nd ref="265557608"/>
    <nd ref="3491329346"/>
    <nd ref="11219642363"/>
    <nd ref="11219642362"/>
    <nd ref="265557609"/>
    <tag k="cycleway:both" v="no"/>
    <tag k="highway" v="residential"/>
    <tag k="maxspeed" v="30 mph"/>
    <tag k="name" v="Inverleith Avenue"/>
    <tag k="source" v="Bing;survey"/>
  </way>
  <way id="29056580" version="13" timestamp="2024-06-16T19:29:09Z" changeset="152774702" uid="20487713" user="iiBus">
    <nd ref="319597017"/>
    <nd ref="32549439"/>
    <nd ref="3348827456"/>
    <nd ref="9244044971"/>
    <tag k="cycleway:both" v="no"/>
    <tag k="highway" v="primary"/>
    <tag k="lanes" v="2"/>
    <tag k="maxspeed" v="30 mph"/>
    <tag k="name" v="Granton Road"/>
    <tag k="ref" v="A903"/>
    <tag k="sidewalk" v="both"/>
    <tag k="source" v="Bing;survey"/>
    <tag k="surface" v="asphalt"/>
    <tag k="width" v="11"/>
  </way>
  <way id="29056585" version="10" timestamp="2023-09-24T11:32:04Z" changeset="141678295" uid="7400464" user="Moohan">
    <nd ref="30012228"/>
    <nd ref="319597017"/>
    <tag k="bridge" v="yes"/>
    <tag k="cycleway:both" v="no"/>
    <tag k="highway" v="primary"/>
    <tag k="lanes" v="2"/>
    <tag k="layer" v="1"/>
    <tag k="maxspeed" v="30 mph"/>
    <tag k="maxweight:signed" v="no"/>
    <tag k="name" v="Granton Road"/>
    <tag k="ref" v="A903"/>
    <tag k="sidewalk" v="both"/>
    <tag k="source" v="Bing;survey"/>
    <tag k="surface" v="asphalt"/>
    <tag k="width" v="11"/>
  </way>
  <way id="29056696" version="10" timestamp="2025-03-16T11:59:12Z" changeset="163685375" uid="7400464" user="Moohan">
    <nd ref="4742309621"/>
    <nd ref="3491329341"/>
    <nd ref="28144925"/>
    <tag k="cycleway:both" v="no"/>
    <tag k="highway" v="residential"/>
    <tag k="lanes" v="2"/>
    <tag k="maxspeed" v="30 mph"/>
    <tag k="name" v="Wardie Road"/>
    <tag k="source" v="Bing;survey"/>
    <tag k="surface" v="asphalt"/>
    <tag k="traffic_calming" v="cushion"/>
  </way>
  <way id="29056705" version="6" timestamp="2015-05-27T15:59:33Z" changeset="31507049" uid="1939732" user="eisa">
    <nd ref="319597703"/>
    <nd ref="319597673"/>
    <tag k="bridge" v="yes"/>
    <tag k="highway" v="residential"/>
    <tag k="lanes" v="2"/>
    <tag k="layer" v="1"/>
    <tag k="maxspeed" v="20 mph"/>
    <tag k="name" v="Wardie Road"/>
    <tag k="source" v="Bing;survey"/>
    <tag k="traffic_calming" v="cushion"/>
  </way>
  <way id="29258093" version="17" timestamp="2024-06-16T19:29:09Z" changeset="152774702" uid="20487713" user="iiBus">
    <nd ref="321765793"/>
    <nd ref="11986003682"/>
    <nd ref="1341376709"/>
    <nd ref="638313"/>
    <tag k="highway" v="primary"/>
    <tag k="lanes" v="2"/>
    <tag k="lit" v="yes"/>
    <tag k="maxspeed" v="30 mph"/>
    <tag k="name" v="Ferry Road"/>
    <tag k="ref" v="A902"/>
    <tag k="sidewalk" v="both"/>
    <tag k="source" v="Bing;survey"/>
    <tag k="surface" v="asphalt"/>
    <tag k="wikidata" v="Q5445503"/>
  </way>
  <way id="29258098" version="18" timestamp="2024-08-22T20:24:21Z" changeset="155625297" uid="21762849" user="jSeke">
    <nd ref="321765792"/>
    <nd ref="321765793"/>
    <tag k="bridge" v="yes"/>
    <tag k="heritage" v="2"/>
    <tag k="highway" v="primary"/>
    <tag k="lanes" v="2"/>
    <tag k="layer" v="1"/>
    <tag k="lit" v="yes"/>
    <tag k="maxspeed" v="30 mph"/>
    <tag k="name" v="Ferry Road"/>
    <tag k="name:gd" v="Rathad a' Phuirt"/>
    <tag k="ref" v="A902"/>
    <tag k="sidewalk" v="both"/>
    <tag k="source" v="Bing;survey"/>
    <tag k="surface" v="asphalt"/>
    <tag k="wikidata" v="Q17793888"/>
  </way>
  <way id="29259583" version="20" timestamp="2024-08-22T20:24:21Z" changeset="155625297" uid="21762849" user="jSeke">
    <nd ref="637271"/>
    <nd ref="3447037930"/>
    <nd ref="9244044977"/>
    <nd ref="3446948061"/>
    <nd ref="637274"/>
    <nd ref="3447037928"/>
    <nd ref="3446948058"/>
    <nd ref="3447037929"/>
    <nd ref="2892492636"/>
    <nd ref="3447037932"/>
    <tag k="highway" v="primary"/>
    <tag k="lanes" v="2"/>
    <tag k="lit" v="yes"/>
    <tag k="maxspeed" v="30 mph"/>
    <tag k="name" v="Ferry Road"/>
    <tag k="name:gd" v="Rathad a' Phuirt"/>
    <tag k="name:right" v="Bowhill Terrace"/>
    <tag k="ref" v="A902"/>
    <tag k="sidewalk" v="both"/>
    <tag k="source" v="Bing;survey"/>
    <tag k="surface" v="asphalt"/>
    <tag k="wikidata" v="Q5445503"/>
  </way>
  <way id="30886168" version="5" timestamp="2024-08-10T04:31:17Z" changeset="155046615" uid="20415418" user="Gorger">
    <nd ref="12101698942"/>
    <nd ref="12101698943"/>
    <nd ref="12101698944"/>
    <nd ref="343405992"/>
    <nd ref="12101698942"/>
    <tag k="building" v="club_house"/>
    <tag k="name" v="Victoria Park Bowling Green Pavilion"/>
    <tag k="source" v="NLS_OS_Edinburgh_map_1940s;Bing"/>
  </way>
  <way id="31687692" version="24" timestamp="2024-08-22T20:24:21Z" changeset="155625297" uid="21762849" user="jSeke">
    <nd ref="3447037932"/>
    <nd ref="30784020"/>
    <nd ref="11975694060"/>
    <nd ref="8585611035"/>
    <nd ref="472310420"/>
    <nd ref="31261118"/>
    <tag k="cycleway:both" v="no"/>
    <tag k="highway" v="primary"/>
    <tag k="lanes" v="2"/>
    <tag k="lit" v="yes"/>
    <tag k="maxspeed" v="30 mph"/>
    <tag k="name" v="Ferry Road"/>
    <tag k="name:gd" v="Rathad a' Phuirt"/>
    <tag k="ref" v="A902"/>
    <tag k="sidewalk" v="both"/>
    <tag k="source" v="Bing;survey"/>
    <tag k="surface" v="asphalt"/>
    <tag k="wikidata" v="Q5445503"/>
  </way>
  <way id="32524586" version="26" timestamp="2024-08-22T20:24:21Z" changeset="155625297" uid="21762849" user="jSeke">
    <nd ref="32461250"/>
    <nd ref="3973882667"/>
    <nd ref="1260900248"/>
    <nd ref="4035234544"/>
    <nd ref="43489910"/>
    <tag k="highway" v="primary"/>
    <tag k="lanes" v="2"/>
    <tag k="lit" v="yes"/>
    <tag k="maxspeed" v="30 mph"/>
    <tag k="name" v="Ferry Road"/>
    <tag k="name:gd" v="Rathad a' Phuirt"/>
    <tag k="ref" v="A902"/>
    <tag k="sidewalk" v="both"/>
    <tag k="source" v="Bing;survey"/>
    <tag k="surface" v="asphalt"/>
    <tag k="wikidata" v="Q5445503"/>
  </way>
  <way id="32524590" version="5" timestamp="2018-04-08T12:45:57Z" changeset="57912353" uid="2922304" user="smeÃ²rach">
    <nd ref="32461250"/>
    <nd ref="365754965"/>
    <tag k="foot" v="yes"/>
    <tag k="highway" v="residential"/>
    <tag k="maxspeed" v="30 mph"/>
    <tag k="motor_vehicle" v="private"/>
    <tag k="name" v="Bonar Place"/>
    <tag k="source" v="Bing;survey"/>
  </way>
  <way id="47860890" version="9" timestamp="2018-06-11T09:56:07Z" changeset="59735081" uid="8401375" user="anonBHuaMxLWPaeQ">
    <nd ref="3498914647"/>
    <nd ref="4036437251"/>
    <nd ref="638311"/>
    <tag k="highway" v="residential"/>
    <tag k="lanes" v="1"/>
    <tag k="maxspeed" v="30 mph"/>
    <tag k="name" v="Bangholm Place"/>
    <tag k="oneway" v="yes"/>
    <tag k="source" v="Bing;survey"/>
    <tag k="surface" v="asphalt"/>
    <tag k="width" v="3"/>
  </way>
  <way id="47860891" version="7" timestamp="2017-03-19T00:02:06Z" changeset="46969394" uid="33764" user="Rostranimin">
    <nd ref="608660876"/>
    <nd ref="3447037934"/>
    <nd ref="638312"/>
    <tag k="cycleway" v="opposite_lane"/>
    <tag k="highway" v="residential"/>
    <tag k="lanes" v="1"/>
    <tag k="maxspeed" v="20 mph"/>
    <tag k="name" v="Clark Avenue"/>
    <tag k="oneway" v="yes"/>
    <tag k="source" v="Bing;survey"/>
    <tag k="width" v="8"/>
  </way>
  <way id="47873629" version="3" timestamp="2017-03-19T00:02:07Z" changeset="46969394" uid="33764" user="Rostranimin">
    <nd ref="608811514"/>
    <nd ref="608811516"/>
    <nd ref="608811518"/>
    <nd ref="608811519"/>
    <tag k="highway" v="residential"/>
    <tag k="maxspeed" v="20 mph"/>
    <tag k="name" v="Victoria Square"/>
    <tag k="source" v="Bing;survey"/>
  </way>
  <way id="48002373" version="4" timestamp="2015-05-27T15:59:19Z" changeset="31507049" uid="1939732" user="eisa">
    <nd ref="610470068"/>
    <nd ref="623102541"/>
    <nd ref="31263159"/>
    <tag k="highway" v="residential"/>
    <tag k="maxspeed" v="20 mph"/>
    <tag k="name" v="East Lillypot"/>
    <tag k="source" v="Bing;survey"/>
  </way>
  <way id="48002988" version="5" timestamp="2021-01-31T11:05:10Z" changeset="98443302" uid="388774" user="drnoble">
    <nd ref="610475623"/>
    <nd ref="610475601"/>
    <nd ref="610475602"/>
    <nd ref="3491331247"/>
    <nd ref="610475603"/>
    <nd ref="3491331243"/>
    <nd ref="3491331241"/>
    <nd ref="610475604"/>
    <nd ref="610475605"/>
    <tag k="highway" v="residential"/>
    <tag k="lanes" v="2"/>
    <tag k="lit" v="yes"/>
    <tag k="maxspeed" v="20 mph"/>
    <tag k="name" v="Trinity Way"/>
    <tag k="sidewalk" v="no"/>
    <tag k="source" v="Bing;survey"/>
    <tag k="surface" v="asphalt"/>
  </way>
  <way id="48002989" version="6" timestamp="2021-06-28T10:36:24Z" changeset="107080284" uid="13479299" user="Peter JB King">
    <nd ref="610475624"/>
    <nd ref="3491331260"/>
    <nd ref="610475607"/>
    <nd ref="797643585"/>
    <nd ref="3491331240"/>
    <nd ref="3491331235"/>
    <nd ref="610475608"/>
    <nd ref="3491331231"/>
    <nd ref="3491331227"/>
    <nd ref="610475609"/>
    <nd ref="3491331225"/>
    <nd ref="610475610"/>
    <nd ref="3491331221"/>
    <nd ref="610475611"/>
    <nd ref="610475612"/>
    <tag k="highway" v="residential"/>
    <tag k="maxspeed" v="20 mph"/>
    <tag k="name" v="Trinity Mains"/>
    <tag k="source" v="Bing;survey"/>
    <tag k="surface" v="asphalt"/>
  </way>
  <way id="48002992" version="5" timestamp="2021-01-31T11:05:10Z" changeset="98443302" uid="388774" user="drnoble">
    <nd ref="610475601"/>
    <nd ref="610475621"/>
    <tag k="highway" v="residential"/>
    <tag k="lanes" v="2"/>
    <tag k="lit" v="yes"/>
    <tag k="maxspeed" v="20 mph"/>
    <tag k="name" v="Trinity Way"/>
    <tag k="sidewalk" v="no"/>
    <tag k="source" v="Bing;survey"/>
    <tag k="surface" v="asphalt"/>
  </way>
  <way id="48002993" version="4" timestamp="2015-05-27T15:59:16Z" changeset="31507049" uid="1939732" user="eisa">
    <nd ref="610475597"/>
    <nd ref="3547351298"/>
    <nd ref="610475606"/>
    <tag k="highway" v="residential"/>
    <tag k="maxspeed" v="20 mph"/>
    <tag k="name" v="Caithness Place"/>
    <tag k="source" v="Bing;survey"/>
  </way>
  <way id="48002994" version="9" timestamp="2021-06-28T10:36:24Z" changeset="107080284" uid="13479299" user="Peter JB King">
    <nd ref="610475612"/>
    <nd ref="3491331218"/>
    <nd ref="1275883255"/>
    <nd ref="1275883052"/>
    <nd ref="3547591822"/>
    <nd ref="3547591812"/>
    <nd ref="2072730530"/>
    <nd ref="3547591799"/>
    <nd ref="3547591793"/>
    <nd ref="3491331161"/>
    <nd ref="3547591774"/>
    <nd ref="610475614"/>
    <nd ref="3547591773"/>
    <nd ref="3491331159"/>
    <nd ref="3550800583"/>
    <nd ref="3550800708"/>
    <nd ref="610475615"/>
    <nd ref="3547591820"/>
    <nd ref="3547591829"/>
    <nd ref="1275883509"/>
    <nd ref="3547591842"/>
    <nd ref="3550800754"/>
    <nd ref="3547591846"/>
    <nd ref="3550800775"/>
    <nd ref="610475616"/>
    <nd ref="1275883706"/>
    <nd ref="1275882872"/>
    <nd ref="3491331216"/>
    <nd ref="610475612"/>
    <tag k="highway" v="residential"/>
    <tag k="maxspeed" v="20 mph"/>
    <tag k="name" v="Earl Haig Gardens"/>
    <tag k="source" v="Bing;survey"/>
    <tag k="surface" v="asphalt"/>
  </way>
  <way id="48003084" version="5" timestamp="2015-05-27T15:59:27Z" changeset="31507049" uid="1939732" user="eisa">
    <nd ref="1270588731"/>
    <nd ref="763622542"/>
    <tag k="highway" v="residential"/>
    <tag k="maxspeed" v="20 mph"/>
    <tag k="name" v="Rosebank Gardens"/>
    <tag k="source" v="Bing;survey"/>
  </way>
  <way id="48479803" version="5" timestamp="2017-03-19T00:02:07Z" changeset="46969394" uid="33764" user="Rostranimin">
    <nd ref="616020878"/>
    <nd ref="4517236696"/>
    <nd ref="616020883"/>
    <nd ref="4517236694"/>
    <nd ref="32461494"/>
    <tag k="highway" v="residential"/>
    <tag k="maxspeed" v="20 mph"/>
    <tag k="name" v="New Cut Rigg"/>
    <tag k="source" v="survey"/>
  </way>
  <way id="48479804" version="3" timestamp="2017-03-19T00:02:07Z" changeset="46969394" uid="33764" user="Rostranimin">
    <nd ref="616020887"/>
    <nd ref="616020883"/>
    <tag k="highway" v="residential"/>
    <tag k="maxspeed" v="20 mph"/>
    <tag k="name" v="New Cut Rigg"/>
    <tag k="source" v="survey"/>
  </way>
  <way id="48479805" version="4" timestamp="2017-03-19T00:02:07Z" changeset="46969394" uid="33764" user="Rostranimin">
    <nd ref="616020896"/>
    <nd ref="4517236568"/>
    <nd ref="4517236698"/>
    <nd ref="32461493"/>
    <tag k="highway" v="residential"/>
    <tag k="maxspeed" v="20 mph"/>
    <tag k="name" v="New Cut Rigg"/>
    <tag k="source" v="survey"/>
  </way>
  <way id="48479806" version="4" timestamp="2017-03-19T00:02:07Z" changeset="46969394" uid="33764" user="Rostranimin">
    <nd ref="616020890"/>
    <nd ref="4517236701"/>
    <nd ref="616020898"/>
    <tag k="highway" v="residential"/>
    <tag k="maxspeed" v="20 mph"/>
    <tag k="name" v="New Cut Rigg"/>
    <tag k="source" v="survey"/>
  </way>
  <way id="48479807" version="6" timestamp="2017-03-19T00:02:07Z" changeset="46969394" uid="33764" user="Rostranimin">
    <nd ref="4742309626"/>
    <nd ref="616020956"/>
    <nd ref="616020957"/>
    <nd ref="3484360624"/>
    <nd ref="616020958"/>
    <nd ref="616020959"/>
    <nd ref="616020969"/>
    <nd ref="616020960"/>
    <nd ref="616020962"/>
    <nd ref="616020946"/>
    <nd ref="616020947"/>
    <nd ref="3475324183"/>
    <nd ref="616020970"/>
    <nd ref="3475324185"/>
    <nd ref="616020971"/>
    <tag k="highway" v="residential"/>
    <tag k="maxspeed" v="20 mph"/>
    <tag k="name" v="Craighall Road"/>
    <tag k="source" v="Bing;survey"/>
  </way>
  <way id="48962642" version="4" timestamp="2022-06-26T09:47:38Z" changeset="122861514" uid="11965237" user="markbeech">
    <nd ref="621222054"/>
    <nd ref="621222055"/>
    <nd ref="621222075"/>
    <nd ref="621222074"/>
    <nd ref="621222054"/>
    <tag k="building" v="hut"/>
    <tag k="name" v="142 SQN ATC"/>
    <tag k="source" v="bing;survey"/>
  </way>
  <way id="52063016" version="6" timestamp="2023-09-21T08:47:21Z" changeset="141547698" uid="3500921" user="camlewwri">
    <nd ref="663592192"/>
    <nd ref="11207208181"/>
    <nd ref="3504879431"/>
    <nd ref="663592335"/>
    <nd ref="663592318"/>
    <nd ref="663592317"/>
    <nd ref="663592192"/>
    <tag k="brand" v="National Tyres and Autocare"/>
    <tag k="brand:wikidata" v="Q6979055"/>
    <tag k="brand:wikipedia" v="en:National Tyres and Autocare"/>
    <tag k="building" v="yes"/>
    <tag k="name" v="National Tyres and Autocare"/>
    <tag k="service:vehicle:tyres" v="yes"/>
    <tag k="shop" v="car_repair"/>
    <tag k="short_name" v="National Tyres"/>
  </way>
  <way id="52063017" version="5" timestamp="2023-09-21T08:47:21Z" changeset="141547698" uid="3500921" user="camlewwri">
    <nd ref="663592193"/>
    <nd ref="663592341"/>
    <nd ref="663592342"/>
    <nd ref="663592345"/>
    <nd ref="663592346"/>
    <nd ref="663592347"/>
    <nd ref="663592344"/>
    <nd ref="663592343"/>
    <nd ref="663592193"/>
    <tag k="building" v="yes"/>
    <tag k="name" v="Trinity Tots Nursery"/>
    <tag k="source" v="Bing"/>
  </way>
  <way id="52093311" version="6" timestamp="2015-08-05T17:08:35Z" changeset="33134671" uid="2234934" user="sophiemccallum">
    <nd ref="1264416969"/>
    <nd ref="3682748758"/>
    <nd ref="3682748759"/>
    <nd ref="663897750"/>
    <nd ref="3521446956"/>
    <nd ref="663897749"/>
    <nd ref="663897748"/>
    <nd ref="663897751"/>
    <nd ref="3682748757"/>
    <nd ref="1264417126"/>
    <nd ref="1264416995"/>
    <nd ref="1264417093"/>
    <nd ref="1264417104"/>
    <nd ref="1264416977"/>
    <nd ref="1264416877"/>
    <nd ref="1264417131"/>
    <nd ref="1264416969"/>
    <tag k="addr:city" v="Edinburgh"/>
    <tag k="addr:country" v="GB"/>
    <tag k="addr:housenumber" v="4"/>
    <tag k="addr:street" v="Cargil Terrace"/>
    <tag k="building" v="apartments"/>
    <tag k="source" v="NLS_OS_Edinburgh_map_1940s;Bing"/>
  </way>
  <way id="52255117" version="4" timestamp="2019-01-09T20:10:09Z" changeset="66174247" uid="52797" user="hofoen">
    <nd ref="28137587"/>
    <nd ref="28137586"/>
    <tag k="bridge" v="yes"/>
    <tag k="heritage" v="yes"/>
    <tag k="highway" v="residential"/>
    <tag k="layer" v="1"/>
    <tag k="maxspeed" v="20 mph"/>
    <tag k="name" v="Lennox Row"/>
    <tag k="source" v="Bing;survey"/>
    <tag k="wikidata" v="Q17793903"/>
  </way>
  <way id="52255118" version="5" timestamp="2016-02-26T12:27:13Z" changeset="37458694" uid="1798469" user="eric_">
    <nd ref="28137586"/>
    <nd ref="3484674075"/>
    <nd ref="4027854141"/>
    <nd ref="28137584"/>
    <tag k="highway" v="residential"/>
    <tag k="maxspeed" v="20 mph"/>
    <tag k="name" v="Lennox Row"/>
    <tag k="source" v="Bing;survey"/>
  </way>
  <way id="52372214" version="5" timestamp="2016-02-26T12:27:11Z" changeset="37458694" uid="1798469" user="eric_">
    <nd ref="31469663"/>
    <nd ref="4027854129"/>
    <nd ref="3491331259"/>
    <nd ref="666067359"/>
    <nd ref="3491331258"/>
    <nd ref="3491331254"/>
    <nd ref="666067195"/>
    <nd ref="3491331252"/>
    <nd ref="666067196"/>
    <nd ref="3491331246"/>
    <nd ref="3547351346"/>
    <nd ref="3491331242"/>
    <nd ref="3547351341"/>
    <nd ref="3491331238"/>
    <nd ref="3547351336"/>
    <nd ref="666067197"/>
    <nd ref="3547351332"/>
    <nd ref="3491331237"/>
    <nd ref="3547351337"/>
    <nd ref="3491331239"/>
    <nd ref="666067216"/>
    <tag k="highway" v="residential"/>
    <tag k="maxspeed" v="20 mph"/>
    <tag k="name" v="Beresford Place"/>
    <tag k="source" v="Bing;survey"/>
  </way>
  <way id="53471363" version="6" timestamp="2019-03-27T07:06:29Z" changeset="68574983" uid="9451067" user="b-jazz-bot">
    <nd ref="675788511"/>
    <nd ref="675788513"/>
    <nd ref="3533008998"/>
    <nd ref="3533008997"/>
    <nd ref="675788344"/>
    <nd ref="3533008994"/>
    <nd ref="1266022309"/>
    <nd ref="1266022354"/>
    <nd ref="1266022429"/>
    <nd ref="675788352"/>
    <nd ref="675788350"/>
    <nd ref="3533008993"/>
    <nd ref="3532999192"/>
    <nd ref="675788348"/>
    <nd ref="4551116652"/>
    <nd ref="3532999172"/>
    <nd ref="4551116651"/>
    <nd ref="1266022571"/>
    <nd ref="1266022489"/>
    <nd ref="1266022443"/>
    <nd ref="3532999187"/>
    <nd ref="3532999186"/>
    <nd ref="1266022576"/>
    <nd ref="1266022474"/>
    <nd ref="1266022456"/>
    <nd ref="675788343"/>
    <nd ref="675788341"/>
    <nd ref="3532999189"/>
    <nd ref="3532999190"/>
    <nd ref="4551116650"/>
    <nd ref="3532999191"/>
    <nd ref="4551116649"/>
    <nd ref="675788511"/>
    <tag k="amenity" v="nursing_home"/>
    <tag k="building" v="yes"/>
    <tag k="name" v="Lennox House Nursing Home"/>
    <tag k="operator" v="View Point"/>
    <tag k="phone" v="+44 131 552 5774"/>
    <tag k="source" v="Bing;survey"/>
    <tag k="website" v="https://www.viewpoint.org.uk/care-homes/lennox-house/"/>
  </way>
  <way id="56300485" version="13" timestamp="2024-02-22T22:46:30Z" changeset="147792103" uid="14047157" user="osmuser63783">
    <nd ref="4742262976"/>
    <nd ref="797643527"/>
    <nd ref="1175800065"/>
    <nd ref="30113448"/>
    <nd ref="30113449"/>
    <nd ref="1102508298"/>
    <nd ref="1102508283"/>
    <nd ref="4742262975"/>
    <tag k="highway" v="primary"/>
    <tag k="lanes" v="2"/>
    <tag k="maxspeed" v="30 mph"/>
    <tag k="maxspeed:variable" v="school_zone"/>
    <tag k="name" v="Granton Road"/>
    <tag k="ref" v="A903"/>
    <tag k="sidewalk" v="both"/>
    <tag k="source" v="Bing;survey"/>
    <tag k="surface" v="asphalt"/>
    <tag k="width" v="11"/>
  </way>
  <way id="58460393" version="4" timestamp="2024-11-07T15:44:01Z" changeset="158861288" uid="3432400" user="GinaroZ">
    <nd ref="724711488"/>
    <nd ref="724711490"/>
    <nd ref="724711493"/>
    <nd ref="724711497"/>
    <nd ref="724711488"/>
    <tag k="building" v="yes"/>
    <tag k="man_made" v="pumping_station"/>
    <tag k="name" v="Trinity Pumping Station"/>
    <tag k="pumping_station" v="sewage"/>
  </way>
  <way id="60672248" version="4" timestamp="2021-10-31T15:11:19Z" changeset="113197255" uid="3432400" user="GinaroZ">
    <nd ref="759474081"/>
    <nd ref="759474069"/>
    <nd ref="759474039"/>
    <nd ref="759474046"/>
    <nd ref="759474059"/>
    <nd ref="759474066"/>
    <nd ref="759474037"/>
    <nd ref="759474070"/>
    <nd ref="759474056"/>
    <nd ref="759474074"/>
    <nd ref="759474060"/>
    <nd ref="3682802479"/>
    <nd ref="759474047"/>
    <nd ref="3682807332"/>
    <nd ref="759474081"/>
    <tag k="building" v="detached"/>
    <tag k="name" v="Starbank House"/>
    <tag k="source" v="NLS_OS_Edinburgh_map_1940s;Bing"/>
    <tag k="wikidata" v="Q17811082"/>
  </way>
  <way id="60684457" version="5" timestamp="2022-05-21T23:16:10Z" changeset="121300537" uid="13165294" user="ThatEffingCat">
    <nd ref="759690678"/>
    <nd ref="3533429619"/>
    <nd ref="3533429623"/>
    <nd ref="3533429624"/>
    <nd ref="3533429622"/>
    <nd ref="759691152"/>
    <nd ref="3533429616"/>
    <nd ref="3533429615"/>
    <nd ref="759691353"/>
    <nd ref="3533429612"/>
    <nd ref="3533429609"/>
    <nd ref="3533429608"/>
    <nd ref="3533429603"/>
    <nd ref="3533429602"/>
    <nd ref="3533429611"/>
    <nd ref="3533429610"/>
    <nd ref="3533429600"/>
    <nd ref="3533564474"/>
    <nd ref="3533429599"/>
    <nd ref="3533429604"/>
    <nd ref="759691065"/>
    <nd ref="759690678"/>
    <tag k="building" v="yes"/>
    <tag k="historic" v="yes"/>
    <tag k="name" v="Church House"/>
    <tag k="source" v="NLS_OS_Edinburgh_map_1940s;Bing"/>
    <tag k="wikidata" v="Q56631050"/>
  </way>
  <way id="60684490" version="12" timestamp="2024-02-28T11:06:03Z" changeset="148008477" uid="6816132" user="CjMalone">
    <nd ref="1281696227"/>
    <nd ref="570313194"/>
    <nd ref="3705322405"/>
    <nd ref="759691315"/>
    <nd ref="759690857"/>
    <nd ref="1281696219"/>
    <nd ref="1281696252"/>
    <nd ref="1281696271"/>
    <nd ref="1281696305"/>
    <nd ref="759691142"/>
    <nd ref="1281696198"/>
    <nd ref="1281696249"/>
    <nd ref="1281696312"/>
    <nd ref="1281696279"/>
    <nd ref="1281696230"/>
    <nd ref="1281696227"/>
    <tag k="addr:city" v="Edinburgh"/>
    <tag k="addr:housenumber" v="32"/>
    <tag k="addr:postcode" v="EH5 3ED"/>
    <tag k="addr:street" v="Trinity Crescent"/>
    <tag k="amenity" v="pub"/>
    <tag k="building" v="yes"/>
    <tag k="fhrs:id" v="663245"/>
    <tag k="indoor_seating" v="yes"/>
    <tag k="name" v="Old Chain Pier"/>
    <tag k="opening_hours" v="Mo-Th 12:00-23:00; Fr-Sa 12:00-01:00; Su 12:00-23:00"/>
    <tag k="outdoor_seating" v="yes"/>
    <tag k="phone" v="+44 131 552 4960"/>
    <tag k="source" v="NLS_OS_Edinburgh_map_1940s;Bing;survey"/>
    <tag k="website" v="http://oldchainpier.com/"/>
    <tag k="wheelchair" v="limited"/>
    <tag k="wifi" v="yes"/>
  </way>
  <way id="61008326" version="7" timestamp="2024-11-23T20:53:41Z" changeset="159514051" uid="53626" user="jambamkin">
    <nd ref="763622238"/>
    <nd ref="763622693"/>
    <nd ref="763622283"/>
    <nd ref="763622169"/>
    <nd ref="3676605179"/>
    <nd ref="3676605181"/>
    <nd ref="3676605175"/>
    <nd ref="3676605173"/>
    <nd ref="3676605169"/>
    <nd ref="3676605172"/>
    <nd ref="763622574"/>
    <nd ref="3676605178"/>
    <nd ref="3676605180"/>
    <nd ref="3676605184"/>
    <nd ref="3676605182"/>
    <nd ref="32461288"/>
    <nd ref="3676605189"/>
    <nd ref="3676605187"/>
    <nd ref="3676605147"/>
    <nd ref="763622238"/>
    <tag k="addr:city" v="Edinburgh"/>
    <tag k="addr:housenumber" v="73"/>
    <tag k="addr:street" v="East Trinity Road"/>
    <tag k="amenity" v="doctors"/>
    <tag k="building" v="yes"/>
    <tag k="healthcare" v="doctor"/>
    <tag k="name" v="The Long House Surgery"/>
    <tag k="opening_hours" v="Mo-Fr 08:00-18:00"/>
    <tag k="phone" v="+44 131 552 4919"/>
    <tag k="source" v="Bing;survey"/>
    <tag k="website" v="https://www.longhousesurgery.scot.nhs.uk/"/>
  </way>
  <way id="61008367" version="4" timestamp="2025-02-10T04:43:51Z" changeset="162335673" uid="22372932" user="gingermusketeer">
    <nd ref="4546453470"/>
    <nd ref="7217214202"/>
    <nd ref="763622247"/>
    <nd ref="763622185"/>
    <nd ref="4546453469"/>
    <nd ref="4546453470"/>
    <tag k="addr:city" v="Edinburgh"/>
    <tag k="addr:housenumber" v="15"/>
    <tag k="addr:postcode" v="EH6 4RX"/>
    <tag k="addr:street" v="Craighall Crescent"/>
    <tag k="building" v="house"/>
    <tag k="source" v="Bing"/>
  </way>
  <way id="61008409" version="5" timestamp="2023-10-13T14:07:05Z" changeset="142526017" uid="3500921" user="camlewwri">
    <nd ref="3572172529"/>
    <nd ref="3572172511"/>
    <nd ref="3572172513"/>
    <nd ref="11260131554"/>
    <nd ref="3572172275"/>
    <nd ref="3572172273"/>
    <nd ref="3572172269"/>
    <nd ref="3572172266"/>
    <nd ref="3572172261"/>
    <nd ref="3572172258"/>
    <nd ref="3572172255"/>
    <nd ref="3572172251"/>
    <nd ref="3572172252"/>
    <nd ref="3572172256"/>
    <nd ref="3572172259"/>
    <nd ref="3572172262"/>
    <nd ref="3572172265"/>
    <nd ref="3572172270"/>
    <nd ref="3572172267"/>
    <nd ref="3572172264"/>
    <nd ref="3572172260"/>
    <nd ref="3572172249"/>
    <nd ref="3572172246"/>
    <nd ref="3572172244"/>
    <nd ref="3572172242"/>
    <nd ref="3572172240"/>
    <nd ref="3572172241"/>
    <nd ref="3572172243"/>
    <nd ref="3572172245"/>
    <nd ref="3572172247"/>
    <nd ref="3572172253"/>
    <nd ref="3572172263"/>
    <nd ref="3572172254"/>
    <nd ref="3572172523"/>
    <nd ref="3572172527"/>
    <nd ref="3572172529"/>
    <tag k="addr:housenumber" v="25,27"/>
    <tag k="addr:street" v="Starbank Road"/>
    <tag k="building" v="apartments"/>
    <tag k="source" v="Bing"/>
  </way>
  <way id="61008411" version="4" timestamp="2025-02-10T04:43:51Z" changeset="162335673" uid="22372932" user="gingermusketeer">
    <nd ref="4546453717"/>
    <nd ref="763622493"/>
    <nd ref="763622766"/>
    <nd ref="7217214203"/>
    <nd ref="4546453716"/>
    <nd ref="4546453717"/>
    <tag k="addr:city" v="Edinburgh"/>
    <tag k="addr:housenumber" v="13"/>
    <tag k="addr:postcode" v="EH6 4RX"/>
    <tag k="addr:street" v="Craighall Crescent"/>
    <tag k="building" v="house"/>
    <tag k="source" v="Bing"/>
  </way>
  <way id="61112763" version="8" timestamp="2023-08-23T14:11:12Z" changeset="140276834" uid="13459" user="scvalex">
    <nd ref="615611"/>
    <nd ref="764566808"/>
    <tag k="highway" v="residential"/>
    <tag k="maxspeed" v="20 mph"/>
    <tag k="name" v="Trinity Crescent"/>
    <tag k="source" v="Bing;survey"/>
    <tag k="surface" v="asphalt"/>
  </way>
  <way id="61757214" version="6" timestamp="2022-11-04T14:58:35Z" changeset="128488326" uid="13459" user="scvalex">
    <nd ref="769442188"/>
    <nd ref="769440527"/>
    <nd ref="3829681282"/>
    <nd ref="769436210"/>
    <nd ref="769435262"/>
    <nd ref="3829681280"/>
    <nd ref="769436447"/>
    <nd ref="769441723"/>
    <nd ref="769442188"/>
    <tag k="addr:housenumber" v="101a,101b"/>
    <tag k="addr:street" v="Lower Granton Road"/>
    <tag k="building" v="apartments"/>
    <tag k="source" v="Bing"/>
  </way>
  <way id="61757373" version="6" timestamp="2022-11-04T14:59:40Z" changeset="128488326" uid="13459" user="scvalex">
    <nd ref="3574950742"/>
    <nd ref="769437220"/>
    <nd ref="769434997"/>
    <nd ref="769442220"/>
    <nd ref="3574950742"/>
    <tag k="addr:housenumber" v="90"/>
    <tag k="addr:street" v="Lower Granton Road"/>
    <tag k="building" v="detached"/>
    <tag k="source" v="Bing"/>
  </way>
  <way id="61787173" version="6" timestamp="2020-12-27T14:56:21Z" changeset="96486642" uid="53626" user="jambamkin">
    <nd ref="2271120258"/>
    <nd ref="4831036673"/>
    <nd ref="769860342"/>
    <nd ref="4831036671"/>
    <nd ref="4831036670"/>
    <nd ref="4831036669"/>
    <nd ref="4831036668"/>
    <nd ref="4831036672"/>
    <nd ref="4831036667"/>
    <nd ref="4831036666"/>
    <nd ref="3484360698"/>
    <nd ref="769860344"/>
    <tag k="highway" v="residential"/>
    <tag k="maxspeed" v="20 mph"/>
    <tag k="name" v="South Park"/>
    <tag k="source" v="Bing;survey"/>
    <tag k="surface" v="asphalt"/>
  </way>
  <way id="62198817" version="8" timestamp="2023-09-24T11:33:35Z" changeset="141677227" uid="7400464" user="Moohan">
    <nd ref="31348172"/>
    <nd ref="3536375025"/>
    <nd ref="3536375026"/>
    <nd ref="3536375027"/>
    <nd ref="31261126"/>
    <tag k="cycleway:both" v="no"/>
    <tag k="highway" v="residential"/>
    <tag k="lanes" v="2"/>
    <tag k="maxspeed" v="20 mph"/>
    <tag k="name" v="East Trinity Road"/>
    <tag k="source" v="Bing;survey"/>
    <tag k="traffic_calming" v="cushion"/>
  </way>
  <way id="62198818" version="6" timestamp="2016-12-13T10:33:34Z" changeset="44368312" uid="2234934" user="sophiemccallum">
    <nd ref="763622245"/>
    <nd ref="4552088546"/>
    <nd ref="775865056"/>
    <tag k="highway" v="residential"/>
    <tag k="maxspeed" v="20 mph"/>
    <tag k="name" v="Beresford Terrace"/>
    <tag k="source" v="Bing;survey"/>
    <tag k="source:name" v="survey"/>
  </way>
  <way id="62198819" version="5" timestamp="2016-06-27T21:12:38Z" changeset="40330963" uid="91225" user="tms13">
    <nd ref="775865053"/>
    <nd ref="797643543"/>
    <nd ref="775865051"/>
    <nd ref="775865055"/>
    <tag k="highway" v="residential"/>
    <tag k="maxspeed" v="20 mph"/>
    <tag k="name" v="Wardie House Lane"/>
    <tag k="source" v="Bing;survey"/>
  </way>
  <way id="62335069" version="14" timestamp="2023-09-24T11:35:45Z" changeset="141678295" uid="7400464" user="Moohan">
    <nd ref="1069918735"/>
    <nd ref="778778350"/>
    <nd ref="615619"/>
    <nd ref="1281696276"/>
    <nd ref="1281696197"/>
    <nd ref="1281696266"/>
    <tag k="cycleway:both" v="no"/>
    <tag k="highway" v="residential"/>
    <tag k="lanes" v="2"/>
    <tag k="maxspeed" v="20 mph"/>
    <tag k="name" v="Trinity Road"/>
    <tag k="sidewalk" v="both"/>
    <tag k="source" v="Bing;survey"/>
    <tag k="surface" v="sett"/>
  </way>
  <way id="62335074" version="7" timestamp="2022-09-20T14:23:30Z" changeset="126425740" uid="3432400" user="GinaroZ">
    <nd ref="778778363"/>
    <nd ref="28137584"/>
    <tag k="highway" v="residential"/>
    <tag k="maxspeed" v="20 mph"/>
    <tag k="name" v="York Road"/>
    <tag k="source" v="Bing;survey"/>
    <tag k="surface" v="asphalt"/>
  </way>
  <way id="62335077" version="9" timestamp="2021-06-28T10:36:24Z" changeset="107080284" uid="13479299" user="Peter JB King">
    <nd ref="28137584"/>
    <nd ref="3484674054"/>
    <nd ref="33654851"/>
    <nd ref="3484673704"/>
    <nd ref="4027854133"/>
    <nd ref="33654850"/>
    <tag k="highway" v="residential"/>
    <tag k="maxspeed" v="20 mph"/>
    <tag k="name" v="York Road"/>
    <tag k="source" v="Bing;survey"/>
    <tag k="surface" v="asphalt"/>
  </way>
  <way id="65229937" version="13" timestamp="2023-09-24T11:32:55Z" changeset="141678295" uid="7400464" user="Moohan">
    <nd ref="28144985"/>
    <nd ref="3490830194"/>
    <nd ref="1265746999"/>
    <nd ref="623602805"/>
    <nd ref="3491331200"/>
    <nd ref="1264417113"/>
    <nd ref="28144912"/>
    <nd ref="1270588696"/>
    <nd ref="3490821792"/>
    <nd ref="28144916"/>
    <tag k="cycleway:both" v="no"/>
    <tag k="highway" v="residential"/>
    <tag k="lanes" v="2"/>
    <tag k="lit" v="yes"/>
    <tag k="maxspeed" v="20 mph"/>
    <tag k="name" v="Cargil Terrace"/>
    <tag k="sidewalk" v="both"/>
    <tag k="source" v="Bing;survey"/>
    <tag k="surface" v="asphalt"/>
    <tag k="traffic_calming" v="cushion"/>
  </way>
  <way id="65229951" version="3" timestamp="2019-02-27T14:24:31Z" changeset="67619714" uid="3432400" user="GinaroZ">
    <nd ref="797643626"/>
    <nd ref="28144884"/>
    <nd ref="797643629"/>
    <tag k="highway" v="residential"/>
    <tag k="maxspeed" v="20 mph"/>
    <tag k="name" v="York Road"/>
    <tag k="source" v="Bing;survey"/>
  </way>
  <way id="71261382" version="4" timestamp="2019-02-27T14:24:31Z" changeset="67619714" uid="3432400" user="GinaroZ">
    <nd ref="31518315"/>
    <nd ref="3683770583"/>
    <nd ref="4517236668"/>
    <nd ref="848186130"/>
    <tag k="highway" v="residential"/>
    <tag k="maxspeed" v="20 mph"/>
    <tag k="name" v="West Cherrybank"/>
  </way>
  <way id="71837973" version="11" timestamp="2022-06-26T09:47:26Z" changeset="122861431" uid="11965237" user="markbeech">
    <nd ref="31261121"/>
    <nd ref="31261120"/>
    <nd ref="32461222"/>
    <nd ref="1283271311"/>
    <nd ref="3446948078"/>
    <nd ref="3447037933"/>
    <nd ref="31261118"/>
    <tag k="highway" v="residential"/>
    <tag k="lanes" v="2"/>
    <tag k="lit" v="yes"/>
    <tag k="maxspeed" v="20 mph"/>
    <tag k="name" v="Clark Road"/>
    <tag k="sidewalk" v="both"/>
    <tag k="source" v="Bing;survey"/>
    <tag k="surface" v="asphalt"/>
    <tag k="width" v="10"/>
  </way>
  <way id="90725089" version="7" timestamp="2019-04-22T01:04:30Z" changeset="69437580" uid="2922304" user="smeÃ²rach">
    <nd ref="1052864152"/>
    <nd ref="1052864303"/>
    <nd ref="4516918909"/>
    <nd ref="6419887636"/>
    <nd ref="929117937"/>
    <nd ref="929117930"/>
    <nd ref="1052864243"/>
    <nd ref="4831036741"/>
    <nd ref="1052864152"/>
    <tag k="addr:city" v="Edinburgh"/>
    <tag k="addr:country" v="GB"/>
    <tag k="addr:housenumber" v="85"/>
    <tag k="addr:postcode" v="EH6 4RR"/>
    <tag k="addr:street" v="Craighall Road"/>
    <tag k="building" v="yes"/>
    <tag k="email" v="info@newhavenstation.com"/>
    <tag k="name" v="Newhaven Business Station"/>
    <tag k="office" v="yes"/>
    <tag k="phone" v="+44 131 554 4257"/>
    <tag k="source" v="survey;website"/>
    <tag k="source:outline" v="bing"/>
    <tag k="website" v="http://www.newhavenstation.co.uk/"/>
  </way>
  <way id="90725093" version="4" timestamp="2023-10-13T13:30:26Z" changeset="142524550" uid="3500921" user="camlewwri">
    <nd ref="1052864161"/>
    <nd ref="7217178866"/>
    <nd ref="1317767786"/>
    <nd ref="1052864352"/>
    <nd ref="1052864355"/>
    <nd ref="929117934"/>
    <nd ref="1052864257"/>
    <nd ref="1052864275"/>
    <nd ref="1052864236"/>
    <nd ref="1052864295"/>
    <nd ref="1052864161"/>
    <tag k="addr:city" v="Edinburgh"/>
    <tag k="addr:housenumber" v="83"/>
    <tag k="addr:street" v="Craighall Road"/>
    <tag k="brand" v="Sainsbury's Local"/>
    <tag k="brand:wikidata" v="Q13218434"/>
    <tag k="brand:wikipedia" v="en:Sainsbury's Local"/>
    <tag k="building" v="yes"/>
    <tag k="name" v="Sainsbury's Local"/>
    <tag k="phone" v="+44 131 456 8400"/>
    <tag k="shop" v="convenience"/>
    <tag k="source" v="survey"/>
    <tag k="website" v="https://stores.sainsburys.co.uk/6495/edinburgh-craighall-road-local"/>
  </way>
  <way id="90725095" version="3" timestamp="2017-05-02T14:56:45Z" changeset="48338362" uid="2234934" user="sophiemccallum">
    <nd ref="1052864320"/>
    <nd ref="1052864178"/>
    <nd ref="4831036743"/>
    <nd ref="1052864185"/>
    <nd ref="1052864269"/>
    <nd ref="1052864320"/>
    <tag k="building" v="yes"/>
    <tag k="name" v="7th Edinburgh North East Leith Sea Scouts"/>
    <tag k="source" v="Bing"/>
  </way>
  <way id="90726057" version="5" timestamp="2024-02-12T19:08:46Z" changeset="147381124" uid="3432400" user="GinaroZ">
    <nd ref="1052870450"/>
    <nd ref="1052870452"/>
    <nd ref="11616119605"/>
    <nd ref="11616119604"/>
    <nd ref="11616119603"/>
    <nd ref="9631593609"/>
    <nd ref="1052870477"/>
    <nd ref="1052870447"/>
    <nd ref="1052870450"/>
    <tag k="building" v="yes"/>
    <tag k="building:levels" v="1"/>
    <tag k="name" v="Bangholm Outdoor Centre"/>
    <tag k="source" v="esri"/>
  </way>
  <way id="91866941" version="16" timestamp="2022-05-21T23:15:20Z" changeset="121300586" uid="13165294" user="ThatEffingCat">
    <nd ref="1067562423"/>
    <nd ref="637242"/>
    <nd ref="637243"/>
    <nd ref="4742262985"/>
    <nd ref="637245"/>
    <nd ref="637246"/>
    <nd ref="637247"/>
    <nd ref="3490830300"/>
    <nd ref="637249"/>
    <nd ref="637250"/>
    <nd ref="3535906208"/>
    <nd ref="3490830297"/>
    <nd ref="3535906207"/>
    <nd ref="637251"/>
    <nd ref="3535906202"/>
    <nd ref="3490830291"/>
    <nd ref="637253"/>
    <nd ref="3490830289"/>
    <nd ref="637255"/>
    <nd ref="3490830284"/>
    <nd ref="3490830283"/>
    <nd ref="637257"/>
    <nd ref="3535904981"/>
    <nd ref="3490830273"/>
    <nd ref="637258"/>
    <nd ref="1280769575"/>
    <nd ref="637259"/>
    <nd ref="30082254"/>
    <tag k="cycleway:both" v="no"/>
    <tag k="highway" v="primary"/>
    <tag k="lanes" v="2"/>
    <tag k="lit" v="yes"/>
    <tag k="maxspeed" v="30 mph"/>
    <tag k="name" v="Granton Road"/>
    <tag k="ref" v="A903"/>
    <tag k="sidewalk" v="both"/>
    <tag k="sidewalk:both:surface" v="asphalt"/>
    <tag k="smoothness" v="good"/>
    <tag k="source" v="Bing;survey"/>
    <tag k="surface" v="asphalt"/>
  </way>
  <way id="91866966" version="27" timestamp="2024-02-25T17:21:32Z" changeset="147900867" uid="14047157" user="osmuser63783">
    <nd ref="615635"/>
    <nd ref="7258254364"/>
    <nd ref="3065628048"/>
    <nd ref="3634530613"/>
    <nd ref="3065628044"/>
    <nd ref="3065628039"/>
    <nd ref="3065628026"/>
    <nd ref="6433732307"/>
    <nd ref="6433732302"/>
    <nd ref="2954425878"/>
    <nd ref="1608847291"/>
    <nd ref="2954425877"/>
    <nd ref="615631"/>
    <nd ref="2954425882"/>
    <nd ref="2954425880"/>
    <nd ref="603842588"/>
    <nd ref="3535906421"/>
    <nd ref="615630"/>
    <nd ref="3535906418"/>
    <nd ref="2954425879"/>
    <nd ref="3535906420"/>
    <nd ref="1281696240"/>
    <nd ref="3535906423"/>
    <nd ref="3535906425"/>
    <nd ref="33164820"/>
    <nd ref="3490830314"/>
    <nd ref="2954425881"/>
    <nd ref="3490830321"/>
    <nd ref="33164821"/>
    <nd ref="3535906436"/>
    <nd ref="479800850"/>
    <nd ref="3829681281"/>
    <nd ref="3490830340"/>
    <nd ref="3829681283"/>
    <nd ref="3490830351"/>
    <nd ref="3490830358"/>
    <nd ref="1281696245"/>
    <tag k="highway" v="primary"/>
    <tag k="lanes" v="2"/>
    <tag k="lit" v="yes"/>
    <tag k="maxspeed" v="20 mph"/>
    <tag k="name" v="Lower Granton Road"/>
    <tag k="ref" v="A901"/>
    <tag k="sidewalk" v="both"/>
    <tag k="smoothness" v="excellent"/>
    <tag k="source" v="survey"/>
    <tag k="surface" v="asphalt"/>
  </way>
  <way id="92163024" version="2" timestamp="2017-02-13T11:18:33Z" changeset="46043965" uid="2234934" user="sophiemccallum">
    <nd ref="1069964097"/>
    <nd ref="1069964217"/>
    <nd ref="1069963954"/>
    <nd ref="1069964037"/>
    <nd ref="1069964097"/>
    <tag k="building" v="club_house"/>
    <tag k="name" v="Summerside Bowling Club House"/>
    <tag k="source" v="Bing"/>
  </way>
  <way id="94154541" version="12" timestamp="2024-02-22T22:46:30Z" changeset="147792103" uid="14047157" user="osmuser63783">
    <nd ref="638313"/>
    <nd ref="638314"/>
    <tag k="highway" v="primary"/>
    <tag k="lanes" v="2"/>
    <tag k="lit" v="yes"/>
    <tag k="maxspeed" v="30 mph"/>
    <tag k="name" v="Ferry Road"/>
    <tag k="name:left" v="Bangholm Villas"/>
    <tag k="ref" v="A902"/>
    <tag k="sidewalk" v="both"/>
    <tag k="source" v="Bing;survey"/>
    <tag k="surface" v="asphalt"/>
    <tag k="wikidata" v="Q5445503"/>
  </way>
  <way id="94154548" version="14" timestamp="2024-08-22T20:24:21Z" changeset="155625297" uid="21762849" user="jSeke">
    <nd ref="638314"/>
    <nd ref="31273047"/>
    <nd ref="31273048"/>
    <nd ref="32461239"/>
    <nd ref="11259868584"/>
    <nd ref="4533944279"/>
    <nd ref="638316"/>
    <tag k="highway" v="primary"/>
    <tag k="lanes" v="2"/>
    <tag k="lit" v="yes"/>
    <tag k="maxspeed" v="30 mph"/>
    <tag k="name" v="Ferry Road"/>
    <tag k="name:gd" v="Rathad a' Phuirt"/>
    <tag k="ref" v="A902"/>
    <tag k="sidewalk" v="both"/>
    <tag k="source" v="Bing;survey"/>
    <tag k="surface" v="asphalt"/>
    <tag k="wikidata" v="Q5445503"/>
  </way>
  <way id="97117851" version="5" timestamp="2015-05-27T15:59:25Z" changeset="31507049" uid="1939732" user="eisa">
    <nd ref="1125068490"/>
    <nd ref="3533220145"/>
    <nd ref="3491331314"/>
    <nd ref="28144976"/>
    <tag k="highway" v="residential"/>
    <tag k="lanes" v="2"/>
    <tag k="maxspeed" v="20 mph"/>
    <tag k="name" v="Lennox Row"/>
    <tag k="source" v="Bing;survey"/>
  </way>
  <way id="97117853" version="8" timestamp="2021-06-28T10:36:24Z" changeset="107080284" uid="13479299" user="Peter JB King">
    <nd ref="28144976"/>
    <nd ref="3531006790"/>
    <nd ref="28144975"/>
    <nd ref="3491331305"/>
    <nd ref="28144974"/>
    <nd ref="3490830211"/>
    <nd ref="31348187"/>
    <tag k="highway" v="residential"/>
    <tag k="lanes" v="2"/>
    <tag k="maxspeed" v="20 mph"/>
    <tag k="name" v="Stirling Road"/>
    <tag k="source" v="Bing;survey"/>
    <tag k="surface" v="asphalt"/>
    <tag k="width" v="11"/>
  </way>
  <way id="97117854" version="15" timestamp="2024-08-22T20:24:21Z" changeset="155625297" uid="21762849" user="jSeke">
    <nd ref="31261118"/>
    <nd ref="638311"/>
    <nd ref="4742309623"/>
    <nd ref="638312"/>
    <nd ref="1341376695"/>
    <nd ref="321765792"/>
    <tag k="highway" v="primary"/>
    <tag k="lanes" v="2"/>
    <tag k="lit" v="yes"/>
    <tag k="maxspeed" v="30 mph"/>
    <tag k="name" v="Ferry Road"/>
    <tag k="name:gd" v="Rathad a' Phuirt"/>
    <tag k="ref" v="A902"/>
    <tag k="sidewalk" v="both"/>
    <tag k="source" v="Bing;survey"/>
    <tag k="surface" v="asphalt"/>
    <tag k="wikidata" v="Q5445503"/>
  </way>
  <way id="97117855" version="6" timestamp="2016-02-26T12:27:15Z" changeset="37458694" uid="1798469" user="eric_">
    <nd ref="28144976"/>
    <nd ref="3491331319"/>
    <nd ref="3491331324"/>
    <nd ref="3491331327"/>
    <nd ref="31348158"/>
    <nd ref="3531007515"/>
    <nd ref="3531007592"/>
    <nd ref="4027854143"/>
    <nd ref="4027854147"/>
    <nd ref="31348159"/>
    <tag k="highway" v="residential"/>
    <tag k="lanes" v="2"/>
    <tag k="maxspeed" v="20 mph"/>
    <tag k="name" v="Stirling Road"/>
    <tag k="source" v="Bing;survey"/>
  </way>
  <way id="97117858" version="5" timestamp="2016-02-26T12:27:14Z" changeset="37458694" uid="1798469" user="eric_">
    <nd ref="31348180"/>
    <nd ref="3533220189"/>
    <nd ref="4027854142"/>
    <nd ref="4027854146"/>
    <nd ref="31348184"/>
    <tag k="highway" v="residential"/>
    <tag k="lanes" v="2"/>
    <tag k="maxspeed" v="20 mph"/>
    <tag k="name" v="Lomond Road"/>
    <tag k="source" v="Bing;survey"/>
  </way>
  <way id="97117860" version="16" timestamp="2023-09-24T11:33:44Z" changeset="141677227" uid="7400464" user="Moohan">
    <nd ref="31261126"/>
    <nd ref="28144898"/>
    <nd ref="3536375028"/>
    <nd ref="3536375029"/>
    <nd ref="1277734425"/>
    <nd ref="28144897"/>
    <nd ref="610475623"/>
    <nd ref="3536375037"/>
    <nd ref="3536375043"/>
    <nd ref="610475624"/>
    <nd ref="28144891"/>
    <nd ref="31469663"/>
    <nd ref="3536375179"/>
    <nd ref="763622245"/>
    <nd ref="33654850"/>
    <nd ref="763622064"/>
    <nd ref="3484673703"/>
    <nd ref="31469667"/>
    <nd ref="3484360604"/>
    <nd ref="31469668"/>
    <nd ref="31469669"/>
    <nd ref="3484673719"/>
    <nd ref="4546453426"/>
    <nd ref="3484360620"/>
    <nd ref="31469675"/>
    <nd ref="3484360623"/>
    <nd ref="31469670"/>
    <nd ref="3484360629"/>
    <nd ref="3484360630"/>
    <nd ref="31469671"/>
    <nd ref="3484360634"/>
    <nd ref="3484360635"/>
    <nd ref="3484360638"/>
    <nd ref="31469672"/>
    <nd ref="31469673"/>
    <nd ref="4033185257"/>
    <tag k="cycleway:both" v="no"/>
    <tag k="highway" v="residential"/>
    <tag k="lanes" v="2"/>
    <tag k="lit" v="yes"/>
    <tag k="maxspeed" v="20 mph"/>
    <tag k="name" v="East Trinity Road"/>
    <tag k="sidewalk" v="both"/>
    <tag k="source" v="Bing;survey"/>
    <tag k="surface" v="asphalt"/>
  </way>
  <way id="97117861" version="6" timestamp="2021-06-28T10:36:24Z" changeset="107080284" uid="13479299" user="Peter JB King">
    <nd ref="31348187"/>
    <nd ref="3490830209"/>
    <nd ref="3490830210"/>
    <nd ref="3490830213"/>
    <nd ref="31348178"/>
    <tag k="highway" v="residential"/>
    <tag k="lanes" v="2"/>
    <tag k="maxspeed" v="20 mph"/>
    <tag k="name" v="Zetland Place"/>
    <tag k="source" v="Bing;survey"/>
    <tag k="surface" v="asphalt"/>
    <tag k="width" v="8"/>
  </way>
  <way id="97117864" version="5" timestamp="2016-02-26T12:27:13Z" changeset="37458694" uid="1798469" user="eric_">
    <nd ref="31348180"/>
    <nd ref="4027854136"/>
    <nd ref="3533220146"/>
    <nd ref="1125068490"/>
    <tag k="highway" v="residential"/>
    <tag k="lanes" v="2"/>
    <tag k="maxspeed" v="20 mph"/>
    <tag k="name" v="Lennox Row"/>
    <tag k="source" v="Bing;survey"/>
  </way>
  <way id="97117867" version="9" timestamp="2023-09-24T11:35:09Z" changeset="141677227" uid="7400464" user="Moohan">
    <nd ref="31348180"/>
    <nd ref="4027854137"/>
    <nd ref="3533220150"/>
    <nd ref="3490830253"/>
    <nd ref="4027854138"/>
    <nd ref="28144982"/>
    <nd ref="4027854139"/>
    <nd ref="3490830256"/>
    <nd ref="3533220151"/>
    <nd ref="28137589"/>
    <nd ref="3533220167"/>
    <nd ref="28137587"/>
    <tag k="cycleway:both" v="no"/>
    <tag k="highway" v="residential"/>
    <tag k="lanes" v="2"/>
    <tag k="maxspeed" v="20 mph"/>
    <tag k="name" v="Lennox Row"/>
    <tag k="sidewalk" v="both"/>
    <tag k="source" v="Bing;survey"/>
    <tag k="surface" v="asphalt"/>
  </way>
  <way id="110828987" version="3" timestamp="2024-03-07T15:27:52Z" changeset="148347787" uid="161886" user="David Fiddes">
    <nd ref="3519276711"/>
    <nd ref="1264416889"/>
    <nd ref="1264417078"/>
    <nd ref="3519276719"/>
    <nd ref="3519276711"/>
    <tag k="building" v="service"/>
    <tag k="name" v="Cargil Terrace 4A"/>
    <tag k="operator" v="SP Energy Networks"/>
    <tag k="operator:wikidata" v="Q116022116"/>
    <tag k="power" v="substation"/>
    <tag k="source" v="NLS_OS_Edinburgh_map_1940s;Bing;survey"/>
  </way>
  <way id="111340709" version="5" timestamp="2019-03-27T07:10:04Z" changeset="68575042" uid="9451067" user="b-jazz-bot">
    <nd ref="1268707801"/>
    <nd ref="4017111932"/>
    <nd ref="1268707573"/>
    <nd ref="3680834856"/>
    <nd ref="1268708208"/>
    <nd ref="1268708235"/>
    <nd ref="1268707933"/>
    <nd ref="1268707965"/>
    <nd ref="1268708191"/>
    <nd ref="1268707846"/>
    <nd ref="1268708048"/>
    <nd ref="3491331295"/>
    <nd ref="1268708122"/>
    <nd ref="1268707801"/>
    <tag k="building" v="yes"/>
    <tag k="name" v="Broughton Rugby Club"/>
    <tag k="source" v="survey"/>
    <tag k="sport" v="rugby"/>
    <tag k="website" v="https://www.pitchero.com/clubs/broughtonfp/"/>
  </way>
  <way id="111340820" version="4" timestamp="2015-08-04T16:08:06Z" changeset="33102782" uid="2234934" user="sophiemccallum">
    <nd ref="1268708141"/>
    <nd ref="1268707922"/>
    <nd ref="1268708229"/>
    <nd ref="1268707753"/>
    <nd ref="1268708094"/>
    <nd ref="1268707872"/>
    <nd ref="1268708167"/>
    <nd ref="1268707667"/>
    <nd ref="3680834859"/>
    <nd ref="1268708183"/>
    <nd ref="1268707829"/>
    <nd ref="1268708141"/>
    <tag k="building" v="yes"/>
    <tag k="name" v="Wardie Residents Club"/>
    <tag k="source" v="Bing"/>
  </way>
  <way id="111546578" version="2" timestamp="2015-05-27T15:59:28Z" changeset="31507049" uid="1939732" user="eisa">
    <nd ref="1270588715"/>
    <nd ref="1270588731"/>
    <nd ref="1270588682"/>
    <tag k="highway" v="residential"/>
    <tag k="maxspeed" v="20 mph"/>
    <tag k="name" v="Rosebank Gardens"/>
    <tag k="source" v="Bing;survey"/>
  </way>
  <way id="113062642" version="5" timestamp="2024-01-13T14:33:35Z" changeset="146216399" uid="7400464" user="Moohan">
    <nd ref="59636979"/>
    <nd ref="4550785077"/>
    <nd ref="10039652099"/>
    <nd ref="4550785074"/>
    <nd ref="4550785054"/>
    <nd ref="59636964"/>
    <tag k="highway" v="residential"/>
    <tag k="maxspeed" v="20 mph"/>
    <tag k="name" v="Boswall Road"/>
    <tag k="source" v="Bing;survey"/>
    <tag k="surface" v="asphalt"/>
  </way>
  <way id="116988269" version="4" timestamp="2025-02-10T04:43:51Z" changeset="162335673" uid="22372932" user="gingermusketeer">
    <nd ref="4546453749"/>
    <nd ref="4546453744"/>
    <nd ref="1317767604"/>
    <nd ref="4546453741"/>
    <nd ref="1317767848"/>
    <nd ref="7217214205"/>
    <nd ref="4546453748"/>
    <nd ref="4546453749"/>
    <tag k="addr:city" v="Edinburgh"/>
    <tag k="addr:housenumber" v="9"/>
    <tag k="addr:postcode" v="EH6 4RX"/>
    <tag k="addr:street" v="Craighall Crescent"/>
    <tag k="building" v="house"/>
    <tag k="source" v="Bing"/>
  </way>
  <way id="118104693" version="4" timestamp="2024-02-12T17:01:58Z" changeset="147376199" uid="161886" user="David Fiddes">
    <nd ref="1328961595"/>
    <nd ref="3502958349"/>
    <nd ref="3502958340"/>
    <nd ref="3502958333"/>
    <nd ref="3502958326"/>
    <nd ref="3502958318"/>
    <nd ref="3502958314"/>
    <nd ref="3502958309"/>
    <nd ref="3502958306"/>
    <nd ref="3502958304"/>
    <nd ref="1328961395"/>
    <nd ref="1328961383"/>
    <nd ref="1328961447"/>
    <nd ref="1328961517"/>
    <nd ref="1328961592"/>
    <nd ref="1328961595"/>
    <tag k="addr:city" v="Edinburgh"/>
    <tag k="addr:housenumber" v="9"/>
    <tag k="addr:postcode" v="EH5 3QJ"/>
    <tag k="addr:street" v="Granton Road"/>
    <tag k="building" v="yes"/>
    <tag k="name" v="Bold Autos"/>
    <tag k="phone" v="+44 131 5381381"/>
    <tag k="service:vehicle:car_repair" v="yes"/>
    <tag k="service:vehicle:mot_test_station" v="yes"/>
    <tag k="service:vehicle:servicing" v="yes"/>
    <tag k="shop" v="car_repair"/>
    <tag k="source" v="Bing;survey"/>
  </way>
  <way id="119932629" version="5" timestamp="2023-09-11T20:57:06Z" changeset="141133501" uid="3999" user="BarryMyles">
    <nd ref="1345942736"/>
    <nd ref="1345942752"/>
    <nd ref="1345942660"/>
    <nd ref="1345942653"/>
    <nd ref="1345942651"/>
    <nd ref="1345942625"/>
    <nd ref="3682748726"/>
    <nd ref="1345942601"/>
    <nd ref="1345942636"/>
    <nd ref="1345942631"/>
    <nd ref="1345942642"/>
    <nd ref="1345942725"/>
    <nd ref="1345942723"/>
    <nd ref="1345942727"/>
    <nd ref="1345942729"/>
    <nd ref="3550085091"/>
    <nd ref="1345942736"/>
    <tag k="addr:city" v="Edinburgh"/>
    <tag k="addr:housenumber" v="31"/>
    <tag k="addr:postcode" v="EH5 3PE"/>
    <tag k="addr:street" v="Denham Green Avenue"/>
    <tag k="building" v="yes"/>
    <tag k="name" v="Granton Telephone Exchange"/>
    <tag k="operator" v="Openreach"/>
    <tag k="operator:wikidata" v="Q7096543"/>
    <tag k="ref" v="ESGRA"/>
    <tag k="source" v="NLS_OS_Edinburgh_map_1940s;Bing"/>
    <tag k="telecom" v="exchange"/>
  </way>
  <way id="143786771" version="3" timestamp="2017-03-19T00:02:08Z" changeset="46969394" uid="33764" user="Rostranimin">
    <nd ref="1573470544"/>
    <nd ref="3673830075"/>
    <nd ref="1573470550"/>
    <nd ref="3673830076"/>
    <nd ref="3673830078"/>
    <nd ref="3673830077"/>
    <nd ref="1573470569"/>
    <nd ref="1573470455"/>
    <tag k="highway" v="residential"/>
    <tag k="maxspeed" v="30 mph"/>
    <tag k="name" v="Bangholm Grove"/>
    <tag k="source" v="Bing;survey"/>
  </way>
  <way id="143786772" version="6" timestamp="2018-06-11T09:56:33Z" changeset="59735081" uid="8401375" user="anonBHuaMxLWPaeQ">
    <nd ref="1573470544"/>
    <nd ref="3673830074"/>
    <nd ref="1573470532"/>
    <nd ref="1573470481"/>
    <nd ref="1573470076"/>
    <nd ref="4038728808"/>
    <nd ref="3447037936"/>
    <nd ref="3447037935"/>
    <nd ref="638313"/>
    <tag k="highway" v="residential"/>
    <tag k="maxspeed" v="30 mph"/>
    <tag k="name" v="Bangholm Loan"/>
    <tag k="source" v="Bing;survey"/>
    <tag k="surface" v="asphalt"/>
  </way>
  <way id="143786773" version="7" timestamp="2023-10-13T11:27:13Z" changeset="142519671" uid="3500921" user="camlewwri">
    <nd ref="1573470637"/>
    <nd ref="1573470612"/>
    <nd ref="1573470455"/>
    <nd ref="1573470129"/>
    <nd ref="3447037941"/>
    <nd ref="4038728813"/>
    <nd ref="1573470093"/>
    <nd ref="11259868589"/>
    <nd ref="4035234514"/>
    <nd ref="638314"/>
    <tag k="highway" v="residential"/>
    <tag k="maxspeed" v="30 mph"/>
    <tag k="name" v="Bangholm View"/>
    <tag k="surface" v="asphalt"/>
  </way>
  <way id="143786774" version="3" timestamp="2023-12-29T17:34:53Z" changeset="145671327" uid="14047157" user="osmuser63783">
    <nd ref="1573470679"/>
    <nd ref="1573470675"/>
    <nd ref="1573470676"/>
    <nd ref="1573470668"/>
    <nd ref="1573470666"/>
    <nd ref="1573470661"/>
    <nd ref="1573470654"/>
    <nd ref="1573470599"/>
    <nd ref="1573470597"/>
    <nd ref="11259868579"/>
    <nd ref="1573470558"/>
    <nd ref="1573470551"/>
    <nd ref="1573470564"/>
    <nd ref="1573470581"/>
    <nd ref="1573470573"/>
    <nd ref="1573470622"/>
    <nd ref="1573470634"/>
    <nd ref="1573470651"/>
    <nd ref="1573470640"/>
    <nd ref="1573470670"/>
    <nd ref="1573470671"/>
    <nd ref="1573470682"/>
    <nd ref="1573470687"/>
    <nd ref="1573470672"/>
    <nd ref="1573470679"/>
    <tag k="amenity" v="place_of_worship"/>
    <tag k="building" v="yes"/>
    <tag k="denomination" v="catholic"/>
    <tag k="name" v="Holy Cross RC Church"/>
    <tag k="religion" v="christian"/>
    <tag k="source" v="bing"/>
    <tag k="wikidata" v="Q114710477"/>
  </way>
  <way id="143786775" version="5" timestamp="2023-11-08T07:48:05Z" changeset="143767162" uid="9451067" user="b-jazz-bot">
    <nd ref="1573470060"/>
    <nd ref="1573470043"/>
    <nd ref="1573470044"/>
    <nd ref="1573470041"/>
    <nd ref="1573470037"/>
    <nd ref="1573470036"/>
    <nd ref="1573470024"/>
    <nd ref="1573470021"/>
    <nd ref="1573470022"/>
    <nd ref="1573470019"/>
    <nd ref="1573470018"/>
    <nd ref="1573470015"/>
    <nd ref="1573470048"/>
    <nd ref="1573470054"/>
    <nd ref="1573470052"/>
    <nd ref="1573470057"/>
    <nd ref="1573470058"/>
    <nd ref="1573470060"/>
    <tag k="addr:city" v="Edinburgh"/>
    <tag k="addr:housenumber" v="21-25"/>
    <tag k="addr:street" v="Bangholm Loan"/>
    <tag k="amenity" v="doctors"/>
    <tag k="building" v="yes"/>
    <tag k="healthcare" v="doctor"/>
    <tag k="name" v="Bangholm Medical Centre"/>
    <tag k="opening_hours" v="Mo-Fr 08:00-18:00"/>
    <tag k="phone" v="+44 131 552 7676"/>
    <tag k="source" v="Bing;survey"/>
    <tag k="website" v="https://www.bangholmmedicalcentre.scot.nhs.uk/"/>
  </way>
  <way id="188372941" version="5" timestamp="2021-01-30T17:31:32Z" changeset="98423075" uid="388774" user="drnoble">
    <nd ref="1990045949"/>
    <nd ref="8378799057"/>
    <nd ref="3267833835"/>
    <nd ref="8378799752"/>
    <nd ref="1990045956"/>
    <nd ref="1990045959"/>
    <nd ref="8378799776"/>
    <nd ref="1990045962"/>
    <nd ref="8378799777"/>
    <nd ref="1990045965"/>
    <nd ref="1990045968"/>
    <nd ref="2447173199"/>
    <nd ref="3267834094"/>
    <nd ref="8378799737"/>
    <nd ref="3267834092"/>
    <nd ref="8378799734"/>
    <nd ref="3267834090"/>
    <nd ref="2447173172"/>
    <nd ref="2447173185"/>
    <nd ref="2447173150"/>
    <tag k="access" v="private"/>
    <tag k="highway" v="residential"/>
    <tag k="maxspeed" v="20 mph"/>
    <tag k="name" v="Larkfield Gardens"/>
    <tag k="source" v="Bing;survey"/>
  </way>
  <way id="188372945" version="4" timestamp="2021-01-30T17:31:32Z" changeset="98423075" uid="388774" user="drnoble">
    <nd ref="1990045956"/>
    <nd ref="1990045977"/>
    <nd ref="8378799755"/>
    <nd ref="1990045980"/>
    <tag k="access" v="private"/>
    <tag k="highway" v="residential"/>
    <tag k="lanes" v="2"/>
    <tag k="lit" v="yes"/>
    <tag k="maxspeed" v="20 mph"/>
    <tag k="name" v="Larkfield Gardens"/>
    <tag k="sidewalk" v="right"/>
    <tag k="source" v="Bing;survey"/>
    <tag k="surface" v="paved"/>
  </way>
  <way id="215135123" version="12" timestamp="2024-01-13T14:31:47Z" changeset="146216364" uid="7400464" user="Moohan">
    <nd ref="4742309635"/>
    <nd ref="4742309638"/>
    <nd ref="3484674811"/>
    <nd ref="4033185258"/>
    <nd ref="2268558593"/>
    <tag k="cycleway:both" v="no"/>
    <tag k="highway" v="tertiary"/>
    <tag k="lanes" v="2"/>
    <tag k="lit" v="yes"/>
    <tag k="maxspeed" v="30 mph"/>
    <tag k="name" v="Craighall Road"/>
    <tag k="sidewalk" v="both"/>
    <tag k="sidewalk:both:surface" v="asphalt"/>
    <tag k="smoothness" v="good"/>
    <tag k="surface" v="asphalt"/>
  </way>
  <way id="215135418" version="23" timestamp="2024-10-29T12:30:29Z" changeset="158494553" uid="20156270" user="Radiotea">
    <nd ref="638320"/>
    <nd ref="7575774026"/>
    <nd ref="3448247918"/>
    <nd ref="7575774021"/>
    <nd ref="638321"/>
    <nd ref="3293661086"/>
    <nd ref="638322"/>
    <nd ref="33654669"/>
    <nd ref="1946701887"/>
    <nd ref="31067199"/>
    <nd ref="778778366"/>
    <nd ref="778778340"/>
    <nd ref="4235564473"/>
    <nd ref="3293560157"/>
    <nd ref="638325"/>
    <nd ref="30060162"/>
    <nd ref="1668165591"/>
    <nd ref="2599816028"/>
    <nd ref="1668165519"/>
    <nd ref="4513597173"/>
    <nd ref="3448247935"/>
    <nd ref="638328"/>
    <tag k="cycleway:both" v="no"/>
    <tag k="highway" v="primary"/>
    <tag k="lanes" v="2"/>
    <tag k="lit" v="yes"/>
    <tag k="maxspeed" v="20 mph"/>
    <tag k="name" v="Ferry Road"/>
    <tag k="name:gd" v="Rathad a' Phuirt"/>
    <tag k="ref" v="A902"/>
    <tag k="sidewalk" v="both"/>
    <tag k="sidewalk:both:surface" v="paving_stones"/>
    <tag k="source" v="Bing;survey"/>
    <tag k="surface" v="asphalt"/>
    <tag k="wikidata" v="Q5445503"/>
  </way>
  <way id="215135419" version="15" timestamp="2024-11-14T12:34:13Z" changeset="159126228" uid="20156270" user="Radiotea">
    <nd ref="638320"/>
    <nd ref="7575774025"/>
    <nd ref="3448247915"/>
    <nd ref="7575774022"/>
    <nd ref="3302992003"/>
    <nd ref="43492677"/>
    <tag k="highway" v="tertiary"/>
    <tag k="lanes" v="2"/>
    <tag k="maxspeed" v="20 mph"/>
    <tag k="name" v="Newhaven Road"/>
    <tag k="name:right" v="Bonnington Terrace"/>
    <tag k="sidewalk" v="both"/>
    <tag k="sidewalk:both:surface" v="asphalt"/>
    <tag k="source" v="Bing;survey"/>
    <tag k="surface" v="asphalt"/>
  </way>
  <way id="223978587" version="13" timestamp="2024-08-22T20:24:21Z" changeset="155625297" uid="21762849" user="jSeke">
    <nd ref="43492270"/>
    <nd ref="3948301676"/>
    <nd ref="43493126"/>
    <nd ref="4742329491"/>
    <tag k="highway" v="primary"/>
    <tag k="lanes" v="2"/>
    <tag k="lit" v="yes"/>
    <tag k="maxspeed" v="30 mph"/>
    <tag k="name" v="Ferry Road"/>
    <tag k="name:gd" v="Rathad a' Phuirt"/>
    <tag k="ref" v="A902"/>
    <tag k="sidewalk" v="both"/>
    <tag k="source" v="Bing;survey"/>
    <tag k="surface" v="asphalt"/>
    <tag k="wikidata" v="Q5445503"/>
  </way>
  <way id="223978589" version="12" timestamp="2024-08-22T20:24:21Z" changeset="155625297" uid="21762849" user="jSeke">
    <nd ref="43489910"/>
    <nd ref="43492270"/>
    <tag k="bridge" v="yes"/>
    <tag k="highway" v="primary"/>
    <tag k="lanes" v="2"/>
    <tag k="layer" v="1"/>
    <tag k="lit" v="yes"/>
    <tag k="maxspeed" v="30 mph"/>
    <tag k="name" v="Ferry Road"/>
    <tag k="name:gd" v="Rathad a' Phuirt"/>
    <tag k="ref" v="A902"/>
    <tag k="sidewalk" v="both"/>
    <tag k="source" v="Bing;survey"/>
    <tag k="surface" v="asphalt"/>
    <tag k="wikidata" v="Q5445503"/>
  </way>
  <way id="289232445" version="12" timestamp="2023-09-24T11:35:52Z" changeset="141677227" uid="7400464" user="Moohan">
    <nd ref="615618"/>
    <nd ref="9214494321"/>
    <nd ref="3634528935"/>
    <nd ref="3581335008"/>
    <tag k="cycleway:both" v="no"/>
    <tag k="highway" v="residential"/>
    <tag k="maxspeed" v="20 mph"/>
    <tag k="name" v="Trinity Road"/>
    <tag k="source" v="Bing;survey"/>
    <tag k="surface" v="asphalt"/>
  </way>
  <way id="289232446" version="14" timestamp="2023-09-24T11:36:09Z" changeset="141678305" uid="7400464" user="Moohan">
    <nd ref="2927788952"/>
    <nd ref="2960278187"/>
    <nd ref="2927788951"/>
    <nd ref="3491331377"/>
    <nd ref="3581335008"/>
    <tag k="cycleway:both" v="no"/>
    <tag k="highway" v="residential"/>
    <tag k="maxspeed" v="20 mph"/>
    <tag k="name" v="Lower Granton Road"/>
    <tag k="sidewalk" v="right"/>
    <tag k="source" v="Bing;survey"/>
    <tag k="surface" v="asphalt"/>
  </way>
  <way id="320281135" version="4" timestamp="2021-01-30T17:31:32Z" changeset="98423075" uid="388774" user="drnoble">
    <nd ref="3267834101"/>
    <nd ref="2447173150"/>
    <nd ref="8378799745"/>
    <nd ref="3267833841"/>
    <nd ref="3267833822"/>
    <nd ref="8378799723"/>
    <nd ref="2447173182"/>
    <tag k="access" v="private"/>
    <tag k="highway" v="residential"/>
    <tag k="maxspeed" v="20 mph"/>
    <tag k="name" v="Larkfield Gardens"/>
    <tag k="source" v="Bing;survey"/>
  </way>
  <way id="343199818" version="4" timestamp="2021-04-02T08:51:02Z" changeset="102176934" uid="388774" user="drnoble">
    <nd ref="1158357913"/>
    <nd ref="1158357946"/>
    <nd ref="623602893"/>
    <nd ref="8585611046"/>
    <nd ref="8585611045"/>
    <nd ref="8585611043"/>
    <nd ref="8585611044"/>
    <nd ref="623602894"/>
    <nd ref="623602895"/>
    <nd ref="623602896"/>
    <nd ref="1158357712"/>
    <nd ref="1158357865"/>
    <nd ref="623602868"/>
    <nd ref="3500984982"/>
    <nd ref="8585611039"/>
    <nd ref="1158357775"/>
    <nd ref="1158357706"/>
    <nd ref="1158357913"/>
    <tag k="addr:city" v="Edinburgh"/>
    <tag k="addr:housenumber" v="1a"/>
    <tag k="addr:postcode" v="EH5 3BD"/>
    <tag k="addr:street" v="Clark Road"/>
    <tag k="building" v="yes"/>
    <tag k="name" v="Inverleith St Serf's Church Centre"/>
    <tag k="source" v="Bing"/>
  </way>
  <way id="343199829" version="6" timestamp="2024-06-29T08:12:01Z" changeset="153321336" uid="9451067" user="b-jazz-bot">
    <nd ref="1158357757"/>
    <nd ref="623602847"/>
    <nd ref="623602836"/>
    <nd ref="623602868"/>
    <nd ref="1158357865"/>
    <nd ref="1158357712"/>
    <nd ref="623602896"/>
    <nd ref="623602895"/>
    <nd ref="623602894"/>
    <nd ref="3500984979"/>
    <nd ref="3500984978"/>
    <nd ref="3500984976"/>
    <nd ref="3500984975"/>
    <nd ref="3500984974"/>
    <nd ref="3500984972"/>
    <nd ref="3500984971"/>
    <nd ref="3500984970"/>
    <nd ref="3500984969"/>
    <nd ref="3500984968"/>
    <nd ref="3500984965"/>
    <nd ref="3500984964"/>
    <nd ref="3500984963"/>
    <nd ref="3500984961"/>
    <nd ref="3500984962"/>
    <nd ref="3500984960"/>
    <nd ref="3500984959"/>
    <nd ref="3500984955"/>
    <nd ref="3500984954"/>
    <nd ref="3500984952"/>
    <nd ref="3500984953"/>
    <nd ref="3500984948"/>
    <nd ref="3500984944"/>
    <nd ref="3500984943"/>
    <nd ref="3500984942"/>
    <nd ref="3500984939"/>
    <nd ref="3500984934"/>
    <nd ref="3500984932"/>
    <nd ref="3500984928"/>
    <nd ref="3500984931"/>
    <nd ref="3500984923"/>
    <nd ref="3500984913"/>
    <nd ref="3500984919"/>
    <nd ref="3500984907"/>
    <nd ref="3500984902"/>
    <nd ref="3500984901"/>
    <nd ref="3500984905"/>
    <nd ref="3500984899"/>
    <nd ref="3500984898"/>
    <nd ref="3500984900"/>
    <nd ref="3500984903"/>
    <nd ref="623602886"/>
    <nd ref="3500984926"/>
    <nd ref="3500984922"/>
    <nd ref="3500984920"/>
    <nd ref="3500984924"/>
    <nd ref="3500984916"/>
    <nd ref="3500984910"/>
    <nd ref="3500984908"/>
    <nd ref="3500984912"/>
    <nd ref="3500984904"/>
    <nd ref="3500984895"/>
    <nd ref="3500984894"/>
    <nd ref="3500968391"/>
    <nd ref="3500984893"/>
    <nd ref="1234948340"/>
    <nd ref="3500968387"/>
    <nd ref="3500968383"/>
    <nd ref="3500968384"/>
    <nd ref="3500968390"/>
    <nd ref="3500984917"/>
    <nd ref="3500984914"/>
    <nd ref="3500984927"/>
    <nd ref="3500984930"/>
    <nd ref="3500984936"/>
    <nd ref="3500984935"/>
    <nd ref="3500984937"/>
    <nd ref="3500984938"/>
    <nd ref="3500984947"/>
    <nd ref="3500984946"/>
    <nd ref="3500984950"/>
    <nd ref="3500984951"/>
    <nd ref="3500984956"/>
    <nd ref="3500984957"/>
    <nd ref="623602849"/>
    <nd ref="1158357881"/>
    <nd ref="1158357757"/>
    <tag k="addr:city" v="Edinburgh"/>
    <tag k="addr:housenumber" v="280"/>
    <tag k="addr:postcode" v="EH5 3NP"/>
    <tag k="addr:street" v="Ferry Road"/>
    <tag k="amenity" v="place_of_worship"/>
    <tag k="building" v="church"/>
    <tag k="denomination" v="church_of_scotland"/>
    <tag k="name" v="Inverleith St Serf's Parish Church"/>
    <tag k="religion" v="christian"/>
    <tag k="source" v="NLS_OS_Edinburgh_map_1940s;Bing"/>
    <tag k="website" v="https://inverleithsaintserfs.org.uk/index.html"/>
    <tag k="wikidata" v="Q17811413"/>
  </way>
  <way id="343465769" version="2" timestamp="2020-09-22T18:15:08Z" changeset="91313986" uid="3432400" user="GinaroZ">
    <nd ref="3502958336"/>
    <nd ref="3502958338"/>
    <nd ref="3502958341"/>
    <nd ref="3502958328"/>
    <nd ref="3502958324"/>
    <nd ref="3502958336"/>
    <tag k="addr:city" v="Edinburgh"/>
    <tag k="addr:housenumber" v="382"/>
    <tag k="addr:street" v="Ferry Road"/>
    <tag k="building" v="house"/>
    <tag k="source" v="NLS_OS_Edinburgh_map_1940s;Bing"/>
  </way>
  <way id="343722197" version="2" timestamp="2015-08-04T16:08:06Z" changeset="33102782" uid="2234934" user="sophiemccallum">
    <nd ref="3505223987"/>
    <nd ref="3505223970"/>
    <nd ref="3505223969"/>
    <nd ref="770511525"/>
    <nd ref="3505224017"/>
    <nd ref="3505224026"/>
    <nd ref="3505224031"/>
    <nd ref="3505224044"/>
    <nd ref="3505223987"/>
    <tag k="building" v="yes"/>
    <tag k="name" v="Newbank Lodge"/>
    <tag k="source" v="NLS_OS_Edinburgh_map_1940s;Bing"/>
  </way>
  <way id="345571035" version="5" timestamp="2019-01-08T02:27:27Z" changeset="66115064" uid="2922304" user="smeÃ²rach">
    <nd ref="3522145597"/>
    <nd ref="3682743022"/>
    <nd ref="3522145598"/>
    <nd ref="3522145592"/>
    <nd ref="3522145583"/>
    <nd ref="3522145582"/>
    <nd ref="3522145581"/>
    <nd ref="3522145580"/>
    <nd ref="3522145591"/>
    <nd ref="3522145589"/>
    <nd ref="3522145587"/>
    <nd ref="3522145586"/>
    <nd ref="3522145585"/>
    <nd ref="3522145584"/>
    <nd ref="3522145590"/>
    <nd ref="3522145588"/>
    <nd ref="3522145597"/>
    <tag k="building" v="pavilion"/>
    <tag k="name" v="Trinity Bowling Club Pavilion"/>
    <tag k="source" v="NLS_OS_Edinburgh_map_1940s;Bing"/>
    <tag k="start_date" v="1855"/>
  </way>
  <way id="351447760" version="7" timestamp="2024-02-28T11:06:03Z" changeset="148008477" uid="6816132" user="CjMalone">
    <nd ref="763622794"/>
    <nd ref="763622176"/>
    <nd ref="570313193"/>
    <nd ref="763622841"/>
    <nd ref="763622128"/>
    <nd ref="11260131555"/>
    <nd ref="11260131556"/>
    <nd ref="11260131559"/>
    <nd ref="11260131558"/>
    <nd ref="11260131557"/>
    <nd ref="763622794"/>
    <tag k="addr:city" v="Edinburgh"/>
    <tag k="addr:housenumber" v="60-64"/>
    <tag k="addr:postcode" v="EH5 3BZ"/>
    <tag k="addr:street" v="Laverockbank Road"/>
    <tag k="amenity" v="pub"/>
    <tag k="brand" v="Belhaven Pubs"/>
    <tag k="brand:wikidata" v="Q105516156"/>
    <tag k="building" v="yes"/>
    <tag k="check_date" v="2022-11-04"/>
    <tag k="fhrs:id" v="663207"/>
    <tag k="food" v="yes"/>
    <tag k="indoor_seating" v="yes"/>
    <tag k="name" v="The Starbank Inn"/>
    <tag k="outdoor_seating" v="yes"/>
    <tag k="source" v="NLS_OS_Edinburgh_map_1940s;Bing;survey"/>
    <tag k="website" v="https://www.belhaven.co.uk/pubs/midlothian/starbank-inn"/>
    <tag k="wikidata" v="Q17811109"/>
  </way>
  <way id="351680292" version="5" timestamp="2022-11-04T15:00:58Z" changeset="128488326" uid="13459" user="scvalex">
    <nd ref="3574950784"/>
    <nd ref="4550782164"/>
    <nd ref="3574950792"/>
    <nd ref="3574950775"/>
    <nd ref="3574950772"/>
    <nd ref="3574950784"/>
    <tag k="addr:housenumber" v="84"/>
    <tag k="addr:street" v="Lower Granton Road"/>
    <tag k="building" v="house"/>
    <tag k="source" v="Bing"/>
  </way>
  <way id="358546231" version="6" timestamp="2017-03-19T00:02:09Z" changeset="46969394" uid="33764" user="Rostranimin">
    <nd ref="2960278187"/>
    <nd ref="3634528936"/>
    <tag k="highway" v="residential"/>
    <tag k="maxspeed" v="20 mph"/>
    <tag k="name" v="Lower Granton Road"/>
    <tag k="source" v="survey"/>
  </way>
  <way id="358546232" version="10" timestamp="2024-11-30T15:13:24Z" changeset="159777411" uid="3432400" user="GinaroZ">
    <nd ref="3634528944"/>
    <nd ref="3491331390"/>
    <nd ref="3491331388"/>
    <nd ref="1281696224"/>
    <nd ref="3491331382"/>
    <nd ref="615618"/>
    <tag k="cycleway:left" v="separate"/>
    <tag k="cycleway:right" v="no"/>
    <tag k="highway" v="primary"/>
    <tag k="lanes" v="2"/>
    <tag k="maxspeed" v="20 mph"/>
    <tag k="name" v="Lower Granton Road"/>
    <tag k="ref" v="A901"/>
    <tag k="sidewalk" v="both"/>
    <tag k="source" v="survey"/>
    <tag k="surface" v="asphalt"/>
  </way>
  <way id="363998309" version="3" timestamp="2021-10-31T15:11:22Z" changeset="113197255" uid="3432400" user="GinaroZ">
    <nd ref="3572171952"/>
    <nd ref="763622159"/>
    <nd ref="3572171933"/>
    <nd ref="3572171932"/>
    <nd ref="4546576695"/>
    <nd ref="763622095"/>
    <nd ref="3681018367"/>
    <nd ref="3572171787"/>
    <nd ref="3572171790"/>
    <nd ref="3681022976"/>
    <nd ref="3572171952"/>
    <tag k="building" v="detached"/>
    <tag k="name" v="Free Church Manse"/>
    <tag k="source" v="NLS_OS_Edinburgh_map_1940s;Bing"/>
    <tag k="wikidata" v="Q77776491"/>
  </way>
  <way id="364215650" version="5" timestamp="2023-12-29T17:34:51Z" changeset="145671327" uid="14047157" user="osmuser63783">
    <nd ref="1265651563"/>
    <nd ref="1265652246"/>
    <nd ref="1265652462"/>
    <nd ref="1265651691"/>
    <nd ref="1265652313"/>
    <nd ref="1265651588"/>
    <nd ref="1265652224"/>
    <nd ref="3682748956"/>
    <nd ref="3682748955"/>
    <nd ref="3682748952"/>
    <nd ref="3682748949"/>
    <nd ref="3682748953"/>
    <nd ref="3682748951"/>
    <nd ref="3682748947"/>
    <nd ref="3682748950"/>
    <nd ref="1265652426"/>
    <nd ref="3682742973"/>
    <nd ref="1265652487"/>
    <nd ref="3531007617"/>
    <nd ref="3531007618"/>
    <nd ref="3531007614"/>
    <nd ref="3531007613"/>
    <nd ref="3531007612"/>
    <nd ref="3531007611"/>
    <nd ref="3531007610"/>
    <nd ref="3531007607"/>
    <nd ref="3531007606"/>
    <nd ref="3531007605"/>
    <nd ref="3531007615"/>
    <nd ref="3531007616"/>
    <nd ref="3682748948"/>
    <nd ref="1265652219"/>
    <nd ref="1265652164"/>
    <nd ref="1265651723"/>
    <nd ref="1265652155"/>
    <nd ref="1265651633"/>
    <nd ref="1265652357"/>
    <nd ref="4551116849"/>
    <nd ref="1265651563"/>
    <tag k="addr:city" v="Edinburgh"/>
    <tag k="addr:housenumber" v="29"/>
    <tag k="addr:street" v="Primrose Bank Road"/>
    <tag k="amenity" v="place_of_worship"/>
    <tag k="building" v="church"/>
    <tag k="denomination" v="church_of_scotland"/>
    <tag k="name" v="Wardie Parish Church"/>
    <tag k="phone" v="+44 131 551 3847"/>
    <tag k="religion" v="christian"/>
    <tag k="source" v="NLS_OS_Edinburgh_map_1940s;Bing;survey"/>
    <tag k="website" v="https://www.wardie.org.uk/"/>
    <tag k="wikidata" v="Q17793934"/>
  </way>
  <way id="401051335" version="10" timestamp="2024-08-22T20:24:21Z" changeset="155625297" uid="21762849" user="jSeke">
    <nd ref="30655866"/>
    <nd ref="1260900475"/>
    <nd ref="1260900543"/>
    <tag k="highway" v="primary"/>
    <tag k="lanes" v="2"/>
    <tag k="lit" v="yes"/>
    <tag k="maxspeed" v="30 mph"/>
    <tag k="maxspeed:variable" v="school_zone"/>
    <tag k="name" v="Ferry Road"/>
    <tag k="name:gd" v="Rathad a' Phuirt"/>
    <tag k="ref" v="A902"/>
    <tag k="sidewalk" v="both"/>
    <tag k="source" v="Bing;survey"/>
    <tag k="surface" v="asphalt"/>
    <tag k="wikidata" v="Q5445503"/>
  </way>
  <way id="401223954" version="2" timestamp="2017-02-13T11:18:37Z" changeset="46043965" uid="2234934" user="sophiemccallum">
    <nd ref="4036656925"/>
    <nd ref="4036656904"/>
    <nd ref="4036656901"/>
    <nd ref="4036656912"/>
    <nd ref="4036656914"/>
    <nd ref="4036656919"/>
    <nd ref="4036656925"/>
    <tag k="building" v="club_house"/>
    <tag k="name" v="Dudley Bowling Club Pavilion"/>
    <tag k="source" v="NLS_OS_Edinburgh_map_1940s;Bing"/>
  </way>
  <way id="458682848" version="3" timestamp="2025-02-10T04:43:51Z" changeset="162335673" uid="22372932" user="gingermusketeer">
    <nd ref="4546453463"/>
    <nd ref="7217214201"/>
    <nd ref="4546453467"/>
    <nd ref="4546453468"/>
    <nd ref="4546453464"/>
    <nd ref="4546453463"/>
    <tag k="addr:city" v="Edinburgh"/>
    <tag k="addr:housenumber" v="17"/>
    <tag k="addr:postcode" v="EH6 4RX"/>
    <tag k="addr:street" v="Craighall Crescent"/>
    <tag k="building" v="house"/>
    <tag k="source" v="Bing"/>
  </way>
  <way id="458682897" version="3" timestamp="2025-02-10T04:43:51Z" changeset="162335673" uid="22372932" user="gingermusketeer">
    <nd ref="4546453716"/>
    <nd ref="7217214204"/>
    <nd ref="763622832"/>
    <nd ref="763622566"/>
    <nd ref="4546453715"/>
    <nd ref="4546453717"/>
    <nd ref="4546453716"/>
    <tag k="addr:city" v="Edinburgh"/>
    <tag k="addr:housenumber" v="11"/>
    <tag k="addr:postcode" v="EH6 4RX"/>
    <tag k="addr:street" v="Craighall Crescent"/>
    <tag k="building" v="house"/>
    <tag k="source" v="Bing"/>
  </way>
  <way id="458682902" version="3" timestamp="2025-02-09T19:23:29Z" changeset="162326092" uid="22372932" user="gingermusketeer">
    <nd ref="4546453748"/>
    <nd ref="7217214206"/>
    <nd ref="1317767282"/>
    <nd ref="1317767421"/>
    <nd ref="4546453749"/>
    <nd ref="4546453748"/>
    <tag k="addr:city" v="Edinburgh"/>
    <tag k="addr:housenumber" v="7"/>
    <tag k="addr:postcode" v="EH6 4RX"/>
    <tag k="addr:street" v="Craighall Crescent"/>
    <tag k="building" v="house"/>
    <tag k="source" v="Bing"/>
  </way>
  <way id="478387586" version="5" timestamp="2024-02-24T15:14:12Z" changeset="147858658" uid="53626" user="jambamkin">
    <nd ref="4715604212"/>
    <nd ref="25634082"/>
    <tag k="highway" v="tertiary"/>
    <tag k="lanes" v="2"/>
    <tag k="lit" v="yes"/>
    <tag k="maxspeed" v="30 mph"/>
    <tag k="name" v="East Fettes Avenue"/>
    <tag k="sidewalk" v="both"/>
    <tag k="sidewalk:both:surface" v="asphalt"/>
    <tag k="source" v="Bing;survey"/>
    <tag k="surface" v="asphalt"/>
  </way>
  <way id="480211372" version="1" timestamp="2017-03-13T13:19:42Z" changeset="46812586" uid="2234934" user="sophiemccallum">
    <nd ref="4732212197"/>
    <nd ref="4732212196"/>
    <tag k="highway" v="residential"/>
    <tag k="maxspeed" v="20 mph"/>
    <tag k="name" v="Ferryfield"/>
  </way>
  <way id="481288639" version="1" timestamp="2017-03-18T23:09:35Z" changeset="46968481" uid="33764" user="Rostranimin">
    <nd ref="4742262972"/>
    <nd ref="3491329366"/>
    <nd ref="763622145"/>
    <tag k="highway" v="residential"/>
    <tag k="is_in" v="Edinburgh, Scotland, UK"/>
    <tag k="lanes" v="2"/>
    <tag k="maxspeed" v="30 mph"/>
    <tag k="name" v="Rosebank Road"/>
    <tag k="source" v="Bing;survey"/>
    <tag k="traffic_calming" v="hump"/>
  </way>
  <way id="481288640" version="1" timestamp="2017-03-18T23:09:35Z" changeset="46968481" uid="33764" user="Rostranimin">
    <nd ref="4742262973"/>
    <nd ref="3491329370"/>
    <nd ref="30118112"/>
    <tag k="highway" v="residential"/>
    <tag k="maxspeed" v="30 mph"/>
    <tag k="name" v="Fraser Avenue"/>
    <tag k="source" v="Bing;survey"/>
  </way>
  <way id="481288641" version="4" timestamp="2023-09-24T11:32:22Z" changeset="141677227" uid="7400464" user="Moohan">
    <nd ref="4742262974"/>
    <nd ref="28144933"/>
    <tag k="cycleway:both" v="no"/>
    <tag k="highway" v="residential"/>
    <tag k="lanes" v="2"/>
    <tag k="lit" v="yes"/>
    <tag k="maxspeed" v="30 mph"/>
    <tag k="name" v="Afton Terrace"/>
    <tag k="sidewalk" v="both"/>
    <tag k="source" v="Bing;survey"/>
    <tag k="surface" v="asphalt"/>
    <tag k="traffic_calming" v="hump"/>
    <tag k="width" v="8"/>
  </way>
  <way id="481288642" version="4" timestamp="2023-09-24T11:32:04Z" changeset="141678295" uid="7400464" user="Moohan">
    <nd ref="4742262975"/>
    <nd ref="28144933"/>
    <nd ref="38561903"/>
    <nd ref="30118112"/>
    <nd ref="763622145"/>
    <nd ref="30012228"/>
    <tag k="cycleway:both" v="no"/>
    <tag k="highway" v="primary"/>
    <tag k="lanes" v="2"/>
    <tag k="maxspeed" v="30 mph"/>
    <tag k="name" v="Granton Road"/>
    <tag k="ref" v="A903"/>
    <tag k="sidewalk" v="both"/>
    <tag k="source" v="Bing;survey"/>
    <tag k="surface" v="asphalt"/>
    <tag k="width" v="11"/>
  </way>
  <way id="481288643" version="3" timestamp="2024-02-22T22:46:30Z" changeset="147792103" uid="14047157" user="osmuser63783">
    <nd ref="30082254"/>
    <nd ref="30113430"/>
    <nd ref="1102508294"/>
    <nd ref="4217628108"/>
    <nd ref="4742262976"/>
    <tag k="highway" v="primary"/>
    <tag k="lanes" v="2"/>
    <tag k="maxspeed" v="30 mph"/>
    <tag k="name" v="Granton Road"/>
    <tag k="ref" v="A903"/>
    <tag k="sidewalk" v="both"/>
    <tag k="source" v="Bing;survey"/>
    <tag k="surface" v="asphalt"/>
    <tag k="width" v="11"/>
  </way>
  <way id="481288644" version="2" timestamp="2021-08-21T15:25:10Z" changeset="110032583" uid="4007299" user="FrenchyF">
    <nd ref="4742262977"/>
    <nd ref="3728634586"/>
    <nd ref="30082254"/>
    <tag k="highway" v="tertiary"/>
    <tag k="maxspeed" v="30 mph"/>
    <tag k="name" v="Wardie Crescent"/>
    <tag k="surface" v="asphalt"/>
  </way>
  <way id="481288645" version="6" timestamp="2022-05-21T23:15:30Z" changeset="121300586" uid="13165294" user="ThatEffingCat">
    <nd ref="637258"/>
    <nd ref="1067566448"/>
    <nd ref="3490830269"/>
    <nd ref="3490830272"/>
    <tag k="cycleway:both" v="no"/>
    <tag k="highway" v="residential"/>
    <tag k="lanes" v="2"/>
    <tag k="lit" v="yes"/>
    <tag k="maxspeed" v="30 mph"/>
    <tag k="name" v="Boswall Road"/>
    <tag k="sidewalk" v="both"/>
    <tag k="sidewalk:both:surface" v="asphalt"/>
    <tag k="smoothness" v="intermediate"/>
    <tag k="source" v="Bing;survey"/>
    <tag k="surface" v="asphalt"/>
  </way>
  <way id="481293331" version="3" timestamp="2025-03-16T11:59:07Z" changeset="163685263" uid="7400464" user="Moohan">
    <nd ref="319597673"/>
    <nd ref="6320111481"/>
    <nd ref="4742309621"/>
    <tag k="cycleway:both" v="no"/>
    <tag k="highway" v="residential"/>
    <tag k="lanes" v="2"/>
    <tag k="maxspeed" v="20 mph"/>
    <tag k="name" v="Wardie Road"/>
    <tag k="source" v="Bing;survey"/>
    <tag k="traffic_calming" v="cushion"/>
  </way>
  <way id="481293332" version="6" timestamp="2025-03-16T11:58:35Z" changeset="163685263" uid="7400464" user="Moohan">
    <nd ref="637271"/>
    <nd ref="8378665920"/>
    <nd ref="8378665921"/>
    <nd ref="9244044975"/>
    <nd ref="3434681917"/>
    <nd ref="4742309622"/>
    <tag k="cycleway:both" v="no"/>
    <tag k="highway" v="secondary"/>
    <tag k="lanes" v="3"/>
    <tag k="lanes:backward" v="2"/>
    <tag k="lanes:forward" v="1"/>
    <tag k="lit" v="yes"/>
    <tag k="maxspeed" v="20 mph"/>
    <tag k="name" v="Inverleith Row"/>
    <tag k="name:left" v="Montagu Terrace"/>
    <tag k="ref" v="B901"/>
    <tag k="sidewalk" v="both"/>
    <tag k="source" v="Bing;survey"/>
    <tag k="surface" v="asphalt"/>
  </way>
  <way id="481293334" version="2" timestamp="2021-12-30T22:49:30Z" changeset="115585600" uid="3432400" user="GinaroZ">
    <nd ref="30784020"/>
    <nd ref="621222031"/>
    <tag k="highway" v="residential"/>
    <tag k="maxspeed" v="30 mph"/>
    <tag k="name" v="Monmouth Terrace"/>
    <tag k="oneway" v="yes"/>
    <tag k="source" v="Bing;survey"/>
    <tag k="surface" v="asphalt"/>
  </way>
  <way id="481293335" version="3" timestamp="2021-01-30T16:43:39Z" changeset="98421414" uid="388774" user="drnoble">
    <nd ref="797643560"/>
    <nd ref="3501230898"/>
    <nd ref="31263146"/>
    <nd ref="3446948062"/>
    <nd ref="3447037928"/>
    <tag k="highway" v="residential"/>
    <tag k="lanes" v="2"/>
    <tag k="lit" v="yes"/>
    <tag k="maxspeed" v="30 mph"/>
    <tag k="name" v="South Trinity Road"/>
    <tag k="sidewalk" v="both"/>
    <tag k="source" v="Bing;survey"/>
    <tag k="surface" v="asphalt"/>
  </way>
  <way id="481293336" version="2" timestamp="2018-06-11T09:56:12Z" changeset="59735081" uid="8401375" user="anonBHuaMxLWPaeQ">
    <nd ref="608660875"/>
    <nd ref="3498914647"/>
    <tag k="highway" v="residential"/>
    <tag k="lanes" v="1"/>
    <tag k="maxspeed" v="20 mph"/>
    <tag k="name" v="Bangholm Place"/>
    <tag k="oneway" v="yes"/>
    <tag k="source" v="Bing;survey"/>
    <tag k="surface" v="asphalt"/>
    <tag k="width" v="3"/>
  </way>
  <way id="481293338" version="2" timestamp="2018-06-11T09:56:39Z" changeset="59735081" uid="8401375" user="anonBHuaMxLWPaeQ">
    <nd ref="4742309624"/>
    <nd ref="31273050"/>
    <nd ref="638314"/>
    <tag k="highway" v="residential"/>
    <tag k="lanes" v="1"/>
    <tag k="lit" v="yes"/>
    <tag k="maxspeed" v="30 mph"/>
    <tag k="name" v="Warriston Road"/>
    <tag k="oneway" v="yes"/>
    <tag k="source" v="NLS_OS_Edinburgh_1940s;Bing;survey"/>
    <tag k="surface" v="asphalt"/>
  </way>
  <way id="481293339" version="2" timestamp="2018-06-11T09:56:43Z" changeset="59735081" uid="8401375" user="anonBHuaMxLWPaeQ">
    <nd ref="31273047"/>
    <nd ref="31273045"/>
    <nd ref="4742309625"/>
    <tag k="highway" v="residential"/>
    <tag k="lanes" v="1"/>
    <tag k="lit" v="yes"/>
    <tag k="maxspeed" v="30 mph"/>
    <tag k="name" v="Warriston Road"/>
    <tag k="oneway" v="yes"/>
    <tag k="source" v="Bing;survey"/>
    <tag k="surface" v="asphalt"/>
  </way>
  <way id="481293341" version="1" timestamp="2017-03-19T00:02:01Z" changeset="46969394" uid="33764" user="Rostranimin">
    <nd ref="616020941"/>
    <nd ref="1317767828"/>
    <nd ref="4742309626"/>
    <tag k="highway" v="residential"/>
    <tag k="maxspeed" v="30 mph"/>
    <tag k="name" v="Craighall Road"/>
    <tag k="source" v="Bing;survey"/>
  </way>
  <way id="481293342" version="1" timestamp="2017-03-19T00:02:01Z" changeset="46969394" uid="33764" user="Rostranimin">
    <nd ref="4742309627"/>
    <nd ref="4038801908"/>
    <nd ref="32461252"/>
    <tag k="highway" v="residential"/>
    <tag k="maxspeed" v="30 mph"/>
    <tag k="maxspeed:variable" v="school_zone"/>
    <tag k="name" v="Grandfield"/>
    <tag k="source" v="Bing;survey"/>
  </way>
  <way id="481293344" version="4" timestamp="2024-04-02T01:01:34Z" changeset="149457756" uid="21265105" user="David4ff">
    <nd ref="4742309628"/>
    <nd ref="31100848"/>
    <nd ref="32461252"/>
    <nd ref="31467349"/>
    <tag k="highway" v="tertiary"/>
    <tag k="lanes" v="2"/>
    <tag k="lit" v="yes"/>
    <tag k="maxspeed" v="20 mph"/>
    <tag k="maxspeed:variable" v="school_zone"/>
    <tag k="name" v="Craighall Road"/>
    <tag k="source" v="Bing;survey"/>
    <tag k="surface" v="asphalt"/>
  </way>
  <way id="481293345" version="2" timestamp="2018-06-11T11:25:02Z" changeset="59735081" uid="8401375" user="anonBHuaMxLWPaeQ">
    <nd ref="4742309629"/>
    <nd ref="4038729443"/>
    <nd ref="31348130"/>
    <tag k="highway" v="residential"/>
    <tag k="maxspeed" v="30 mph"/>
    <tag k="name" v="Craighall Gardens"/>
    <tag k="source" v="Bing;survey"/>
    <tag k="surface" v="asphalt"/>
  </way>
  <way id="481293346" version="2" timestamp="2018-06-11T11:24:50Z" changeset="59735081" uid="8401375" user="anonBHuaMxLWPaeQ">
    <nd ref="4742309630"/>
    <nd ref="32461251"/>
    <tag k="highway" v="residential"/>
    <tag k="maxspeed" v="30 mph"/>
    <tag k="name" v="Craighall Terrace"/>
    <tag k="source" v="Bing;survey"/>
    <tag k="surface" v="asphalt"/>
  </way>
  <way id="481293349" version="4" timestamp="2024-04-02T01:01:34Z" changeset="149457756" uid="21265105" user="David4ff">
    <nd ref="4742309632"/>
    <nd ref="31348130"/>
    <nd ref="793814853"/>
    <nd ref="4742309628"/>
    <tag k="highway" v="tertiary"/>
    <tag k="lanes" v="2"/>
    <tag k="lit" v="yes"/>
    <tag k="maxspeed" v="20 mph"/>
    <tag k="name" v="Craighall Road"/>
    <tag k="source" v="Bing;survey"/>
    <tag k="surface" v="asphalt"/>
  </way>
  <way id="481293351" version="1" timestamp="2017-03-19T00:02:02Z" changeset="46969394" uid="33764" user="Rostranimin">
    <nd ref="32461268"/>
    <nd ref="4742309633"/>
    <tag k="highway" v="residential"/>
    <tag k="maxspeed" v="30 mph"/>
    <tag k="maxspeed:variable" v="school_zone"/>
    <tag k="name" v="New Cut Rigg"/>
    <tag k="source" v="Bing;survey"/>
  </way>
  <way id="481293352" version="7" timestamp="2024-08-22T20:24:21Z" changeset="155625297" uid="21762849" user="jSeke">
    <nd ref="4742309634"/>
    <nd ref="32461250"/>
    <tag k="highway" v="primary"/>
    <tag k="lanes" v="2"/>
    <tag k="lit" v="yes"/>
    <tag k="maxspeed" v="30 mph"/>
    <tag k="name" v="Ferry Road"/>
    <tag k="name:gd" v="Rathad a' Phuirt"/>
    <tag k="name:right" v="Chancelot Terrace"/>
    <tag k="ref" v="A902"/>
    <tag k="sidewalk" v="both"/>
    <tag k="source" v="Bing;survey"/>
    <tag k="surface" v="asphalt"/>
    <tag k="wikidata" v="Q5445503"/>
  </way>
  <way id="481293353" version="5" timestamp="2020-12-27T14:56:58Z" changeset="96486703" uid="53626" user="jambamkin">
    <nd ref="4033185257"/>
    <nd ref="4742309635"/>
    <tag k="cycleway:both" v="no"/>
    <tag k="highway" v="tertiary"/>
    <tag k="lanes" v="2"/>
    <tag k="lit" v="yes"/>
    <tag k="maxspeed" v="20 mph"/>
    <tag k="name" v="Craighall Road"/>
    <tag k="sidewalk" v="both"/>
    <tag k="surface" v="asphalt"/>
  </way>
  <way id="481293355" version="3" timestamp="2018-06-11T11:25:39Z" changeset="59735081" uid="8401375" user="anonBHuaMxLWPaeQ">
    <nd ref="4742309636"/>
    <nd ref="4742309637"/>
    <nd ref="4033185257"/>
    <tag k="highway" v="tertiary"/>
    <tag k="lanes" v="2"/>
    <tag k="lit" v="yes"/>
    <tag k="maxspeed" v="20 mph"/>
    <tag k="name" v="Craighall Road"/>
    <tag k="surface" v="asphalt"/>
  </way>
  <way id="481293356" version="8" timestamp="2022-05-21T23:17:28Z" changeset="121300586" uid="13165294" user="ThatEffingCat">
    <nd ref="3484674817"/>
    <nd ref="31348137"/>
    <tag k="cycleway:both" v="no"/>
    <tag k="highway" v="primary"/>
    <tag k="lanes" v="2"/>
    <tag k="lit" v="yes"/>
    <tag k="maxspeed" v="30 mph"/>
    <tag k="name" v="Starbank Road"/>
    <tag k="ref" v="A901"/>
    <tag k="sidewalk" v="both"/>
    <tag k="sidewalk:both:surface" v="asphalt"/>
    <tag k="smoothness" v="excellent"/>
    <tag k="source" v="Bing;survey"/>
    <tag k="source:ref" v="OS_OpenData_StreetView"/>
    <tag k="surface" v="asphalt"/>
  </way>
  <way id="481295377" version="1" timestamp="2017-03-19T00:35:42Z" changeset="46969764" uid="33764" user="Rostranimin">
    <nd ref="4035234544"/>
    <nd ref="3448247906"/>
    <nd ref="1260900440"/>
    <nd ref="4742329489"/>
    <tag k="highway" v="residential"/>
    <tag k="maxspeed" v="30 mph"/>
    <tag k="name" v="Connaught Place"/>
    <tag k="source" v="Bing;survey"/>
    <tag k="surface" v="cobblestone"/>
  </way>
  <way id="481295378" version="1" timestamp="2017-03-19T00:35:43Z" changeset="46969764" uid="33764" user="Rostranimin">
    <nd ref="43492270"/>
    <nd ref="4035234545"/>
    <nd ref="4742329490"/>
    <tag k="highway" v="residential"/>
    <tag k="maxspeed" v="30 mph"/>
    <tag k="name" v="Gosford Place"/>
    <tag k="source" v="Bing;survey"/>
  </way>
  <way id="481295379" version="8" timestamp="2024-08-22T20:24:21Z" changeset="155625297" uid="21762849" user="jSeke">
    <nd ref="4742329491"/>
    <nd ref="3448247916"/>
    <nd ref="7575774020"/>
    <nd ref="3448247917"/>
    <nd ref="7575774024"/>
    <nd ref="638320"/>
    <tag k="highway" v="primary"/>
    <tag k="lanes" v="2"/>
    <tag k="lit" v="yes"/>
    <tag k="maxspeed" v="20 mph"/>
    <tag k="name" v="Ferry Road"/>
    <tag k="name:gd" v="Rathad a' Phuirt"/>
    <tag k="ref" v="A902"/>
    <tag k="sidewalk" v="both"/>
    <tag k="source" v="Bing;survey"/>
    <tag k="surface" v="asphalt"/>
    <tag k="wikidata" v="Q5445503"/>
  </way>
  <way id="765465024" version="4" timestamp="2024-08-22T20:24:21Z" changeset="155625297" uid="21762849" user="jSeke">
    <nd ref="7149244273"/>
    <nd ref="30096052"/>
    <tag k="cycleway:right" v="lane"/>
    <tag k="highway" v="primary"/>
    <tag k="lanes" v="2"/>
    <tag k="lit" v="yes"/>
    <tag k="maxspeed" v="30 mph"/>
    <tag k="name" v="Ferry Road"/>
    <tag k="name:gd" v="Rathad a' Phuirt"/>
    <tag k="ref" v="A902"/>
    <tag k="sidewalk" v="both"/>
    <tag k="source" v="Bing;survey"/>
    <tag k="surface" v="asphalt"/>
    <tag k="wikidata" v="Q5445503"/>
  </way>
  <way id="765465025" version="5" timestamp="2024-08-22T20:24:21Z" changeset="155625297" uid="21762849" user="jSeke">
    <nd ref="30096052"/>
    <nd ref="3446948022"/>
    <nd ref="4321118931"/>
    <nd ref="4321118932"/>
    <nd ref="637264"/>
    <tag k="cycleway:both" v="lane"/>
    <tag k="cycleway:both:lane" v="exclusive"/>
    <tag k="highway" v="primary"/>
    <tag k="lanes" v="2"/>
    <tag k="lit" v="yes"/>
    <tag k="maxspeed" v="30 mph"/>
    <tag k="name" v="Ferry Road"/>
    <tag k="name:gd" v="Rathad a' Phuirt"/>
    <tag k="ref" v="A902"/>
    <tag k="sidewalk" v="both"/>
    <tag k="source" v="Bing;survey"/>
    <tag k="surface" v="asphalt"/>
    <tag k="wikidata" v="Q5445503"/>
  </way>
  <way id="772989198" version="1" timestamp="2020-02-16T20:58:56Z" changeset="81081716" uid="388774" user="drnoble">
    <nd ref="7217178845"/>
    <nd ref="7217178844"/>
    <nd ref="7217178843"/>
    <nd ref="7217178842"/>
    <nd ref="7217178845"/>
    <tag k="building" v="service"/>
    <tag k="name" v="Grandfield 14"/>
    <tag k="power" v="substation"/>
    <tag k="substation" v="minor_distribution"/>
  </way>
  <way id="1001512986" version="4" timestamp="2025-03-16T11:59:40Z" changeset="163685263" uid="7400464" user="Moohan">
    <nd ref="9244044971"/>
    <nd ref="11986003686"/>
    <nd ref="9244044970"/>
    <nd ref="11986003685"/>
    <nd ref="9244044974"/>
    <nd ref="9244044968"/>
    <nd ref="9244044969"/>
    <tag k="cycleway:both" v="no"/>
    <tag k="highway" v="primary_link"/>
    <tag k="maxspeed" v="30 mph"/>
    <tag k="oneway" v="yes"/>
    <tag k="sidewalk" v="both"/>
    <tag k="surface" v="asphalt"/>
  </way>
  <way id="1096321738" version="3" timestamp="2023-09-24T11:35:49Z" changeset="141677227" uid="7400464" user="Moohan">
    <nd ref="1281696266"/>
    <nd ref="3581335008"/>
    <tag k="cycleway:both" v="no"/>
    <tag k="highway" v="residential"/>
    <tag k="lanes" v="2"/>
    <tag k="maxspeed" v="20 mph"/>
    <tag k="name" v="Trinity Road"/>
    <tag k="sidewalk" v="both"/>
    <tag k="source" v="Bing;survey"/>
    <tag k="surface" v="asphalt"/>
  </way>
  <way id="1096321739" version="1" timestamp="2022-09-20T14:23:30Z" changeset="126425740" uid="3432400" user="GinaroZ">
    <nd ref="28137576"/>
    <nd ref="10039652100"/>
    <tag k="highway" v="residential"/>
    <tag k="maxspeed" v="20 mph"/>
    <tag k="name" v="York Road"/>
    <tag k="source" v="Bing;survey"/>
    <tag k="surface" v="asphalt"/>
  </way>
  <way id="1137812797" version="2" timestamp="2023-04-02T12:46:16Z" changeset="134412711" uid="14342089" user="CatSt">
    <nd ref="10605882771"/>
    <nd ref="10605882772"/>
    <nd ref="10605882773"/>
    <nd ref="10605882774"/>
    <tag k="access" v="private"/>
    <tag k="highway" v="residential"/>
    <tag k="name" v="The Walled Garden"/>
    <tag k="postal_code" v="EH5 3FA"/>
  </way>
  <way id="1199490330" version="3" timestamp="2024-01-13T14:32:30Z" changeset="146216356" uid="7400464" user="Moohan">
    <nd ref="2268558593"/>
    <nd ref="2256257485"/>
    <nd ref="528879372"/>
    <nd ref="2256257472"/>
    <nd ref="528879373"/>
    <nd ref="2256257473"/>
    <nd ref="2256257489"/>
    <nd ref="2256257461"/>
    <nd ref="31348137"/>
    <tag k="cycleway:left" v="no"/>
    <tag k="highway" v="primary"/>
    <tag k="junction" v="roundabout"/>
    <tag k="lane_markings" v="no"/>
    <tag k="lit" v="yes"/>
    <tag k="maxspeed" v="30 mph"/>
    <tag k="ref" v="A901"/>
    <tag k="sidewalk" v="left"/>
    <tag k="smoothness" v="excellent"/>
    <tag k="source:ref" v="OS_OpenData_StreetView"/>
    <tag k="surface" v="asphalt"/>
  </way>
  <way id="1199490331" version="3" timestamp="2024-01-13T14:32:32Z" changeset="146216356" uid="7400464" user="Moohan">
    <nd ref="31348137"/>
    <nd ref="528879376"/>
    <nd ref="2256257498"/>
    <nd ref="2256257467"/>
    <nd ref="528879377"/>
    <nd ref="2256257464"/>
    <nd ref="528879378"/>
    <nd ref="2256257463"/>
    <nd ref="33396617"/>
    <nd ref="2256257491"/>
    <nd ref="528879379"/>
    <nd ref="2256257474"/>
    <nd ref="2256257478"/>
    <nd ref="2256257476"/>
    <nd ref="2256257484"/>
    <nd ref="2256257499"/>
    <nd ref="615606"/>
    <tag k="cycleway:left" v="no"/>
    <tag k="highway" v="primary"/>
    <tag k="junction" v="roundabout"/>
    <tag k="lane_markings" v="no"/>
    <tag k="lit" v="yes"/>
    <tag k="maxspeed" v="30 mph"/>
    <tag k="ref" v="A901"/>
    <tag k="sidewalk" v="left"/>
    <tag k="smoothness" v="excellent"/>
    <tag k="source:ref" v="OS_OpenData_StreetView"/>
    <tag k="surface" v="asphalt"/>
  </way>
  <way id="1253796657" version="1" timestamp="2024-02-22T22:46:30Z" changeset="147792103" uid="14047157" user="osmuser63783">
    <nd ref="1281696245"/>
    <nd ref="3490830362"/>
    <nd ref="3490830363"/>
    <nd ref="608262168"/>
    <nd ref="3490830370"/>
    <nd ref="615627"/>
    <nd ref="3490830371"/>
    <nd ref="608262170"/>
    <nd ref="1281696244"/>
    <nd ref="3491331403"/>
    <nd ref="615626"/>
    <nd ref="1281696260"/>
    <nd ref="778778365"/>
    <nd ref="4550785617"/>
    <nd ref="608811519"/>
    <nd ref="3634528987"/>
    <nd ref="608811514"/>
    <nd ref="3491331401"/>
    <nd ref="615622"/>
    <nd ref="3491331397"/>
    <nd ref="3491331395"/>
    <nd ref="1281696267"/>
    <nd ref="3634528944"/>
    <tag k="highway" v="primary"/>
    <tag k="lanes" v="2"/>
    <tag k="lit" v="yes"/>
    <tag k="maxspeed" v="20 mph"/>
    <tag k="name" v="Lower Granton Road"/>
    <tag k="ref" v="A901"/>
    <tag k="sidewalk" v="both"/>
    <tag k="smoothness" v="excellent"/>
    <tag k="source" v="survey"/>
    <tag k="surface" v="asphalt"/>
  </way>
  <way id="1292915344" version="1" timestamp="2024-06-16T19:29:09Z" changeset="152774702" uid="20487713" user="iiBus">
    <nd ref="9244044971"/>
    <nd ref="9244044972"/>
    <nd ref="637264"/>
    <tag k="cycleway:both" v="no"/>
    <tag k="highway" v="primary"/>
    <tag k="lanes" v="2"/>
    <tag k="maxspeed" v="30 mph"/>
    <tag k="name" v="Granton Road"/>
    <tag k="ref" v="A903"/>
    <tag k="sidewalk" v="both"/>
    <tag k="source" v="Bing;survey"/>
    <tag k="surface" v="asphalt"/>
    <tag k="width" v="11"/>
  </way>
  <way id="1292915345" version="3" timestamp="2025-03-16T11:59:42Z" changeset="163685263" uid="7400464" user="Moohan">
    <nd ref="637264"/>
    <nd ref="4321118933"/>
    <nd ref="4321118934"/>
    <nd ref="3446948027"/>
    <nd ref="11986003684"/>
    <nd ref="9244044969"/>
    <tag k="cycleway:both" v="no"/>
    <tag k="highway" v="primary"/>
    <tag k="lanes" v="2"/>
    <tag k="lit" v="yes"/>
    <tag k="maxspeed" v="30 mph"/>
    <tag k="name" v="Ferry Road"/>
    <tag k="name:gd" v="Rathad a' Phuirt"/>
    <tag k="name:left" v="Ferry Road"/>
    <tag k="name:right" v="Inverleith Gardens"/>
    <tag k="ref" v="A902"/>
    <tag k="sidewalk" v="both"/>
    <tag k="source" v="Bing;survey"/>
    <tag k="surface" v="asphalt"/>
    <tag k="wikidata" v="Q5445503"/>
  </way>
  <way id="1339064610" version="1" timestamp="2024-11-30T15:13:24Z" changeset="159777411" uid="3432400" user="GinaroZ">
    <nd ref="615618"/>
    <nd ref="3634528973"/>
    <nd ref="1281696223"/>
    <nd ref="3490830329"/>
    <nd ref="759691320"/>
    <nd ref="3490830333"/>
    <nd ref="615616"/>
    <nd ref="3490830339"/>
    <nd ref="3490830341"/>
    <tag k="cycleway:left" v="separate"/>
    <tag k="cycleway:right" v="no"/>
    <tag k="highway" v="primary"/>
    <tag k="lanes" v="2"/>
    <tag k="lit" v="yes"/>
    <tag k="maxspeed" v="20 mph"/>
    <tag k="name" v="Trinity Crescent"/>
    <tag k="ref" v="A901"/>
    <tag k="sidewalk" v="both"/>
    <tag k="smoothness" v="excellent"/>
    <tag k="source" v="Bing;survey"/>
    <tag k="source:ref" v="OS_OpenData_StreetView"/>
    <tag k="surface" v="asphalt"/>
  </way>

</osm>
