<?xml version="1.0" encoding="UTF-8"?>
<osm version="0.6" generator="Overpass API 0.7.62.5 1bd436f1">
<note>The data included in this document is from www.openstreetmap.org. The data is made available under ODbL.</note>
<meta osm_base="2025-04-05T17:17:14Z" areas="2024-12-31T00:49:33Z"/>

  <node id="25526762" lat="52.1613843" lon="0.1023968" version="4" timestamp="2025-02-21T15:54:12Z" changeset="162786589" uid="5008136" user="JayTurnr"/>
  <node id="36743538" lat="52.1679341" lon="0.0907769" version="4" timestamp="2012-06-07T12:09:22Z" changeset="11824438" uid="24119" user="Mauls"/>
  <node id="678634269" lat="52.1565353" lon="0.1079533" version="2" timestamp="2024-12-29T19:44:22Z" changeset="160765712" uid="5229644" user="Nathan_A_RF"/>
  <node id="697159155" lat="52.1707330" lon="0.1042919" version="10" timestamp="2020-08-25T10:40:14Z" changeset="89908908" uid="5173844" user="ndrw6"/>
  <node id="2736594885" lat="52.1707719" lon="0.1060513" version="4" timestamp="2019-06-03T21:35:26Z" changeset="70901433" uid="5173844" user="ndrw6"/>
  <node id="2736594886" lat="52.1712576" lon="0.1063796" version="2" timestamp="2019-06-03T21:35:26Z" changeset="70901433" uid="5173844" user="ndrw6"/>
  <node id="2736607473" lat="52.1703274" lon="0.1057120" version="5" timestamp="2020-08-25T10:40:14Z" changeset="89908908" uid="5173844" user="ndrw6"/>
  <node id="2736623591" lat="52.1699599" lon="0.1057231" version="7" timestamp="2022-04-15T07:51:01Z" changeset="119739770" uid="242345" user="confusedbuffalo">
    <tag k="addr:city" v="Cambridge"/>
    <tag k="addr:housenumber" v="37"/>
    <tag k="addr:postcode" v="CB2 9BS"/>
    <tag k="addr:street" v="Osprey Drive"/>
    <tag k="source" v="survey"/>
  </node>
  <node id="2736623610" lat="52.1701310" lon="0.1064695" version="5" timestamp="2020-08-25T10:40:14Z" changeset="89908908" uid="5173844" user="ndrw6"/>
  <node id="2736623615" lat="52.1700602" lon="0.1057829" version="7" timestamp="2022-04-15T07:51:01Z" changeset="119739770" uid="242345" user="confusedbuffalo">
    <tag k="addr:city" v="Cambridge"/>
    <tag k="addr:housenumber" v="33"/>
    <tag k="addr:postcode" v="CB2 9BS"/>
    <tag k="addr:street" v="Osprey Drive"/>
    <tag k="source" v="survey"/>
  </node>
  <node id="3658829037" lat="52.1648005" lon="0.1062575" version="4" timestamp="2024-07-10T18:43:53Z" changeset="153796799" uid="5008136" user="JayTurnr"/>
  <node id="3927239250" lat="52.1711555" lon="0.1063110" version="2" timestamp="2019-06-03T21:35:26Z" changeset="70901433" uid="5173844" user="ndrw6"/>
  <node id="4463681164" lat="52.1701925" lon="0.1039507" version="8" timestamp="2022-04-15T07:51:01Z" changeset="119739770" uid="242345" user="confusedbuffalo">
    <tag k="addr:city" v="Cambridge"/>
    <tag k="addr:housenumber" v="11"/>
    <tag k="addr:postcode" v="CB2 9EW"/>
    <tag k="addr:street" v="Renard Way"/>
    <tag k="source" v="survey"/>
  </node>
  <node id="4502751852" lat="52.1700173" lon="0.1044784" version="3" timestamp="2022-04-15T07:51:02Z" changeset="119739770" uid="242345" user="confusedbuffalo">
    <tag k="addr:city" v="Cambridge"/>
    <tag k="addr:housenumber" v="10"/>
    <tag k="addr:postcode" v="CB2 9EU"/>
    <tag k="addr:street" v="Berwick Place"/>
    <tag k="source" v="survey"/>
  </node>
  <node id="4502751854" lat="52.1701443" lon="0.1045852" version="3" timestamp="2022-04-15T07:51:02Z" changeset="119739770" uid="242345" user="confusedbuffalo">
    <tag k="addr:city" v="Cambridge"/>
    <tag k="addr:housenumber" v="6"/>
    <tag k="addr:postcode" v="CB2 9EU"/>
    <tag k="addr:street" v="Berwick Place"/>
    <tag k="source" v="survey"/>
  </node>
  <node id="4502788954" lat="52.1699626" lon="0.1052741" version="3" timestamp="2022-04-15T07:51:02Z" changeset="119739770" uid="242345" user="confusedbuffalo">
    <tag k="addr:city" v="Cambridge"/>
    <tag k="addr:housenumber" v="24"/>
    <tag k="addr:postcode" v="CB2 9BS"/>
    <tag k="addr:street" v="Osprey Drive"/>
    <tag k="source" v="survey"/>
  </node>
  <node id="4502788961" lat="52.1700801" lon="0.1053489" version="3" timestamp="2022-04-15T07:51:02Z" changeset="119739770" uid="242345" user="confusedbuffalo">
    <tag k="addr:city" v="Cambridge"/>
    <tag k="addr:housenumber" v="18"/>
    <tag k="addr:postcode" v="CB2 9BS"/>
    <tag k="addr:street" v="Osprey Drive"/>
    <tag k="source" v="survey"/>
  </node>
  <node id="4931034544" lat="52.1696052" lon="0.1030189" version="4" timestamp="2020-08-25T10:40:14Z" changeset="89908908" uid="5173844" user="ndrw6">
    <tag k="addr:city" v="Cambridge"/>
    <tag k="addr:housenumber" v="45"/>
    <tag k="addr:postcode" v="CB2 9EW"/>
    <tag k="addr:street" v="Renard Way"/>
  </node>
  <node id="4931034545" lat="52.1693821" lon="0.1026700" version="4" timestamp="2020-08-25T10:40:14Z" changeset="89908908" uid="5173844" user="ndrw6">
    <tag k="addr:city" v="Cambridge"/>
    <tag k="addr:housenumber" v="53"/>
    <tag k="addr:postcode" v="CB2 9EW"/>
    <tag k="addr:street" v="Renard Way"/>
  </node>
  <node id="4931034584" lat="52.1690936" lon="0.1033352" version="5" timestamp="2020-08-25T10:40:14Z" changeset="89908908" uid="5173844" user="ndrw6">
    <tag k="addr:city" v="Cambridge"/>
    <tag k="addr:housenumber" v="84"/>
    <tag k="addr:postcode" v="CB2 9FU"/>
    <tag k="addr:street" v="Osprey Drive"/>
  </node>
  <node id="4931034585" lat="52.1690166" lon="0.1032198" version="5" timestamp="2020-08-25T10:40:14Z" changeset="89908908" uid="5173844" user="ndrw6">
    <tag k="addr:city" v="Cambridge"/>
    <tag k="addr:housenumber" v="88"/>
    <tag k="addr:postcode" v="CB2 9FU"/>
    <tag k="addr:street" v="Osprey Drive"/>
  </node>
  <node id="4931034586" lat="52.1693321" lon="0.1036688" version="5" timestamp="2020-08-25T10:40:14Z" changeset="89908908" uid="5173844" user="ndrw6">
    <tag k="addr:city" v="Cambridge"/>
    <tag k="addr:housenumber" v="74"/>
    <tag k="addr:postcode" v="CB2 9FU"/>
    <tag k="addr:street" v="Osprey Drive"/>
  </node>
  <node id="4931034587" lat="52.1692660" lon="0.1035778" version="5" timestamp="2020-08-25T10:40:14Z" changeset="89908908" uid="5173844" user="ndrw6">
    <tag k="addr:city" v="Cambridge"/>
    <tag k="addr:housenumber" v="78"/>
    <tag k="addr:postcode" v="CB2 9FU"/>
    <tag k="addr:street" v="Osprey Drive"/>
  </node>
  <node id="4931034598" lat="52.1691469" lon="0.1039815" version="6" timestamp="2020-08-25T10:40:14Z" changeset="89908908" uid="5173844" user="ndrw6">
    <tag k="addr:city" v="Cambridge"/>
    <tag k="addr:housenumber" v="81"/>
    <tag k="addr:postcode" v="CB2 9FU"/>
    <tag k="addr:street" v="Osprey Drive"/>
  </node>
  <node id="4931034599" lat="52.1690665" lon="0.1038624" version="6" timestamp="2020-08-25T10:40:14Z" changeset="89908908" uid="5173844" user="ndrw6">
    <tag k="addr:city" v="Cambridge"/>
    <tag k="addr:housenumber" v="85"/>
    <tag k="addr:postcode" v="CB2 9FU"/>
    <tag k="addr:street" v="Osprey Drive"/>
  </node>
  <node id="5157023023" lat="52.1685701" lon="0.1023377" version="2" timestamp="2019-06-03T21:35:27Z" changeset="70901433" uid="5173844" user="ndrw6">
    <tag k="addr:city" v="Cambridge"/>
    <tag k="addr:housenumber" v="7"/>
    <tag k="addr:postcode" v="CB2 9FX"/>
    <tag k="addr:street" v="Kinsman Way"/>
  </node>
  <node id="5157023034" lat="52.1687722" lon="0.1026972" version="2" timestamp="2019-06-03T21:35:27Z" changeset="70901433" uid="5173844" user="ndrw6">
    <tag k="addr:city" v="Cambridge"/>
    <tag k="addr:housenumber" v="1"/>
    <tag k="addr:postcode" v="CB2 9FX"/>
    <tag k="addr:street" v="Kinsman Way"/>
  </node>
  <node id="5157045316" lat="52.1683728" lon="0.1023589" version="3" timestamp="2020-08-25T10:40:14Z" changeset="89908908" uid="5173844" user="ndrw6">
    <tag k="addr:city" v="Cambridge"/>
    <tag k="addr:housenumber" v="14"/>
    <tag k="addr:postcode" v="CB2 9FY"/>
    <tag k="addr:street" v="Mardler Close"/>
  </node>
  <node id="5157045318" lat="52.1683539" lon="0.1030864" version="3" timestamp="2020-08-25T10:40:14Z" changeset="89908908" uid="5173844" user="ndrw6">
    <tag k="addr:city" v="Cambridge"/>
    <tag k="addr:housenumber" v="2"/>
    <tag k="addr:postcode" v="CB2 9FY"/>
    <tag k="addr:street" v="Mardler Close"/>
  </node>
  <node id="6018451308" lat="52.1704864" lon="0.1049810" version="2" timestamp="2020-08-25T10:40:14Z" changeset="89908908" uid="5173844" user="ndrw6"/>
  <node id="6101230802" lat="52.1650491" lon="0.1057876" version="4" timestamp="2024-02-28T20:10:06Z" changeset="148027146" uid="5173844" user="ndrw6"/>
  <node id="6301443832" lat="52.1692873" lon="0.1042829" version="4" timestamp="2024-03-15T21:40:10Z" changeset="148709061" uid="1287673" user="sloerunner">
    <tag k="addr:housenumber" v="25-43"/>
    <tag k="addr:interpolation" v="odd"/>
    <tag k="addr:street" v="Dove Drive"/>
    <tag k="entrance" v="main"/>
  </node>
  <node id="8048985444" lat="52.1660753" lon="0.1062139" version="3" timestamp="2024-02-28T20:10:06Z" changeset="148027146" uid="5173844" user="ndrw6"/>
  <node id="8048985455" lat="52.1654779" lon="0.1059684" version="3" timestamp="2024-02-28T20:10:06Z" changeset="148027146" uid="5173844" user="ndrw6"/>
  <node id="10856079023" lat="52.1693740" lon="0.1020328" version="1" timestamp="2023-04-29T15:22:19Z" changeset="135508079" uid="1102246" user="jtn20">
    <tag k="addr:city" v="Cambridge"/>
    <tag k="addr:housename" v="Rupert Brooke House"/>
    <tag k="addr:housenumber" v="114-138"/>
    <tag k="addr:postcode" v="CB2 9FZ"/>
    <tag k="addr:street" v="Renard Way"/>
    <tag k="entrance" v="yes"/>
  </node>
  <node id="11142524775" lat="52.1678410" lon="0.1033429" version="1" timestamp="2023-08-24T23:13:45Z" changeset="140345573" uid="1102246" user="jtn20">
    <tag k="addr:city" v="Cambridge"/>
    <tag k="addr:housenumber" v="125-143"/>
    <tag k="addr:interpolation" v="odd"/>
    <tag k="addr:postcode" v="CB2 9FU"/>
    <tag k="addr:street" v="Osprey Drive"/>
    <tag k="entrance" v="yes"/>
  </node>
  <node id="11142524776" lat="52.1671967" lon="0.1029927" version="2" timestamp="2024-02-28T20:10:06Z" changeset="148027146" uid="5173844" user="ndrw6">
    <tag k="addr:city" v="Cambridge"/>
    <tag k="addr:housenumber" v="148-162"/>
    <tag k="addr:interpolation" v="even"/>
    <tag k="addr:postcode" v="CB2 9FU"/>
    <tag k="addr:street" v="Osprey Drive"/>
    <tag k="entrance" v="yes"/>
  </node>
  <node id="11142524778" lat="52.1664831" lon="0.1033332" version="2" timestamp="2024-02-28T20:10:06Z" changeset="148027146" uid="5173844" user="ndrw6">
    <tag k="addr:city" v="Cambridge"/>
    <tag k="addr:housenumber" v="176-188"/>
    <tag k="addr:interpolation" v="even"/>
    <tag k="addr:street" v="Osprey Drive"/>
    <tag k="entrance" v="yes"/>
  </node>
  <node id="11142524781" lat="52.1660653" lon="0.1036872" version="2" timestamp="2024-02-28T20:10:06Z" changeset="148027146" uid="5173844" user="ndrw6">
    <tag k="addr:city" v="Cambridge"/>
    <tag k="addr:housenumber" v="226-238"/>
    <tag k="addr:interpolation" v="even"/>
    <tag k="addr:street" v="Osprey Drive"/>
    <tag k="entrance" v="yes"/>
  </node>
  <node id="11142524782" lat="52.1656245" lon="0.1042850" version="2" timestamp="2024-02-28T20:10:06Z" changeset="148027146" uid="5173844" user="ndrw6">
    <tag k="addr:city" v="Cambridge"/>
    <tag k="addr:housenumber" v="248-262"/>
    <tag k="addr:interpolation" v="even"/>
    <tag k="addr:postcode" v="CB2 9GS"/>
    <tag k="addr:street" v="Osprey Drive"/>
    <tag k="entrance" v="yes"/>
  </node>
  <node id="11142524784" lat="52.1653548" lon="0.1048859" version="2" timestamp="2024-02-28T20:10:06Z" changeset="148027146" uid="5173844" user="ndrw6">
    <tag k="addr:city" v="Cambridge"/>
    <tag k="addr:housenumber" v="290-304"/>
    <tag k="addr:interpolation" v="even"/>
    <tag k="addr:street" v="Osprey Drive"/>
    <tag k="entrance" v="yes"/>
  </node>
  <node id="11142524786" lat="52.1651869" lon="0.1052525" version="2" timestamp="2024-02-28T20:10:06Z" changeset="148027146" uid="5173844" user="ndrw6">
    <tag k="addr:city" v="Cambridge"/>
    <tag k="addr:housenumber" v="306-314"/>
    <tag k="addr:interpolation" v="even"/>
    <tag k="addr:street" v="Osprey Drive"/>
    <tag k="entrance" v="yes"/>
  </node>
  <node id="11735179667" lat="52.1691864" lon="0.1048075" version="1" timestamp="2024-03-15T21:40:10Z" changeset="148709061" uid="1287673" user="sloerunner">
    <tag k="addr:city" v="Cambridge"/>
    <tag k="addr:housenumber" v="77"/>
    <tag k="addr:postcode" v="CB2 9BS"/>
    <tag k="addr:street" v="Osprey Drive"/>
    <tag k="amenity" v="cafe"/>
    <tag k="name" v="La Reina CafÃ©"/>
  </node>
  <node id="11735179668" lat="52.1693035" lon="0.1045490" version="1" timestamp="2024-03-15T21:40:10Z" changeset="148709061" uid="1287673" user="sloerunner">
    <tag k="addr:city" v="Cambridge"/>
    <tag k="addr:housenumber" v="73"/>
    <tag k="addr:postcode" v="CB2 9BS"/>
    <tag k="addr:street" v="Osprey Drive"/>
    <tag k="name" v="Frankie's Salon"/>
    <tag k="shop" v="hairdresser"/>
  </node>
  <way id="4079943" version="16" timestamp="2024-12-29T19:44:22Z" changeset="160765712" uid="5229644" user="Nathan_A_RF">
    <nd ref="328564"/>
    <nd ref="12461456858"/>
    <nd ref="1779133520"/>
    <nd ref="1779133518"/>
    <nd ref="25526762"/>
    <tag k="destination" v="Royston;Cambridge"/>
    <tag k="destination:ref" v="A10;A1309"/>
    <tag k="highway" v="motorway_link"/>
    <tag k="lanes" v="1"/>
    <tag k="lit" v="no"/>
    <tag k="maxheight" v="default"/>
    <tag k="maxspeed" v="70 mph"/>
    <tag k="maxspeed:type" v="GB:motorway"/>
    <tag k="national_highways:area" v="8"/>
    <tag k="oneway" v="yes"/>
    <tag k="operator" v="National Highways"/>
    <tag k="operator:wikidata" v="Q5760006"/>
    <tag k="ref" v="M11"/>
    <tag k="surface" v="asphalt"/>
  </way>
  <way id="4280046" version="26" timestamp="2024-12-29T19:44:22Z" changeset="160765712" uid="5229644" user="Nathan_A_RF">
    <nd ref="36743550"/>
    <nd ref="25543189"/>
    <nd ref="671221037"/>
    <nd ref="328563"/>
    <nd ref="671221038"/>
    <nd ref="671221040"/>
    <nd ref="12461456859"/>
    <nd ref="328564"/>
    <tag k="carriageway_ref" v="B"/>
    <tag k="description" v="Cambridge Western Bypass"/>
    <tag k="highway" v="motorway"/>
    <tag k="lanes" v="2"/>
    <tag k="lit" v="no"/>
    <tag k="maxspeed" v="70 mph"/>
    <tag k="maxspeed:type" v="GB:motorway"/>
    <tag k="national_highways:area" v="8"/>
    <tag k="oneway" v="yes"/>
    <tag k="operator" v="National Highways"/>
    <tag k="operator:wikidata" v="Q5760006"/>
    <tag k="ref" v="M11"/>
    <tag k="source:lit" v="2010-12-07"/>
    <tag k="source:ref" v="local knowledge"/>
    <tag k="surface" v="asphalt"/>
  </way>
  <way id="5228992" version="18" timestamp="2022-10-30T20:02:11Z" changeset="128261539" uid="3560" user="Firefishy">
    <nd ref="36743538"/>
    <nd ref="36743550"/>
    <tag k="bridge" v="yes"/>
    <tag k="carriageway_ref" v="B"/>
    <tag k="highway" v="motorway"/>
    <tag k="lanes" v="2"/>
    <tag k="layer" v="1"/>
    <tag k="lit" v="no"/>
    <tag k="maxspeed" v="70 mph"/>
    <tag k="national_highways:area" v="8"/>
    <tag k="oneway" v="yes"/>
    <tag k="operator" v="National Highways"/>
    <tag k="operator:wikidata" v="Q5760006"/>
    <tag k="ref" v="M11"/>
    <tag k="source:lit" v="2010-12-07"/>
    <tag k="source:ref" v="local knowledge"/>
    <tag k="surface" v="asphalt"/>
  </way>
  <way id="53758194" version="19" timestamp="2024-12-29T19:44:22Z" changeset="160765712" uid="5229644" user="Nathan_A_RF">
    <nd ref="328564"/>
    <nd ref="1779133519"/>
    <nd ref="1779133523"/>
    <nd ref="671220847"/>
    <nd ref="671220848"/>
    <nd ref="328560"/>
    <nd ref="678634250"/>
    <nd ref="678634255"/>
    <nd ref="678634259"/>
    <nd ref="678634263"/>
    <nd ref="678634266"/>
    <nd ref="678634269"/>
    <tag k="carriageway_ref" v="B"/>
    <tag k="description" v="Cambridge Western Bypass"/>
    <tag k="highway" v="motorway"/>
    <tag k="lanes" v="2"/>
    <tag k="lit" v="no"/>
    <tag k="maxheight" v="default"/>
    <tag k="maxspeed" v="70 mph"/>
    <tag k="national_highways:area" v="8"/>
    <tag k="oneway" v="yes"/>
    <tag k="operator" v="National Highways"/>
    <tag k="operator:wikidata" v="Q5760006"/>
    <tag k="ref" v="M11"/>
    <tag k="source:ref" v="local knowledge"/>
    <tag k="surface" v="asphalt"/>
  </way>
  <way id="133489287" version="4" timestamp="2015-06-05T14:51:41Z" changeset="31747802" uid="3582" user="davidearl">
    <nd ref="1469235853"/>
    <nd ref="2736623598"/>
    <nd ref="3574846349"/>
    <nd ref="3574846345"/>
    <tag k="highway" v="residential"/>
    <tag k="name" v="Kestrel Rise"/>
  </way>
  <way id="260596164" version="14" timestamp="2023-11-05T13:15:10Z" changeset="143649432" uid="242345" user="confusedbuffalo">
    <nd ref="5865167374"/>
    <nd ref="4463681167"/>
    <nd ref="2661217680"/>
    <nd ref="5865167375"/>
    <nd ref="2661217683"/>
    <nd ref="7824510062"/>
    <nd ref="5865167376"/>
    <nd ref="5865167377"/>
    <nd ref="5865167378"/>
    <nd ref="3574846337"/>
    <nd ref="2737144167"/>
    <nd ref="4931066560"/>
    <nd ref="4931066559"/>
    <nd ref="3514075331"/>
    <nd ref="5865167373"/>
    <nd ref="5865167374"/>
    <tag k="addr:city" v="Cambridge"/>
    <tag k="addr:postcode" v="CB2 9AY"/>
    <tag k="addr:street" v="Kestrel Rise"/>
    <tag k="amenity" v="school"/>
    <tag k="capacity" v="270"/>
    <tag k="isced:level" v="0;1"/>
    <tag k="max_age" v="11"/>
    <tag k="min_age" v="4"/>
    <tag k="name" v="Trumpington Meadows Primary School"/>
    <tag k="phone" v="+44 1223 840299"/>
    <tag k="ref:GB:uprn" v="10090708584"/>
    <tag k="ref:edubase" v="136802"/>
    <tag k="ref:edubase:group" v="1613"/>
    <tag k="religion" v="none"/>
    <tag k="school:boarding" v="no"/>
    <tag k="school:federation:name" v="The Trumpington Federation"/>
    <tag k="school:gender" v="mixed"/>
    <tag k="school:selective" v="no"/>
    <tag k="school:trust" v="no"/>
    <tag k="website" v="https://www.trumpingtonfederation.co.uk/"/>
    <tag k="wikidata" v="Q66229214"/>
  </way>
  <way id="268314859" version="4" timestamp="2022-04-15T07:51:06Z" changeset="119739770" uid="242345" user="confusedbuffalo">
    <nd ref="2736623622"/>
    <nd ref="2736623614"/>
    <nd ref="2736623618"/>
    <nd ref="2736623594"/>
    <nd ref="2736623622"/>
    <tag k="addr:city" v="Cambridge"/>
    <tag k="addr:housenumber" v="39"/>
    <tag k="addr:postcode" v="CB2 9BS"/>
    <tag k="addr:street" v="Osprey Drive"/>
    <tag k="building" v="residential"/>
    <tag k="source" v="survey"/>
  </way>
  <way id="268314860" version="4" timestamp="2022-04-15T07:51:06Z" changeset="119739770" uid="242345" user="confusedbuffalo">
    <nd ref="2736623622"/>
    <nd ref="2736623624"/>
    <nd ref="2736623626"/>
    <nd ref="2736623594"/>
    <nd ref="2736623622"/>
    <tag k="addr:city" v="Cambridge"/>
    <tag k="addr:housenumber" v="41"/>
    <tag k="addr:postcode" v="CB2 9BS"/>
    <tag k="addr:street" v="Osprey Drive"/>
    <tag k="building" v="residential"/>
    <tag k="source" v="survey"/>
  </way>
  <way id="268314861" version="6" timestamp="2022-08-23T11:38:18Z" changeset="125267143" uid="1287673" user="sloerunner">
    <nd ref="2736623598"/>
    <nd ref="5936640385"/>
    <nd ref="3574846353"/>
    <nd ref="9972116813"/>
    <nd ref="6519080037"/>
    <nd ref="2736623610"/>
    <tag k="highway" v="residential"/>
    <tag k="name" v="Kestrel Rise"/>
  </way>
  <way id="268314862" version="4" timestamp="2022-04-15T07:51:06Z" changeset="119739770" uid="242345" user="confusedbuffalo">
    <nd ref="2736623620"/>
    <nd ref="2736623589"/>
    <nd ref="2736623596"/>
    <nd ref="2736623600"/>
    <nd ref="2736623620"/>
    <tag k="addr:city" v="Cambridge"/>
    <tag k="addr:housenumber" v="14-24"/>
    <tag k="addr:interpolation" v="all"/>
    <tag k="addr:postcode" v="CB2 9BP"/>
    <tag k="addr:street" v="Kestrel Rise"/>
    <tag k="building" v="residential"/>
  </way>
  <way id="268314864" version="5" timestamp="2022-04-15T07:51:06Z" changeset="119739770" uid="242345" user="confusedbuffalo">
    <nd ref="2736623602"/>
    <nd ref="2737144168"/>
    <nd ref="2736623585"/>
    <nd ref="2736623587"/>
    <nd ref="2736623602"/>
    <tag k="addr:city" v="Cambridge"/>
    <tag k="addr:housenumber" v="6-13"/>
    <tag k="addr:interpolation" v="all"/>
    <tag k="addr:postcode" v="CB2 9BP"/>
    <tag k="addr:street" v="Kestrel Rise"/>
    <tag k="building" v="residential"/>
  </way>
  <way id="298300581" version="2" timestamp="2022-04-15T07:51:06Z" changeset="119739770" uid="242345" user="confusedbuffalo">
    <nd ref="3022146324"/>
    <nd ref="3022146321"/>
    <nd ref="3022146314"/>
    <nd ref="3022146320"/>
    <nd ref="3022146324"/>
    <tag k="addr:city" v="Cambridge"/>
    <tag k="addr:housenumber" v="2"/>
    <tag k="addr:postcode" v="CB2 9BP"/>
    <tag k="addr:street" v="Kestrel Rise"/>
    <tag k="building" v="residential"/>
  </way>
  <way id="298300583" version="2" timestamp="2022-04-15T07:51:06Z" changeset="119739770" uid="242345" user="confusedbuffalo">
    <nd ref="3022146318"/>
    <nd ref="3022146312"/>
    <nd ref="3022146313"/>
    <nd ref="3022146319"/>
    <nd ref="3022146318"/>
    <tag k="addr:city" v="Cambridge"/>
    <tag k="addr:housenumber" v="5"/>
    <tag k="addr:postcode" v="CB2 9BP"/>
    <tag k="addr:street" v="Kestrel Rise"/>
    <tag k="building" v="residential"/>
  </way>
  <way id="298300584" version="2" timestamp="2022-04-15T07:51:06Z" changeset="119739770" uid="242345" user="confusedbuffalo">
    <nd ref="3022146315"/>
    <nd ref="3022146316"/>
    <nd ref="3022146311"/>
    <nd ref="3022146317"/>
    <nd ref="3022146315"/>
    <tag k="addr:city" v="Cambridge"/>
    <tag k="addr:housenumber" v="3"/>
    <tag k="addr:postcode" v="CB2 9BP"/>
    <tag k="addr:street" v="Kestrel Rise"/>
    <tag k="building" v="residential"/>
  </way>
  <way id="298300585" version="2" timestamp="2022-04-15T07:51:06Z" changeset="119739770" uid="242345" user="confusedbuffalo">
    <nd ref="3022146316"/>
    <nd ref="3022146318"/>
    <nd ref="3022146319"/>
    <nd ref="3022146311"/>
    <nd ref="3022146316"/>
    <tag k="addr:city" v="Cambridge"/>
    <tag k="addr:housenumber" v="4"/>
    <tag k="addr:postcode" v="CB2 9BP"/>
    <tag k="addr:street" v="Kestrel Rise"/>
    <tag k="building" v="residential"/>
  </way>
  <way id="449409886" version="7" timestamp="2021-03-29T08:36:17Z" changeset="101906263" uid="1287673" user="sloerunner">
    <nd ref="6018451308"/>
    <nd ref="6519080045"/>
    <nd ref="8570989966"/>
    <nd ref="6519080047"/>
    <nd ref="6519080051"/>
    <tag k="highway" v="residential"/>
    <tag k="name" v="Berwick Place"/>
    <tag k="source" v="survey"/>
  </way>
  <way id="449410850" version="7" timestamp="2021-03-17T11:32:38Z" changeset="101185163" uid="1287673" user="sloerunner">
    <nd ref="697159155"/>
    <nd ref="6519080053"/>
    <nd ref="7818317387"/>
    <nd ref="8528188777"/>
    <nd ref="4919087138"/>
    <nd ref="4919087139"/>
    <tag k="highway" v="residential"/>
    <tag k="name" v="Renard Way"/>
    <tag k="source" v="survey"/>
  </way>
  <way id="453555806" version="2" timestamp="2022-04-15T07:51:06Z" changeset="119739770" uid="242345" user="confusedbuffalo">
    <nd ref="4502751810"/>
    <nd ref="4502751835"/>
    <nd ref="4502751809"/>
    <nd ref="4502751808"/>
    <nd ref="4502751810"/>
    <tag k="addr:city" v="Cambridge"/>
    <tag k="addr:housenumber" v="2"/>
    <tag k="addr:postcode" v="CB2 9EU"/>
    <tag k="addr:street" v="Berwick Place"/>
    <tag k="building" v="residential"/>
    <tag k="source" v="survey"/>
  </way>
  <way id="453555807" version="2" timestamp="2022-04-15T07:51:06Z" changeset="119739770" uid="242345" user="confusedbuffalo">
    <nd ref="4502751835"/>
    <nd ref="4502751837"/>
    <nd ref="4502751836"/>
    <nd ref="4502751809"/>
    <nd ref="4502751835"/>
    <tag k="addr:city" v="Cambridge"/>
    <tag k="addr:housenumber" v="4"/>
    <tag k="addr:postcode" v="CB2 9EU"/>
    <tag k="addr:street" v="Berwick Place"/>
    <tag k="building" v="residential"/>
    <tag k="source" v="survey"/>
  </way>
  <way id="453557407" version="2" timestamp="2022-04-15T07:51:06Z" changeset="119739770" uid="242345" user="confusedbuffalo">
    <nd ref="4502762612"/>
    <nd ref="4502762605"/>
    <nd ref="4502762621"/>
    <nd ref="4502762611"/>
    <nd ref="4502762612"/>
    <tag k="addr:city" v="Cambridge"/>
    <tag k="addr:housenumber" v="25"/>
    <tag k="addr:postcode" v="CB2 9EW"/>
    <tag k="addr:street" v="Renard Way"/>
    <tag k="building" v="residential"/>
    <tag k="source" v="survey"/>
  </way>
  <way id="453557408" version="2" timestamp="2022-04-15T07:51:06Z" changeset="119739770" uid="242345" user="confusedbuffalo">
    <nd ref="4502762632"/>
    <nd ref="4502762623"/>
    <nd ref="4502762620"/>
    <nd ref="4502762622"/>
    <nd ref="4502762632"/>
    <tag k="addr:city" v="Cambridge"/>
    <tag k="addr:housenumber" v="23"/>
    <tag k="addr:postcode" v="CB2 9EW"/>
    <tag k="addr:street" v="Renard Way"/>
    <tag k="building" v="residential"/>
    <tag k="source" v="survey"/>
  </way>
  <way id="453557409" version="2" timestamp="2022-04-15T07:51:06Z" changeset="119739770" uid="242345" user="confusedbuffalo">
    <nd ref="4502762624"/>
    <nd ref="4502762616"/>
    <nd ref="4502762613"/>
    <nd ref="4502762626"/>
    <nd ref="4502762624"/>
    <tag k="addr:city" v="Cambridge"/>
    <tag k="addr:housenumber" v="3"/>
    <tag k="addr:postcode" v="CB2 9EU"/>
    <tag k="addr:street" v="Berwick Place"/>
    <tag k="building" v="residential"/>
    <tag k="source" v="survey"/>
  </way>
  <way id="453557410" version="2" timestamp="2022-04-15T07:51:06Z" changeset="119739770" uid="242345" user="confusedbuffalo">
    <nd ref="4502762608"/>
    <nd ref="4502762607"/>
    <nd ref="4502762609"/>
    <nd ref="4502762610"/>
    <nd ref="4502762608"/>
    <tag k="addr:city" v="Cambridge"/>
    <tag k="addr:housenumber" v="17"/>
    <tag k="addr:postcode" v="CB2 9EW"/>
    <tag k="addr:street" v="Renard Way"/>
    <tag k="building" v="residential"/>
    <tag k="source" v="survey"/>
  </way>
  <way id="453557411" version="2" timestamp="2022-04-15T07:51:06Z" changeset="119739770" uid="242345" user="confusedbuffalo">
    <nd ref="4502762614"/>
    <nd ref="4502762617"/>
    <nd ref="4502762615"/>
    <nd ref="4502762603"/>
    <nd ref="4502762614"/>
    <tag k="addr:city" v="Cambridge"/>
    <tag k="addr:housenumber" v="13"/>
    <tag k="addr:postcode" v="CB2 9EW"/>
    <tag k="addr:street" v="Renard Way"/>
    <tag k="building" v="residential"/>
    <tag k="source" v="survey"/>
  </way>
  <way id="453557412" version="2" timestamp="2022-04-15T07:51:06Z" changeset="119739770" uid="242345" user="confusedbuffalo">
    <nd ref="4502762611"/>
    <nd ref="4502762621"/>
    <nd ref="4502762618"/>
    <nd ref="4502762604"/>
    <nd ref="4502762611"/>
    <tag k="addr:city" v="Cambridge"/>
    <tag k="addr:housenumber" v="27"/>
    <tag k="addr:postcode" v="CB2 9EW"/>
    <tag k="addr:street" v="Renard Way"/>
    <tag k="building" v="residential"/>
    <tag k="source" v="survey"/>
  </way>
  <way id="453557413" version="2" timestamp="2022-04-15T07:51:06Z" changeset="119739770" uid="242345" user="confusedbuffalo">
    <nd ref="4502762610"/>
    <nd ref="4502762609"/>
    <nd ref="4502762629"/>
    <nd ref="4502762627"/>
    <nd ref="4502762610"/>
    <tag k="addr:city" v="Cambridge"/>
    <tag k="addr:housenumber" v="19"/>
    <tag k="addr:postcode" v="CB2 9EW"/>
    <tag k="addr:street" v="Renard Way"/>
    <tag k="building" v="residential"/>
    <tag k="source" v="survey"/>
  </way>
  <way id="453557414" version="2" timestamp="2022-04-15T07:51:06Z" changeset="119739770" uid="242345" user="confusedbuffalo">
    <nd ref="4502762628"/>
    <nd ref="4502762630"/>
    <nd ref="4502762623"/>
    <nd ref="4502762632"/>
    <nd ref="4502762628"/>
    <tag k="addr:city" v="Cambridge"/>
    <tag k="addr:housenumber" v="21"/>
    <tag k="addr:postcode" v="CB2 9EW"/>
    <tag k="addr:street" v="Renard Way"/>
    <tag k="building" v="residential"/>
    <tag k="source" v="survey"/>
  </way>
  <way id="453557415" version="2" timestamp="2022-04-15T07:51:06Z" changeset="119739770" uid="242345" user="confusedbuffalo">
    <nd ref="4502762603"/>
    <nd ref="4502762615"/>
    <nd ref="4502762619"/>
    <nd ref="4502762606"/>
    <nd ref="4502762603"/>
    <tag k="addr:city" v="Cambridge"/>
    <tag k="addr:housenumber" v="15"/>
    <tag k="addr:postcode" v="CB2 9EW"/>
    <tag k="addr:street" v="Renard Way"/>
    <tag k="building" v="residential"/>
    <tag k="source" v="survey"/>
  </way>
  <way id="453557416" version="2" timestamp="2022-04-15T07:51:06Z" changeset="119739770" uid="242345" user="confusedbuffalo">
    <nd ref="4502762631"/>
    <nd ref="4502762624"/>
    <nd ref="4502762626"/>
    <nd ref="4502762625"/>
    <nd ref="4502762631"/>
    <tag k="addr:city" v="Cambridge"/>
    <tag k="addr:housenumber" v="1"/>
    <tag k="addr:postcode" v="CB2 9EU"/>
    <tag k="addr:street" v="Berwick Place"/>
    <tag k="building" v="residential"/>
    <tag k="source" v="survey"/>
  </way>
  <way id="453561026" version="2" timestamp="2022-04-15T07:51:06Z" changeset="119739770" uid="242345" user="confusedbuffalo">
    <nd ref="4502788960"/>
    <nd ref="4502788958"/>
    <nd ref="4502788959"/>
    <nd ref="4502788963"/>
    <nd ref="4502788960"/>
    <tag k="addr:city" v="Cambridge"/>
    <tag k="addr:housenumber" v="16"/>
    <tag k="addr:postcode" v="CB2 9BS"/>
    <tag k="addr:street" v="Osprey Drive"/>
    <tag k="building" v="residential"/>
    <tag k="source" v="survey"/>
  </way>
  <way id="500805696" version="6" timestamp="2021-03-23T12:35:18Z" changeset="101574772" uid="1287673" user="sloerunner">
    <nd ref="4919087139"/>
    <nd ref="8553750569"/>
    <nd ref="4919087141"/>
    <nd ref="4917801503"/>
    <nd ref="7798498642"/>
    <nd ref="4917801501"/>
    <tag k="highway" v="residential"/>
    <tag k="maxspeed" v="20 mph"/>
    <tag k="name" v="Renard Way"/>
  </way>
  <way id="500805697" version="3" timestamp="2020-08-25T10:40:14Z" changeset="89908908" uid="5173844" user="ndrw6">
    <nd ref="4917801503"/>
    <nd ref="4919087144"/>
    <nd ref="4917801506"/>
    <nd ref="7843015263"/>
    <nd ref="4917801504"/>
    <tag k="highway" v="residential"/>
    <tag k="maxspeed" v="20 mph"/>
    <tag k="name" v="Falcon Road"/>
  </way>
  <way id="500805698" version="13" timestamp="2024-02-28T20:10:06Z" changeset="148027146" uid="5173844" user="ndrw6">
    <nd ref="6101230799"/>
    <nd ref="9200851534"/>
    <nd ref="9447611443"/>
    <nd ref="8821845648"/>
    <nd ref="6101230798"/>
    <nd ref="6101230796"/>
    <tag k="highway" v="residential"/>
    <tag k="maxspeed" v="30 mph"/>
    <tag k="name" v="Osprey Drive"/>
    <tag k="oneway" v="no"/>
  </way>
  <way id="500805699" version="4" timestamp="2020-08-25T10:40:14Z" changeset="89908908" uid="5173844" user="ndrw6">
    <nd ref="4917801506"/>
    <nd ref="6519080042"/>
    <nd ref="7843015271"/>
    <nd ref="4917801507"/>
    <nd ref="7839910433"/>
    <nd ref="7821040556"/>
    <nd ref="4917801501"/>
    <tag k="highway" v="residential"/>
    <tag k="maxspeed" v="20 mph"/>
    <tag k="name" v="Kinsman Way"/>
  </way>
  <way id="500806079" version="4" timestamp="2020-08-17T19:38:49Z" changeset="89535908" uid="11580939" user="mk270">
    <nd ref="7821040553"/>
    <nd ref="4917804651"/>
    <tag k="highway" v="residential"/>
  </way>
  <way id="500806080" version="3" timestamp="2020-08-17T19:33:51Z" changeset="89535727" uid="11580939" user="mk270">
    <nd ref="4917804652"/>
    <nd ref="4917804653"/>
    <nd ref="7794800526"/>
    <nd ref="7821047612"/>
    <nd ref="7794800531"/>
    <nd ref="4917804654"/>
    <tag k="highway" v="residential"/>
    <tag k="name" v="Dove Drive"/>
  </way>
  <way id="500991134" version="1" timestamp="2017-06-16T14:01:40Z" changeset="49592653" uid="6174177" user="monospaced">
    <nd ref="4919087141"/>
    <nd ref="4919087143"/>
    <nd ref="4919087142"/>
    <tag k="highway" v="residential"/>
  </way>
  <way id="500991135" version="1" timestamp="2017-06-16T14:01:40Z" changeset="49592653" uid="6174177" user="monospaced">
    <nd ref="4919087143"/>
    <nd ref="4919087144"/>
    <tag k="highway" v="residential"/>
  </way>
  <way id="500991136" version="2" timestamp="2017-06-22T14:59:18Z" changeset="49749208" uid="6174177" user="monospaced">
    <nd ref="4919087145"/>
    <nd ref="4919087146"/>
    <nd ref="4919087147"/>
    <nd ref="4919087148"/>
    <nd ref="4919087145"/>
    <tag k="addr:city" v="Cambridge"/>
    <tag k="addr:housenumber" v="43"/>
    <tag k="addr:postcode" v="CB2 9EW"/>
    <tag k="addr:street" v="Renard Way"/>
    <tag k="building" v="semidetached_house"/>
  </way>
  <way id="500991137" version="2" timestamp="2017-06-22T14:59:18Z" changeset="49749208" uid="6174177" user="monospaced">
    <nd ref="4919087145"/>
    <nd ref="4919087149"/>
    <nd ref="4919087150"/>
    <nd ref="4919087146"/>
    <nd ref="4919087145"/>
    <tag k="addr:city" v="Cambridge"/>
    <tag k="addr:housenumber" v="41"/>
    <tag k="addr:postcode" v="CB2 9EW"/>
    <tag k="addr:street" v="Renard Way"/>
    <tag k="building" v="semidetached_house"/>
  </way>
  <way id="500991138" version="2" timestamp="2017-06-22T14:59:18Z" changeset="49749208" uid="6174177" user="monospaced">
    <nd ref="4919087151"/>
    <nd ref="4919087152"/>
    <nd ref="4919087153"/>
    <nd ref="4919087154"/>
    <nd ref="4919087151"/>
    <tag k="addr:city" v="Cambridge"/>
    <tag k="addr:housenumber" v="39"/>
    <tag k="addr:postcode" v="CB2 9EW"/>
    <tag k="addr:street" v="Renard Way"/>
    <tag k="building" v="semidetached_house"/>
  </way>
  <way id="500991139" version="2" timestamp="2017-06-22T14:59:18Z" changeset="49749208" uid="6174177" user="monospaced">
    <nd ref="4919087154"/>
    <nd ref="4919087155"/>
    <nd ref="4919087156"/>
    <nd ref="4919087153"/>
    <nd ref="4919087154"/>
    <tag k="addr:city" v="Cambridge"/>
    <tag k="addr:housenumber" v="37"/>
    <tag k="addr:postcode" v="CB2 9EW"/>
    <tag k="addr:street" v="Renard Way"/>
    <tag k="building" v="semidetached_house"/>
  </way>
  <way id="500991140" version="2" timestamp="2017-06-22T14:59:18Z" changeset="49749208" uid="6174177" user="monospaced">
    <nd ref="4919087157"/>
    <nd ref="4919087158"/>
    <nd ref="4919087159"/>
    <nd ref="4919087160"/>
    <nd ref="4919087157"/>
    <tag k="addr:city" v="Cambridge"/>
    <tag k="addr:housenumber" v="35"/>
    <tag k="addr:postcode" v="CB2 9EW"/>
    <tag k="addr:street" v="Renard Way"/>
    <tag k="building" v="semidetached_house"/>
  </way>
  <way id="500991141" version="2" timestamp="2017-06-22T14:59:18Z" changeset="49749208" uid="6174177" user="monospaced">
    <nd ref="4919087160"/>
    <nd ref="4919087161"/>
    <nd ref="4919087162"/>
    <nd ref="4919087159"/>
    <nd ref="4919087160"/>
    <tag k="addr:city" v="Cambridge"/>
    <tag k="addr:housenumber" v="33"/>
    <tag k="addr:postcode" v="CB2 9EW"/>
    <tag k="addr:street" v="Renard Way"/>
    <tag k="building" v="semidetached_house"/>
  </way>
  <way id="500991142" version="2" timestamp="2017-06-22T14:59:18Z" changeset="49749208" uid="6174177" user="monospaced">
    <nd ref="4919087163"/>
    <nd ref="4919087164"/>
    <nd ref="4919087165"/>
    <nd ref="4919087166"/>
    <nd ref="4919087163"/>
    <tag k="addr:city" v="Cambridge"/>
    <tag k="addr:housenumber" v="31"/>
    <tag k="addr:postcode" v="CB2 9EW"/>
    <tag k="addr:street" v="Renard Way"/>
    <tag k="building" v="semidetached_house"/>
  </way>
  <way id="500991143" version="2" timestamp="2017-06-22T14:59:18Z" changeset="49749208" uid="6174177" user="monospaced">
    <nd ref="4919087166"/>
    <nd ref="4919087167"/>
    <nd ref="4919087168"/>
    <nd ref="4919087165"/>
    <nd ref="4919087166"/>
    <tag k="addr:city" v="Cambridge"/>
    <tag k="addr:housenumber" v="29"/>
    <tag k="addr:postcode" v="CB2 9EW"/>
    <tag k="addr:street" v="Renard Way"/>
    <tag k="building" v="semidetached_house"/>
  </way>
  <way id="502718595" version="4" timestamp="2022-04-15T07:51:06Z" changeset="119739770" uid="242345" user="confusedbuffalo">
    <nd ref="4931034546"/>
    <nd ref="4931034547"/>
    <nd ref="4931034548"/>
    <nd ref="4931034549"/>
    <nd ref="4931034546"/>
    <tag k="addr:city" v="Cambridge"/>
    <tag k="addr:housenumber" v="8"/>
    <tag k="addr:postcode" v="CB2 9FR"/>
    <tag k="addr:street" v="Falcon Road"/>
    <tag k="building" v="residential"/>
    <tag k="source" v="survey"/>
  </way>
  <way id="502718597" version="4" timestamp="2022-04-15T07:51:06Z" changeset="119739770" uid="242345" user="confusedbuffalo">
    <nd ref="4931034554"/>
    <nd ref="4931034555"/>
    <nd ref="4931034556"/>
    <nd ref="4931034557"/>
    <nd ref="4931034554"/>
    <tag k="addr:city" v="Cambridge"/>
    <tag k="addr:housenumber" v="10"/>
    <tag k="addr:postcode" v="CB2 9FR"/>
    <tag k="addr:street" v="Falcon Road"/>
    <tag k="building" v="residential"/>
    <tag k="source" v="survey"/>
  </way>
  <way id="502718598" version="4" timestamp="2022-04-15T07:51:06Z" changeset="119739770" uid="242345" user="confusedbuffalo">
    <nd ref="4931034558"/>
    <nd ref="4931034559"/>
    <nd ref="4931034560"/>
    <nd ref="4931034561"/>
    <nd ref="4931034558"/>
    <tag k="addr:city" v="Cambridge"/>
    <tag k="addr:housenumber" v="6"/>
    <tag k="addr:postcode" v="CB2 9FR"/>
    <tag k="addr:street" v="Falcon Road"/>
    <tag k="building" v="residential"/>
    <tag k="source" v="survey"/>
  </way>
  <way id="502718599" version="4" timestamp="2022-04-15T07:51:06Z" changeset="119739770" uid="242345" user="confusedbuffalo">
    <nd ref="4931034562"/>
    <nd ref="4931034563"/>
    <nd ref="4931034564"/>
    <nd ref="4931034565"/>
    <nd ref="4931034562"/>
    <tag k="addr:city" v="Cambridge"/>
    <tag k="addr:housenumber" v="4"/>
    <tag k="addr:postcode" v="CB2 9FR"/>
    <tag k="addr:street" v="Falcon Road"/>
    <tag k="building" v="residential"/>
    <tag k="source" v="survey"/>
  </way>
  <way id="502718600" version="4" timestamp="2022-04-15T07:51:06Z" changeset="119739770" uid="242345" user="confusedbuffalo">
    <nd ref="4931034566"/>
    <nd ref="4931034567"/>
    <nd ref="4931034568"/>
    <nd ref="4931034569"/>
    <nd ref="4931034566"/>
    <tag k="addr:city" v="Cambridge"/>
    <tag k="addr:housenumber" v="2"/>
    <tag k="addr:postcode" v="CB2 9FR"/>
    <tag k="addr:street" v="Falcon Road"/>
    <tag k="building" v="residential"/>
    <tag k="source" v="survey"/>
  </way>
  <way id="502718602" version="1" timestamp="2017-06-22T14:59:17Z" changeset="49749208" uid="6174177" user="monospaced">
    <nd ref="4931034574"/>
    <nd ref="4931034575"/>
    <nd ref="4931034576"/>
    <nd ref="4931034577"/>
    <nd ref="4931034574"/>
    <tag k="addr:city" v="Cambridge"/>
    <tag k="addr:housenumber" v="82"/>
    <tag k="addr:postcode" v="CB2 9FU"/>
    <tag k="addr:street" v="Osprey Drive"/>
    <tag k="building" v="semidetached_house"/>
  </way>
  <way id="502718603" version="1" timestamp="2017-06-22T14:59:17Z" changeset="49749208" uid="6174177" user="monospaced">
    <nd ref="4931034577"/>
    <nd ref="4931034578"/>
    <nd ref="4931034579"/>
    <nd ref="4931034576"/>
    <nd ref="4931034577"/>
    <tag k="addr:city" v="Cambridge"/>
    <tag k="addr:housenumber" v="80"/>
    <tag k="addr:postcode" v="CB2 9FU"/>
    <tag k="addr:street" v="Osprey Drive"/>
    <tag k="building" v="semidetached_house"/>
  </way>
  <way id="502718607" version="1" timestamp="2017-06-22T14:59:17Z" changeset="49749208" uid="6174177" user="monospaced">
    <nd ref="4931034588"/>
    <nd ref="4931034589"/>
    <nd ref="4931034590"/>
    <nd ref="4931034591"/>
    <nd ref="4931034588"/>
    <tag k="addr:city" v="Cambridge"/>
    <tag k="addr:housenumber" v="89"/>
    <tag k="addr:postcode" v="CB2 9FU"/>
    <tag k="addr:street" v="Osprey Drive"/>
    <tag k="building" v="semidetached_house"/>
  </way>
  <way id="502718608" version="1" timestamp="2017-06-22T14:59:17Z" changeset="49749208" uid="6174177" user="monospaced">
    <nd ref="4931034588"/>
    <nd ref="4931034592"/>
    <nd ref="4931034593"/>
    <nd ref="4931034591"/>
    <nd ref="4931034588"/>
    <tag k="addr:city" v="Cambridge"/>
    <tag k="addr:housenumber" v="87"/>
    <tag k="addr:postcode" v="CB2 9FU"/>
    <tag k="addr:street" v="Osprey Drive"/>
    <tag k="building" v="semidetached_house"/>
  </way>
  <way id="502718611" version="4" timestamp="2019-06-03T21:35:27Z" changeset="70901433" uid="5173844" user="ndrw6">
    <nd ref="4931034600"/>
    <nd ref="6519080081"/>
    <nd ref="6519080078"/>
    <nd ref="4931034602"/>
    <nd ref="4931034603"/>
    <nd ref="6519080079"/>
    <nd ref="6519080080"/>
    <nd ref="4931034604"/>
    <nd ref="4931034600"/>
    <tag k="addr:city" v="Cambridge"/>
    <tag k="addr:housenumber" v="91-103"/>
    <tag k="addr:interpolation" v="odd"/>
    <tag k="addr:postcode" v="CB2 9FU"/>
    <tag k="addr:street" v="Osprey Drive"/>
    <tag k="building" v="residential"/>
    <tag k="source" v="survey"/>
  </way>
  <way id="531232271" version="3" timestamp="2022-04-15T07:51:06Z" changeset="119739770" uid="242345" user="confusedbuffalo">
    <nd ref="5156990691"/>
    <nd ref="5156990688"/>
    <nd ref="5156990689"/>
    <nd ref="5156990690"/>
    <nd ref="5156990691"/>
    <tag k="addr:city" v="Cambridge"/>
    <tag k="addr:housenumber" v="12"/>
    <tag k="addr:postcode" v="CB2 9FR"/>
    <tag k="addr:street" v="Falcon Road"/>
    <tag k="building" v="residential"/>
    <tag k="source" v="survey"/>
  </way>
  <way id="531235395" version="2" timestamp="2019-06-03T21:35:27Z" changeset="70901433" uid="5173844" user="ndrw6">
    <nd ref="6519080320"/>
    <nd ref="5157023030"/>
    <nd ref="5157023033"/>
    <nd ref="6519080319"/>
    <nd ref="6519080320"/>
    <tag k="addr:city" v="Cambridge"/>
    <tag k="addr:housenumber" v="8"/>
    <tag k="addr:postcode" v="CB2 9FX"/>
    <tag k="addr:street" v="Kinsman Way"/>
    <tag k="building" v="residential"/>
  </way>
  <way id="531235397" version="2" timestamp="2019-06-03T21:35:27Z" changeset="70901433" uid="5173844" user="ndrw6">
    <nd ref="6519080321"/>
    <nd ref="6519080323"/>
    <nd ref="6519080324"/>
    <nd ref="6519080322"/>
    <nd ref="6519080321"/>
    <tag k="addr:city" v="Cambridge"/>
    <tag k="addr:housenumber" v="4"/>
    <tag k="addr:postcode" v="CB2 9FX"/>
    <tag k="addr:street" v="Kinsman Way"/>
    <tag k="building" v="residential"/>
  </way>
  <way id="531236360" version="2" timestamp="2023-08-24T23:13:45Z" changeset="140345573" uid="1102246" user="jtn20">
    <nd ref="5157028869"/>
    <nd ref="5157028868"/>
    <nd ref="5157028874"/>
    <nd ref="5157028875"/>
    <nd ref="5157028869"/>
    <tag k="addr:city" v="Cambridge"/>
    <tag k="addr:housenumber" v="115-123"/>
    <tag k="addr:interpolation" v="odd"/>
    <tag k="addr:postcode" v="CB2 9FU"/>
    <tag k="addr:street" v="Osprey Drive"/>
    <tag k="building" v="residential"/>
    <tag k="building:levels" v="3"/>
    <tag k="roof:levels" v="1"/>
    <tag k="roof:shape" v="gabled"/>
    <tag k="source" v="survey"/>
  </way>
  <way id="531236361" version="2" timestamp="2023-08-24T23:13:45Z" changeset="140345573" uid="1102246" user="jtn20">
    <nd ref="5157028873"/>
    <nd ref="5157028871"/>
    <nd ref="5157028870"/>
    <nd ref="5157028872"/>
    <nd ref="5157028873"/>
    <tag k="addr:city" v="Cambridge"/>
    <tag k="addr:housenumber" v="105-111"/>
    <tag k="addr:interpolation" v="odd"/>
    <tag k="addr:postcode" v="CB2 9FU"/>
    <tag k="addr:street" v="Osprey Drive"/>
    <tag k="building" v="residential"/>
    <tag k="building:levels" v="3"/>
    <tag k="roof:levels" v="1"/>
    <tag k="roof:shape" v="gabled"/>
    <tag k="source" v="survey"/>
  </way>
  <way id="531236502" version="2" timestamp="2019-06-03T21:35:27Z" changeset="70901433" uid="5173844" user="ndrw6">
    <nd ref="5157026449"/>
    <nd ref="6519080298"/>
    <nd ref="5157026448"/>
    <nd ref="5157026447"/>
    <nd ref="5157026445"/>
    <nd ref="5157026444"/>
    <nd ref="6519080297"/>
    <nd ref="5157026446"/>
    <nd ref="5157026449"/>
    <tag k="addr:city" v="Cambridge"/>
    <tag k="addr:housenumber" v="90-110"/>
    <tag k="addr:interpolation" v="even"/>
    <tag k="addr:postcode" v="CB2 9FU"/>
    <tag k="addr:street" v="Osprey Drive"/>
    <tag k="building" v="residential"/>
    <tag k="source" v="survey"/>
  </way>
  <way id="531236757" version="1" timestamp="2017-10-09T13:06:14Z" changeset="52759054" uid="17576" user="Laverock">
    <nd ref="5157034597"/>
    <nd ref="5157034594"/>
    <nd ref="5157034596"/>
    <nd ref="5157034595"/>
    <nd ref="5157034597"/>
    <tag k="addr:city" v="Cambridge"/>
    <tag k="addr:housenumber" v="112-120"/>
    <tag k="addr:interpolation" v="even"/>
    <tag k="addr:postcode" v="CB2 9FU"/>
    <tag k="addr:street" v="Osprey Drive"/>
    <tag k="building" v="residential"/>
    <tag k="source" v="survey"/>
  </way>
  <way id="531238980" version="2" timestamp="2019-06-03T21:35:27Z" changeset="70901433" uid="5173844" user="ndrw6">
    <nd ref="6519080307"/>
    <nd ref="6519080305"/>
    <nd ref="6519080306"/>
    <nd ref="6519080308"/>
    <nd ref="6519080307"/>
    <tag k="addr:city" v="Cambridge"/>
    <tag k="addr:housenumber" v="59"/>
    <tag k="addr:postcode" v="CB2 9EW"/>
    <tag k="addr:street" v="Renard Way"/>
    <tag k="building" v="residential"/>
    <tag k="source" v="survey"/>
  </way>
  <way id="531238983" version="1" timestamp="2017-10-09T13:13:53Z" changeset="52759054" uid="17576" user="Laverock">
    <nd ref="4917804651"/>
    <nd ref="4917804652"/>
    <tag k="highway" v="residential"/>
    <tag k="maxspeed" v="20 mph"/>
    <tag k="name" v="Mardler Close"/>
  </way>
  <way id="531238985" version="2" timestamp="2019-06-03T21:35:27Z" changeset="70901433" uid="5173844" user="ndrw6">
    <nd ref="6519080313"/>
    <nd ref="6519080311"/>
    <nd ref="6519080312"/>
    <nd ref="6519080314"/>
    <nd ref="6519080313"/>
    <tag k="addr:city" v="Cambridge"/>
    <tag k="addr:housenumber" v="67"/>
    <tag k="addr:postcode" v="CB2 9EW"/>
    <tag k="addr:street" v="Renard Way"/>
    <tag k="building" v="residential"/>
    <tag k="source" v="survey"/>
  </way>
  <way id="531239964" version="2" timestamp="2022-04-15T07:51:06Z" changeset="119739770" uid="242345" user="confusedbuffalo">
    <nd ref="5157057721"/>
    <nd ref="5157057017"/>
    <nd ref="5157057728"/>
    <nd ref="5157057015"/>
    <nd ref="5157057721"/>
    <tag k="addr:city" v="Cambridge"/>
    <tag k="addr:housenumber" v="5"/>
    <tag k="addr:postcode" v="CB2 9FW"/>
    <tag k="addr:street" v="Dove Drive"/>
    <tag k="building" v="residential"/>
    <tag k="source" v="survey"/>
  </way>
  <way id="531239965" version="2" timestamp="2022-04-15T07:51:06Z" changeset="119739770" uid="242345" user="confusedbuffalo">
    <nd ref="5157057017"/>
    <nd ref="5157057730"/>
    <nd ref="5157057729"/>
    <nd ref="5157057728"/>
    <nd ref="5157057017"/>
    <tag k="addr:city" v="Cambridge"/>
    <tag k="addr:housenumber" v="7"/>
    <tag k="addr:postcode" v="CB2 9FW"/>
    <tag k="addr:street" v="Dove Drive"/>
    <tag k="building" v="residential"/>
    <tag k="source" v="survey"/>
  </way>
  <way id="531239966" version="2" timestamp="2022-04-15T07:51:06Z" changeset="119739770" uid="242345" user="confusedbuffalo">
    <nd ref="5157057016"/>
    <nd ref="5157057019"/>
    <nd ref="5157057013"/>
    <nd ref="5157057014"/>
    <nd ref="5157057016"/>
    <tag k="addr:city" v="Cambridge"/>
    <tag k="addr:housenumber" v="1"/>
    <tag k="addr:postcode" v="CB2 9FW"/>
    <tag k="addr:street" v="Dove Drive"/>
    <tag k="building" v="residential"/>
    <tag k="source" v="survey"/>
  </way>
  <way id="531239967" version="2" timestamp="2022-04-15T07:51:06Z" changeset="119739770" uid="242345" user="confusedbuffalo">
    <nd ref="5157057724"/>
    <nd ref="5157057725"/>
    <nd ref="5157057726"/>
    <nd ref="5157057020"/>
    <nd ref="5157057724"/>
    <tag k="addr:city" v="Cambridge"/>
    <tag k="addr:housenumber" v="9"/>
    <tag k="addr:postcode" v="CB2 9FW"/>
    <tag k="addr:street" v="Dove Drive"/>
    <tag k="building" v="residential"/>
    <tag k="source" v="survey"/>
  </way>
  <way id="531239968" version="2" timestamp="2022-04-15T07:51:06Z" changeset="119739770" uid="242345" user="confusedbuffalo">
    <nd ref="5157057725"/>
    <nd ref="5157057722"/>
    <nd ref="5157057727"/>
    <nd ref="5157057726"/>
    <nd ref="5157057725"/>
    <tag k="addr:city" v="Cambridge"/>
    <tag k="addr:housenumber" v="11"/>
    <tag k="addr:postcode" v="CB2 9FW"/>
    <tag k="addr:street" v="Dove Drive"/>
    <tag k="building" v="residential"/>
    <tag k="source" v="survey"/>
  </way>
  <way id="531239969" version="2" timestamp="2022-04-15T07:51:06Z" changeset="119739770" uid="242345" user="confusedbuffalo">
    <nd ref="5157057019"/>
    <nd ref="5157057723"/>
    <nd ref="5157057018"/>
    <nd ref="5157057013"/>
    <nd ref="5157057019"/>
    <tag k="addr:city" v="Cambridge"/>
    <tag k="addr:housenumber" v="3"/>
    <tag k="addr:postcode" v="CB2 9FW"/>
    <tag k="addr:street" v="Dove Drive"/>
    <tag k="building" v="residential"/>
    <tag k="source" v="survey"/>
  </way>
  <way id="620818159" version="5" timestamp="2022-04-15T07:51:06Z" changeset="119739770" uid="242345" user="confusedbuffalo">
    <nd ref="6125646642"/>
    <nd ref="5865167371"/>
    <nd ref="6301443832"/>
    <nd ref="5865167372"/>
    <nd ref="5865167367"/>
    <nd ref="5865167368"/>
    <nd ref="6125646641"/>
    <nd ref="6125646647"/>
    <nd ref="6125646643"/>
    <nd ref="6125646642"/>
    <tag k="addr:city" v="Cambridge"/>
    <tag k="addr:postcode" v="CB2 9BS"/>
    <tag k="addr:street" v="Kestrel Rise"/>
    <tag k="brand:wikidata" v="Q13218434"/>
    <tag k="building" v="apartments"/>
    <tag k="name" v="Sainsbury's Local"/>
    <tag k="opening_hours" v="Mo-Sa 07:30-23:00; Su 07:30-22:00"/>
    <tag k="shop" v="convenience"/>
  </way>
  <way id="638606129" version="2" timestamp="2022-04-15T07:51:06Z" changeset="119739770" uid="242345" user="confusedbuffalo">
    <nd ref="6018451293"/>
    <nd ref="6018451292"/>
    <nd ref="6018451301"/>
    <nd ref="6018451306"/>
    <nd ref="6018451293"/>
    <tag k="addr:city" v="Cambridge"/>
    <tag k="addr:housenumber" v="30"/>
    <tag k="addr:postcode" v="CB2 9EW"/>
    <tag k="addr:street" v="Renard Way"/>
    <tag k="building" v="residential"/>
    <tag k="source" v="survey"/>
  </way>
  <way id="650349221" version="5" timestamp="2020-08-02T23:06:57Z" changeset="88852554" uid="11580939" user="mk270">
    <nd ref="6101230791"/>
    <nd ref="6101230793"/>
    <nd ref="6101230284"/>
    <tag k="highway" v="residential"/>
    <tag k="name" v="Ploughmans Way"/>
  </way>
  <way id="650349222" version="5" timestamp="2022-02-11T12:19:45Z" changeset="117285901" uid="5173844" user="ndrw6">
    <nd ref="6101230795"/>
    <nd ref="9497958667"/>
    <nd ref="6101230787"/>
    <nd ref="6101230786"/>
    <nd ref="6101230785"/>
    <nd ref="6101230284"/>
    <tag k="highway" v="residential"/>
    <tag k="name" v="Porter Road"/>
  </way>
  <way id="650349223" version="5" timestamp="2024-02-28T20:10:06Z" changeset="148027146" uid="5173844" user="ndrw6">
    <nd ref="6101230790"/>
    <nd ref="11673421503"/>
    <nd ref="6101230788"/>
    <tag k="highway" v="residential"/>
    <tag k="name" v="Porter Road"/>
  </way>
  <way id="650349224" version="5" timestamp="2020-08-02T23:06:57Z" changeset="88852554" uid="11580939" user="mk270">
    <nd ref="6101230797"/>
    <nd ref="6519080276"/>
    <nd ref="6101230790"/>
    <nd ref="6101230792"/>
    <nd ref="6101230789"/>
    <tag k="highway" v="residential"/>
    <tag k="name" v="Ploughmans Way"/>
  </way>
  <way id="650349225" version="3" timestamp="2020-08-02T10:13:33Z" changeset="88835387" uid="11580939" user="mk270">
    <nd ref="6101230792"/>
    <nd ref="6101230791"/>
    <tag k="highway" v="residential"/>
  </way>
  <way id="650349226" version="7" timestamp="2022-02-11T12:19:45Z" changeset="117285901" uid="5173844" user="ndrw6">
    <nd ref="8460157618"/>
    <nd ref="9497958664"/>
    <nd ref="6519080132"/>
    <nd ref="6519080133"/>
    <nd ref="9193988426"/>
    <nd ref="6101230796"/>
    <tag k="highway" v="residential"/>
    <tag k="name" v="Hornet Road"/>
  </way>
  <way id="650349227" version="13" timestamp="2023-12-21T14:54:32Z" changeset="145374099" uid="12840980" user="undersitek">
    <nd ref="3658829037"/>
    <nd ref="6101230803"/>
    <nd ref="11438773534"/>
    <nd ref="6101230802"/>
    <nd ref="8048985457"/>
    <tag k="highway" v="residential"/>
  </way>
  <way id="650349228" version="3" timestamp="2021-06-09T18:36:52Z" changeset="106111930" uid="11580939" user="mk270">
    <nd ref="6101230807"/>
    <nd ref="6101230804"/>
    <nd ref="6101230805"/>
    <nd ref="6101230806"/>
    <nd ref="6101230807"/>
    <tag k="addr:housenumber" v="4"/>
    <tag k="addr:street" v="Porter Road"/>
    <tag k="building" v="residential"/>
  </way>
  <way id="650349229" version="3" timestamp="2021-06-09T17:15:35Z" changeset="106108796" uid="11580939" user="mk270">
    <nd ref="6101230811"/>
    <nd ref="6101230808"/>
    <nd ref="6101230809"/>
    <nd ref="6101230810"/>
    <nd ref="6101230811"/>
    <tag k="addr:housenumber" v="36"/>
    <tag k="addr:street" v="Ploughmans Way"/>
    <tag k="building" v="residential"/>
  </way>
  <way id="650349230" version="3" timestamp="2021-06-09T17:15:35Z" changeset="106108796" uid="11580939" user="mk270">
    <nd ref="6101230815"/>
    <nd ref="6101230812"/>
    <nd ref="6101230813"/>
    <nd ref="6101230814"/>
    <nd ref="6101230815"/>
    <tag k="addr:housenumber" v="26"/>
    <tag k="addr:street" v="Ploughmans Way"/>
    <tag k="building" v="residential"/>
  </way>
  <way id="650349231" version="4" timestamp="2023-08-24T23:13:45Z" changeset="140345573" uid="1102246" user="jtn20">
    <nd ref="6101230819"/>
    <nd ref="6101230816"/>
    <nd ref="6101230817"/>
    <nd ref="6101230818"/>
    <nd ref="11142524777"/>
    <nd ref="6101230819"/>
    <tag k="addr:city" v="Cambridge"/>
    <tag k="addr:housenumber" v="155-169"/>
    <tag k="addr:postcode" v="CB2 9FU"/>
    <tag k="addr:street" v="Osprey Drive"/>
    <tag k="building" v="residential"/>
    <tag k="building:levels" v="3"/>
  </way>
  <way id="650349233" version="4" timestamp="2021-06-10T18:24:04Z" changeset="106172110" uid="11580939" user="mk270">
    <nd ref="6101230829"/>
    <nd ref="8021601970"/>
    <nd ref="8021601969"/>
    <nd ref="6101230828"/>
    <nd ref="6101230829"/>
    <tag k="addr:housenumber" v="2"/>
    <tag k="addr:street" v="Ploughmans Way"/>
    <tag k="building" v="residential"/>
  </way>
  <way id="650349234" version="4" timestamp="2021-06-10T18:24:04Z" changeset="106172110" uid="11580939" user="mk270">
    <nd ref="6101230833"/>
    <nd ref="8021601968"/>
    <nd ref="8021601967"/>
    <nd ref="6101230832"/>
    <nd ref="6101230833"/>
    <tag k="addr:housenumber" v="6"/>
    <tag k="addr:street" v="Ploughmans Way"/>
    <tag k="building" v="residential"/>
  </way>
  <way id="650349235" version="3" timestamp="2021-06-09T18:38:33Z" changeset="106112003" uid="11580939" user="mk270">
    <nd ref="6101230837"/>
    <nd ref="6101230834"/>
    <nd ref="6101230835"/>
    <nd ref="6101230836"/>
    <nd ref="6101230837"/>
    <tag k="addr:housenumber" v="1"/>
    <tag k="addr:street" v="Ploughmans Way"/>
    <tag k="building" v="residential"/>
  </way>
  <way id="650349236" version="4" timestamp="2021-06-09T18:38:33Z" changeset="106112003" uid="11580939" user="mk270">
    <nd ref="6101230841"/>
    <nd ref="8021601964"/>
    <nd ref="8021601963"/>
    <nd ref="6101230840"/>
    <nd ref="6101230841"/>
    <tag k="addr:housenumber" v="5"/>
    <tag k="addr:street" v="Ploughmans Way"/>
    <tag k="building" v="residential"/>
  </way>
  <way id="650349237" version="4" timestamp="2021-06-10T18:24:04Z" changeset="106172110" uid="11580939" user="mk270">
    <nd ref="6101230845"/>
    <nd ref="8021601966"/>
    <nd ref="8021601965"/>
    <nd ref="6101230844"/>
    <nd ref="6101230845"/>
    <tag k="addr:housenumber" v="10"/>
    <tag k="addr:street" v="Ploughmans Way"/>
    <tag k="building" v="residential"/>
  </way>
  <way id="650349238" version="5" timestamp="2022-04-15T07:51:06Z" changeset="119739770" uid="242345" user="confusedbuffalo">
    <nd ref="6101230847"/>
    <nd ref="8021585354"/>
    <nd ref="8021585353"/>
    <nd ref="8021585355"/>
    <nd ref="6101230847"/>
    <tag k="addr:city" v="Cambridge"/>
    <tag k="addr:housenumber" v="16"/>
    <tag k="addr:postcode" v="CB2 9GE"/>
    <tag k="addr:street" v="Ploughmans Way"/>
    <tag k="building" v="residential"/>
  </way>
  <way id="650349239" version="4" timestamp="2022-04-15T07:51:06Z" changeset="119739770" uid="242345" user="confusedbuffalo">
    <nd ref="6101230857"/>
    <nd ref="6101230854"/>
    <nd ref="6101230855"/>
    <nd ref="6101230856"/>
    <nd ref="6101230857"/>
    <tag k="addr:city" v="Cambridge"/>
    <tag k="addr:housenumber" v="9"/>
    <tag k="addr:postcode" v="CB2 9GF"/>
    <tag k="addr:street" v="Porter Road"/>
    <tag k="building" v="residential"/>
  </way>
  <way id="650349241" version="7" timestamp="2023-08-24T23:13:45Z" changeset="140345573" uid="1102246" user="jtn20">
    <nd ref="6101230865"/>
    <nd ref="6101230862"/>
    <nd ref="6519080279"/>
    <nd ref="6519080278"/>
    <nd ref="6519080277"/>
    <nd ref="6519080280"/>
    <nd ref="6101230863"/>
    <nd ref="6101230864"/>
    <nd ref="11142524775"/>
    <nd ref="6101230865"/>
    <tag k="addr:city" v="Cambridge"/>
    <tag k="addr:housenumber" v="125-143"/>
    <tag k="addr:interpolation" v="odd"/>
    <tag k="addr:postcode" v="CB2 9FU"/>
    <tag k="addr:street" v="Osprey Drive"/>
    <tag k="building" v="residential"/>
  </way>
  <way id="650349242" version="3" timestamp="2021-06-09T17:15:35Z" changeset="106108796" uid="11580939" user="mk270">
    <nd ref="6101230869"/>
    <nd ref="6101230866"/>
    <nd ref="6101230867"/>
    <nd ref="6101230868"/>
    <nd ref="6101230869"/>
    <tag k="addr:housenumber" v="7"/>
    <tag k="addr:street" v="Ploughmans Way"/>
    <tag k="building" v="residential"/>
  </way>
  <way id="653651366" version="6" timestamp="2024-03-15T21:40:10Z" changeset="148709061" uid="1287673" user="sloerunner">
    <nd ref="6125646643"/>
    <nd ref="11626680430"/>
    <nd ref="5865167369"/>
    <nd ref="5865167370"/>
    <nd ref="11626680429"/>
    <nd ref="6125646642"/>
    <nd ref="6125646643"/>
    <tag k="addr:city" v="Cambridge"/>
    <tag k="addr:housenumber" v="13-23"/>
    <tag k="addr:interpolation" v="odd"/>
    <tag k="addr:postcode" v="CB2 9FW"/>
    <tag k="addr:street" v="Dove Drive"/>
    <tag k="building" v="residential"/>
    <tag k="source" v="survey"/>
  </way>
  <way id="694358298" version="4" timestamp="2021-06-09T18:41:02Z" changeset="106112116" uid="11580939" user="mk270">
    <nd ref="6519080124"/>
    <nd ref="8021602101"/>
    <nd ref="8021602100"/>
    <nd ref="6519080123"/>
    <nd ref="6519080124"/>
    <tag k="addr:housenumber" v="30"/>
    <tag k="addr:street" v="Ploughmans Way"/>
    <tag k="building" v="residential"/>
  </way>
  <way id="694358299" version="3" timestamp="2021-06-09T18:36:52Z" changeset="106111930" uid="11580939" user="mk270">
    <nd ref="6519080129"/>
    <nd ref="6519080128"/>
    <nd ref="6519080127"/>
    <nd ref="6519080126"/>
    <nd ref="6519080129"/>
    <tag k="addr:housenumber" v="2"/>
    <tag k="addr:street" v="Porter Road"/>
    <tag k="building" v="residential"/>
  </way>
  <way id="694358300" version="4" timestamp="2020-10-19T10:16:56Z" changeset="92699694" uid="5173844" user="ndrw6">
    <nd ref="6519080133"/>
    <nd ref="8021602085"/>
    <nd ref="6519080130"/>
    <tag k="highway" v="residential"/>
    <tag k="name" v="Avocet Road"/>
  </way>
  <way id="694358301" version="4" timestamp="2023-08-24T23:13:45Z" changeset="140345573" uid="1102246" user="jtn20">
    <nd ref="6519080137"/>
    <nd ref="6519080136"/>
    <nd ref="6519080135"/>
    <nd ref="6519080134"/>
    <nd ref="6519080137"/>
    <tag k="addr:housenumber" v="205-225"/>
    <tag k="addr:street" v="Osprey Drive"/>
    <tag k="building" v="residential"/>
    <tag k="building:levels" v="4"/>
  </way>
  <way id="694358302" version="3" timestamp="2021-06-09T17:20:06Z" changeset="106108924" uid="11580939" user="mk270">
    <nd ref="6519080143"/>
    <nd ref="6519080142"/>
    <nd ref="6519080139"/>
    <nd ref="6519080138"/>
    <nd ref="6519080141"/>
    <nd ref="6519080140"/>
    <nd ref="6519080143"/>
    <tag k="addr:housenumber" v="177-203"/>
    <tag k="addr:street" v="Osprey Drive"/>
    <tag k="building" v="residential"/>
  </way>
  <way id="694358304" version="4" timestamp="2022-02-11T12:19:45Z" changeset="117285901" uid="5173844" user="ndrw6">
    <nd ref="6519080150"/>
    <nd ref="9497958689"/>
    <nd ref="9497958688"/>
    <nd ref="6519080149"/>
    <nd ref="6519080150"/>
    <tag k="addr:housenumber" v="175"/>
    <tag k="addr:street" v="Osprey Drive"/>
    <tag k="building" v="residential"/>
  </way>
  <way id="694358305" version="5" timestamp="2022-04-15T07:51:06Z" changeset="119739770" uid="242345" user="confusedbuffalo">
    <nd ref="6519080155"/>
    <nd ref="6519080152"/>
    <nd ref="6519080153"/>
    <nd ref="6519080154"/>
    <nd ref="6519080155"/>
    <tag k="addr:city" v="Cambridge"/>
    <tag k="addr:housenumber" v="171"/>
    <tag k="addr:postcode" v="CB2 9GQ"/>
    <tag k="addr:street" v="Osprey Drive"/>
    <tag k="building" v="residential"/>
  </way>
  <way id="694358306" version="5" timestamp="2023-08-24T23:13:45Z" changeset="140345573" uid="1102246" user="jtn20">
    <nd ref="6519080159"/>
    <nd ref="8021602079"/>
    <nd ref="11142524776"/>
    <nd ref="6519080157"/>
    <nd ref="6519080158"/>
    <nd ref="6519080159"/>
    <tag k="addr:city" v="Cambridge"/>
    <tag k="addr:housenumber" v="148-162"/>
    <tag k="addr:interpolation" v="even"/>
    <tag k="addr:postcode" v="CB2 9FU"/>
    <tag k="addr:street" v="Osprey Drive"/>
    <tag k="building" v="residential"/>
    <tag k="building:levels" v="3"/>
  </way>
  <way id="694358307" version="5" timestamp="2022-04-15T07:51:06Z" changeset="119739770" uid="242345" user="confusedbuffalo">
    <nd ref="6519080163"/>
    <nd ref="6519080160"/>
    <nd ref="6519080161"/>
    <nd ref="6519080162"/>
    <nd ref="6519080163"/>
    <tag k="addr:city" v="Cambridge"/>
    <tag k="addr:housenumber" v="6"/>
    <tag k="addr:postcode" v="CB2 9GL"/>
    <tag k="addr:street" v="Forester Road"/>
    <tag k="building" v="residential"/>
  </way>
  <way id="694358308" version="5" timestamp="2022-04-15T07:51:06Z" changeset="119739770" uid="242345" user="confusedbuffalo">
    <nd ref="6519080167"/>
    <nd ref="6519080164"/>
    <nd ref="6519080165"/>
    <nd ref="6519080166"/>
    <nd ref="6519080167"/>
    <tag k="addr:city" v="Cambridge"/>
    <tag k="addr:housenumber" v="7"/>
    <tag k="addr:postcode" v="CB2 9GH"/>
    <tag k="addr:street" v="Hornet Road"/>
    <tag k="building" v="residential"/>
  </way>
  <way id="694358310" version="5" timestamp="2022-04-15T07:51:06Z" changeset="119739770" uid="242345" user="confusedbuffalo">
    <nd ref="6519080175"/>
    <nd ref="6519080172"/>
    <nd ref="6519080173"/>
    <nd ref="6519080174"/>
    <nd ref="6519080175"/>
    <tag k="addr:city" v="Cambridge"/>
    <tag k="addr:housenumber" v="8"/>
    <tag k="addr:postcode" v="CB2 9GH"/>
    <tag k="addr:street" v="Hornet Road"/>
    <tag k="building" v="residential"/>
  </way>
  <way id="694358311" version="6" timestamp="2022-04-15T07:51:06Z" changeset="119739770" uid="242345" user="confusedbuffalo">
    <nd ref="6519080179"/>
    <nd ref="6519080176"/>
    <nd ref="6519080177"/>
    <nd ref="6519080178"/>
    <nd ref="6519080179"/>
    <tag k="addr:city" v="Cambridge"/>
    <tag k="addr:housenumber" v="3"/>
    <tag k="addr:postcode" v="CB2 9GJ"/>
    <tag k="addr:street" v="Avocet Road"/>
    <tag k="building" v="residential"/>
  </way>
  <way id="694358312" version="6" timestamp="2022-04-15T07:51:06Z" changeset="119739770" uid="242345" user="confusedbuffalo">
    <nd ref="6519080183"/>
    <nd ref="8021602046"/>
    <nd ref="8021602045"/>
    <nd ref="6519080182"/>
    <nd ref="6519080183"/>
    <tag k="addr:city" v="Cambridge"/>
    <tag k="addr:housenumber" v="7"/>
    <tag k="addr:postcode" v="CB2 9GJ"/>
    <tag k="addr:street" v="Avocet Road"/>
    <tag k="building" v="residential"/>
  </way>
  <way id="694358313" version="6" timestamp="2022-04-15T07:51:06Z" changeset="119739770" uid="242345" user="confusedbuffalo">
    <nd ref="6519080187"/>
    <nd ref="8021602044"/>
    <nd ref="8021602043"/>
    <nd ref="6519080186"/>
    <nd ref="6519080187"/>
    <tag k="addr:city" v="Cambridge"/>
    <tag k="addr:housenumber" v="11"/>
    <tag k="addr:postcode" v="CB2 9GJ"/>
    <tag k="addr:street" v="Avocet Road"/>
    <tag k="building" v="residential"/>
  </way>
  <way id="694358315" version="4" timestamp="2022-04-15T07:51:06Z" changeset="119739770" uid="242345" user="confusedbuffalo">
    <nd ref="6519080201"/>
    <nd ref="6519080210"/>
    <nd ref="6519080209"/>
    <nd ref="6519080200"/>
    <nd ref="6519080201"/>
    <tag k="addr:city" v="Cambridge"/>
    <tag k="addr:housenumber" v="140"/>
    <tag k="addr:postcode" v="CB2 9FZ"/>
    <tag k="addr:street" v="Renard Way"/>
    <tag k="building" v="yes"/>
  </way>
  <way id="694358316" version="2" timestamp="2020-11-03T23:19:42Z" changeset="93506578" uid="11580939" user="mk270">
    <nd ref="6519080203"/>
    <nd ref="6519080204"/>
    <nd ref="6519080205"/>
    <nd ref="6519080202"/>
    <nd ref="6519080203"/>
    <tag k="addr:housenumber" v="84"/>
    <tag k="addr:street" v="Renard Way"/>
    <tag k="building" v="yes"/>
  </way>
  <way id="694358317" version="2" timestamp="2020-11-03T23:19:42Z" changeset="93506578" uid="11580939" user="mk270">
    <nd ref="6519080202"/>
    <nd ref="6519080206"/>
    <nd ref="6519080207"/>
    <nd ref="6519080203"/>
    <nd ref="6519080202"/>
    <tag k="addr:housenumber" v="86"/>
    <tag k="addr:street" v="Renard Way"/>
    <tag k="building" v="yes"/>
  </way>
  <way id="694358318" version="4" timestamp="2022-04-15T07:51:06Z" changeset="119739770" uid="242345" user="confusedbuffalo">
    <nd ref="6519080200"/>
    <nd ref="6519080208"/>
    <nd ref="6519080211"/>
    <nd ref="6519080201"/>
    <nd ref="6519080200"/>
    <tag k="addr:city" v="Cambridge"/>
    <tag k="addr:housenumber" v="142"/>
    <tag k="addr:postcode" v="CB2 9FZ"/>
    <tag k="addr:street" v="Renard Way"/>
    <tag k="building" v="yes"/>
  </way>
  <way id="694358319" version="5" timestamp="2022-04-15T07:51:06Z" changeset="119739770" uid="242345" user="confusedbuffalo">
    <nd ref="6519080219"/>
    <nd ref="6519080218"/>
    <nd ref="6519080217"/>
    <nd ref="6519080216"/>
    <nd ref="6519080215"/>
    <nd ref="6519080214"/>
    <nd ref="6519080213"/>
    <nd ref="6519080212"/>
    <nd ref="6519080219"/>
    <tag k="addr:city" v="Cambridge"/>
    <tag k="addr:housename" v="Virginia Woolf House"/>
    <tag k="addr:housenumber" v="144-168"/>
    <tag k="addr:postcode" v="CB2 9FZ"/>
    <tag k="addr:street" v="Renard Way"/>
    <tag k="building" v="yes"/>
  </way>
  <way id="694358320" version="7" timestamp="2023-08-24T23:13:45Z" changeset="140345573" uid="1102246" user="jtn20">
    <nd ref="6519080227"/>
    <nd ref="6519080226"/>
    <nd ref="6519080225"/>
    <nd ref="6519080224"/>
    <nd ref="6519080223"/>
    <nd ref="10856079023"/>
    <nd ref="6519080222"/>
    <nd ref="6519080221"/>
    <nd ref="6519080220"/>
    <nd ref="6519080227"/>
    <tag k="addr:city" v="Cambridge"/>
    <tag k="addr:housename" v="Rupert Brooke House"/>
    <tag k="addr:housenumber" v="114-138"/>
    <tag k="addr:interpolation" v="even"/>
    <tag k="addr:postcode" v="CB2 9FZ"/>
    <tag k="addr:street" v="Renard Way"/>
    <tag k="building" v="apartments"/>
  </way>
  <way id="694358321" version="4" timestamp="2023-08-24T23:13:45Z" changeset="140345573" uid="1102246" user="jtn20">
    <nd ref="6519080235"/>
    <nd ref="6519080234"/>
    <nd ref="6519080233"/>
    <nd ref="6519080232"/>
    <nd ref="6519080231"/>
    <nd ref="11142524774"/>
    <nd ref="6519080230"/>
    <nd ref="6519080229"/>
    <nd ref="6519080228"/>
    <nd ref="6519080235"/>
    <tag k="addr:city" v="Cambridge"/>
    <tag k="addr:housename" v="Sylvia Plath House"/>
    <tag k="addr:housenumber" v="88-112"/>
    <tag k="addr:interpolation" v="even"/>
    <tag k="addr:street" v="Renard Way"/>
    <tag k="building" v="apartments"/>
  </way>
  <way id="694358322" version="3" timestamp="2020-11-04T09:00:56Z" changeset="93528876" uid="11580939" user="mk270">
    <nd ref="6519080243"/>
    <nd ref="6519080242"/>
    <nd ref="6519080241"/>
    <nd ref="6519080240"/>
    <nd ref="6519080239"/>
    <nd ref="6519080238"/>
    <nd ref="6519080237"/>
    <nd ref="6519080236"/>
    <nd ref="6519080243"/>
    <tag k="addr:housename" v="Ted Hughes House"/>
    <tag k="addr:housenumber" v="58-82"/>
    <tag k="addr:street" v="Renard Way"/>
    <tag k="building" v="yes"/>
  </way>
  <way id="694358323" version="4" timestamp="2022-04-15T07:51:06Z" changeset="119739770" uid="242345" user="confusedbuffalo">
    <nd ref="6519080251"/>
    <nd ref="6519080248"/>
    <nd ref="6519080247"/>
    <nd ref="6519080246"/>
    <nd ref="6519080249"/>
    <nd ref="6519080250"/>
    <nd ref="6519080244"/>
    <nd ref="6519080245"/>
    <nd ref="6519080251"/>
    <tag k="addr:city" v="Cambridge"/>
    <tag k="addr:housename" v="Siegfried Sassoon House"/>
    <tag k="addr:housenumber" v="32-56"/>
    <tag k="addr:postcode" v="CB2 9EW"/>
    <tag k="addr:street" v="Renard Way"/>
    <tag k="building" v="yes"/>
  </way>
  <way id="694358326" version="4" timestamp="2023-08-24T23:13:45Z" changeset="140345573" uid="1102246" user="jtn20">
    <nd ref="6519080282"/>
    <nd ref="6519080281"/>
    <nd ref="6519080285"/>
    <nd ref="6519080286"/>
    <nd ref="6519080283"/>
    <nd ref="6519080284"/>
    <nd ref="6519080282"/>
    <tag k="addr:city" v="Cambridge"/>
    <tag k="addr:housenumber" v="122-134"/>
    <tag k="addr:postcode" v="CB2 9FU"/>
    <tag k="addr:street" v="Osprey Drive"/>
    <tag k="building" v="yes"/>
    <tag k="building:levels" v="4"/>
  </way>
  <way id="694358328" version="4" timestamp="2021-06-09T18:43:30Z" changeset="106112215" uid="11580939" user="mk270">
    <nd ref="6519080296"/>
    <nd ref="8021602013"/>
    <nd ref="8021602012"/>
    <nd ref="6519080295"/>
    <nd ref="6519080296"/>
    <tag k="addr:city" v="Cambridge"/>
    <tag k="addr:housenumber" v="12"/>
    <tag k="addr:postcode" v="CB2 9GG"/>
    <tag k="addr:street" v="Britannia Walk"/>
    <tag k="building" v="residential"/>
    <tag k="building:levels" v="3"/>
  </way>
  <way id="694358329" version="2" timestamp="2021-06-09T13:09:17Z" changeset="106097699" uid="11580939" user="mk270">
    <nd ref="6519080302"/>
    <nd ref="6519080301"/>
    <nd ref="6519080300"/>
    <nd ref="6519080299"/>
    <nd ref="6519080302"/>
    <tag k="addr:housenumber" v="1"/>
    <tag k="addr:street" v="Falcon Road"/>
    <tag k="building" v="yes"/>
  </way>
  <way id="694358330" version="1" timestamp="2019-06-03T21:35:25Z" changeset="70901433" uid="5173844" user="ndrw6">
    <nd ref="6519080303"/>
    <nd ref="5157045315"/>
    <nd ref="5157051328"/>
    <nd ref="6519080304"/>
    <nd ref="6519080303"/>
    <tag k="addr:city" v="Cambridge"/>
    <tag k="addr:housenumber" v="55"/>
    <tag k="addr:postcode" v="CB2 9EW"/>
    <tag k="addr:street" v="Renard Way"/>
    <tag k="building" v="residential"/>
    <tag k="source" v="survey"/>
  </way>
  <way id="694358331" version="1" timestamp="2019-06-03T21:35:25Z" changeset="70901433" uid="5173844" user="ndrw6">
    <nd ref="6519080309"/>
    <nd ref="5157045312"/>
    <nd ref="5157051327"/>
    <nd ref="6519080310"/>
    <nd ref="6519080309"/>
    <tag k="addr:city" v="Cambridge"/>
    <tag k="addr:housenumber" v="63"/>
    <tag k="addr:postcode" v="CB2 9EW"/>
    <tag k="addr:street" v="Renard Way"/>
    <tag k="building" v="residential"/>
    <tag k="source" v="survey"/>
  </way>
  <way id="694358332" version="1" timestamp="2019-06-03T21:35:25Z" changeset="70901433" uid="5173844" user="ndrw6">
    <nd ref="6519080308"/>
    <nd ref="5157051327"/>
    <nd ref="5157045312"/>
    <nd ref="6519080307"/>
    <nd ref="6519080308"/>
    <tag k="addr:city" v="Cambridge"/>
    <tag k="addr:housenumber" v="61"/>
    <tag k="addr:postcode" v="CB2 9EW"/>
    <tag k="addr:street" v="Renard Way"/>
    <tag k="building" v="residential"/>
    <tag k="source" v="survey"/>
  </way>
  <way id="694358333" version="1" timestamp="2019-06-03T21:35:25Z" changeset="70901433" uid="5173844" user="ndrw6">
    <nd ref="6519080304"/>
    <nd ref="6519080306"/>
    <nd ref="6519080305"/>
    <nd ref="6519080303"/>
    <nd ref="6519080304"/>
    <tag k="addr:city" v="Cambridge"/>
    <tag k="addr:housenumber" v="57"/>
    <tag k="addr:postcode" v="CB2 9EW"/>
    <tag k="addr:street" v="Renard Way"/>
    <tag k="building" v="residential"/>
    <tag k="source" v="survey"/>
  </way>
  <way id="694358334" version="1" timestamp="2019-06-03T21:35:25Z" changeset="70901433" uid="5173844" user="ndrw6">
    <nd ref="6519080314"/>
    <nd ref="5157051326"/>
    <nd ref="5157051323"/>
    <nd ref="6519080313"/>
    <nd ref="6519080314"/>
    <tag k="addr:city" v="Cambridge"/>
    <tag k="addr:housenumber" v="69"/>
    <tag k="addr:postcode" v="CB2 9EW"/>
    <tag k="addr:street" v="Renard Way"/>
    <tag k="building" v="residential"/>
    <tag k="source" v="survey"/>
  </way>
  <way id="694358335" version="1" timestamp="2019-06-03T21:35:25Z" changeset="70901433" uid="5173844" user="ndrw6">
    <nd ref="6519080310"/>
    <nd ref="6519080312"/>
    <nd ref="6519080311"/>
    <nd ref="6519080309"/>
    <nd ref="6519080310"/>
    <tag k="addr:city" v="Cambridge"/>
    <tag k="addr:housenumber" v="65"/>
    <tag k="addr:postcode" v="CB2 9EW"/>
    <tag k="addr:street" v="Renard Way"/>
    <tag k="building" v="residential"/>
    <tag k="source" v="survey"/>
  </way>
  <way id="694358336" version="1" timestamp="2019-06-03T21:35:25Z" changeset="70901433" uid="5173844" user="ndrw6">
    <nd ref="6519080315"/>
    <nd ref="5157023031"/>
    <nd ref="5157023027"/>
    <nd ref="6519080316"/>
    <nd ref="6519080315"/>
    <tag k="addr:city" v="Cambridge"/>
    <tag k="addr:housenumber" v="14"/>
    <tag k="addr:postcode" v="CB2 9FX"/>
    <tag k="addr:street" v="Kinsman Way"/>
    <tag k="building" v="residential"/>
  </way>
  <way id="694358337" version="1" timestamp="2019-06-03T21:35:25Z" changeset="70901433" uid="5173844" user="ndrw6">
    <nd ref="6519080316"/>
    <nd ref="6519080318"/>
    <nd ref="6519080317"/>
    <nd ref="6519080315"/>
    <nd ref="6519080316"/>
    <tag k="addr:city" v="Cambridge"/>
    <tag k="addr:housenumber" v="12"/>
    <tag k="addr:postcode" v="CB2 9FX"/>
    <tag k="addr:street" v="Kinsman Way"/>
    <tag k="building" v="residential"/>
  </way>
  <way id="694358338" version="1" timestamp="2019-06-03T21:35:25Z" changeset="70901433" uid="5173844" user="ndrw6">
    <nd ref="6519080318"/>
    <nd ref="6519080320"/>
    <nd ref="6519080319"/>
    <nd ref="6519080317"/>
    <nd ref="6519080318"/>
    <tag k="addr:city" v="Cambridge"/>
    <tag k="addr:housenumber" v="10"/>
    <tag k="addr:postcode" v="CB2 9FX"/>
    <tag k="addr:street" v="Kinsman Way"/>
    <tag k="building" v="residential"/>
  </way>
  <way id="694358339" version="1" timestamp="2019-06-03T21:35:25Z" changeset="70901433" uid="5173844" user="ndrw6">
    <nd ref="6519080322"/>
    <nd ref="5157023035"/>
    <nd ref="5157023024"/>
    <nd ref="6519080321"/>
    <nd ref="6519080322"/>
    <tag k="addr:city" v="Cambridge"/>
    <tag k="addr:housenumber" v="2"/>
    <tag k="addr:postcode" v="CB2 9FX"/>
    <tag k="addr:street" v="Kinsman Way"/>
    <tag k="building" v="residential"/>
  </way>
  <way id="694358340" version="1" timestamp="2019-06-03T21:35:25Z" changeset="70901433" uid="5173844" user="ndrw6">
    <nd ref="6519080323"/>
    <nd ref="5157023033"/>
    <nd ref="5157023030"/>
    <nd ref="6519080324"/>
    <nd ref="6519080323"/>
    <tag k="addr:city" v="Cambridge"/>
    <tag k="addr:housenumber" v="6"/>
    <tag k="addr:postcode" v="CB2 9FX"/>
    <tag k="addr:street" v="Kinsman Way"/>
    <tag k="building" v="residential"/>
  </way>
  <way id="694358341" version="2" timestamp="2021-06-09T19:08:03Z" changeset="106113160" uid="11580939" user="mk270">
    <nd ref="6519080328"/>
    <nd ref="6519080325"/>
    <nd ref="6519080326"/>
    <nd ref="6519080327"/>
    <nd ref="6519080328"/>
    <tag k="addr:housenumber" v="18"/>
    <tag k="addr:street" v="Mardler Close"/>
    <tag k="building" v="yes"/>
  </way>
  <way id="694358342" version="2" timestamp="2022-04-15T07:51:06Z" changeset="119739770" uid="242345" user="confusedbuffalo">
    <nd ref="6519080329"/>
    <nd ref="5157051325"/>
    <nd ref="5157045310"/>
    <nd ref="5157045313"/>
    <nd ref="6519080331"/>
    <nd ref="6519080330"/>
    <nd ref="6519080329"/>
    <tag k="addr:city" v="Cambridge"/>
    <tag k="addr:housenumber" v="16"/>
    <tag k="addr:postcode" v="CB2 9FY"/>
    <tag k="addr:street" v="Mardler Close"/>
    <tag k="building" v="residential"/>
    <tag k="source" v="survey"/>
  </way>
  <way id="766622781" version="1" timestamp="2020-01-26T09:30:07Z" changeset="80092365" uid="10702714" user="cdo256">
    <nd ref="7160014339"/>
    <nd ref="6519080282"/>
    <nd ref="6519080284"/>
    <nd ref="7160014338"/>
    <nd ref="7160014339"/>
    <tag k="addr:city" v="Cambridge"/>
    <tag k="addr:housenumber" v="1-5"/>
    <tag k="addr:postcode" v="CB2 9GG"/>
    <tag k="addr:street" v="Britannia Walk"/>
    <tag k="building" v="apartments"/>
    <tag k="building:levels" v="3"/>
  </way>
  <way id="833358848" version="7" timestamp="2021-03-29T08:36:17Z" changeset="101906263" uid="1287673" user="sloerunner">
    <nd ref="6101230796"/>
    <nd ref="6101230797"/>
    <nd ref="4917804652"/>
    <nd ref="7794836745"/>
    <nd ref="8071447709"/>
    <nd ref="7794836746"/>
    <nd ref="4917801504"/>
    <nd ref="7821047616"/>
    <nd ref="7820132471"/>
    <nd ref="7794836752"/>
    <nd ref="5173253925"/>
    <nd ref="4917801505"/>
    <nd ref="7843015322"/>
    <nd ref="5865167364"/>
    <nd ref="5865167365"/>
    <nd ref="5865167366"/>
    <nd ref="1469235853"/>
    <nd ref="8570989968"/>
    <nd ref="6519080039"/>
    <nd ref="7843015286"/>
    <nd ref="2736607473"/>
    <nd ref="7843015285"/>
    <nd ref="6519080063"/>
    <nd ref="2736594885"/>
    <nd ref="3927239250"/>
    <nd ref="2736594886"/>
    <tag k="highway" v="residential"/>
    <tag k="maxspeed" v="30 mph"/>
    <tag k="name" v="Osprey Drive"/>
    <tag k="oneway" v="no"/>
  </way>
  <way id="833358849" version="1" timestamp="2020-08-02T23:06:57Z" changeset="88852554" uid="11580939" user="mk270">
    <nd ref="6101230796"/>
    <nd ref="6101230795"/>
    <nd ref="6101230788"/>
    <nd ref="6101230794"/>
    <nd ref="6101230793"/>
    <tag k="highway" v="residential"/>
    <tag k="name" v="Porter Road"/>
  </way>
  <way id="837853506" version="7" timestamp="2022-02-11T12:19:45Z" changeset="117285901" uid="5173844" user="ndrw6">
    <nd ref="6101230798"/>
    <nd ref="7823787352"/>
    <nd ref="8021602086"/>
    <nd ref="7820128847"/>
    <tag k="highway" v="residential"/>
    <tag k="name" v="Forester Road"/>
  </way>
  <way id="838298602" version="6" timestamp="2021-06-10T21:09:59Z" changeset="106178449" uid="11580939" user="mk270">
    <nd ref="7823787352"/>
    <nd ref="7823787353"/>
    <nd ref="7823787354"/>
    <nd ref="8021602081"/>
    <nd ref="8821855721"/>
    <tag k="highway" v="residential"/>
    <tag k="name" v="Oxbow Place"/>
  </way>
  <way id="860629729" version="3" timestamp="2025-02-22T01:26:14Z" changeset="162801188" uid="20314039" user="ij96">
    <nd ref="8021585300"/>
    <nd ref="8021585303"/>
    <nd ref="8021585302"/>
    <nd ref="8021585299"/>
    <nd ref="8021585300"/>
    <tag k="addr:housenumber" v="17"/>
    <tag k="addr:street" v="Ploughmans Way"/>
    <tag k="building" v="semidetached_house"/>
  </way>
  <way id="860629730" version="3" timestamp="2025-02-22T01:26:14Z" changeset="162801188" uid="20314039" user="ij96">
    <nd ref="8021585304"/>
    <nd ref="8021585300"/>
    <nd ref="8021585299"/>
    <nd ref="8021585301"/>
    <nd ref="8021585304"/>
    <tag k="addr:housenumber" v="19"/>
    <tag k="addr:street" v="Ploughmans Way"/>
    <tag k="building" v="semidetached_house"/>
  </way>
  <way id="860629731" version="2" timestamp="2021-06-09T17:15:35Z" changeset="106108796" uid="11580939" user="mk270">
    <nd ref="8021585308"/>
    <nd ref="8021585307"/>
    <nd ref="8021585306"/>
    <nd ref="8021585305"/>
    <nd ref="8021585308"/>
    <tag k="addr:housenumber" v="29"/>
    <tag k="addr:street" v="Ploughmans Way"/>
    <tag k="building" v="residential"/>
  </way>
  <way id="860629732" version="2" timestamp="2021-06-09T18:41:02Z" changeset="106112116" uid="11580939" user="mk270">
    <nd ref="8021585312"/>
    <nd ref="8021585311"/>
    <nd ref="8021585310"/>
    <nd ref="8021585309"/>
    <nd ref="8021585312"/>
    <tag k="addr:housenumber" v="27"/>
    <tag k="addr:street" v="Ploughmans Way"/>
    <tag k="building" v="residential"/>
  </way>
  <way id="860629733" version="2" timestamp="2021-06-09T18:41:02Z" changeset="106112116" uid="11580939" user="mk270">
    <nd ref="8021585316"/>
    <nd ref="8021585315"/>
    <nd ref="8021585314"/>
    <nd ref="8021585313"/>
    <nd ref="8021585316"/>
    <tag k="addr:housenumber" v="25"/>
    <tag k="addr:street" v="Ploughmans Way"/>
    <tag k="building" v="residential"/>
  </way>
  <way id="860629734" version="2" timestamp="2021-06-09T18:41:02Z" changeset="106112116" uid="11580939" user="mk270">
    <nd ref="8021585320"/>
    <nd ref="8021585319"/>
    <nd ref="8021585318"/>
    <nd ref="8021585317"/>
    <nd ref="8021585320"/>
    <tag k="addr:housenumber" v="23"/>
    <tag k="addr:street" v="Ploughmans Way"/>
    <tag k="building" v="residential"/>
  </way>
  <way id="860629735" version="2" timestamp="2021-06-09T18:41:02Z" changeset="106112116" uid="11580939" user="mk270">
    <nd ref="8021585324"/>
    <nd ref="8021585323"/>
    <nd ref="8021585322"/>
    <nd ref="8021585321"/>
    <nd ref="8021585324"/>
    <tag k="addr:housenumber" v="21"/>
    <tag k="addr:street" v="Ploughmans Way"/>
    <tag k="building" v="residential"/>
  </way>
  <way id="860629736" version="2" timestamp="2021-06-09T18:41:02Z" changeset="106112116" uid="11580939" user="mk270">
    <nd ref="8021585328"/>
    <nd ref="8021585327"/>
    <nd ref="8021585326"/>
    <nd ref="8021585325"/>
    <nd ref="8021585328"/>
    <tag k="addr:housenumber" v="15"/>
    <tag k="addr:street" v="Ploughmans Way"/>
    <tag k="building" v="residential"/>
  </way>
  <way id="860629737" version="2" timestamp="2021-06-09T18:41:02Z" changeset="106112116" uid="11580939" user="mk270">
    <nd ref="8021585332"/>
    <nd ref="8021585331"/>
    <nd ref="8021585330"/>
    <nd ref="8021585329"/>
    <nd ref="8021585332"/>
    <tag k="addr:housenumber" v="13"/>
    <tag k="addr:street" v="Ploughmans Way"/>
    <tag k="building" v="residential"/>
  </way>
  <way id="860629738" version="2" timestamp="2021-06-09T18:38:33Z" changeset="106112003" uid="11580939" user="mk270">
    <nd ref="8021585336"/>
    <nd ref="8021585335"/>
    <nd ref="8021585334"/>
    <nd ref="8021585333"/>
    <nd ref="8021585336"/>
    <tag k="addr:housenumber" v="11"/>
    <tag k="addr:street" v="Ploughmans Way"/>
    <tag k="building" v="residential"/>
  </way>
  <way id="860629739" version="2" timestamp="2021-06-09T18:38:33Z" changeset="106112003" uid="11580939" user="mk270">
    <nd ref="8021585340"/>
    <nd ref="8021585339"/>
    <nd ref="8021585338"/>
    <nd ref="8021585337"/>
    <nd ref="8021585340"/>
    <tag k="addr:housenumber" v="9"/>
    <tag k="addr:street" v="Ploughmans Way"/>
    <tag k="building" v="residential"/>
  </way>
  <way id="860629741" version="3" timestamp="2022-04-15T07:51:06Z" changeset="119739770" uid="242345" user="confusedbuffalo">
    <nd ref="8021585346"/>
    <nd ref="8021585345"/>
    <nd ref="8021585344"/>
    <nd ref="8021585343"/>
    <nd ref="8021585346"/>
    <tag k="addr:city" v="Cambridge"/>
    <tag k="addr:housenumber" v="22"/>
    <tag k="addr:postcode" v="CB2 9GE"/>
    <tag k="addr:street" v="Ploughmans Way"/>
    <tag k="building" v="residential"/>
  </way>
  <way id="860629742" version="3" timestamp="2022-04-15T07:51:06Z" changeset="119739770" uid="242345" user="confusedbuffalo">
    <nd ref="8021585351"/>
    <nd ref="8021585348"/>
    <nd ref="8021585347"/>
    <nd ref="8021585350"/>
    <nd ref="8021585351"/>
    <tag k="addr:city" v="Cambridge"/>
    <tag k="addr:housenumber" v="18"/>
    <tag k="addr:postcode" v="CB2 9GE"/>
    <tag k="addr:street" v="Ploughmans Way"/>
    <tag k="building" v="residential"/>
  </way>
  <way id="860629743" version="3" timestamp="2022-04-15T07:51:06Z" changeset="119739770" uid="242345" user="confusedbuffalo">
    <nd ref="8021585352"/>
    <nd ref="8021585351"/>
    <nd ref="8021585350"/>
    <nd ref="8021585349"/>
    <nd ref="8021585352"/>
    <tag k="addr:city" v="Cambridge"/>
    <tag k="addr:housenumber" v="20"/>
    <tag k="addr:postcode" v="CB2 9GE"/>
    <tag k="addr:street" v="Ploughmans Way"/>
    <tag k="building" v="residential"/>
  </way>
  <way id="860629744" version="3" timestamp="2022-04-15T07:51:06Z" changeset="119739770" uid="242345" user="confusedbuffalo">
    <nd ref="8021585354"/>
    <nd ref="6101230853"/>
    <nd ref="6101230850"/>
    <nd ref="8021585353"/>
    <nd ref="8021585354"/>
    <tag k="addr:city" v="Cambridge"/>
    <tag k="addr:housenumber" v="14"/>
    <tag k="addr:postcode" v="CB2 9GE"/>
    <tag k="addr:street" v="Ploughmans Way"/>
    <tag k="building" v="residential"/>
  </way>
  <way id="860629745" version="3" timestamp="2022-04-15T07:51:06Z" changeset="119739770" uid="242345" user="confusedbuffalo">
    <nd ref="6101230849"/>
    <nd ref="6101230851"/>
    <nd ref="6101230852"/>
    <nd ref="8021585356"/>
    <nd ref="6101230849"/>
    <tag k="addr:city" v="Cambridge"/>
    <tag k="addr:housenumber" v="24"/>
    <tag k="addr:postcode" v="CB2 9GE"/>
    <tag k="addr:street" v="Ploughmans Way"/>
    <tag k="building" v="residential"/>
  </way>
  <way id="860629746" version="3" timestamp="2022-04-15T07:51:06Z" changeset="119739770" uid="242345" user="confusedbuffalo">
    <nd ref="8021585360"/>
    <nd ref="8021585359"/>
    <nd ref="8021585358"/>
    <nd ref="8021585357"/>
    <nd ref="8021585360"/>
    <tag k="addr:city" v="Cambridge"/>
    <tag k="addr:housenumber" v="1"/>
    <tag k="addr:postcode" v="CB2 9GF"/>
    <tag k="addr:street" v="Porter Road"/>
    <tag k="building" v="residential"/>
  </way>
  <way id="860629747" version="3" timestamp="2022-04-15T07:51:06Z" changeset="119739770" uid="242345" user="confusedbuffalo">
    <nd ref="8021585364"/>
    <nd ref="8021585363"/>
    <nd ref="8021585362"/>
    <nd ref="8021585361"/>
    <nd ref="8021585364"/>
    <tag k="addr:city" v="Cambridge"/>
    <tag k="addr:housenumber" v="3"/>
    <tag k="addr:postcode" v="CB2 9GF"/>
    <tag k="addr:street" v="Porter Road"/>
    <tag k="building" v="residential"/>
  </way>
  <way id="860629748" version="3" timestamp="2022-04-15T07:51:06Z" changeset="119739770" uid="242345" user="confusedbuffalo">
    <nd ref="8021585368"/>
    <nd ref="8021585367"/>
    <nd ref="8021585366"/>
    <nd ref="8021585365"/>
    <nd ref="8021585368"/>
    <tag k="addr:city" v="Cambridge"/>
    <tag k="addr:housenumber" v="5"/>
    <tag k="addr:postcode" v="CB2 9GF"/>
    <tag k="addr:street" v="Porter Road"/>
    <tag k="building" v="residential"/>
  </way>
  <way id="860629749" version="3" timestamp="2022-04-15T07:51:06Z" changeset="119739770" uid="242345" user="confusedbuffalo">
    <nd ref="8021585372"/>
    <nd ref="8021585371"/>
    <nd ref="8021585370"/>
    <nd ref="8021585369"/>
    <nd ref="8021585372"/>
    <tag k="addr:city" v="Cambridge"/>
    <tag k="addr:housenumber" v="7"/>
    <tag k="addr:postcode" v="CB2 9GF"/>
    <tag k="addr:street" v="Porter Road"/>
    <tag k="building" v="residential"/>
  </way>
  <way id="860629750" version="3" timestamp="2023-08-24T23:13:45Z" changeset="140345573" uid="1102246" user="jtn20">
    <nd ref="8021585377"/>
    <nd ref="8021585374"/>
    <nd ref="8021585373"/>
    <nd ref="8021585376"/>
    <nd ref="8021585377"/>
    <tag k="addr:housenumber" v="151"/>
    <tag k="addr:street" v="Osprey Drive"/>
    <tag k="building" v="yes"/>
    <tag k="building:levels" v="3"/>
  </way>
  <way id="860629751" version="3" timestamp="2023-08-24T23:13:45Z" changeset="140345573" uid="1102246" user="jtn20">
    <nd ref="8021585378"/>
    <nd ref="8021585377"/>
    <nd ref="8021585376"/>
    <nd ref="8021585375"/>
    <nd ref="8021585378"/>
    <tag k="addr:housenumber" v="153"/>
    <tag k="addr:street" v="Osprey Drive"/>
    <tag k="building" v="yes"/>
    <tag k="building:levels" v="3"/>
  </way>
  <way id="860629752" version="3" timestamp="2023-08-24T23:13:45Z" changeset="140345573" uid="1102246" user="jtn20">
    <nd ref="8021585380"/>
    <nd ref="8021585384"/>
    <nd ref="8021585381"/>
    <nd ref="8021585379"/>
    <nd ref="8021585380"/>
    <tag k="addr:housenumber" v="147"/>
    <tag k="addr:street" v="Osprey Drive"/>
    <tag k="building" v="yes"/>
    <tag k="building:levels" v="3"/>
  </way>
  <way id="860629753" version="3" timestamp="2023-08-24T23:13:45Z" changeset="140345573" uid="1102246" user="jtn20">
    <nd ref="8021585383"/>
    <nd ref="8021585380"/>
    <nd ref="8021585379"/>
    <nd ref="8021585382"/>
    <nd ref="8021585383"/>
    <tag k="addr:housenumber" v="149"/>
    <tag k="addr:street" v="Osprey Drive"/>
    <tag k="building" v="yes"/>
    <tag k="building:levels" v="3"/>
  </way>
  <way id="860629754" version="3" timestamp="2023-08-24T23:13:45Z" changeset="140345573" uid="1102246" user="jtn20">
    <nd ref="8021601888"/>
    <nd ref="8021601885"/>
    <nd ref="8021601886"/>
    <nd ref="8021601887"/>
    <nd ref="8021601888"/>
    <tag k="addr:housenumber" v="145"/>
    <tag k="addr:street" v="Osprey Drive"/>
    <tag k="building" v="yes"/>
    <tag k="building:levels" v="3"/>
  </way>
  <way id="860629755" version="2" timestamp="2021-06-09T17:20:06Z" changeset="106108924" uid="11580939" user="mk270">
    <nd ref="8021601893"/>
    <nd ref="8021601890"/>
    <nd ref="8021601889"/>
    <nd ref="8021601892"/>
    <nd ref="8021601893"/>
    <tag k="addr:housenumber" v="144"/>
    <tag k="addr:street" v="Osprey Drive"/>
    <tag k="building" v="yes"/>
  </way>
  <way id="860629756" version="2" timestamp="2021-06-09T17:20:06Z" changeset="106108924" uid="11580939" user="mk270">
    <nd ref="8021601894"/>
    <nd ref="8021601893"/>
    <nd ref="8021601892"/>
    <nd ref="8021601891"/>
    <nd ref="8021601894"/>
    <tag k="addr:housenumber" v="146"/>
    <tag k="addr:street" v="Osprey Drive"/>
    <tag k="building" v="yes"/>
  </way>
  <way id="860629757" version="2" timestamp="2021-06-09T17:20:06Z" changeset="106108924" uid="11580939" user="mk270">
    <nd ref="8021601896"/>
    <nd ref="8021601900"/>
    <nd ref="8021601897"/>
    <nd ref="8021601895"/>
    <nd ref="8021601896"/>
    <tag k="addr:housenumber" v="140"/>
    <tag k="addr:street" v="Osprey Drive"/>
    <tag k="building" v="yes"/>
  </way>
  <way id="860629758" version="2" timestamp="2021-06-10T21:23:59Z" changeset="106178862" uid="11580939" user="mk270">
    <nd ref="8021601899"/>
    <nd ref="8021601896"/>
    <nd ref="8021601895"/>
    <nd ref="8021601898"/>
    <nd ref="8021601899"/>
    <tag k="addr:housenumber" v="142"/>
    <tag k="addr:street" v="Osprey Drive"/>
    <tag k="building" v="yes"/>
  </way>
  <way id="860629759" version="2" timestamp="2021-06-09T17:20:06Z" changeset="106108924" uid="11580939" user="mk270">
    <nd ref="8021601902"/>
    <nd ref="8021601906"/>
    <nd ref="8021601903"/>
    <nd ref="8021601901"/>
    <nd ref="8021601902"/>
    <tag k="addr:housenumber" v="136"/>
    <tag k="addr:street" v="Osprey Drive"/>
    <tag k="building" v="yes"/>
  </way>
  <way id="860629760" version="2" timestamp="2021-06-10T21:23:59Z" changeset="106178862" uid="11580939" user="mk270">
    <nd ref="8021601905"/>
    <nd ref="8021601902"/>
    <nd ref="8021601901"/>
    <nd ref="8021601904"/>
    <nd ref="8021601905"/>
    <tag k="addr:housenumber" v="138"/>
    <tag k="addr:street" v="Osprey Drive"/>
    <tag k="building" v="yes"/>
  </way>
  <way id="860629777" version="2" timestamp="2021-06-09T18:38:33Z" changeset="106112003" uid="11580939" user="mk270">
    <nd ref="8021601964"/>
    <nd ref="6101230838"/>
    <nd ref="6101230839"/>
    <nd ref="8021601963"/>
    <nd ref="8021601964"/>
    <tag k="addr:housenumber" v="3"/>
    <tag k="addr:street" v="Ploughmans Way"/>
    <tag k="building" v="residential"/>
  </way>
  <way id="860629778" version="2" timestamp="2021-06-10T18:24:04Z" changeset="106172110" uid="11580939" user="mk270">
    <nd ref="8021601966"/>
    <nd ref="6101230842"/>
    <nd ref="6101230843"/>
    <nd ref="8021601965"/>
    <nd ref="8021601966"/>
    <tag k="addr:housenumber" v="12"/>
    <tag k="addr:street" v="Ploughmans Way"/>
    <tag k="building" v="residential"/>
  </way>
  <way id="860629779" version="2" timestamp="2021-06-10T18:24:04Z" changeset="106172110" uid="11580939" user="mk270">
    <nd ref="8021601968"/>
    <nd ref="6101230830"/>
    <nd ref="6101230831"/>
    <nd ref="8021601967"/>
    <nd ref="8021601968"/>
    <tag k="addr:housenumber" v="8"/>
    <tag k="addr:street" v="Ploughmans Way"/>
    <tag k="building" v="residential"/>
  </way>
  <way id="860629780" version="2" timestamp="2021-06-10T18:24:04Z" changeset="106172110" uid="11580939" user="mk270">
    <nd ref="8021601970"/>
    <nd ref="6101230826"/>
    <nd ref="6101230827"/>
    <nd ref="8021601969"/>
    <nd ref="8021601970"/>
    <tag k="addr:housenumber" v="4"/>
    <tag k="addr:street" v="Ploughmans Way"/>
    <tag k="building" v="residential"/>
  </way>
  <way id="860629786" version="3" timestamp="2023-08-24T23:13:45Z" changeset="140345573" uid="1102246" user="jtn20">
    <nd ref="8021601999"/>
    <nd ref="8021601996"/>
    <nd ref="8021601997"/>
    <nd ref="8021601998"/>
    <nd ref="8021601999"/>
    <tag k="addr:housenumber" v="6"/>
    <tag k="addr:street" v="Britannia Walk"/>
    <tag k="building" v="yes"/>
    <tag k="building:levels" v="3"/>
  </way>
  <way id="860629787" version="2" timestamp="2021-06-09T18:43:30Z" changeset="106112215" uid="11580939" user="mk270">
    <nd ref="8021602004"/>
    <nd ref="8021602001"/>
    <nd ref="8021602000"/>
    <nd ref="8021602003"/>
    <nd ref="8021602004"/>
    <tag k="addr:city" v="Cambridge"/>
    <tag k="addr:housenumber" v="7"/>
    <tag k="addr:postcode" v="CB2 9GG"/>
    <tag k="addr:street" v="Britannia Walk"/>
    <tag k="building" v="residential"/>
    <tag k="building:levels" v="3"/>
  </way>
  <way id="860629788" version="2" timestamp="2021-06-09T18:43:30Z" changeset="106112215" uid="11580939" user="mk270">
    <nd ref="8021602005"/>
    <nd ref="8021602004"/>
    <nd ref="8021602003"/>
    <nd ref="8021602002"/>
    <nd ref="8021602005"/>
    <tag k="addr:city" v="Cambridge"/>
    <tag k="addr:housenumber" v="8"/>
    <tag k="addr:postcode" v="CB2 9GG"/>
    <tag k="addr:street" v="Britannia Walk"/>
    <tag k="building" v="residential"/>
    <tag k="building:levels" v="3"/>
  </way>
  <way id="860629789" version="2" timestamp="2021-06-09T18:43:30Z" changeset="106112215" uid="11580939" user="mk270">
    <nd ref="8021602010"/>
    <nd ref="8021602007"/>
    <nd ref="8021602006"/>
    <nd ref="8021602009"/>
    <nd ref="8021602010"/>
    <tag k="addr:city" v="Cambridge"/>
    <tag k="addr:housenumber" v="9"/>
    <tag k="addr:postcode" v="CB2 9GG"/>
    <tag k="addr:street" v="Britannia Walk"/>
    <tag k="building" v="residential"/>
    <tag k="building:levels" v="3"/>
  </way>
  <way id="860629790" version="2" timestamp="2021-06-09T18:43:30Z" changeset="106112215" uid="11580939" user="mk270">
    <nd ref="8021602011"/>
    <nd ref="8021602010"/>
    <nd ref="8021602009"/>
    <nd ref="8021602008"/>
    <nd ref="8021602011"/>
    <tag k="addr:city" v="Cambridge"/>
    <tag k="addr:housenumber" v="10"/>
    <tag k="addr:postcode" v="CB2 9GG"/>
    <tag k="addr:street" v="Britannia Walk"/>
    <tag k="building" v="residential"/>
    <tag k="building:levels" v="3"/>
  </way>
  <way id="860629791" version="2" timestamp="2021-06-09T18:43:30Z" changeset="106112215" uid="11580939" user="mk270">
    <nd ref="8021602013"/>
    <nd ref="6519080293"/>
    <nd ref="6519080294"/>
    <nd ref="8021602012"/>
    <nd ref="8021602013"/>
    <tag k="addr:city" v="Cambridge"/>
    <tag k="addr:housenumber" v="11"/>
    <tag k="addr:postcode" v="CB2 9GG"/>
    <tag k="addr:street" v="Britannia Walk"/>
    <tag k="building" v="residential"/>
    <tag k="building:levels" v="3"/>
  </way>
  <way id="860629798" version="4" timestamp="2022-04-15T07:51:06Z" changeset="119739770" uid="242345" user="confusedbuffalo">
    <nd ref="8021602042"/>
    <nd ref="8021602039"/>
    <nd ref="8021602040"/>
    <nd ref="8021602041"/>
    <nd ref="8021602042"/>
    <tag k="addr:city" v="Cambridge"/>
    <tag k="addr:housenumber" v="13"/>
    <tag k="addr:postcode" v="CB2 9GJ"/>
    <tag k="addr:street" v="Avocet Road"/>
    <tag k="building" v="yes"/>
  </way>
  <way id="860629799" version="4" timestamp="2022-04-15T07:51:06Z" changeset="119739770" uid="242345" user="confusedbuffalo">
    <nd ref="8021602044"/>
    <nd ref="6519080184"/>
    <nd ref="6519080185"/>
    <nd ref="8021602043"/>
    <nd ref="8021602044"/>
    <tag k="addr:city" v="Cambridge"/>
    <tag k="addr:housenumber" v="9"/>
    <tag k="addr:postcode" v="CB2 9GJ"/>
    <tag k="addr:street" v="Avocet Road"/>
    <tag k="building" v="residential"/>
  </way>
  <way id="860629800" version="4" timestamp="2022-04-15T07:51:06Z" changeset="119739770" uid="242345" user="confusedbuffalo">
    <nd ref="8021602046"/>
    <nd ref="6519080180"/>
    <nd ref="6519080181"/>
    <nd ref="8021602045"/>
    <nd ref="8021602046"/>
    <tag k="addr:city" v="Cambridge"/>
    <tag k="addr:housenumber" v="5"/>
    <tag k="addr:postcode" v="CB2 9GJ"/>
    <tag k="addr:street" v="Avocet Road"/>
    <tag k="building" v="residential"/>
  </way>
  <way id="860629801" version="4" timestamp="2022-04-15T07:51:06Z" changeset="119739770" uid="242345" user="confusedbuffalo">
    <nd ref="8021602050"/>
    <nd ref="8021602049"/>
    <nd ref="8021602048"/>
    <nd ref="8021602047"/>
    <nd ref="8021602050"/>
    <tag k="addr:city" v="Cambridge"/>
    <tag k="addr:housenumber" v="2"/>
    <tag k="addr:postcode" v="CB2 9GH"/>
    <tag k="addr:street" v="Hornet Road"/>
    <tag k="building" v="residential"/>
  </way>
  <way id="860629802" version="4" timestamp="2022-04-15T07:51:06Z" changeset="119739770" uid="242345" user="confusedbuffalo">
    <nd ref="8021602054"/>
    <nd ref="8021602053"/>
    <nd ref="8021602052"/>
    <nd ref="8021602051"/>
    <nd ref="8021602054"/>
    <tag k="addr:city" v="Cambridge"/>
    <tag k="addr:housenumber" v="4"/>
    <tag k="addr:postcode" v="CB2 9GH"/>
    <tag k="addr:street" v="Hornet Road"/>
    <tag k="building" v="residential"/>
  </way>
  <way id="860629803" version="4" timestamp="2022-04-15T07:51:06Z" changeset="119739770" uid="242345" user="confusedbuffalo">
    <nd ref="8021602058"/>
    <nd ref="8021602057"/>
    <nd ref="8021602056"/>
    <nd ref="8021602055"/>
    <nd ref="8021602058"/>
    <tag k="addr:city" v="Cambridge"/>
    <tag k="addr:housenumber" v="6"/>
    <tag k="addr:postcode" v="CB2 9GH"/>
    <tag k="addr:street" v="Hornet Road"/>
    <tag k="building" v="residential"/>
  </way>
  <way id="860629804" version="4" timestamp="2022-04-15T07:51:06Z" changeset="119739770" uid="242345" user="confusedbuffalo">
    <nd ref="8021602062"/>
    <nd ref="8021602061"/>
    <nd ref="8021602060"/>
    <nd ref="8021602059"/>
    <nd ref="8021602062"/>
    <tag k="addr:city" v="Cambridge"/>
    <tag k="addr:housenumber" v="1"/>
    <tag k="addr:postcode" v="CB2 9GH"/>
    <tag k="addr:street" v="Hornet Road"/>
    <tag k="building" v="residential"/>
  </way>
  <way id="860629805" version="4" timestamp="2022-04-15T07:51:06Z" changeset="119739770" uid="242345" user="confusedbuffalo">
    <nd ref="8021602066"/>
    <nd ref="8021602065"/>
    <nd ref="8021602064"/>
    <nd ref="8021602063"/>
    <nd ref="8021602066"/>
    <tag k="addr:city" v="Cambridge"/>
    <tag k="addr:housenumber" v="3"/>
    <tag k="addr:postcode" v="CB2 9GH"/>
    <tag k="addr:street" v="Hornet Road"/>
    <tag k="building" v="residential"/>
  </way>
  <way id="860629806" version="4" timestamp="2022-04-15T07:51:06Z" changeset="119739770" uid="242345" user="confusedbuffalo">
    <nd ref="8021602070"/>
    <nd ref="8021602069"/>
    <nd ref="8021602068"/>
    <nd ref="8021602067"/>
    <nd ref="8021602070"/>
    <tag k="addr:city" v="Cambridge"/>
    <tag k="addr:housenumber" v="5"/>
    <tag k="addr:postcode" v="CB2 9GH"/>
    <tag k="addr:street" v="Hornet Road"/>
    <tag k="building" v="residential"/>
  </way>
  <way id="860629807" version="4" timestamp="2022-04-15T07:51:06Z" changeset="119739770" uid="242345" user="confusedbuffalo">
    <nd ref="8021602074"/>
    <nd ref="8021602073"/>
    <nd ref="8021602072"/>
    <nd ref="8021602071"/>
    <nd ref="8021602074"/>
    <tag k="addr:city" v="Cambridge"/>
    <tag k="addr:housenumber" v="2"/>
    <tag k="addr:postcode" v="CB2 9GL"/>
    <tag k="addr:street" v="Forester Road"/>
    <tag k="building" v="residential"/>
  </way>
  <way id="860629808" version="4" timestamp="2022-04-15T07:51:06Z" changeset="119739770" uid="242345" user="confusedbuffalo">
    <nd ref="8021602078"/>
    <nd ref="8021602077"/>
    <nd ref="8021602076"/>
    <nd ref="8021602075"/>
    <nd ref="8021602078"/>
    <tag k="addr:city" v="Cambridge"/>
    <tag k="addr:housenumber" v="4"/>
    <tag k="addr:postcode" v="CB2 9GL"/>
    <tag k="addr:street" v="Forester Road"/>
    <tag k="building" v="residential"/>
  </way>
  <way id="860629810" version="2" timestamp="2021-02-26T06:50:15Z" changeset="100025343" uid="5047106" user="Fam Zheng">
    <nd ref="8021602085"/>
    <nd ref="8460157617"/>
    <nd ref="8021602084"/>
    <nd ref="8460157618"/>
    <tag k="construction" v="residential"/>
    <tag k="highway" v="residential"/>
    <tag k="name" v="Avocet Road"/>
  </way>
  <way id="860629812" version="2" timestamp="2021-06-09T18:41:02Z" changeset="106112116" uid="11580939" user="mk270">
    <nd ref="8021602096"/>
    <nd ref="8021602093"/>
    <nd ref="8021602092"/>
    <nd ref="8021602095"/>
    <nd ref="8021602096"/>
    <tag k="addr:housenumber" v="32"/>
    <tag k="addr:street" v="Ploughmans Way"/>
    <tag k="building" v="residential"/>
  </way>
  <way id="860629813" version="2" timestamp="2021-06-09T18:41:02Z" changeset="106112116" uid="11580939" user="mk270">
    <nd ref="8021602097"/>
    <nd ref="8021602096"/>
    <nd ref="8021602095"/>
    <nd ref="8021602094"/>
    <nd ref="8021602097"/>
    <tag k="addr:housenumber" v="34"/>
    <tag k="addr:street" v="Ploughmans Way"/>
    <tag k="building" v="residential"/>
  </way>
  <way id="860629814" version="2" timestamp="2021-06-09T18:41:02Z" changeset="106112116" uid="11580939" user="mk270">
    <nd ref="8021602101"/>
    <nd ref="6519080125"/>
    <nd ref="6519080122"/>
    <nd ref="8021602100"/>
    <nd ref="8021602101"/>
    <tag k="addr:housenumber" v="28"/>
    <tag k="addr:street" v="Ploughmans Way"/>
    <tag k="building" v="residential"/>
  </way>
  <way id="860629815" version="2" timestamp="2021-06-09T18:36:52Z" changeset="106111930" uid="11580939" user="mk270">
    <nd ref="8021602106"/>
    <nd ref="8021602105"/>
    <nd ref="8021602104"/>
    <nd ref="8021602103"/>
    <nd ref="8021602106"/>
    <tag k="addr:housenumber" v="6"/>
    <tag k="addr:street" v="Porter Road"/>
    <tag k="building" v="residential"/>
  </way>
  <way id="860629816" version="3" timestamp="2023-08-24T23:13:45Z" changeset="140345573" uid="1102246" user="jtn20">
    <nd ref="8021602111"/>
    <nd ref="8021602108"/>
    <nd ref="8021602107"/>
    <nd ref="8021602110"/>
    <nd ref="8021602111"/>
    <tag k="addr:housenumber" v="172"/>
    <tag k="addr:street" v="Osprey Drive"/>
    <tag k="building" v="house"/>
  </way>
  <way id="860629817" version="3" timestamp="2023-08-24T23:13:45Z" changeset="140345573" uid="1102246" user="jtn20">
    <nd ref="8021602112"/>
    <nd ref="8021602111"/>
    <nd ref="8021602110"/>
    <nd ref="8021602109"/>
    <nd ref="8021602112"/>
    <tag k="addr:housenumber" v="174"/>
    <tag k="addr:street" v="Osprey Drive"/>
    <tag k="building" v="house"/>
  </way>
  <way id="860629818" version="3" timestamp="2023-08-24T23:13:45Z" changeset="140345573" uid="1102246" user="jtn20">
    <nd ref="8021602117"/>
    <nd ref="8021602114"/>
    <nd ref="8021602113"/>
    <nd ref="8021602116"/>
    <nd ref="8021602117"/>
    <tag k="addr:housenumber" v="168"/>
    <tag k="addr:street" v="Osprey Drive"/>
    <tag k="building" v="house"/>
  </way>
  <way id="860629819" version="3" timestamp="2023-08-24T23:13:45Z" changeset="140345573" uid="1102246" user="jtn20">
    <nd ref="8021602118"/>
    <nd ref="8021602117"/>
    <nd ref="8021602116"/>
    <nd ref="8021602115"/>
    <nd ref="8021602118"/>
    <tag k="addr:housenumber" v="170"/>
    <tag k="addr:street" v="Osprey Drive"/>
    <tag k="building" v="house"/>
  </way>
  <way id="860629820" version="3" timestamp="2023-08-24T23:13:45Z" changeset="140345573" uid="1102246" user="jtn20">
    <nd ref="8021602120"/>
    <nd ref="8021602126"/>
    <nd ref="8021602123"/>
    <nd ref="8021602119"/>
    <nd ref="8021602120"/>
    <tag k="addr:housenumber" v="164"/>
    <tag k="addr:street" v="Osprey Drive"/>
    <tag k="building" v="house"/>
  </way>
  <way id="860629821" version="2" timestamp="2021-06-10T18:22:50Z" changeset="106172070" uid="11580939" user="mk270">
    <nd ref="8021602122"/>
    <nd ref="8021602129"/>
    <nd ref="8021602128"/>
    <nd ref="8021602121"/>
    <nd ref="8021602122"/>
    <tag k="addr:housenumber" v="1"/>
    <tag k="addr:street" v="Forester Road"/>
    <tag k="building" v="yes"/>
  </way>
  <way id="860629822" version="3" timestamp="2023-08-24T23:13:45Z" changeset="140345573" uid="1102246" user="jtn20">
    <nd ref="8021602125"/>
    <nd ref="8021602120"/>
    <nd ref="8021602119"/>
    <nd ref="8021602124"/>
    <nd ref="8021602125"/>
    <tag k="addr:housenumber" v="166"/>
    <tag k="addr:street" v="Osprey Drive"/>
    <tag k="building" v="house"/>
  </way>
  <way id="860629824" version="2" timestamp="2021-06-09T17:20:06Z" changeset="106108924" uid="11580939" user="mk270">
    <nd ref="8021602134"/>
    <nd ref="8021602133"/>
    <nd ref="8021602132"/>
    <nd ref="8021602131"/>
    <nd ref="8021602134"/>
    <tag k="addr:housenumber" v="3"/>
    <tag k="addr:street" v="Forester Road"/>
    <tag k="building" v="yes"/>
  </way>
  <way id="860629825" version="2" timestamp="2021-06-09T17:20:06Z" changeset="106108924" uid="11580939" user="mk270">
    <nd ref="8021602138"/>
    <nd ref="8021602137"/>
    <nd ref="8021602136"/>
    <nd ref="8021602135"/>
    <nd ref="8021602138"/>
    <tag k="addr:housenumber" v="3"/>
    <tag k="addr:street" v="Oxbow Place"/>
    <tag k="building" v="yes"/>
  </way>
  <way id="860629826" version="4" timestamp="2022-04-15T07:51:06Z" changeset="119739770" uid="242345" user="confusedbuffalo">
    <nd ref="8021602142"/>
    <nd ref="8021602139"/>
    <nd ref="8021602140"/>
    <nd ref="8021602141"/>
    <nd ref="8021602142"/>
    <tag k="addr:city" v="Cambridge"/>
    <tag k="addr:housenumber" v="1"/>
    <tag k="addr:postcode" v="CB2 9GN"/>
    <tag k="addr:street" v="Oxbow Place"/>
    <tag k="building" v="yes"/>
  </way>
  <way id="860629827" version="2" timestamp="2021-06-09T19:13:47Z" changeset="106113421" uid="11580939" user="mk270">
    <nd ref="8021602146"/>
    <nd ref="8021602145"/>
    <nd ref="8021602144"/>
    <nd ref="8021602143"/>
    <nd ref="8021602146"/>
    <tag k="addr:housenumber" v="23"/>
    <tag k="addr:street" v="Avocet Road"/>
    <tag k="building" v="yes"/>
  </way>
  <way id="860629828" version="2" timestamp="2021-02-26T06:50:15Z" changeset="100025343" uid="5047106" user="Fam Zheng">
    <nd ref="8021602150"/>
    <nd ref="8021602149"/>
    <nd ref="8021602148"/>
    <nd ref="8021602147"/>
    <nd ref="8021602150"/>
    <tag k="addr:city" v="Cambridge"/>
    <tag k="addr:housenumber" v="21"/>
    <tag k="addr:postcode" v="CB2 9GJ"/>
    <tag k="addr:street" v="Avocet Road"/>
    <tag k="building" v="yes"/>
  </way>
  <way id="860629829" version="2" timestamp="2021-06-09T19:13:47Z" changeset="106113421" uid="11580939" user="mk270">
    <nd ref="8021602154"/>
    <nd ref="8021602153"/>
    <nd ref="8021602152"/>
    <nd ref="8021602151"/>
    <nd ref="8021602154"/>
    <tag k="addr:housenumber" v="19"/>
    <tag k="addr:street" v="Avocet Road"/>
    <tag k="building" v="yes"/>
  </way>
  <way id="860629830" version="2" timestamp="2021-06-09T19:13:47Z" changeset="106113421" uid="11580939" user="mk270">
    <nd ref="8021602158"/>
    <nd ref="8021602157"/>
    <nd ref="8021602156"/>
    <nd ref="8021602155"/>
    <nd ref="8021602158"/>
    <tag k="addr:housenumber" v="17"/>
    <tag k="addr:street" v="Avocet Road"/>
    <tag k="building" v="yes"/>
  </way>
  <way id="860629831" version="2" timestamp="2021-06-09T19:12:03Z" changeset="106113353" uid="11580939" user="mk270">
    <nd ref="8021602162"/>
    <nd ref="8021602161"/>
    <nd ref="8021602160"/>
    <nd ref="8021602159"/>
    <nd ref="8021602162"/>
    <tag k="addr:housenumber" v="15"/>
    <tag k="addr:street" v="Avocet Road"/>
    <tag k="building" v="yes"/>
  </way>
  <way id="860629832" version="2" timestamp="2021-06-09T18:43:30Z" changeset="106112215" uid="11580939" user="mk270">
    <nd ref="8021602170"/>
    <nd ref="8021602169"/>
    <nd ref="8021602168"/>
    <nd ref="8021602166"/>
    <nd ref="8021602164"/>
    <nd ref="8021602163"/>
    <nd ref="8021602165"/>
    <nd ref="8021602167"/>
    <nd ref="8021602170"/>
    <tag k="addr:housenumber" v="14-20"/>
    <tag k="addr:street" v="Britannia Walk"/>
    <tag k="building" v="yes"/>
  </way>
  <way id="864011507" version="4" timestamp="2024-02-28T20:10:06Z" changeset="148027146" uid="5173844" user="ndrw6">
    <nd ref="8048985443"/>
    <nd ref="8048985451"/>
    <nd ref="8048985444"/>
    <tag k="highway" v="residential"/>
    <tag k="name" v="Deacon Drive"/>
  </way>
  <way id="864011511" version="6" timestamp="2024-02-28T20:10:06Z" changeset="148027146" uid="5173844" user="ndrw6">
    <nd ref="8048985451"/>
    <nd ref="8048985452"/>
    <nd ref="8048985453"/>
    <nd ref="8048985456"/>
    <tag k="highway" v="residential"/>
    <tag k="name" v="Maythorpe Road"/>
  </way>
  <way id="864011512" version="4" timestamp="2023-04-25T23:09:34Z" changeset="135362183" uid="11580939" user="mk270">
    <nd ref="8048985457"/>
    <nd ref="10840551577"/>
    <nd ref="8048985458"/>
    <tag k="highway" v="residential"/>
    <tag k="name" v="Osprey Drive"/>
  </way>
  <way id="952762336" version="3" timestamp="2022-02-11T12:19:45Z" changeset="117285901" uid="5173844" user="ndrw6">
    <nd ref="8821855721"/>
    <nd ref="7820128847"/>
    <nd ref="8460157618"/>
    <tag k="highway" v="residential"/>
    <tag k="name" v="Forester Road"/>
  </way>
  <way id="952762696" version="2" timestamp="2022-04-15T07:51:06Z" changeset="119739770" uid="242345" user="confusedbuffalo">
    <nd ref="8818671578"/>
    <nd ref="8818671579"/>
    <nd ref="8818671580"/>
    <nd ref="8818671581"/>
    <nd ref="8818671578"/>
    <tag k="addr:city" v="Cambridge"/>
    <tag k="addr:housenumber" v="1"/>
    <tag k="addr:postcode" v="CB2 9GJ"/>
    <tag k="addr:street" v="Avocet Road"/>
    <tag k="building" v="residential"/>
  </way>
  <way id="953103442" version="2" timestamp="2022-02-11T12:19:45Z" changeset="117285901" uid="5173844" user="ndrw6">
    <nd ref="8821834944"/>
    <nd ref="8821834945"/>
    <nd ref="8821834946"/>
    <nd ref="8821834947"/>
    <nd ref="8821834944"/>
    <tag k="addr:city" v="Cambridge"/>
    <tag k="addr:housenumber" v="9"/>
    <tag k="addr:postcode" v="CB2 9GJ"/>
    <tag k="addr:street" v="Hornet Road"/>
    <tag k="building" v="yes"/>
  </way>
  <way id="953103443" version="2" timestamp="2022-02-11T12:19:45Z" changeset="117285901" uid="5173844" user="ndrw6">
    <nd ref="8821834949"/>
    <nd ref="8821834951"/>
    <nd ref="8821834952"/>
    <nd ref="8821834953"/>
    <nd ref="8821834949"/>
    <tag k="addr:city" v="Cambridge"/>
    <tag k="addr:housenumber" v="14"/>
    <tag k="addr:postcode" v="CB2 9GJ"/>
    <tag k="addr:street" v="Forester Road"/>
    <tag k="building" v="yes"/>
  </way>
  <way id="953103444" version="2" timestamp="2022-02-11T12:19:45Z" changeset="117285901" uid="5173844" user="ndrw6">
    <nd ref="8821834954"/>
    <nd ref="8821834956"/>
    <nd ref="8821834957"/>
    <nd ref="8821834958"/>
    <nd ref="8821834954"/>
    <tag k="addr:city" v="Cambridge"/>
    <tag k="addr:housenumber" v="12"/>
    <tag k="addr:postcode" v="CB2 9GJ"/>
    <tag k="addr:street" v="Forester Road"/>
    <tag k="building" v="yes"/>
  </way>
  <way id="953103445" version="2" timestamp="2022-02-11T12:19:45Z" changeset="117285901" uid="5173844" user="ndrw6">
    <nd ref="8821834959"/>
    <nd ref="8821834961"/>
    <nd ref="8821834962"/>
    <nd ref="8821834963"/>
    <nd ref="8821834959"/>
    <tag k="addr:city" v="Cambridge"/>
    <tag k="addr:housenumber" v="10"/>
    <tag k="addr:postcode" v="CB2 9GJ"/>
    <tag k="addr:street" v="Forester Road"/>
    <tag k="building" v="yes"/>
  </way>
  <way id="953103446" version="2" timestamp="2022-02-11T12:19:45Z" changeset="117285901" uid="5173844" user="ndrw6">
    <nd ref="8821834964"/>
    <nd ref="8821834966"/>
    <nd ref="8821834967"/>
    <nd ref="8821834968"/>
    <nd ref="8821834964"/>
    <tag k="addr:city" v="Cambridge"/>
    <tag k="addr:housenumber" v="8"/>
    <tag k="addr:postcode" v="CB2 9GJ"/>
    <tag k="addr:street" v="Forester Road"/>
    <tag k="building" v="yes"/>
  </way>
  <way id="953103447" version="1" timestamp="2021-06-10T18:22:50Z" changeset="106172070" uid="11580939" user="mk270">
    <nd ref="8821834969"/>
    <nd ref="8821834970"/>
    <nd ref="8821834971"/>
    <nd ref="8821834972"/>
    <nd ref="8821834969"/>
    <tag k="addr:housenumber" v="2"/>
    <tag k="addr:street" v="Oxbow Place"/>
    <tag k="building" v="yes"/>
  </way>
  <way id="953104315" version="2" timestamp="2022-02-11T12:19:45Z" changeset="117285901" uid="5173844" user="ndrw6">
    <nd ref="8821838049"/>
    <nd ref="8821838051"/>
    <nd ref="8821838052"/>
    <nd ref="8821838053"/>
    <nd ref="8821838049"/>
    <tag k="addr:city" v="Cambridge"/>
    <tag k="addr:housenumber" v="5"/>
    <tag k="addr:postcode" v="CB2 9GJ"/>
    <tag k="addr:street" v="Forester Road"/>
    <tag k="building" v="yes"/>
  </way>
  <way id="953104316" version="2" timestamp="2022-02-11T12:19:45Z" changeset="117285901" uid="5173844" user="ndrw6">
    <nd ref="8821838054"/>
    <nd ref="8821838056"/>
    <nd ref="8821838057"/>
    <nd ref="8821838058"/>
    <nd ref="8821838054"/>
    <tag k="addr:city" v="Cambridge"/>
    <tag k="addr:housenumber" v="7"/>
    <tag k="addr:postcode" v="CB2 9GJ"/>
    <tag k="addr:street" v="Forester Road"/>
    <tag k="building" v="yes"/>
  </way>
  <way id="953104317" version="2" timestamp="2022-02-11T12:19:45Z" changeset="117285901" uid="5173844" user="ndrw6">
    <nd ref="8821838059"/>
    <nd ref="8821838061"/>
    <nd ref="8821838062"/>
    <nd ref="8821838063"/>
    <nd ref="8821838059"/>
    <tag k="addr:city" v="Cambridge"/>
    <tag k="addr:housenumber" v="9"/>
    <tag k="addr:postcode" v="CB2 9GJ"/>
    <tag k="addr:street" v="Forester Road"/>
    <tag k="building" v="yes"/>
  </way>
  <way id="953104318" version="3" timestamp="2022-02-11T12:19:45Z" changeset="117285901" uid="5173844" user="ndrw6">
    <nd ref="8821838064"/>
    <nd ref="8821838066"/>
    <nd ref="8821838067"/>
    <nd ref="8821838068"/>
    <nd ref="8821838064"/>
    <tag k="addr:city" v="Cambridge"/>
    <tag k="addr:housenumber" v="10"/>
    <tag k="addr:postcode" v="CB2 9GJ"/>
    <tag k="addr:street" v="Forester Road"/>
    <tag k="building" v="yes"/>
  </way>
  <way id="953104319" version="2" timestamp="2022-02-11T12:19:45Z" changeset="117285901" uid="5173844" user="ndrw6">
    <nd ref="8821838069"/>
    <nd ref="8821838071"/>
    <nd ref="8821838072"/>
    <nd ref="8821838073"/>
    <nd ref="8821838069"/>
    <tag k="addr:city" v="Cambridge"/>
    <tag k="addr:housenumber" v="8"/>
    <tag k="addr:postcode" v="CB2 9GJ"/>
    <tag k="addr:street" v="Forester Road"/>
    <tag k="building" v="yes"/>
  </way>
  <way id="953104320" version="3" timestamp="2022-02-11T12:19:45Z" changeset="117285901" uid="5173844" user="ndrw6">
    <nd ref="8821838074"/>
    <nd ref="8821838076"/>
    <nd ref="8821838077"/>
    <nd ref="8821838078"/>
    <nd ref="8821838074"/>
    <tag k="addr:city" v="Cambridge"/>
    <tag k="addr:housenumber" v="6"/>
    <tag k="addr:postcode" v="CB2 9GJ"/>
    <tag k="addr:street" v="Forester Road"/>
    <tag k="building" v="yes"/>
  </way>
  <way id="953104321" version="3" timestamp="2022-02-11T12:19:45Z" changeset="117285901" uid="5173844" user="ndrw6">
    <nd ref="8821838079"/>
    <nd ref="8821838081"/>
    <nd ref="8821838082"/>
    <nd ref="8821838083"/>
    <nd ref="8821838079"/>
    <tag k="addr:city" v="Cambridge"/>
    <tag k="addr:housenumber" v="4"/>
    <tag k="addr:postcode" v="CB2 9GJ"/>
    <tag k="addr:street" v="Forester Road"/>
    <tag k="building" v="yes"/>
  </way>
  <way id="953164782" version="3" timestamp="2024-02-28T20:10:06Z" changeset="148027146" uid="5173844" user="ndrw6">
    <nd ref="8822297902"/>
    <nd ref="11673421604"/>
    <nd ref="8822297903"/>
    <nd ref="8048985458"/>
    <tag k="highway" v="residential"/>
    <tag k="name" v="Jupiter Way"/>
  </way>
  <way id="953166607" version="5" timestamp="2024-03-16T17:03:40Z" changeset="148741793" uid="11580939" user="mk270">
    <nd ref="8021602081"/>
    <nd ref="10844205925"/>
    <nd ref="8822383260"/>
    <tag k="highway" v="residential"/>
  </way>
  <way id="953168164" version="5" timestamp="2024-02-28T20:10:06Z" changeset="148027146" uid="5173844" user="ndrw6">
    <nd ref="8048985456"/>
    <nd ref="8048985457"/>
    <tag k="highway" v="residential"/>
    <tag k="name" v="Maythorpe Road"/>
  </way>
  <way id="995663198" version="3" timestamp="2025-02-22T01:26:14Z" changeset="162801188" uid="20314039" user="ij96">
    <nd ref="9193988464"/>
    <nd ref="9193988463"/>
    <nd ref="9193988462"/>
    <nd ref="9193988461"/>
    <nd ref="9193988464"/>
    <tag k="addr:city" v="Cambridge"/>
    <tag k="addr:housenumber" v="9"/>
    <tag k="addr:postcode" v="CB2 9GP"/>
    <tag k="addr:street" v="Jupiter Way"/>
    <tag k="building" v="house"/>
  </way>
  <way id="995663199" version="5" timestamp="2025-02-22T01:26:14Z" changeset="162801188" uid="20314039" user="ij96">
    <nd ref="9193988468"/>
    <nd ref="9193988467"/>
    <nd ref="9193988466"/>
    <nd ref="9193988465"/>
    <nd ref="9193988468"/>
    <tag k="addr:city" v="Cambridge"/>
    <tag k="addr:housenumber" v="3"/>
    <tag k="addr:postcode" v="CB2 9GP"/>
    <tag k="addr:street" v="Jupiter Way"/>
    <tag k="building" v="house"/>
  </way>
  <way id="995663200" version="3" timestamp="2025-02-22T01:26:14Z" changeset="162801188" uid="20314039" user="ij96">
    <nd ref="9193988472"/>
    <nd ref="9193988471"/>
    <nd ref="9193988470"/>
    <nd ref="9193988469"/>
    <nd ref="9193988472"/>
    <tag k="addr:city" v="Cambridge"/>
    <tag k="addr:housenumber" v="5"/>
    <tag k="addr:postcode" v="CB2 9GP"/>
    <tag k="addr:street" v="Jupiter Way"/>
    <tag k="building" v="house"/>
  </way>
  <way id="995663201" version="3" timestamp="2025-02-22T01:26:14Z" changeset="162801188" uid="20314039" user="ij96">
    <nd ref="9193988476"/>
    <nd ref="9193988475"/>
    <nd ref="9193988474"/>
    <nd ref="9193988473"/>
    <nd ref="9193988476"/>
    <tag k="addr:city" v="Cambridge"/>
    <tag k="addr:housenumber" v="7"/>
    <tag k="addr:postcode" v="CB2 9GP"/>
    <tag k="addr:street" v="Jupiter Way"/>
    <tag k="building" v="house"/>
  </way>
  <way id="995663202" version="4" timestamp="2025-02-22T01:26:14Z" changeset="162801188" uid="20314039" user="ij96">
    <nd ref="9193988480"/>
    <nd ref="9193988479"/>
    <nd ref="9193988478"/>
    <nd ref="9193988477"/>
    <nd ref="9193988480"/>
    <tag k="addr:city" v="Cambridge"/>
    <tag k="addr:housenumber" v="11"/>
    <tag k="addr:postcode" v="CB2 9GP"/>
    <tag k="addr:street" v="Jupiter Way"/>
    <tag k="building" v="house"/>
  </way>
  <way id="995663203" version="4" timestamp="2025-02-22T01:26:14Z" changeset="162801188" uid="20314039" user="ij96">
    <nd ref="9193988484"/>
    <nd ref="9193988483"/>
    <nd ref="9193988482"/>
    <nd ref="9193988481"/>
    <nd ref="9193988484"/>
    <tag k="addr:housenumber" v="40"/>
    <tag k="addr:postcode" v="CB2 9GB"/>
    <tag k="addr:street" v="Deacon Drive"/>
    <tag k="building" v="house"/>
  </way>
  <way id="995663204" version="4" timestamp="2025-02-22T01:26:14Z" changeset="162801188" uid="20314039" user="ij96">
    <nd ref="9193988488"/>
    <nd ref="9193988487"/>
    <nd ref="9193988486"/>
    <nd ref="9193988485"/>
    <nd ref="9193988488"/>
    <tag k="addr:housenumber" v="44"/>
    <tag k="addr:postcode" v="CB2 9GB"/>
    <tag k="addr:street" v="Deacon Drive"/>
    <tag k="building" v="house"/>
  </way>
  <way id="995663208" version="3" timestamp="2025-02-22T01:26:14Z" changeset="162801188" uid="20314039" user="ij96">
    <nd ref="9193988504"/>
    <nd ref="9193988503"/>
    <nd ref="9193988502"/>
    <nd ref="9193988501"/>
    <nd ref="9193988504"/>
    <tag k="addr:housenumber" v="32"/>
    <tag k="addr:postcode" v="CB2 9GB"/>
    <tag k="addr:street" v="Deacon Drive"/>
    <tag k="building" v="house"/>
  </way>
  <way id="995663209" version="3" timestamp="2025-02-22T01:26:14Z" changeset="162801188" uid="20314039" user="ij96">
    <nd ref="9193988508"/>
    <nd ref="9193988507"/>
    <nd ref="9193988506"/>
    <nd ref="9193988505"/>
    <nd ref="9193988508"/>
    <tag k="addr:housenumber" v="34"/>
    <tag k="addr:postcode" v="CB2 9GB"/>
    <tag k="addr:street" v="Deacon Drive"/>
    <tag k="building" v="house"/>
  </way>
  <way id="995663210" version="4" timestamp="2025-02-22T01:26:14Z" changeset="162801188" uid="20314039" user="ij96">
    <nd ref="9193988512"/>
    <nd ref="9193988511"/>
    <nd ref="9193988510"/>
    <nd ref="9193988509"/>
    <nd ref="9193988512"/>
    <tag k="addr:housenumber" v="36"/>
    <tag k="addr:postcode" v="CB2 9GB"/>
    <tag k="addr:street" v="Deacon Drive"/>
    <tag k="building" v="house"/>
  </way>
  <way id="995663211" version="3" timestamp="2025-02-22T01:26:14Z" changeset="162801188" uid="20314039" user="ij96">
    <nd ref="9193988516"/>
    <nd ref="9193988515"/>
    <nd ref="9193988514"/>
    <nd ref="9193988513"/>
    <nd ref="9193988516"/>
    <tag k="addr:housenumber" v="38"/>
    <tag k="addr:postcode" v="CB2 9GB"/>
    <tag k="addr:street" v="Deacon Drive"/>
    <tag k="building" v="house"/>
  </way>
  <way id="995663212" version="3" timestamp="2025-02-22T01:26:14Z" changeset="162801188" uid="20314039" user="ij96">
    <nd ref="9194010620"/>
    <nd ref="9194010619"/>
    <nd ref="9194010618"/>
    <nd ref="9194010617"/>
    <nd ref="9194010620"/>
    <tag k="addr:housenumber" v="42"/>
    <tag k="addr:postcode" v="CB2 9GB"/>
    <tag k="addr:street" v="Deacon Drive"/>
    <tag k="building" v="house"/>
  </way>
  <way id="995663213" version="4" timestamp="2025-02-22T01:26:14Z" changeset="162801188" uid="20314039" user="ij96">
    <nd ref="9194010624"/>
    <nd ref="9194010623"/>
    <nd ref="9194010622"/>
    <nd ref="9194010621"/>
    <nd ref="9194010624"/>
    <tag k="addr:housenumber" v="46"/>
    <tag k="addr:postcode" v="CB2 9GB"/>
    <tag k="addr:street" v="Deacon Drive"/>
    <tag k="building" v="house"/>
  </way>
  <way id="995663214" version="4" timestamp="2025-02-22T01:26:14Z" changeset="162801188" uid="20314039" user="ij96">
    <nd ref="9194010628"/>
    <nd ref="9194010627"/>
    <nd ref="9194010626"/>
    <nd ref="9194010625"/>
    <nd ref="9194010628"/>
    <tag k="addr:housenumber" v="48"/>
    <tag k="addr:postcode" v="CB2 9GB"/>
    <tag k="addr:street" v="Deacon Drive"/>
    <tag k="building" v="house"/>
  </way>
  <way id="995663215" version="4" timestamp="2025-02-22T01:26:14Z" changeset="162801188" uid="20314039" user="ij96">
    <nd ref="9194010632"/>
    <nd ref="9194010629"/>
    <nd ref="9194010630"/>
    <nd ref="9194010631"/>
    <nd ref="9194010632"/>
    <tag k="addr:housenumber" v="50"/>
    <tag k="addr:postcode" v="CB2 9GB"/>
    <tag k="addr:street" v="Deacon Drive"/>
    <tag k="building" v="house"/>
  </way>
  <way id="995663216" version="4" timestamp="2025-02-22T01:26:14Z" changeset="162801188" uid="20314039" user="ij96">
    <nd ref="9194010636"/>
    <nd ref="9194010633"/>
    <nd ref="9194010634"/>
    <nd ref="9194010635"/>
    <nd ref="9194010636"/>
    <tag k="addr:housenumber" v="52"/>
    <tag k="addr:postcode" v="CB2 9GB"/>
    <tag k="addr:street" v="Deacon Drive"/>
    <tag k="building" v="house"/>
  </way>
  <way id="995663218" version="3" timestamp="2025-02-22T01:26:14Z" changeset="162801188" uid="20314039" user="ij96">
    <nd ref="9194010645"/>
    <nd ref="9194010642"/>
    <nd ref="9194010641"/>
    <nd ref="9194010644"/>
    <nd ref="9194010645"/>
    <tag k="addr:housenumber" v="17"/>
    <tag k="addr:postcode" v="CB2 9GB"/>
    <tag k="addr:street" v="Deacon Drive"/>
    <tag k="building" v="semidetached_house"/>
  </way>
  <way id="995663219" version="3" timestamp="2025-02-22T01:26:14Z" changeset="162801188" uid="20314039" user="ij96">
    <nd ref="9194010646"/>
    <nd ref="9194010645"/>
    <nd ref="9194010644"/>
    <nd ref="9194010643"/>
    <nd ref="9194010646"/>
    <tag k="addr:housenumber" v="19"/>
    <tag k="addr:postcode" v="CB2 9GB"/>
    <tag k="addr:street" v="Deacon Drive"/>
    <tag k="building" v="semidetached_house"/>
  </way>
  <way id="995663220" version="3" timestamp="2025-02-22T01:26:14Z" changeset="162801188" uid="20314039" user="ij96">
    <nd ref="9194010651"/>
    <nd ref="9194010648"/>
    <nd ref="9194010647"/>
    <nd ref="9194010650"/>
    <nd ref="9194010651"/>
    <tag k="addr:housenumber" v="21"/>
    <tag k="addr:postcode" v="CB2 9GB"/>
    <tag k="addr:street" v="Deacon Drive"/>
    <tag k="building" v="semidetached_house"/>
  </way>
  <way id="995663221" version="3" timestamp="2025-02-22T01:26:14Z" changeset="162801188" uid="20314039" user="ij96">
    <nd ref="9194010652"/>
    <nd ref="9194010651"/>
    <nd ref="9194010650"/>
    <nd ref="9194010649"/>
    <nd ref="9194010652"/>
    <tag k="addr:housenumber" v="23"/>
    <tag k="addr:postcode" v="CB2 9GB"/>
    <tag k="addr:street" v="Deacon Drive"/>
    <tag k="building" v="semidetached_house"/>
  </way>
  <way id="995663222" version="3" timestamp="2025-02-22T01:26:14Z" changeset="162801188" uid="20314039" user="ij96">
    <nd ref="9194010656"/>
    <nd ref="9194010653"/>
    <nd ref="9194010654"/>
    <nd ref="9194010655"/>
    <nd ref="9194010656"/>
    <tag k="addr:housenumber" v="25"/>
    <tag k="addr:postcode" v="CB2 9GB"/>
    <tag k="addr:street" v="Deacon Drive"/>
    <tag k="building" v="house"/>
  </way>
  <way id="995663223" version="3" timestamp="2025-02-22T01:26:14Z" changeset="162801188" uid="20314039" user="ij96">
    <nd ref="9194010661"/>
    <nd ref="9194010658"/>
    <nd ref="9194010657"/>
    <nd ref="9194010660"/>
    <nd ref="9194010661"/>
    <tag k="addr:housenumber" v="27"/>
    <tag k="addr:postcode" v="CB2 9GB"/>
    <tag k="addr:street" v="Deacon Drive"/>
    <tag k="building" v="semidetached_house"/>
  </way>
  <way id="995663224" version="3" timestamp="2025-02-22T01:26:14Z" changeset="162801188" uid="20314039" user="ij96">
    <nd ref="9194010662"/>
    <nd ref="9194010661"/>
    <nd ref="9194010660"/>
    <nd ref="9194010659"/>
    <nd ref="9194010662"/>
    <tag k="addr:housenumber" v="29"/>
    <tag k="addr:postcode" v="CB2 9GB"/>
    <tag k="addr:street" v="Deacon Drive"/>
    <tag k="building" v="semidetached_house"/>
  </way>
  <way id="995663225" version="3" timestamp="2025-02-22T01:26:14Z" changeset="162801188" uid="20314039" user="ij96">
    <nd ref="9194010664"/>
    <nd ref="9194010665"/>
    <nd ref="9194010666"/>
    <nd ref="9194010663"/>
    <nd ref="9194010664"/>
    <tag k="addr:housenumber" v="31"/>
    <tag k="addr:postcode" v="CB2 9GB"/>
    <tag k="addr:street" v="Deacon Drive"/>
    <tag k="building" v="semidetached_house"/>
  </way>
  <way id="995663226" version="3" timestamp="2025-02-22T01:26:14Z" changeset="162801188" uid="20314039" user="ij96">
    <nd ref="9194010668"/>
    <nd ref="9194010664"/>
    <nd ref="9194010663"/>
    <nd ref="9194010667"/>
    <nd ref="9194010668"/>
    <tag k="addr:housenumber" v="33"/>
    <tag k="addr:postcode" v="CB2 9GB"/>
    <tag k="addr:street" v="Deacon Drive"/>
    <tag k="building" v="semidetached_house"/>
  </way>
  <way id="995663227" version="4" timestamp="2025-02-22T01:26:14Z" changeset="162801188" uid="20314039" user="ij96">
    <nd ref="9194010672"/>
    <nd ref="9194010669"/>
    <nd ref="9194010670"/>
    <nd ref="9194010671"/>
    <nd ref="9194010672"/>
    <tag k="addr:housenumber" v="35"/>
    <tag k="addr:postcode" v="CB2 9GB"/>
    <tag k="addr:street" v="Deacon Drive"/>
    <tag k="building" v="house"/>
  </way>
  <way id="995663228" version="2" timestamp="2023-04-25T18:41:17Z" changeset="135356076" uid="11580939" user="mk270">
    <nd ref="9194010674"/>
    <nd ref="9194010677"/>
    <nd ref="9194010676"/>
    <nd ref="9194010673"/>
    <nd ref="9194010674"/>
    <tag k="addr:housenumber" v="26"/>
    <tag k="addr:street" v="Maythorpe Road"/>
    <tag k="building" v="yes"/>
  </way>
  <way id="995663233" version="4" timestamp="2022-04-15T07:51:06Z" changeset="119739770" uid="242345" user="confusedbuffalo">
    <nd ref="9194010691"/>
    <nd ref="9194010693"/>
    <nd ref="9194010694"/>
    <nd ref="9194010692"/>
    <nd ref="9194010691"/>
    <tag k="addr:city" v="Cambridge"/>
    <tag k="addr:housenumber" v="14"/>
    <tag k="addr:postcode" v="CB2 9GA"/>
    <tag k="addr:street" v="Maythorpe Road"/>
    <tag k="building" v="residential"/>
  </way>
  <way id="995663234" version="4" timestamp="2022-04-15T07:51:06Z" changeset="119739770" uid="242345" user="confusedbuffalo">
    <nd ref="9194010692"/>
    <nd ref="9194010695"/>
    <nd ref="9194010696"/>
    <nd ref="9194010691"/>
    <nd ref="9194010692"/>
    <tag k="addr:city" v="Cambridge"/>
    <tag k="addr:housenumber" v="16"/>
    <tag k="addr:postcode" v="CB2 9GA"/>
    <tag k="addr:street" v="Maythorpe Road"/>
    <tag k="building" v="residential"/>
  </way>
  <way id="995663235" version="3" timestamp="2025-02-22T01:26:14Z" changeset="162801188" uid="20314039" user="ij96">
    <nd ref="9194010700"/>
    <nd ref="9194010699"/>
    <nd ref="9194010698"/>
    <nd ref="9194010697"/>
    <nd ref="9194010700"/>
    <tag k="addr:housenumber" v="2"/>
    <tag k="addr:street" v="Maythorpe Road"/>
    <tag k="building" v="house"/>
  </way>
  <way id="995663243" version="4" timestamp="2023-08-24T23:13:45Z" changeset="140345573" uid="1102246" user="jtn20">
    <nd ref="9194010728"/>
    <nd ref="9194010725"/>
    <nd ref="9194010726"/>
    <nd ref="9194010727"/>
    <nd ref="9194010728"/>
    <tag k="addr:housenumber" v="257-271"/>
    <tag k="addr:postcode" v="CB2 9GR"/>
    <tag k="addr:street" v="Osprey Drive"/>
    <tag k="building" v="yes"/>
    <tag k="building:levels" v="3"/>
  </way>
  <way id="995663244" version="3" timestamp="2023-08-24T23:13:45Z" changeset="140345573" uid="1102246" user="jtn20">
    <nd ref="9194010734"/>
    <nd ref="9194010731"/>
    <nd ref="9194010729"/>
    <nd ref="9194010730"/>
    <nd ref="9194010732"/>
    <nd ref="9194010733"/>
    <nd ref="9194010734"/>
    <tag k="addr:housenumber" v="227-255"/>
    <tag k="addr:street" v="Osprey Drive"/>
    <tag k="building" v="yes"/>
    <tag k="building:levels" v="4"/>
  </way>
  <way id="995663245" version="4" timestamp="2023-08-24T23:13:45Z" changeset="140345573" uid="1102246" user="jtn20">
    <nd ref="9194010738"/>
    <nd ref="9194010735"/>
    <nd ref="11142524782"/>
    <nd ref="9194010736"/>
    <nd ref="9194010737"/>
    <nd ref="9194010738"/>
    <tag k="addr:city" v="Cambridge"/>
    <tag k="addr:housenumber" v="248-262"/>
    <tag k="addr:interpolation" v="even"/>
    <tag k="addr:postcode" v="CB2 9GS"/>
    <tag k="addr:street" v="Osprey Drive"/>
    <tag k="building" v="apartments"/>
    <tag k="building:levels" v="3"/>
  </way>
  <way id="995663246" version="5" timestamp="2024-06-02T13:01:12Z" changeset="152158963" uid="96695" user="Tim Morley">
    <nd ref="9194010742"/>
    <nd ref="9194010739"/>
    <nd ref="9194010740"/>
    <nd ref="9194010741"/>
    <nd ref="9194010742"/>
    <tag k="addr:city" v="Cambridge"/>
    <tag k="addr:housenumber" v="6"/>
    <tag k="addr:postcode" v="CB2 9GP"/>
    <tag k="addr:street" v="Jupiter Way"/>
    <tag k="building" v="yes"/>
  </way>
  <way id="995663247" version="5" timestamp="2024-06-02T13:01:12Z" changeset="152158963" uid="96695" user="Tim Morley">
    <nd ref="9194010746"/>
    <nd ref="9194010743"/>
    <nd ref="9194010744"/>
    <nd ref="9194010745"/>
    <nd ref="9194010746"/>
    <tag k="addr:city" v="Cambridge"/>
    <tag k="addr:housenumber" v="4"/>
    <tag k="addr:postcode" v="CB2 9GP"/>
    <tag k="addr:street" v="Jupiter Way"/>
    <tag k="building" v="yes"/>
  </way>
  <way id="995663251" version="5" timestamp="2024-06-02T13:01:12Z" changeset="152158963" uid="96695" user="Tim Morley">
    <nd ref="9194010764"/>
    <nd ref="9194010763"/>
    <nd ref="9194010762"/>
    <nd ref="9194010761"/>
    <nd ref="9194010764"/>
    <tag k="addr:city" v="Cambridge"/>
    <tag k="addr:housenumber" v="2"/>
    <tag k="addr:postcode" v="CB2 9GP"/>
    <tag k="addr:street" v="Jupiter Way"/>
    <tag k="building" v="yes"/>
  </way>
  <way id="995663252" version="5" timestamp="2024-06-02T13:01:12Z" changeset="152158963" uid="96695" user="Tim Morley">
    <nd ref="9194010768"/>
    <nd ref="9194010767"/>
    <nd ref="9194010766"/>
    <nd ref="10844235756"/>
    <nd ref="9194010765"/>
    <nd ref="9194010768"/>
    <tag k="addr:city" v="Cambridge"/>
    <tag k="addr:housenumber" v="8"/>
    <tag k="addr:postcode" v="CB2 9GP"/>
    <tag k="addr:street" v="Jupiter Way"/>
    <tag k="building" v="yes"/>
  </way>
  <way id="995663253" version="5" timestamp="2024-06-02T13:01:12Z" changeset="152158963" uid="96695" user="Tim Morley">
    <nd ref="9194010772"/>
    <nd ref="9194010771"/>
    <nd ref="9194010770"/>
    <nd ref="9194010769"/>
    <nd ref="9194010772"/>
    <tag k="addr:city" v="Cambridge"/>
    <tag k="addr:housenumber" v="10"/>
    <tag k="addr:postcode" v="CB2 9GP"/>
    <tag k="addr:street" v="Jupiter Way"/>
    <tag k="building" v="yes"/>
  </way>
  <way id="995663255" version="3" timestamp="2023-08-24T23:13:45Z" changeset="140345573" uid="1102246" user="jtn20">
    <nd ref="9194010780"/>
    <nd ref="9194010779"/>
    <nd ref="9194010778"/>
    <nd ref="9194010777"/>
    <nd ref="9194010780"/>
    <tag k="addr:housenumber" v="246"/>
    <tag k="addr:street" v="Osprey Drive"/>
    <tag k="building" v="house"/>
    <tag k="building:levels" v="3"/>
  </way>
  <way id="995663256" version="3" timestamp="2023-08-24T23:13:45Z" changeset="140345573" uid="1102246" user="jtn20">
    <nd ref="9194010782"/>
    <nd ref="9194010786"/>
    <nd ref="9194010783"/>
    <nd ref="9194010781"/>
    <nd ref="9194010782"/>
    <tag k="addr:housenumber" v="242"/>
    <tag k="addr:street" v="Osprey Drive"/>
    <tag k="building" v="semidetached_house"/>
    <tag k="building:levels" v="3"/>
  </way>
  <way id="995663257" version="3" timestamp="2023-08-24T23:13:45Z" changeset="140345573" uid="1102246" user="jtn20">
    <nd ref="9194010785"/>
    <nd ref="9194010782"/>
    <nd ref="9194010781"/>
    <nd ref="9194010784"/>
    <nd ref="9194010785"/>
    <tag k="addr:housenumber" v="244"/>
    <tag k="addr:street" v="Osprey Drive"/>
    <tag k="building" v="semidetached_house"/>
    <tag k="building:levels" v="3"/>
  </way>
  <way id="995663258" version="3" timestamp="2023-08-24T23:13:45Z" changeset="140345573" uid="1102246" user="jtn20">
    <nd ref="9194010790"/>
    <nd ref="9194010789"/>
    <nd ref="9194010788"/>
    <nd ref="9194010787"/>
    <nd ref="9194010790"/>
    <tag k="addr:housenumber" v="240"/>
    <tag k="addr:street" v="Osprey Drive"/>
    <tag k="building" v="house"/>
    <tag k="building:levels" v="3"/>
  </way>
  <way id="995663269" version="3" timestamp="2023-08-24T23:13:45Z" changeset="140345573" uid="1102246" user="jtn20">
    <nd ref="9194010828"/>
    <nd ref="9194010827"/>
    <nd ref="11142524778"/>
    <nd ref="9194010826"/>
    <nd ref="11142524780"/>
    <nd ref="9194010825"/>
    <nd ref="9194010803"/>
    <nd ref="9194010804"/>
    <nd ref="9194010828"/>
    <tag k="addr:city" v="Cambridge"/>
    <tag k="addr:housenumber" v="176-198"/>
    <tag k="addr:interpolation" v="even"/>
    <tag k="addr:street" v="Osprey Drive"/>
    <tag k="building" v="residential"/>
  </way>
  <way id="995663270" version="3" timestamp="2025-02-22T01:26:14Z" changeset="162801188" uid="20314039" user="ij96">
    <nd ref="9194010832"/>
    <nd ref="9194010818"/>
    <nd ref="9194010817"/>
    <nd ref="9194010829"/>
    <nd ref="9194010832"/>
    <tag k="addr:housenumber" v="206"/>
    <tag k="addr:street" v="Osprey Drive"/>
    <tag k="building" v="semidetached_house"/>
  </way>
  <way id="996450134" version="5" timestamp="2024-02-28T20:10:06Z" changeset="148027146" uid="5173844" user="ndrw6">
    <nd ref="10844205924"/>
    <nd ref="8822383258"/>
    <tag k="highway" v="residential"/>
  </way>
  <way id="1021983267" version="5" timestamp="2024-02-28T20:10:06Z" changeset="148027146" uid="5173844" user="ndrw6">
    <nd ref="8048985457"/>
    <nd ref="8822297902"/>
    <nd ref="6101230801"/>
    <nd ref="6101230800"/>
    <nd ref="6519080275"/>
    <nd ref="10840484226"/>
    <nd ref="6101230799"/>
    <tag k="highway" v="residential"/>
  </way>
  <way id="1021983613" version="4" timestamp="2024-02-28T20:10:06Z" changeset="148027146" uid="5173844" user="ndrw6">
    <nd ref="8048985456"/>
    <nd ref="8048985454"/>
    <nd ref="8048985455"/>
    <tag k="highway" v="residential"/>
    <tag k="name" v="Maythorpe Road"/>
  </way>
  <way id="1030362345" version="1" timestamp="2022-02-11T12:19:45Z" changeset="117285901" uid="5173844" user="ndrw6">
    <nd ref="9497958689"/>
    <nd ref="6519080151"/>
    <nd ref="6519080148"/>
    <nd ref="9497958688"/>
    <nd ref="9497958689"/>
    <tag k="addr:housenumber" v="173"/>
    <tag k="addr:street" v="Osprey Drive"/>
    <tag k="building" v="residential"/>
  </way>
  <way id="1087794828" version="3" timestamp="2023-08-24T23:13:45Z" changeset="140345573" uid="1102246" user="jtn20">
    <nd ref="9966845664"/>
    <nd ref="11142524784"/>
    <nd ref="9966845665"/>
    <nd ref="9966845666"/>
    <nd ref="9966845667"/>
    <nd ref="9966845668"/>
    <nd ref="9966845669"/>
    <nd ref="9966845664"/>
    <tag k="addr:city" v="Cambridge"/>
    <tag k="addr:housenumber" v="290-304"/>
    <tag k="addr:interpolation" v="even"/>
    <tag k="addr:street" v="Osprey Drive"/>
    <tag k="building" v="apartments"/>
    <tag k="building:levels" v="3"/>
  </way>
  <way id="1087794829" version="3" timestamp="2023-08-24T23:13:45Z" changeset="140345573" uid="1102246" user="jtn20">
    <nd ref="9966845670"/>
    <nd ref="11142524786"/>
    <nd ref="9966845671"/>
    <nd ref="9966845672"/>
    <nd ref="9966845673"/>
    <nd ref="9966845670"/>
    <tag k="addr:city" v="Cambridge"/>
    <tag k="addr:housenumber" v="306-314"/>
    <tag k="addr:interpolation" v="even"/>
    <tag k="addr:street" v="Osprey Drive"/>
    <tag k="building" v="apartments"/>
    <tag k="building:levels" v="3"/>
  </way>
  <way id="1087794830" version="2" timestamp="2023-04-25T18:49:37Z" changeset="135356304" uid="11580939" user="mk270">
    <nd ref="9966845674"/>
    <nd ref="9966845675"/>
    <nd ref="9966845676"/>
    <nd ref="9966845677"/>
    <nd ref="9966845674"/>
    <tag k="addr:housenumber" v="278-288"/>
    <tag k="addr:street" v="Osprey Drive"/>
    <tag k="building" v="construction"/>
  </way>
  <way id="1087794831" version="2" timestamp="2023-04-25T18:49:37Z" changeset="135356304" uid="11580939" user="mk270">
    <nd ref="9966845678"/>
    <nd ref="9966845679"/>
    <nd ref="9966845680"/>
    <nd ref="9966845681"/>
    <nd ref="9966845678"/>
    <tag k="addr:housenumber" v="266-276"/>
    <tag k="addr:street" v="Osprey Drive"/>
    <tag k="building" v="construction"/>
  </way>
  <way id="1165312469" version="4" timestamp="2024-02-28T20:10:06Z" changeset="148027146" uid="5173844" user="ndrw6">
    <nd ref="10839022497"/>
    <nd ref="10839022501"/>
    <nd ref="10839022504"/>
    <nd ref="10839022500"/>
    <nd ref="10839022497"/>
    <tag k="addr:housenumber" v="273"/>
    <tag k="addr:street" v="Osprey Drive"/>
    <tag k="building" v="yes"/>
    <tag k="building:levels" v="3"/>
  </way>
  <way id="1165459848" version="2" timestamp="2025-02-22T01:26:14Z" changeset="162801188" uid="20314039" user="ij96">
    <nd ref="10840208197"/>
    <nd ref="10840208198"/>
    <nd ref="10840208199"/>
    <nd ref="10840208200"/>
    <nd ref="10840208197"/>
    <tag k="addr:housenumber" v="264"/>
    <tag k="addr:street" v="Osprey Drive"/>
    <tag k="building" v="house"/>
  </way>
  <way id="1165492968" version="3" timestamp="2025-02-22T01:26:14Z" changeset="162801188" uid="20314039" user="ij96">
    <nd ref="10840508761"/>
    <nd ref="10840508762"/>
    <nd ref="10840508763"/>
    <nd ref="10840508764"/>
    <nd ref="10840508761"/>
    <tag k="addr:housenumber" v="1"/>
    <tag k="addr:street" v="Jupiter Way"/>
    <tag k="building" v="house"/>
  </way>
  <way id="1165510858" version="2" timestamp="2024-02-28T20:10:06Z" changeset="148027146" uid="5173844" user="ndrw6">
    <nd ref="8822383258"/>
    <nd ref="11673421587"/>
    <nd ref="8822297903"/>
    <tag k="highway" v="residential"/>
    <tag k="name" v="Jupiter Way"/>
  </way>
  <way id="1201814949" version="2" timestamp="2024-02-28T20:10:06Z" changeset="148027146" uid="5173844" user="ndrw6">
    <nd ref="9194010793"/>
    <nd ref="9194010791"/>
    <nd ref="11142524783"/>
    <nd ref="9194010795"/>
    <nd ref="11142524781"/>
    <nd ref="9194010794"/>
    <nd ref="9194010793"/>
    <tag k="addr:city" v="Cambridge"/>
    <tag k="addr:housenumber" v="226-238"/>
    <tag k="addr:interpolation" v="even"/>
    <tag k="addr:street" v="Osprey Drive"/>
    <tag k="building" v="apartments"/>
    <tag k="building:levels" v="4"/>
  </way>
  <way id="1255736754" version="1" timestamp="2024-02-28T20:10:06Z" changeset="148027146" uid="5173844" user="ndrw6">
    <nd ref="9194010791"/>
    <nd ref="9194010792"/>
    <nd ref="9194010796"/>
    <nd ref="11142524783"/>
    <nd ref="9194010791"/>
    <tag k="addr:city" v="Cambridge"/>
    <tag k="addr:housenumber" v="216-224"/>
    <tag k="addr:interpolation" v="even"/>
    <tag k="addr:street" v="Osprey Drive"/>
    <tag k="building" v="apartments"/>
  </way>

</osm>
