<?xml version="1.0" encoding="UTF-8"?>
<osm version="0.6" generator="Overpass API 0.7.62.5 1bd436f1">
<note>The data included in this document is from www.openstreetmap.org. The data is made available under ODbL.</note>
<meta osm_base="2025-05-17T21:23:00Z" areas="2024-12-31T00:49:33Z"/>

  <node id="615635" lat="55.9809314" lon="-3.2235691" version="6" timestamp="2020-03-02T16:04:33Z" changeset="81688489" uid="3432400" user="GinaroZ"/>
  <node id="26462405" lat="55.9680563" lon="-3.2408332" version="3" timestamp="2016-08-12T10:05:04Z" changeset="41407346" uid="3670347" user="rob_michel"/>
  <node id="29883644" lat="55.9767524" lon="-3.2415310" version="9" timestamp="2020-11-16T23:22:13Z" changeset="94232188" uid="3432400" user="GinaroZ">
    <tag k="highway" v="traffic_signals"/>
  </node>
  <node id="30082301" lat="55.9711025" lon="-3.2375031" version="6" timestamp="2015-09-04T16:31:52Z" changeset="33798115" uid="1798469" user="eric_"/>
  <node id="30089872" lat="55.9724408" lon="-3.2188338" version="5" timestamp="2016-06-23T15:16:00Z" changeset="40236458" uid="553175" user="michaelbrown"/>
  <node id="30089873" lat="55.9720618" lon="-3.2186687" version="3" timestamp="2015-02-13T23:31:19Z" changeset="28832435" uid="27824" user="phut"/>
  <node id="30730913" lat="55.9768000" lon="-3.2204769" version="6" timestamp="2016-08-12T14:36:33Z" changeset="41411936" uid="553175" user="michaelbrown"/>
  <node id="31303438" lat="55.9770286" lon="-3.2178012" version="4" timestamp="2016-03-30T16:38:58Z" changeset="38172757" uid="553175" user="michaelbrown"/>
  <node id="31303511" lat="55.9748103" lon="-3.2177675" version="6" timestamp="2016-03-25T18:30:33Z" changeset="38068578" uid="553175" user="michaelbrown"/>
  <node id="33226637" lat="55.9828815" lon="-3.2413021" version="4" timestamp="2015-07-26T18:30:28Z" changeset="32893997" uid="199963" user="TheBaron"/>
  <node id="262691112" lat="55.9709561" lon="-3.2251002" version="4" timestamp="2017-03-13T15:45:28Z" changeset="46816409" uid="2234934" user="sophiemccallum">
    <tag k="highway" v="turning_circle"/>
    <tag k="source" v="Bing;survey"/>
  </node>
  <node id="1067562423" lat="55.9803693" lon="-3.2237774" version="2" timestamp="2015-05-01T11:03:07Z" changeset="30688119" uid="1939732" user="eisa"/>
  <node id="1741651841" lat="55.9810457" lon="-3.2344197" version="2" timestamp="2017-06-20T14:56:07Z" changeset="49695879" uid="2234934" user="sophiemccallum"/>
  <node id="4030565680" lat="55.9685456" lon="-3.2353552" version="1" timestamp="2016-02-27T22:25:53Z" changeset="37490590" uid="2922304" user="smeÃ²rach">
    <tag k="crossing" v="traffic_signals"/>
    <tag k="highway" v="crossing"/>
  </node>
  <node id="4030565694" lat="55.9685670" lon="-3.2360144" version="4" timestamp="2016-03-17T13:42:28Z" changeset="37896682" uid="3432400" user="GinaroZ"/>
  <node id="4065233357" lat="55.9683675" lon="-3.2364308" version="1" timestamp="2016-03-17T13:42:28Z" changeset="37896682" uid="3432400" user="GinaroZ"/>
  <node id="7883624643" lat="55.9788783" lon="-3.2423182" version="2" timestamp="2020-11-16T23:22:13Z" changeset="94232188" uid="3432400" user="GinaroZ">
    <tag k="highway" v="traffic_signals"/>
  </node>
  <way id="4492949" version="22" timestamp="2022-05-21T23:14:43Z" changeset="121300526" uid="13165294" user="ThatEffingCat">
    <nd ref="615635"/>
    <nd ref="2954417863"/>
    <nd ref="1067562404"/>
    <nd ref="1067562376"/>
    <nd ref="1067562356"/>
    <nd ref="615636"/>
    <tag k="cycleway:left" v="no"/>
    <tag k="highway" v="primary"/>
    <tag k="lanes" v="1"/>
    <tag k="lit" v="yes"/>
    <tag k="maxspeed" v="20 mph"/>
    <tag k="name" v="Lower Granton Road"/>
    <tag k="oneway" v="yes"/>
    <tag k="ref" v="A901"/>
    <tag k="sidewalk" v="both"/>
    <tag k="sidewalk:both:surface" v="asphalt"/>
    <tag k="smoothness" v="intermediate"/>
    <tag k="source" v="Bing;survey"/>
    <tag k="source:ref" v="OS_OpenData_StreetView"/>
    <tag k="surface" v="asphalt"/>
  </way>
  <way id="4534220" version="15" timestamp="2024-02-25T17:21:32Z" changeset="147900867" uid="14047157" user="osmuser63783">
    <nd ref="1067562423"/>
    <nd ref="4742262986"/>
    <tag k="highway" v="primary"/>
    <tag k="lanes" v="1"/>
    <tag k="maxspeed" v="30 mph"/>
    <tag k="name" v="Granton Road"/>
    <tag k="oneway" v="yes"/>
    <tag k="ref" v="A903"/>
    <tag k="sidewalk" v="both"/>
    <tag k="source" v="Bing;survey"/>
    <tag k="surface" v="asphalt"/>
  </way>
  <way id="4592676" version="19" timestamp="2024-02-25T17:21:32Z" changeset="147900867" uid="14047157" user="osmuser63783">
    <nd ref="264163984"/>
    <nd ref="1102709665"/>
    <nd ref="1067562378"/>
    <nd ref="2954417856"/>
    <nd ref="2954417855"/>
    <nd ref="615637"/>
    <nd ref="2954421133"/>
    <nd ref="2954417866"/>
    <nd ref="804415834"/>
    <nd ref="30730760"/>
    <nd ref="4450428057"/>
    <tag k="highway" v="primary"/>
    <tag k="junction" v="roundabout"/>
    <tag k="lanes" v="1"/>
    <tag k="maxspeed" v="20 mph"/>
    <tag k="name" v="Granton Square"/>
    <tag k="oneway" v="yes"/>
    <tag k="sidewalk" v="both"/>
    <tag k="source" v="Bing;survey"/>
    <tag k="surface" v="asphalt"/>
  </way>
  <way id="4627398" version="40" timestamp="2024-08-22T20:24:21Z" changeset="155625297" uid="21762849" user="jSeke">
    <nd ref="4030565680"/>
    <nd ref="3446947926"/>
    <nd ref="637295"/>
    <nd ref="7149244268"/>
    <nd ref="7149244269"/>
    <nd ref="6255691649"/>
    <nd ref="1419974612"/>
    <nd ref="637294"/>
    <nd ref="5101051242"/>
    <nd ref="250413823"/>
    <nd ref="5101051243"/>
    <nd ref="5101051244"/>
    <nd ref="254964533"/>
    <nd ref="637292"/>
    <nd ref="25634082"/>
    <nd ref="262691125"/>
    <nd ref="262691123"/>
    <nd ref="637289"/>
    <nd ref="637288"/>
    <nd ref="34421610"/>
    <nd ref="1450635482"/>
    <nd ref="637286"/>
    <nd ref="7149244273"/>
    <tag k="cycleway" v="track"/>
    <tag k="highway" v="primary"/>
    <tag k="lanes" v="2"/>
    <tag k="lit" v="yes"/>
    <tag k="maxspeed" v="30 mph"/>
    <tag k="name" v="Ferry Road"/>
    <tag k="name:gd" v="Rathad a' Phuirt"/>
    <tag k="ref" v="A902"/>
    <tag k="sidewalk" v="both"/>
    <tag k="source" v="Bing;survey"/>
    <tag k="surface" v="asphalt"/>
    <tag k="wikidata" v="Q5445503"/>
  </way>
  <way id="4627399" version="20" timestamp="2023-03-31T17:56:25Z" changeset="134355406" uid="64920" user="shaydon">
    <nd ref="4065233355"/>
    <nd ref="59775869"/>
    <nd ref="2906480500"/>
    <nd ref="26462395"/>
    <nd ref="504011275"/>
    <nd ref="630861"/>
    <nd ref="4065233361"/>
    <tag k="highway" v="primary"/>
    <tag k="junction" v="roundabout"/>
    <tag k="lit" v="yes"/>
    <tag k="maxspeed" v="30 mph"/>
    <tag k="name" v="Crewe Toll"/>
    <tag k="surface" v="asphalt"/>
  </way>
  <way id="4702959" version="16" timestamp="2021-06-28T10:36:24Z" changeset="107080284" uid="13479299" user="Peter JB King">
    <nd ref="29922484"/>
    <nd ref="3812391184"/>
    <nd ref="7418727114"/>
    <nd ref="3812391167"/>
    <nd ref="6839430246"/>
    <nd ref="2352696115"/>
    <nd ref="32897287"/>
    <tag k="highway" v="tertiary"/>
    <tag k="lanes" v="2"/>
    <tag k="maxspeed" v="30 mph"/>
    <tag k="name" v="West Harbour Road"/>
    <tag k="surface" v="asphalt"/>
  </way>
  <way id="4723646" version="12" timestamp="2023-09-15T14:39:29Z" changeset="141306524" uid="3500921" user="camlewwri">
    <nd ref="4742262991"/>
    <nd ref="804415890"/>
    <nd ref="11193741622"/>
    <nd ref="33184589"/>
    <nd ref="33187306"/>
    <nd ref="30082283"/>
    <nd ref="7629718052"/>
    <nd ref="30082282"/>
    <nd ref="30082281"/>
    <nd ref="31508319"/>
    <tag k="highway" v="tertiary"/>
    <tag k="lanes" v="2"/>
    <tag k="maxspeed" v="20 mph"/>
    <tag k="name" v="Boswall Parkway"/>
    <tag k="surface" v="asphalt"/>
  </way>
  <way id="4723647" version="8" timestamp="2016-03-29T16:55:08Z" changeset="38148373" uid="553175" user="michaelbrown">
    <nd ref="30082267"/>
    <nd ref="4085094893"/>
    <nd ref="30089862"/>
    <nd ref="30089863"/>
    <nd ref="4085094892"/>
    <nd ref="4085317034"/>
    <nd ref="31303517"/>
    <nd ref="31303516"/>
    <nd ref="31303495"/>
    <nd ref="30089872"/>
    <nd ref="30089873"/>
    <tag k="highway" v="residential"/>
    <tag k="maxspeed" v="20 mph"/>
    <tag k="name" v="Boswall Drive"/>
  </way>
  <way id="4726354" version="7" timestamp="2016-12-12T12:19:43Z" changeset="44344237" uid="2234934" user="sophiemccallum">
    <nd ref="30082258"/>
    <nd ref="4347550154"/>
    <nd ref="30113421"/>
    <nd ref="4347550569"/>
    <nd ref="4347550574"/>
    <nd ref="30113422"/>
    <nd ref="4550786666"/>
    <nd ref="254964426"/>
    <tag k="highway" v="residential"/>
    <tag k="maxspeed" v="20 mph"/>
    <tag k="name" v="Wardie Dell"/>
  </way>
  <way id="4741966" version="8" timestamp="2023-02-27T03:52:55Z" changeset="133067955" uid="14032651" user="esaikthu">
    <nd ref="30089872"/>
    <nd ref="1327947157"/>
    <nd ref="10696124226"/>
    <nd ref="4742262973"/>
    <tag k="highway" v="residential"/>
    <tag k="maxspeed" v="20 mph"/>
    <tag k="name" v="Fraser Avenue"/>
    <tag k="source" v="Bing;survey"/>
  </way>
  <way id="4741967" version="7" timestamp="2017-05-04T15:05:58Z" changeset="48397771" uid="3670347" user="rob_michel">
    <nd ref="30118123"/>
    <nd ref="4030565659"/>
    <nd ref="4030565662"/>
    <nd ref="4030565661"/>
    <nd ref="4030565660"/>
    <nd ref="4834491007"/>
    <nd ref="30089872"/>
    <tag k="highway" v="residential"/>
    <tag k="maxspeed" v="20 mph"/>
    <tag k="name" v="Boswall Avenue"/>
  </way>
  <way id="4741968" version="9" timestamp="2017-05-04T15:05:58Z" changeset="48397771" uid="3670347" user="rob_michel">
    <nd ref="30118129"/>
    <nd ref="30118128"/>
    <nd ref="30118124"/>
    <nd ref="4834566677"/>
    <nd ref="4030565665"/>
    <nd ref="4834566676"/>
    <nd ref="4030565664"/>
    <nd ref="4834566675"/>
    <nd ref="4030565663"/>
    <nd ref="4834566674"/>
    <nd ref="30118123"/>
    <tag k="highway" v="residential"/>
    <tag k="maxspeed" v="20 mph"/>
    <tag k="name" v="Boswall Place"/>
  </way>
  <way id="4786156" version="9" timestamp="2021-06-28T10:36:24Z" changeset="107080284" uid="13479299" user="Peter JB King">
    <nd ref="31303511"/>
    <nd ref="4078631313"/>
    <nd ref="30113444"/>
    <nd ref="3491331233"/>
    <nd ref="4221286814"/>
    <nd ref="30113449"/>
    <tag k="highway" v="residential"/>
    <tag k="maxspeed" v="20 mph"/>
    <tag k="name" v="Boswall Green"/>
    <tag k="source" v="Bing;survey"/>
    <tag k="surface" v="asphalt"/>
  </way>
  <way id="4786157" version="11" timestamp="2021-06-28T10:36:24Z" changeset="107080284" uid="13479299" user="Peter JB King">
    <nd ref="30089863"/>
    <nd ref="4085317044"/>
    <nd ref="4085317048"/>
    <nd ref="1102709738"/>
    <nd ref="4085317054"/>
    <nd ref="31303445"/>
    <nd ref="31303442"/>
    <nd ref="1102709712"/>
    <nd ref="4217628042"/>
    <nd ref="4085317058"/>
    <nd ref="4085317056"/>
    <nd ref="4217628039"/>
    <nd ref="31303449"/>
    <nd ref="4841481716"/>
    <nd ref="30113434"/>
    <nd ref="2942537686"/>
    <nd ref="4086766656"/>
    <nd ref="30113441"/>
    <nd ref="4086766655"/>
    <nd ref="30113444"/>
    <tag k="highway" v="residential"/>
    <tag k="maxspeed" v="20 mph"/>
    <tag k="name" v="Grierson Crescent"/>
    <tag k="surface" v="asphalt"/>
  </way>
  <way id="4786158" version="7" timestamp="2021-06-28T10:36:24Z" changeset="107080284" uid="13479299" user="Peter JB King">
    <nd ref="30113434"/>
    <nd ref="4841408405"/>
    <nd ref="4086773918"/>
    <nd ref="30113437"/>
    <nd ref="4086773928"/>
    <nd ref="30113433"/>
    <tag k="highway" v="residential"/>
    <tag k="maxspeed" v="20 mph"/>
    <tag k="name" v="Grierson Gardens"/>
    <tag k="surface" v="asphalt"/>
  </way>
  <way id="4786159" version="8" timestamp="2021-06-28T10:36:24Z" changeset="107080284" uid="13479299" user="Peter JB King">
    <nd ref="31303438"/>
    <nd ref="30113433"/>
    <nd ref="4217415654"/>
    <nd ref="4086774129"/>
    <nd ref="30113430"/>
    <tag k="highway" v="residential"/>
    <tag k="maxspeed" v="20 mph"/>
    <tag k="name" v="Grierson Avenue"/>
    <tag k="surface" v="asphalt"/>
  </way>
  <way id="4790702" version="10" timestamp="2021-08-21T15:25:10Z" changeset="110032583" uid="4007299" user="FrenchyF">
    <nd ref="4450428057"/>
    <nd ref="4450428058"/>
    <nd ref="1067562381"/>
    <nd ref="804415797"/>
    <tag k="highway" v="tertiary"/>
    <tag k="lanes" v="1"/>
    <tag k="maxspeed" v="20 mph"/>
    <tag k="name" v="West Granton Road"/>
    <tag k="oneway" v="yes"/>
    <tag k="source" v="Bing;survey"/>
    <tag k="surface" v="asphalt"/>
  </way>
  <way id="4790703" version="8" timestamp="2021-06-28T10:36:24Z" changeset="107080284" uid="13479299" user="Peter JB King">
    <nd ref="30730816"/>
    <nd ref="4347448180"/>
    <nd ref="4347448177"/>
    <nd ref="4347448182"/>
    <nd ref="4347448181"/>
    <nd ref="4347448179"/>
    <nd ref="4347448178"/>
    <nd ref="4347448176"/>
    <nd ref="4347448175"/>
    <nd ref="4347448173"/>
    <nd ref="4347448174"/>
    <nd ref="30730832"/>
    <nd ref="637251"/>
    <tag k="highway" v="residential"/>
    <tag k="lanes" v="2"/>
    <tag k="maxspeed" v="20 mph"/>
    <tag k="name" v="Lufra Bank"/>
    <tag k="source" v="Bing;survey"/>
    <tag k="surface" v="asphalt"/>
  </way>
  <way id="4790705" version="16" timestamp="2021-06-28T10:36:24Z" changeset="107080284" uid="13479299" user="Peter JB King">
    <nd ref="30730913"/>
    <nd ref="4347447680"/>
    <nd ref="1175755937"/>
    <nd ref="30082265"/>
    <nd ref="30082264"/>
    <nd ref="3728634539"/>
    <nd ref="4086774136"/>
    <nd ref="30082263"/>
    <nd ref="4086774144"/>
    <nd ref="4841605136"/>
    <nd ref="4086774145"/>
    <nd ref="4347447861"/>
    <nd ref="3728634557"/>
    <nd ref="30082262"/>
    <nd ref="4347447877"/>
    <nd ref="4841605149"/>
    <nd ref="4347447888"/>
    <nd ref="3728634568"/>
    <nd ref="33204328"/>
    <nd ref="4841605154"/>
    <nd ref="4217416089"/>
    <nd ref="30082260"/>
    <nd ref="4347550123"/>
    <nd ref="1175755934"/>
    <nd ref="4347550126"/>
    <nd ref="4550786897"/>
    <nd ref="30082259"/>
    <nd ref="4347550129"/>
    <nd ref="4347550132"/>
    <nd ref="30082258"/>
    <nd ref="4347550130"/>
    <nd ref="3728634587"/>
    <nd ref="4347550127"/>
    <nd ref="4217416101"/>
    <nd ref="1175755942"/>
    <nd ref="4347550125"/>
    <nd ref="3728634585"/>
    <nd ref="1175755936"/>
    <nd ref="4347550124"/>
    <nd ref="4742262977"/>
    <tag k="highway" v="tertiary"/>
    <tag k="maxspeed" v="20 mph"/>
    <tag k="name" v="Wardie Crescent"/>
    <tag k="surface" v="asphalt"/>
  </way>
  <way id="4790706" version="10" timestamp="2021-06-28T10:36:24Z" changeset="107080284" uid="13479299" user="Peter JB King">
    <nd ref="4030565653"/>
    <nd ref="4347197358"/>
    <nd ref="4335745259"/>
    <nd ref="30730862"/>
    <nd ref="4335745260"/>
    <nd ref="4335745486"/>
    <nd ref="30730816"/>
    <tag k="highway" v="residential"/>
    <tag k="maxspeed" v="20 mph"/>
    <tag k="name" v="Granton Place"/>
    <tag k="surface" v="asphalt"/>
  </way>
  <way id="4854360" version="7" timestamp="2016-05-31T13:48:12Z" changeset="39689086" uid="553175" user="michaelbrown">
    <nd ref="31303435"/>
    <nd ref="4086774106"/>
    <nd ref="254964429"/>
    <nd ref="254964428"/>
    <nd ref="4086774121"/>
    <nd ref="31303436"/>
    <nd ref="4086774126"/>
    <nd ref="4217415666"/>
    <nd ref="31303437"/>
    <nd ref="31303438"/>
    <nd ref="4086773978"/>
    <nd ref="4086773969"/>
    <nd ref="31303434"/>
    <nd ref="4086773951"/>
    <nd ref="1102709716"/>
    <nd ref="4086773974"/>
    <nd ref="31303435"/>
    <tag k="highway" v="residential"/>
    <tag k="maxspeed" v="20 mph"/>
    <tag k="name" v="Grierson Square"/>
  </way>
  <way id="4854361" version="6" timestamp="2016-03-30T16:38:51Z" changeset="38172757" uid="553175" user="michaelbrown">
    <nd ref="31303445"/>
    <nd ref="4085317057"/>
    <nd ref="4086773940"/>
    <nd ref="31303448"/>
    <nd ref="4086773975"/>
    <nd ref="4086774089"/>
    <nd ref="4086774108"/>
    <nd ref="30082265"/>
    <tag k="highway" v="residential"/>
    <tag k="maxspeed" v="20 mph"/>
    <tag k="name" v="Grierson Road"/>
  </way>
  <way id="4854362" version="7" timestamp="2017-05-04T11:06:38Z" changeset="48391301" uid="3670347" user="rob_michel">
    <nd ref="31303467"/>
    <nd ref="31303491"/>
    <nd ref="4834490989"/>
    <nd ref="4063671885"/>
    <nd ref="4063671880"/>
    <nd ref="31303493"/>
    <nd ref="4063671877"/>
    <nd ref="4063671874"/>
    <nd ref="4063671872"/>
    <nd ref="4063671873"/>
    <nd ref="31303494"/>
    <nd ref="4263052414"/>
    <nd ref="31303495"/>
    <tag k="highway" v="residential"/>
    <tag k="maxspeed" v="20 mph"/>
    <tag k="name" v="Boswall Quadrant"/>
  </way>
  <way id="4854363" version="7" timestamp="2016-03-25T18:41:20Z" changeset="38068765" uid="553175" user="michaelbrown">
    <nd ref="31303517"/>
    <nd ref="31303520"/>
    <nd ref="1175800006"/>
    <nd ref="4078642866"/>
    <nd ref="1175799999"/>
    <nd ref="4078642865"/>
    <nd ref="1175800049"/>
    <nd ref="4078642862"/>
    <nd ref="31303521"/>
    <nd ref="4078642860"/>
    <nd ref="4078631315"/>
    <nd ref="4078642853"/>
    <nd ref="31303511"/>
    <tag k="highway" v="residential"/>
    <tag k="maxspeed" v="20 mph"/>
    <tag k="name" v="Boswall Green"/>
    <tag k="oneway" v="yes"/>
  </way>
  <way id="4854364" version="7" timestamp="2016-03-25T18:41:20Z" changeset="38068765" uid="553175" user="michaelbrown">
    <nd ref="31303511"/>
    <nd ref="4078631312"/>
    <nd ref="4078642850"/>
    <nd ref="31303513"/>
    <nd ref="4078642849"/>
    <nd ref="4078642848"/>
    <nd ref="1175800071"/>
    <nd ref="4078642846"/>
    <nd ref="4078642844"/>
    <nd ref="1175800100"/>
    <nd ref="4078642842"/>
    <nd ref="31303514"/>
    <nd ref="31303516"/>
    <tag k="highway" v="residential"/>
    <tag k="maxspeed" v="20 mph"/>
    <tag k="name" v="Boswall Green"/>
    <tag k="oneway" v="yes"/>
  </way>
  <way id="4854365" version="10" timestamp="2021-06-28T10:36:24Z" changeset="107080284" uid="13479299" user="Peter JB King">
    <nd ref="31303495"/>
    <nd ref="4263052418"/>
    <nd ref="31303504"/>
    <nd ref="4734094018"/>
    <nd ref="4078628133"/>
    <nd ref="4078628134"/>
    <nd ref="1328000372"/>
    <nd ref="4078628135"/>
    <nd ref="1328000391"/>
    <nd ref="4078628136"/>
    <nd ref="31303505"/>
    <nd ref="31303506"/>
    <nd ref="31303507"/>
    <nd ref="31303508"/>
    <nd ref="1328000512"/>
    <nd ref="4078628160"/>
    <nd ref="4078628163"/>
    <nd ref="4078628165"/>
    <nd ref="31303509"/>
    <nd ref="4078628174"/>
    <nd ref="4078628175"/>
    <nd ref="4078628176"/>
    <nd ref="3728634145"/>
    <nd ref="30113444"/>
    <tag k="highway" v="residential"/>
    <tag k="maxspeed" v="20 mph"/>
    <tag k="name" v="Fraser Crescent"/>
    <tag k="surface" v="asphalt"/>
  </way>
  <way id="4854369" version="10" timestamp="2017-05-04T11:06:38Z" changeset="48391301" uid="3670347" user="rob_michel">
    <nd ref="30082271"/>
    <nd ref="4347626382"/>
    <nd ref="1419974585"/>
    <nd ref="3728634366"/>
    <nd ref="31303450"/>
    <nd ref="3728634340"/>
    <nd ref="3728634317"/>
    <nd ref="31303451"/>
    <nd ref="262697138"/>
    <nd ref="1419974571"/>
    <nd ref="3728634166"/>
    <nd ref="3728634158"/>
    <nd ref="31303454"/>
    <nd ref="31303457"/>
    <nd ref="31303461"/>
    <nd ref="1419974529"/>
    <nd ref="4030565657"/>
    <nd ref="4030565658"/>
    <nd ref="31303467"/>
    <nd ref="31303475"/>
    <nd ref="31303478"/>
    <nd ref="31303480"/>
    <nd ref="4030565666"/>
    <nd ref="4030565667"/>
    <nd ref="4063671782"/>
    <nd ref="4030565668"/>
    <nd ref="4063671735"/>
    <nd ref="4063671699"/>
    <nd ref="4834491008"/>
    <nd ref="31303483"/>
    <nd ref="31303485"/>
    <nd ref="4063671652"/>
    <nd ref="4063671651"/>
    <nd ref="4063671650"/>
    <nd ref="4030565660"/>
    <tag k="highway" v="residential"/>
    <tag k="maxspeed" v="20 mph"/>
    <tag k="name" v="Boswall Terrace"/>
  </way>
  <way id="4854370" version="5" timestamp="2016-03-16T16:17:40Z" changeset="37875967" uid="553175" user="michaelbrown">
    <nd ref="31303478"/>
    <nd ref="4063671903"/>
    <nd ref="31303486"/>
    <nd ref="4063671910"/>
    <nd ref="31303487"/>
    <nd ref="262697136"/>
    <nd ref="4063671960"/>
    <nd ref="31303475"/>
    <tag k="highway" v="residential"/>
    <tag k="maxspeed" v="20 mph"/>
    <tag k="name" v="Boswall Terrace"/>
  </way>
  <way id="4854371" version="9" timestamp="2020-07-30T15:46:31Z" changeset="88741844" uid="9196106" user="rkumreo">
    <nd ref="31303528"/>
    <nd ref="4075454789"/>
    <nd ref="31303457"/>
    <tag k="highway" v="residential"/>
    <tag k="maxspeed" v="20 mph"/>
    <tag k="name" v="Boswall Crescent"/>
    <tag k="oneway" v="no"/>
  </way>
  <way id="4854372" version="6" timestamp="2016-03-23T16:59:47Z" changeset="38024227" uid="553175" user="michaelbrown">
    <nd ref="31303528"/>
    <nd ref="4075454688"/>
    <nd ref="1175800094"/>
    <nd ref="4075454685"/>
    <nd ref="1175800105"/>
    <nd ref="31303532"/>
    <nd ref="4075454681"/>
    <nd ref="4075454680"/>
    <nd ref="1175800058"/>
    <nd ref="4075454678"/>
    <nd ref="4075454679"/>
    <nd ref="31303531"/>
    <nd ref="31303516"/>
    <tag k="highway" v="residential"/>
    <tag k="maxspeed" v="20 mph"/>
    <tag k="name" v="Boswall Crescent"/>
  </way>
  <way id="4854374" version="4" timestamp="2016-03-25T18:30:31Z" changeset="38068578" uid="553175" user="michaelbrown">
    <nd ref="4078628143"/>
    <nd ref="31303522"/>
    <tag k="highway" v="residential"/>
    <tag k="maxspeed" v="20 mph"/>
    <tag k="name" v="Fraser Grove"/>
  </way>
  <way id="4854375" version="4" timestamp="2016-03-25T18:30:31Z" changeset="38068578" uid="553175" user="michaelbrown">
    <nd ref="4078628143"/>
    <nd ref="31303506"/>
    <nd ref="4078628142"/>
    <nd ref="31303523"/>
    <tag k="highway" v="residential"/>
    <tag k="maxspeed" v="20 mph"/>
    <tag k="name" v="Fraser Gardens"/>
  </way>
  <way id="4877182" version="8" timestamp="2016-08-12T11:29:06Z" changeset="41408741" uid="553175" user="michaelbrown">
    <nd ref="31493490"/>
    <nd ref="4347197529"/>
    <nd ref="31493489"/>
    <nd ref="769908383"/>
    <nd ref="4321455685"/>
    <nd ref="4321455684"/>
    <nd ref="769908101"/>
    <nd ref="4321455682"/>
    <nd ref="4321455681"/>
    <nd ref="31493488"/>
    <nd ref="4347197527"/>
    <nd ref="4347197528"/>
    <nd ref="31493484"/>
    <nd ref="31493480"/>
    <nd ref="31493448"/>
    <nd ref="36141004"/>
    <nd ref="31493462"/>
    <nd ref="769908351"/>
    <tag k="highway" v="residential"/>
    <tag k="maxspeed" v="20 mph"/>
    <tag k="name" v="Granton Crescent"/>
  </way>
  <way id="4877183" version="7" timestamp="2016-09-05T14:43:07Z" changeset="41932908" uid="3670347" user="rob_michel">
    <nd ref="31493448"/>
    <nd ref="4335745419"/>
    <nd ref="4385458272"/>
    <nd ref="4385458236"/>
    <nd ref="31493445"/>
    <nd ref="31493440"/>
    <nd ref="31493439"/>
    <nd ref="4380561048"/>
    <nd ref="30082274"/>
    <tag k="highway" v="residential"/>
    <tag k="maxspeed" v="20 mph"/>
    <tag k="name" v="Wardieburn Street East"/>
  </way>
  <way id="4877231" version="9" timestamp="2021-01-04T15:04:49Z" changeset="96915770" uid="53626" user="jambamkin">
    <nd ref="615647"/>
    <nd ref="4742262990"/>
    <tag k="highway" v="residential"/>
    <tag k="lanes" v="2"/>
    <tag k="maxspeed" v="30 mph"/>
    <tag k="name" v="Pilton Drive North"/>
    <tag k="surface" v="asphalt"/>
  </way>
  <way id="4877232" version="11" timestamp="2023-07-15T15:13:30Z" changeset="138548799" uid="3432400" user="GinaroZ">
    <nd ref="1151992567"/>
    <nd ref="11048087083"/>
    <nd ref="11048087082"/>
    <nd ref="33184590"/>
    <nd ref="11048087081"/>
    <nd ref="11048087080"/>
    <nd ref="11048087077"/>
    <nd ref="33190460"/>
    <nd ref="11048087078"/>
    <nd ref="11048087079"/>
    <nd ref="11048087084"/>
    <nd ref="31504710"/>
    <nd ref="11048087085"/>
    <nd ref="31493560"/>
    <nd ref="31493543"/>
    <nd ref="31504708"/>
    <nd ref="31504707"/>
    <nd ref="31504706"/>
    <nd ref="31493556"/>
    <nd ref="31504703"/>
    <nd ref="4256223091"/>
    <nd ref="4256223104"/>
    <nd ref="4256223118"/>
    <nd ref="1584090010"/>
    <nd ref="4256223131"/>
    <nd ref="4256223143"/>
    <nd ref="31504701"/>
    <nd ref="4256223159"/>
    <nd ref="4256223165"/>
    <nd ref="31504700"/>
    <nd ref="4256223178"/>
    <nd ref="4256223183"/>
    <nd ref="4256223186"/>
    <nd ref="4256223189"/>
    <nd ref="1584089962"/>
    <nd ref="4256223201"/>
    <nd ref="4256223205"/>
    <nd ref="4256223211"/>
    <nd ref="1584089970"/>
    <nd ref="3728634177"/>
    <nd ref="31504699"/>
    <nd ref="3728634191"/>
    <nd ref="1584089978"/>
    <nd ref="4256223267"/>
    <nd ref="31504698"/>
    <nd ref="4256223284"/>
    <nd ref="1584089998"/>
    <nd ref="4256223305"/>
    <nd ref="3728634264"/>
    <nd ref="4256223324"/>
    <nd ref="4256223340"/>
    <nd ref="31504697"/>
    <nd ref="3728634310"/>
    <nd ref="3728634334"/>
    <nd ref="4380561055"/>
    <nd ref="30082273"/>
    <tag k="highway" v="residential"/>
    <tag k="maxspeed" v="20 mph"/>
    <tag k="name" v="Pilton Avenue"/>
  </way>
  <way id="4877270" version="9" timestamp="2020-11-06T23:28:55Z" changeset="93688604" uid="3432400" user="GinaroZ">
    <nd ref="31493556"/>
    <nd ref="4256222893"/>
    <nd ref="4256222900"/>
    <nd ref="31493555"/>
    <nd ref="4256222920"/>
    <nd ref="4256222926"/>
    <nd ref="4256222933"/>
    <nd ref="31493554"/>
    <nd ref="4256222946"/>
    <nd ref="4256222955"/>
    <nd ref="4256222973"/>
    <nd ref="4256222981"/>
    <nd ref="1102508249"/>
    <nd ref="4256223097"/>
    <nd ref="4256223106"/>
    <nd ref="4256223113"/>
    <nd ref="31493553"/>
    <nd ref="4256223132"/>
    <nd ref="4256223151"/>
    <nd ref="31493552"/>
    <nd ref="31493546"/>
    <nd ref="4256748283"/>
    <nd ref="4256748407"/>
    <nd ref="31493549"/>
    <nd ref="4256748434"/>
    <nd ref="31493548"/>
    <nd ref="8089664777"/>
    <nd ref="4256748469"/>
    <nd ref="3729511069"/>
    <nd ref="4256748489"/>
    <nd ref="31493547"/>
    <nd ref="4256748508"/>
    <nd ref="3729511088"/>
    <nd ref="4256748521"/>
    <nd ref="30082274"/>
    <tag k="highway" v="residential"/>
    <tag k="maxspeed" v="20 mph"/>
    <tag k="name" v="Pilton Crescent"/>
  </way>
  <way id="4877271" version="4" timestamp="2014-12-31T17:36:49Z" changeset="27827178" uid="42123" user="Ropino">
    <nd ref="31493540"/>
    <nd ref="31493546"/>
    <tag k="highway" v="residential"/>
    <tag k="maxspeed" v="20 mph"/>
    <tag k="name" v="Pilton Gardens"/>
  </way>
  <way id="4877273" version="6" timestamp="2018-09-09T06:03:14Z" changeset="62416473" uid="56159" user="alektronic">
    <nd ref="31505385"/>
    <nd ref="31493674"/>
    <nd ref="31493673"/>
    <nd ref="31493672"/>
    <nd ref="4319816321"/>
    <nd ref="4319816322"/>
    <nd ref="31493663"/>
    <tag k="highway" v="residential"/>
    <tag k="maxspeed" v="20 mph"/>
    <tag k="name" v="East Pilton Farm Rigg"/>
    <tag k="surface" v="asphalt"/>
  </way>
  <way id="4877274" version="9" timestamp="2016-07-25T16:26:06Z" changeset="41016740" uid="2234934" user="sophiemccallum">
    <nd ref="31493663"/>
    <nd ref="4319816325"/>
    <nd ref="4319816326"/>
    <nd ref="4319816340"/>
    <nd ref="1262026031"/>
    <nd ref="4319816346"/>
    <nd ref="31503676"/>
    <nd ref="4319816352"/>
    <nd ref="4319816360"/>
    <nd ref="1419974545"/>
    <nd ref="4319816385"/>
    <nd ref="4319816387"/>
    <nd ref="4319816393"/>
    <nd ref="4319816399"/>
    <nd ref="4319816406"/>
    <nd ref="31503697"/>
    <nd ref="4319816417"/>
    <nd ref="4319816426"/>
    <nd ref="4319816433"/>
    <nd ref="1419974554"/>
    <nd ref="4319816463"/>
    <nd ref="31503711"/>
    <nd ref="4319816487"/>
    <nd ref="4319816495"/>
    <nd ref="769440310"/>
    <nd ref="4319816512"/>
    <nd ref="4319816519"/>
    <nd ref="1419974553"/>
    <nd ref="4319816525"/>
    <nd ref="4319816529"/>
    <nd ref="4319816533"/>
    <nd ref="4319816537"/>
    <nd ref="4319816540"/>
    <nd ref="4319816545"/>
    <nd ref="4319816547"/>
    <nd ref="4319816549"/>
    <nd ref="254964488"/>
    <nd ref="4319816551"/>
    <nd ref="4319816552"/>
    <nd ref="769439822"/>
    <nd ref="254964486"/>
    <nd ref="254964481"/>
    <tag k="highway" v="residential"/>
    <tag k="maxspeed" v="20 mph"/>
    <tag k="name" v="East Pilton Farm Crescent"/>
  </way>
  <way id="4877276" version="5" timestamp="2016-09-02T10:10:21Z" changeset="41866057" uid="3670347" user="rob_michel">
    <nd ref="31493531"/>
    <nd ref="4380487867"/>
    <nd ref="31493540"/>
    <nd ref="262697139"/>
    <nd ref="31493543"/>
    <tag k="highway" v="residential"/>
    <tag k="maxspeed" v="20 mph"/>
    <tag k="name" v="Pilton Park"/>
  </way>
  <way id="4877619" version="10" timestamp="2020-11-06T23:28:55Z" changeset="93688604" uid="3432400" user="GinaroZ">
    <nd ref="769908105"/>
    <nd ref="1280769607"/>
    <nd ref="31493458"/>
    <nd ref="30730862"/>
    <nd ref="30730894"/>
    <nd ref="1280769600"/>
    <nd ref="30730911"/>
    <nd ref="4347447679"/>
    <nd ref="30730913"/>
    <tag k="highway" v="residential"/>
    <tag k="maxspeed" v="20 mph"/>
    <tag k="name" v="Boswall Loan"/>
  </way>
  <way id="4877620" version="6" timestamp="2021-06-28T10:36:24Z" changeset="107080284" uid="13479299" user="Peter JB King">
    <nd ref="31493458"/>
    <nd ref="4335745286"/>
    <nd ref="4335745429"/>
    <nd ref="4335745435"/>
    <nd ref="4335745444"/>
    <nd ref="31493467"/>
    <nd ref="4335745735"/>
    <nd ref="30730802"/>
    <tag k="highway" v="residential"/>
    <tag k="maxspeed" v="20 mph"/>
    <tag k="name" v="Granton Terrace"/>
    <tag k="surface" v="asphalt"/>
  </way>
  <way id="4877621" version="9" timestamp="2020-11-06T23:28:55Z" changeset="93688604" uid="3432400" user="GinaroZ">
    <nd ref="769908351"/>
    <nd ref="8089664765"/>
    <nd ref="8089664766"/>
    <nd ref="769908105"/>
    <tag k="highway" v="residential"/>
    <tag k="maxspeed" v="20 mph"/>
    <tag k="name" v="Wardieburn Drive"/>
  </way>
  <way id="4877622" version="8" timestamp="2016-09-02T12:50:11Z" changeset="41868663" uid="3670347" user="rob_michel">
    <nd ref="31493484"/>
    <nd ref="4380701743"/>
    <nd ref="31493500"/>
    <nd ref="31493525"/>
    <nd ref="4380551126"/>
    <nd ref="3729511093"/>
    <nd ref="3729511092"/>
    <nd ref="3729511087"/>
    <nd ref="804415900"/>
    <tag k="highway" v="residential"/>
    <tag k="maxspeed" v="20 mph"/>
    <tag k="name" v="Wardieburn Street West"/>
  </way>
  <way id="4877623" version="6" timestamp="2016-09-02T12:50:11Z" changeset="41868663" uid="3670347" user="rob_michel">
    <nd ref="31493488"/>
    <nd ref="4380701742"/>
    <nd ref="31493498"/>
    <nd ref="31493536"/>
    <nd ref="31493537"/>
    <nd ref="4380487868"/>
    <nd ref="31493531"/>
    <tag k="highway" v="residential"/>
    <tag k="maxspeed" v="20 mph"/>
    <tag k="name" v="Wardieburn Road"/>
  </way>
  <way id="4877624" version="10" timestamp="2023-11-04T23:04:31Z" changeset="143632916" uid="5008136" user="JayTurnr">
    <nd ref="31493498"/>
    <nd ref="4380701739"/>
    <nd ref="4380701740"/>
    <nd ref="31493500"/>
    <tag k="highway" v="residential"/>
    <tag k="maxspeed" v="20 mph"/>
    <tag k="name" v="Wardieburn Place West"/>
  </way>
  <way id="4877625" version="5" timestamp="2016-09-02T12:50:11Z" changeset="41868663" uid="3670347" user="rob_michel">
    <nd ref="31493503"/>
    <nd ref="4347197504"/>
    <nd ref="4380701744"/>
    <nd ref="31493480"/>
    <tag k="highway" v="residential"/>
    <tag k="maxspeed" v="20 mph"/>
    <tag k="name" v="Wardieburn Place North"/>
  </way>
  <way id="4877626" version="5" timestamp="2016-09-02T10:51:38Z" changeset="41866752" uid="3670347" user="rob_michel">
    <nd ref="31493521"/>
    <nd ref="4380561080"/>
    <nd ref="4347197490"/>
    <nd ref="31493508"/>
    <tag k="highway" v="residential"/>
    <tag k="maxspeed" v="20 mph"/>
    <tag k="name" v="Wardieburn Place South"/>
  </way>
  <way id="4877627" version="6" timestamp="2023-11-04T23:04:31Z" changeset="143632916" uid="5008136" user="JayTurnr">
    <nd ref="31493508"/>
    <nd ref="31493511"/>
    <nd ref="4321455504"/>
    <nd ref="4321455507"/>
    <nd ref="4321455508"/>
    <nd ref="4321455510"/>
    <nd ref="4321455514"/>
    <nd ref="4321455517"/>
    <nd ref="4321455543"/>
    <nd ref="31493501"/>
    <nd ref="4321455575"/>
    <nd ref="4321455577"/>
    <nd ref="31493502"/>
    <nd ref="4321455584"/>
    <nd ref="4321455586"/>
    <nd ref="4321455589"/>
    <nd ref="31493503"/>
    <tag k="highway" v="residential"/>
    <tag k="maxspeed" v="20 mph"/>
    <tag k="name" v="Wardieburn Place West"/>
  </way>
  <way id="4877628" version="6" timestamp="2023-11-04T23:04:31Z" changeset="143632916" uid="5008136" user="JayTurnr">
    <nd ref="31493503"/>
    <nd ref="4321455608"/>
    <nd ref="31493504"/>
    <nd ref="4321455607"/>
    <nd ref="4321455606"/>
    <nd ref="4321455600"/>
    <nd ref="4321455599"/>
    <nd ref="4321455597"/>
    <nd ref="4321455592"/>
    <nd ref="31493505"/>
    <nd ref="4321455561"/>
    <nd ref="4321455534"/>
    <nd ref="4321455531"/>
    <nd ref="4321455527"/>
    <nd ref="31493506"/>
    <nd ref="4321455524"/>
    <nd ref="31493508"/>
    <tag k="highway" v="residential"/>
    <tag k="maxspeed" v="20 mph"/>
    <tag k="name" v="Wardieburn Place East"/>
  </way>
  <way id="4877629" version="6" timestamp="2016-09-02T10:51:38Z" changeset="41866752" uid="3670347" user="rob_michel">
    <nd ref="31493536"/>
    <nd ref="4347197304"/>
    <nd ref="4347197306"/>
    <nd ref="31493525"/>
    <nd ref="4347197307"/>
    <nd ref="31493521"/>
    <nd ref="4380561289"/>
    <nd ref="31493440"/>
    <nd ref="4380561290"/>
    <nd ref="4347197345"/>
    <nd ref="31508316"/>
    <tag k="highway" v="residential"/>
    <tag k="maxspeed" v="20 mph"/>
    <tag k="name" v="Wardieburn Terrace"/>
  </way>
  <way id="4877633" version="8" timestamp="2025-03-16T12:00:57Z" changeset="163685375" uid="7400464" user="Moohan">
    <nd ref="31493572"/>
    <nd ref="2351047272"/>
    <nd ref="3446947951"/>
    <nd ref="881035875"/>
    <nd ref="3446947950"/>
    <nd ref="3446947948"/>
    <nd ref="3446947947"/>
    <nd ref="31493594"/>
    <nd ref="3446947943"/>
    <nd ref="2351047283"/>
    <nd ref="3446947940"/>
    <nd ref="3446947939"/>
    <nd ref="3446947938"/>
    <nd ref="31493596"/>
    <nd ref="31493620"/>
    <nd ref="254964533"/>
    <tag k="cycleway:both" v="no"/>
    <tag k="highway" v="residential"/>
    <tag k="maxspeed" v="20 mph"/>
    <tag k="name" v="Pilton Drive"/>
    <tag k="source" v="OS_OpenData_StreetView"/>
    <tag k="source:maxspeed" v="survey"/>
    <tag k="surface" v="asphalt"/>
  </way>
  <way id="4877635" version="10" timestamp="2015-04-09T15:55:51Z" changeset="30096568" uid="1939732" user="eisa">
    <nd ref="637292"/>
    <nd ref="3446947949"/>
    <nd ref="3446947954"/>
    <nd ref="254964536"/>
    <nd ref="31493637"/>
    <nd ref="3446947975"/>
    <nd ref="3446947980"/>
    <nd ref="3446947985"/>
    <nd ref="31493640"/>
    <nd ref="250410226"/>
    <nd ref="514056070"/>
    <nd ref="31493646"/>
    <tag k="highway" v="residential"/>
    <tag k="maxspeed" v="20 mph"/>
    <tag k="name" v="West Winnelstrae"/>
  </way>
  <way id="4877638" version="6" timestamp="2019-03-17T13:25:05Z" changeset="68227090" uid="53626" user="jambamkin">
    <nd ref="31493563"/>
    <nd ref="31493564"/>
    <tag k="bridge" v="yes"/>
    <tag k="highway" v="tertiary"/>
    <tag k="lanes" v="2"/>
    <tag k="layer" v="1"/>
    <tag k="maxspeed" v="20 mph"/>
    <tag k="name" v="Pilton Drive"/>
    <tag k="surface" v="asphalt"/>
  </way>
  <way id="4878386" version="8" timestamp="2017-09-12T14:57:53Z" changeset="51976165" uid="388774" user="drnoble">
    <nd ref="4477792964"/>
    <nd ref="4716194856"/>
    <nd ref="5101051236"/>
    <nd ref="4716194850"/>
    <nd ref="4477792963"/>
    <nd ref="3639628119"/>
    <nd ref="4477792965"/>
    <nd ref="4716194819"/>
    <nd ref="31493565"/>
    <tag k="highway" v="residential"/>
    <tag k="lit" v="yes"/>
    <tag k="maxspeed" v="20 mph"/>
    <tag k="name" v="City Park Way"/>
    <tag k="source" v="survey"/>
  </way>
  <way id="4878387" version="17" timestamp="2024-10-31T10:52:17Z" changeset="158575790" uid="53626" user="jambamkin">
    <nd ref="31518022"/>
    <nd ref="2351047285"/>
    <nd ref="31518016"/>
    <nd ref="31517797"/>
    <nd ref="31517937"/>
    <nd ref="2351047273"/>
    <nd ref="31518022"/>
    <tag k="addr:city" v="Edinburgh"/>
    <tag k="addr:housenumber" v="102"/>
    <tag k="addr:postcode" v="EH5 2XS"/>
    <tag k="addr:street" v="Pilton Drive"/>
    <tag k="alt_name" v="Morrisons Edinburgh - Ferry Road"/>
    <tag k="branch" v="Ferry Road"/>
    <tag k="brand" v="Morrisons"/>
    <tag k="brand:wikidata" v="Q922344"/>
    <tag k="brand:wikipedia" v="en:Morrisons"/>
    <tag k="building" v="yes"/>
    <tag k="check_date" v="2024-08-30"/>
    <tag k="name" v="Morrisons"/>
    <tag k="opening_hours" v="Mo-Sa 07:00-22:00; Su 08:00-20:00"/>
    <tag k="operator" v="Morrisons"/>
    <tag k="payment:cash" v="yes"/>
    <tag k="payment:contactless" v="yes"/>
    <tag k="payment:credit_cards" v="yes"/>
    <tag k="payment:debit_cards" v="yes"/>
    <tag k="phone" v="+44 131 315 4970"/>
    <tag k="shop" v="supermarket"/>
    <tag k="source" v="Bing"/>
    <tag k="website" v="https://my.morrisons.com/storefinder/173/edinburgh-ferry-road"/>
    <tag k="wheelchair" v="yes"/>
  </way>
  <way id="4878429" version="5" timestamp="2016-07-25T09:41:47Z" changeset="41007144" uid="2234934" user="sophiemccallum">
    <nd ref="31518583"/>
    <nd ref="4319260832"/>
    <nd ref="31518592"/>
    <tag k="highway" v="residential"/>
    <tag k="maxspeed" v="20 mph"/>
    <tag k="name" v="West Ferryfield"/>
  </way>
  <way id="4881512" version="6" timestamp="2023-11-04T23:04:31Z" changeset="143632916" uid="5008136" user="JayTurnr">
    <nd ref="31493505"/>
    <nd ref="4347197497"/>
    <nd ref="4347197501"/>
    <nd ref="31493445"/>
    <tag k="highway" v="residential"/>
    <tag k="maxspeed" v="20 mph"/>
    <tag k="name" v="Wardieburn Place East"/>
  </way>
  <way id="4881599" version="7" timestamp="2016-09-02T11:57:59Z" changeset="41867879" uid="3670347" user="rob_michel">
    <nd ref="31493450"/>
    <nd ref="4347197305"/>
    <nd ref="3728634503"/>
    <nd ref="31583466"/>
    <nd ref="4347197310"/>
    <nd ref="3728634509"/>
    <nd ref="4347197316"/>
    <nd ref="33204339"/>
    <nd ref="3728634517"/>
    <nd ref="3728634523"/>
    <nd ref="3728634526"/>
    <nd ref="3728634531"/>
    <nd ref="4380647525"/>
    <nd ref="30730894"/>
    <tag k="highway" v="residential"/>
    <tag k="maxspeed" v="20 mph"/>
    <tag k="name" v="Granton Gardens"/>
  </way>
  <way id="4945659" version="5" timestamp="2016-05-31T16:13:15Z" changeset="39692243" uid="553175" user="michaelbrown">
    <nd ref="30113441"/>
    <nd ref="4086766657"/>
    <nd ref="32594820"/>
    <nd ref="4217627717"/>
    <nd ref="4217627724"/>
    <nd ref="4086766658"/>
    <nd ref="2942537687"/>
    <nd ref="4217627742"/>
    <nd ref="2942537689"/>
    <nd ref="4086766659"/>
    <nd ref="4217627766"/>
    <nd ref="32594821"/>
    <tag k="highway" v="residential"/>
    <tag k="maxspeed" v="20 mph"/>
    <tag k="name" v="Grierson Crescent"/>
  </way>
  <way id="4945660" version="4" timestamp="2014-12-31T17:33:17Z" changeset="27827178" uid="42123" user="Ropino">
    <nd ref="30113434"/>
    <nd ref="32594823"/>
    <tag k="highway" v="residential"/>
    <tag k="maxspeed" v="20 mph"/>
    <tag k="name" v="Grierson Villas"/>
  </way>
  <way id="4995256" version="5" timestamp="2016-08-12T14:36:28Z" changeset="41411936" uid="553175" user="michaelbrown">
    <nd ref="30082264"/>
    <nd ref="4347447813"/>
    <nd ref="3729612505"/>
    <nd ref="33164994"/>
    <tag k="highway" v="residential"/>
    <tag k="maxspeed" v="20 mph"/>
    <tag k="name" v="Wardie Grove"/>
  </way>
  <way id="4995257" version="8" timestamp="2023-08-23T14:02:21Z" changeset="140276834" uid="13459" user="scvalex">
    <nd ref="33164820"/>
    <nd ref="3490830310"/>
    <nd ref="2954426053"/>
    <nd ref="2954426054"/>
    <nd ref="33164995"/>
    <nd ref="33164996"/>
    <nd ref="33164997"/>
    <nd ref="1281696225"/>
    <tag k="highway" v="residential"/>
    <tag k="maxspeed" v="20 mph"/>
    <tag k="name" v="Wardie Square"/>
    <tag k="source" v="Bing;survey"/>
    <tag k="surface" v="asphalt"/>
  </way>
  <way id="4995258" version="5" timestamp="2023-08-23T14:02:24Z" changeset="140276834" uid="13459" user="scvalex">
    <nd ref="33164996"/>
    <nd ref="1281696302"/>
    <nd ref="33164821"/>
    <tag k="highway" v="residential"/>
    <tag k="maxspeed" v="20 mph"/>
    <tag k="name" v="Wardie Square"/>
    <tag k="source" v="Bing;survey"/>
    <tag k="surface" v="asphalt"/>
  </way>
  <way id="4997367" version="6" timestamp="2020-04-19T11:01:51Z" changeset="83768649" uid="388774" user="drnoble">
    <nd ref="4742262993"/>
    <nd ref="33181796"/>
    <nd ref="33181797"/>
    <nd ref="1151992771"/>
    <nd ref="1151993094"/>
    <nd ref="1151992846"/>
    <nd ref="1151992256"/>
    <tag k="alt_name" v="Crewe Road North"/>
    <tag k="highway" v="residential"/>
    <tag k="maxspeed" v="20 mph"/>
    <tag k="name" v="North Fettes Apartments"/>
  </way>
  <way id="4997763" version="11" timestamp="2025-03-30T20:18:15Z" changeset="164303884" uid="22692021" user="Hattifnattar">
    <nd ref="33183056"/>
    <nd ref="4313074597"/>
    <nd ref="3733389955"/>
    <nd ref="33184596"/>
    <nd ref="33184595"/>
    <nd ref="33184594"/>
    <nd ref="11193741623"/>
    <nd ref="11205139019"/>
    <nd ref="4304878083"/>
    <nd ref="33184589"/>
    <tag k="highway" v="residential"/>
    <tag k="lanes" v="2"/>
    <tag k="maxspeed" v="20 mph"/>
    <tag k="name" v="Royston Mains Place"/>
    <tag k="surface" v="asphalt"/>
  </way>
  <way id="4997764" version="8" timestamp="2016-07-15T18:13:21Z" changeset="40765990" uid="553175" user="michaelbrown">
    <nd ref="33184589"/>
    <nd ref="4304878082"/>
    <nd ref="1703167802"/>
    <nd ref="33184592"/>
    <nd ref="33184591"/>
    <nd ref="4304877942"/>
    <nd ref="33184590"/>
    <tag k="highway" v="residential"/>
    <tag k="lanes" v="2"/>
    <tag k="maxspeed" v="20 mph"/>
    <tag k="name" v="Crewe Place"/>
  </way>
  <way id="4997765" version="4" timestamp="2012-11-22T18:27:51Z" changeset="13989093" uid="91225" user="tms13">
    <nd ref="30082296"/>
    <nd ref="33184592"/>
    <tag k="highway" v="residential"/>
    <tag k="lanes" v="2"/>
    <tag k="maxspeed" v="20 mph"/>
    <tag k="name" v="Crewe Loan"/>
  </way>
  <way id="4997766" version="5" timestamp="2025-03-30T20:29:10Z" changeset="164303884" uid="22692021" user="Hattifnattar">
    <nd ref="33184596"/>
    <nd ref="33184598"/>
    <nd ref="33184599"/>
    <nd ref="33184594"/>
    <tag k="highway" v="residential"/>
    <tag k="maxspeed" v="20 mph"/>
    <tag k="name" v="Royston Mains Place"/>
    <tag k="surface" v="asphalt"/>
  </way>
  <way id="4997767" version="12" timestamp="2020-11-16T23:22:13Z" changeset="94232188" uid="3432400" user="GinaroZ">
    <nd ref="33183058"/>
    <nd ref="4313074594"/>
    <nd ref="33183057"/>
    <nd ref="33183056"/>
    <nd ref="262697180"/>
    <nd ref="3733389977"/>
    <nd ref="33183055"/>
    <nd ref="3733390002"/>
    <nd ref="33183054"/>
    <nd ref="3733390022"/>
    <nd ref="33183053"/>
    <nd ref="4315897108"/>
    <nd ref="33183052"/>
    <nd ref="1419953034"/>
    <nd ref="33183051"/>
    <nd ref="33183048"/>
    <nd ref="33183046"/>
    <nd ref="33183044"/>
    <nd ref="7171049880"/>
    <nd ref="3733390175"/>
    <nd ref="3733390191"/>
    <nd ref="31493492"/>
    <tag k="highway" v="residential"/>
    <tag k="lanes" v="2"/>
    <tag k="maxspeed" v="20 mph"/>
    <tag k="name" v="Royston Mains Crescent"/>
    <tag k="surface" v="asphalt"/>
  </way>
  <way id="4997768" version="7" timestamp="2015-09-07T17:01:49Z" changeset="33861354" uid="1798469" user="eric_">
    <nd ref="33183054"/>
    <nd ref="3733390024"/>
    <nd ref="3733390130"/>
    <nd ref="1419952990"/>
    <nd ref="33184603"/>
    <nd ref="1419952919"/>
    <nd ref="33184605"/>
    <nd ref="3733390178"/>
    <nd ref="1419952921"/>
    <nd ref="3733390180"/>
    <nd ref="33184606"/>
    <nd ref="1419953043"/>
    <nd ref="3733390174"/>
    <nd ref="33184607"/>
    <nd ref="1419952989"/>
    <nd ref="3733390137"/>
    <nd ref="33183052"/>
    <tag k="highway" v="residential"/>
    <tag k="maxspeed" v="20 mph"/>
    <tag k="name" v="Royston Mains Crescent"/>
  </way>
  <way id="4997769" version="5" timestamp="2025-03-19T12:58:10Z" changeset="163816658" uid="6541439" user="Johnny wheelz">
    <nd ref="33183053"/>
    <nd ref="4315897106"/>
    <nd ref="4315896924"/>
    <tag k="highway" v="residential"/>
    <tag k="maxspeed" v="20 mph"/>
    <tag k="name" v="Royston Mains Close"/>
    <tag k="surface" v="asphalt"/>
  </way>
  <way id="4997964" version="7" timestamp="2016-09-02T10:02:29Z" changeset="41865936" uid="3670347" user="rob_michel">
    <nd ref="33183046"/>
    <nd ref="4380476295"/>
    <nd ref="33187293"/>
    <nd ref="33187291"/>
    <nd ref="262697162"/>
    <nd ref="2609094321"/>
    <nd ref="4380475830"/>
    <nd ref="30082281"/>
    <tag k="highway" v="residential"/>
    <tag k="lanes" v="2"/>
    <tag k="maxspeed" v="20 mph"/>
    <tag k="name" v="Royston Mains Gardens"/>
  </way>
  <way id="4997969" version="4" timestamp="2016-07-22T16:08:08Z" changeset="40953706" uid="553175" user="michaelbrown">
    <nd ref="33183048"/>
    <nd ref="33187294"/>
    <nd ref="4315897218"/>
    <nd ref="4315897224"/>
    <nd ref="33187296"/>
    <nd ref="4315897227"/>
    <nd ref="4315897223"/>
    <nd ref="33183044"/>
    <tag k="highway" v="residential"/>
    <tag k="maxspeed" v="20 mph"/>
    <tag k="name" v="Royston Mains Gardens"/>
  </way>
  <way id="4997970" version="9" timestamp="2020-06-17T15:53:49Z" changeset="86782339" uid="4435" user="Chris Fleming">
    <nd ref="33184595"/>
    <nd ref="4313074593"/>
    <nd ref="33187224"/>
    <nd ref="33187225"/>
    <nd ref="6830469323"/>
    <nd ref="7629718051"/>
    <nd ref="33187288"/>
    <nd ref="33187289"/>
    <nd ref="4380476108"/>
    <nd ref="33187291"/>
    <tag k="highway" v="residential"/>
    <tag k="lanes" v="2"/>
    <tag k="maxspeed" v="20 mph"/>
    <tag k="name" v="Royston Mains Avenue"/>
  </way>
  <way id="4997971" version="4" timestamp="2014-12-31T17:37:31Z" changeset="27827178" uid="42123" user="Ropino">
    <nd ref="33183054"/>
    <nd ref="33187225"/>
    <tag k="highway" v="residential"/>
    <tag k="lanes" v="2"/>
    <tag k="maxspeed" v="20 mph"/>
    <tag k="name" v="Royston Mains Green"/>
  </way>
  <way id="4997973" version="5" timestamp="2016-09-02T10:02:29Z" changeset="41865936" uid="3670347" user="rob_michel">
    <nd ref="33183052"/>
    <nd ref="4380476188"/>
    <nd ref="33187288"/>
    <tag k="highway" v="residential"/>
    <tag k="lanes" v="2"/>
    <tag k="maxspeed" v="20 mph"/>
    <tag k="name" v="Royston Mains Green"/>
  </way>
  <way id="4997974" version="8" timestamp="2016-09-02T10:02:29Z" changeset="41865936" uid="3670347" user="rob_michel">
    <nd ref="33187298"/>
    <nd ref="4347197359"/>
    <nd ref="33183051"/>
    <nd ref="4347197346"/>
    <nd ref="4380476099"/>
    <nd ref="33187289"/>
    <nd ref="4380476093"/>
    <nd ref="4380475828"/>
    <nd ref="30082282"/>
    <tag k="highway" v="residential"/>
    <tag k="lanes" v="2"/>
    <tag k="maxspeed" v="20 mph"/>
    <tag k="name" v="Royston Mains Road"/>
  </way>
  <way id="4997979" version="8" timestamp="2025-03-30T20:30:28Z" changeset="164303884" uid="22692021" user="Hattifnattar">
    <nd ref="33187303"/>
    <nd ref="33183055"/>
    <nd ref="2974514152"/>
    <nd ref="33187224"/>
    <nd ref="33187306"/>
    <tag k="highway" v="residential"/>
    <tag k="lanes" v="2"/>
    <tag k="maxspeed" v="20 mph"/>
    <tag k="name" v="Royston Mains Street"/>
    <tag k="surface" v="asphalt"/>
  </way>
  <way id="4997984" version="11" timestamp="2023-07-15T15:13:30Z" changeset="138548799" uid="3432400" user="GinaroZ">
    <nd ref="31508319"/>
    <nd ref="31493557"/>
    <nd ref="31493558"/>
    <nd ref="31493560"/>
    <nd ref="1703167846"/>
    <nd ref="11048087092"/>
    <nd ref="4834842948"/>
    <nd ref="33194277"/>
    <nd ref="31493562"/>
    <nd ref="1419974567"/>
    <nd ref="31493563"/>
    <tag k="highway" v="tertiary"/>
    <tag k="lanes" v="2"/>
    <tag k="maxspeed" v="20 mph"/>
    <tag k="name" v="Pilton Drive"/>
    <tag k="surface" v="asphalt"/>
  </way>
  <way id="4998179" version="7" timestamp="2016-09-02T10:02:28Z" changeset="41865936" uid="3670347" user="rob_michel">
    <nd ref="33187306"/>
    <nd ref="4288800456"/>
    <nd ref="33190450"/>
    <nd ref="4288800450"/>
    <nd ref="4288800447"/>
    <nd ref="33190451"/>
    <nd ref="4288800440"/>
    <nd ref="33190452"/>
    <nd ref="4288800437"/>
    <nd ref="4288800436"/>
    <nd ref="33190453"/>
    <nd ref="4288800433"/>
    <nd ref="4288800434"/>
    <nd ref="4288800435"/>
    <nd ref="33190454"/>
    <nd ref="4288800441"/>
    <nd ref="4288800443"/>
    <nd ref="33190455"/>
    <nd ref="4288800446"/>
    <nd ref="33190456"/>
    <nd ref="4288800451"/>
    <nd ref="4288800455"/>
    <nd ref="4288800458"/>
    <nd ref="4288800460"/>
    <nd ref="33190457"/>
    <nd ref="4288800464"/>
    <nd ref="4288800469"/>
    <nd ref="4288800474"/>
    <nd ref="33190458"/>
    <nd ref="4380475827"/>
    <nd ref="30082282"/>
    <tag k="highway" v="residential"/>
    <tag k="lanes" v="2"/>
    <tag k="maxspeed" v="20 mph"/>
    <tag k="name" v="Crewe Crescent"/>
  </way>
  <way id="4998180" version="4" timestamp="2014-12-31T16:59:59Z" changeset="27827178" uid="42123" user="Ropino">
    <nd ref="33190454"/>
    <nd ref="33190461"/>
    <nd ref="33190460"/>
    <tag k="highway" v="residential"/>
    <tag k="lanes" v="2"/>
    <tag k="maxspeed" v="20 mph"/>
    <tag k="name" v="Crewe Grove"/>
  </way>
  <way id="4998181" version="5" timestamp="2016-06-30T16:53:12Z" changeset="40397507" uid="553175" user="michaelbrown">
    <nd ref="33190475"/>
    <nd ref="4273907288"/>
    <nd ref="4273907301"/>
    <nd ref="31493558"/>
    <tag k="highway" v="residential"/>
    <tag k="lanes" v="2"/>
    <tag k="maxspeed" v="20 mph"/>
    <tag k="name" v="Pilton Loan"/>
  </way>
  <way id="4998182" version="7" timestamp="2016-09-02T10:02:29Z" changeset="41865936" uid="3670347" user="rob_michel">
    <nd ref="30082281"/>
    <nd ref="4380475829"/>
    <nd ref="33190475"/>
    <nd ref="33190474"/>
    <nd ref="1703167814"/>
    <nd ref="3733389377"/>
    <nd ref="31504710"/>
    <tag k="highway" v="residential"/>
    <tag k="lanes" v="2"/>
    <tag k="maxspeed" v="20 mph"/>
    <tag k="name" v="Pilton Place"/>
  </way>
  <way id="4998183" version="10" timestamp="2016-07-07T17:42:46Z" changeset="40548702" uid="553175" user="michaelbrown">
    <nd ref="33184591"/>
    <nd ref="4288800186"/>
    <nd ref="33190464"/>
    <nd ref="3733389382"/>
    <nd ref="3733389383"/>
    <nd ref="3733389381"/>
    <nd ref="3733389380"/>
    <nd ref="1584399087"/>
    <nd ref="804415883"/>
    <nd ref="4288800135"/>
    <nd ref="4288800131"/>
    <nd ref="4288800127"/>
    <nd ref="4288800125"/>
    <nd ref="33190467"/>
    <nd ref="4288800122"/>
    <nd ref="4288800123"/>
    <nd ref="4288800124"/>
    <nd ref="804415816"/>
    <nd ref="4273906773"/>
    <nd ref="33190461"/>
    <nd ref="4273906775"/>
    <nd ref="3733389379"/>
    <nd ref="4273907013"/>
    <nd ref="33190470"/>
    <nd ref="4273907018"/>
    <nd ref="4273907028"/>
    <nd ref="4273907034"/>
    <nd ref="4273907036"/>
    <nd ref="804415837"/>
    <nd ref="4273907050"/>
    <nd ref="4273907066"/>
    <nd ref="33190471"/>
    <nd ref="33190472"/>
    <nd ref="4288800425"/>
    <nd ref="4273907245"/>
    <nd ref="4288800429"/>
    <nd ref="4273907246"/>
    <nd ref="1584399090"/>
    <nd ref="4273907252"/>
    <nd ref="33190474"/>
    <tag k="highway" v="residential"/>
    <tag k="lanes" v="2"/>
    <tag k="maxspeed" v="20 mph"/>
    <tag k="name" v="Crewe Terrace"/>
  </way>
  <way id="4998687" version="6" timestamp="2020-11-16T23:22:13Z" changeset="94232188" uid="3432400" user="GinaroZ">
    <nd ref="33196659"/>
    <nd ref="3733389945"/>
    <tag k="highway" v="residential"/>
    <tag k="lanes" v="2"/>
    <tag k="maxspeed" v="20 mph"/>
    <tag k="name" v="Crewe Road West"/>
    <tag k="surface" v="asphalt"/>
  </way>
  <way id="4998688" version="10" timestamp="2020-11-16T23:22:13Z" changeset="94232188" uid="3432400" user="GinaroZ">
    <nd ref="33196658"/>
    <nd ref="33196659"/>
    <nd ref="33196656"/>
    <nd ref="3733459025"/>
    <nd ref="33196654"/>
    <nd ref="33196653"/>
    <nd ref="3733458924"/>
    <nd ref="33196661"/>
    <nd ref="33196651"/>
    <nd ref="7418837077"/>
    <nd ref="7418842416"/>
    <nd ref="33196649"/>
    <nd ref="3733389378"/>
    <nd ref="33196647"/>
    <nd ref="7418837043"/>
    <nd ref="3733389376"/>
    <nd ref="33196646"/>
    <nd ref="1151993132"/>
    <nd ref="33196644"/>
    <nd ref="1151992606"/>
    <nd ref="3733458882"/>
    <nd ref="3729510938"/>
    <nd ref="3729510937"/>
    <nd ref="1151993045"/>
    <nd ref="1151992690"/>
    <tag k="highway" v="residential"/>
    <tag k="lanes" v="2"/>
    <tag k="maxspeed" v="20 mph"/>
    <tag k="name" v="Crewe Road West"/>
    <tag k="surface" v="asphalt"/>
  </way>
  <way id="4999446" version="6" timestamp="2016-03-29T13:58:54Z" changeset="38144920" uid="553175" user="michaelbrown">
    <nd ref="4085094709"/>
    <nd ref="33203908"/>
    <nd ref="4078631328"/>
    <nd ref="33203909"/>
    <nd ref="4078631329"/>
    <nd ref="4078631332"/>
    <nd ref="33203904"/>
    <nd ref="4085094726"/>
    <nd ref="4085094725"/>
    <nd ref="4085094723"/>
    <nd ref="4085094720"/>
    <nd ref="4085094716"/>
    <nd ref="4085094712"/>
    <nd ref="4085094710"/>
    <nd ref="4085094709"/>
    <tag k="highway" v="residential"/>
    <tag k="maxspeed" v="20 mph"/>
    <tag k="name" v="Boswall Gardens"/>
  </way>
  <way id="4999475" version="4" timestamp="2014-12-31T16:57:33Z" changeset="27827178" uid="42123" user="Ropino">
    <nd ref="31303451"/>
    <nd ref="33203909"/>
    <tag k="highway" v="residential"/>
    <tag k="maxspeed" v="20 mph"/>
    <tag k="name" v="Boswall Gardens"/>
  </way>
  <way id="4999521" version="6" timestamp="2016-08-12T14:36:28Z" changeset="41411936" uid="553175" user="michaelbrown">
    <nd ref="33204334"/>
    <nd ref="4347448018"/>
    <nd ref="4347448025"/>
    <nd ref="4347448029"/>
    <nd ref="4347448034"/>
    <nd ref="4347448036"/>
    <nd ref="33204333"/>
    <nd ref="4347448049"/>
    <nd ref="4347448051"/>
    <nd ref="4347448054"/>
    <nd ref="4347448056"/>
    <nd ref="33204331"/>
    <nd ref="4347448058"/>
    <nd ref="4347448057"/>
    <nd ref="4347448055"/>
    <nd ref="4347448053"/>
    <nd ref="33204330"/>
    <nd ref="33204329"/>
    <nd ref="4347447926"/>
    <nd ref="33204328"/>
    <tag k="highway" v="residential"/>
    <tag k="maxspeed" v="20 mph"/>
    <tag k="name" v="Wardiefield"/>
  </way>
  <way id="4999522" version="4" timestamp="2014-12-31T17:40:29Z" changeset="27827178" uid="42123" user="Ropino">
    <nd ref="33204329"/>
    <nd ref="33204338"/>
    <tag k="highway" v="residential"/>
    <tag k="maxspeed" v="20 mph"/>
    <tag k="name" v="Wardiefield"/>
  </way>
  <way id="4999524" version="4" timestamp="2015-09-04T17:59:16Z" changeset="33800097" uid="1798469" user="eric_">
    <nd ref="33204339"/>
    <nd ref="3729612458"/>
    <nd ref="3729612437"/>
    <nd ref="33204340"/>
    <tag k="highway" v="residential"/>
    <tag k="maxspeed" v="20 mph"/>
    <tag k="name" v="Granton Grove"/>
  </way>
  <way id="5000360" version="4" timestamp="2019-02-27T14:24:31Z" changeset="67619714" uid="3432400" user="GinaroZ">
    <nd ref="30082278"/>
    <nd ref="4380550084"/>
    <nd ref="33208867"/>
    <tag k="highway" v="residential"/>
    <tag k="maxspeed" v="20 mph"/>
    <tag k="name" v="Blackadder Place"/>
  </way>
  <way id="5002328" version="15" timestamp="2022-05-21T23:14:17Z" changeset="121300525" uid="13165294" user="ThatEffingCat">
    <nd ref="33226347"/>
    <nd ref="6790162015"/>
    <nd ref="7258254357"/>
    <nd ref="3062066398"/>
    <nd ref="33226348"/>
    <nd ref="7294383343"/>
    <nd ref="7149244280"/>
    <nd ref="403799393"/>
    <nd ref="33226349"/>
    <tag k="highway" v="residential"/>
    <tag k="maxspeed" v="20 mph"/>
    <tag k="name" v="Lochinvar Drive"/>
    <tag k="sidewalk" v="both"/>
    <tag k="source" v="Bing;survey"/>
    <tag k="surface" v="asphalt"/>
  </way>
  <way id="5002345" version="12" timestamp="2024-06-12T18:04:15Z" changeset="152600047" uid="20487713" user="iiBus">
    <nd ref="33226349"/>
    <nd ref="8637389033"/>
    <nd ref="11976148411"/>
    <nd ref="265557961"/>
    <tag k="highway" v="residential"/>
    <tag k="lanes" v="2"/>
    <tag k="lit" v="yes"/>
    <tag k="maxspeed" v="20 mph"/>
    <tag k="name" v="Hesperus Crossway"/>
    <tag k="sidewalk" v="separate"/>
    <tag k="source" v="survey"/>
    <tag k="surface" v="asphalt"/>
  </way>
  <way id="5002348" version="9" timestamp="2021-04-18T09:18:31Z" changeset="103129041" uid="388774" user="drnoble">
    <nd ref="32897287"/>
    <nd ref="8639532197"/>
    <nd ref="506285280"/>
    <nd ref="3812390831"/>
    <nd ref="265557921"/>
    <nd ref="265557929"/>
    <nd ref="506285106"/>
    <nd ref="33226455"/>
    <tag k="highway" v="residential"/>
    <tag k="lanes" v="2"/>
    <tag k="lit" v="yes"/>
    <tag k="maxspeed" v="20 mph"/>
    <tag k="name" v="Chestnut Street"/>
    <tag k="sidewalk" v="both"/>
    <tag k="surface" v="asphalt"/>
  </way>
  <way id="5182827" version="5" timestamp="2017-03-18T23:09:40Z" changeset="46968481" uid="33764" user="Rostranimin">
    <nd ref="4335746246"/>
    <nd ref="4335746243"/>
    <nd ref="4335746242"/>
    <nd ref="1102709828"/>
    <nd ref="4335746240"/>
    <nd ref="36140985"/>
    <nd ref="1657565226"/>
    <nd ref="4335746194"/>
    <nd ref="4335746195"/>
    <nd ref="36140986"/>
    <nd ref="36140987"/>
    <tag k="highway" v="residential"/>
    <tag k="maxspeed" v="20 mph"/>
    <tag k="name" v="West Granton Road"/>
  </way>
  <way id="5182830" version="8" timestamp="2022-11-18T15:03:14Z" changeset="129090782" uid="388774" user="drnoble">
    <nd ref="36140989"/>
    <nd ref="36140990"/>
    <nd ref="4335746237"/>
    <nd ref="36140991"/>
    <nd ref="10199790842"/>
    <nd ref="251615805"/>
    <nd ref="10199790802"/>
    <nd ref="8494721887"/>
    <tag k="highway" v="residential"/>
    <tag k="maxspeed" v="20 mph"/>
    <tag k="name" v="Granton Park Avenue"/>
  </way>
  <way id="5182831" version="5" timestamp="2016-08-04T17:25:32Z" changeset="41243038" uid="553175" user="michaelbrown">
    <nd ref="615646"/>
    <nd ref="4335745587"/>
    <nd ref="36141002"/>
    <nd ref="4335745527"/>
    <nd ref="36141001"/>
    <nd ref="4335745528"/>
    <nd ref="4335745563"/>
    <nd ref="36141000"/>
    <nd ref="1102709624"/>
    <nd ref="4335745769"/>
    <nd ref="36140999"/>
    <nd ref="1584090006"/>
    <nd ref="36140997"/>
    <tag k="highway" v="residential"/>
    <tag k="maxspeed" v="20 mph"/>
    <tag k="name" v="Granton Medway"/>
  </way>
  <way id="5182832" version="6" timestamp="2016-08-04T17:25:32Z" changeset="41243038" uid="553175" user="michaelbrown">
    <nd ref="36141006"/>
    <nd ref="4335745860"/>
    <nd ref="36141008"/>
    <nd ref="1102709778"/>
    <nd ref="36141005"/>
    <nd ref="36141006"/>
    <tag k="area" v="yes"/>
    <tag k="highway" v="residential"/>
    <tag k="maxspeed" v="20 mph"/>
    <tag k="name" v="Granton Crescent"/>
    <tag k="source" v="Bing"/>
  </way>
  <way id="5182834" version="4" timestamp="2016-08-04T17:25:31Z" changeset="41243038" uid="553175" user="michaelbrown">
    <nd ref="36141004"/>
    <nd ref="4335745452"/>
    <nd ref="36141005"/>
    <tag k="highway" v="residential"/>
    <tag k="maxspeed" v="20 mph"/>
    <tag k="name" v="Granton Crescent"/>
  </way>
  <way id="23166949" version="12" timestamp="2025-03-16T12:01:06Z" changeset="163685263" uid="7400464" user="Moohan">
    <nd ref="31493564"/>
    <nd ref="1076928318"/>
    <nd ref="3446947961"/>
    <nd ref="31493565"/>
    <nd ref="5101051241"/>
    <nd ref="2021889522"/>
    <nd ref="31493572"/>
    <nd ref="2351047271"/>
    <nd ref="3446947937"/>
    <nd ref="3446947935"/>
    <nd ref="250413823"/>
    <tag k="cycleway:both" v="no"/>
    <tag k="highway" v="tertiary"/>
    <tag k="lanes" v="2"/>
    <tag k="maxspeed" v="20 mph"/>
    <tag k="name" v="Pilton Drive"/>
    <tag k="surface" v="asphalt"/>
  </way>
  <way id="23252521" version="27" timestamp="2024-12-10T18:20:44Z" changeset="160139819" uid="12931418" user="Clthreeoneeight">
    <nd ref="7883624643"/>
    <nd ref="11568759369"/>
    <nd ref="8127330262"/>
    <nd ref="506286709"/>
    <nd ref="5554969537"/>
    <nd ref="12409974262"/>
    <nd ref="5554969541"/>
    <nd ref="6825127062"/>
    <nd ref="506286739"/>
    <nd ref="32897278"/>
    <nd ref="4926936534"/>
    <nd ref="1151738530"/>
    <nd ref="4926936533"/>
    <nd ref="1741651037"/>
    <nd ref="4926936532"/>
    <nd ref="4926936531"/>
    <nd ref="1741651046"/>
    <nd ref="4926936530"/>
    <nd ref="4926936529"/>
    <nd ref="32897279"/>
    <nd ref="4926936528"/>
    <nd ref="4926936526"/>
    <nd ref="4926936527"/>
    <nd ref="1741651054"/>
    <nd ref="4926936525"/>
    <nd ref="4926936524"/>
    <nd ref="32897280"/>
    <nd ref="32897281"/>
    <nd ref="1741651199"/>
    <nd ref="4926936402"/>
    <nd ref="4926936403"/>
    <nd ref="1741651223"/>
    <nd ref="4926936401"/>
    <nd ref="4926936400"/>
    <nd ref="1151738535"/>
    <nd ref="1419953023"/>
    <nd ref="4926936396"/>
    <nd ref="4926936397"/>
    <nd ref="4926936398"/>
    <nd ref="4926936399"/>
    <nd ref="251615791"/>
    <nd ref="1741651290"/>
    <nd ref="506287178"/>
    <nd ref="1741651395"/>
    <nd ref="1741651427"/>
    <nd ref="1741651578"/>
    <nd ref="1741651610"/>
    <nd ref="1741651637"/>
    <nd ref="1741651690"/>
    <nd ref="1741651794"/>
    <nd ref="1741651841"/>
    <nd ref="1741651894"/>
    <nd ref="1741652130"/>
    <nd ref="1741652171"/>
    <nd ref="1741652257"/>
    <nd ref="10683625648"/>
    <nd ref="559466019"/>
    <nd ref="32897285"/>
    <nd ref="4926936391"/>
    <nd ref="1350367462"/>
    <nd ref="403799371"/>
    <nd ref="1741652634"/>
    <nd ref="4926936392"/>
    <nd ref="4058926272"/>
    <nd ref="4926936390"/>
    <nd ref="32897286"/>
    <nd ref="8639532196"/>
    <nd ref="32897287"/>
    <tag k="highway" v="residential"/>
    <tag k="lit" v="yes"/>
    <tag k="maxspeed" v="30 mph"/>
    <tag k="name" v="Waterfront Avenue"/>
    <tag k="surface" v="asphalt"/>
  </way>
  <way id="23252526" version="10" timestamp="2024-01-30T10:23:13Z" changeset="146857224" uid="3500921" user="camlewwri">
    <nd ref="1741651841"/>
    <nd ref="506285311"/>
    <nd ref="1741652372"/>
    <nd ref="8639669527"/>
    <nd ref="1741652565"/>
    <nd ref="8639669526"/>
    <nd ref="8639669525"/>
    <nd ref="251615801"/>
    <nd ref="8639669524"/>
    <nd ref="251615802"/>
    <nd ref="251615803"/>
    <nd ref="8639657095"/>
    <nd ref="559466004"/>
    <nd ref="559466006"/>
    <nd ref="1741652171"/>
    <tag k="highway" v="residential"/>
    <tag k="maxspeed" v="20 mph"/>
    <tag k="name" v="Kingsburgh Crescent"/>
    <tag k="oneway" v="no"/>
  </way>
  <way id="23252527" version="8" timestamp="2022-11-18T15:03:14Z" changeset="129090782" uid="388774" user="drnoble">
    <nd ref="1741652171"/>
    <nd ref="506286935"/>
    <nd ref="264164003"/>
    <nd ref="4335746232"/>
    <nd ref="251615805"/>
    <tag k="foot" v="yes"/>
    <tag k="highway" v="residential"/>
    <tag k="maxspeed" v="20 mph"/>
    <tag k="name" v="Granton Park Avenue North"/>
    <tag k="oneway" v="no"/>
    <tag k="sidewalk" v="both"/>
    <tag k="surface" v="asphalt"/>
  </way>
  <way id="23545889" version="8" timestamp="2016-07-25T16:26:07Z" changeset="41016740" uid="2234934" user="sophiemccallum">
    <nd ref="31503711"/>
    <nd ref="4030565671"/>
    <nd ref="769442223"/>
    <nd ref="4030565670"/>
    <nd ref="31503718"/>
    <nd ref="4319816499"/>
    <nd ref="254964461"/>
    <nd ref="4030565672"/>
    <nd ref="4030565673"/>
    <nd ref="31503725"/>
    <nd ref="4030565674"/>
    <nd ref="4319816557"/>
    <nd ref="1584089985"/>
    <nd ref="4030565675"/>
    <nd ref="254964459"/>
    <nd ref="31503726"/>
    <nd ref="4319816696"/>
    <nd ref="4319816720"/>
    <nd ref="4030565669"/>
    <nd ref="4319816735"/>
    <nd ref="4319816736"/>
    <nd ref="31503727"/>
    <nd ref="4319816737"/>
    <nd ref="4319816738"/>
    <nd ref="31503728"/>
    <nd ref="4319816740"/>
    <nd ref="4319816741"/>
    <nd ref="1584089988"/>
    <nd ref="4319816742"/>
    <nd ref="4319816743"/>
    <nd ref="31503729"/>
    <nd ref="254964463"/>
    <nd ref="1584089996"/>
    <nd ref="4319816744"/>
    <nd ref="254964465"/>
    <tag k="highway" v="residential"/>
    <tag k="maxspeed" v="20 mph"/>
    <tag k="name" v="East Pilton Farm Wynd"/>
  </way>
  <way id="23545894" version="7" timestamp="2018-09-09T06:03:02Z" changeset="62416473" uid="56159" user="alektronic">
    <nd ref="254964466"/>
    <nd ref="4030565678"/>
    <nd ref="494060859"/>
    <nd ref="494060861"/>
    <nd ref="4030565676"/>
    <nd ref="254964468"/>
    <nd ref="494060864"/>
    <nd ref="494060867"/>
    <nd ref="254964470"/>
    <nd ref="494060871"/>
    <nd ref="494060872"/>
    <nd ref="254964473"/>
    <nd ref="494060875"/>
    <nd ref="494060876"/>
    <nd ref="4030565677"/>
    <nd ref="254964476"/>
    <nd ref="494060879"/>
    <nd ref="494060881"/>
    <nd ref="254964478"/>
    <nd ref="494060886"/>
    <nd ref="254964466"/>
    <tag k="highway" v="residential"/>
    <tag k="junction" v="roundabout"/>
    <tag k="maxspeed" v="20 mph"/>
    <tag k="name" v="Pilton Farm Avenue"/>
    <tag k="surface" v="asphalt"/>
  </way>
  <way id="23545896" version="4" timestamp="2018-09-09T06:03:02Z" changeset="62416473" uid="56159" user="alektronic">
    <nd ref="254964476"/>
    <nd ref="31493663"/>
    <nd ref="31493665"/>
    <tag k="highway" v="residential"/>
    <tag k="maxspeed" v="20 mph"/>
    <tag k="name" v="Pilton Farm Avenue"/>
    <tag k="surface" v="asphalt"/>
  </way>
  <way id="23545897" version="8" timestamp="2018-09-09T06:03:08Z" changeset="62416473" uid="56159" user="alektronic">
    <nd ref="254964468"/>
    <nd ref="254964481"/>
    <nd ref="4319816544"/>
    <nd ref="4319816550"/>
    <nd ref="4319816567"/>
    <nd ref="254964483"/>
    <tag k="highway" v="residential"/>
    <tag k="maxspeed" v="20 mph"/>
    <tag k="name" v="East Pilton Farm Crossway"/>
    <tag k="surface" v="asphalt"/>
  </way>
  <way id="23545898" version="4" timestamp="2016-07-26T10:19:30Z" changeset="41033980" uid="2234934" user="sophiemccallum">
    <nd ref="31503718"/>
    <nd ref="254964491"/>
    <nd ref="254964493"/>
    <nd ref="4320935284"/>
    <nd ref="4320935286"/>
    <nd ref="4320935285"/>
    <nd ref="4320935283"/>
    <nd ref="254964496"/>
    <tag k="highway" v="residential"/>
    <tag k="maxspeed" v="20 mph"/>
    <tag k="name" v="East Pilton Farm Wynd"/>
  </way>
  <way id="23545899" version="4" timestamp="2016-07-26T10:19:30Z" changeset="41033980" uid="2234934" user="sophiemccallum">
    <nd ref="254964491"/>
    <nd ref="254964499"/>
    <nd ref="4320935279"/>
    <nd ref="4320935278"/>
    <nd ref="254964502"/>
    <nd ref="4320935273"/>
    <nd ref="4320935270"/>
    <nd ref="4320935266"/>
    <nd ref="254964503"/>
    <nd ref="4320935263"/>
    <nd ref="254964506"/>
    <tag k="highway" v="residential"/>
    <tag k="maxspeed" v="20 mph"/>
    <tag k="name" v="East Pilton Farm Wynd"/>
  </way>
  <way id="23545908" version="3" timestamp="2014-12-31T17:40:43Z" changeset="27827178" uid="42123" user="Ropino">
    <nd ref="31493650"/>
    <nd ref="31493646"/>
    <nd ref="31493648"/>
    <tag k="highway" v="residential"/>
    <tag k="maxspeed" v="20 mph"/>
    <tag k="name" v="West Winnelstrae"/>
  </way>
  <way id="24263079" version="2" timestamp="2010-02-13T19:01:41Z" changeset="3867547" uid="161886" user="David Fiddes">
    <nd ref="30089873"/>
    <nd ref="30089874"/>
    <tag k="bridge" v="yes"/>
    <tag k="highway" v="residential"/>
    <tag k="layer" v="1"/>
    <tag k="maxspeed" v="20 mph"/>
    <tag k="name" v="Boswall Drive"/>
  </way>
  <way id="24263083" version="7" timestamp="2017-03-13T15:45:29Z" changeset="46816409" uid="2234934" user="sophiemccallum">
    <nd ref="262691112"/>
    <nd ref="4732377101"/>
    <nd ref="4732377102"/>
    <nd ref="4732377100"/>
    <nd ref="3446948044"/>
    <nd ref="3556588709"/>
    <nd ref="3446948046"/>
    <nd ref="4732377099"/>
    <nd ref="4732377098"/>
    <nd ref="4319260773"/>
    <nd ref="31518586"/>
    <nd ref="3446948039"/>
    <nd ref="3446948037"/>
    <nd ref="31518583"/>
    <nd ref="3446948035"/>
    <nd ref="3446948034"/>
    <nd ref="3446948033"/>
    <nd ref="3446948036"/>
    <nd ref="31518579"/>
    <nd ref="31518575"/>
    <tag k="highway" v="residential"/>
    <tag k="maxspeed" v="20 mph"/>
    <tag k="name" v="West Ferryfield"/>
  </way>
  <way id="24263084" version="3" timestamp="2014-12-31T17:40:36Z" changeset="27827178" uid="42123" user="Ropino">
    <nd ref="262691113"/>
    <nd ref="262691119"/>
    <nd ref="262691114"/>
    <tag k="highway" v="residential"/>
    <tag k="maxspeed" v="20 mph"/>
    <tag k="name" v="West Ferryfield"/>
  </way>
  <way id="24263086" version="3" timestamp="2014-12-31T17:40:37Z" changeset="27827178" uid="42123" user="Ropino">
    <nd ref="262691115"/>
    <nd ref="31518592"/>
    <nd ref="262691117"/>
    <nd ref="262691118"/>
    <tag k="highway" v="residential"/>
    <tag k="maxspeed" v="20 mph"/>
    <tag k="name" v="West Ferryfield"/>
  </way>
  <way id="24263087" version="5" timestamp="2016-07-25T09:41:47Z" changeset="41007144" uid="2234934" user="sophiemccallum">
    <nd ref="31518586"/>
    <nd ref="3446948031"/>
    <nd ref="3446948026"/>
    <nd ref="3446948023"/>
    <nd ref="3446948021"/>
    <nd ref="3446948020"/>
    <nd ref="262691119"/>
    <nd ref="4319260552"/>
    <nd ref="4319260547"/>
    <tag k="highway" v="residential"/>
    <tag k="maxspeed" v="20 mph"/>
    <tag k="name" v="West Ferryfield"/>
  </way>
  <way id="24263088" version="5" timestamp="2015-05-29T16:13:42Z" changeset="31566829" uid="1939732" user="eisa">
    <nd ref="31518579"/>
    <nd ref="262691120"/>
    <nd ref="3556588673"/>
    <nd ref="3446948028"/>
    <nd ref="3446948025"/>
    <nd ref="262691121"/>
    <nd ref="262691122"/>
    <tag k="highway" v="residential"/>
    <tag k="maxspeed" v="20 mph"/>
    <tag k="name" v="West Ferryfield"/>
  </way>
  <way id="24263832" version="5" timestamp="2016-03-16T16:17:40Z" changeset="37875967" uid="553175" user="michaelbrown">
    <nd ref="1801167786"/>
    <nd ref="4063671854"/>
    <nd ref="4063671858"/>
    <nd ref="1801167791"/>
    <nd ref="4063671863"/>
    <nd ref="4063671862"/>
    <nd ref="1801167789"/>
    <nd ref="4063671860"/>
    <nd ref="1801167787"/>
    <nd ref="1801167784"/>
    <nd ref="4063671840"/>
    <nd ref="4063671825"/>
    <nd ref="4063671819"/>
    <nd ref="4063671811"/>
    <nd ref="1801167783"/>
    <nd ref="1801167781"/>
    <nd ref="4063671809"/>
    <nd ref="1801167782"/>
    <nd ref="1801167785"/>
    <nd ref="4063671829"/>
    <nd ref="1801167786"/>
    <nd ref="31303491"/>
    <tag k="highway" v="residential"/>
    <tag k="maxspeed" v="20 mph"/>
    <tag k="name" v="Boswall Square"/>
  </way>
  <way id="24263835" version="5" timestamp="2014-12-31T16:59:59Z" changeset="27827178" uid="42123" user="Ropino">
    <nd ref="30082283"/>
    <nd ref="262697140"/>
    <tag k="highway" v="residential"/>
    <tag k="lanes" v="2"/>
    <tag k="maxspeed" v="20 mph"/>
    <tag k="name" v="Crewe Bank"/>
  </way>
  <way id="24263838" version="6" timestamp="2016-09-02T10:35:49Z" changeset="41866500" uid="3670347" user="rob_michel">
    <nd ref="31493537"/>
    <nd ref="4380487869"/>
    <nd ref="262697144"/>
    <nd ref="4380551122"/>
    <nd ref="262697142"/>
    <tag k="highway" v="residential"/>
    <tag k="maxspeed" v="20 mph"/>
    <tag k="name" v="Wardieburn Road"/>
  </way>
  <way id="24263839" version="5" timestamp="2016-09-02T10:35:49Z" changeset="41866500" uid="3670347" user="rob_michel">
    <nd ref="4380551096"/>
    <nd ref="4380551105"/>
    <nd ref="262697144"/>
    <tag k="highway" v="residential"/>
    <tag k="maxspeed" v="20 mph"/>
    <tag k="name" v="Wardieburn Road"/>
  </way>
  <way id="24263840" version="3" timestamp="2014-12-31T17:36:48Z" changeset="27827178" uid="42123" user="Ropino">
    <nd ref="31493493"/>
    <nd ref="262697145"/>
    <nd ref="262697148"/>
    <nd ref="31493494"/>
    <tag k="highway" v="residential"/>
    <tag k="maxspeed" v="20 mph"/>
    <tag k="name" v="Pilton Drive North"/>
  </way>
  <way id="24263842" version="5" timestamp="2016-09-02T10:02:28Z" changeset="41865936" uid="3670347" user="rob_michel">
    <nd ref="31493495"/>
    <nd ref="4380475867"/>
    <nd ref="262697151"/>
    <nd ref="4380475862"/>
    <nd ref="4380475864"/>
    <nd ref="4380475865"/>
    <nd ref="4380475868"/>
    <nd ref="4380475869"/>
    <nd ref="4380475871"/>
    <nd ref="4321455117"/>
    <nd ref="4321455123"/>
    <nd ref="4380475880"/>
    <tag k="highway" v="residential"/>
    <tag k="maxspeed" v="20 mph"/>
    <tag k="name" v="Pilton Drive North"/>
    <tag k="source" v="Bing"/>
  </way>
  <way id="24263844" version="4" timestamp="2016-09-02T10:02:28Z" changeset="41865936" uid="3670347" user="rob_michel">
    <nd ref="262697160"/>
    <nd ref="4380475858"/>
    <nd ref="262697151"/>
    <tag k="highway" v="residential"/>
    <tag k="maxspeed" v="20 mph"/>
    <tag k="name" v="Pilton Drive North"/>
  </way>
  <way id="24263845" version="3" timestamp="2014-12-31T17:37:31Z" changeset="27827178" uid="42123" user="Ropino">
    <nd ref="33187293"/>
    <nd ref="262697164"/>
    <nd ref="262697167"/>
    <nd ref="262697162"/>
    <tag k="highway" v="residential"/>
    <tag k="maxspeed" v="20 mph"/>
    <tag k="name" v="Royston Mains Gardens"/>
  </way>
  <way id="24263846" version="4" timestamp="2025-03-30T20:18:15Z" changeset="164303884" uid="22692021" user="Hattifnattar">
    <nd ref="33183057"/>
    <nd ref="262697169"/>
    <nd ref="262697172"/>
    <nd ref="262697180"/>
    <tag k="highway" v="residential"/>
    <tag k="maxspeed" v="20 mph"/>
    <tag k="name" v="Royston Mains Crescent"/>
    <tag k="surface" v="asphalt"/>
  </way>
  <way id="24263847" version="4" timestamp="2020-11-16T23:22:13Z" changeset="94232188" uid="3432400" user="GinaroZ">
    <nd ref="30082293"/>
    <nd ref="262697183"/>
    <nd ref="262697186"/>
    <nd ref="262697189"/>
    <nd ref="262697191"/>
    <nd ref="30082294"/>
    <tag k="highway" v="residential"/>
    <tag k="maxspeed" v="20 mph"/>
    <tag k="name" v="Crewe Road North"/>
    <tag k="surface" v="asphalt"/>
  </way>
  <way id="24351692" version="15" timestamp="2020-11-16T23:22:13Z" changeset="94232188" uid="3432400" user="GinaroZ">
    <nd ref="30082289"/>
    <nd ref="33183058"/>
    <nd ref="3733389945"/>
    <nd ref="1703167822"/>
    <nd ref="30082293"/>
    <nd ref="30082288"/>
    <tag k="highway" v="tertiary"/>
    <tag k="lanes" v="2"/>
    <tag k="maxspeed" v="30 mph"/>
    <tag k="name" v="Crewe Road North"/>
    <tag k="surface" v="asphalt"/>
  </way>
  <way id="24351696" version="5" timestamp="2022-11-18T15:03:14Z" changeset="129090782" uid="388774" user="drnoble">
    <nd ref="264164003"/>
    <nd ref="5101078875"/>
    <nd ref="10199790797"/>
    <nd ref="5101078874"/>
    <nd ref="264164004"/>
    <nd ref="264164005"/>
    <tag k="highway" v="residential"/>
    <tag k="maxspeed" v="20 mph"/>
    <tag k="name" v="Madelvic Square"/>
    <tag k="source:name" v="OS_OpenData_Locator"/>
  </way>
  <way id="24351697" version="3" timestamp="2017-03-18T23:09:41Z" changeset="46968481" uid="33764" user="Rostranimin">
    <nd ref="264164004"/>
    <nd ref="264164006"/>
    <tag k="highway" v="residential"/>
    <tag k="maxspeed" v="20 mph"/>
    <tag k="name" v="Madelvic Square"/>
    <tag k="source:name" v="OS_OpenData_Locator"/>
  </way>
  <way id="24433143" version="5" timestamp="2023-01-31T09:07:25Z" changeset="131911813" uid="54831" user="Mex">
    <nd ref="265557973"/>
    <nd ref="8637388958"/>
    <nd ref="7294383360"/>
    <nd ref="8637389029"/>
    <nd ref="265557977"/>
    <tag k="highway" v="residential"/>
    <tag k="lanes" v="2"/>
    <tag k="lit" v="yes"/>
    <tag k="maxspeed" v="20 mph"/>
    <tag k="name" v="Heron View"/>
    <tag k="sidewalk" v="separate"/>
    <tag k="surface" v="asphalt"/>
  </way>
  <way id="43999384" version="3" timestamp="2020-09-22T18:15:08Z" changeset="91313986" uid="3432400" user="GinaroZ">
    <nd ref="559466007"/>
    <nd ref="559465982"/>
    <nd ref="559465983"/>
    <nd ref="559466008"/>
    <nd ref="559466007"/>
    <tag k="addr:city" v="Edinburgh"/>
    <tag k="addr:housenumber" v="9-10"/>
    <tag k="addr:street" v="New Broompark"/>
    <tag k="building" v="industrial"/>
    <tag k="name" v="Mainstream Print Centre"/>
    <tag k="source" v="yahoo tracing"/>
  </way>
  <way id="43999385" version="3" timestamp="2020-09-22T18:15:08Z" changeset="91313986" uid="3432400" user="GinaroZ">
    <nd ref="559466002"/>
    <nd ref="559465977"/>
    <nd ref="559465979"/>
    <nd ref="559466003"/>
    <nd ref="559466002"/>
    <tag k="addr:city" v="Edinburgh"/>
    <tag k="addr:housenumber" v="20-22"/>
    <tag k="addr:street" v="New Broompark"/>
    <tag k="building" v="industrial"/>
    <tag k="name" v="Deltec International"/>
    <tag k="source" v="yahoo tracing"/>
  </way>
  <way id="43999394" version="3" timestamp="2020-09-22T18:15:08Z" changeset="91313986" uid="3432400" user="GinaroZ">
    <nd ref="559466017"/>
    <nd ref="559466018"/>
    <nd ref="559465999"/>
    <nd ref="559466001"/>
    <nd ref="559466017"/>
    <tag k="addr:city" v="Edinburgh"/>
    <tag k="addr:housenumber" v="18-19"/>
    <tag k="addr:street" v="New Broompark"/>
    <tag k="building" v="industrial"/>
    <tag k="name" v="Appetite Direct"/>
    <tag k="source" v="yahoo tracing"/>
  </way>
  <way id="43999396" version="4" timestamp="2023-09-21T09:01:27Z" changeset="141548295" uid="3500921" user="camlewwri">
    <nd ref="3638060539"/>
    <nd ref="11207227928"/>
    <nd ref="559466039"/>
    <nd ref="559466041"/>
    <nd ref="3638060541"/>
    <nd ref="3638060539"/>
    <tag k="building" v="yes"/>
    <tag k="name" v="Len Lothian Storage"/>
    <tag k="shop" v="storage_rental"/>
  </way>
  <way id="43999398" version="3" timestamp="2023-08-23T13:53:45Z" changeset="140276276" uid="13459" user="scvalex">
    <nd ref="559466042"/>
    <nd ref="559466043"/>
    <nd ref="559466027"/>
    <nd ref="559466030"/>
    <nd ref="559466042"/>
    <tag k="building" v="warehouse"/>
    <tag k="name" v="Pickfords Storage"/>
    <tag k="source" v="yahoo tracing"/>
  </way>
  <way id="43999399" version="7" timestamp="2022-05-21T23:14:03Z" changeset="121300523" uid="13165294" user="ThatEffingCat">
    <nd ref="559466055"/>
    <nd ref="559466056"/>
    <nd ref="559466057"/>
    <nd ref="8636579557"/>
    <nd ref="8636579555"/>
    <nd ref="8636579530"/>
    <nd ref="8636579552"/>
    <nd ref="8636579553"/>
    <nd ref="8636579554"/>
    <nd ref="8636579556"/>
    <nd ref="7294383345"/>
    <nd ref="8636579551"/>
    <nd ref="8636579549"/>
    <nd ref="8636579529"/>
    <nd ref="8636579548"/>
    <nd ref="8636579550"/>
    <nd ref="559466049"/>
    <nd ref="8636579566"/>
    <nd ref="8636579567"/>
    <nd ref="559466050"/>
    <nd ref="8636579547"/>
    <nd ref="8636579545"/>
    <nd ref="8636579528"/>
    <nd ref="8636579544"/>
    <nd ref="8636579546"/>
    <nd ref="8636579535"/>
    <nd ref="8636579534"/>
    <nd ref="8636579527"/>
    <nd ref="8636579533"/>
    <nd ref="8636579536"/>
    <nd ref="559466059"/>
    <nd ref="8636579538"/>
    <nd ref="8636579537"/>
    <nd ref="8636579539"/>
    <nd ref="3065627951"/>
    <nd ref="8636579542"/>
    <nd ref="8636579541"/>
    <nd ref="8636579540"/>
    <nd ref="8636579543"/>
    <nd ref="3065627950"/>
    <nd ref="559466052"/>
    <nd ref="559466053"/>
    <nd ref="8636579565"/>
    <nd ref="559466054"/>
    <nd ref="8636579564"/>
    <nd ref="8636579563"/>
    <nd ref="8636579531"/>
    <nd ref="8636579562"/>
    <nd ref="8636579561"/>
    <nd ref="7294383346"/>
    <nd ref="8636579560"/>
    <nd ref="8636579559"/>
    <nd ref="8636579558"/>
    <nd ref="8636579532"/>
    <nd ref="6419467108"/>
    <nd ref="559466058"/>
    <nd ref="559466055"/>
    <tag k="building" v="apartments"/>
    <tag k="building:levels" v="9"/>
    <tag k="name" v="Corinthian Quay"/>
    <tag k="source" v="yahoo tracing"/>
  </way>
  <way id="48204334" version="4" timestamp="2023-08-23T13:55:38Z" changeset="140277776" uid="13459" user="scvalex">
    <nd ref="612601868"/>
    <nd ref="612601869"/>
    <nd ref="612601870"/>
    <nd ref="612601871"/>
    <nd ref="612601868"/>
    <tag k="addr:housenumber" v="62"/>
    <tag k="addr:street" v="West Harbour Road"/>
    <tag k="building" v="university"/>
    <tag k="source" v="yahoo tracing"/>
  </way>
  <way id="48983131" version="5" timestamp="2024-09-09T15:54:13Z" changeset="156401613" uid="21425661" user="CjMalone">
    <nd ref="8089626007"/>
    <nd ref="1067533510"/>
    <nd ref="1067533556"/>
    <nd ref="621519984"/>
    <nd ref="1067533636"/>
    <nd ref="621519982"/>
    <nd ref="2440877094"/>
    <nd ref="621519989"/>
    <nd ref="621519990"/>
    <nd ref="621519988"/>
    <nd ref="621519987"/>
    <nd ref="1067533551"/>
    <nd ref="8089626007"/>
    <tag k="brand" v="B&amp;M Bargains"/>
    <tag k="brand:wikidata" v="Q4836931"/>
    <tag k="brand:wikipedia" v="en:B &amp; M"/>
    <tag k="building" v="yes"/>
    <tag k="check_date" v="2024-09-09"/>
    <tag k="check_date:opening_hours" v="2024-09-09"/>
    <tag k="contact:website" v="https://www.bmstores.co.uk/stores/granton-446"/>
    <tag k="name" v="B&amp;M Bargains"/>
    <tag k="opening_hours" v="Mo-Sa 08:00-21:00; Su 09:00-18:00"/>
    <tag k="phone" v="+44 330 838 9446"/>
    <tag k="shop" v="variety_store"/>
    <tag k="source" v="Bing"/>
  </way>
  <way id="49137416" version="6" timestamp="2018-02-14T14:07:02Z" changeset="56354066" uid="4007299" user="FrenchyF">
    <nd ref="623191004"/>
    <nd ref="4506257878"/>
    <nd ref="623191018"/>
    <nd ref="623191025"/>
    <nd ref="623191021"/>
    <nd ref="4506257877"/>
    <nd ref="623191015"/>
    <nd ref="623191012"/>
    <nd ref="623190983"/>
    <nd ref="623190991"/>
    <nd ref="4506257864"/>
    <nd ref="4506257862"/>
    <nd ref="1419974583"/>
    <nd ref="4506257861"/>
    <nd ref="4506257863"/>
    <nd ref="623190989"/>
    <nd ref="623190955"/>
    <nd ref="623190931"/>
    <nd ref="623190937"/>
    <nd ref="623190942"/>
    <nd ref="623190939"/>
    <nd ref="623190951"/>
    <nd ref="623190945"/>
    <nd ref="4506257867"/>
    <nd ref="623190948"/>
    <nd ref="4506257866"/>
    <nd ref="4506257871"/>
    <nd ref="4506257865"/>
    <nd ref="4506257870"/>
    <nd ref="4506257869"/>
    <nd ref="4506257868"/>
    <nd ref="4506257872"/>
    <nd ref="4506257873"/>
    <nd ref="4506257874"/>
    <nd ref="4506257875"/>
    <nd ref="4506257876"/>
    <nd ref="623191007"/>
    <nd ref="623191010"/>
    <nd ref="623190998"/>
    <nd ref="623191001"/>
    <nd ref="623191004"/>
    <tag k="building" v="yes"/>
    <tag k="leisure" v="sports_centre"/>
    <tag k="name" v="Ainslie Park Leisure Centre"/>
    <tag k="source" v="yahoo tracing"/>
    <tag k="sport" v="swimming"/>
  </way>
  <way id="49138249" version="9" timestamp="2024-08-30T22:53:46Z" changeset="155994575" uid="11775696" user="TheEthan8or">
    <nd ref="623223101"/>
    <nd ref="623223106"/>
    <nd ref="623223143"/>
    <nd ref="623223113"/>
    <nd ref="623223114"/>
    <nd ref="623223117"/>
    <nd ref="623223068"/>
    <nd ref="623223069"/>
    <nd ref="1430380776"/>
    <nd ref="623223061"/>
    <nd ref="623223101"/>
    <tag k="amenity" v="fuel"/>
    <tag k="brand" v="Morrisons"/>
    <tag k="brand:wikidata" v="Q922344"/>
    <tag k="building" v="roof"/>
    <tag k="check_date" v="2024-08-30"/>
    <tag k="name" v="Morrisons"/>
    <tag k="opening_hours" v="Mo-Sa 06:30-22:30; Su 07:30-22:00"/>
    <tag k="operator" v="Morrisons"/>
    <tag k="payment:cash" v="yes"/>
    <tag k="payment:contactless" v="yes"/>
    <tag k="payment:credit_cards" v="yes"/>
    <tag k="payment:debit_cards" v="yes"/>
    <tag k="source" v="Bing"/>
    <tag k="website" v="https://my.morrisons.com/storefinder/173/edinburgh-ferry-road"/>
  </way>
  <way id="56299754" version="12" timestamp="2022-06-08T06:36:40Z" changeset="122100950" uid="15273350" user="deekpurb">
    <nd ref="615647"/>
    <nd ref="2954434819"/>
    <nd ref="2954434812"/>
    <nd ref="2954434808"/>
    <nd ref="264163990"/>
    <nd ref="615646"/>
    <nd ref="264163993"/>
    <nd ref="2954434814"/>
    <nd ref="9803144549"/>
    <nd ref="615645"/>
    <nd ref="2954434809"/>
    <nd ref="2954434811"/>
    <nd ref="1102709741"/>
    <nd ref="615644"/>
    <nd ref="2954434817"/>
    <nd ref="2954434815"/>
    <nd ref="4335746249"/>
    <nd ref="2954434813"/>
    <nd ref="615643"/>
    <nd ref="2954434818"/>
    <nd ref="264163987"/>
    <nd ref="2954434810"/>
    <nd ref="1657565239"/>
    <nd ref="615642"/>
    <nd ref="36140984"/>
    <nd ref="36140997"/>
    <nd ref="615640"/>
    <nd ref="4926229040"/>
    <nd ref="2440879229"/>
    <nd ref="804415797"/>
    <tag k="highway" v="tertiary"/>
    <tag k="lanes" v="2"/>
    <tag k="maxspeed" v="30 mph"/>
    <tag k="name" v="West Granton Road"/>
    <tag k="surface" v="asphalt"/>
  </way>
  <way id="56300484" version="13" timestamp="2021-08-21T15:25:10Z" changeset="110032583" uid="4007299" user="FrenchyF">
    <nd ref="31508319"/>
    <nd ref="31493531"/>
    <nd ref="30082278"/>
    <nd ref="804415900"/>
    <nd ref="30082276"/>
    <nd ref="804415864"/>
    <nd ref="3729511089"/>
    <nd ref="4017116869"/>
    <nd ref="4256748513"/>
    <nd ref="3729511090"/>
    <nd ref="8089664776"/>
    <nd ref="4256748519"/>
    <nd ref="30082274"/>
    <nd ref="30082273"/>
    <nd ref="30082271"/>
    <nd ref="30082268"/>
    <nd ref="4347626383"/>
    <nd ref="4347626384"/>
    <nd ref="1419974604"/>
    <nd ref="30082267"/>
    <nd ref="4347626385"/>
    <nd ref="1102709655"/>
    <nd ref="4347626386"/>
    <nd ref="30082266"/>
    <nd ref="4347447677"/>
    <nd ref="4347447678"/>
    <nd ref="30730913"/>
    <tag k="highway" v="tertiary"/>
    <tag k="maxspeed" v="20 mph"/>
    <tag k="name" v="Boswall Parkway"/>
    <tag k="surface" v="asphalt"/>
  </way>
  <way id="61757000" version="4" timestamp="2023-12-17T12:13:26Z" changeset="145212685" uid="1418967" user="RAC_UK">
    <nd ref="769436685"/>
    <nd ref="32595782"/>
    <nd ref="769439619"/>
    <nd ref="769440103"/>
    <nd ref="769436685"/>
    <tag k="addr:city" v="Edinburgh"/>
    <tag k="addr:country" v="GB"/>
    <tag k="addr:housenumber" v="36"/>
    <tag k="addr:postcode" v="EH5 1BZ"/>
    <tag k="addr:street" v="Wardieburn Drive"/>
    <tag k="amenity" v="place_of_worship"/>
    <tag k="building" v="yes"/>
    <tag k="denomination" v="salvation_army"/>
    <tag k="email" v="edinburgh.granton@salvationarmy.org.uk"/>
    <tag k="name" v="Granton Salvation Army Hall"/>
    <tag k="phone" v="0131 551 6820"/>
    <tag k="religion" v="christian"/>
    <tag k="website" v="https://www.salvationarmy.org.uk/edinburgh-granton"/>
  </way>
  <way id="61757072" version="4" timestamp="2017-05-04T11:06:38Z" changeset="48391301" uid="3670347" user="rob_michel">
    <nd ref="769434718"/>
    <nd ref="769440228"/>
    <nd ref="769436609"/>
    <nd ref="769439745"/>
    <nd ref="769434718"/>
    <tag k="building" v="yes"/>
    <tag k="name" v="Pavilion"/>
    <tag k="source" v="Bing"/>
  </way>
  <way id="61757143" version="7" timestamp="2022-06-16T06:55:54Z" changeset="122446871" uid="9026132" user="PulisakZ">
    <nd ref="769437479"/>
    <nd ref="769439772"/>
    <nd ref="769440689"/>
    <nd ref="769441131"/>
    <nd ref="3556588618"/>
    <nd ref="3556588609"/>
    <nd ref="3556588606"/>
    <nd ref="3556588616"/>
    <nd ref="769436387"/>
    <nd ref="3556588602"/>
    <nd ref="3556588603"/>
    <nd ref="3556588562"/>
    <nd ref="3556588560"/>
    <nd ref="769435888"/>
    <nd ref="3556588544"/>
    <nd ref="3556588558"/>
    <nd ref="3556588564"/>
    <nd ref="3556588551"/>
    <nd ref="769435872"/>
    <nd ref="769434930"/>
    <nd ref="769437171"/>
    <nd ref="769435141"/>
    <nd ref="769434688"/>
    <nd ref="769440880"/>
    <nd ref="769439893"/>
    <nd ref="769442040"/>
    <nd ref="769437316"/>
    <nd ref="3556588552"/>
    <nd ref="3556588546"/>
    <nd ref="3556588591"/>
    <nd ref="3556588594"/>
    <nd ref="769441889"/>
    <nd ref="769437043"/>
    <nd ref="769440581"/>
    <nd ref="769442095"/>
    <nd ref="769435637"/>
    <nd ref="769437479"/>
    <tag k="amenity" v="social_facility"/>
    <tag k="building" v="yes"/>
    <tag k="name" v="Ferryfield House"/>
    <tag k="operator" v="NHS"/>
    <tag k="social_facility" v="nursing_home"/>
    <tag k="social_facility:for" v="senior"/>
    <tag k="source" v="Bing;survey"/>
    <tag k="wikidata" v="Q5445533"/>
    <tag k="wikipedia" v="en:Ferryfield House"/>
  </way>
  <way id="61757167" version="4" timestamp="2021-10-31T14:34:50Z" changeset="113195787" uid="3432400" user="GinaroZ">
    <nd ref="769441681"/>
    <nd ref="4321454983"/>
    <nd ref="4321454984"/>
    <nd ref="4321454980"/>
    <nd ref="4321454979"/>
    <nd ref="4321454955"/>
    <nd ref="4321454957"/>
    <nd ref="4321454953"/>
    <nd ref="4321454951"/>
    <nd ref="4321454942"/>
    <nd ref="4321454943"/>
    <nd ref="4321454937"/>
    <nd ref="4321454936"/>
    <nd ref="4321454922"/>
    <nd ref="4321454923"/>
    <nd ref="4321454917"/>
    <nd ref="4321454915"/>
    <nd ref="4321454902"/>
    <nd ref="4321454904"/>
    <nd ref="4321454898"/>
    <nd ref="4321454897"/>
    <nd ref="4321454891"/>
    <nd ref="4321454892"/>
    <nd ref="4321454888"/>
    <nd ref="4321454887"/>
    <nd ref="4321454878"/>
    <nd ref="4321454879"/>
    <nd ref="4321454874"/>
    <nd ref="4321454873"/>
    <nd ref="4321454869"/>
    <nd ref="4321454867"/>
    <nd ref="4321454865"/>
    <nd ref="4321454862"/>
    <nd ref="4321454859"/>
    <nd ref="4321454855"/>
    <nd ref="4321454854"/>
    <nd ref="4321454857"/>
    <nd ref="33208866"/>
    <nd ref="4321454864"/>
    <nd ref="4321454863"/>
    <nd ref="4321454866"/>
    <nd ref="4321454868"/>
    <nd ref="4321454877"/>
    <nd ref="4321454876"/>
    <nd ref="4321454880"/>
    <nd ref="4321454881"/>
    <nd ref="4321454890"/>
    <nd ref="4321454889"/>
    <nd ref="4321454893"/>
    <nd ref="4321454894"/>
    <nd ref="4321454900"/>
    <nd ref="4321454899"/>
    <nd ref="4321454906"/>
    <nd ref="4321454907"/>
    <nd ref="4321454919"/>
    <nd ref="4321454918"/>
    <nd ref="4321454925"/>
    <nd ref="4321454926"/>
    <nd ref="4321454941"/>
    <nd ref="4321454939"/>
    <nd ref="4321454944"/>
    <nd ref="4321454945"/>
    <nd ref="769441426"/>
    <nd ref="4321454985"/>
    <nd ref="4321455090"/>
    <nd ref="4321455091"/>
    <nd ref="4321455094"/>
    <nd ref="4321455093"/>
    <nd ref="4321455101"/>
    <nd ref="4321455105"/>
    <nd ref="4321455106"/>
    <nd ref="4321455103"/>
    <nd ref="4321455107"/>
    <nd ref="4321455110"/>
    <nd ref="4321455111"/>
    <nd ref="4321455109"/>
    <nd ref="4321455102"/>
    <nd ref="4321455104"/>
    <nd ref="4321455100"/>
    <nd ref="4321455097"/>
    <nd ref="4321455092"/>
    <nd ref="769441681"/>
    <tag k="amenity" v="place_of_worship"/>
    <tag k="building" v="yes"/>
    <tag k="denomination" v="seventh_day_adventist"/>
    <tag k="name" v="Seventh-day Adventist Church"/>
    <tag k="religion" v="christian"/>
    <tag k="wikidata" v="Q77772738"/>
  </way>
  <way id="61757446" version="7" timestamp="2022-05-21T23:14:55Z" changeset="121300523" uid="13165294" user="ThatEffingCat">
    <nd ref="769439534"/>
    <nd ref="769440469"/>
    <nd ref="769436931"/>
    <nd ref="769439278"/>
    <nd ref="3574951029"/>
    <nd ref="3574951027"/>
    <nd ref="769439534"/>
    <tag k="addr:housenumber" v="6"/>
    <tag k="addr:street" v="Granton Road"/>
    <tag k="building" v="retail"/>
    <tag k="building:levels" v="1"/>
    <tag k="source" v="NLS_OS_Edinburgh_map_1940s;Bing"/>
  </way>
  <way id="61757513" version="7" timestamp="2023-12-29T17:34:52Z" changeset="145671327" uid="14047157" user="osmuser63783">
    <nd ref="769437822"/>
    <nd ref="769439899"/>
    <nd ref="4325865256"/>
    <nd ref="4325865257"/>
    <nd ref="4325865254"/>
    <nd ref="4325865255"/>
    <nd ref="4325865258"/>
    <nd ref="4325865259"/>
    <nd ref="4325865260"/>
    <nd ref="4325865261"/>
    <nd ref="4325865263"/>
    <nd ref="4380613985"/>
    <nd ref="4380613988"/>
    <nd ref="4325865266"/>
    <nd ref="4325865273"/>
    <nd ref="769434627"/>
    <nd ref="4325865272"/>
    <nd ref="4325865275"/>
    <nd ref="769435134"/>
    <nd ref="769435714"/>
    <nd ref="4380561062"/>
    <nd ref="4325865268"/>
    <nd ref="4325865267"/>
    <nd ref="769436222"/>
    <nd ref="769435026"/>
    <nd ref="769437822"/>
    <tag k="amenity" v="place_of_worship"/>
    <tag k="building" v="yes"/>
    <tag k="denomination" v="church_of_scotland"/>
    <tag k="name" v="Granton Parish Church"/>
    <tag k="religion" v="christian"/>
    <tag k="wikidata" v="Q17811187"/>
  </way>
  <way id="61757534" version="5" timestamp="2022-11-18T15:03:14Z" changeset="129090782" uid="388774" user="drnoble">
    <nd ref="769441139"/>
    <nd ref="769440592"/>
    <nd ref="769436206"/>
    <nd ref="769436254"/>
    <nd ref="769439885"/>
    <nd ref="769434812"/>
    <nd ref="10199790843"/>
    <nd ref="769435502"/>
    <nd ref="769441272"/>
    <nd ref="769435080"/>
    <nd ref="769436270"/>
    <nd ref="769437051"/>
    <nd ref="769436457"/>
    <nd ref="769435378"/>
    <nd ref="4335746026"/>
    <nd ref="769442103"/>
    <nd ref="4335745882"/>
    <nd ref="4335745858"/>
    <nd ref="4335745816"/>
    <nd ref="4335745846"/>
    <nd ref="4335745835"/>
    <nd ref="4335745829"/>
    <nd ref="4335745820"/>
    <nd ref="4335745832"/>
    <nd ref="4335745828"/>
    <nd ref="4335745803"/>
    <nd ref="4335745795"/>
    <nd ref="4335745821"/>
    <nd ref="10199790788"/>
    <nd ref="769441139"/>
    <tag k="building" v="yes"/>
    <tag k="name" v="United Wire"/>
  </way>
  <way id="61757568" version="4" timestamp="2024-04-05T11:22:08Z" changeset="149610153" uid="161886" user="David Fiddes">
    <nd ref="769439337"/>
    <nd ref="769436213"/>
    <nd ref="769441222"/>
    <nd ref="769440274"/>
    <nd ref="769439337"/>
    <tag k="building" v="service"/>
    <tag k="name" v="Pilton Drive West Primary"/>
    <tag k="operator" v="SP Energy Networks"/>
    <tag k="operator:wikidata" v="Q116022116"/>
    <tag k="power" v="substation"/>
    <tag k="source" v="Bing;survey"/>
    <tag k="substation" v="scottish_power_energy_networks"/>
  </way>
  <way id="61794522" version="7" timestamp="2022-05-21T23:13:51Z" changeset="121300523" uid="13165294" user="ThatEffingCat">
    <nd ref="769908194"/>
    <nd ref="769908119"/>
    <nd ref="769908258"/>
    <nd ref="769908047"/>
    <nd ref="769908194"/>
    <tag k="addr:housename" v="Royal Forth Yacht Club"/>
    <tag k="addr:street" v="Lochinvar Drive"/>
    <tag k="building" v="retail"/>
    <tag k="building:levels" v="1"/>
    <tag k="name" v="Royal Forth Yacht Club"/>
    <tag k="roof:levels" v="1"/>
    <tag k="wikidata" v="Q108617381"/>
    <tag k="wikipedia" v="en:Royal Forth Yacht Club"/>
  </way>
  <way id="61794523" version="4" timestamp="2017-06-20T08:54:54Z" changeset="49687183" uid="2234934" user="sophiemccallum">
    <nd ref="769908120"/>
    <nd ref="4926229032"/>
    <nd ref="769908259"/>
    <nd ref="4327149787"/>
    <nd ref="4327149785"/>
    <nd ref="4327149789"/>
    <nd ref="4327149788"/>
    <nd ref="769908402"/>
    <nd ref="4327149795"/>
    <nd ref="4327149794"/>
    <nd ref="769908342"/>
    <nd ref="4327149786"/>
    <nd ref="4327149784"/>
    <nd ref="4327149783"/>
    <nd ref="4327149782"/>
    <nd ref="769908120"/>
    <tag k="amenity" v="community_centre"/>
    <tag k="building" v="yes"/>
    <tag k="name" v="Granton Youth Centre"/>
  </way>
  <way id="61794524" version="5" timestamp="2022-05-21T23:14:01Z" changeset="121300523" uid="13165294" user="ThatEffingCat">
    <nd ref="769908401"/>
    <nd ref="769908376"/>
    <nd ref="769908320"/>
    <nd ref="769908094"/>
    <nd ref="769908401"/>
    <tag k="addr:housenumber" v="21"/>
    <tag k="addr:street" v="Lochinvar Drive"/>
    <tag k="building" v="retail"/>
    <tag k="building:levels" v="2"/>
  </way>
  <way id="61794536" version="5" timestamp="2022-07-22T16:29:36Z" changeset="123947039" uid="242345" user="confusedbuffalo">
    <nd ref="769908243"/>
    <nd ref="4380475840"/>
    <nd ref="4380475839"/>
    <nd ref="769908306"/>
    <nd ref="769908167"/>
    <nd ref="769908221"/>
    <nd ref="769908243"/>
    <tag k="amenity" v="community_centre"/>
    <tag k="building" v="hut"/>
    <tag k="club" v="scout"/>
    <tag k="community_centre" v="club_home"/>
    <tag k="community_centre:for" v="scout"/>
    <tag k="name" v="87th Scout Hall"/>
    <tag k="source" v="Bing"/>
  </way>
  <way id="61794545" version="7" timestamp="2017-01-12T09:35:09Z" changeset="45099134" uid="2234934" user="sophiemccallum">
    <nd ref="769908133"/>
    <nd ref="4603426151"/>
    <nd ref="1418013578"/>
    <nd ref="4603426152"/>
    <nd ref="528233288"/>
    <nd ref="4603426153"/>
    <nd ref="1418013589"/>
    <nd ref="4603426154"/>
    <nd ref="769908415"/>
    <nd ref="4603426155"/>
    <nd ref="1418013576"/>
    <nd ref="4603426140"/>
    <nd ref="769908332"/>
    <nd ref="4603426141"/>
    <nd ref="1418013577"/>
    <nd ref="4603426142"/>
    <nd ref="769908179"/>
    <nd ref="4603426143"/>
    <nd ref="1418013574"/>
    <nd ref="4603426144"/>
    <nd ref="769908400"/>
    <nd ref="4603426145"/>
    <nd ref="1418013581"/>
    <nd ref="4603426146"/>
    <nd ref="769908092"/>
    <nd ref="4603426147"/>
    <nd ref="1418013586"/>
    <nd ref="4603426148"/>
    <nd ref="769908403"/>
    <nd ref="4603426149"/>
    <nd ref="1418013580"/>
    <nd ref="4603426150"/>
    <nd ref="769908133"/>
    <tag k="amenity" v="harbourmaster"/>
    <tag k="building" v="yes"/>
    <tag k="name" v="Forth Pilots Pilot Station"/>
    <tag k="seamark:building:function" v="harbour_master"/>
    <tag k="seamark:type" v="building"/>
    <tag k="website" v="https://forthports.co.uk/marine/contacts/"/>
  </way>
  <way id="61795950" version="2" timestamp="2015-07-06T23:27:24Z" changeset="32461135" uid="2042390" user="sairfeet">
    <nd ref="769920218"/>
    <nd ref="769919290"/>
    <nd ref="769919387"/>
    <nd ref="769919816"/>
    <nd ref="769920218"/>
    <tag k="amenity" v="tool_hire"/>
    <tag k="building" v="yes"/>
    <tag k="name" v="A-Plant"/>
    <tag k="phone" v="+44 131 551 5213"/>
  </way>
  <way id="61795956" version="4" timestamp="2023-08-23T13:46:44Z" changeset="140276276" uid="13459" user="scvalex">
    <nd ref="769919499"/>
    <nd ref="769920013"/>
    <nd ref="769920031"/>
    <nd ref="769919604"/>
    <nd ref="769919499"/>
    <tag k="addr:city" v="Edinburgh"/>
    <tag k="addr:housename" v="Keystone Preservation"/>
    <tag k="addr:housenumber" v="52b"/>
    <tag k="addr:postcode" v="EH5 1PP"/>
    <tag k="addr:street" v="West Harbour Road"/>
    <tag k="building" v="warehouse"/>
    <tag k="name" v="Keystone Preservation"/>
  </way>
  <way id="61795961" version="3" timestamp="2022-11-12T13:43:33Z" changeset="128813298" uid="13459" user="scvalex">
    <nd ref="769919741"/>
    <nd ref="769920161"/>
    <nd ref="769920136"/>
    <nd ref="769919192"/>
    <nd ref="769919741"/>
    <tag k="amenity" v="van_rental"/>
    <tag k="building" v="yes"/>
    <tag k="check_date" v="2022-11-12"/>
    <tag k="name" v="Turner Hire Drive"/>
    <tag k="website" v="http://www.turner-hiredrive.co.uk/"/>
  </way>
  <way id="61795998" version="2" timestamp="2020-04-19T09:12:01Z" changeset="83765377" uid="388774" user="drnoble">
    <nd ref="769919646"/>
    <nd ref="769920069"/>
    <nd ref="769920183"/>
    <nd ref="769919763"/>
    <nd ref="769918932"/>
    <nd ref="769919850"/>
    <nd ref="769919126"/>
    <nd ref="769919657"/>
    <nd ref="7418727116"/>
    <nd ref="769918964"/>
    <nd ref="769920197"/>
    <nd ref="769919646"/>
    <tag k="building" v="commercial"/>
    <tag k="name" v="Rabbie's Trail Burners"/>
    <tag k="office" v="company"/>
  </way>
  <way id="61796002" version="4" timestamp="2022-11-18T15:03:14Z" changeset="129090782" uid="388774" user="drnoble">
    <nd ref="769919489"/>
    <nd ref="6589418549"/>
    <nd ref="769919594"/>
    <nd ref="769920026"/>
    <nd ref="10199790844"/>
    <nd ref="10199790846"/>
    <nd ref="10199790847"/>
    <nd ref="769919734"/>
    <nd ref="769919489"/>
    <tag k="building" v="yes"/>
    <tag k="building:levels" v="2"/>
    <tag k="name" v="Madelvic House"/>
    <tag k="wikipedia" v="en:Madelvic Motor Carriage Company"/>
  </way>
  <way id="61796034" version="4" timestamp="2023-08-23T13:48:38Z" changeset="140276276" uid="13459" user="scvalex">
    <nd ref="769919947"/>
    <nd ref="769920051"/>
    <nd ref="769919116"/>
    <nd ref="769919213"/>
    <nd ref="769919947"/>
    <tag k="building" v="industrial"/>
    <tag k="name" v="The Red Bus"/>
    <tag k="website" v="https://www.theredbus.co.uk/"/>
  </way>
  <way id="61796041" version="2" timestamp="2015-07-06T23:27:25Z" changeset="32461135" uid="2042390" user="sairfeet">
    <nd ref="769919166"/>
    <nd ref="769920114"/>
    <nd ref="769919695"/>
    <nd ref="769919576"/>
    <nd ref="769919166"/>
    <tag k="amenity" v="tool_hire"/>
    <tag k="building" v="yes"/>
    <tag k="name" v="Deborah Services Limited"/>
    <tag k="phone" v="+44 131 552 7534"/>
    <tag k="source" v="survey"/>
  </way>
  <way id="61796087" version="4" timestamp="2018-10-28T15:53:56Z" changeset="63953654" uid="52797" user="hofoen">
    <nd ref="769919925"/>
    <nd ref="769919493"/>
    <nd ref="4315980799"/>
    <nd ref="4315980798"/>
    <nd ref="769919088"/>
    <nd ref="4315980793"/>
    <nd ref="4315980787"/>
    <nd ref="4315980786"/>
    <nd ref="4315980788"/>
    <nd ref="33190446"/>
    <nd ref="769919925"/>
    <tag k="amenity" v="place_of_worship"/>
    <tag k="building" v="yes"/>
    <tag k="denomination" v="catholic"/>
    <tag k="heritage" v="yes"/>
    <tag k="name" v="St Margaret and Mary"/>
    <tag k="religion" v="christian"/>
    <tag k="source" v="NLS_OS_Edinburgh_map_1940s;Bing"/>
    <tag k="wikidata" v="Q17811197"/>
  </way>
  <way id="61796586" version="2" timestamp="2016-07-20T15:54:20Z" changeset="40899464" uid="553175" user="michaelbrown">
    <nd ref="4313134154"/>
    <nd ref="4313134147"/>
    <nd ref="4313134146"/>
    <nd ref="33184602"/>
    <nd ref="4313134141"/>
    <nd ref="4313134138"/>
    <nd ref="4313134137"/>
    <nd ref="769940277"/>
    <nd ref="4313134140"/>
    <nd ref="4313134136"/>
    <nd ref="4313134134"/>
    <nd ref="4313134139"/>
    <nd ref="769940564"/>
    <nd ref="4313134142"/>
    <nd ref="4313134143"/>
    <nd ref="769940118"/>
    <nd ref="4313134145"/>
    <nd ref="4313134151"/>
    <nd ref="4313134153"/>
    <nd ref="4313134154"/>
    <tag k="amenity" v="place_of_worship"/>
    <tag k="building" v="yes"/>
    <tag k="denomination" v="scottish_episcopal"/>
    <tag k="name" v="St Davids"/>
    <tag k="religion" v="christian"/>
  </way>
  <way id="61797373" version="6" timestamp="2023-02-28T17:58:21Z" changeset="133140059" uid="2969887" user="eastender">
    <nd ref="769966364"/>
    <nd ref="769966431"/>
    <nd ref="769966659"/>
    <nd ref="769966296"/>
    <nd ref="769965987"/>
    <nd ref="769966202"/>
    <nd ref="769966927"/>
    <nd ref="7418955178"/>
    <nd ref="7418955177"/>
    <nd ref="769966364"/>
    <tag k="addr:city" v="Edinburgh"/>
    <tag k="addr:housenumber" v="2"/>
    <tag k="addr:postcode" v="EH5 2XS"/>
    <tag k="addr:street" v="Crewe Road North"/>
    <tag k="building" v="yes"/>
    <tag k="building:levels" v="3"/>
    <tag k="name" v="Leonardo Phase 2"/>
    <tag k="office" v="company"/>
  </way>
  <way id="61797438" version="4" timestamp="2025-01-28T21:57:13Z" changeset="161875169" uid="8428716" user="lstudy">
    <nd ref="769966643"/>
    <nd ref="769966287"/>
    <nd ref="769966044"/>
    <nd ref="769965977"/>
    <nd ref="12527831795"/>
    <nd ref="12527831796"/>
    <nd ref="12485234047"/>
    <nd ref="769966643"/>
    <tag k="building" v="yes"/>
    <tag k="name" v="CATR Building"/>
  </way>
  <way id="61797452" version="6" timestamp="2025-01-23T22:30:12Z" changeset="161691860" uid="8428716" user="lstudy">
    <nd ref="769966923"/>
    <nd ref="12485233979"/>
    <nd ref="769966360"/>
    <nd ref="769966194"/>
    <nd ref="769966692"/>
    <nd ref="769966562"/>
    <nd ref="769966855"/>
    <nd ref="769966291"/>
    <nd ref="769965983"/>
    <nd ref="3556588499"/>
    <nd ref="3556588506"/>
    <nd ref="3556588508"/>
    <nd ref="3556588505"/>
    <nd ref="3556588504"/>
    <nd ref="3556588501"/>
    <nd ref="3556588502"/>
    <nd ref="3556588533"/>
    <nd ref="3556588541"/>
    <nd ref="3556588556"/>
    <nd ref="3556588570"/>
    <nd ref="3556588554"/>
    <nd ref="769966249"/>
    <nd ref="12527831790"/>
    <nd ref="12527831787"/>
    <nd ref="12527831782"/>
    <nd ref="12527831781"/>
    <nd ref="12527831778"/>
    <nd ref="12527831776"/>
    <nd ref="3556581890"/>
    <nd ref="3556581891"/>
    <nd ref="769965999"/>
    <nd ref="769966779"/>
    <nd ref="769966371"/>
    <nd ref="12485234003"/>
    <nd ref="769966723"/>
    <nd ref="769966803"/>
    <nd ref="769966386"/>
    <nd ref="769966080"/>
    <nd ref="12485233953"/>
    <nd ref="769966207"/>
    <nd ref="769966404"/>
    <nd ref="769966613"/>
    <nd ref="769966812"/>
    <nd ref="769966274"/>
    <nd ref="769966091"/>
    <nd ref="769966029"/>
    <nd ref="769966133"/>
    <nd ref="12485233955"/>
    <nd ref="12485233952"/>
    <nd ref="769966119"/>
    <nd ref="769966302"/>
    <nd ref="769966923"/>
    <tag k="addr:city" v="Edinburgh"/>
    <tag k="addr:housenumber" v="2"/>
    <tag k="addr:postcode" v="EH5 2XS"/>
    <tag k="addr:street" v="Crewe Road North"/>
    <tag k="building" v="yes"/>
    <tag k="name" v="Leonardo Phase 1"/>
    <tag k="office" v="company"/>
    <tag k="source" v="Bing"/>
  </way>
  <way id="62198820" version="4" timestamp="2023-09-21T09:01:27Z" changeset="141548295" uid="3500921" user="camlewwri">
    <nd ref="9976784139"/>
    <nd ref="11207227931"/>
    <nd ref="8637389024"/>
    <nd ref="11207227934"/>
    <nd ref="265557977"/>
    <tag k="highway" v="residential"/>
    <tag k="maxspeed" v="20 mph"/>
    <tag k="name" v="Heron Place"/>
    <tag k="sidewalk" v="left"/>
    <tag k="source:name" v="OS_OpenData_Locator"/>
  </way>
  <way id="88364968" version="6" timestamp="2017-05-04T15:05:59Z" changeset="48397771" uid="3670347" user="rob_michel">
    <nd ref="254964481"/>
    <nd ref="4319816528"/>
    <nd ref="1026407251"/>
    <nd ref="1419974619"/>
    <nd ref="1419974547"/>
    <nd ref="4319816514"/>
    <nd ref="1419974526"/>
    <nd ref="4834842952"/>
    <nd ref="1419974543"/>
    <nd ref="4834842941"/>
    <nd ref="4834842945"/>
    <nd ref="4834842942"/>
    <nd ref="4834842946"/>
    <nd ref="4834842943"/>
    <nd ref="4834842947"/>
    <nd ref="4834842944"/>
    <nd ref="4834842949"/>
    <nd ref="4834842950"/>
    <tag k="highway" v="residential"/>
    <tag k="maxspeed" v="20 mph"/>
    <tag k="name" v="East Pilton Farm Place"/>
  </way>
  <way id="91866932" version="9" timestamp="2024-02-25T17:21:32Z" changeset="147900867" uid="14047157" user="osmuser63783">
    <nd ref="4377988474"/>
    <nd ref="1067562437"/>
    <nd ref="2954417862"/>
    <nd ref="615635"/>
    <tag k="highway" v="primary"/>
    <tag k="lanes" v="1"/>
    <tag k="maxspeed" v="20 mph"/>
    <tag k="name" v="Lower Granton Road"/>
    <tag k="oneway" v="yes"/>
    <tag k="ref" v="A901"/>
    <tag k="sidewalk" v="both"/>
    <tag k="source" v="Bing;survey"/>
    <tag k="source:ref" v="OS_OpenData_StreetView"/>
    <tag k="surface" v="asphalt"/>
  </way>
  <way id="91866934" version="9" timestamp="2021-06-28T10:36:24Z" changeset="107080284" uid="13479299" user="Peter JB King">
    <nd ref="30730760"/>
    <nd ref="2954418075"/>
    <nd ref="804415783"/>
    <nd ref="804415895"/>
    <nd ref="2954418073"/>
    <nd ref="30730782"/>
    <nd ref="30730792"/>
    <nd ref="3535906434"/>
    <nd ref="30730796"/>
    <nd ref="3535906419"/>
    <nd ref="30730802"/>
    <nd ref="3535906216"/>
    <nd ref="4335745574"/>
    <nd ref="30730806"/>
    <nd ref="4335745555"/>
    <nd ref="4335745543"/>
    <nd ref="4335745534"/>
    <nd ref="4335745516"/>
    <nd ref="4335745505"/>
    <nd ref="30730816"/>
    <tag k="highway" v="residential"/>
    <tag k="lanes" v="2"/>
    <tag k="maxspeed" v="20 mph"/>
    <tag k="name" v="Granton View"/>
    <tag k="source" v="Bing;survey"/>
    <tag k="surface" v="asphalt"/>
  </way>
  <way id="91866941" version="16" timestamp="2022-05-21T23:15:20Z" changeset="121300586" uid="13165294" user="ThatEffingCat">
    <nd ref="1067562423"/>
    <nd ref="637242"/>
    <nd ref="637243"/>
    <nd ref="4742262985"/>
    <nd ref="637245"/>
    <nd ref="637246"/>
    <nd ref="637247"/>
    <nd ref="3490830300"/>
    <nd ref="637249"/>
    <nd ref="637250"/>
    <nd ref="3535906208"/>
    <nd ref="3490830297"/>
    <nd ref="3535906207"/>
    <nd ref="637251"/>
    <nd ref="3535906202"/>
    <nd ref="3490830291"/>
    <nd ref="637253"/>
    <nd ref="3490830289"/>
    <nd ref="637255"/>
    <nd ref="3490830284"/>
    <nd ref="3490830283"/>
    <nd ref="637257"/>
    <nd ref="3535904981"/>
    <nd ref="3490830273"/>
    <nd ref="637258"/>
    <nd ref="1280769575"/>
    <nd ref="637259"/>
    <nd ref="30082254"/>
    <tag k="cycleway:both" v="no"/>
    <tag k="highway" v="primary"/>
    <tag k="lanes" v="2"/>
    <tag k="lit" v="yes"/>
    <tag k="maxspeed" v="30 mph"/>
    <tag k="name" v="Granton Road"/>
    <tag k="ref" v="A903"/>
    <tag k="sidewalk" v="both"/>
    <tag k="sidewalk:both:surface" v="asphalt"/>
    <tag k="smoothness" v="good"/>
    <tag k="source" v="Bing;survey"/>
    <tag k="surface" v="asphalt"/>
  </way>
  <way id="91866943" version="7" timestamp="2024-02-25T17:21:32Z" changeset="147900867" uid="14047157" user="osmuser63783">
    <nd ref="264163984"/>
    <nd ref="1067562382"/>
    <nd ref="2954417869"/>
    <nd ref="2954417848"/>
    <nd ref="4742262987"/>
    <tag k="highway" v="primary"/>
    <tag k="lanes" v="1"/>
    <tag k="maxspeed" v="20 mph"/>
    <tag k="name" v="Granton Road"/>
    <tag k="oneway" v="yes"/>
    <tag k="ref" v="A903"/>
    <tag k="sidewalk" v="both"/>
    <tag k="source" v="Bing;survey"/>
    <tag k="surface" v="asphalt"/>
  </way>
  <way id="91866946" version="5" timestamp="2021-08-21T15:25:10Z" changeset="110032583" uid="4007299" user="FrenchyF">
    <nd ref="804415797"/>
    <nd ref="2954417859"/>
    <nd ref="804415814"/>
    <nd ref="2954417861"/>
    <nd ref="615638"/>
    <tag k="highway" v="tertiary"/>
    <tag k="lanes" v="1"/>
    <tag k="maxspeed" v="20 mph"/>
    <tag k="name" v="West Granton Road"/>
    <tag k="oneway" v="yes"/>
    <tag k="surface" v="asphalt"/>
  </way>
  <way id="91866948" version="8" timestamp="2021-06-28T10:36:24Z" changeset="107080284" uid="13479299" user="Peter JB King">
    <nd ref="638077"/>
    <nd ref="2954417870"/>
    <nd ref="1067562371"/>
    <nd ref="4377988473"/>
    <tag k="highway" v="tertiary"/>
    <tag k="lanes" v="1"/>
    <tag k="maxspeed" v="20 mph"/>
    <tag k="name" v="West Harbour Road"/>
    <tag k="oneway" v="yes"/>
    <tag k="source" v="Bing;survey"/>
    <tag k="surface" v="asphalt"/>
  </way>
  <way id="91866951" version="8" timestamp="2021-06-28T10:36:24Z" changeset="107080284" uid="13479299" user="Peter JB King">
    <nd ref="264163986"/>
    <nd ref="2954417853"/>
    <nd ref="2954417854"/>
    <nd ref="1067562416"/>
    <nd ref="2954417864"/>
    <nd ref="2954418074"/>
    <nd ref="638077"/>
    <tag k="highway" v="tertiary"/>
    <tag k="lanes" v="1"/>
    <tag k="maxspeed" v="20 mph"/>
    <tag k="name" v="West Harbour Road"/>
    <tag k="oneway" v="yes"/>
    <tag k="source" v="Bing;survey"/>
    <tag k="surface" v="asphalt"/>
  </way>
  <way id="91866966" version="27" timestamp="2024-02-25T17:21:32Z" changeset="147900867" uid="14047157" user="osmuser63783">
    <nd ref="615635"/>
    <nd ref="7258254364"/>
    <nd ref="3065628048"/>
    <nd ref="3634530613"/>
    <nd ref="3065628044"/>
    <nd ref="3065628039"/>
    <nd ref="3065628026"/>
    <nd ref="6433732307"/>
    <nd ref="6433732302"/>
    <nd ref="2954425878"/>
    <nd ref="1608847291"/>
    <nd ref="2954425877"/>
    <nd ref="615631"/>
    <nd ref="2954425882"/>
    <nd ref="2954425880"/>
    <nd ref="603842588"/>
    <nd ref="3535906421"/>
    <nd ref="615630"/>
    <nd ref="3535906418"/>
    <nd ref="2954425879"/>
    <nd ref="3535906420"/>
    <nd ref="1281696240"/>
    <nd ref="3535906423"/>
    <nd ref="3535906425"/>
    <nd ref="33164820"/>
    <nd ref="3490830314"/>
    <nd ref="2954425881"/>
    <nd ref="3490830321"/>
    <nd ref="33164821"/>
    <nd ref="3535906436"/>
    <nd ref="479800850"/>
    <nd ref="3829681281"/>
    <nd ref="3490830340"/>
    <nd ref="3829681283"/>
    <nd ref="3490830351"/>
    <nd ref="3490830358"/>
    <nd ref="1281696245"/>
    <tag k="highway" v="primary"/>
    <tag k="lanes" v="2"/>
    <tag k="lit" v="yes"/>
    <tag k="maxspeed" v="20 mph"/>
    <tag k="name" v="Lower Granton Road"/>
    <tag k="ref" v="A901"/>
    <tag k="sidewalk" v="both"/>
    <tag k="smoothness" v="excellent"/>
    <tag k="source" v="survey"/>
    <tag k="surface" v="asphalt"/>
  </way>
  <way id="120432874" version="7" timestamp="2021-04-18T09:18:31Z" changeset="103129041" uid="388774" user="drnoble">
    <nd ref="33226455"/>
    <nd ref="8637388953"/>
    <nd ref="2527903341"/>
    <nd ref="2527903344"/>
    <nd ref="1350383385"/>
    <tag k="highway" v="residential"/>
    <tag k="maxspeed" v="20 mph"/>
    <tag k="name" v="Hesperus Broadway"/>
    <tag k="note" v="Name taken from Council Lists"/>
  </way>
  <way id="132911045" version="10" timestamp="2024-06-21T16:22:19Z" changeset="152999922" uid="20487713" user="iiBus">
    <nd ref="29883644"/>
    <nd ref="8127330324"/>
    <nd ref="8127330253"/>
    <nd ref="8127330251"/>
    <nd ref="8127330252"/>
    <nd ref="7418774663"/>
    <nd ref="11999245799"/>
    <nd ref="30082289"/>
    <tag k="highway" v="tertiary"/>
    <tag k="maxspeed" v="30 mph"/>
    <tag k="name" v="West Granton Road"/>
    <tag k="surface" v="asphalt"/>
  </way>
  <way id="168935811" version="3" timestamp="2014-12-31T16:57:33Z" changeset="27827178" uid="42123" user="Ropino">
    <nd ref="31303491"/>
    <nd ref="31303496"/>
    <tag k="highway" v="residential"/>
    <tag k="maxspeed" v="20 mph"/>
    <tag k="name" v="Boswall Grove"/>
  </way>
  <way id="168935812" version="4" timestamp="2018-09-09T06:03:19Z" changeset="62416473" uid="56159" user="alektronic">
    <nd ref="31493562"/>
    <nd ref="1419953025"/>
    <nd ref="254964466"/>
    <tag k="highway" v="residential"/>
    <tag k="maxspeed" v="20 mph"/>
    <tag k="name" v="East Pilton Farm Avenue"/>
    <tag k="surface" v="asphalt"/>
  </way>
  <way id="170722805" version="6" timestamp="2022-09-20T14:23:30Z" changeset="126425740" uid="3432400" user="GinaroZ">
    <nd ref="265557958"/>
    <nd ref="7418727123"/>
    <nd ref="7418727130"/>
    <nd ref="3638060739"/>
    <nd ref="1818753152"/>
    <tag k="highway" v="residential"/>
    <tag k="lit" v="yes"/>
    <tag k="maxspeed" v="20 mph"/>
    <tag k="name" v="Custom House Place"/>
    <tag k="source" v="Bing"/>
  </way>
  <way id="170722807" version="6" timestamp="2023-08-23T13:55:41Z" changeset="140276834" uid="13459" user="scvalex">
    <nd ref="265557958"/>
    <nd ref="7418727119"/>
    <nd ref="7294383362"/>
    <tag k="highway" v="residential"/>
    <tag k="maxspeed" v="20 mph"/>
    <tag k="name" v="Oxcraig Street"/>
    <tag k="surface" v="asphalt"/>
  </way>
  <way id="228320402" version="6" timestamp="2017-03-18T23:09:42Z" changeset="46968481" uid="33764" user="Rostranimin">
    <nd ref="4742262992"/>
    <nd ref="3925643721"/>
    <nd ref="2369941813"/>
    <tag k="highway" v="residential"/>
    <tag k="lit" v="yes"/>
    <tag k="maxspeed" v="30 mph"/>
    <tag k="name" v="Arneil Drive"/>
    <tag k="source" v="survey"/>
  </way>
  <way id="228320403" version="7" timestamp="2020-04-19T11:01:51Z" changeset="83768649" uid="388774" user="drnoble">
    <nd ref="2369941821"/>
    <nd ref="2369941816"/>
    <nd ref="7418932359"/>
    <nd ref="2369941823"/>
    <nd ref="2369941825"/>
    <nd ref="7418894749"/>
    <nd ref="2557991246"/>
    <nd ref="7418932360"/>
    <nd ref="7115998515"/>
    <nd ref="4109175007"/>
    <tag k="highway" v="residential"/>
    <tag k="lit" v="yes"/>
    <tag k="maxspeed" v="20 mph"/>
    <tag k="name" v="Arneil Place"/>
  </way>
  <way id="228320404" version="13" timestamp="2023-07-15T15:13:30Z" changeset="138548799" uid="3432400" user="GinaroZ">
    <nd ref="2369941821"/>
    <nd ref="2557991247"/>
    <nd ref="7418932358"/>
    <nd ref="4109174990"/>
    <nd ref="3925643702"/>
    <nd ref="2369941819"/>
    <nd ref="7418932357"/>
    <nd ref="6384074485"/>
    <nd ref="3925643698"/>
    <nd ref="2824877771"/>
    <nd ref="2405664422"/>
    <nd ref="3925643696"/>
    <nd ref="3638047847"/>
    <nd ref="11048087098"/>
    <nd ref="3925643674"/>
    <nd ref="2405664420"/>
    <nd ref="7418932356"/>
    <nd ref="7418932355"/>
    <nd ref="3925643675"/>
    <nd ref="3638047848"/>
    <nd ref="3638047849"/>
    <nd ref="2405664432"/>
    <nd ref="7418932354"/>
    <nd ref="7418932353"/>
    <nd ref="2405664440"/>
    <nd ref="11048087093"/>
    <nd ref="3638047855"/>
    <nd ref="3638047871"/>
    <nd ref="3638047876"/>
    <nd ref="3638047877"/>
    <nd ref="3638047879"/>
    <nd ref="3638047880"/>
    <nd ref="2405664437"/>
    <nd ref="2405664435"/>
    <nd ref="4109175007"/>
    <tag k="highway" v="residential"/>
    <tag k="lit" v="yes"/>
    <tag k="maxspeed" v="20 mph"/>
    <tag k="name" v="Arneil Drive"/>
    <tag k="source" v="survey"/>
  </way>
  <way id="228323198" version="3" timestamp="2022-07-18T11:46:25Z" changeset="123760351" uid="16577224" user="Reuben @ MoveOn">
    <nd ref="2370012272"/>
    <nd ref="2370012286"/>
    <nd ref="2370012268"/>
    <nd ref="2370012280"/>
    <nd ref="2370012272"/>
    <tag k="addr:city" v="Edinburgh"/>
    <tag k="addr:housenumber" v="2"/>
    <tag k="addr:street" v="New Broompark"/>
    <tag k="building" v="industrial"/>
    <tag k="name" v="MoveOn Wood Recycling"/>
  </way>
  <way id="228323199" version="2" timestamp="2020-09-22T18:15:08Z" changeset="91313986" uid="3432400" user="GinaroZ">
    <nd ref="2370012277"/>
    <nd ref="2370012291"/>
    <nd ref="559465981"/>
    <nd ref="559465980"/>
    <nd ref="2370012277"/>
    <tag k="addr:city" v="Edinburgh"/>
    <tag k="addr:housenumber" v="26"/>
    <tag k="addr:street" v="New Broompark"/>
    <tag k="building" v="industrial"/>
    <tag k="name" v="Soilutions"/>
  </way>
  <way id="228323200" version="3" timestamp="2022-07-18T11:46:25Z" changeset="123760351" uid="16577224" user="Reuben @ MoveOn">
    <nd ref="2370012272"/>
    <nd ref="559465991"/>
    <nd ref="559465987"/>
    <nd ref="2370012286"/>
    <nd ref="2370012272"/>
    <tag k="addr:city" v="Edinburgh"/>
    <tag k="addr:housenumber" v="3"/>
    <tag k="addr:street" v="New Broompark"/>
    <tag k="building" v="industrial"/>
    <tag k="name" v="MoveOn Wood Recycling"/>
  </way>
  <way id="228323201" version="2" timestamp="2020-09-22T18:15:08Z" changeset="91313986" uid="3432400" user="GinaroZ">
    <nd ref="2370012293"/>
    <nd ref="2370012306"/>
    <nd ref="2370012291"/>
    <nd ref="2370012277"/>
    <nd ref="2370012293"/>
    <tag k="addr:city" v="Edinburgh"/>
    <tag k="addr:housenumber" v="25"/>
    <tag k="addr:street" v="New Broompark"/>
    <tag k="building" v="industrial"/>
    <tag k="name" v="Rowat Roofing"/>
    <tag k="source" v="survey"/>
  </way>
  <way id="228323202" version="2" timestamp="2020-09-22T18:15:08Z" changeset="91313986" uid="3432400" user="GinaroZ">
    <nd ref="2370012304"/>
    <nd ref="2370012275"/>
    <nd ref="559466010"/>
    <nd ref="559466009"/>
    <nd ref="2370012304"/>
    <tag k="addr:city" v="Edinburgh"/>
    <tag k="addr:housenumber" v="11"/>
    <tag k="addr:street" v="New Broompark"/>
    <tag k="building" v="industrial"/>
    <tag k="name" v="Active Ironing"/>
  </way>
  <way id="228323204" version="2" timestamp="2020-09-22T18:15:08Z" changeset="91313986" uid="3432400" user="GinaroZ">
    <nd ref="2370012279"/>
    <nd ref="2370012292"/>
    <nd ref="2370012275"/>
    <nd ref="2370012304"/>
    <nd ref="2370012279"/>
    <tag k="addr:city" v="Edinburgh"/>
    <tag k="addr:housenumber" v="12"/>
    <tag k="addr:street" v="New Broompark"/>
    <tag k="building" v="industrial"/>
    <tag k="name" v="Eat Love Ltd"/>
  </way>
  <way id="228323206" version="2" timestamp="2020-09-22T18:15:08Z" changeset="91313986" uid="3432400" user="GinaroZ">
    <nd ref="2370012309"/>
    <nd ref="2370012282"/>
    <nd ref="2370012306"/>
    <nd ref="2370012293"/>
    <nd ref="2370012309"/>
    <tag k="addr:city" v="Edinburgh"/>
    <tag k="addr:housenumber" v="24"/>
    <tag k="addr:street" v="New Broompark"/>
    <tag k="building" v="industrial"/>
    <tag k="name" v="Northern Delivery Services"/>
  </way>
  <way id="228323207" version="2" timestamp="2020-09-22T18:15:08Z" changeset="91313986" uid="3432400" user="GinaroZ">
    <nd ref="2370012309"/>
    <nd ref="2370012288"/>
    <nd ref="559465985"/>
    <nd ref="2370012282"/>
    <nd ref="2370012309"/>
    <tag k="addr:city" v="Edinburgh"/>
    <tag k="addr:housenumber" v="23"/>
    <tag k="addr:street" v="New Broompark"/>
    <tag k="building" v="industrial"/>
    <tag k="name" v="John King Plumbing"/>
  </way>
  <way id="228323208" version="3" timestamp="2023-02-04T16:54:22Z" changeset="132083046" uid="18399612" user="Papweer">
    <nd ref="2370012292"/>
    <nd ref="2370012279"/>
    <nd ref="559466012"/>
    <nd ref="559466011"/>
    <nd ref="2370012292"/>
    <tag k="addr:city" v="Edinburgh"/>
    <tag k="addr:housenumber" v="13"/>
    <tag k="addr:street" v="New Broompark"/>
    <tag k="building" v="industrial"/>
    <tag k="name" v="Roots Soda Co"/>
  </way>
  <way id="228323209" version="2" timestamp="2020-09-22T18:15:08Z" changeset="91313986" uid="3432400" user="GinaroZ">
    <nd ref="2370012307"/>
    <nd ref="2370012299"/>
    <nd ref="2370012280"/>
    <nd ref="2370012268"/>
    <nd ref="2370012307"/>
    <tag k="addr:city" v="Edinburgh"/>
    <tag k="addr:housenumber" v="1"/>
    <tag k="addr:street" v="New Broompark"/>
    <tag k="building" v="industrial"/>
    <tag k="name" v="Eastern Electric"/>
  </way>
  <way id="228323210" version="2" timestamp="2020-09-22T18:15:08Z" changeset="91313986" uid="3432400" user="GinaroZ">
    <nd ref="2370012266"/>
    <nd ref="2370012284"/>
    <nd ref="559466014"/>
    <nd ref="559466013"/>
    <nd ref="2370012266"/>
    <tag k="addr:city" v="Edinburgh"/>
    <tag k="addr:housenumber" v="14"/>
    <tag k="addr:street" v="New Broompark"/>
    <tag k="building" v="industrial"/>
    <tag k="name" v="Plate Hire"/>
  </way>
  <way id="228323211" version="2" timestamp="2020-09-22T18:15:08Z" changeset="91313986" uid="3432400" user="GinaroZ">
    <nd ref="2370012284"/>
    <nd ref="559466015"/>
    <nd ref="559466016"/>
    <nd ref="2370012266"/>
    <nd ref="2370012284"/>
    <tag k="addr:city" v="Edinburgh"/>
    <tag k="addr:housenumber" v="15"/>
    <tag k="addr:street" v="New Broompark"/>
    <tag k="building" v="industrial"/>
    <tag k="name" v="Monkland Cleaning Services"/>
  </way>
  <way id="228344571" version="6" timestamp="2020-11-16T23:22:13Z" changeset="94232188" uid="3432400" user="GinaroZ">
    <nd ref="30082289"/>
    <nd ref="2313070760"/>
    <nd ref="33187303"/>
    <nd ref="2954438453"/>
    <nd ref="2954438456"/>
    <nd ref="2954438454"/>
    <nd ref="2954438452"/>
    <nd ref="2954438455"/>
    <nd ref="1067537243"/>
    <nd ref="33187298"/>
    <nd ref="7711576053"/>
    <nd ref="615651"/>
    <nd ref="7638783991"/>
    <nd ref="1350362880"/>
    <nd ref="615649"/>
    <nd ref="2954434816"/>
    <nd ref="2954434807"/>
    <nd ref="615648"/>
    <nd ref="2954434806"/>
    <nd ref="615647"/>
    <tag k="highway" v="tertiary"/>
    <tag k="maxspeed" v="30 mph"/>
    <tag k="name" v="West Granton Road"/>
    <tag k="surface" v="asphalt"/>
  </way>
  <way id="228344573" version="6" timestamp="2022-05-21T23:13:55Z" changeset="121300526" uid="13165294" user="ThatEffingCat">
    <nd ref="33226349"/>
    <nd ref="8637389030"/>
    <nd ref="265557980"/>
    <nd ref="33226350"/>
    <tag k="highway" v="residential"/>
    <tag k="lanes" v="2"/>
    <tag k="lit" v="yes"/>
    <tag k="maxspeed" v="20 mph"/>
    <tag k="name" v="Lochinvar Drive"/>
    <tag k="sidewalk" v="separate"/>
    <tag k="smoothness" v="good"/>
    <tag k="source" v="survey"/>
    <tag k="surface" v="asphalt"/>
  </way>
  <way id="228344575" version="5" timestamp="2021-06-28T10:36:24Z" changeset="107080284" uid="13479299" user="Peter JB King">
    <nd ref="769908351"/>
    <nd ref="33164766"/>
    <nd ref="31493471"/>
    <nd ref="33164749"/>
    <nd ref="33164752"/>
    <nd ref="33164757"/>
    <nd ref="3535906253"/>
    <nd ref="3535906270"/>
    <nd ref="33164760"/>
    <nd ref="3535906287"/>
    <nd ref="3535906291"/>
    <nd ref="3535906401"/>
    <nd ref="33164763"/>
    <nd ref="3535906407"/>
    <nd ref="3535906416"/>
    <nd ref="30730796"/>
    <tag k="highway" v="residential"/>
    <tag k="maxspeed" v="20 mph"/>
    <tag k="name" v="Granton Crescent"/>
    <tag k="source" v="Bing;survey"/>
    <tag k="surface" v="asphalt"/>
  </way>
  <way id="228344576" version="11" timestamp="2021-12-17T21:10:52Z" changeset="115072264" uid="3432400" user="GinaroZ">
    <nd ref="30082288"/>
    <nd ref="30082294"/>
    <nd ref="30082295"/>
    <nd ref="7418842419"/>
    <nd ref="7418837081"/>
    <nd ref="30082296"/>
    <nd ref="7418837057"/>
    <nd ref="7418837055"/>
    <nd ref="3733458901"/>
    <nd ref="7418837052"/>
    <nd ref="1151992690"/>
    <nd ref="1151992567"/>
    <nd ref="1151992525"/>
    <nd ref="3729510936"/>
    <nd ref="3729510935"/>
    <nd ref="30082300"/>
    <nd ref="3729510933"/>
    <nd ref="2369941813"/>
    <nd ref="30082301"/>
    <nd ref="30082302"/>
    <nd ref="30082303"/>
    <tag k="highway" v="tertiary"/>
    <tag k="lanes" v="2"/>
    <tag k="maxspeed" v="30 mph"/>
    <tag k="name" v="Crewe Road North"/>
    <tag k="surface" v="asphalt"/>
  </way>
  <way id="228344578" version="6" timestamp="2022-11-29T18:14:15Z" changeset="129531839" uid="3432400" user="GinaroZ">
    <nd ref="769908105"/>
    <nd ref="8089664764"/>
    <nd ref="8089664763"/>
    <nd ref="10226215486"/>
    <nd ref="1280769608"/>
    <nd ref="31493454"/>
    <nd ref="4030565653"/>
    <nd ref="31508316"/>
    <nd ref="31493450"/>
    <nd ref="4347197303"/>
    <nd ref="30082273"/>
    <tag k="highway" v="residential"/>
    <tag k="maxspeed" v="20 mph"/>
    <tag k="name" v="Wardieburn Drive"/>
  </way>
  <way id="228344586" version="4" timestamp="2021-06-28T10:36:24Z" changeset="107080284" uid="13479299" user="Peter JB King">
    <nd ref="32897287"/>
    <nd ref="3812390795"/>
    <nd ref="3812390791"/>
    <nd ref="3812390782"/>
    <nd ref="3812390779"/>
    <nd ref="3812390771"/>
    <nd ref="4742262989"/>
    <tag k="highway" v="tertiary"/>
    <tag k="lanes" v="2"/>
    <tag k="maxspeed" v="30 mph"/>
    <tag k="name" v="West Harbour Road"/>
    <tag k="surface" v="asphalt"/>
  </way>
  <way id="228344588" version="3" timestamp="2022-11-29T18:14:15Z" changeset="129531839" uid="3432400" user="GinaroZ">
    <nd ref="31493490"/>
    <nd ref="10226215490"/>
    <nd ref="10226215488"/>
    <nd ref="31493492"/>
    <nd ref="31493493"/>
    <nd ref="31493494"/>
    <nd ref="31493495"/>
    <nd ref="31508319"/>
    <tag k="highway" v="residential"/>
    <tag k="lanes" v="2"/>
    <tag k="maxspeed" v="20 mph"/>
    <tag k="name" v="Pilton Drive North"/>
  </way>
  <way id="245627732" version="4" timestamp="2021-04-18T09:18:31Z" changeset="103129041" uid="388774" user="drnoble">
    <nd ref="2527903321"/>
    <nd ref="2527903329"/>
    <nd ref="8639568529"/>
    <nd ref="2527903317"/>
    <tag k="highway" v="residential"/>
    <tag k="lanes" v="2"/>
    <tag k="lit" v="yes"/>
    <tag k="maxspeed" v="20 mph"/>
    <tag k="name" v="Merlin Avenue"/>
    <tag k="sidewalk" v="no"/>
    <tag k="source" v="survey"/>
    <tag k="surface" v="asphalt"/>
  </way>
  <way id="325306741" version="3" timestamp="2018-12-20T17:38:36Z" changeset="65647420" uid="3432400" user="GinaroZ">
    <nd ref="3319818088"/>
    <nd ref="3319818089"/>
    <nd ref="3319818090"/>
    <nd ref="3319818091"/>
    <nd ref="3319818092"/>
    <nd ref="3319818087"/>
    <nd ref="3319818093"/>
    <nd ref="3319818094"/>
    <nd ref="3319818095"/>
    <nd ref="3319818096"/>
    <nd ref="3319818088"/>
    <tag k="building" v="yes"/>
    <tag k="building:levels" v="2"/>
    <tag k="name" v="Ainslie Park Stadium"/>
  </way>
  <way id="358981933" version="8" timestamp="2023-07-15T15:13:30Z" changeset="138548799" uid="3432400" user="GinaroZ">
    <nd ref="2405664435"/>
    <nd ref="4109175006"/>
    <nd ref="4109175004"/>
    <nd ref="4109175002"/>
    <nd ref="3925643737"/>
    <nd ref="6384080395"/>
    <nd ref="3638047873"/>
    <nd ref="2557991248"/>
    <nd ref="4109174991"/>
    <nd ref="2557991249"/>
    <nd ref="7418932363"/>
    <nd ref="7418932362"/>
    <nd ref="2557991250"/>
    <nd ref="4109171987"/>
    <nd ref="2557991251"/>
    <nd ref="11048087094"/>
    <nd ref="2405664432"/>
    <tag k="highway" v="residential"/>
    <tag k="lit" v="yes"/>
    <tag k="maxspeed" v="20 mph"/>
    <tag k="name" v="Arneil Drive"/>
    <tag k="source" v="survey"/>
  </way>
  <way id="358983259" version="2" timestamp="2019-03-27T06:59:58Z" changeset="68574854" uid="9451067" user="b-jazz-bot">
    <nd ref="3638060541"/>
    <nd ref="559466044"/>
    <nd ref="559466062"/>
    <nd ref="3638060539"/>
    <nd ref="3638060541"/>
    <tag k="amenity" v="house_removals"/>
    <tag k="building" v="yes"/>
    <tag k="name" v="Clockwork"/>
    <tag k="phone" v="+44 131 669 0044"/>
    <tag k="website" v="https://www.clockworkremovals.co.uk/"/>
  </way>
  <way id="358983281" version="3" timestamp="2022-09-20T14:23:30Z" changeset="126425740" uid="3432400" user="GinaroZ">
    <nd ref="3638060739"/>
    <nd ref="3638060738"/>
    <tag k="highway" v="residential"/>
    <tag k="lit" v="yes"/>
    <tag k="maxspeed" v="20 mph"/>
    <tag k="name" v="Custom House Place"/>
    <tag k="source" v="survey"/>
    <tag k="surface" v="paving_stones"/>
  </way>
  <way id="362443188" version="4" timestamp="2021-04-18T09:18:31Z" changeset="103129041" uid="388774" user="drnoble">
    <nd ref="33226455"/>
    <nd ref="8639568573"/>
    <nd ref="3634530649"/>
    <nd ref="2527903305"/>
    <nd ref="7992136279"/>
    <nd ref="403799391"/>
    <tag k="highway" v="residential"/>
    <tag k="lanes" v="2"/>
    <tag k="lit" v="yes"/>
    <tag k="maxspeed" v="20 mph"/>
    <tag k="name" v="Hesperus Crossway"/>
    <tag k="sidewalk" v="separate"/>
    <tag k="source" v="survey"/>
    <tag k="surface" v="asphalt"/>
  </way>
  <way id="362443191" version="5" timestamp="2022-09-28T23:14:33Z" changeset="126758205" uid="3432400" user="GinaroZ">
    <nd ref="2313070729"/>
    <nd ref="2313070752"/>
    <nd ref="10059833948"/>
    <nd ref="8637386489"/>
    <nd ref="2313070716"/>
    <nd ref="8639568572"/>
    <nd ref="33226455"/>
    <tag k="highway" v="residential"/>
    <tag k="lanes" v="2"/>
    <tag k="lit" v="yes"/>
    <tag k="maxspeed" v="20 mph"/>
    <tag k="name" v="Hesperus Crossway"/>
    <tag k="sidewalk" v="separate"/>
    <tag k="source" v="survey"/>
    <tag k="surface" v="asphalt"/>
  </way>
  <way id="377835842" version="5" timestamp="2023-08-23T13:51:47Z" changeset="140277776" uid="13459" user="scvalex">
    <nd ref="3812390768"/>
    <nd ref="769908122"/>
    <nd ref="6433700255"/>
    <nd ref="769908283"/>
    <nd ref="769908354"/>
    <nd ref="3812390768"/>
    <tag k="addr:housenumber" v="23"/>
    <tag k="addr:street" v="West Harbour Road"/>
    <tag k="building" v="office"/>
  </way>
  <way id="387000484" version="1" timestamp="2015-12-21T18:51:28Z" changeset="36092627" uid="2614045" user="amilne">
    <nd ref="3903395352"/>
    <nd ref="3903395353"/>
    <nd ref="3903395354"/>
    <nd ref="3903395355"/>
    <nd ref="3903395352"/>
    <tag k="building" v="yes"/>
    <tag k="name" v="Grandstand"/>
  </way>
  <way id="400509596" version="13" timestamp="2025-03-16T12:01:45Z" changeset="163685263" uid="7400464" user="Moohan">
    <nd ref="4030565694"/>
    <nd ref="4030565680"/>
    <tag k="cycleway:both" v="no"/>
    <tag k="highway" v="primary"/>
    <tag k="maxspeed" v="30 mph"/>
    <tag k="name" v="Ferry Road"/>
    <tag k="name:gd" v="Rathad a' Phuirt"/>
    <tag k="oneway" v="yes"/>
    <tag k="surface" v="asphalt"/>
    <tag k="wikidata" v="Q5445503"/>
  </way>
  <way id="400509597" version="12" timestamp="2025-03-16T12:02:02Z" changeset="163685453" uid="7400464" user="Moohan">
    <nd ref="4030565680"/>
    <nd ref="4030565728"/>
    <tag k="cycleway:both" v="no"/>
    <tag k="highway" v="primary"/>
    <tag k="lanes" v="2"/>
    <tag k="maxspeed" v="30 mph"/>
    <tag k="name" v="Ferry Road"/>
    <tag k="name:gd" v="Rathad a' Phuirt"/>
    <tag k="oneway" v="yes"/>
    <tag k="sidewalk" v="separate"/>
    <tag k="surface" v="asphalt"/>
    <tag k="wikidata" v="Q5445503"/>
  </way>
  <way id="400509600" version="7" timestamp="2021-07-29T14:59:17Z" changeset="108833263" uid="4007299" user="FrenchyF">
    <nd ref="4030565695"/>
    <nd ref="4065233361"/>
    <tag k="highway" v="tertiary"/>
    <tag k="maxspeed" v="30 mph"/>
    <tag k="name" v="Crewe Road North"/>
    <tag k="oneway" v="yes"/>
    <tag k="surface" v="asphalt"/>
  </way>
  <way id="400509601" version="6" timestamp="2021-07-29T14:59:17Z" changeset="108833263" uid="4007299" user="FrenchyF">
    <nd ref="4065233355"/>
    <nd ref="4030565695"/>
    <tag k="highway" v="tertiary"/>
    <tag k="maxspeed" v="30 mph"/>
    <tag k="name" v="Crewe Road North"/>
    <tag k="oneway" v="yes"/>
    <tag k="surface" v="asphalt"/>
  </way>
  <way id="400509602" version="8" timestamp="2024-08-22T20:24:21Z" changeset="155625297" uid="21762849" user="jSeke">
    <nd ref="504011296"/>
    <nd ref="4065233354"/>
    <tag k="highway" v="secondary"/>
    <tag k="maxspeed" v="30 mph"/>
    <tag k="name" v="Ferry Road"/>
    <tag k="name:gd" v="Rathad a' Phuirt"/>
    <tag k="oneway" v="yes"/>
    <tag k="surface" v="asphalt"/>
    <tag k="wikidata" v="Q5445503"/>
  </way>
  <way id="400509603" version="8" timestamp="2024-08-22T20:24:21Z" changeset="155625297" uid="21762849" user="jSeke">
    <nd ref="4065233357"/>
    <nd ref="504011296"/>
    <tag k="highway" v="secondary"/>
    <tag k="maxspeed" v="30 mph"/>
    <tag k="name" v="Ferry Road"/>
    <tag k="name:gd" v="Rathad a' Phuirt"/>
    <tag k="oneway" v="yes"/>
    <tag k="surface" v="asphalt"/>
    <tag k="wikidata" v="Q5445503"/>
  </way>
  <way id="426822137" version="3" timestamp="2024-04-05T11:22:08Z" changeset="149610153" uid="161886" user="David Fiddes">
    <nd ref="4260893833"/>
    <nd ref="4834566672"/>
    <nd ref="4260893842"/>
    <nd ref="4260893840"/>
    <nd ref="4260893833"/>
    <tag k="building" v="service"/>
    <tag k="name" v="Boswall Place"/>
    <tag k="operator" v="SP Energy Networks"/>
    <tag k="operator:wikidata" v="Q116022116"/>
    <tag k="power" v="substation"/>
    <tag k="source" v="Bing;survey"/>
  </way>
  <way id="432585954" version="3" timestamp="2025-03-19T12:59:20Z" changeset="163816729" uid="6541439" user="Johnny wheelz">
    <nd ref="4315860371"/>
    <nd ref="4315860370"/>
    <nd ref="4315860369"/>
    <nd ref="4315860382"/>
    <nd ref="4315860379"/>
    <nd ref="4315896895"/>
    <nd ref="4315896896"/>
    <nd ref="4315896897"/>
    <nd ref="4315860380"/>
    <nd ref="4315860383"/>
    <nd ref="4315896902"/>
    <nd ref="769940174"/>
    <nd ref="4315896904"/>
    <nd ref="4315896889"/>
    <nd ref="4315860388"/>
    <nd ref="4315860384"/>
    <nd ref="4315860374"/>
    <nd ref="4315860372"/>
    <nd ref="4315860373"/>
    <nd ref="4315860371"/>
    <tag k="addr:housenumber" v="6"/>
    <tag k="addr:street" v="Royston Mains Close"/>
    <tag k="building" v="apartments"/>
    <tag k="source" v="Bing"/>
  </way>
  <way id="456091313" version="2" timestamp="2023-02-06T16:44:14Z" changeset="132165883" uid="18399612" user="Papweer">
    <nd ref="4523705038"/>
    <nd ref="4523705045"/>
    <nd ref="4523705049"/>
    <nd ref="10611966159"/>
    <nd ref="4523705053"/>
    <nd ref="4523705038"/>
    <tag k="building" v="yes"/>
    <tag k="name" v="Granton Station"/>
  </way>
  <way id="474348027" version="1" timestamp="2017-02-13T11:18:24Z" changeset="46043965" uid="2234934" user="sophiemccallum">
    <nd ref="4315897396"/>
    <nd ref="4315897401"/>
    <nd ref="4315897397"/>
    <nd ref="4315897392"/>
    <nd ref="4315897418"/>
    <nd ref="4315897414"/>
    <nd ref="4315897433"/>
    <nd ref="4315897441"/>
    <nd ref="4315897426"/>
    <nd ref="4315897431"/>
    <nd ref="4677002861"/>
    <nd ref="4677002860"/>
    <nd ref="4677002859"/>
    <nd ref="4315897425"/>
    <nd ref="4315897417"/>
    <nd ref="4315897411"/>
    <nd ref="4315897407"/>
    <nd ref="4315897403"/>
    <nd ref="4677002858"/>
    <nd ref="4315897396"/>
    <tag k="building" v="club_house"/>
    <tag k="name" v="Queensberry Bowling Club Pavilion"/>
    <tag k="source" v="Bing"/>
  </way>
  <way id="474348028" version="1" timestamp="2017-02-13T11:18:24Z" changeset="46043965" uid="2234934" user="sophiemccallum">
    <nd ref="4085094596"/>
    <nd ref="4085094571"/>
    <nd ref="4683251158"/>
    <nd ref="4085094535"/>
    <nd ref="769442122"/>
    <nd ref="4085094530"/>
    <nd ref="4085094529"/>
    <nd ref="4085094528"/>
    <nd ref="769435393"/>
    <nd ref="4085094534"/>
    <nd ref="4085094541"/>
    <nd ref="4085094539"/>
    <nd ref="4085094552"/>
    <nd ref="4085094553"/>
    <nd ref="4085094573"/>
    <nd ref="4078642854"/>
    <nd ref="4085094596"/>
    <tag k="building" v="club_house"/>
    <tag k="name" v="Wardie Bowling Club Pavilion"/>
    <tag k="source" v="Bing"/>
    <tag k="start_date" v="1930"/>
  </way>
  <way id="478393115" version="5" timestamp="2020-05-15T10:02:40Z" changeset="85252768" uid="388774" user="drnoble">
    <nd ref="4716194856"/>
    <nd ref="4716194849"/>
    <nd ref="4716194820"/>
    <nd ref="4716194848"/>
    <nd ref="5101051223"/>
    <nd ref="5101050319"/>
    <nd ref="5010049350"/>
    <nd ref="5010049348"/>
    <nd ref="5101050305"/>
    <nd ref="4716194847"/>
    <nd ref="7522101462"/>
    <nd ref="5101050304"/>
    <nd ref="5101050303"/>
    <tag k="highway" v="residential"/>
    <tag k="lit" v="yes"/>
    <tag k="maxspeed" v="20 mph"/>
    <tag k="name" v="City Park Way"/>
    <tag k="source" v="survey"/>
  </way>
  <way id="481288647" version="3" timestamp="2024-02-25T17:21:32Z" changeset="147900867" uid="14047157" user="osmuser63783">
    <nd ref="4742262987"/>
    <nd ref="1067562407"/>
    <nd ref="1067562423"/>
    <tag k="highway" v="primary"/>
    <tag k="lanes" v="1"/>
    <tag k="maxspeed" v="30 mph"/>
    <tag k="name" v="Granton Road"/>
    <tag k="oneway" v="yes"/>
    <tag k="ref" v="A903"/>
    <tag k="sidewalk" v="both"/>
    <tag k="source" v="Bing;survey"/>
    <tag k="surface" v="asphalt"/>
  </way>
  <way id="481288649" version="3" timestamp="2024-02-25T17:21:32Z" changeset="147900867" uid="14047157" user="osmuser63783">
    <nd ref="4742262986"/>
    <nd ref="615637"/>
    <tag k="highway" v="primary"/>
    <tag k="lanes" v="1"/>
    <tag k="maxspeed" v="20 mph"/>
    <tag k="name" v="Granton Road"/>
    <tag k="oneway" v="yes"/>
    <tag k="ref" v="A903"/>
    <tag k="sidewalk" v="both"/>
    <tag k="source" v="Bing;survey"/>
    <tag k="surface" v="asphalt"/>
  </way>
  <way id="481288652" version="4" timestamp="2021-06-28T10:36:24Z" changeset="107080284" uid="13479299" user="Peter JB King">
    <nd ref="4742262989"/>
    <nd ref="6433700217"/>
    <nd ref="265557958"/>
    <tag k="highway" v="tertiary"/>
    <tag k="lanes" v="2"/>
    <tag k="maxspeed" v="20 mph"/>
    <tag k="name" v="West Harbour Road"/>
    <tag k="surface" v="asphalt"/>
  </way>
  <way id="481288654" version="1" timestamp="2017-03-18T23:09:37Z" changeset="46968481" uid="33764" user="Rostranimin">
    <nd ref="36140984"/>
    <nd ref="1102709673"/>
    <nd ref="4335746246"/>
    <tag k="highway" v="residential"/>
    <tag k="maxspeed" v="30 mph"/>
    <tag k="name" v="West Granton Road"/>
  </way>
  <way id="481288655" version="2" timestamp="2021-01-04T15:05:07Z" changeset="96915770" uid="53626" user="jambamkin">
    <nd ref="36140987"/>
    <nd ref="615644"/>
    <tag k="highway" v="residential"/>
    <tag k="maxspeed" v="30 mph"/>
    <tag k="name" v="West Granton Road"/>
    <tag k="surface" v="asphalt"/>
  </way>
  <way id="481288656" version="1" timestamp="2017-03-18T23:09:37Z" changeset="46968481" uid="33764" user="Rostranimin">
    <nd ref="615644"/>
    <nd ref="4335746235"/>
    <nd ref="4335746238"/>
    <nd ref="4335746241"/>
    <nd ref="36140989"/>
    <tag k="highway" v="residential"/>
    <tag k="maxspeed" v="30 mph"/>
    <tag k="name" v="Granton Park Avenue"/>
  </way>
  <way id="481288657" version="2" timestamp="2021-01-04T15:04:46Z" changeset="96915770" uid="53626" user="jambamkin">
    <nd ref="4742262990"/>
    <nd ref="31493490"/>
    <tag k="highway" v="residential"/>
    <tag k="lanes" v="2"/>
    <tag k="maxspeed" v="20 mph"/>
    <tag k="name" v="Pilton Drive North"/>
    <tag k="surface" v="asphalt"/>
  </way>
  <way id="481288658" version="2" timestamp="2021-08-21T15:25:44Z" changeset="110032603" uid="4007299" user="FrenchyF">
    <nd ref="30082288"/>
    <nd ref="4742262991"/>
    <tag k="highway" v="tertiary"/>
    <tag k="lanes" v="2"/>
    <tag k="maxspeed" v="30 mph"/>
    <tag k="name" v="Boswall Parkway"/>
    <tag k="surface" v="asphalt"/>
  </way>
  <way id="481288659" version="1" timestamp="2017-03-18T23:09:37Z" changeset="46968481" uid="33764" user="Rostranimin">
    <nd ref="2369941821"/>
    <nd ref="4742262992"/>
    <tag k="highway" v="residential"/>
    <tag k="lit" v="yes"/>
    <tag k="maxspeed" v="20 mph"/>
    <tag k="name" v="Arneil Drive"/>
    <tag k="source" v="survey"/>
  </way>
  <way id="481288660" version="1" timestamp="2017-03-18T23:09:37Z" changeset="46968481" uid="33764" user="Rostranimin">
    <nd ref="30082301"/>
    <nd ref="3925643713"/>
    <tag k="highway" v="residential"/>
    <tag k="lit" v="yes"/>
    <tag k="maxspeed" v="30 mph"/>
    <tag k="name" v="Crewe Road Gardens"/>
  </way>
  <way id="481288661" version="1" timestamp="2017-03-18T23:09:37Z" changeset="46968481" uid="33764" user="Rostranimin">
    <nd ref="30082302"/>
    <nd ref="4742262993"/>
    <tag k="highway" v="residential"/>
    <tag k="maxspeed" v="30 mph"/>
    <tag k="name" v="Crewe Road North"/>
  </way>
  <way id="512377782" version="1" timestamp="2017-08-02T18:47:27Z" changeset="50787972" uid="2042390" user="sairfeet">
    <nd ref="5010049350"/>
    <nd ref="5010049349"/>
    <tag k="highway" v="residential"/>
    <tag k="lit" v="yes"/>
    <tag k="maxspeed" v="20 mph"/>
    <tag k="name" v="City Park Way"/>
    <tag k="source" v="survey"/>
  </way>
  <way id="524129691" version="4" timestamp="2025-03-16T12:01:04Z" changeset="163685263" uid="7400464" user="Moohan">
    <nd ref="2351047271"/>
    <nd ref="5101051246"/>
    <nd ref="11048169807"/>
    <nd ref="5101051245"/>
    <nd ref="5101051244"/>
    <tag k="cycleway:both" v="no"/>
    <tag k="highway" v="tertiary"/>
    <tag k="lanes" v="1"/>
    <tag k="maxspeed" v="20 mph"/>
    <tag k="name" v="Pilton Drive"/>
    <tag k="oneway" v="yes"/>
    <tag k="surface" v="asphalt"/>
  </way>
  <way id="692197038" version="2" timestamp="2021-04-18T09:18:31Z" changeset="103129041" uid="388774" user="drnoble">
    <nd ref="2527903317"/>
    <nd ref="8639568568"/>
    <nd ref="8639568570"/>
    <nd ref="8639568571"/>
    <nd ref="2527903305"/>
    <tag k="highway" v="residential"/>
    <tag k="lanes" v="2"/>
    <tag k="lit" v="yes"/>
    <tag k="maxspeed" v="20 mph"/>
    <tag k="name" v="Hesperus Crossway"/>
    <tag k="sidewalk" v="both"/>
    <tag k="source" v="survey"/>
    <tag k="surface" v="asphalt"/>
  </way>
  <way id="777745425" version="1" timestamp="2020-03-02T16:04:33Z" changeset="81688489" uid="3432400" user="GinaroZ">
    <nd ref="33226637"/>
    <nd ref="3667539895"/>
    <nd ref="638057"/>
    <nd ref="638059"/>
    <nd ref="638060"/>
    <nd ref="638061"/>
    <nd ref="1127146370"/>
    <nd ref="638062"/>
    <nd ref="638063"/>
    <nd ref="638064"/>
    <nd ref="3667539899"/>
    <nd ref="3667539901"/>
    <nd ref="3667539900"/>
    <nd ref="1608847303"/>
    <nd ref="1608847300"/>
    <nd ref="638067"/>
    <nd ref="638068"/>
    <nd ref="3667539905"/>
    <nd ref="3667539893"/>
    <nd ref="3667539907"/>
    <nd ref="2378444349"/>
    <nd ref="638069"/>
    <nd ref="33226704"/>
    <nd ref="29922484"/>
    <tag k="highway" v="tertiary"/>
    <tag k="lanes" v="2"/>
    <tag k="lit" v="yes"/>
    <tag k="maxspeed" v="30 mph"/>
    <tag k="name" v="West Shore Road"/>
    <tag k="sidewalk" v="right"/>
    <tag k="surface" v="asphalt"/>
  </way>
  <way id="781587239" version="1" timestamp="2020-03-15T17:23:30Z" changeset="82222897" uid="3432400" user="GinaroZ">
    <nd ref="7294383362"/>
    <nd ref="4742262988"/>
    <nd ref="265557965"/>
    <nd ref="506285089"/>
    <nd ref="265557961"/>
    <tag k="highway" v="residential"/>
    <tag k="maxspeed" v="20 mph"/>
    <tag k="name" v="Oxcraig Street"/>
  </way>
  <way id="781587240" version="2" timestamp="2021-06-28T10:36:24Z" changeset="107080284" uid="13479299" user="Peter JB King">
    <nd ref="265557958"/>
    <nd ref="638077"/>
    <tag k="highway" v="tertiary"/>
    <tag k="lanes" v="2"/>
    <tag k="maxspeed" v="20 mph"/>
    <tag k="name" v="West Harbour Road"/>
    <tag k="surface" v="asphalt"/>
  </way>
  <way id="816913978" version="3" timestamp="2022-09-20T14:23:30Z" changeset="126425740" uid="3432400" user="GinaroZ">
    <nd ref="7629718052"/>
    <nd ref="7629718051"/>
    <tag k="highway" v="residential"/>
    <tag k="maxspeed" v="20 mph"/>
    <tag k="name" v="Bayton Terrace"/>
    <tag k="surface" v="paving_stones"/>
  </way>
  <way id="832047518" version="1" timestamp="2020-07-30T00:09:39Z" changeset="88702168" uid="9196106" user="rkumreo">
    <nd ref="31303528"/>
    <nd ref="4075454790"/>
    <nd ref="4075454791"/>
    <nd ref="1175800112"/>
    <nd ref="4075454792"/>
    <nd ref="1175800069"/>
    <nd ref="4075454794"/>
    <nd ref="4075454796"/>
    <nd ref="4075454798"/>
    <nd ref="4075454799"/>
    <nd ref="4075454800"/>
    <nd ref="4075454801"/>
    <nd ref="31303527"/>
    <nd ref="31303526"/>
    <nd ref="31303517"/>
    <tag k="highway" v="residential"/>
    <tag k="maxspeed" v="20 mph"/>
    <tag k="name" v="Boswall Crescent"/>
  </way>
  <way id="862085872" version="7" timestamp="2024-08-22T20:24:21Z" changeset="155625297" uid="21762849" user="jSeke">
    <nd ref="26462405"/>
    <nd ref="11999121879"/>
    <nd ref="258832455"/>
    <nd ref="7959458755"/>
    <nd ref="506285475"/>
    <nd ref="26462396"/>
    <nd ref="530552715"/>
    <nd ref="1151993008"/>
    <nd ref="11568696146"/>
    <nd ref="26462404"/>
    <tag k="cycleway" v="lane"/>
    <tag k="highway" v="secondary"/>
    <tag k="lit" v="yes"/>
    <tag k="maxheight" v="default"/>
    <tag k="maxspeed" v="30 mph"/>
    <tag k="name" v="Ferry Road"/>
    <tag k="name:gd" v="Rathad a' Phuirt"/>
    <tag k="old_ref" v="A902"/>
    <tag k="ref" v="B9085"/>
    <tag k="surface" v="asphalt"/>
    <tag k="wikidata" v="Q5445503"/>
  </way>
  <way id="862085873" version="4" timestamp="2024-08-22T20:24:21Z" changeset="155625297" uid="21762849" user="jSeke">
    <nd ref="26462404"/>
    <nd ref="1151992547"/>
    <nd ref="1109017753"/>
    <nd ref="472316874"/>
    <nd ref="504011296"/>
    <tag k="highway" v="secondary"/>
    <tag k="lit" v="yes"/>
    <tag k="maxspeed" v="30 mph"/>
    <tag k="name" v="Ferry Road"/>
    <tag k="name:gd" v="Rathad a' Phuirt"/>
    <tag k="old_ref" v="A902"/>
    <tag k="ref" v="B9085"/>
    <tag k="surface" v="asphalt"/>
    <tag k="wikidata" v="Q5445503"/>
  </way>
  <way id="867881013" version="2" timestamp="2023-11-26T09:41:36Z" changeset="144464555" uid="6816132" user="CjMalone">
    <nd ref="8089626006"/>
    <nd ref="8089626008"/>
    <nd ref="8089626009"/>
    <nd ref="8089626010"/>
    <nd ref="8089626011"/>
    <nd ref="8089626012"/>
    <nd ref="8089626013"/>
    <nd ref="8089626014"/>
    <nd ref="8089626015"/>
    <nd ref="8089626016"/>
    <nd ref="8089664717"/>
    <nd ref="8089664718"/>
    <nd ref="8089664719"/>
    <nd ref="8089664720"/>
    <nd ref="8089664721"/>
    <nd ref="8089664722"/>
    <nd ref="8089626006"/>
    <tag k="brand" v="Lidl"/>
    <tag k="brand:wikidata" v="Q151954"/>
    <tag k="brand:wikipedia" v="en:Lidl"/>
    <tag k="building" v="yes"/>
    <tag k="name" v="Lidl"/>
    <tag k="opening_hours" v="Mo-Su 08:00-22:00"/>
    <tag k="shop" v="supermarket"/>
    <tag k="website" v="https://www.lidl.co.uk/s/en-GB/store-finder/edinburgh/granton/west-granton-road-160/"/>
  </way>
  <way id="874489836" version="3" timestamp="2024-02-25T17:21:32Z" changeset="147900867" uid="14047157" user="osmuser63783">
    <nd ref="33226347"/>
    <nd ref="4377988474"/>
    <tag k="highway" v="primary"/>
    <tag k="junction" v="roundabout"/>
    <tag k="lanes" v="1"/>
    <tag k="maxspeed" v="20 mph"/>
    <tag k="name" v="Granton Square"/>
    <tag k="oneway" v="yes"/>
    <tag k="sidewalk" v="both"/>
    <tag k="source" v="Bing;survey"/>
    <tag k="surface" v="asphalt"/>
  </way>
  <way id="874489837" version="3" timestamp="2024-02-25T17:21:32Z" changeset="147900867" uid="14047157" user="osmuser63783">
    <nd ref="615636"/>
    <nd ref="1102709668"/>
    <nd ref="264163984"/>
    <tag k="highway" v="primary"/>
    <tag k="junction" v="roundabout"/>
    <tag k="lanes" v="1"/>
    <tag k="maxspeed" v="20 mph"/>
    <tag k="name" v="Granton Square"/>
    <tag k="oneway" v="yes"/>
    <tag k="sidewalk" v="both"/>
    <tag k="source" v="Bing;survey"/>
    <tag k="surface" v="asphalt"/>
  </way>
  <way id="874489838" version="3" timestamp="2024-02-25T17:21:32Z" changeset="147900867" uid="14047157" user="osmuser63783">
    <nd ref="4377988474"/>
    <nd ref="2954417851"/>
    <nd ref="2954417867"/>
    <nd ref="2954417860"/>
    <nd ref="1067562388"/>
    <nd ref="2954420832"/>
    <nd ref="615636"/>
    <tag k="highway" v="primary"/>
    <tag k="junction" v="roundabout"/>
    <tag k="lanes" v="1"/>
    <tag k="maxspeed" v="20 mph"/>
    <tag k="name" v="Granton Square"/>
    <tag k="oneway" v="yes"/>
    <tag k="sidewalk" v="both"/>
    <tag k="source" v="Bing;survey"/>
    <tag k="surface" v="asphalt"/>
  </way>
  <way id="874489839" version="4" timestamp="2024-06-13T18:30:08Z" changeset="152645602" uid="20487713" user="iiBus">
    <nd ref="264163986"/>
    <nd ref="2954417857"/>
    <nd ref="637241"/>
    <nd ref="2954421134"/>
    <nd ref="2954417852"/>
    <nd ref="2954417849"/>
    <nd ref="4377988473"/>
    <tag k="highway" v="primary"/>
    <tag k="junction" v="roundabout"/>
    <tag k="lanes" v="1"/>
    <tag k="maxspeed" v="20 mph"/>
    <tag k="name" v="Granton Square"/>
    <tag k="oneway" v="yes"/>
    <tag k="sidewalk" v="both"/>
    <tag k="source" v="Bing;survey"/>
    <tag k="surface" v="asphalt"/>
  </way>
  <way id="874489841" version="3" timestamp="2024-02-25T17:21:32Z" changeset="147900867" uid="14047157" user="osmuser63783">
    <nd ref="615638"/>
    <nd ref="7418727163"/>
    <nd ref="2954417850"/>
    <nd ref="3638060734"/>
    <nd ref="1102709686"/>
    <nd ref="1102709723"/>
    <nd ref="264163986"/>
    <tag k="highway" v="primary"/>
    <tag k="junction" v="roundabout"/>
    <tag k="lanes" v="1"/>
    <tag k="maxspeed" v="20 mph"/>
    <tag k="name" v="Granton Square"/>
    <tag k="oneway" v="yes"/>
    <tag k="sidewalk" v="both"/>
    <tag k="source" v="Bing;survey"/>
    <tag k="surface" v="asphalt"/>
  </way>
  <way id="874489842" version="3" timestamp="2024-02-25T17:21:32Z" changeset="147900867" uid="14047157" user="osmuser63783">
    <nd ref="4450428057"/>
    <nd ref="2954417858"/>
    <nd ref="2954417865"/>
    <nd ref="615638"/>
    <tag k="highway" v="primary"/>
    <tag k="junction" v="roundabout"/>
    <tag k="lanes" v="1"/>
    <tag k="maxspeed" v="20 mph"/>
    <tag k="name" v="Granton Square"/>
    <tag k="oneway" v="yes"/>
    <tag k="sidewalk" v="both"/>
    <tag k="source" v="Bing;survey"/>
    <tag k="surface" v="asphalt"/>
  </way>
  <way id="931934449" version="2" timestamp="2024-10-06T18:45:54Z" changeset="157553725" uid="644769" user="rfadam">
    <nd ref="8639568241"/>
    <nd ref="8639568240"/>
    <nd ref="8639568239"/>
    <nd ref="8639568238"/>
    <nd ref="8639568241"/>
    <tag k="building" v="service"/>
    <tag k="building:levels" v="1"/>
    <tag k="name" v="Merlin Avenue"/>
    <tag k="operator" v="SP Energy Networks"/>
    <tag k="operator:wikidata" v="Q116022116"/>
    <tag k="power" v="substation"/>
    <tag k="substation" v="minor_distribution"/>
  </way>
  <way id="931934504" version="2" timestamp="2025-02-09T00:54:23Z" changeset="162299035" uid="644769" user="rfadam">
    <nd ref="8639568467"/>
    <nd ref="8639568465"/>
    <nd ref="8639568477"/>
    <nd ref="8639568476"/>
    <nd ref="8639568475"/>
    <nd ref="2313070719"/>
    <nd ref="8639568473"/>
    <nd ref="8639568472"/>
    <nd ref="8639568474"/>
    <nd ref="8639568480"/>
    <nd ref="8639568479"/>
    <nd ref="8639568468"/>
    <nd ref="8639568469"/>
    <nd ref="2313070744"/>
    <nd ref="8639568462"/>
    <nd ref="8639568466"/>
    <nd ref="8639568467"/>
    <tag k="addr:city" v="Edinburgh"/>
    <tag k="addr:housenumber" v="2"/>
    <tag k="addr:street" v="Merlin Avenue"/>
    <tag k="building" v="apartments"/>
    <tag k="building:levels" v="7"/>
  </way>
  <way id="1012486049" version="2" timestamp="2025-03-16T12:01:51Z" changeset="163685263" uid="7400464" user="Moohan">
    <nd ref="4030565694"/>
    <nd ref="504011278"/>
    <nd ref="59775867"/>
    <nd ref="800260509"/>
    <nd ref="504011279"/>
    <nd ref="2906480498"/>
    <nd ref="4030565728"/>
    <tag k="cycleway:both" v="no"/>
    <tag k="highway" v="primary"/>
    <tag k="junction" v="roundabout"/>
    <tag k="lit" v="yes"/>
    <tag k="maxspeed" v="30 mph"/>
    <tag k="name" v="Crewe Toll"/>
    <tag k="surface" v="asphalt"/>
  </way>
  <way id="1012486050" version="1" timestamp="2021-12-15T14:41:31Z" changeset="114967460" uid="636803" user="michau">
    <nd ref="4065233357"/>
    <nd ref="59775868"/>
    <nd ref="4030565704"/>
    <nd ref="2906481204"/>
    <nd ref="4065233354"/>
    <tag k="highway" v="primary"/>
    <tag k="junction" v="roundabout"/>
    <tag k="lit" v="yes"/>
    <tag k="maxspeed" v="30 mph"/>
    <tag k="name" v="Crewe Toll"/>
    <tag k="surface" v="asphalt"/>
  </way>
  <way id="1013181616" version="1" timestamp="2021-12-17T21:10:52Z" changeset="115072264" uid="3432400" user="GinaroZ">
    <nd ref="30082304"/>
    <nd ref="769966910"/>
    <nd ref="769966895"/>
    <nd ref="472316875"/>
    <nd ref="4030565695"/>
    <tag k="highway" v="tertiary"/>
    <tag k="lanes" v="2"/>
    <tag k="maxspeed" v="30 mph"/>
    <tag k="name" v="Crewe Road North"/>
    <tag k="surface" v="asphalt"/>
  </way>
  <way id="1013181617" version="1" timestamp="2021-12-17T21:10:52Z" changeset="115072264" uid="3432400" user="GinaroZ">
    <nd ref="30082303"/>
    <nd ref="30082304"/>
    <tag k="highway" v="tertiary"/>
    <tag k="lanes" v="2"/>
    <tag k="maxheight" v="4.8"/>
    <tag k="maxheight:ft" v="15'6&quot;"/>
    <tag k="maxspeed" v="30 mph"/>
    <tag k="name" v="Crewe Road North"/>
    <tag k="surface" v="asphalt"/>
  </way>
  <way id="1047659033" version="1" timestamp="2022-04-03T15:33:45Z" changeset="119269116" uid="6095658" user="e3k2">
    <nd ref="9633587954"/>
    <nd ref="9633587955"/>
    <nd ref="9633587956"/>
    <nd ref="9633587957"/>
    <nd ref="9633587958"/>
    <nd ref="9633587959"/>
    <nd ref="9633587960"/>
    <nd ref="9633587961"/>
    <nd ref="9633587962"/>
    <nd ref="9633587963"/>
    <nd ref="9633587964"/>
    <nd ref="9633587965"/>
    <nd ref="9633587966"/>
    <nd ref="9633587967"/>
    <nd ref="9633587968"/>
    <nd ref="9633587969"/>
    <nd ref="9633587970"/>
    <nd ref="9633587971"/>
    <nd ref="9633587954"/>
    <tag k="building" v="construction"/>
    <tag k="construction" v="school"/>
    <tag k="name" v="Nursery School"/>
  </way>
  <way id="1079447818" version="1" timestamp="2022-07-18T11:46:25Z" changeset="123760351" uid="16577224" user="Reuben @ MoveOn">
    <nd ref="9895075613"/>
    <nd ref="9895075614"/>
    <nd ref="559466017"/>
    <nd ref="559466018"/>
    <nd ref="9895075613"/>
    <tag k="addr:city" v="Edinburgh"/>
    <tag k="addr:housenumber" v="16"/>
    <tag k="addr:street" v="New Broompark"/>
    <tag k="building" v="industrial"/>
    <tag k="name" v="MoveOn Wood Recycling"/>
  </way>
  <way id="1089041310" version="1" timestamp="2022-08-25T10:35:19Z" changeset="125354414" uid="3432400" user="GinaroZ">
    <nd ref="265557977"/>
    <nd ref="8637388962"/>
    <nd ref="8637389023"/>
    <nd ref="8637389026"/>
    <nd ref="8637389025"/>
    <nd ref="265557980"/>
    <tag k="highway" v="residential"/>
    <tag k="lanes" v="2"/>
    <tag k="lit" v="yes"/>
    <tag k="maxspeed" v="20 mph"/>
    <tag k="name" v="Heron Place"/>
    <tag k="sidewalk" v="left"/>
    <tag k="source:name" v="OS_OpenData_Locator"/>
    <tag k="surface" v="asphalt"/>
  </way>
  <way id="1089041311" version="2" timestamp="2023-09-21T09:01:27Z" changeset="141548295" uid="3500921" user="camlewwri">
    <nd ref="2313070729"/>
    <nd ref="9976784140"/>
    <nd ref="11207227930"/>
    <nd ref="9976784139"/>
    <tag k="highway" v="residential"/>
    <tag k="maxspeed" v="20 mph"/>
    <tag k="name" v="Heron Lane"/>
    <tag k="sidewalk" v="left"/>
    <tag k="source:name" v="OS_OpenData_Locator"/>
  </way>
  <way id="1158776113" version="1" timestamp="2023-03-31T17:56:25Z" changeset="134355406" uid="64920" user="shaydon">
    <nd ref="4065233354"/>
    <nd ref="4065233355"/>
    <tag k="highway" v="primary"/>
    <tag k="junction" v="roundabout"/>
    <tag k="lit" v="yes"/>
    <tag k="maxspeed" v="30 mph"/>
    <tag k="name" v="Crewe Toll"/>
    <tag k="surface" v="asphalt"/>
  </way>
  <way id="1158776120" version="1" timestamp="2023-03-31T17:56:25Z" changeset="134355406" uid="64920" user="shaydon">
    <nd ref="4065233361"/>
    <nd ref="4030565694"/>
    <tag k="highway" v="primary"/>
    <tag k="junction" v="roundabout"/>
    <tag k="lit" v="yes"/>
    <tag k="maxspeed" v="30 mph"/>
    <tag k="name" v="Crewe Toll"/>
    <tag k="surface" v="asphalt"/>
  </way>
  <way id="1189844692" version="1" timestamp="2023-07-15T15:13:30Z" changeset="138548799" uid="3432400" user="GinaroZ">
    <nd ref="11048087086"/>
    <nd ref="11048087087"/>
    <nd ref="11048087088"/>
    <nd ref="11048087089"/>
    <nd ref="11048087086"/>
    <tag k="building" v="yes"/>
    <tag k="name" v="Stand"/>
  </way>
  <way id="1203304204" version="1" timestamp="2023-08-29T20:40:51Z" changeset="140559295" uid="463360" user="John-O">
    <nd ref="265557973"/>
    <nd ref="2313070729"/>
    <tag k="highway" v="residential"/>
    <tag k="lanes" v="2"/>
    <tag k="lit" v="yes"/>
    <tag k="maxspeed" v="20 mph"/>
    <tag k="name" v="Hesperus Crossway"/>
    <tag k="sidewalk" v="separate"/>
    <tag k="source" v="survey"/>
    <tag k="surface" v="asphalt"/>
  </way>
  <way id="1203304205" version="1" timestamp="2023-08-29T20:40:51Z" changeset="140559295" uid="463360" user="John-O">
    <nd ref="265557961"/>
    <nd ref="265557973"/>
    <tag k="highway" v="residential"/>
    <tag k="lanes" v="2"/>
    <tag k="lit" v="yes"/>
    <tag k="maxspeed" v="20 mph"/>
    <tag k="name" v="Hesperus Crossway"/>
    <tag k="sidewalk" v="separate"/>
    <tag k="source" v="survey"/>
    <tag k="surface" v="asphalt"/>
  </way>
  <way id="1221150006" version="1" timestamp="2023-11-04T23:04:31Z" changeset="143632916" uid="5008136" user="JayTurnr">
    <nd ref="31493445"/>
    <nd ref="4347197503"/>
    <nd ref="4347197507"/>
    <nd ref="31493454"/>
    <tag k="highway" v="residential"/>
    <tag k="maxspeed" v="20 mph"/>
    <tag k="name" v="Wardieburn Place East"/>
  </way>
  <way id="1221150007" version="1" timestamp="2023-11-04T23:04:31Z" changeset="143632916" uid="5008136" user="JayTurnr">
    <nd ref="31493500"/>
    <nd ref="4380701741"/>
    <nd ref="4347197496"/>
    <nd ref="31493501"/>
    <tag k="highway" v="residential"/>
    <tag k="maxspeed" v="20 mph"/>
    <tag k="name" v="Wardieburn Place West"/>
  </way>
  <way id="1221150008" version="1" timestamp="2023-11-04T23:04:31Z" changeset="143632916" uid="5008136" user="JayTurnr">
    <nd ref="31493492"/>
    <nd ref="4380701737"/>
    <nd ref="3733390201"/>
    <nd ref="4380701738"/>
    <nd ref="31493498"/>
    <tag k="highway" v="residential"/>
    <tag k="maxspeed" v="20 mph"/>
    <tag k="name" v="Wardieburn Place West"/>
  </way>
  <way id="1292173828" version="1" timestamp="2024-06-13T18:30:08Z" changeset="152645602" uid="20487713" user="iiBus">
    <nd ref="4377988473"/>
    <nd ref="11978930290"/>
    <nd ref="33226347"/>
    <tag k="highway" v="primary"/>
    <tag k="junction" v="roundabout"/>
    <tag k="lanes" v="1"/>
    <tag k="maxspeed" v="20 mph"/>
    <tag k="name" v="Granton Square"/>
    <tag k="oneway" v="yes"/>
    <tag k="sidewalk" v="both"/>
    <tag k="source" v="Bing;survey"/>
    <tag k="surface" v="asphalt"/>
  </way>
  <relation id="13217815" version="2" timestamp="2024-02-28T11:06:03Z" changeset="148008477" uid="6816132" user="CjMalone">
    <member type="way" ref="729065397" role="outer"/>
    <member type="way" ref="729065399" role="inner"/>
    <member type="way" ref="729065398" role="inner"/>
    <tag k="addr:city" v="Edinburgh"/>
    <tag k="addr:housenumber" v="7"/>
    <tag k="addr:postcode" v="EH5 1LE"/>
    <tag k="addr:street" v="Royston Mains Avenue"/>
    <tag k="amenity" v="social_facility"/>
    <tag k="building" v="yes"/>
    <tag k="capacity" v="60"/>
    <tag k="fhrs:id" v="971312"/>
    <tag k="name" v="Royston Court Care Home"/>
    <tag k="operator" v="City of Edinburgh Council"/>
    <tag k="social_facility" v="nursing_home"/>
    <tag k="type" v="multipolygon"/>
  </relation>

</osm>
