<?xml version="1.0" encoding="UTF-8"?>
<osm version="0.6" generator="Overpass API 0.7.62.5 1bd436f1">
<note>The data included in this document is from www.openstreetmap.org. The data is made available under ODbL.</note>
<meta osm_base="2025-05-17T21:32:10Z" areas="2024-12-31T00:49:33Z"/>

  <node id="27523054" lat="55.8921659" lon="-3.3905151" version="4" timestamp="2018-07-11T21:06:43Z" changeset="60628280" uid="6164655" user="Mike Parfitt"/>
  <node id="27523068" lat="55.8927665" lon="-3.3831316" version="2" timestamp="2014-02-19T21:29:42Z" changeset="20664598" uid="388774" user="drnoble"/>
  <node id="27523107" lat="55.8940947" lon="-3.3482466" version="2" timestamp="2016-06-26T19:03:02Z" changeset="40306761" uid="388774" user="drnoble"/>
  <node id="38029923" lat="55.8928862" lon="-3.3340746" version="3" timestamp="2014-01-03T20:05:01Z" changeset="19794125" uid="388774" user="drnoble"/>
  <node id="38035515" lat="55.8913970" lon="-3.3317859" version="2" timestamp="2014-01-03T20:05:02Z" changeset="19794125" uid="388774" user="drnoble"/>
  <node id="38036891" lat="55.8931843" lon="-3.3294843" version="2" timestamp="2014-01-03T20:05:02Z" changeset="19794125" uid="388774" user="drnoble"/>
  <node id="108412586" lat="55.8744020" lon="-3.3926162" version="16" timestamp="2021-08-29T08:32:37Z" changeset="110403069" uid="388774" user="drnoble"/>
  <node id="279280403" lat="55.8913925" lon="-3.3252851" version="3" timestamp="2021-08-07T15:04:42Z" changeset="109314273" uid="388774" user="drnoble"/>
  <node id="2608456768" lat="55.8928461" lon="-3.3353503" version="3" timestamp="2023-06-20T21:14:22Z" changeset="137579703" uid="2578" user="Nilz">
    <tag k="addr:city" v="Balerno"/>
    <tag k="addr:housenumber" v="26"/>
    <tag k="addr:postcode" v="EH14 5SU"/>
    <tag k="addr:street" v="Newmills Road"/>
    <tag k="building" v="residential"/>
  </node>
  <node id="3125636537" lat="55.8720859" lon="-3.4117712" version="1" timestamp="2014-10-12T11:01:04Z" changeset="26023222" uid="388774" user="drnoble"/>
  <node id="3642930429" lat="55.8874221" lon="-3.3014176" version="2" timestamp="2022-04-16T12:45:34Z" changeset="119783099" uid="388774" user="drnoble"/>
  <node id="8443657115" lat="55.8783487" lon="-3.4137011" version="1" timestamp="2021-02-21T21:25:50Z" changeset="99699882" uid="4228331" user="mountainmonkey"/>
  <node id="8443657116" lat="55.8784277" lon="-3.4137788" version="1" timestamp="2021-02-21T21:25:50Z" changeset="99699882" uid="4228331" user="mountainmonkey"/>
  <way id="4489712" version="16" timestamp="2024-08-27T16:46:49Z" changeset="155841699" uid="21762849" user="jSeke">
    <nd ref="27523115"/>
    <nd ref="4266867819"/>
    <nd ref="27523116"/>
    <nd ref="7211728916"/>
    <nd ref="38027621"/>
    <nd ref="8903651293"/>
    <nd ref="2612042642"/>
    <nd ref="27523117"/>
    <nd ref="6825236111"/>
    <nd ref="27523118"/>
    <nd ref="27523119"/>
    <nd ref="1972464065"/>
    <tag k="cycleway:both" v="no"/>
    <tag k="highway" v="primary"/>
    <tag k="maxspeed" v="30 mph"/>
    <tag k="name" v="Lanark Road West"/>
    <tag k="name:gd" v="Rathad Lannraig an Iar"/>
    <tag k="ref" v="A70"/>
    <tag k="surface" v="asphalt"/>
  </way>
  <way id="4489713" version="11" timestamp="2024-08-18T08:54:11Z" changeset="155402389" uid="45452" user="Simon Eilting">
    <nd ref="27523120"/>
    <nd ref="8988037004"/>
    <nd ref="1972464034"/>
    <nd ref="8988037007"/>
    <nd ref="11986345184"/>
    <nd ref="27523121"/>
    <tag k="cycleway:both" v="no"/>
    <tag k="highway" v="tertiary"/>
    <tag k="lanes" v="2"/>
    <tag k="lit" v="yes"/>
    <tag k="maxspeed" v="30 mph"/>
    <tag k="name" v="Bridge Road"/>
    <tag k="sidewalk" v="left"/>
    <tag k="surface" v="asphalt"/>
  </way>
  <way id="4489714" version="6" timestamp="2020-12-16T00:33:03Z" changeset="95905762" uid="3432400" user="GinaroZ">
    <nd ref="27523109"/>
    <nd ref="27523110"/>
    <nd ref="27523111"/>
    <nd ref="8232761629"/>
    <nd ref="27523112"/>
    <tag k="highway" v="unclassified"/>
    <tag k="lanes" v="2"/>
    <tag k="lit" v="yes"/>
    <tag k="maxspeed" v="60 mph"/>
    <tag k="name" v="Ravelrig Road"/>
    <tag k="sidewalk" v="no"/>
  </way>
  <way id="4489715" version="6" timestamp="2019-12-20T04:43:48Z" changeset="78664331" uid="10455639" user="srderang">
    <nd ref="27523112"/>
    <nd ref="27523113"/>
    <nd ref="7071343510"/>
    <nd ref="27523114"/>
    <nd ref="4266867845"/>
    <tag k="highway" v="residential"/>
    <tag k="lanes" v="2"/>
    <tag k="lit" v="yes"/>
    <tag k="maxspeed" v="20 mph"/>
    <tag k="name" v="Ravelrig Road"/>
    <tag k="sidewalk" v="left"/>
  </way>
  <way id="4489716" version="4" timestamp="2016-06-26T19:03:00Z" changeset="40306761" uid="388774" user="drnoble">
    <nd ref="27523107"/>
    <nd ref="27523109"/>
    <tag k="bridge" v="yes"/>
    <tag k="highway" v="unclassified"/>
    <tag k="lanes" v="2"/>
    <tag k="layer" v="2"/>
    <tag k="lit" v="yes"/>
    <tag k="maxspeed" v="60 mph"/>
    <tag k="name" v="Ravelrig Road"/>
    <tag k="sidewalk" v="no"/>
    <tag k="source:name" v="survey"/>
  </way>
  <way id="4519519" version="8" timestamp="2017-10-25T20:39:15Z" changeset="53246810" uid="307399" user="Pawcio">
    <nd ref="27523056"/>
    <nd ref="2815607027"/>
    <nd ref="2681281277"/>
    <nd ref="27523057"/>
    <nd ref="27523058"/>
    <tag k="highway" v="unclassified"/>
    <tag k="lanes" v="2"/>
    <tag k="lit" v="no"/>
    <tag k="maxspeed" v="60 mph"/>
    <tag k="name" v="Long Dalmahoy Road"/>
    <tag k="surface" v="asphalt"/>
  </way>
  <way id="4519520" version="11" timestamp="2017-10-25T20:39:15Z" changeset="53246810" uid="307399" user="Pawcio">
    <nd ref="27523054"/>
    <nd ref="27523056"/>
    <tag k="bridge" v="yes"/>
    <tag k="highway" v="unclassified"/>
    <tag k="lanes" v="1"/>
    <tag k="layer" v="1"/>
    <tag k="lit" v="no"/>
    <tag k="maxspeed" v="60 mph"/>
    <tag k="maxweight" v="7.5"/>
    <tag k="name" v="Long Dalmahoy Road"/>
    <tag k="surface" v="asphalt"/>
  </way>
  <way id="4519522" version="7" timestamp="2017-05-11T22:54:09Z" changeset="48607286" uid="307399" user="Pawcio">
    <nd ref="27523068"/>
    <nd ref="27523070"/>
    <tag k="bridge" v="yes"/>
    <tag k="highway" v="tertiary"/>
    <tag k="lanes" v="1"/>
    <tag k="layer" v="1"/>
    <tag k="lit" v="no"/>
    <tag k="maxspeed" v="60 mph"/>
    <tag k="name" v="Long Dalmahoy Road"/>
    <tag k="surface" v="asphalt"/>
  </way>
  <way id="4624607" version="13" timestamp="2022-04-16T12:45:34Z" changeset="119783099" uid="388774" user="drnoble">
    <nd ref="3642930429"/>
    <nd ref="9670110538"/>
    <nd ref="9670110539"/>
    <nd ref="29371764"/>
    <nd ref="29371765"/>
    <nd ref="3642930430"/>
    <nd ref="29371768"/>
    <nd ref="29371769"/>
    <nd ref="3120654696"/>
    <nd ref="29371770"/>
    <nd ref="29371771"/>
    <nd ref="3642930428"/>
    <nd ref="29371773"/>
    <nd ref="3120654697"/>
    <nd ref="29371774"/>
    <nd ref="29371775"/>
    <nd ref="29371776"/>
    <nd ref="1576686933"/>
    <tag k="highway" v="unclassified"/>
    <tag k="lanes" v="2"/>
    <tag k="lit" v="no"/>
    <tag k="maxspeed" v="60 mph"/>
    <tag k="name" v="Harlaw Road"/>
    <tag k="sidewalk" v="no"/>
    <tag k="surface" v="asphalt"/>
  </way>
  <way id="4624612" version="21" timestamp="2022-04-16T09:48:06Z" changeset="119777232" uid="388774" user="drnoble">
    <nd ref="3642929906"/>
    <nd ref="6291080330"/>
    <nd ref="29371911"/>
    <nd ref="29371912"/>
    <nd ref="9669821783"/>
    <nd ref="29371913"/>
    <nd ref="29371914"/>
    <nd ref="29371915"/>
    <nd ref="29371916"/>
    <nd ref="29371917"/>
    <nd ref="9669821772"/>
    <nd ref="29371918"/>
    <nd ref="9669821771"/>
    <nd ref="29371919"/>
    <nd ref="29371920"/>
    <nd ref="9669821770"/>
    <nd ref="29371921"/>
    <nd ref="29371922"/>
    <nd ref="29371923"/>
    <nd ref="5986612470"/>
    <nd ref="29371924"/>
    <nd ref="29371925"/>
    <nd ref="2623875342"/>
    <nd ref="29371926"/>
    <nd ref="7108961134"/>
    <tag k="highway" v="unclassified"/>
    <tag k="lanes" v="2"/>
    <tag k="lit" v="no"/>
    <tag k="maxspeed" v="60 mph"/>
    <tag k="name" v="Mansfield Road"/>
    <tag k="sidewalk" v="no"/>
    <tag k="surface" v="asphalt"/>
  </way>
  <way id="4828370" version="6" timestamp="2022-04-10T14:19:15Z" changeset="119537670" uid="388774" user="drnoble">
    <nd ref="31040168"/>
    <nd ref="9656032087"/>
    <nd ref="31040171"/>
    <nd ref="365039756"/>
    <nd ref="365039759"/>
    <nd ref="365039762"/>
    <nd ref="365039765"/>
    <nd ref="365039767"/>
    <nd ref="365039768"/>
    <nd ref="365039770"/>
    <nd ref="7432503061"/>
    <nd ref="365039772"/>
    <tag k="highway" v="residential"/>
    <tag k="maxspeed" v="20 mph"/>
    <tag k="name" v="Millbank"/>
  </way>
  <way id="4828372" version="11" timestamp="2023-09-30T11:28:37Z" changeset="141947059" uid="1807190" user="happymapper">
    <nd ref="3642929911"/>
    <nd ref="9669819395"/>
    <nd ref="3642929912"/>
    <nd ref="3642929913"/>
    <nd ref="3642929914"/>
    <nd ref="2946823767"/>
    <nd ref="2946823768"/>
    <nd ref="3642929915"/>
    <nd ref="3642929916"/>
    <nd ref="289247058"/>
    <nd ref="3642929917"/>
    <nd ref="2946823772"/>
    <nd ref="2946823773"/>
    <nd ref="2946823774"/>
    <nd ref="11228796971"/>
    <nd ref="8310419786"/>
    <nd ref="2946823775"/>
    <nd ref="8310419793"/>
    <nd ref="9127957224"/>
    <nd ref="3642929918"/>
    <nd ref="9127957222"/>
    <nd ref="2946823777"/>
    <nd ref="2946823778"/>
    <nd ref="3642929919"/>
    <tag k="highway" v="unclassified"/>
  </way>
  <way id="5241634" version="33" timestamp="2024-08-27T16:46:49Z" changeset="155841699" uid="21762849" user="jSeke">
    <nd ref="27523115"/>
    <nd ref="36886284"/>
    <nd ref="4266867802"/>
    <nd ref="2612042449"/>
    <nd ref="36886283"/>
    <nd ref="845855677"/>
    <nd ref="279286431"/>
    <nd ref="6293401675"/>
    <nd ref="8232761653"/>
    <nd ref="6293401673"/>
    <nd ref="279288217"/>
    <nd ref="36886280"/>
    <nd ref="279288725"/>
    <nd ref="2612042203"/>
    <nd ref="36886279"/>
    <nd ref="2612042188"/>
    <nd ref="108412434"/>
    <nd ref="108412439"/>
    <nd ref="108412445"/>
    <nd ref="1440474083"/>
    <nd ref="108412451"/>
    <nd ref="108412455"/>
    <nd ref="2612042146"/>
    <nd ref="108412461"/>
    <nd ref="2612042142"/>
    <nd ref="108412465"/>
    <nd ref="108412468"/>
    <nd ref="108412474"/>
    <nd ref="1440473687"/>
    <nd ref="108412478"/>
    <nd ref="1440474004"/>
    <nd ref="108412481"/>
    <nd ref="1440473669"/>
    <nd ref="108412488"/>
    <nd ref="108412493"/>
    <nd ref="1440473812"/>
    <nd ref="108412498"/>
    <nd ref="1440473699"/>
    <nd ref="1440473701"/>
    <nd ref="2048747375"/>
    <tag k="highway" v="primary"/>
    <tag k="lanes" v="2"/>
    <tag k="maxspeed" v="30 mph"/>
    <tag k="name" v="Lanark Road West"/>
    <tag k="name:gd" v="Rathad Lannraig an Iar"/>
    <tag k="ref" v="A70"/>
    <tag k="surface" v="asphalt"/>
  </way>
  <way id="5241763" version="7" timestamp="2021-08-07T15:04:42Z" changeset="109314273" uid="388774" user="drnoble">
    <nd ref="36887089"/>
    <nd ref="8988037003"/>
    <nd ref="36887286"/>
    <nd ref="1972467711"/>
    <tag k="highway" v="residential"/>
    <tag k="maxspeed" v="30 mph"/>
    <tag k="name" v="Station Loan"/>
    <tag k="source" v="yahoo tracing"/>
  </way>
  <way id="5241790" version="4" timestamp="2019-02-26T23:41:23Z" changeset="67600482" uid="3432400" user="GinaroZ">
    <nd ref="27523114"/>
    <nd ref="36887402"/>
    <nd ref="36887403"/>
    <nd ref="36887404"/>
    <nd ref="36887405"/>
    <nd ref="36887406"/>
    <tag k="highway" v="residential"/>
    <tag k="maxspeed" v="20 mph"/>
    <tag k="name" v="Turner Avenue"/>
    <tag k="source" v="yahoo tracing"/>
  </way>
  <way id="5241792" version="4" timestamp="2019-02-26T23:41:24Z" changeset="67600482" uid="3432400" user="GinaroZ">
    <nd ref="36887405"/>
    <nd ref="36887422"/>
    <nd ref="36887423"/>
    <tag k="highway" v="residential"/>
    <tag k="maxspeed" v="20 mph"/>
    <tag k="name" v="Turner Park"/>
    <tag k="source" v="yahoo tracing"/>
  </way>
  <way id="5241877" version="6" timestamp="2019-02-26T23:41:23Z" changeset="67600482" uid="3432400" user="GinaroZ">
    <nd ref="27523113"/>
    <nd ref="36887882"/>
    <nd ref="2612448888"/>
    <nd ref="36887883"/>
    <nd ref="2612448879"/>
    <nd ref="36887884"/>
    <nd ref="36887885"/>
    <nd ref="36887406"/>
    <nd ref="2612448735"/>
    <nd ref="36887886"/>
    <nd ref="36887887"/>
    <nd ref="36887888"/>
    <nd ref="36887889"/>
    <nd ref="36887890"/>
    <nd ref="36887891"/>
    <nd ref="36887892"/>
    <nd ref="1972458108"/>
    <nd ref="1972458113"/>
    <tag k="highway" v="residential"/>
    <tag k="maxspeed" v="20 mph"/>
    <tag k="name" v="Dalmahoy Crescent"/>
    <tag k="source" v="yahoo tracing"/>
  </way>
  <way id="5241910" version="4" timestamp="2019-02-26T23:41:24Z" changeset="67600482" uid="3432400" user="GinaroZ">
    <nd ref="36887888"/>
    <nd ref="36888090"/>
    <tag k="highway" v="residential"/>
    <tag k="maxspeed" v="20 mph"/>
    <tag k="name" v="Horsburgh Bank"/>
    <tag k="source" v="yahoo tracing"/>
  </way>
  <way id="5241932" version="5" timestamp="2019-02-26T23:41:24Z" changeset="67600482" uid="3432400" user="GinaroZ">
    <nd ref="36887887"/>
    <nd ref="36888145"/>
    <tag k="highway" v="residential"/>
    <tag k="maxspeed" v="20 mph"/>
    <tag k="name" v="Horsburgh Grove"/>
    <tag k="source" v="yahoo tracing"/>
  </way>
  <way id="5241951" version="5" timestamp="2019-02-26T23:41:24Z" changeset="67600482" uid="3432400" user="GinaroZ">
    <nd ref="36887886"/>
    <nd ref="36888250"/>
    <nd ref="36888251"/>
    <nd ref="36888252"/>
    <nd ref="1972493932"/>
    <nd ref="36888253"/>
    <tag k="highway" v="residential"/>
    <tag k="maxspeed" v="20 mph"/>
    <tag k="name" v="Addiston Crescent"/>
    <tag k="source" v="yahoo tracing"/>
  </way>
  <way id="5241953" version="4" timestamp="2019-02-26T23:41:24Z" changeset="67600482" uid="3432400" user="GinaroZ">
    <nd ref="36888250"/>
    <nd ref="36888256"/>
    <nd ref="36888257"/>
    <tag k="highway" v="residential"/>
    <tag k="maxspeed" v="20 mph"/>
    <tag k="name" v="Addiston Park"/>
    <tag k="source" v="yahoo tracing"/>
  </way>
  <way id="5242164" version="4" timestamp="2019-02-26T23:41:24Z" changeset="67600482" uid="3432400" user="GinaroZ">
    <nd ref="36888252"/>
    <nd ref="36889440"/>
    <tag k="highway" v="residential"/>
    <tag k="maxspeed" v="20 mph"/>
    <tag k="name" v="Addiston Grove"/>
    <tag k="source" v="yahoo tracing"/>
  </way>
  <way id="5333030" version="5" timestamp="2019-02-26T23:41:25Z" changeset="67600482" uid="3432400" user="GinaroZ">
    <nd ref="38026715"/>
    <nd ref="4266867844"/>
    <nd ref="4266867843"/>
    <nd ref="38027568"/>
    <nd ref="38027569"/>
    <nd ref="4266867830"/>
    <nd ref="38027573"/>
    <nd ref="4266867829"/>
    <nd ref="38027574"/>
    <tag k="highway" v="residential"/>
    <tag k="maxspeed" v="20 mph"/>
    <tag k="name" v="Ravelrig Road"/>
    <tag k="source" v="yahoo tracing"/>
  </way>
  <way id="5333136" version="6" timestamp="2019-02-26T23:41:24Z" changeset="67600482" uid="3432400" user="GinaroZ">
    <nd ref="38027621"/>
    <nd ref="38028364"/>
    <nd ref="860275375"/>
    <nd ref="38028365"/>
    <nd ref="4139569006"/>
    <nd ref="860277498"/>
    <nd ref="38028366"/>
    <nd ref="38028369"/>
    <nd ref="4139568999"/>
    <nd ref="4139568998"/>
    <nd ref="4139568997"/>
    <nd ref="4139568996"/>
    <tag k="highway" v="residential"/>
    <tag k="maxspeed" v="20 mph"/>
    <tag k="name" v="Lanark Road West"/>
    <tag k="source" v="yahoo tracing"/>
  </way>
  <way id="5333302" version="8" timestamp="2024-08-18T08:53:07Z" changeset="155402389" uid="45452" user="Simon Eilting">
    <nd ref="38028857"/>
    <nd ref="2608455720"/>
    <nd ref="2608455749"/>
    <nd ref="2608455840"/>
    <nd ref="38034560"/>
    <nd ref="38035615"/>
    <nd ref="38035432"/>
    <nd ref="38029919"/>
    <nd ref="5768020491"/>
    <nd ref="38029920"/>
    <nd ref="38029922"/>
    <nd ref="38033483"/>
    <nd ref="2608456408"/>
    <nd ref="2608456720"/>
    <nd ref="2608456756"/>
    <nd ref="38029923"/>
    <tag k="cycleway:both" v="no"/>
    <tag k="highway" v="residential"/>
    <tag k="maxspeed" v="20 mph"/>
    <tag k="name" v="Newmills Road"/>
    <tag k="source" v="yahoo tracing"/>
  </way>
  <way id="5333322" version="3" timestamp="2019-02-26T00:28:20Z" changeset="67566400" uid="3432400" user="GinaroZ">
    <nd ref="38029922"/>
    <nd ref="38030208"/>
    <nd ref="38030211"/>
    <tag k="highway" v="residential"/>
    <tag k="maxspeed" v="20 mph"/>
    <tag k="name" v="Old Newmills Road"/>
    <tag k="source" v="yahoo tracing"/>
  </way>
  <way id="5333571" version="11" timestamp="2022-01-09T16:27:56Z" changeset="115949685" uid="417398" user="saintam1">
    <nd ref="38029923"/>
    <nd ref="2608456786"/>
    <nd ref="2608456749"/>
    <nd ref="1447603557"/>
    <nd ref="38030211"/>
    <nd ref="6335959201"/>
    <nd ref="38031886"/>
    <nd ref="8232761582"/>
    <nd ref="38031887"/>
    <nd ref="8618950790"/>
    <nd ref="38031889"/>
    <tag k="highway" v="residential"/>
    <tag k="lit" v="no"/>
    <tag k="maxspeed" v="20 mph"/>
    <tag k="name" v="Newmills Road"/>
    <tag k="sidewalk" v="no"/>
    <tag k="source" v="yahoo tracing"/>
    <tag k="surface" v="asphalt"/>
  </way>
  <way id="5333574" version="4" timestamp="2019-02-26T00:28:20Z" changeset="67566400" uid="3432400" user="GinaroZ">
    <nd ref="38031903"/>
    <nd ref="1447603556"/>
    <nd ref="38031960"/>
    <nd ref="38031904"/>
    <tag k="highway" v="residential"/>
    <tag k="maxspeed" v="20 mph"/>
    <tag k="name" v="Curriehill Castle Drive"/>
    <tag k="source" v="yahoo tracing"/>
  </way>
  <way id="5333581" version="3" timestamp="2019-02-26T00:28:20Z" changeset="67566400" uid="3432400" user="GinaroZ">
    <nd ref="38031958"/>
    <nd ref="38031960"/>
    <tag k="highway" v="residential"/>
    <tag k="maxspeed" v="20 mph"/>
    <tag k="name" v="Curriehill Castle Drive"/>
    <tag k="source" v="yahoo tracing"/>
  </way>
  <way id="5333636" version="5" timestamp="2019-02-26T00:28:18Z" changeset="67566400" uid="3432400" user="GinaroZ">
    <nd ref="38032513"/>
    <nd ref="38031958"/>
    <nd ref="2608457120"/>
    <nd ref="38029932"/>
    <nd ref="2608457257"/>
    <nd ref="1447603555"/>
    <nd ref="38032515"/>
    <nd ref="1447603550"/>
    <nd ref="38032516"/>
    <nd ref="2608457424"/>
    <nd ref="38032519"/>
    <nd ref="2608457450"/>
    <nd ref="38032521"/>
    <nd ref="2608457480"/>
    <nd ref="38032523"/>
    <nd ref="38032526"/>
    <nd ref="2608457592"/>
    <nd ref="38032528"/>
    <tag k="highway" v="residential"/>
    <tag k="maxspeed" v="20 mph"/>
    <tag k="name" v="Curriehill Castle Drive"/>
    <tag k="source" v="yahoo tracing"/>
  </way>
  <way id="5333643" version="4" timestamp="2019-02-26T00:28:18Z" changeset="67566400" uid="3432400" user="GinaroZ">
    <nd ref="38032526"/>
    <nd ref="2608457599"/>
    <nd ref="38032566"/>
    <nd ref="2608457648"/>
    <nd ref="2608457667"/>
    <nd ref="38032569"/>
    <tag k="highway" v="residential"/>
    <tag k="maxspeed" v="20 mph"/>
    <tag k="name" v="Curriehill Castle Drive"/>
    <tag k="source" v="yahoo tracing"/>
  </way>
  <way id="5333676" version="5" timestamp="2019-02-26T23:41:23Z" changeset="67600482" uid="3432400" user="GinaroZ">
    <nd ref="38032521"/>
    <nd ref="2608457513"/>
    <nd ref="38032909"/>
    <nd ref="38032910"/>
    <nd ref="2608457617"/>
    <nd ref="38032915"/>
    <tag k="highway" v="residential"/>
    <tag k="maxspeed" v="20 mph"/>
    <tag k="name" v="Curriehill Castle Drive"/>
    <tag k="source" v="yahoo tracing"/>
  </way>
  <way id="5333685" version="4" timestamp="2019-02-26T23:41:23Z" changeset="67600482" uid="3432400" user="GinaroZ">
    <nd ref="38032910"/>
    <nd ref="38033008"/>
    <nd ref="2608457585"/>
    <nd ref="38033009"/>
    <nd ref="38033013"/>
    <tag k="highway" v="residential"/>
    <tag k="maxspeed" v="20 mph"/>
    <tag k="name" v="Curriehill Castle Drive"/>
    <tag k="source" v="yahoo tracing"/>
  </way>
  <way id="5333785" version="4" timestamp="2019-02-26T00:28:19Z" changeset="67566400" uid="3432400" user="GinaroZ">
    <nd ref="38033483"/>
    <nd ref="38033833"/>
    <nd ref="2608456391"/>
    <nd ref="38033834"/>
    <nd ref="2608456487"/>
    <nd ref="38033837"/>
    <nd ref="38033841"/>
    <nd ref="38033842"/>
    <nd ref="2608456969"/>
    <nd ref="38033843"/>
    <nd ref="2608457262"/>
    <nd ref="38033844"/>
    <nd ref="2608457371"/>
    <nd ref="38033845"/>
    <nd ref="2608457425"/>
    <tag k="highway" v="residential"/>
    <tag k="maxspeed" v="20 mph"/>
    <tag k="name" v="Newmills Crescent"/>
    <tag k="source" v="bing"/>
  </way>
  <way id="5333813" version="4" timestamp="2020-04-23T12:05:06Z" changeset="84000836" uid="10455640" user="madnikhi">
    <nd ref="38033842"/>
    <nd ref="38034072"/>
    <nd ref="38034073"/>
    <nd ref="7438040296"/>
    <nd ref="38034074"/>
    <tag k="highway" v="residential"/>
    <tag k="maxspeed" v="20 mph"/>
    <tag k="name" v="Newmills Crescent"/>
    <tag k="source" v="yahoo tracing"/>
  </way>
  <way id="5333865" version="4" timestamp="2019-02-26T00:28:19Z" changeset="67566400" uid="3432400" user="GinaroZ">
    <nd ref="38033834"/>
    <nd ref="2608456528"/>
    <nd ref="38034463"/>
    <nd ref="2608456683"/>
    <nd ref="38034465"/>
    <nd ref="38034467"/>
    <tag k="highway" v="residential"/>
    <tag k="maxspeed" v="20 mph"/>
    <tag k="name" v="Newmills Grove"/>
    <tag k="source" v="yahoo tracing"/>
  </way>
  <way id="5333896" version="5" timestamp="2019-02-26T00:28:19Z" changeset="67566400" uid="3432400" user="GinaroZ">
    <nd ref="38034560"/>
    <nd ref="38034855"/>
    <nd ref="38034858"/>
    <nd ref="2608455988"/>
    <nd ref="38034859"/>
    <nd ref="38034863"/>
    <nd ref="38034864"/>
    <nd ref="38034866"/>
    <nd ref="38034867"/>
    <tag k="highway" v="residential"/>
    <tag k="maxspeed" v="20 mph"/>
    <tag k="name" v="Willow Tree Place"/>
    <tag k="source" v="yahoo tracing"/>
  </way>
  <way id="5333993" version="7" timestamp="2019-02-26T00:28:19Z" changeset="67566400" uid="3432400" user="GinaroZ">
    <nd ref="38035432"/>
    <nd ref="2608456146"/>
    <nd ref="38035514"/>
    <nd ref="38035515"/>
    <tag k="highway" v="residential"/>
    <tag k="maxspeed" v="20 mph"/>
    <tag k="name" v="Cherry Tree Park"/>
    <tag k="oneway" v="yes"/>
    <tag k="source" v="yahoo tracing"/>
  </way>
  <way id="5334007" version="6" timestamp="2019-02-26T00:28:19Z" changeset="67566400" uid="3432400" user="GinaroZ">
    <nd ref="38035515"/>
    <nd ref="38035614"/>
    <nd ref="2608456133"/>
    <nd ref="38035615"/>
    <tag k="highway" v="residential"/>
    <tag k="maxspeed" v="20 mph"/>
    <tag k="name" v="Cherry Tree Park"/>
    <tag k="oneway" v="yes"/>
    <tag k="source" v="yahoo tracing"/>
  </way>
  <way id="5334215" version="4" timestamp="2019-02-26T00:28:19Z" changeset="67566400" uid="3432400" user="GinaroZ">
    <nd ref="38036885"/>
    <nd ref="38037176"/>
    <nd ref="38037177"/>
    <tag k="highway" v="residential"/>
    <tag k="maxspeed" v="20 mph"/>
    <tag k="name" v="Cherry Tree Grove"/>
    <tag k="source" v="yahoo tracing"/>
  </way>
  <way id="5334295" version="6" timestamp="2019-02-26T00:28:19Z" changeset="67566400" uid="3432400" user="GinaroZ">
    <nd ref="38035515"/>
    <nd ref="38037632"/>
    <nd ref="2608456053"/>
    <nd ref="38037634"/>
    <nd ref="2608456013"/>
    <nd ref="38037635"/>
    <nd ref="2608456061"/>
    <nd ref="1446552937"/>
    <nd ref="1446552942"/>
    <nd ref="2608456137"/>
    <nd ref="38037637"/>
    <nd ref="2608456194"/>
    <nd ref="38037640"/>
    <nd ref="2608456266"/>
    <nd ref="2608456410"/>
    <nd ref="38037641"/>
    <nd ref="38036888"/>
    <tag k="highway" v="residential"/>
    <tag k="maxspeed" v="20 mph"/>
    <tag k="name" v="Cherry Tree Gardens"/>
    <tag k="source" v="yahoo tracing"/>
  </way>
  <way id="5334525" version="9" timestamp="2022-03-19T11:42:21Z" changeset="118662951" uid="388774" user="drnoble">
    <nd ref="38036891"/>
    <nd ref="38039552"/>
    <nd ref="2608456547"/>
    <nd ref="38039553"/>
    <nd ref="2608456375"/>
    <nd ref="38039555"/>
    <nd ref="38039557"/>
    <nd ref="2608456284"/>
    <nd ref="2608456282"/>
    <nd ref="38039558"/>
    <nd ref="9589815637"/>
    <nd ref="279280400"/>
    <nd ref="2607788404"/>
    <nd ref="38039559"/>
    <nd ref="38039561"/>
    <nd ref="9589815543"/>
    <nd ref="2607788431"/>
    <nd ref="9589815542"/>
    <nd ref="38039563"/>
    <tag k="highway" v="residential"/>
    <tag k="lanes" v="2"/>
    <tag k="lit" v="yes"/>
    <tag k="maxspeed" v="20 mph"/>
    <tag k="name" v="Cherry Tree Crescent"/>
    <tag k="sidewalk" v="both"/>
    <tag k="surface" v="asphalt"/>
  </way>
  <way id="5334645" version="5" timestamp="2023-05-22T22:13:58Z" changeset="136431858" uid="53626" user="jambamkin">
    <nd ref="38039558"/>
    <nd ref="10920293341"/>
    <nd ref="38040800"/>
    <nd ref="38040801"/>
    <nd ref="1449223816"/>
    <tag k="highway" v="residential"/>
    <tag k="maxspeed" v="20 mph"/>
    <tag k="name" v="Cherry Tree View"/>
    <tag k="source" v="yahoo tracing"/>
  </way>
  <way id="5334677" version="4" timestamp="2019-02-26T00:28:19Z" changeset="67566400" uid="3432400" user="GinaroZ">
    <nd ref="38039552"/>
    <nd ref="2608456783"/>
    <nd ref="2608456935"/>
    <nd ref="38041074"/>
    <tag k="highway" v="residential"/>
    <tag k="maxspeed" v="20 mph"/>
    <tag k="name" v="Cherry Tree Avenue"/>
    <tag k="source" v="yahoo tracing"/>
  </way>
  <way id="5334718" version="5" timestamp="2019-02-26T00:28:18Z" changeset="67566400" uid="3432400" user="GinaroZ">
    <nd ref="38039553"/>
    <nd ref="2608456534"/>
    <nd ref="1449223817"/>
    <nd ref="38041295"/>
    <tag k="highway" v="residential"/>
    <tag k="maxspeed" v="20 mph"/>
    <tag k="name" v="Cherry Tree Loan"/>
    <tag k="source" v="yahoo tracing"/>
  </way>
  <way id="23658078" version="8" timestamp="2022-01-27T23:34:20Z" changeset="116686048" uid="3432400" user="GinaroZ">
    <nd ref="256324625"/>
    <nd ref="256324630"/>
    <nd ref="256324629"/>
    <nd ref="2612042237"/>
    <nd ref="2612042239"/>
    <nd ref="2612042250"/>
    <nd ref="2612042261"/>
    <nd ref="2612042264"/>
    <nd ref="2612042249"/>
    <nd ref="2612042259"/>
    <nd ref="2612042200"/>
    <nd ref="2612042190"/>
    <nd ref="2612042212"/>
    <nd ref="2612042210"/>
    <nd ref="256324628"/>
    <nd ref="256324627"/>
    <nd ref="766731114"/>
    <nd ref="766731342"/>
    <nd ref="766731144"/>
    <nd ref="766731304"/>
    <nd ref="256324626"/>
    <nd ref="256324625"/>
    <tag k="addr:city" v="Balerno"/>
    <tag k="addr:housenumber" v="5"/>
    <tag k="addr:postcode" v="EH14 7AQ"/>
    <tag k="addr:street" v="Bridge Road"/>
    <tag k="building" v="school"/>
  </way>
  <way id="24900290" version="11" timestamp="2024-08-18T09:42:20Z" changeset="155404688" uid="45452" user="Simon Eilting">
    <nd ref="29371928"/>
    <nd ref="7108961133"/>
    <nd ref="270588691"/>
    <tag k="cycleway:both" v="no"/>
    <tag k="highway" v="tertiary"/>
    <tag k="lanes" v="2"/>
    <tag k="lit" v="yes"/>
    <tag k="maxspeed" v="30 mph"/>
    <tag k="name" v="Cockburn Crescent"/>
    <tag k="sidewalk" v="right"/>
    <tag k="sidewalk:right:surface" v="asphalt"/>
    <tag k="smoothness" v="excellent"/>
    <tag k="surface" v="asphalt"/>
  </way>
  <way id="24900291" version="13" timestamp="2024-08-18T09:51:57Z" changeset="155404878" uid="45452" user="Simon Eilting">
    <nd ref="27523123"/>
    <nd ref="29371948"/>
    <nd ref="860278521"/>
    <nd ref="29371947"/>
    <nd ref="29371946"/>
    <nd ref="4307464834"/>
    <nd ref="270588819"/>
    <tag k="cycleway:both" v="no"/>
    <tag k="highway" v="tertiary"/>
    <tag k="lanes" v="2"/>
    <tag k="lit" v="yes"/>
    <tag k="maxspeed" v="30 mph"/>
    <tag k="name" v="Bridge Road"/>
    <tag k="smoothness" v="good"/>
    <tag k="surface" v="asphalt"/>
  </way>
  <way id="24900292" version="16" timestamp="2024-08-18T08:55:18Z" changeset="155402389" uid="45452" user="Simon Eilting">
    <nd ref="5634619124"/>
    <nd ref="5634619125"/>
    <nd ref="270543239"/>
    <tag k="cycleway:both" v="no"/>
    <tag k="highway" v="tertiary"/>
    <tag k="junction" v="roundabout"/>
    <tag k="lanes" v="1"/>
    <tag k="lit" v="yes"/>
    <tag k="maxspeed" v="20 mph"/>
    <tag k="oneway" v="yes"/>
    <tag k="smoothness" v="excellent"/>
    <tag k="surface" v="asphalt"/>
  </way>
  <way id="24903763" version="4" timestamp="2024-08-18T09:41:18Z" changeset="155404673" uid="45452" user="Simon Eilting">
    <nd ref="270588693"/>
    <nd ref="270588694"/>
    <nd ref="270588713"/>
    <nd ref="270588695"/>
    <nd ref="270588696"/>
    <tag k="cycleway:both" v="no"/>
    <tag k="highway" v="residential"/>
    <tag k="maxspeed" v="20 mph"/>
    <tag k="name" v="Threipmuir Avenue"/>
    <tag k="sidewalk" v="both"/>
  </way>
  <way id="24903765" version="2" timestamp="2019-02-26T23:41:29Z" changeset="67600482" uid="3432400" user="GinaroZ">
    <nd ref="270588694"/>
    <nd ref="270588697"/>
    <tag k="highway" v="residential"/>
    <tag k="maxspeed" v="20 mph"/>
    <tag k="name" v="Threipmuir Gardens"/>
  </way>
  <way id="24903768" version="2" timestamp="2019-02-26T23:41:29Z" changeset="67600482" uid="3432400" user="GinaroZ">
    <nd ref="270588695"/>
    <nd ref="270588700"/>
    <nd ref="270588701"/>
    <tag k="highway" v="residential"/>
    <tag k="maxspeed" v="20 mph"/>
    <tag k="name" v="Threipmuir Place"/>
  </way>
  <way id="24903771" version="4" timestamp="2024-08-18T09:39:33Z" changeset="155404673" uid="45452" user="Simon Eilting">
    <nd ref="270543199"/>
    <nd ref="270588703"/>
    <nd ref="270588704"/>
    <nd ref="270588705"/>
    <nd ref="270588706"/>
    <tag k="cycleway:both" v="no"/>
    <tag k="highway" v="residential"/>
    <tag k="maxspeed" v="20 mph"/>
    <tag k="name" v="Greenfield Crescent"/>
    <tag k="sidewalk" v="both"/>
  </way>
  <way id="24903773" version="2" timestamp="2019-02-26T23:41:29Z" changeset="67600482" uid="3432400" user="GinaroZ">
    <nd ref="270588703"/>
    <nd ref="270588707"/>
    <nd ref="270588708"/>
    <tag k="highway" v="residential"/>
    <tag k="maxspeed" v="20 mph"/>
    <tag k="name" v="Greenfield Road"/>
  </way>
  <way id="24903783" version="5" timestamp="2024-08-18T09:37:20Z" changeset="155404643" uid="45452" user="Simon Eilting">
    <nd ref="270543202"/>
    <nd ref="3876038331"/>
    <nd ref="270588717"/>
    <nd ref="270588727"/>
    <nd ref="270588719"/>
    <nd ref="270588720"/>
    <tag k="cycleway:both" v="no"/>
    <tag k="highway" v="residential"/>
    <tag k="maxspeed" v="20 mph"/>
    <tag k="name" v="Whitelea Road"/>
    <tag k="sidewalk" v="both"/>
  </way>
  <way id="24903786" version="3" timestamp="2019-02-26T23:41:29Z" changeset="67600482" uid="3432400" user="GinaroZ">
    <nd ref="270588722"/>
    <nd ref="270588723"/>
    <nd ref="270588724"/>
    <nd ref="3876038546"/>
    <nd ref="270588725"/>
    <tag k="highway" v="residential"/>
    <tag k="maxspeed" v="20 mph"/>
    <tag k="name" v="Whitelea Crescent"/>
  </way>
  <way id="24903788" version="7" timestamp="2024-08-18T09:06:33Z" changeset="155403354" uid="45452" user="Simon Eilting">
    <nd ref="270543212"/>
    <nd ref="3876038343"/>
    <nd ref="270588730"/>
    <nd ref="270588734"/>
    <nd ref="3876038395"/>
    <nd ref="270588735"/>
    <nd ref="3876038378"/>
    <nd ref="3876038324"/>
    <nd ref="270588736"/>
    <tag k="cycleway:both" v="no"/>
    <tag k="highway" v="residential"/>
    <tag k="maxspeed" v="20 mph"/>
    <tag k="name" v="Highlea Circle"/>
    <tag k="sidewalk" v="both"/>
  </way>
  <way id="24903792" version="5" timestamp="2024-08-18T09:06:39Z" changeset="155403354" uid="45452" user="Simon Eilting">
    <nd ref="270588734"/>
    <nd ref="3876038392"/>
    <nd ref="270588738"/>
    <tag k="cycleway:both" v="no"/>
    <tag k="highway" v="residential"/>
    <tag k="maxspeed" v="20 mph"/>
    <tag k="name" v="Highlea Grove"/>
    <tag k="sidewalk" v="both"/>
  </way>
  <way id="24903794" version="6" timestamp="2024-08-18T08:56:21Z" changeset="155402876" uid="45452" user="Simon Eilting">
    <nd ref="270588741"/>
    <nd ref="3876038794"/>
    <nd ref="270588742"/>
    <nd ref="270588743"/>
    <nd ref="270588744"/>
    <nd ref="3876038972"/>
    <nd ref="270588745"/>
    <tag k="cycleway:both" v="no"/>
    <tag k="highway" v="residential"/>
    <tag k="lanes" v="2"/>
    <tag k="lit" v="yes"/>
    <tag k="maxspeed" v="20 mph"/>
    <tag k="name" v="Cairns Drive"/>
  </way>
  <way id="24903795" version="4" timestamp="2020-01-05T11:53:27Z" changeset="79210713" uid="388774" user="drnoble">
    <nd ref="270588742"/>
    <nd ref="3876038821"/>
    <nd ref="270588747"/>
    <nd ref="270588748"/>
    <nd ref="270588749"/>
    <tag k="highway" v="residential"/>
    <tag k="lanes" v="2"/>
    <tag k="lit" v="yes"/>
    <tag k="maxspeed" v="20 mph"/>
    <tag k="name" v="Cairns Gardens"/>
  </way>
  <way id="24903797" version="4" timestamp="2020-01-05T11:53:27Z" changeset="79210713" uid="388774" user="drnoble">
    <nd ref="270588748"/>
    <nd ref="3876038731"/>
    <nd ref="3876038756"/>
    <nd ref="270588750"/>
    <tag k="highway" v="residential"/>
    <tag k="lanes" v="2"/>
    <tag k="lit" v="yes"/>
    <tag k="maxspeed" v="20 mph"/>
    <tag k="name" v="Calder Gardens"/>
  </way>
  <way id="24903798" version="5" timestamp="2020-01-05T11:53:27Z" changeset="79210713" uid="388774" user="drnoble">
    <nd ref="270588751"/>
    <nd ref="3876039028"/>
    <nd ref="3876039061"/>
    <nd ref="270588752"/>
    <tag k="highway" v="residential"/>
    <tag k="lanes" v="2"/>
    <tag k="lit" v="yes"/>
    <tag k="maxspeed" v="20 mph"/>
    <tag k="name" v="Crosswood Crescent"/>
  </way>
  <way id="24903800" version="3" timestamp="2020-01-05T11:53:27Z" changeset="79210713" uid="388774" user="drnoble">
    <nd ref="270588765"/>
    <nd ref="3876039020"/>
    <nd ref="270588766"/>
    <tag k="highway" v="residential"/>
    <tag k="lanes" v="2"/>
    <tag k="lit" v="yes"/>
    <tag k="maxspeed" v="20 mph"/>
    <tag k="name" v="Crosswood Avenue"/>
  </way>
  <way id="24903802" version="4" timestamp="2022-08-16T20:00:06Z" changeset="124988799" uid="388774" user="drnoble">
    <nd ref="2992127505"/>
    <nd ref="364104401"/>
    <nd ref="2992127531"/>
    <nd ref="270588758"/>
    <nd ref="270588752"/>
    <nd ref="1989009153"/>
    <nd ref="2992127884"/>
    <nd ref="270588767"/>
    <nd ref="270588769"/>
    <nd ref="9957816992"/>
    <nd ref="2992128093"/>
    <nd ref="270588770"/>
    <tag k="highway" v="residential"/>
    <tag k="lanes" v="2"/>
    <tag k="lit" v="yes"/>
    <tag k="maxspeed" v="20 mph"/>
    <tag k="name" v="Crosswood Crescent"/>
    <tag k="sidewalk" v="both"/>
    <tag k="surface" v="asphalt"/>
  </way>
  <way id="24903804" version="6" timestamp="2022-08-16T20:00:06Z" changeset="124988799" uid="388774" user="drnoble">
    <nd ref="9957816933"/>
    <nd ref="270588768"/>
    <nd ref="2992127891"/>
    <nd ref="270588767"/>
    <tag k="highway" v="residential"/>
    <tag k="lanes" v="2"/>
    <tag k="lit" v="yes"/>
    <tag k="maxspeed" v="20 mph"/>
    <tag k="name" v="Crosswood Crescent"/>
    <tag k="sidewalk" v="both"/>
    <tag k="surface" v="asphalt"/>
  </way>
  <way id="24903824" version="12" timestamp="2024-08-18T08:56:00Z" changeset="155402876" uid="45452" user="Simon Eilting">
    <nd ref="270543220"/>
    <nd ref="9064315742"/>
    <nd ref="2992128047"/>
    <nd ref="270543221"/>
    <nd ref="270588782"/>
    <nd ref="9064315744"/>
    <nd ref="348098675"/>
    <tag k="cycleway:both" v="no"/>
    <tag k="highway" v="tertiary"/>
    <tag k="lanes" v="2"/>
    <tag k="lit" v="yes"/>
    <tag k="maxspeed" v="30 mph"/>
    <tag k="name" v="Johnsburn Road"/>
    <tag k="surface" v="asphalt"/>
  </way>
  <way id="24903827" version="3" timestamp="2020-01-05T11:53:27Z" changeset="79210713" uid="388774" user="drnoble">
    <nd ref="270543221"/>
    <nd ref="3876041371"/>
    <nd ref="270588778"/>
    <nd ref="270588779"/>
    <nd ref="3876041396"/>
    <nd ref="270588780"/>
    <tag k="highway" v="residential"/>
    <tag k="lanes" v="2"/>
    <tag k="lit" v="yes"/>
    <tag k="maxspeed" v="20 mph"/>
    <tag k="name" v="Johnsburn Park"/>
  </way>
  <way id="24903832" version="4" timestamp="2020-01-05T11:53:27Z" changeset="79210713" uid="388774" user="drnoble">
    <nd ref="270543225"/>
    <nd ref="270588785"/>
    <tag k="highway" v="residential"/>
    <tag k="lit" v="yes"/>
    <tag k="maxspeed" v="20 mph"/>
    <tag k="name" v="Johnsburn Haugh"/>
    <tag k="sidewalk" v="both"/>
  </way>
  <way id="24903834" version="6" timestamp="2024-08-18T08:55:45Z" changeset="155402876" uid="45452" user="Simon Eilting">
    <nd ref="270543226"/>
    <nd ref="270588786"/>
    <nd ref="364103100"/>
    <nd ref="364103101"/>
    <nd ref="364103102"/>
    <nd ref="364103103"/>
    <nd ref="364103104"/>
    <nd ref="364103105"/>
    <nd ref="3125598560"/>
    <nd ref="364103106"/>
    <tag k="cycleway:both" v="no"/>
    <tag k="highway" v="residential"/>
    <tag k="lanes" v="2"/>
    <tag k="lit" v="yes"/>
    <tag k="maxspeed" v="20 mph"/>
    <tag k="name" v="Clayhills Grove"/>
    <tag k="sidewalk" v="no"/>
    <tag k="surface" v="paving_stones"/>
  </way>
  <way id="24903836" version="6" timestamp="2020-01-05T11:53:27Z" changeset="79210713" uid="388774" user="drnoble">
    <nd ref="270588788"/>
    <nd ref="3125598915"/>
    <nd ref="3125598929"/>
    <nd ref="270588789"/>
    <tag k="highway" v="residential"/>
    <tag k="lanes" v="2"/>
    <tag k="lit" v="yes"/>
    <tag k="maxspeed" v="20 mph"/>
    <tag k="name" v="Johnsburn Green"/>
    <tag k="sidewalk" v="no"/>
    <tag k="surface" v="paving_stones"/>
  </way>
  <way id="24903837" version="4" timestamp="2024-08-18T08:55:34Z" changeset="155402389" uid="45452" user="Simon Eilting">
    <nd ref="270588790"/>
    <nd ref="270588791"/>
    <nd ref="364103054"/>
    <nd ref="364103055"/>
    <nd ref="364103056"/>
    <nd ref="364103057"/>
    <nd ref="364103058"/>
    <tag k="cycleway:both" v="no"/>
    <tag k="highway" v="residential"/>
    <tag k="maxspeed" v="20 mph"/>
    <tag k="name" v="Clayhills Park"/>
  </way>
  <way id="24903838" version="4" timestamp="2021-09-10T09:40:53Z" changeset="111014928" uid="388774" user="drnoble">
    <nd ref="270588792"/>
    <nd ref="9079010263"/>
    <nd ref="9079010262"/>
    <nd ref="9079010261"/>
    <nd ref="270588793"/>
    <nd ref="364102950"/>
    <nd ref="9079010260"/>
    <nd ref="364102935"/>
    <tag k="highway" v="residential"/>
    <tag k="lanes" v="2"/>
    <tag k="lit" v="yes"/>
    <tag k="maxspeed" v="20 mph"/>
    <tag k="name" v="Lovedale Avenue"/>
    <tag k="sidewalk" v="both"/>
    <tag k="surface" v="asphalt"/>
  </way>
  <way id="24903841" version="4" timestamp="2025-01-05T11:36:34Z" changeset="161016754" uid="6871" user="smsm1">
    <nd ref="270543231"/>
    <nd ref="270588796"/>
    <nd ref="364102813"/>
    <tag k="highway" v="residential"/>
    <tag k="lit" v="yes"/>
    <tag k="maxspeed" v="20 mph"/>
    <tag k="name" v="Lovedale Road"/>
    <tag k="sidewalk" v="both"/>
    <tag k="surface" v="asphalt"/>
  </way>
  <way id="24903844" version="7" timestamp="2021-09-10T12:41:30Z" changeset="111022561" uid="388774" user="drnoble">
    <nd ref="270543244"/>
    <nd ref="9079483303"/>
    <nd ref="270588801"/>
    <nd ref="364105085"/>
    <nd ref="364105086"/>
    <nd ref="364105087"/>
    <nd ref="3124266534"/>
    <nd ref="3124266533"/>
    <nd ref="364105088"/>
    <tag k="highway" v="residential"/>
    <tag k="lit" v="yes"/>
    <tag k="maxspeed" v="20 mph"/>
    <tag k="name" v="Larchfield"/>
    <tag k="sidewalk" v="both"/>
  </way>
  <way id="24903845" version="5" timestamp="2021-09-10T12:41:30Z" changeset="111022561" uid="388774" user="drnoble">
    <nd ref="270588800"/>
    <nd ref="9079483304"/>
    <nd ref="9079483305"/>
    <nd ref="270588802"/>
    <nd ref="9079483307"/>
    <nd ref="364104883"/>
    <tag k="highway" v="unclassified"/>
    <tag k="lanes" v="2"/>
    <tag k="lit" v="yes"/>
    <tag k="maxspeed" v="20 mph"/>
    <tag k="name" v="Main Street"/>
    <tag k="sidewalk" v="both"/>
    <tag k="surface" v="asphalt"/>
  </way>
  <way id="24903848" version="10" timestamp="2024-08-18T08:54:33Z" changeset="155402389" uid="45452" user="Simon Eilting">
    <nd ref="270588819"/>
    <nd ref="12021350213"/>
    <nd ref="270588818"/>
    <tag k="bridge" v="yes"/>
    <tag k="cycleway:both" v="no"/>
    <tag k="highway" v="tertiary"/>
    <tag k="lanes" v="2"/>
    <tag k="layer" v="1"/>
    <tag k="lit" v="yes"/>
    <tag k="maxspeed" v="30 mph"/>
    <tag k="name" v="Bridge Road"/>
    <tag k="surface" v="asphalt"/>
  </way>
  <way id="24903850" version="15" timestamp="2024-08-18T09:51:07Z" changeset="155404878" uid="45452" user="Simon Eilting">
    <nd ref="270588818"/>
    <nd ref="12021350211"/>
    <nd ref="4305903633"/>
    <nd ref="29371945"/>
    <tag k="cycleway:both" v="no"/>
    <tag k="highway" v="tertiary"/>
    <tag k="lanes" v="2"/>
    <tag k="lit" v="yes"/>
    <tag k="maxspeed" v="20 mph"/>
    <tag k="name" v="Bridge Road"/>
    <tag k="sidewalk" v="both"/>
    <tag k="smoothness" v="good"/>
    <tag k="surface" v="asphalt"/>
  </way>
  <way id="25624483" version="3" timestamp="2019-02-26T00:28:19Z" changeset="67566400" uid="3432400" user="GinaroZ">
    <nd ref="38035515"/>
    <nd ref="38036883"/>
    <nd ref="2608456292"/>
    <nd ref="38036885"/>
    <nd ref="2608456405"/>
    <nd ref="38036887"/>
    <nd ref="2608456581"/>
    <nd ref="38036888"/>
    <nd ref="2608456731"/>
    <nd ref="38036889"/>
    <nd ref="2608456858"/>
    <nd ref="38036891"/>
    <nd ref="2608457042"/>
    <nd ref="38036892"/>
    <nd ref="38036893"/>
    <nd ref="2608457287"/>
    <nd ref="38036894"/>
    <tag k="highway" v="residential"/>
    <tag k="maxspeed" v="20 mph"/>
    <tag k="name" v="Cherry Tree Park"/>
    <tag k="source" v="bing"/>
  </way>
  <way id="25624500" version="7" timestamp="2021-01-04T09:24:46Z" changeset="96894301" uid="11735880" user="namanees">
    <nd ref="38029923"/>
    <nd ref="38029925"/>
    <nd ref="2608456838"/>
    <nd ref="38029929"/>
    <nd ref="38029931"/>
    <nd ref="8288977917"/>
    <nd ref="5641969879"/>
    <nd ref="1447603554"/>
    <nd ref="38029932"/>
    <tag k="highway" v="residential"/>
    <tag k="maxspeed" v="20 mph"/>
    <tag k="name" v="Newmills Avenue"/>
    <tag k="source" v="yahoo tracing"/>
  </way>
  <way id="25624549" version="3" timestamp="2019-02-26T23:41:23Z" changeset="67600482" uid="3432400" user="GinaroZ">
    <nd ref="38036893"/>
    <nd ref="279278847"/>
    <tag k="bicycle" v="yes"/>
    <tag k="foot" v="yes"/>
    <tag k="highway" v="residential"/>
    <tag k="maxspeed" v="20 mph"/>
  </way>
  <way id="25625276" version="10" timestamp="2023-02-27T02:10:03Z" changeset="133065412" uid="13993127" user="kolvivev">
    <nd ref="27523115"/>
    <nd ref="4266867811"/>
    <nd ref="2612042489"/>
    <nd ref="279286140"/>
    <nd ref="279286737"/>
    <nd ref="2612042385"/>
    <nd ref="279286143"/>
    <nd ref="279286748"/>
    <nd ref="279286954"/>
    <nd ref="2612042279"/>
    <nd ref="2612042262"/>
    <nd ref="10696022973"/>
    <nd ref="10696022974"/>
    <nd ref="10696022975"/>
    <nd ref="10696022976"/>
    <nd ref="10696022977"/>
    <tag k="highway" v="residential"/>
    <tag k="maxspeed" v="20 mph"/>
    <tag k="name" v="Ravelrig Drive"/>
  </way>
  <way id="25625281" version="3" timestamp="2019-02-26T23:41:25Z" changeset="67600482" uid="3432400" user="GinaroZ">
    <nd ref="279286143"/>
    <nd ref="279286384"/>
    <tag k="highway" v="residential"/>
    <tag k="maxspeed" v="20 mph"/>
    <tag k="name" v="Ravelrig Wynd"/>
  </way>
  <way id="25625295" version="5" timestamp="2019-02-26T23:41:26Z" changeset="67600482" uid="3432400" user="GinaroZ">
    <nd ref="279286431"/>
    <nd ref="5523485063"/>
    <nd ref="5523485064"/>
    <nd ref="279286731"/>
    <nd ref="5523485062"/>
    <nd ref="279286732"/>
    <nd ref="5523485061"/>
    <nd ref="279287394"/>
    <nd ref="5523485060"/>
    <nd ref="5523485059"/>
    <nd ref="845855683"/>
    <nd ref="5523485058"/>
    <nd ref="279286734"/>
    <nd ref="5523485056"/>
    <nd ref="5523485057"/>
    <nd ref="279287487"/>
    <nd ref="279287488"/>
    <tag k="highway" v="residential"/>
    <tag k="maxspeed" v="20 mph"/>
    <tag k="name" v="Ravelrig Gait"/>
  </way>
  <way id="25625301" version="4" timestamp="2023-02-27T02:10:03Z" changeset="133065412" uid="13993127" user="kolvivev">
    <nd ref="279286748"/>
    <nd ref="10696022977"/>
    <nd ref="279286961"/>
    <tag k="highway" v="residential"/>
    <tag k="maxspeed" v="20 mph"/>
    <tag k="name" v="Ravelrig Drive"/>
  </way>
  <way id="25625314" version="4" timestamp="2019-02-26T23:41:26Z" changeset="67600482" uid="3432400" user="GinaroZ">
    <nd ref="279287394"/>
    <nd ref="279287320"/>
    <nd ref="5523484992"/>
    <nd ref="5523485054"/>
    <nd ref="279287321"/>
    <tag k="highway" v="residential"/>
    <tag k="maxspeed" v="20 mph"/>
    <tag k="name" v="Ravelrig Gait"/>
  </way>
  <way id="25625318" version="3" timestamp="2019-02-26T23:41:26Z" changeset="67600482" uid="3432400" user="GinaroZ">
    <nd ref="279287320"/>
    <nd ref="5523484993"/>
    <nd ref="279287382"/>
    <nd ref="5523484994"/>
    <nd ref="279287383"/>
    <tag k="highway" v="residential"/>
    <tag k="maxspeed" v="20 mph"/>
    <tag k="name" v="Ravelrig Gait"/>
  </way>
  <way id="25625351" version="3" timestamp="2019-02-26T23:41:26Z" changeset="67600482" uid="3432400" user="GinaroZ">
    <nd ref="279287487"/>
    <nd ref="279288211"/>
    <nd ref="279288212"/>
    <tag k="highway" v="residential"/>
    <tag k="maxspeed" v="20 mph"/>
    <tag k="name" v="Ravelrig Gait"/>
  </way>
  <way id="25625354" version="9" timestamp="2022-08-17T05:41:32Z" changeset="124999355" uid="15273350" user="deekpurb">
    <nd ref="279288217"/>
    <nd ref="5523507811"/>
    <nd ref="5523507812"/>
    <nd ref="279288423"/>
    <nd ref="279288424"/>
    <nd ref="5523484922"/>
    <nd ref="8232761649"/>
    <nd ref="279288425"/>
    <nd ref="5523484923"/>
    <nd ref="279288506"/>
    <nd ref="279288590"/>
    <nd ref="9958479512"/>
    <nd ref="279288477"/>
    <nd ref="5523507810"/>
    <nd ref="5523507809"/>
    <nd ref="279288428"/>
    <nd ref="5523507808"/>
    <nd ref="5523507807"/>
    <nd ref="5523507806"/>
    <nd ref="279288478"/>
    <tag k="highway" v="residential"/>
    <tag k="maxspeed" v="20 mph"/>
    <tag k="name" v="Ravelrig Park"/>
  </way>
  <way id="25625355" version="5" timestamp="2019-02-26T23:41:25Z" changeset="67600482" uid="3432400" user="GinaroZ">
    <nd ref="279288423"/>
    <nd ref="279288542"/>
    <nd ref="5523484921"/>
    <tag k="highway" v="residential"/>
    <tag k="maxspeed" v="20 mph"/>
    <tag k="name" v="Ravelrig Park"/>
  </way>
  <way id="25625374" version="5" timestamp="2019-02-26T23:41:25Z" changeset="67600482" uid="3432400" user="GinaroZ">
    <nd ref="279288590"/>
    <nd ref="5523507805"/>
    <nd ref="845855682"/>
    <nd ref="5523507804"/>
    <nd ref="845855688"/>
    <nd ref="279288669"/>
    <nd ref="279288658"/>
    <tag k="highway" v="residential"/>
    <tag k="maxspeed" v="20 mph"/>
    <tag k="name" v="Ravelrig Park"/>
  </way>
  <way id="25625378" version="5" timestamp="2023-02-27T02:10:03Z" changeset="133065412" uid="13993127" user="kolvivev">
    <nd ref="279288669"/>
    <nd ref="279288701"/>
    <tag k="highway" v="residential"/>
    <tag k="maxspeed" v="20 mph"/>
    <tag k="name" v="Ravelrig Park"/>
  </way>
  <way id="25625394" version="5" timestamp="2019-02-26T23:41:25Z" changeset="67600482" uid="3432400" user="GinaroZ">
    <nd ref="279288725"/>
    <nd ref="5523507350"/>
    <nd ref="5523507349"/>
    <nd ref="279288834"/>
    <nd ref="279288850"/>
    <nd ref="5523507348"/>
    <nd ref="1746700677"/>
    <nd ref="5523507347"/>
    <nd ref="1746700674"/>
    <tag k="highway" v="residential"/>
    <tag k="maxspeed" v="20 mph"/>
    <tag k="name" v="Ravelrig Hill"/>
  </way>
  <way id="25626422" version="3" timestamp="2024-08-27T16:46:49Z" changeset="155841699" uid="21762849" user="jSeke">
    <nd ref="36886279"/>
    <nd ref="279303922"/>
    <nd ref="10696022953"/>
    <nd ref="279303923"/>
    <nd ref="279303924"/>
    <nd ref="279303925"/>
    <tag k="highway" v="unclassified"/>
    <tag k="name" v="Lanark Road West"/>
    <tag k="name:gd" v="Rathad Lannraig an Iar"/>
  </way>
  <way id="26402130" version="15" timestamp="2024-08-26T13:05:14Z" changeset="155781272" uid="21143475" user="Htf4">
    <nd ref="3642929906"/>
    <nd ref="29371909"/>
    <nd ref="3642929907"/>
    <nd ref="29371907"/>
    <nd ref="3642929908"/>
    <nd ref="29371905"/>
    <nd ref="3642929909"/>
    <nd ref="9669819398"/>
    <nd ref="3642929910"/>
    <nd ref="29371902"/>
    <nd ref="9669819397"/>
    <nd ref="3642929911"/>
    <tag k="highway" v="unclassified"/>
    <tag k="lane_markings" v="no"/>
    <tag k="name" v="Mansfield Road"/>
    <tag k="sidewalk" v="no"/>
    <tag k="surface" v="asphalt"/>
  </way>
  <way id="31287203" version="11" timestamp="2021-09-05T16:37:33Z" changeset="110757277" uid="388774" user="drnoble">
    <nd ref="506296038"/>
    <nd ref="348098653"/>
    <nd ref="348098654"/>
    <nd ref="3078820515"/>
    <nd ref="348098655"/>
    <nd ref="3078820512"/>
    <nd ref="348098656"/>
    <nd ref="3078820558"/>
    <nd ref="348098657"/>
    <nd ref="348098658"/>
    <nd ref="348098659"/>
    <nd ref="3078820691"/>
    <nd ref="3078820724"/>
    <nd ref="348098660"/>
    <nd ref="3078820837"/>
    <nd ref="1576715493"/>
    <nd ref="3078820726"/>
    <nd ref="348098661"/>
    <tag k="highway" v="tertiary"/>
    <tag k="lanes" v="2"/>
    <tag k="lit" v="no"/>
    <tag k="name" v="Glenbrook Road"/>
    <tag k="sidewalk" v="no"/>
    <tag k="surface" v="asphalt"/>
    <tag k="width" v="4"/>
  </way>
  <way id="31953467" version="7" timestamp="2021-08-29T08:32:37Z" changeset="110403069" uid="388774" user="drnoble">
    <nd ref="108412586"/>
    <nd ref="9044858451"/>
    <nd ref="9044858452"/>
    <nd ref="9044858453"/>
    <nd ref="1382060562"/>
    <nd ref="357878325"/>
    <nd ref="1382060561"/>
    <nd ref="357878327"/>
    <nd ref="2985015238"/>
    <nd ref="357878329"/>
    <nd ref="9044858466"/>
    <nd ref="357878331"/>
    <nd ref="357878332"/>
    <nd ref="9044858467"/>
    <nd ref="357878333"/>
    <nd ref="357878334"/>
    <nd ref="9044858478"/>
    <nd ref="9044858475"/>
    <nd ref="357878335"/>
    <tag k="highway" v="unclassified"/>
    <tag k="lanes" v="1"/>
    <tag k="lit" v="no"/>
    <tag k="maxspeed" v="60 mph"/>
    <tag k="name" v="Haughhead Road"/>
    <tag k="sidewalk" v="no"/>
    <tag k="surface" v="asphalt"/>
    <tag k="width" v="4"/>
  </way>
  <way id="31953501" version="5" timestamp="2021-08-29T08:32:37Z" changeset="110403069" uid="388774" user="drnoble">
    <nd ref="357878337"/>
    <nd ref="9044858482"/>
    <nd ref="357878339"/>
    <nd ref="357878341"/>
    <nd ref="357878342"/>
    <nd ref="3609042198"/>
    <nd ref="357878343"/>
    <nd ref="357878344"/>
    <nd ref="9044858483"/>
    <nd ref="357878346"/>
    <nd ref="357878348"/>
    <nd ref="9044858496"/>
    <nd ref="2985014728"/>
    <nd ref="9044858495"/>
    <nd ref="9044858494"/>
    <nd ref="357878743"/>
    <tag k="highway" v="unclassified"/>
    <tag k="lanes" v="1"/>
    <tag k="lit" v="no"/>
    <tag k="maxspeed" v="60 mph"/>
    <tag k="name" v="Haughhead Road"/>
    <tag k="sidewalk" v="no"/>
    <tag k="surface" v="asphalt"/>
    <tag k="width" v="4"/>
  </way>
  <way id="31953595" version="7" timestamp="2021-08-29T08:32:37Z" changeset="110403069" uid="388774" user="drnoble">
    <nd ref="357878349"/>
    <nd ref="9044858490"/>
    <nd ref="357878743"/>
    <nd ref="357880121"/>
    <nd ref="357880122"/>
    <nd ref="357880123"/>
    <nd ref="357880124"/>
    <nd ref="357880126"/>
    <nd ref="357880127"/>
    <nd ref="9044858938"/>
    <nd ref="357880128"/>
    <nd ref="357880130"/>
    <nd ref="9044858939"/>
    <nd ref="357880131"/>
    <nd ref="9044858940"/>
    <nd ref="357880132"/>
    <nd ref="357880133"/>
    <nd ref="357880134"/>
    <nd ref="357880135"/>
    <nd ref="357880136"/>
    <nd ref="357880137"/>
    <nd ref="357880139"/>
    <nd ref="357880141"/>
    <tag k="highway" v="unclassified"/>
    <tag k="lanes" v="1"/>
    <tag k="lit" v="no"/>
    <tag k="maxspeed" v="60 mph"/>
    <tag k="sidewalk" v="no"/>
    <tag k="surface" v="asphalt"/>
    <tag k="width" v="4"/>
  </way>
  <way id="31953640" version="12" timestamp="2021-08-29T08:32:37Z" changeset="110403069" uid="388774" user="drnoble">
    <nd ref="357880165"/>
    <nd ref="9044858450"/>
    <nd ref="357880880"/>
    <nd ref="357880882"/>
    <nd ref="357880883"/>
    <nd ref="357880884"/>
    <nd ref="357880885"/>
    <nd ref="357880886"/>
    <nd ref="357880888"/>
    <nd ref="357880889"/>
    <nd ref="357880890"/>
    <nd ref="357880891"/>
    <nd ref="357880894"/>
    <nd ref="357880897"/>
    <nd ref="7923662311"/>
    <nd ref="357880902"/>
    <nd ref="357880903"/>
    <nd ref="357880904"/>
    <nd ref="357880905"/>
    <nd ref="357880907"/>
    <nd ref="357880908"/>
    <nd ref="357880909"/>
    <nd ref="357880910"/>
    <nd ref="3609021584"/>
    <nd ref="357880911"/>
    <nd ref="3609021586"/>
    <nd ref="357880912"/>
    <nd ref="357880913"/>
    <nd ref="357880914"/>
    <nd ref="357880915"/>
    <tag k="highway" v="unclassified"/>
    <tag k="lanes" v="1"/>
    <tag k="lit" v="no"/>
    <tag k="maxspeed" v="60 mph"/>
    <tag k="name" v="Cockburnhill Road"/>
    <tag k="sidewalk" v="no"/>
    <tag k="surface" v="asphalt"/>
    <tag k="width" v="4"/>
  </way>
  <way id="32344205" version="7" timestamp="2022-06-08T07:00:24Z" changeset="122101837" uid="15273350" user="deekpurb">
    <nd ref="270588796"/>
    <nd ref="9079004004"/>
    <nd ref="2627382142"/>
    <nd ref="364102932"/>
    <nd ref="9079004005"/>
    <nd ref="9079004006"/>
    <nd ref="9079004007"/>
    <nd ref="9803188523"/>
    <nd ref="2627382029"/>
    <nd ref="9079004008"/>
    <nd ref="9079004009"/>
    <nd ref="364102935"/>
    <tag k="highway" v="residential"/>
    <tag k="lit" v="yes"/>
    <tag k="maxspeed" v="20 mph"/>
    <tag k="name" v="Lovedale Road"/>
    <tag k="sidewalk" v="both"/>
  </way>
  <way id="32344285" version="6" timestamp="2025-01-05T12:14:55Z" changeset="161016754" uid="6871" user="smsm1">
    <nd ref="364104055"/>
    <nd ref="1131548734"/>
    <nd ref="1131548682"/>
    <nd ref="1131548715"/>
    <nd ref="1131548687"/>
    <nd ref="1131548706"/>
    <nd ref="1131548694"/>
    <nd ref="364104057"/>
    <nd ref="364104059"/>
    <tag k="highway" v="residential"/>
    <tag k="lit" v="yes"/>
    <tag k="maxspeed" v="20 mph"/>
    <tag k="name" v="Malleny Avenue"/>
    <tag k="surface" v="asphalt"/>
  </way>
  <way id="32344320" version="8" timestamp="2025-01-05T12:14:53Z" changeset="161016754" uid="6871" user="smsm1">
    <nd ref="364104057"/>
    <nd ref="364104082"/>
    <tag k="cycleway:both" v="no"/>
    <tag k="highway" v="residential"/>
    <tag k="lit" v="yes"/>
    <tag k="maxspeed" v="20 mph"/>
    <tag k="name" v="Malleny Avenue"/>
    <tag k="surface" v="asphalt"/>
  </way>
  <way id="32344332" version="8" timestamp="2024-08-26T13:23:30Z" changeset="155781261" uid="21143475" user="Htf4">
    <nd ref="364104104"/>
    <nd ref="364104196"/>
    <nd ref="364105286"/>
    <nd ref="364104197"/>
    <nd ref="364104198"/>
    <nd ref="364104199"/>
    <nd ref="364104200"/>
    <nd ref="364104201"/>
    <nd ref="364104202"/>
    <tag k="cycleway:both" v="no"/>
    <tag k="highway" v="residential"/>
    <tag k="maxspeed" v="20 mph"/>
    <tag k="name" v="Marchbank Drive"/>
    <tag k="sidewalk" v="both"/>
  </way>
  <way id="32344333" version="4" timestamp="2019-02-26T23:41:28Z" changeset="67600482" uid="3432400" user="GinaroZ">
    <nd ref="270588715"/>
    <nd ref="364104201"/>
    <tag k="highway" v="residential"/>
    <tag k="maxspeed" v="20 mph"/>
    <tag k="name" v="Marchbank Drive"/>
  </way>
  <way id="32344336" version="4" timestamp="2021-06-03T10:20:12Z" changeset="105770690" uid="3432400" user="GinaroZ">
    <nd ref="364104215"/>
    <nd ref="8794828762"/>
    <nd ref="8794828763"/>
    <nd ref="364104197"/>
    <tag k="highway" v="residential"/>
    <tag k="maxspeed" v="20 mph"/>
    <tag k="name" v="Marchbank Grove"/>
  </way>
  <way id="32344393" version="5" timestamp="2022-08-16T20:00:06Z" changeset="124988799" uid="388774" user="drnoble">
    <nd ref="270588771"/>
    <nd ref="364104759"/>
    <nd ref="270588772"/>
    <nd ref="364104763"/>
    <nd ref="364104764"/>
    <nd ref="270588773"/>
    <nd ref="364104523"/>
    <nd ref="9130571904"/>
    <nd ref="9130571905"/>
    <nd ref="9130571906"/>
    <nd ref="9130571907"/>
    <nd ref="9130571908"/>
    <nd ref="9130571909"/>
    <nd ref="9130571910"/>
    <nd ref="270588775"/>
    <nd ref="364104526"/>
    <nd ref="9130571902"/>
    <nd ref="9130571903"/>
    <nd ref="270588770"/>
    <nd ref="270588771"/>
    <tag k="highway" v="residential"/>
    <tag k="lanes" v="2"/>
    <tag k="lit" v="yes"/>
    <tag k="maxspeed" v="20 mph"/>
    <tag k="name" v="Crosswood Crescent"/>
    <tag k="sidewalk" v="left"/>
  </way>
  <way id="32344450" version="6" timestamp="2021-09-10T19:39:44Z" changeset="111039458" uid="388774" user="drnoble">
    <nd ref="364104821"/>
    <nd ref="2992128282"/>
    <nd ref="9080875567"/>
    <nd ref="364105483"/>
    <tag k="highway" v="residential"/>
    <tag k="maxspeed" v="20 mph"/>
    <tag k="name" v="Deanpark Court"/>
  </way>
  <way id="32344458" version="13" timestamp="2021-09-10T19:39:44Z" changeset="111039458" uid="388774" user="drnoble">
    <nd ref="364104865"/>
    <nd ref="364105499"/>
    <nd ref="364104866"/>
    <nd ref="364104867"/>
    <nd ref="9080875769"/>
    <nd ref="9080875771"/>
    <nd ref="9080875770"/>
    <nd ref="9080875772"/>
    <nd ref="364104868"/>
    <nd ref="9080875773"/>
    <nd ref="364104869"/>
    <nd ref="364104870"/>
    <nd ref="364104871"/>
    <nd ref="364105384"/>
    <nd ref="2992154644"/>
    <nd ref="364104872"/>
    <nd ref="2992154658"/>
    <nd ref="3875040021"/>
    <nd ref="9080875899"/>
    <nd ref="2992154667"/>
    <nd ref="2992154689"/>
    <nd ref="2992154701"/>
    <nd ref="475969769"/>
    <nd ref="9079003926"/>
    <nd ref="364104875"/>
    <nd ref="364104876"/>
    <nd ref="9079501985"/>
    <nd ref="9079501984"/>
    <nd ref="364104877"/>
    <tag k="highway" v="residential"/>
    <tag k="lanes" v="2"/>
    <tag k="lit" v="yes"/>
    <tag k="maxspeed" v="20 mph"/>
    <tag k="name" v="Deanpark Avenue"/>
    <tag k="sidewalk" v="both"/>
    <tag k="surface" v="asphalt"/>
  </way>
  <way id="32344465" version="6" timestamp="2021-09-10T12:41:30Z" changeset="111022561" uid="388774" user="drnoble">
    <nd ref="364104880"/>
    <nd ref="364104920"/>
    <nd ref="364104921"/>
    <nd ref="364104922"/>
    <tag k="highway" v="residential"/>
    <tag k="lanes" v="2"/>
    <tag k="lit" v="yes"/>
    <tag k="maxspeed" v="20 mph"/>
    <tag k="name" v="Slaeside"/>
    <tag k="sidewalk" v="right"/>
    <tag k="surface" v="paved"/>
  </way>
  <way id="32344469" version="4" timestamp="2020-01-05T11:53:27Z" changeset="79210713" uid="388774" user="drnoble">
    <nd ref="364104902"/>
    <nd ref="5634618615"/>
    <nd ref="364104935"/>
    <tag k="highway" v="residential"/>
    <tag k="maxspeed" v="20 mph"/>
    <tag k="name" v="Ladycroft"/>
  </way>
  <way id="32344471" version="5" timestamp="2022-04-10T14:19:15Z" changeset="119537670" uid="388774" user="drnoble">
    <nd ref="364104952"/>
    <nd ref="9656055664"/>
    <nd ref="364104963"/>
    <nd ref="364104964"/>
    <nd ref="364104965"/>
    <nd ref="5634618617"/>
    <nd ref="364104966"/>
    <nd ref="364104967"/>
    <nd ref="5634619131"/>
    <nd ref="364104968"/>
    <tag k="highway" v="residential"/>
    <tag k="lanes" v="2"/>
    <tag k="lit" v="yes"/>
    <tag k="maxspeed" v="20 mph"/>
    <tag k="name" v="Ladycroft"/>
    <tag k="sidewalk" v="both"/>
    <tag k="surface" v="asphalt"/>
  </way>
  <way id="32344501" version="3" timestamp="2020-01-05T11:53:27Z" changeset="79210713" uid="388774" user="drnoble">
    <nd ref="364105111"/>
    <nd ref="364105086"/>
    <tag k="highway" v="residential"/>
    <tag k="lit" v="yes"/>
    <tag k="maxspeed" v="20 mph"/>
    <tag k="name" v="Larchfield Neuk"/>
    <tag k="sidewalk" v="both"/>
  </way>
  <way id="32344503" version="3" timestamp="2020-01-05T11:53:27Z" changeset="79210713" uid="388774" user="drnoble">
    <nd ref="364105122"/>
    <nd ref="364105123"/>
    <nd ref="364105085"/>
    <tag k="highway" v="residential"/>
    <tag k="lit" v="yes"/>
    <tag k="maxspeed" v="20 mph"/>
    <tag k="name" v="Larchfield"/>
    <tag k="sidewalk" v="both"/>
  </way>
  <way id="32344504" version="3" timestamp="2020-01-05T11:53:27Z" changeset="79210713" uid="388774" user="drnoble">
    <nd ref="364105124"/>
    <nd ref="364105125"/>
    <nd ref="364105087"/>
    <tag k="highway" v="residential"/>
    <tag k="lit" v="yes"/>
    <tag k="maxspeed" v="20 mph"/>
    <tag k="name" v="Larchfield"/>
    <tag k="sidewalk" v="both"/>
  </way>
  <way id="32344505" version="6" timestamp="2020-01-05T11:53:27Z" changeset="79210713" uid="388774" user="drnoble">
    <nd ref="270543229"/>
    <nd ref="3124266390"/>
    <nd ref="270588794"/>
    <nd ref="3124266393"/>
    <nd ref="364105134"/>
    <nd ref="2627382276"/>
    <nd ref="364105133"/>
    <nd ref="364105162"/>
    <nd ref="2627382388"/>
    <nd ref="2627382428"/>
    <nd ref="364105132"/>
    <tag k="highway" v="residential"/>
    <tag k="lit" v="yes"/>
    <tag k="maxspeed" v="20 mph"/>
    <tag k="name" v="Burnside Park"/>
  </way>
  <way id="32344507" version="4" timestamp="2020-01-05T11:53:27Z" changeset="79210713" uid="388774" user="drnoble">
    <nd ref="3124266397"/>
    <nd ref="364105159"/>
    <nd ref="364105160"/>
    <nd ref="364105162"/>
    <tag k="highway" v="residential"/>
    <tag k="lit" v="yes"/>
    <tag k="maxspeed" v="20 mph"/>
    <tag k="name" v="Burnside Park"/>
  </way>
  <way id="32344508" version="5" timestamp="2021-09-10T12:41:30Z" changeset="111022561" uid="388774" user="drnoble">
    <nd ref="364105181"/>
    <nd ref="364104874"/>
    <nd ref="475969769"/>
    <tag k="highway" v="residential"/>
    <tag k="lit" v="yes"/>
    <tag k="maxspeed" v="20 mph"/>
    <tag k="name" v="Deanpark Grove"/>
    <tag k="sidewalk" v="both"/>
  </way>
  <way id="32344510" version="5" timestamp="2019-02-26T23:41:27Z" changeset="67600482" uid="3432400" user="GinaroZ">
    <nd ref="364105249"/>
    <nd ref="4005654699"/>
    <nd ref="364105362"/>
    <nd ref="364105366"/>
    <nd ref="364105251"/>
    <tag k="highway" v="residential"/>
    <tag k="maxspeed" v="20 mph"/>
    <tag k="name" v="Marchbank Gardens"/>
  </way>
  <way id="32344525" version="3" timestamp="2019-02-26T23:41:27Z" changeset="67600482" uid="3432400" user="GinaroZ">
    <nd ref="364105286"/>
    <nd ref="364105362"/>
    <tag k="highway" v="residential"/>
    <tag k="maxspeed" v="20 mph"/>
    <tag k="name" v="Marchbank Place"/>
  </way>
  <way id="32344529" version="12" timestamp="2024-10-15T15:58:17Z" changeset="157927727" uid="45452" user="Simon Eilting">
    <nd ref="364105366"/>
    <nd ref="9803153413"/>
    <nd ref="3875039609"/>
    <nd ref="364105380"/>
    <nd ref="9803153415"/>
    <nd ref="364105451"/>
    <nd ref="364105381"/>
    <nd ref="364105382"/>
    <nd ref="2992154586"/>
    <nd ref="8130203774"/>
    <nd ref="364105461"/>
    <tag k="cycleway:both" v="no"/>
    <tag k="highway" v="residential"/>
    <tag k="maxspeed" v="20 mph"/>
    <tag k="name" v="Marchbank Way"/>
    <tag k="sidewalk" v="both"/>
  </way>
  <way id="32344531" version="4" timestamp="2019-02-26T23:41:27Z" changeset="67600482" uid="3432400" user="GinaroZ">
    <nd ref="364105432"/>
    <nd ref="364105433"/>
    <nd ref="364105435"/>
    <nd ref="364105437"/>
    <nd ref="2992154581"/>
    <nd ref="364105382"/>
    <tag k="highway" v="residential"/>
    <tag k="maxspeed" v="20 mph"/>
    <tag k="name" v="Deanpark Gardens"/>
  </way>
  <way id="32344542" version="5" timestamp="2024-10-15T15:58:15Z" changeset="157927727" uid="45452" user="Simon Eilting">
    <nd ref="364105442"/>
    <nd ref="364105380"/>
    <tag k="cycleway:both" v="no"/>
    <tag k="highway" v="residential"/>
    <tag k="maxspeed" v="20 mph"/>
    <tag k="name" v="Deanpark Crescent"/>
    <tag k="sidewalk" v="left"/>
  </way>
  <way id="32344546" version="4" timestamp="2019-02-26T23:41:27Z" changeset="67600482" uid="3432400" user="GinaroZ">
    <nd ref="364105450"/>
    <nd ref="3875039607"/>
    <nd ref="3875039636"/>
    <nd ref="364105451"/>
    <tag k="highway" v="residential"/>
    <tag k="maxspeed" v="20 mph"/>
    <tag k="name" v="Deanpark Bank"/>
  </way>
  <way id="32344547" version="9" timestamp="2022-08-14T19:58:31Z" changeset="124901815" uid="388774" user="drnoble">
    <nd ref="364105457"/>
    <nd ref="9953399910"/>
    <nd ref="2992128269"/>
    <nd ref="364105459"/>
    <nd ref="2992128292"/>
    <nd ref="2992128312"/>
    <nd ref="2992128320"/>
    <nd ref="2992128437"/>
    <nd ref="9953400040"/>
    <nd ref="9953400158"/>
    <nd ref="364105460"/>
    <nd ref="2992128451"/>
    <nd ref="3875039845"/>
    <nd ref="9803188520"/>
    <nd ref="2992154585"/>
    <nd ref="9953400159"/>
    <nd ref="9953400177"/>
    <nd ref="364105461"/>
    <tag k="highway" v="residential"/>
    <tag k="lanes" v="2"/>
    <tag k="lit" v="yes"/>
    <tag k="maxspeed" v="20 mph"/>
    <tag k="name" v="Deanpark Place"/>
    <tag k="sidewalk" v="both"/>
    <tag k="surface" v="asphalt"/>
  </way>
  <way id="32344554" version="5" timestamp="2021-09-10T19:39:44Z" changeset="111039458" uid="388774" user="drnoble">
    <nd ref="9080875683"/>
    <nd ref="364105499"/>
    <nd ref="9080875588"/>
    <nd ref="9080875583"/>
    <nd ref="364105483"/>
    <nd ref="9080875582"/>
    <nd ref="2992128294"/>
    <nd ref="2992128304"/>
    <nd ref="9080875581"/>
    <nd ref="2992128314"/>
    <nd ref="9080875580"/>
    <nd ref="9080875579"/>
    <nd ref="9080875578"/>
    <nd ref="2992128327"/>
    <nd ref="2992128332"/>
    <nd ref="364104822"/>
    <tag k="highway" v="residential"/>
    <tag k="maxspeed" v="20 mph"/>
    <tag k="name" v="Deanpark Court"/>
  </way>
  <way id="32344558" version="4" timestamp="2021-09-10T09:40:53Z" changeset="111014928" uid="388774" user="drnoble">
    <nd ref="364105515"/>
    <nd ref="364102947"/>
    <tag k="highway" v="residential"/>
    <tag k="lanes" v="1"/>
    <tag k="lit" v="yes"/>
    <tag k="maxspeed" v="20 mph"/>
    <tag k="name" v="Lovedale Grove"/>
    <tag k="sidewalk" v="left"/>
    <tag k="surface" v="asphalt"/>
  </way>
  <way id="32344559" version="4" timestamp="2020-01-05T11:53:27Z" changeset="79210713" uid="388774" user="drnoble">
    <nd ref="364105516"/>
    <nd ref="3125598716"/>
    <nd ref="270588785"/>
    <nd ref="3125598815"/>
    <nd ref="364105517"/>
    <nd ref="364105518"/>
    <nd ref="364105519"/>
    <nd ref="3125598854"/>
    <nd ref="3125598834"/>
    <nd ref="364105520"/>
    <tag k="highway" v="residential"/>
    <tag k="lit" v="yes"/>
    <tag k="maxspeed" v="20 mph"/>
    <tag k="name" v="Johnsburn Haugh"/>
    <tag k="sidewalk" v="both"/>
  </way>
  <way id="32346485" version="6" timestamp="2022-08-14T19:58:31Z" changeset="124901815" uid="388774" user="drnoble">
    <nd ref="364105461"/>
    <nd ref="364105383"/>
    <nd ref="9953400176"/>
    <nd ref="9953400155"/>
    <nd ref="2992154628"/>
    <nd ref="9080875879"/>
    <nd ref="364105384"/>
    <tag k="highway" v="residential"/>
    <tag k="lanes" v="2"/>
    <tag k="lit" v="yes"/>
    <tag k="maxspeed" v="20 mph"/>
    <tag k="name" v="Deanpark Place"/>
    <tag k="sidewalk" v="both"/>
    <tag k="surface" v="asphalt"/>
  </way>
  <way id="32346527" version="5" timestamp="2021-09-10T09:40:53Z" changeset="111014928" uid="388774" user="drnoble">
    <nd ref="364102935"/>
    <nd ref="364102937"/>
    <nd ref="9079010167"/>
    <nd ref="9079010168"/>
    <nd ref="364102939"/>
    <nd ref="9079010169"/>
    <nd ref="364102941"/>
    <nd ref="9079010170"/>
    <nd ref="3790166950"/>
    <nd ref="364102943"/>
    <nd ref="9079010166"/>
    <nd ref="364102945"/>
    <nd ref="9079010171"/>
    <nd ref="9079010172"/>
    <nd ref="364102946"/>
    <nd ref="3790168597"/>
    <nd ref="9079010173"/>
    <nd ref="364102947"/>
    <nd ref="364102949"/>
    <nd ref="9079010175"/>
    <nd ref="364102950"/>
    <tag k="highway" v="residential"/>
    <tag k="lanes" v="2"/>
    <tag k="lit" v="yes"/>
    <tag k="maxspeed" v="20 mph"/>
    <tag k="name" v="Lovedale Crescent"/>
    <tag k="narrow" v="yes"/>
    <tag k="sidewalk" v="both"/>
    <tag k="surface" v="asphalt"/>
  </way>
  <way id="32346541" version="4" timestamp="2021-09-10T09:40:53Z" changeset="111014928" uid="388774" user="drnoble">
    <nd ref="364102950"/>
    <nd ref="9079010174"/>
    <nd ref="364102952"/>
    <tag k="highway" v="residential"/>
    <tag k="lanes" v="2"/>
    <tag k="lit" v="yes"/>
    <tag k="maxspeed" v="20 mph"/>
    <tag k="name" v="Lovedale Gardens"/>
    <tag k="narrow" v="yes"/>
    <tag k="sidewalk" v="both"/>
    <tag k="surface" v="asphalt"/>
  </way>
  <way id="32462396" version="6" timestamp="2022-04-10T14:19:15Z" changeset="119537670" uid="388774" user="drnoble">
    <nd ref="364954605"/>
    <nd ref="1131548708"/>
    <nd ref="1131548712"/>
    <nd ref="9656032041"/>
    <nd ref="364954608"/>
    <tag k="highway" v="residential"/>
    <tag k="lanes" v="2"/>
    <tag k="lit" v="yes"/>
    <tag k="maxspeed" v="20 mph"/>
    <tag k="name" v="Harlaw Gait"/>
    <tag k="sidewalk" v="both"/>
    <tag k="surface" v="asphalt"/>
  </way>
  <way id="32462399" version="3" timestamp="2009-09-23T18:30:36Z" changeset="2597989" uid="69853" user="Central America">
    <nd ref="364954643"/>
    <nd ref="506295540"/>
    <nd ref="364954645"/>
    <tag k="highway" v="residential"/>
    <tag k="name" v="Harlaw Gait"/>
  </way>
  <way id="32462419" version="9" timestamp="2022-04-10T17:34:31Z" changeset="119544936" uid="388774" user="drnoble">
    <nd ref="364954737"/>
    <nd ref="364954883"/>
    <nd ref="364954884"/>
    <nd ref="9656428168"/>
    <nd ref="365043387"/>
    <nd ref="365043095"/>
    <nd ref="9656445818"/>
    <nd ref="364954889"/>
    <nd ref="9656445899"/>
    <nd ref="5986612334"/>
    <nd ref="364954890"/>
    <nd ref="9656445898"/>
    <nd ref="8794828701"/>
    <nd ref="8794828702"/>
    <nd ref="6950115132"/>
    <nd ref="8794828703"/>
    <nd ref="364954871"/>
    <tag k="highway" v="residential"/>
    <tag k="lanes" v="1"/>
    <tag k="lit" v="yes"/>
    <tag k="maxspeed" v="30 mph"/>
    <tag k="name" v="Malleny Millgate"/>
    <tag k="sidewalk" v="no"/>
    <tag k="surface" v="asphalt"/>
  </way>
  <way id="32469336" version="6" timestamp="2024-10-15T16:01:13Z" changeset="157927727" uid="45452" user="Simon Eilting">
    <nd ref="365038095"/>
    <nd ref="4266846863"/>
    <nd ref="365037905"/>
    <nd ref="365037792"/>
    <nd ref="4266846874"/>
    <tag k="cycleway:both" v="no"/>
    <tag k="highway" v="residential"/>
    <tag k="maxspeed" v="20 mph"/>
    <tag k="name" v="Bavelaw Road"/>
    <tag k="sidewalk" v="both"/>
  </way>
  <way id="32469344" version="9" timestamp="2024-08-18T09:49:56Z" changeset="155404673" uid="45452" user="Simon Eilting">
    <nd ref="29371938"/>
    <nd ref="365038589"/>
    <nd ref="365039432"/>
    <nd ref="9656055579"/>
    <nd ref="365038888"/>
    <nd ref="365038594"/>
    <tag k="cycleway:both" v="no"/>
    <tag k="highway" v="residential"/>
    <tag k="maxspeed" v="20 mph"/>
    <tag k="name" v="Bavelaw Gardens"/>
  </way>
  <way id="32469346" version="5" timestamp="2019-02-26T23:41:28Z" changeset="67600482" uid="3432400" user="GinaroZ">
    <nd ref="365038698"/>
    <nd ref="365038700"/>
    <nd ref="365038701"/>
    <nd ref="365038606"/>
    <nd ref="365038610"/>
    <nd ref="365038615"/>
    <nd ref="365038619"/>
    <tag k="highway" v="residential"/>
    <tag k="maxspeed" v="20 mph"/>
    <tag k="name" v="Bavelaw Gardens"/>
  </way>
  <way id="32469400" version="5" timestamp="2024-08-18T09:49:58Z" changeset="155404673" uid="45452" user="Simon Eilting">
    <nd ref="365039155"/>
    <nd ref="365039156"/>
    <nd ref="365039158"/>
    <nd ref="365039160"/>
    <nd ref="365038888"/>
    <tag k="cycleway:both" v="no"/>
    <tag k="highway" v="residential"/>
    <tag k="maxspeed" v="20 mph"/>
    <tag k="name" v="Bavelaw Gardens"/>
  </way>
  <way id="32469427" version="4" timestamp="2019-02-26T23:41:28Z" changeset="67600482" uid="3432400" user="GinaroZ">
    <nd ref="31040171"/>
    <nd ref="2619009428"/>
    <nd ref="2619009418"/>
    <nd ref="365039957"/>
    <tag k="highway" v="residential"/>
    <tag k="maxspeed" v="20 mph"/>
    <tag k="name" v="Millbank"/>
  </way>
  <way id="32469431" version="7" timestamp="2024-10-15T16:00:53Z" changeset="157927727" uid="45452" user="Simon Eilting">
    <nd ref="365040081"/>
    <nd ref="2619009476"/>
    <nd ref="9656055567"/>
    <nd ref="2619009495"/>
    <nd ref="9656055568"/>
    <nd ref="365040082"/>
    <nd ref="4266846838"/>
    <nd ref="365040084"/>
    <tag k="cycleway:both" v="no"/>
    <tag k="highway" v="residential"/>
    <tag k="lanes" v="2"/>
    <tag k="lit" v="yes"/>
    <tag k="maxspeed" v="20 mph"/>
    <tag k="name" v="Bavelaw Road"/>
    <tag k="sidewalk" v="no"/>
    <tag k="surface" v="paved"/>
  </way>
  <way id="32469452" version="7" timestamp="2024-08-26T12:57:29Z" changeset="155781272" uid="21143475" user="Htf4">
    <nd ref="3642929911"/>
    <nd ref="9669819396"/>
    <nd ref="29371900"/>
    <nd ref="5777199293"/>
    <nd ref="5777199294"/>
    <nd ref="5777199295"/>
    <nd ref="29371899"/>
    <nd ref="29371898"/>
    <nd ref="5777199296"/>
    <nd ref="29371897"/>
    <nd ref="5777199297"/>
    <nd ref="5777199298"/>
    <nd ref="29371896"/>
    <nd ref="29371894"/>
    <tag k="highway" v="unclassified"/>
    <tag k="lane_markings" v="no"/>
    <tag k="sidewalk" v="no"/>
    <tag k="surface" v="asphalt"/>
  </way>
  <way id="32469464" version="11" timestamp="2024-08-18T09:49:06Z" changeset="155404673" uid="45452" user="Simon Eilting">
    <nd ref="29371933"/>
    <nd ref="365040084"/>
    <nd ref="365038095"/>
    <nd ref="29371934"/>
    <nd ref="365036609"/>
    <nd ref="9656055577"/>
    <nd ref="8525061000"/>
    <nd ref="29371935"/>
    <nd ref="9079501896"/>
    <nd ref="4266847708"/>
    <nd ref="1536891135"/>
    <nd ref="9079501895"/>
    <nd ref="29371936"/>
    <nd ref="29371937"/>
    <nd ref="9079501894"/>
    <nd ref="29371938"/>
    <nd ref="9079501893"/>
    <nd ref="2618987265"/>
    <nd ref="9079501892"/>
    <nd ref="9079501890"/>
    <nd ref="29371939"/>
    <nd ref="9079501891"/>
    <nd ref="29371940"/>
    <nd ref="364104952"/>
    <tag k="cycleway:both" v="no"/>
    <tag k="highway" v="tertiary"/>
    <tag k="lanes" v="2"/>
    <tag k="lit" v="yes"/>
    <tag k="maxspeed" v="20 mph"/>
    <tag k="name" v="Bavelaw Road"/>
    <tag k="sidewalk" v="both"/>
    <tag k="surface" v="asphalt"/>
  </way>
  <way id="32469474" version="8" timestamp="2024-08-18T09:50:26Z" changeset="155404673" uid="45452" user="Simon Eilting">
    <nd ref="364104952"/>
    <nd ref="9656055704"/>
    <nd ref="9656055697"/>
    <nd ref="29371941"/>
    <nd ref="9656055698"/>
    <nd ref="29371942"/>
    <nd ref="9656055699"/>
    <nd ref="9656055700"/>
    <nd ref="29371943"/>
    <nd ref="9656055701"/>
    <nd ref="9656055702"/>
    <nd ref="365047010"/>
    <nd ref="9656055703"/>
    <nd ref="9656055705"/>
    <nd ref="2618987306"/>
    <nd ref="9656055706"/>
    <nd ref="29371944"/>
    <nd ref="9656055720"/>
    <nd ref="9079483297"/>
    <nd ref="9079483296"/>
    <nd ref="9079483298"/>
    <nd ref="29371945"/>
    <tag k="cycleway:both" v="no"/>
    <tag k="highway" v="tertiary"/>
    <tag k="lanes" v="2"/>
    <tag k="lit" v="yes"/>
    <tag k="maxspeed" v="30 mph"/>
    <tag k="name" v="Bavelaw Green"/>
    <tag k="sidewalk" v="both"/>
    <tag k="surface" v="asphalt"/>
  </way>
  <way id="32469519" version="4" timestamp="2022-04-10T17:34:31Z" changeset="119544936" uid="388774" user="drnoble">
    <nd ref="365042568"/>
    <nd ref="9656446191"/>
    <nd ref="365042573"/>
    <nd ref="365042579"/>
    <nd ref="365042582"/>
    <nd ref="365042585"/>
    <nd ref="365042663"/>
    <nd ref="365042589"/>
    <nd ref="31040160"/>
    <tag k="highway" v="residential"/>
    <tag k="lit" v="yes"/>
    <tag k="maxspeed" v="20 mph"/>
    <tag k="name" v="Harlaw March"/>
  </way>
  <way id="32469551" version="4" timestamp="2020-01-05T11:53:27Z" changeset="79210713" uid="388774" user="drnoble">
    <nd ref="1131548684"/>
    <nd ref="1131548685"/>
    <nd ref="365042891"/>
    <nd ref="1535818584"/>
    <nd ref="365042895"/>
    <nd ref="365042898"/>
    <nd ref="365042903"/>
    <nd ref="1131548696"/>
    <nd ref="365042908"/>
    <nd ref="365042913"/>
    <tag k="highway" v="residential"/>
    <tag k="lit" v="yes"/>
    <tag k="maxspeed" v="20 mph"/>
    <tag k="name" v="Harlaw Bank"/>
  </way>
  <way id="32469561" version="3" timestamp="2022-04-10T17:34:31Z" changeset="119544936" uid="388774" user="drnoble">
    <nd ref="365043175"/>
    <nd ref="9656445827"/>
    <nd ref="365043181"/>
    <nd ref="365043186"/>
    <nd ref="9656445828"/>
    <nd ref="365043095"/>
    <tag k="highway" v="residential"/>
    <tag k="lanes" v="1"/>
    <tag k="lit" v="yes"/>
    <tag k="maxspeed" v="30 mph"/>
    <tag k="name" v="The Green"/>
    <tag k="sidewalk" v="no"/>
    <tag k="surface" v="asphalt"/>
  </way>
  <way id="32469573" version="3" timestamp="2022-04-10T17:34:31Z" changeset="119544936" uid="388774" user="drnoble">
    <nd ref="365043374"/>
    <nd ref="365043378"/>
    <nd ref="365043381"/>
    <nd ref="5986612332"/>
    <nd ref="365043384"/>
    <nd ref="9656428167"/>
    <nd ref="365043387"/>
    <tag k="highway" v="residential"/>
    <tag k="lanes" v="1"/>
    <tag k="lit" v="yes"/>
    <tag k="name" v="The Lade"/>
    <tag k="sidewalk" v="no"/>
    <tag k="surface" v="asphalt"/>
  </way>
  <way id="32469617" version="6" timestamp="2023-10-19T17:49:06Z" changeset="142828743" uid="9451067" user="b-jazz-bot">
    <nd ref="5838777487"/>
    <nd ref="5838777490"/>
    <nd ref="9669819344"/>
    <nd ref="9669819343"/>
    <nd ref="9669819341"/>
    <nd ref="9669819342"/>
    <nd ref="9669819345"/>
    <nd ref="365043934"/>
    <nd ref="365043938"/>
    <nd ref="5838777489"/>
    <nd ref="5838777488"/>
    <nd ref="9669819352"/>
    <nd ref="9669819351"/>
    <nd ref="365043941"/>
    <nd ref="9669819350"/>
    <nd ref="365043946"/>
    <nd ref="9669819346"/>
    <nd ref="9669819347"/>
    <nd ref="5838777487"/>
    <tag k="building" v="yes"/>
    <tag k="name" v="Harlaw House Visitor Centre"/>
    <tag k="opening_hours" v="Mo-Fr 11:00-15:30; Sa-Su 11:30-15:00"/>
    <tag k="source" v="Bing;survey"/>
    <tag k="toilets" v="yes"/>
    <tag k="tourism" v="attraction"/>
    <tag k="website" v="https://www.pentlandhills.org/info/3/about_the_park/30/visit_us_visitor_centres/2"/>
  </way>
  <way id="32469856" version="6" timestamp="2024-10-25T16:44:41Z" changeset="158346484" uid="3432400" user="GinaroZ">
    <nd ref="365049634"/>
    <nd ref="365049637"/>
    <nd ref="365049640"/>
    <nd ref="365049643"/>
    <nd ref="365049634"/>
    <tag k="building" v="yes"/>
    <tag k="name" v="Currie RFC"/>
    <tag k="sport" v="rugby_union"/>
  </way>
  <way id="43741517" version="12" timestamp="2024-08-18T09:37:35Z" changeset="155404688" uid="45452" user="Simon Eilting">
    <nd ref="270588691"/>
    <nd ref="270543196"/>
    <nd ref="270588693"/>
    <nd ref="270543197"/>
    <nd ref="270543199"/>
    <nd ref="270543200"/>
    <nd ref="270543202"/>
    <nd ref="270588737"/>
    <nd ref="270543204"/>
    <nd ref="270543205"/>
    <nd ref="270543207"/>
    <nd ref="1989008458"/>
    <nd ref="3876012554"/>
    <nd ref="270543208"/>
    <nd ref="270543210"/>
    <nd ref="3876038268"/>
    <nd ref="3876038294"/>
    <nd ref="270543212"/>
    <nd ref="11476842628"/>
    <nd ref="270543213"/>
    <nd ref="270543214"/>
    <nd ref="270588741"/>
    <nd ref="2992127483"/>
    <nd ref="270543218"/>
    <nd ref="270588751"/>
    <nd ref="11476810477"/>
    <tag k="cycleway:both" v="no"/>
    <tag k="highway" v="tertiary"/>
    <tag k="lanes" v="2"/>
    <tag k="lit" v="yes"/>
    <tag k="maxspeed" v="30 mph"/>
    <tag k="name" v="Cockburn Crescent"/>
    <tag k="sidewalk" v="right"/>
    <tag k="sidewalk:right:surface" v="asphalt"/>
    <tag k="smoothness" v="good"/>
    <tag k="surface" v="asphalt"/>
  </way>
  <way id="43741519" version="5" timestamp="2024-08-18T09:46:57Z" changeset="155404673" uid="45452" user="Simon Eilting">
    <nd ref="270588687"/>
    <nd ref="29371928"/>
    <tag k="cycleway:both" v="no"/>
    <tag k="highway" v="unclassified"/>
    <tag k="name" v="Mansfield Road"/>
    <tag k="sidewalk" v="both"/>
    <tag k="sidewalk:both:surface" v="asphalt"/>
  </way>
  <way id="59504551" version="30" timestamp="2024-11-03T12:35:51Z" changeset="158697061" uid="5229644" user="Nathan_A_RF">
    <nd ref="108412586"/>
    <nd ref="108412598"/>
    <nd ref="108412605"/>
    <nd ref="346434625"/>
    <nd ref="1362816596"/>
    <nd ref="108412616"/>
    <nd ref="3083392873"/>
    <nd ref="108412622"/>
    <nd ref="1362816632"/>
    <nd ref="1362816620"/>
    <nd ref="108412625"/>
    <nd ref="108412628"/>
    <nd ref="1362812778"/>
    <nd ref="8542309247"/>
    <nd ref="3642929967"/>
    <nd ref="108412634"/>
    <nd ref="3642929968"/>
    <nd ref="108412638"/>
    <nd ref="1942809438"/>
    <nd ref="8542309142"/>
    <nd ref="3642929969"/>
    <nd ref="1942809437"/>
    <nd ref="8542309143"/>
    <nd ref="8542309144"/>
    <nd ref="108412646"/>
    <nd ref="8542309042"/>
    <nd ref="108412650"/>
    <nd ref="8542309090"/>
    <nd ref="3642929970"/>
    <nd ref="8541513566"/>
    <nd ref="108412654"/>
    <nd ref="4582762366"/>
    <nd ref="3642929971"/>
    <nd ref="108412656"/>
    <nd ref="108412658"/>
    <nd ref="3642929972"/>
    <tag k="highway" v="primary"/>
    <tag k="lanes" v="2"/>
    <tag k="lit" v="no"/>
    <tag k="maxspeed" v="60 mph"/>
    <tag k="maxspeed:type" v="GB:nsl_single"/>
    <tag k="ref" v="A70"/>
    <tag k="sidewalk" v="no"/>
    <tag k="smoothness" v="intermediate"/>
    <tag k="smoothness:date" v="2019-10-17"/>
    <tag k="surface" v="asphalt"/>
  </way>
  <way id="59504553" version="7" timestamp="2021-08-29T08:32:37Z" changeset="110403069" uid="388774" user="drnoble">
    <nd ref="506296038"/>
    <nd ref="3079032888"/>
    <nd ref="108412572"/>
    <nd ref="3079032840"/>
    <nd ref="108412577"/>
    <nd ref="108412581"/>
    <nd ref="108412586"/>
    <tag k="highway" v="primary"/>
    <tag k="lanes" v="2"/>
    <tag k="lit" v="no"/>
    <tag k="maxspeed" v="60 mph"/>
    <tag k="maxspeed:type" v="GB:nsl_single"/>
    <tag k="ref" v="A70"/>
    <tag k="sidewalk" v="no"/>
    <tag k="surface" v="asphalt"/>
  </way>
  <way id="59504554" version="13" timestamp="2024-08-18T08:55:52Z" changeset="155402724" uid="45452" user="Simon Eilting">
    <nd ref="348098675"/>
    <nd ref="270543222"/>
    <nd ref="9064315747"/>
    <nd ref="364103120"/>
    <nd ref="270543223"/>
    <nd ref="4305903604"/>
    <nd ref="3125598576"/>
    <nd ref="270543224"/>
    <nd ref="270543225"/>
    <nd ref="270543226"/>
    <nd ref="270588788"/>
    <nd ref="270588790"/>
    <nd ref="270543227"/>
    <nd ref="270588792"/>
    <nd ref="270543228"/>
    <nd ref="2627382099"/>
    <nd ref="3124266382"/>
    <nd ref="9079004002"/>
    <nd ref="270543229"/>
    <nd ref="9803188525"/>
    <nd ref="9079004003"/>
    <nd ref="270543230"/>
    <nd ref="3124266394"/>
    <nd ref="270543231"/>
    <nd ref="270543232"/>
    <nd ref="2627382395"/>
    <nd ref="2627382413"/>
    <nd ref="9079483302"/>
    <nd ref="270543239"/>
    <tag k="cycleway:both" v="no"/>
    <tag k="highway" v="tertiary"/>
    <tag k="lanes" v="2"/>
    <tag k="lit" v="yes"/>
    <tag k="maxspeed" v="30 mph"/>
    <tag k="name" v="Johnsburn Road"/>
    <tag k="sidewalk" v="both"/>
    <tag k="smoothness" v="intermediate"/>
    <tag k="surface" v="asphalt"/>
  </way>
  <way id="70982760" version="4" timestamp="2024-01-24T21:13:38Z" changeset="146647686" uid="53626" user="jambamkin">
    <nd ref="11547503575"/>
    <nd ref="845855687"/>
    <nd ref="11547503576"/>
    <nd ref="11547503577"/>
    <nd ref="845855676"/>
    <nd ref="11547503578"/>
    <nd ref="845855685"/>
    <nd ref="11547503579"/>
    <nd ref="279288608"/>
    <nd ref="11547503580"/>
    <nd ref="845855672"/>
    <nd ref="11547503581"/>
    <nd ref="279288656"/>
    <nd ref="11547503582"/>
    <nd ref="845855680"/>
    <nd ref="9958479717"/>
    <nd ref="9958479721"/>
    <nd ref="279288657"/>
    <nd ref="9958479724"/>
    <nd ref="845855690"/>
    <nd ref="11547503583"/>
    <nd ref="279288658"/>
    <nd ref="11547503575"/>
    <tag k="highway" v="residential"/>
    <tag k="maxspeed" v="20 mph"/>
    <tag k="name" v="Ravelrig Park"/>
  </way>
  <way id="70982761" version="2" timestamp="2019-02-26T23:41:25Z" changeset="67600482" uid="3432400" user="GinaroZ">
    <nd ref="845855677"/>
    <nd ref="845855678"/>
    <nd ref="845855686"/>
    <nd ref="845855675"/>
    <nd ref="6304660167"/>
    <nd ref="6304660168"/>
    <nd ref="6304660169"/>
    <nd ref="6304660170"/>
    <nd ref="6304660171"/>
    <nd ref="6304660172"/>
    <nd ref="845855678"/>
    <tag k="highway" v="residential"/>
    <tag k="maxspeed" v="30 mph"/>
    <tag k="name" v="Pilmuir Grove"/>
    <tag k="source" v="OS_OpenData_StreetView"/>
  </way>
  <way id="72457521" version="4" timestamp="2019-02-26T23:41:24Z" changeset="67600482" uid="3432400" user="GinaroZ">
    <nd ref="4139569000"/>
    <nd ref="4139569001"/>
    <nd ref="4139569002"/>
    <nd ref="4139569003"/>
    <nd ref="4139569005"/>
    <nd ref="860275374"/>
    <nd ref="860275375"/>
    <tag k="highway" v="residential"/>
    <tag k="maxspeed" v="20 mph"/>
    <tag k="name" v="Ashley Grange"/>
    <tag k="source" v="OS_OpenData_StreetView"/>
  </way>
  <way id="75729517" version="5" timestamp="2021-09-10T12:41:30Z" changeset="111022561" uid="388774" user="drnoble">
    <nd ref="364104877"/>
    <nd ref="9079502013"/>
    <nd ref="364104878"/>
    <nd ref="364104879"/>
    <nd ref="364104880"/>
    <nd ref="9079502022"/>
    <nd ref="845855691"/>
    <nd ref="364104881"/>
    <nd ref="9079502015"/>
    <nd ref="364104882"/>
    <nd ref="9079502014"/>
    <nd ref="364104883"/>
    <tag k="highway" v="residential"/>
    <tag k="lit" v="yes"/>
    <tag k="maxspeed" v="20 mph"/>
    <tag k="name" v="Deanpark Brae"/>
    <tag k="sidewalk" v="both"/>
    <tag k="source" v="survey"/>
  </way>
  <way id="124093763" version="4" timestamp="2021-08-29T08:32:37Z" changeset="110403069" uid="388774" user="drnoble">
    <nd ref="357878335"/>
    <nd ref="357878337"/>
    <tag k="bridge" v="yes"/>
    <tag k="highway" v="unclassified"/>
    <tag k="lanes" v="1"/>
    <tag k="layer" v="1"/>
    <tag k="lit" v="no"/>
    <tag k="maxspeed" v="60 mph"/>
    <tag k="name" v="Haughhead Road"/>
    <tag k="sidewalk" v="no"/>
    <tag k="surface" v="asphalt"/>
    <tag k="width" v="4"/>
  </way>
  <way id="140265542" version="3" timestamp="2019-02-26T23:41:28Z" changeset="67600482" uid="3432400" user="GinaroZ">
    <nd ref="365038594"/>
    <nd ref="365038598"/>
    <tag k="bridge" v="yes"/>
    <tag k="highway" v="residential"/>
    <tag k="layer" v="1"/>
    <tag k="maxspeed" v="20 mph"/>
    <tag k="name" v="Bavelaw Gardens"/>
  </way>
  <way id="140265544" version="3" timestamp="2019-02-26T23:41:28Z" changeset="67600482" uid="3432400" user="GinaroZ">
    <nd ref="365038598"/>
    <nd ref="365038602"/>
    <nd ref="365038606"/>
    <tag k="highway" v="residential"/>
    <tag k="maxspeed" v="20 mph"/>
    <tag k="name" v="Bavelaw Gardens"/>
  </way>
  <way id="144080040" version="2" timestamp="2014-01-11T17:35:29Z" changeset="19938860" uid="388774" user="drnoble">
    <nd ref="1576686933"/>
    <nd ref="29371780"/>
    <tag k="bridge" v="yes"/>
    <tag k="highway" v="unclassified"/>
    <tag k="lanes" v="2"/>
    <tag k="layer" v="1"/>
    <tag k="lit" v="no"/>
    <tag k="maxspeed" v="60 mph"/>
    <tag k="name" v="Harlaw Road"/>
  </way>
  <way id="144080044" version="6" timestamp="2024-06-11T22:45:23Z" changeset="152563793" uid="21641120" user="Kate Perry">
    <nd ref="29371780"/>
    <nd ref="29371781"/>
    <nd ref="3642930431"/>
    <nd ref="29371783"/>
    <nd ref="29371784"/>
    <nd ref="11974110109"/>
    <nd ref="29371785"/>
    <nd ref="3642930432"/>
    <nd ref="31040138"/>
    <nd ref="2618812110"/>
    <nd ref="31040139"/>
    <nd ref="31040140"/>
    <nd ref="31040141"/>
    <nd ref="31040142"/>
    <nd ref="31040143"/>
    <nd ref="31040144"/>
    <nd ref="31040145"/>
    <nd ref="31040146"/>
    <nd ref="9656445933"/>
    <nd ref="31040147"/>
    <nd ref="2618812075"/>
    <nd ref="31040148"/>
    <nd ref="2618812100"/>
    <nd ref="9656445934"/>
    <nd ref="31040149"/>
    <nd ref="31040150"/>
    <tag k="highway" v="unclassified"/>
    <tag k="lanes" v="2"/>
    <tag k="lit" v="no"/>
    <tag k="maxspeed" v="60 mph"/>
    <tag k="name" v="Harlaw Road"/>
    <tag k="narrow" v="yes"/>
  </way>
  <way id="144080773" version="4" timestamp="2022-04-10T14:19:15Z" changeset="119537670" uid="388774" user="drnoble">
    <nd ref="1131548727"/>
    <nd ref="1576712017"/>
    <tag k="bridge" v="yes"/>
    <tag k="highway" v="residential"/>
    <tag k="lanes" v="2"/>
    <tag k="layer" v="1"/>
    <tag k="lit" v="yes"/>
    <tag k="maxspeed" v="20 mph"/>
    <tag k="name" v="Harlaw Road"/>
    <tag k="sidewalk" v="right"/>
  </way>
  <way id="144080774" version="6" timestamp="2024-10-15T15:59:46Z" changeset="157927727" uid="45452" user="Simon Eilting">
    <nd ref="1576712017"/>
    <nd ref="31040166"/>
    <nd ref="31040167"/>
    <nd ref="31040168"/>
    <nd ref="31040169"/>
    <nd ref="29371933"/>
    <tag k="cycleway:both" v="no"/>
    <tag k="highway" v="residential"/>
    <tag k="lanes" v="2"/>
    <tag k="lit" v="yes"/>
    <tag k="maxspeed" v="20 mph"/>
    <tag k="name" v="Harlaw Road"/>
    <tag k="sidewalk" v="right"/>
  </way>
  <way id="144080850" version="6" timestamp="2021-07-09T11:56:19Z" changeset="107701711" uid="11558580" user="jaabhil">
    <nd ref="1576715491"/>
    <nd ref="3077471270"/>
    <nd ref="348098662"/>
    <nd ref="3078820666"/>
    <nd ref="3077471267"/>
    <nd ref="348098663"/>
    <nd ref="3077471266"/>
    <nd ref="8907141850"/>
    <nd ref="3077471268"/>
    <nd ref="3078820668"/>
    <nd ref="348098664"/>
    <nd ref="348098665"/>
    <nd ref="3078821038"/>
    <nd ref="348098666"/>
    <nd ref="3077471326"/>
    <nd ref="348098667"/>
    <nd ref="3077474870"/>
    <nd ref="348098668"/>
    <nd ref="3077474923"/>
    <nd ref="348098669"/>
    <tag k="highway" v="tertiary"/>
    <tag k="lanes" v="2"/>
    <tag k="lit" v="no"/>
    <tag k="maxspeed" v="60 mph"/>
    <tag k="name" v="Glenbrook Road"/>
    <tag k="sidewalk" v="no"/>
    <tag k="surface" v="asphalt"/>
  </way>
  <way id="144080851" version="5" timestamp="2021-09-05T17:28:12Z" changeset="110759117" uid="388774" user="drnoble">
    <nd ref="348098661"/>
    <nd ref="1576715491"/>
    <tag k="bridge" v="yes"/>
    <tag k="highway" v="tertiary"/>
    <tag k="lanes" v="2"/>
    <tag k="layer" v="1"/>
    <tag k="lit" v="no"/>
    <tag k="maxspeed" v="60 mph"/>
    <tag k="name" v="Glenbrook Road"/>
    <tag k="sidewalk" v="no"/>
    <tag k="surface" v="asphalt"/>
  </way>
  <way id="157685282" version="11" timestamp="2024-08-18T09:44:58Z" changeset="155404673" uid="45452" user="Simon Eilting">
    <nd ref="29371928"/>
    <nd ref="270588698"/>
    <nd ref="1699455536"/>
    <nd ref="1989008479"/>
    <nd ref="7027685725"/>
    <nd ref="364104082"/>
    <nd ref="364104104"/>
    <nd ref="3875039602"/>
    <nd ref="1699455535"/>
    <nd ref="1699455534"/>
    <nd ref="12093057577"/>
    <nd ref="3875039889"/>
    <nd ref="1699455533"/>
    <nd ref="9656032101"/>
    <nd ref="6304660175"/>
    <tag k="cycleway:both" v="no"/>
    <tag k="highway" v="tertiary"/>
    <tag k="lanes" v="2"/>
    <tag k="lit" v="yes"/>
    <tag k="maxspeed" v="30 mph"/>
    <tag k="name" v="Mansfield Road"/>
    <tag k="sidewalk" v="both"/>
    <tag k="surface" v="asphalt"/>
  </way>
  <way id="194356880" version="4" timestamp="2021-05-15T19:36:03Z" changeset="104746963" uid="4007299" user="FrenchyF">
    <nd ref="2048747375"/>
    <nd ref="6733310912"/>
    <nd ref="108412504"/>
    <nd ref="6733310913"/>
    <nd ref="6733310914"/>
    <nd ref="108412510"/>
    <nd ref="108412513"/>
    <nd ref="108412521"/>
    <nd ref="108412526"/>
    <nd ref="108412528"/>
    <nd ref="108412532"/>
    <nd ref="108412536"/>
    <nd ref="108412541"/>
    <nd ref="108412547"/>
    <nd ref="348098830"/>
    <nd ref="108412553"/>
    <nd ref="108412558"/>
    <nd ref="506296038"/>
    <tag k="highway" v="primary"/>
    <tag k="lanes" v="2"/>
    <tag k="maxspeed" v="60 mph"/>
    <tag k="maxspeed:type" v="GB:nsl_single"/>
    <tag k="ref" v="A70"/>
    <tag k="surface" v="asphalt"/>
  </way>
  <way id="230776863" version="8" timestamp="2025-01-05T11:42:07Z" changeset="161016952" uid="6871" user="smsm1">
    <nd ref="2392295531"/>
    <nd ref="2619009887"/>
    <nd ref="2619009891"/>
    <nd ref="7108984764"/>
    <nd ref="2392295520"/>
    <nd ref="2392295533"/>
    <nd ref="2992154725"/>
    <nd ref="2992154726"/>
    <nd ref="2392295526"/>
    <nd ref="2392295477"/>
    <nd ref="2619009851"/>
    <nd ref="9079502024"/>
    <nd ref="9079502023"/>
    <nd ref="2619009835"/>
    <nd ref="2392295531"/>
    <tag k="addr:city" v="Balerno"/>
    <tag k="addr:housenumber" v="6"/>
    <tag k="addr:postcode" v="EH14 7EH"/>
    <tag k="addr:street" v="Main Street"/>
    <tag k="brand" v="Scotmid"/>
    <tag k="brand:wikidata" v="Q7435719"/>
    <tag k="brand:wikipedia" v="en:Scotmid"/>
    <tag k="building" v="retail"/>
    <tag k="check_date" v="2025-01-05"/>
    <tag k="fhrs:id" v="661681"/>
    <tag k="name" v="Scotmid"/>
    <tag k="opening_hours" v="Mo-Fr 07:30-22:00; Sa-Su 08:00-22:00"/>
    <tag k="shop" v="supermarket"/>
    <tag k="source" v="local_knowledge"/>
    <tag k="source:addr" v="FHRS Open Data"/>
    <tag k="website" v="https://scotmid.coop/store/balerno-1/"/>
  </way>
  <way id="230776864" version="2" timestamp="2021-09-10T12:41:30Z" changeset="111022561" uid="388774" user="drnoble">
    <nd ref="2392295452"/>
    <nd ref="9079483276"/>
    <nd ref="9079483266"/>
    <nd ref="9079483274"/>
    <nd ref="9079483273"/>
    <nd ref="9079483275"/>
    <nd ref="9079483265"/>
    <nd ref="2392295502"/>
    <nd ref="9079483264"/>
    <nd ref="2392295547"/>
    <nd ref="9079483263"/>
    <nd ref="2392295538"/>
    <nd ref="2392295494"/>
    <nd ref="9079483262"/>
    <nd ref="9079483272"/>
    <nd ref="9079483270"/>
    <nd ref="9079483269"/>
    <nd ref="9079483261"/>
    <nd ref="9079483271"/>
    <nd ref="2392295540"/>
    <nd ref="9079483287"/>
    <nd ref="9079483286"/>
    <nd ref="9079483247"/>
    <nd ref="9079483285"/>
    <nd ref="9079483277"/>
    <nd ref="9079483288"/>
    <nd ref="9079483278"/>
    <nd ref="9079483290"/>
    <nd ref="9079483279"/>
    <nd ref="9079483284"/>
    <nd ref="9079483268"/>
    <nd ref="9079483280"/>
    <nd ref="9079483281"/>
    <nd ref="9079483283"/>
    <nd ref="9079483267"/>
    <nd ref="9079483282"/>
    <nd ref="9079483289"/>
    <nd ref="2392295452"/>
    <tag k="amenity" v="police"/>
    <tag k="building" v="yes"/>
    <tag k="name" v="Balerno Police Station"/>
    <tag k="source" v="Bing"/>
  </way>
  <way id="230776949" version="5" timestamp="2025-01-05T11:38:36Z" changeset="161016833" uid="6871" user="smsm1">
    <nd ref="2392296278"/>
    <nd ref="9079501917"/>
    <nd ref="9079501918"/>
    <nd ref="9079501916"/>
    <nd ref="9079501915"/>
    <nd ref="2392296276"/>
    <nd ref="270588804"/>
    <nd ref="2392296277"/>
    <nd ref="9079501913"/>
    <nd ref="9079501914"/>
    <nd ref="2392296279"/>
    <nd ref="9079501922"/>
    <nd ref="9079501921"/>
    <nd ref="9079501920"/>
    <nd ref="9079501919"/>
    <nd ref="2392296278"/>
    <tag k="addr:city" v="Balerno"/>
    <tag k="addr:street" v="Main Street"/>
    <tag k="amenity" v="place_of_worship"/>
    <tag k="building" v="church"/>
    <tag k="check_date" v="2025-01-05"/>
    <tag k="denomination" v="church_of_scotland"/>
    <tag k="name" v="Balerno Parish Church"/>
    <tag k="religion" v="christian"/>
    <tag k="source" v="Bing"/>
  </way>
  <way id="255100258" version="4" timestamp="2021-08-07T15:04:42Z" changeset="109314273" uid="388774" user="drnoble">
    <nd ref="2608455692"/>
    <nd ref="2608455696"/>
    <nd ref="8988036846"/>
    <nd ref="8988036845"/>
    <nd ref="8988036844"/>
    <nd ref="2608455705"/>
    <nd ref="2608455697"/>
    <nd ref="2608455691"/>
    <nd ref="8988036847"/>
    <nd ref="2608455685"/>
    <nd ref="2608455678"/>
    <nd ref="2608455676"/>
    <nd ref="2608455672"/>
    <nd ref="8988036843"/>
    <nd ref="2608455682"/>
    <nd ref="2608455689"/>
    <nd ref="2608455686"/>
    <nd ref="2608455692"/>
    <tag k="addr:housenumber" v="472"/>
    <tag k="addr:street" v="Lanark Road West"/>
    <tag k="building" v="yes"/>
    <tag k="name" v="Just B"/>
    <tag k="source" v="bing"/>
    <tag k="tourism" v="guest_house"/>
    <tag k="website" v="https://justbedinburgh.com/"/>
  </way>
  <way id="255100261" version="2" timestamp="2020-10-22T12:48:23Z" changeset="92897269" uid="636803" user="michau">
    <nd ref="2608456055"/>
    <nd ref="2608456075"/>
    <nd ref="2608456048"/>
    <nd ref="2608456028"/>
    <nd ref="2608456055"/>
    <tag k="addr:housenumber" v="18"/>
    <tag k="addr:street" v="Cherry Tree Gardens"/>
    <tag k="building" v="residential"/>
    <tag k="source" v="bing"/>
  </way>
  <way id="255100271" version="2" timestamp="2020-10-22T12:46:53Z" changeset="92897269" uid="636803" user="michau">
    <nd ref="2608456844"/>
    <nd ref="2608456913"/>
    <nd ref="2608456875"/>
    <nd ref="2608456816"/>
    <nd ref="2608456844"/>
    <tag k="addr:housenumber" v="25"/>
    <tag k="addr:street" v="Cherry Tree Park"/>
    <tag k="building" v="residential"/>
    <tag k="source" v="bing"/>
  </way>
  <way id="255100276" version="3" timestamp="2022-01-27T23:34:20Z" changeset="116686048" uid="3432400" user="GinaroZ">
    <nd ref="2608456439"/>
    <nd ref="2608456463"/>
    <nd ref="2608456478"/>
    <nd ref="2608456453"/>
    <nd ref="2608456439"/>
    <tag k="addr:city" v="Balerno"/>
    <tag k="addr:housenumber" v="16"/>
    <tag k="addr:postcode" v="EH14 5SU"/>
    <tag k="addr:street" v="Newmills Road"/>
    <tag k="building" v="residential"/>
  </way>
  <way id="255100381" version="3" timestamp="2022-01-27T23:34:20Z" changeset="116686048" uid="3432400" user="GinaroZ">
    <nd ref="2608456285"/>
    <nd ref="2608456257"/>
    <nd ref="2608456243"/>
    <nd ref="2608456274"/>
    <nd ref="2608456285"/>
    <tag k="addr:city" v="Balerno"/>
    <tag k="addr:housenumber" v="14"/>
    <tag k="addr:postcode" v="EH14 5SU"/>
    <tag k="addr:street" v="Newmills Road"/>
    <tag k="building" v="residential"/>
  </way>
  <way id="255100404" version="3" timestamp="2022-01-27T23:34:20Z" changeset="116686048" uid="3432400" user="GinaroZ">
    <nd ref="2608456489"/>
    <nd ref="2608456522"/>
    <nd ref="2608456538"/>
    <nd ref="2608456502"/>
    <nd ref="2608456489"/>
    <tag k="addr:city" v="Balerno"/>
    <tag k="addr:housenumber" v="18"/>
    <tag k="addr:postcode" v="EH14 5SU"/>
    <tag k="addr:street" v="Newmills Road"/>
    <tag k="building" v="residential"/>
  </way>
  <way id="255100460" version="2" timestamp="2020-10-22T12:44:49Z" changeset="92897269" uid="636803" user="michau">
    <nd ref="2608456665"/>
    <nd ref="2608456652"/>
    <nd ref="2608456700"/>
    <nd ref="2608456711"/>
    <nd ref="2608456665"/>
    <tag k="addr:housenumber" v="11"/>
    <tag k="addr:street" v="Cherry Tree Loan"/>
    <tag k="building" v="residential"/>
    <tag k="source" v="bing"/>
  </way>
  <way id="255100542" version="3" timestamp="2022-01-27T23:34:20Z" changeset="116686048" uid="3432400" user="GinaroZ">
    <nd ref="2608456557"/>
    <nd ref="2608456603"/>
    <nd ref="2608456622"/>
    <nd ref="2608456576"/>
    <nd ref="2608456557"/>
    <tag k="addr:city" v="Balerno"/>
    <tag k="addr:housenumber" v="20"/>
    <tag k="addr:postcode" v="EH14 5SU"/>
    <tag k="addr:street" v="Newmills Road"/>
    <tag k="building" v="residential"/>
  </way>
  <way id="255522912" version="6" timestamp="2024-08-18T09:53:48Z" changeset="155404673" uid="45452" user="Simon Eilting">
    <nd ref="27523121"/>
    <nd ref="8988037006"/>
    <nd ref="2612042629"/>
    <nd ref="8988036973"/>
    <nd ref="8988037008"/>
    <nd ref="1972464065"/>
    <tag k="cycleway:both" v="no"/>
    <tag k="highway" v="tertiary"/>
    <tag k="lanes" v="1"/>
    <tag k="lit" v="yes"/>
    <tag k="maxspeed" v="30 mph"/>
    <tag k="name" v="Bridge Road"/>
    <tag k="oneway" v="yes"/>
    <tag k="sidewalk" v="left"/>
    <tag k="surface" v="asphalt"/>
  </way>
  <way id="255522913" version="2" timestamp="2019-02-26T23:41:25Z" changeset="67600482" uid="3432400" user="GinaroZ">
    <nd ref="279286384"/>
    <nd ref="279286385"/>
    <nd ref="2612042424"/>
    <nd ref="2612042420"/>
    <nd ref="279286386"/>
    <nd ref="2612042398"/>
    <nd ref="279286387"/>
    <nd ref="2612042384"/>
    <nd ref="279286384"/>
    <tag k="highway" v="residential"/>
    <tag k="maxspeed" v="20 mph"/>
    <tag k="name" v="Ravelrig Wynd"/>
  </way>
  <way id="255522916" version="2" timestamp="2016-04-21T22:49:40Z" changeset="38770503" uid="4435" user="Chris Fleming">
    <nd ref="2612042438"/>
    <nd ref="2612042439"/>
    <nd ref="2612042441"/>
    <nd ref="2612042434"/>
    <nd ref="2612042432"/>
    <nd ref="2612042401"/>
    <nd ref="2612042399"/>
    <nd ref="2612042395"/>
    <nd ref="2612042410"/>
    <nd ref="2612042412"/>
    <nd ref="2612042438"/>
    <tag k="addr:housenumber" v="513c"/>
    <tag k="addr:street" v="Lanark Road West"/>
    <tag k="building" v="residential"/>
    <tag k="source" v="bing"/>
  </way>
  <way id="255522917" version="2" timestamp="2016-04-21T22:44:18Z" changeset="38770439" uid="4435" user="Chris Fleming">
    <nd ref="2612042554"/>
    <nd ref="2612042550"/>
    <nd ref="2612042575"/>
    <nd ref="2612042589"/>
    <nd ref="2612042562"/>
    <nd ref="2612042556"/>
    <nd ref="2612042557"/>
    <nd ref="2612042541"/>
    <nd ref="2612042531"/>
    <nd ref="2612042545"/>
    <nd ref="2612042547"/>
    <nd ref="2612042554"/>
    <tag k="addr:housenumber" v="513a"/>
    <tag k="addr:postcode" v="EH14 7DH"/>
    <tag k="addr:street" v="Lanark Road West"/>
    <tag k="building" v="residential"/>
    <tag k="source" v="bing"/>
  </way>
  <way id="255522945" version="2" timestamp="2016-04-21T22:49:39Z" changeset="38770503" uid="4435" user="Chris Fleming">
    <nd ref="2612042462"/>
    <nd ref="2612042475"/>
    <nd ref="2612042477"/>
    <nd ref="2612042502"/>
    <nd ref="2612042499"/>
    <nd ref="2612042459"/>
    <nd ref="2612042462"/>
    <tag k="addr:housenumber" v="513b"/>
    <tag k="addr:street" v="Lanark Road West"/>
    <tag k="building" v="residential"/>
    <tag k="source" v="bing"/>
  </way>
  <way id="255522963" version="2" timestamp="2018-06-19T21:32:08Z" changeset="59991566" uid="120664" user="Chris Clemson">
    <nd ref="2612042661"/>
    <nd ref="2612042669"/>
    <nd ref="2612042662"/>
    <nd ref="2612042672"/>
    <nd ref="2612042682"/>
    <nd ref="2612042686"/>
    <nd ref="2612042690"/>
    <nd ref="2612042666"/>
    <nd ref="2612042661"/>
    <tag k="addr:housename" v="Old Mill House"/>
    <tag k="addr:housenumber" v="469"/>
    <tag k="addr:street" v="Lanark Road West"/>
    <tag k="building" v="residential"/>
    <tag k="source" v="bing"/>
  </way>
  <way id="255563962" version="2" timestamp="2019-02-26T23:41:24Z" changeset="67600482" uid="3432400" user="GinaroZ">
    <nd ref="1972458113"/>
    <nd ref="1972458111"/>
    <nd ref="1972458110"/>
    <nd ref="1972458108"/>
    <tag k="highway" v="residential"/>
    <tag k="maxspeed" v="20 mph"/>
    <tag k="name" v="Dalmahoy Crescent"/>
    <tag k="source" v="yahoo tracing"/>
  </way>
  <way id="255563963" version="2" timestamp="2019-02-26T23:41:24Z" changeset="67600482" uid="3432400" user="GinaroZ">
    <nd ref="36887889"/>
    <nd ref="2612448703"/>
    <nd ref="36887928"/>
    <nd ref="2612448611"/>
    <nd ref="2612448677"/>
    <nd ref="2612448703"/>
    <tag k="highway" v="residential"/>
    <tag k="maxspeed" v="20 mph"/>
    <tag k="name" v="Horsburgh Gardens"/>
    <tag k="source" v="yahoo tracing"/>
  </way>
  <way id="255564124" version="2" timestamp="2020-10-22T13:01:39Z" changeset="92897269" uid="636803" user="michau">
    <nd ref="2612448037"/>
    <nd ref="2612448049"/>
    <nd ref="2612448056"/>
    <nd ref="2612448027"/>
    <nd ref="2612448023"/>
    <nd ref="2612448007"/>
    <nd ref="2612447999"/>
    <nd ref="2612448037"/>
    <tag k="addr:housenumber" v="5"/>
    <tag k="addr:street" v="Pilmuir Grove"/>
    <tag k="building" v="residential"/>
    <tag k="source" v="bing"/>
  </way>
  <way id="255564145" version="2" timestamp="2020-10-22T12:55:01Z" changeset="92897269" uid="636803" user="michau">
    <nd ref="2612448747"/>
    <nd ref="2612448765"/>
    <nd ref="2612448769"/>
    <nd ref="2612448782"/>
    <nd ref="2612448766"/>
    <nd ref="2612448758"/>
    <nd ref="2612448744"/>
    <nd ref="2612448724"/>
    <nd ref="2612448747"/>
    <tag k="addr:housenumber" v="53"/>
    <tag k="addr:street" v="Dalmahoy Crescent"/>
    <tag k="building" v="residential"/>
    <tag k="source" v="bing"/>
  </way>
  <way id="256198864" version="4" timestamp="2022-04-10T17:34:31Z" changeset="119544936" uid="388774" user="drnoble">
    <nd ref="31040154"/>
    <nd ref="31040155"/>
    <nd ref="31040156"/>
    <nd ref="9656446086"/>
    <nd ref="31040157"/>
    <nd ref="31040158"/>
    <nd ref="31040159"/>
    <nd ref="31040160"/>
    <tag k="highway" v="residential"/>
    <tag k="incline" v="down"/>
    <tag k="lanes" v="2"/>
    <tag k="lit" v="yes"/>
    <tag k="maxspeed" v="20 mph"/>
    <tag k="name" v="Harlaw Road"/>
    <tag k="sidewalk" v="both"/>
  </way>
  <way id="256218212" version="1" timestamp="2014-01-11T20:17:28Z" changeset="19941876" uid="388774" user="drnoble">
    <nd ref="2618987292"/>
    <nd ref="2618987296"/>
    <nd ref="2618987299"/>
    <tag k="highway" v="residential"/>
    <tag k="lit" v="yes"/>
    <tag k="maxspeed" v="30 mph"/>
    <tag k="name" v="Bavelaw Green"/>
  </way>
  <way id="256218213" version="2" timestamp="2022-04-10T14:19:15Z" changeset="119537670" uid="388774" user="drnoble">
    <nd ref="29371944"/>
    <nd ref="9656055779"/>
    <nd ref="2618987303"/>
    <nd ref="9656055725"/>
    <nd ref="2618987296"/>
    <tag k="highway" v="residential"/>
    <tag k="lit" v="yes"/>
    <tag k="maxspeed" v="30 mph"/>
    <tag k="name" v="Bavelaw Green"/>
  </way>
  <way id="256218219" version="3" timestamp="2019-02-26T23:41:26Z" changeset="67600482" uid="3432400" user="GinaroZ">
    <nd ref="364104967"/>
    <nd ref="2618987289"/>
    <tag k="highway" v="residential"/>
    <tag k="maxspeed" v="20 mph"/>
    <tag k="name" v="Ladycroft"/>
  </way>
  <way id="256218226" version="3" timestamp="2019-02-26T23:41:26Z" changeset="67600482" uid="3432400" user="GinaroZ">
    <nd ref="2618987271"/>
    <nd ref="364104968"/>
    <tag k="highway" v="residential"/>
    <tag k="maxspeed" v="20 mph"/>
    <tag k="name" v="Orrvale"/>
  </way>
  <way id="256221263" version="3" timestamp="2021-09-10T12:41:30Z" changeset="111022561" uid="388774" user="drnoble">
    <nd ref="2619009869"/>
    <nd ref="2619009890"/>
    <nd ref="2619009893"/>
    <nd ref="2619009873"/>
    <nd ref="9079501840"/>
    <nd ref="2619009867"/>
    <nd ref="2619009883"/>
    <nd ref="2619009872"/>
    <nd ref="2619009854"/>
    <nd ref="2619009865"/>
    <nd ref="2619009868"/>
    <nd ref="9079501826"/>
    <nd ref="2619009869"/>
    <tag k="amenity" v="community_centre"/>
    <tag k="building" v="yes"/>
    <tag k="fhrs:id" v="663820"/>
    <tag k="name" v="Balerno Community Centre"/>
    <tag k="source" v="bing"/>
  </way>
  <way id="256221317" version="4" timestamp="2022-07-22T16:29:36Z" changeset="123947039" uid="242345" user="confusedbuffalo">
    <nd ref="2619009953"/>
    <nd ref="9656055673"/>
    <nd ref="9656055672"/>
    <nd ref="2619009966"/>
    <nd ref="2619009954"/>
    <nd ref="9656055670"/>
    <nd ref="9656055671"/>
    <nd ref="9656055677"/>
    <nd ref="9656055676"/>
    <nd ref="2619009941"/>
    <nd ref="9656055675"/>
    <nd ref="9656055674"/>
    <nd ref="2619009953"/>
    <tag k="amenity" v="community_centre"/>
    <tag k="building" v="yes"/>
    <tag k="club" v="scout"/>
    <tag k="community_centre" v="club_home"/>
    <tag k="community_centre:for" v="scout"/>
    <tag k="name" v="51st Balerno Scout Group"/>
    <tag k="source" v="bing"/>
  </way>
  <way id="256221355" version="2" timestamp="2018-05-22T09:29:16Z" changeset="59174682" uid="2922304" user="smerach">
    <nd ref="2619009914"/>
    <nd ref="2619009923"/>
    <nd ref="2619009909"/>
    <nd ref="2619009910"/>
    <nd ref="2619009905"/>
    <nd ref="2619009900"/>
    <nd ref="2619009898"/>
    <nd ref="2619009906"/>
    <nd ref="2619009904"/>
    <nd ref="2619009914"/>
    <tag k="addr:city" v="Balerno"/>
    <tag k="addr:street" v="Ladycroft"/>
    <tag k="amenity" v="place_of_worship"/>
    <tag k="building" v="church"/>
    <tag k="denomination" v="episcopal"/>
    <tag k="name" v="St Mungo's Episcopal Church"/>
    <tag k="religion" v="christian"/>
    <tag k="source" v="bing"/>
  </way>
  <way id="256756138" version="2" timestamp="2025-01-05T12:49:40Z" changeset="161019130" uid="6871" user="smsm1">
    <nd ref="2623875136"/>
    <nd ref="2623875144"/>
    <nd ref="2623875147"/>
    <nd ref="2623875140"/>
    <nd ref="2623875136"/>
    <tag k="addr:housenumber" v="75"/>
    <tag k="addr:street" v="Mansfield Road"/>
    <tag k="building" v="residential"/>
    <tag k="building:levels" v="1"/>
    <tag k="roof:levels" v="1"/>
    <tag k="roof:shape" v="gabled"/>
    <tag k="source" v="bing"/>
  </way>
  <way id="256756145" version="2" timestamp="2025-01-05T12:45:58Z" changeset="161019004" uid="6871" user="smsm1">
    <nd ref="2623875236"/>
    <nd ref="2623875244"/>
    <nd ref="2623875240"/>
    <nd ref="2623875238"/>
    <nd ref="2623875233"/>
    <nd ref="2623875225"/>
    <nd ref="2623875229"/>
    <nd ref="2623875231"/>
    <nd ref="2623875236"/>
    <tag k="addr:housenumber" v="71"/>
    <tag k="addr:street" v="Mansfield Road"/>
    <tag k="building" v="residential"/>
    <tag k="name" v="The Farnhouse"/>
    <tag k="source" v="bing"/>
  </way>
  <way id="256874982" version="3" timestamp="2024-08-18T09:44:15Z" changeset="155404948" uid="45452" user="Simon Eilting">
    <nd ref="2624989191"/>
    <nd ref="2624989178"/>
    <nd ref="2624989201"/>
    <nd ref="2624989208"/>
    <nd ref="2624989191"/>
    <tag k="addr:housenumber" v="10"/>
    <tag k="addr:street" v="Cockburn Crescent"/>
    <tag k="building" v="residential"/>
    <tag k="source" v="bing"/>
  </way>
  <way id="256875008" version="3" timestamp="2024-08-18T09:44:03Z" changeset="155404948" uid="45452" user="Simon Eilting">
    <nd ref="2624989198"/>
    <nd ref="2624989188"/>
    <nd ref="2624989206"/>
    <nd ref="2624989212"/>
    <nd ref="2624989198"/>
    <tag k="addr:housenumber" v="8"/>
    <tag k="addr:street" v="Cockburn Crescent"/>
    <tag k="building" v="residential"/>
    <tag k="source" v="bing"/>
  </way>
  <way id="256875031" version="3" timestamp="2024-08-18T09:43:42Z" changeset="155404948" uid="45452" user="Simon Eilting">
    <nd ref="2624989215"/>
    <nd ref="2624989207"/>
    <nd ref="2624989221"/>
    <nd ref="2624989230"/>
    <nd ref="2624989215"/>
    <tag k="addr:housenumber" v="2,4"/>
    <tag k="addr:street" v="Cockburn Crescent"/>
    <tag k="building" v="residential"/>
    <tag k="source" v="bing"/>
  </way>
  <way id="256875033" version="3" timestamp="2024-08-18T09:44:28Z" changeset="155404948" uid="45452" user="Simon Eilting">
    <nd ref="2624989180"/>
    <nd ref="2624989172"/>
    <nd ref="2624989192"/>
    <nd ref="2624989202"/>
    <nd ref="2624989180"/>
    <tag k="addr:housenumber" v="12"/>
    <tag k="addr:street" v="Cockburn Crescent"/>
    <tag k="building" v="residential"/>
    <tag k="source" v="bing"/>
  </way>
  <way id="256875060" version="3" timestamp="2025-01-05T12:16:09Z" changeset="161018028" uid="6871" user="smsm1">
    <nd ref="2624989567"/>
    <nd ref="2624989549"/>
    <nd ref="2624989548"/>
    <nd ref="2624989561"/>
    <nd ref="2624989567"/>
    <tag k="addr:housenumber" v="28"/>
    <tag k="addr:street" v="Mansfield Road"/>
    <tag k="building" v="residential"/>
    <tag k="source" v="bing"/>
  </way>
  <way id="257135057" version="3" timestamp="2021-09-10T12:41:30Z" changeset="111022561" uid="388774" user="drnoble">
    <nd ref="2627382366"/>
    <nd ref="2627382373"/>
    <nd ref="9079483295"/>
    <nd ref="2627382349"/>
    <nd ref="2627382341"/>
    <nd ref="2627382332"/>
    <nd ref="2627382366"/>
    <tag k="building" v="yes"/>
    <tag k="building:levels" v="2"/>
    <tag k="name" v="St Josephs Centre"/>
    <tag k="source" v="bing"/>
  </way>
  <way id="294742942" version="4" timestamp="2021-08-29T08:32:37Z" changeset="110403069" uid="388774" user="drnoble">
    <nd ref="8443657115"/>
    <nd ref="8443657113"/>
    <nd ref="2983607281"/>
    <nd ref="2983607250"/>
    <nd ref="886215218"/>
    <nd ref="2983602797"/>
    <nd ref="346434698"/>
    <nd ref="9044858446"/>
    <nd ref="9044858447"/>
    <nd ref="346434625"/>
    <tag k="highway" v="secondary"/>
    <tag k="lanes" v="2"/>
    <tag k="lit" v="no"/>
    <tag k="maxspeed" v="60 mph"/>
    <tag k="maxspeed:type" v="GB:nsl_single"/>
    <tag k="ref" v="B7031"/>
    <tag k="sidewalk" v="left"/>
    <tag k="source" v="gps"/>
    <tag k="surface" v="asphalt"/>
  </way>
  <way id="294880833" version="3" timestamp="2021-08-29T08:32:37Z" changeset="110403069" uid="388774" user="drnoble">
    <nd ref="357878348"/>
    <nd ref="9044858489"/>
    <nd ref="9044858488"/>
    <nd ref="357878349"/>
    <nd ref="9044858487"/>
    <nd ref="357878350"/>
    <nd ref="9044858486"/>
    <nd ref="357878351"/>
    <nd ref="357878352"/>
    <nd ref="357878354"/>
    <nd ref="357878356"/>
    <nd ref="357878357"/>
    <nd ref="357878358"/>
    <nd ref="8848852505"/>
    <nd ref="8848852502"/>
    <nd ref="357878359"/>
    <nd ref="357878360"/>
    <nd ref="357878361"/>
    <tag k="highway" v="unclassified"/>
    <tag k="lanes" v="1"/>
    <tag k="lit" v="no"/>
    <tag k="maxspeed" v="60 mph"/>
    <tag k="sidewalk" v="no"/>
    <tag k="surface" v="asphalt"/>
    <tag k="width" v="4"/>
  </way>
  <way id="295000750" version="2" timestamp="2021-08-29T08:32:37Z" changeset="110403069" uid="388774" user="drnoble">
    <nd ref="357880143"/>
    <nd ref="357880145"/>
    <nd ref="357880146"/>
    <nd ref="357880147"/>
    <nd ref="357880148"/>
    <nd ref="357880149"/>
    <nd ref="357880150"/>
    <nd ref="357880151"/>
    <nd ref="357880152"/>
    <nd ref="357880153"/>
    <nd ref="357880154"/>
    <nd ref="357880155"/>
    <nd ref="357880156"/>
    <nd ref="357880157"/>
    <nd ref="357880159"/>
    <nd ref="357880161"/>
    <nd ref="357880162"/>
    <nd ref="357880163"/>
    <nd ref="9044858448"/>
    <nd ref="9044858449"/>
    <nd ref="357880165"/>
    <tag k="highway" v="unclassified"/>
    <tag k="lanes" v="1"/>
    <tag k="lit" v="no"/>
    <tag k="maxspeed" v="60 mph"/>
    <tag k="sidewalk" v="no"/>
    <tag k="surface" v="asphalt"/>
    <tag k="width" v="4"/>
  </way>
  <way id="295000751" version="2" timestamp="2021-08-29T08:32:37Z" changeset="110403069" uid="388774" user="drnoble">
    <nd ref="357880141"/>
    <nd ref="357880143"/>
    <tag k="bridge" v="yes"/>
    <tag k="highway" v="unclassified"/>
    <tag k="lanes" v="1"/>
    <tag k="layer" v="1"/>
    <tag k="lit" v="no"/>
    <tag k="maxspeed" v="60 mph"/>
    <tag k="sidewalk" v="no"/>
    <tag k="surface" v="asphalt"/>
    <tag k="width" v="4"/>
  </way>
  <way id="295000753" version="6" timestamp="2023-09-30T11:28:37Z" changeset="141947059" uid="1807190" user="happymapper">
    <nd ref="357880165"/>
    <nd ref="357880167"/>
    <nd ref="357880169"/>
    <nd ref="357880170"/>
    <nd ref="357880173"/>
    <nd ref="357880175"/>
    <nd ref="357880177"/>
    <nd ref="357880179"/>
    <nd ref="357880182"/>
    <nd ref="357880184"/>
    <nd ref="357880186"/>
    <nd ref="357880188"/>
    <nd ref="357880190"/>
    <nd ref="357880192"/>
    <nd ref="357880194"/>
    <nd ref="9127957240"/>
    <nd ref="357880196"/>
    <nd ref="357880199"/>
    <nd ref="357880200"/>
    <nd ref="357880202"/>
    <nd ref="357880205"/>
    <nd ref="357880207"/>
    <nd ref="357880209"/>
    <nd ref="7595589789"/>
    <nd ref="357880211"/>
    <nd ref="357880213"/>
    <nd ref="357880215"/>
    <nd ref="357880217"/>
    <nd ref="357880220"/>
    <nd ref="357880223"/>
    <nd ref="357880225"/>
    <nd ref="357880227"/>
    <nd ref="357880229"/>
    <nd ref="357880231"/>
    <nd ref="357880233"/>
    <nd ref="9127957219"/>
    <nd ref="357880236"/>
    <nd ref="357880239"/>
    <nd ref="11228796965"/>
    <nd ref="3642929919"/>
    <nd ref="357880245"/>
    <nd ref="357880247"/>
    <nd ref="357880249"/>
    <nd ref="357880099"/>
    <tag k="highway" v="unclassified"/>
    <tag k="lanes" v="1"/>
    <tag k="lit" v="no"/>
    <tag k="maxspeed" v="60 mph"/>
    <tag k="sidewalk" v="no"/>
    <tag k="surface" v="asphalt"/>
    <tag k="width" v="4"/>
  </way>
  <way id="295479175" version="3" timestamp="2022-08-16T20:00:06Z" changeset="124988799" uid="388774" user="drnoble">
    <nd ref="357880915"/>
    <nd ref="3077471287"/>
    <nd ref="9957816922"/>
    <nd ref="270543220"/>
    <tag k="highway" v="unclassified"/>
    <tag k="lanes" v="1"/>
    <tag k="lit" v="no"/>
    <tag k="maxspeed" v="30 mph"/>
    <tag k="name" v="Cockburnhill Road"/>
    <tag k="surface" v="asphalt"/>
    <tag k="width" v="4"/>
  </way>
  <way id="295479176" version="2" timestamp="2020-01-05T11:53:27Z" changeset="79210713" uid="388774" user="drnoble">
    <nd ref="364104401"/>
    <nd ref="270588759"/>
    <nd ref="270588760"/>
    <nd ref="270588765"/>
    <nd ref="270588762"/>
    <nd ref="270588763"/>
    <nd ref="270588764"/>
    <tag k="highway" v="residential"/>
    <tag k="lanes" v="2"/>
    <tag k="lit" v="yes"/>
    <tag k="maxspeed" v="20 mph"/>
    <tag k="name" v="Crosswood Crescent"/>
  </way>
  <way id="303391199" version="4" timestamp="2021-09-05T17:28:12Z" changeset="110759117" uid="388774" user="drnoble">
    <nd ref="348098669"/>
    <nd ref="348098670"/>
    <nd ref="3077475023"/>
    <nd ref="9064315798"/>
    <nd ref="3077475009"/>
    <nd ref="3077474977"/>
    <nd ref="348098671"/>
    <nd ref="3077474931"/>
    <nd ref="3077474842"/>
    <nd ref="348098672"/>
    <nd ref="3077471310"/>
    <nd ref="348098673"/>
    <nd ref="3077471325"/>
    <tag k="highway" v="tertiary"/>
    <tag k="lanes" v="2"/>
    <tag k="lit" v="no"/>
    <tag k="maxspeed" v="30 mph"/>
    <tag k="name" v="Glenbrook Road"/>
    <tag k="sidewalk" v="no"/>
    <tag k="surface" v="asphalt"/>
  </way>
  <way id="303391200" version="3" timestamp="2021-09-05T17:28:12Z" changeset="110759117" uid="388774" user="drnoble">
    <nd ref="3077471325"/>
    <nd ref="348098674"/>
    <nd ref="3077474833"/>
    <tag k="highway" v="tertiary"/>
    <tag k="lanes" v="2"/>
    <tag k="lit" v="yes"/>
    <tag k="maxspeed" v="30 mph"/>
    <tag k="name" v="Glenbrook Road"/>
    <tag k="sidewalk" v="left"/>
    <tag k="surface" v="asphalt"/>
  </way>
  <way id="303514233" version="2" timestamp="2015-12-30T21:54:09Z" changeset="36272194" uid="3491063" user="the_ref">
    <nd ref="3078820621"/>
    <nd ref="3078820622"/>
    <nd ref="3078820629"/>
    <nd ref="3078820630"/>
    <nd ref="3078820655"/>
    <nd ref="3078820654"/>
    <nd ref="3078820637"/>
    <nd ref="3078820621"/>
    <tag k="addr:housename" v="Cockalorum"/>
    <tag k="addr:housenumber" v="2a"/>
    <tag k="addr:postcode" v="EH14 7JE"/>
    <tag k="addr:street" v="Glenbrook"/>
    <tag k="building" v="residential"/>
  </way>
  <way id="303531788" version="2" timestamp="2021-09-05T16:37:33Z" changeset="110757277" uid="388774" user="drnoble">
    <nd ref="3079032862"/>
    <nd ref="3079032880"/>
    <tag k="highway" v="residential"/>
    <tag k="name" v="Boll O' Bere Farm"/>
  </way>
  <way id="303531791" version="2" timestamp="2021-09-05T16:37:33Z" changeset="110757277" uid="388774" user="drnoble">
    <nd ref="108412572"/>
    <nd ref="3079032862"/>
    <nd ref="3079032873"/>
    <tag k="highway" v="residential"/>
    <tag k="name" v="Boll O' Bere Farm"/>
  </way>
  <way id="307324080" version="2" timestamp="2020-01-05T11:53:27Z" changeset="79210713" uid="388774" user="drnoble">
    <nd ref="270588794"/>
    <nd ref="3124266391"/>
    <nd ref="364105135"/>
    <tag k="highway" v="residential"/>
    <tag k="lit" v="yes"/>
    <tag k="maxspeed" v="20 mph"/>
    <tag k="name" v="Burnside Park"/>
  </way>
  <way id="307418464" version="2" timestamp="2025-05-08T23:19:54Z" changeset="166005930" uid="3199858" user="Mateusz Konieczny - bot account">
    <nd ref="3125598560"/>
    <nd ref="3125598546"/>
    <tag k="highway" v="residential"/>
    <tag k="lanes" v="2"/>
    <tag k="lit" v="yes"/>
    <tag k="name" v="Clayhills Grove"/>
    <tag k="sidewalk" v="no"/>
    <tag k="surface" v="paving_stones"/>
  </way>
  <way id="307418467" version="3" timestamp="2020-01-05T11:53:27Z" changeset="79210713" uid="388774" user="drnoble">
    <nd ref="3125598915"/>
    <nd ref="3125598938"/>
    <tag k="highway" v="residential"/>
    <tag k="lanes" v="2"/>
    <tag k="lit" v="yes"/>
    <tag k="maxspeed" v="20 mph"/>
    <tag k="name" v="Johnsburn Green"/>
    <tag k="sidewalk" v="no"/>
    <tag k="surface" v="paving_stones"/>
  </way>
  <way id="307418470" version="2" timestamp="2020-01-05T11:53:27Z" changeset="79210713" uid="388774" user="drnoble">
    <nd ref="3125598716"/>
    <nd ref="3125598699"/>
    <tag k="highway" v="residential"/>
    <tag k="lit" v="yes"/>
    <tag k="maxspeed" v="20 mph"/>
    <tag k="name" v="Johnsburn Haugh"/>
    <tag k="sidewalk" v="both"/>
  </way>
  <way id="307418471" version="1" timestamp="2014-10-12T10:25:48Z" changeset="26022602" uid="388774" user="drnoble">
    <nd ref="3125598826"/>
    <nd ref="3125598834"/>
    <tag k="highway" v="residential"/>
    <tag k="name" v="Johnsburn Haugh"/>
  </way>
  <way id="307423004" version="1" timestamp="2014-10-12T11:01:07Z" changeset="26023222" uid="388774" user="drnoble">
    <nd ref="3125636537"/>
    <nd ref="886215218"/>
    <tag k="highway" v="residential"/>
    <tag k="lanes" v="2"/>
    <tag k="lit" v="no"/>
    <tag k="maxspeed" v="30 mph"/>
    <tag k="name" v="Newlands"/>
    <tag k="sidewalk" v="left"/>
    <tag k="source" v="OS_OpenData_StreetView"/>
    <tag k="surface" v="asphalt"/>
  </way>
  <way id="375670912" version="4" timestamp="2024-08-18T09:50:00Z" changeset="155404673" uid="45452" user="Simon Eilting">
    <nd ref="365038881"/>
    <nd ref="365038883"/>
    <nd ref="365038885"/>
    <nd ref="3790160413"/>
    <nd ref="365038887"/>
    <nd ref="9656055583"/>
    <nd ref="3790160450"/>
    <nd ref="9656055582"/>
    <nd ref="9656055581"/>
    <nd ref="9656055580"/>
    <nd ref="365038888"/>
    <tag k="cycleway:both" v="no"/>
    <tag k="highway" v="residential"/>
    <tag k="maxspeed" v="20 mph"/>
    <tag k="name" v="Bavelaw Gardens"/>
  </way>
  <way id="375670934" version="3" timestamp="2020-09-22T18:15:08Z" changeset="91313986" uid="3432400" user="GinaroZ">
    <nd ref="3790160374"/>
    <nd ref="3790160371"/>
    <nd ref="3790160386"/>
    <nd ref="3790160381"/>
    <nd ref="3790160395"/>
    <nd ref="3790160411"/>
    <nd ref="3790160397"/>
    <nd ref="3790160388"/>
    <nd ref="3790160374"/>
    <tag k="addr:city" v="Balerno"/>
    <tag k="addr:housenumber" v="34"/>
    <tag k="addr:street" v="Bavelaw Gardens"/>
    <tag k="building" v="residential"/>
  </way>
  <way id="375672181" version="3" timestamp="2020-09-22T18:15:08Z" changeset="91313986" uid="3432400" user="GinaroZ">
    <nd ref="3790171662"/>
    <nd ref="3790171658"/>
    <nd ref="3790171656"/>
    <nd ref="3790171659"/>
    <nd ref="3790171662"/>
    <tag k="addr:city" v="Balerno"/>
    <tag k="addr:housenumber" v="2"/>
    <tag k="addr:street" v="Clayhills Park"/>
    <tag k="building" v="residential"/>
    <tag k="source" v="bing"/>
  </way>
  <way id="375672184" version="3" timestamp="2020-09-22T18:15:08Z" changeset="91313986" uid="3432400" user="GinaroZ">
    <nd ref="3790171573"/>
    <nd ref="3790171580"/>
    <nd ref="3790171572"/>
    <nd ref="3790171566"/>
    <nd ref="3790171573"/>
    <tag k="addr:city" v="Balerno"/>
    <tag k="addr:housenumber" v="12"/>
    <tag k="addr:street" v="Clayhills Park"/>
    <tag k="building" v="residential"/>
    <tag k="source" v="bing"/>
  </way>
  <way id="375672196" version="3" timestamp="2020-09-22T18:15:08Z" changeset="91313986" uid="3432400" user="GinaroZ">
    <nd ref="3790171648"/>
    <nd ref="3790171651"/>
    <nd ref="3790171644"/>
    <nd ref="3790171642"/>
    <nd ref="3790171643"/>
    <nd ref="3790171641"/>
    <nd ref="3790171647"/>
    <nd ref="3790171648"/>
    <tag k="addr:city" v="Balerno"/>
    <tag k="addr:housenumber" v="4"/>
    <tag k="addr:street" v="Clayhills Park"/>
    <tag k="building" v="residential"/>
    <tag k="source" v="bing"/>
  </way>
  <way id="375672197" version="3" timestamp="2020-09-22T18:15:08Z" changeset="91313986" uid="3432400" user="GinaroZ">
    <nd ref="3790171597"/>
    <nd ref="3790171607"/>
    <nd ref="3790171614"/>
    <nd ref="3790171612"/>
    <nd ref="3790171613"/>
    <nd ref="3790171606"/>
    <nd ref="3790171603"/>
    <nd ref="3790171597"/>
    <tag k="addr:city" v="Balerno"/>
    <tag k="addr:housenumber" v="9"/>
    <tag k="addr:street" v="Clayhills Park"/>
    <tag k="building" v="residential"/>
    <tag k="source" v="bing"/>
  </way>
  <way id="375672198" version="3" timestamp="2020-09-22T18:15:08Z" changeset="91313986" uid="3432400" user="GinaroZ">
    <nd ref="3790171624"/>
    <nd ref="3790171621"/>
    <nd ref="3790171625"/>
    <nd ref="3790171632"/>
    <nd ref="3790171627"/>
    <nd ref="3790171623"/>
    <nd ref="3790171620"/>
    <nd ref="3790171624"/>
    <tag k="addr:city" v="Balerno"/>
    <tag k="addr:housenumber" v="7"/>
    <tag k="addr:street" v="Clayhills Park"/>
    <tag k="building" v="residential"/>
    <tag k="source" v="bing"/>
  </way>
  <way id="375672199" version="3" timestamp="2020-09-22T18:15:08Z" changeset="91313986" uid="3432400" user="GinaroZ">
    <nd ref="3790171618"/>
    <nd ref="3790171619"/>
    <nd ref="3790171622"/>
    <nd ref="3790171617"/>
    <nd ref="3790171615"/>
    <nd ref="3790171610"/>
    <nd ref="3790171616"/>
    <nd ref="3790171618"/>
    <tag k="addr:city" v="Balerno"/>
    <tag k="addr:housenumber" v="8"/>
    <tag k="addr:street" v="Clayhills Park"/>
    <tag k="building" v="residential"/>
    <tag k="source" v="bing"/>
  </way>
  <way id="375672200" version="3" timestamp="2020-09-22T18:15:08Z" changeset="91313986" uid="3432400" user="GinaroZ">
    <nd ref="3790171634"/>
    <nd ref="3790171637"/>
    <nd ref="3790171630"/>
    <nd ref="3790171626"/>
    <nd ref="3790171629"/>
    <nd ref="3790171628"/>
    <nd ref="3790171633"/>
    <nd ref="3790171634"/>
    <tag k="addr:city" v="Balerno"/>
    <tag k="addr:housenumber" v="6"/>
    <tag k="addr:street" v="Clayhills Park"/>
    <tag k="building" v="residential"/>
    <tag k="source" v="bing"/>
  </way>
  <way id="375672201" version="3" timestamp="2020-09-22T18:15:08Z" changeset="91313986" uid="3432400" user="GinaroZ">
    <nd ref="3790171655"/>
    <nd ref="3790171657"/>
    <nd ref="3790171654"/>
    <nd ref="3790171650"/>
    <nd ref="3790171649"/>
    <nd ref="3790171652"/>
    <nd ref="3790171653"/>
    <nd ref="3790171655"/>
    <tag k="addr:city" v="Balerno"/>
    <tag k="addr:housenumber" v="3"/>
    <tag k="addr:street" v="Clayhills Park"/>
    <tag k="building" v="residential"/>
    <tag k="source" v="bing"/>
  </way>
  <way id="375672202" version="3" timestamp="2020-09-22T18:15:08Z" changeset="91313986" uid="3432400" user="GinaroZ">
    <nd ref="3790171576"/>
    <nd ref="3790171574"/>
    <nd ref="3790171579"/>
    <nd ref="3790171584"/>
    <nd ref="3790171588"/>
    <nd ref="3790171595"/>
    <nd ref="3790171585"/>
    <nd ref="3790171576"/>
    <tag k="addr:city" v="Balerno"/>
    <tag k="addr:housenumber" v="11"/>
    <tag k="addr:street" v="Clayhills Park"/>
    <tag k="building" v="residential"/>
    <tag k="source" v="bing"/>
  </way>
  <way id="375672203" version="3" timestamp="2020-09-22T18:15:08Z" changeset="91313986" uid="3432400" user="GinaroZ">
    <nd ref="3790171608"/>
    <nd ref="3790171601"/>
    <nd ref="3790171594"/>
    <nd ref="3790171589"/>
    <nd ref="3790171596"/>
    <nd ref="3790171604"/>
    <nd ref="3790171605"/>
    <nd ref="3790171611"/>
    <nd ref="3790171608"/>
    <tag k="addr:city" v="Balerno"/>
    <tag k="addr:housenumber" v="10"/>
    <tag k="addr:street" v="Clayhills Park"/>
    <tag k="building" v="residential"/>
    <tag k="source" v="bing"/>
  </way>
  <way id="375672204" version="3" timestamp="2020-09-22T18:15:08Z" changeset="91313986" uid="3432400" user="GinaroZ">
    <nd ref="3790171646"/>
    <nd ref="3790171639"/>
    <nd ref="3790171638"/>
    <nd ref="3790171636"/>
    <nd ref="3790171631"/>
    <nd ref="3790171635"/>
    <nd ref="3790171640"/>
    <nd ref="3790171645"/>
    <nd ref="3790171646"/>
    <tag k="addr:city" v="Balerno"/>
    <tag k="addr:housenumber" v="5"/>
    <tag k="addr:street" v="Clayhills Park"/>
    <tag k="building" v="residential"/>
    <tag k="source" v="bing"/>
  </way>
  <way id="375672205" version="3" timestamp="2020-09-22T18:15:08Z" changeset="91313986" uid="3432400" user="GinaroZ">
    <nd ref="3790171663"/>
    <nd ref="3790171664"/>
    <nd ref="3790171666"/>
    <nd ref="3790171668"/>
    <nd ref="3790171667"/>
    <nd ref="3790171665"/>
    <nd ref="3790171661"/>
    <nd ref="3790171660"/>
    <nd ref="3790171663"/>
    <tag k="addr:city" v="Balerno"/>
    <tag k="addr:housenumber" v="1"/>
    <tag k="addr:street" v="Clayhills Park"/>
    <tag k="building" v="residential"/>
    <tag k="source" v="bing"/>
  </way>
  <way id="384208922" version="3" timestamp="2021-09-10T12:43:55Z" changeset="111022669" uid="388774" user="drnoble">
    <nd ref="3875039486"/>
    <nd ref="3875039480"/>
    <nd ref="3875039469"/>
    <nd ref="3875039475"/>
    <nd ref="3875039457"/>
    <nd ref="3875037154"/>
    <nd ref="3875037152"/>
    <nd ref="3875039461"/>
    <nd ref="3875039459"/>
    <nd ref="3875039458"/>
    <nd ref="3875037153"/>
    <nd ref="3875039460"/>
    <nd ref="3875039464"/>
    <nd ref="3875039462"/>
    <nd ref="3875039463"/>
    <nd ref="3875039473"/>
    <nd ref="3875039466"/>
    <nd ref="3875039489"/>
    <nd ref="3875039497"/>
    <nd ref="3875039515"/>
    <nd ref="3875039526"/>
    <nd ref="3875039493"/>
    <nd ref="3875039488"/>
    <nd ref="3875039470"/>
    <nd ref="3875039476"/>
    <nd ref="3875039487"/>
    <nd ref="3875039496"/>
    <nd ref="3875039505"/>
    <nd ref="3875039503"/>
    <nd ref="3875039523"/>
    <nd ref="3875039536"/>
    <nd ref="3875039514"/>
    <nd ref="3875039507"/>
    <nd ref="3875039486"/>
    <tag k="addr:city" v="Balerno"/>
    <tag k="addr:housenumber" v="31"/>
    <tag k="addr:postcode" v="EH14 7ET"/>
    <tag k="addr:street" v="Marchbank Gardens"/>
    <tag k="building" v="school"/>
  </way>
  <way id="384303871" version="2" timestamp="2019-02-26T23:41:29Z" changeset="67600482" uid="3432400" user="GinaroZ">
    <nd ref="3876038555"/>
    <nd ref="270588725"/>
    <nd ref="270588726"/>
    <nd ref="3876038459"/>
    <nd ref="270588727"/>
    <tag k="highway" v="residential"/>
    <tag k="maxspeed" v="20 mph"/>
    <tag k="name" v="Whitelea Crescent"/>
  </way>
  <way id="384304576" version="2" timestamp="2020-01-05T11:53:27Z" changeset="79210713" uid="388774" user="drnoble">
    <nd ref="3876041396"/>
    <nd ref="3876041413"/>
    <tag k="highway" v="residential"/>
    <tag k="lanes" v="2"/>
    <tag k="lit" v="yes"/>
    <tag k="maxspeed" v="20 mph"/>
    <tag k="name" v="Johnsburn Park"/>
  </way>
  <way id="384304587" version="3" timestamp="2022-08-18T11:06:03Z" changeset="125056575" uid="3432400" user="GinaroZ">
    <nd ref="3876041358"/>
    <nd ref="3876041357"/>
    <nd ref="3876041359"/>
    <nd ref="3876041360"/>
    <nd ref="3876041363"/>
    <nd ref="3876041366"/>
    <nd ref="3876041364"/>
    <nd ref="3876041358"/>
    <tag k="addr:city" v="Balerno"/>
    <tag k="addr:housenumber" v="13"/>
    <tag k="addr:postcode" v="EH14 7NA"/>
    <tag k="addr:street" v="Johnsburn Park"/>
    <tag k="building" v="yes"/>
    <tag k="source" v="bing"/>
  </way>
  <way id="397780293" version="2" timestamp="2019-02-26T23:41:27Z" changeset="67600482" uid="3432400" user="GinaroZ">
    <nd ref="4005654699"/>
    <nd ref="4005654701"/>
    <tag k="highway" v="residential"/>
    <tag k="maxspeed" v="20 mph"/>
    <tag k="name" v="Marchbank Gardens"/>
  </way>
  <way id="427476761" version="2" timestamp="2019-02-26T23:41:25Z" changeset="67600482" uid="3432400" user="GinaroZ">
    <nd ref="4266867829"/>
    <nd ref="4266867826"/>
    <tag k="highway" v="residential"/>
    <tag k="maxspeed" v="20 mph"/>
    <tag k="name" v="Ravelrig Road"/>
    <tag k="source" v="yahoo tracing"/>
  </way>
  <way id="427476762" version="3" timestamp="2020-10-28T15:12:01Z" changeset="93187514" uid="3432400" user="GinaroZ">
    <nd ref="4266867845"/>
    <nd ref="8059395631"/>
    <nd ref="38026715"/>
    <nd ref="4266867821"/>
    <nd ref="27523115"/>
    <tag k="highway" v="residential"/>
    <tag k="lanes" v="2"/>
    <tag k="lit" v="yes"/>
    <tag k="maxspeed" v="20 mph"/>
    <tag k="name" v="Ravelrig Road"/>
    <tag k="sidewalk" v="both"/>
  </way>
  <way id="473787017" version="3" timestamp="2023-04-09T10:02:04Z" changeset="134680957" uid="53626" user="jambamkin">
    <nd ref="364312311"/>
    <nd ref="4683251140"/>
    <nd ref="364312314"/>
    <nd ref="4683251141"/>
    <nd ref="4678317568"/>
    <nd ref="1417617838"/>
    <nd ref="4678317567"/>
    <nd ref="4678317566"/>
    <nd ref="4678317565"/>
    <nd ref="4678317564"/>
    <nd ref="4678317563"/>
    <nd ref="4678317562"/>
    <nd ref="4678317561"/>
    <nd ref="4678317560"/>
    <nd ref="4678317559"/>
    <nd ref="4678317558"/>
    <nd ref="4678317557"/>
    <nd ref="4678317556"/>
    <nd ref="4678317555"/>
    <nd ref="4678317554"/>
    <nd ref="4678317553"/>
    <nd ref="4678317551"/>
    <nd ref="364312311"/>
    <tag k="addr:city" v="Balerno"/>
    <tag k="addr:housenumber" v="5"/>
    <tag k="addr:postcode" v="EH14 7AG"/>
    <tag k="addr:street" v="Ladycroft"/>
    <tag k="amenity" v="social_centre"/>
    <tag k="building" v="club_house"/>
    <tag k="club" v="sport"/>
    <tag k="name" v="Balerno Bowling Club Pavilion"/>
    <tag k="phone" v="+44 131 449 3789"/>
    <tag k="source" v="Bing;survey"/>
    <tag k="sport" v="bowls"/>
  </way>
  <way id="535351938" version="2" timestamp="2018-07-11T21:06:43Z" changeset="60628280" uid="6164655" user="Mike Parfitt">
    <nd ref="27523058"/>
    <nd ref="2681281269"/>
    <nd ref="2681281267"/>
    <nd ref="5754817352"/>
    <nd ref="27523059"/>
    <nd ref="27523060"/>
    <nd ref="2681281266"/>
    <nd ref="27523061"/>
    <nd ref="27523062"/>
    <nd ref="5754817345"/>
    <nd ref="27523063"/>
    <nd ref="5754817351"/>
    <nd ref="27523064"/>
    <nd ref="27523065"/>
    <nd ref="5754817355"/>
    <nd ref="27523066"/>
    <nd ref="27523067"/>
    <nd ref="5754817346"/>
    <nd ref="27523068"/>
    <tag k="highway" v="tertiary"/>
    <tag k="lanes" v="2"/>
    <tag k="lit" v="no"/>
    <tag k="maxspeed" v="60 mph"/>
    <tag k="name" v="Long Dalmahoy Road"/>
    <tag k="surface" v="asphalt"/>
  </way>
  <way id="543293268" version="3" timestamp="2023-12-29T17:52:06Z" changeset="145671846" uid="14047157" user="osmuser63783">
    <nd ref="5252038725"/>
    <nd ref="5252038726"/>
    <nd ref="5252038727"/>
    <nd ref="5252038728"/>
    <nd ref="5252038729"/>
    <nd ref="5252038730"/>
    <nd ref="5252038731"/>
    <nd ref="5252038732"/>
    <nd ref="5252038733"/>
    <nd ref="5252038734"/>
    <nd ref="5252038735"/>
    <nd ref="5252038736"/>
    <nd ref="5252038737"/>
    <nd ref="5252038738"/>
    <nd ref="5252038725"/>
    <tag k="building" v="house"/>
    <tag k="historic" v="castle"/>
    <tag k="name" v="Bavelaw Castle"/>
    <tag k="wikidata" v="Q4873693"/>
  </way>
  <way id="575677933" version="2" timestamp="2019-02-26T23:41:26Z" changeset="67600482" uid="3432400" user="GinaroZ">
    <nd ref="279288211"/>
    <nd ref="5523485055"/>
    <tag k="highway" v="residential"/>
    <tag k="maxspeed" v="20 mph"/>
    <tag k="name" v="Ravelrig Gait"/>
  </way>
  <way id="608917980" version="6" timestamp="2020-12-16T00:33:03Z" changeset="95905762" uid="3432400" user="GinaroZ">
    <nd ref="5768020496"/>
    <nd ref="6335950365"/>
    <nd ref="6335959199"/>
    <nd ref="5768020497"/>
    <nd ref="5768020493"/>
    <nd ref="5768020495"/>
    <nd ref="5768020498"/>
    <nd ref="5768020494"/>
    <nd ref="6698878151"/>
    <nd ref="5768020492"/>
    <nd ref="5768022795"/>
    <nd ref="5768020491"/>
    <tag k="highway" v="residential"/>
    <tag k="maxspeed" v="20 mph"/>
    <tag k="name" v="Blackadder Drive"/>
    <tag k="oneway" v="no"/>
  </way>
  <way id="634345465" version="2" timestamp="2022-04-10T17:34:31Z" changeset="119544936" uid="388774" user="drnoble">
    <nd ref="5986612331"/>
    <nd ref="9656446178"/>
    <nd ref="9656446177"/>
    <nd ref="9656446173"/>
    <nd ref="9656446174"/>
    <nd ref="9656446175"/>
    <nd ref="9656446176"/>
    <nd ref="5986612330"/>
    <nd ref="5986612329"/>
    <nd ref="5986612328"/>
    <nd ref="5986612331"/>
    <tag k="addr:city" v="Balerno"/>
    <tag k="addr:housename" v="Bavelaw House"/>
    <tag k="addr:housenumber" v="18"/>
    <tag k="addr:street" v="Harlaw Road"/>
    <tag k="building" v="house"/>
  </way>
  <way id="673235849" version="5" timestamp="2024-10-15T15:59:34Z" changeset="157927700" uid="45452" user="Simon Eilting">
    <nd ref="6304660175"/>
    <nd ref="8456637771"/>
    <nd ref="1699455532"/>
    <nd ref="29371933"/>
    <tag k="cycleway:both" v="no"/>
    <tag k="highway" v="tertiary"/>
    <tag k="lanes" v="2"/>
    <tag k="lit" v="yes"/>
    <tag k="maxspeed" v="20 mph"/>
    <tag k="name" v="Mansfield Road"/>
    <tag k="sidewalk" v="both"/>
    <tag k="surface" v="asphalt"/>
  </way>
  <way id="675832991" version="6" timestamp="2024-08-27T16:46:49Z" changeset="155841699" uid="21762849" user="jSeke">
    <nd ref="1972464065"/>
    <nd ref="2612042639"/>
    <nd ref="8988037005"/>
    <nd ref="11986345182"/>
    <nd ref="27523120"/>
    <tag k="cycleway:both" v="no"/>
    <tag k="highway" v="primary"/>
    <tag k="lanes" v="2"/>
    <tag k="lit" v="yes"/>
    <tag k="maxspeed" v="30 mph"/>
    <tag k="name" v="Lanark Road West"/>
    <tag k="name:gd" v="Rathad Lannraig an Iar"/>
    <tag k="ref" v="A70"/>
    <tag k="sidewalk" v="left"/>
    <tag k="surface" v="asphalt"/>
  </way>
  <way id="675832992" version="5" timestamp="2024-08-18T09:53:00Z" changeset="155404878" uid="45452" user="Simon Eilting">
    <nd ref="27523121"/>
    <nd ref="27523122"/>
    <nd ref="27523123"/>
    <tag k="cycleway:both" v="no"/>
    <tag k="highway" v="tertiary"/>
    <tag k="lanes" v="2"/>
    <tag k="maxspeed" v="30 mph"/>
    <tag k="name" v="Bridge Road"/>
    <tag k="smoothness" v="good"/>
    <tag k="surface" v="asphalt"/>
  </way>
  <way id="676601257" version="1" timestamp="2019-03-13T16:48:23Z" changeset="68106687" uid="2578" user="Nilz">
    <nd ref="6335950364"/>
    <nd ref="6335950365"/>
    <tag k="highway" v="residential"/>
    <tag k="oneway" v="no"/>
  </way>
  <way id="711696131" version="10" timestamp="2024-08-18T08:53:22Z" changeset="155402389" uid="45452" user="Simon Eilting">
    <nd ref="6691128313"/>
    <nd ref="8988036896"/>
    <nd ref="6691128314"/>
    <nd ref="8988036897"/>
    <nd ref="6691128315"/>
    <nd ref="8988036898"/>
    <nd ref="8988036899"/>
    <nd ref="6691128316"/>
    <nd ref="6691128317"/>
    <nd ref="6691128318"/>
    <nd ref="6691128319"/>
    <nd ref="6691128320"/>
    <nd ref="6697014784"/>
    <nd ref="6691128322"/>
    <nd ref="8107950341"/>
    <nd ref="6697011127"/>
    <nd ref="7207653092"/>
    <nd ref="6691128324"/>
    <nd ref="6691128325"/>
    <nd ref="6691128326"/>
    <nd ref="6691128327"/>
    <nd ref="6691128328"/>
    <nd ref="6691128329"/>
    <tag k="cycleway:both" v="no"/>
    <tag k="highway" v="residential"/>
    <tag k="lanes" v="2"/>
    <tag k="lit" v="yes"/>
    <tag k="maxspeed" v="30 mph"/>
    <tag k="name" v="Somerville Road"/>
    <tag k="oneway" v="no"/>
    <tag k="sidewalk" v="both"/>
    <tag k="surface" v="asphalt"/>
  </way>
  <way id="712266544" version="4" timestamp="2022-01-09T16:25:07Z" changeset="115949588" uid="417398" user="saintam1">
    <nd ref="5768021927"/>
    <nd ref="6698878152"/>
    <nd ref="6697011126"/>
    <nd ref="6697014783"/>
    <nd ref="6698878157"/>
    <nd ref="6697011127"/>
    <tag k="highway" v="residential"/>
    <tag k="name" v="Craigentarrie Mews"/>
  </way>
  <way id="729200491" version="2" timestamp="2020-10-22T12:50:06Z" changeset="92897269" uid="636803" user="michau">
    <nd ref="6831788524"/>
    <nd ref="6831788525"/>
    <nd ref="6831788526"/>
    <nd ref="6831788527"/>
    <nd ref="6831788524"/>
    <tag k="addr:housenumber" v="4"/>
    <tag k="addr:street" v="Blackadder Drive"/>
    <tag k="building" v="yes"/>
  </way>
  <way id="729200517" version="3" timestamp="2023-04-09T09:40:36Z" changeset="134680252" uid="53626" user="jambamkin">
    <nd ref="365048858"/>
    <nd ref="10796756782"/>
    <nd ref="10796756783"/>
    <nd ref="6831788647"/>
    <nd ref="6831788648"/>
    <nd ref="10796756780"/>
    <nd ref="10796756779"/>
    <nd ref="10796756778"/>
    <nd ref="10796756777"/>
    <nd ref="10796756776"/>
    <nd ref="10796756775"/>
    <nd ref="10796756774"/>
    <nd ref="10796756773"/>
    <nd ref="10796756781"/>
    <nd ref="6831788650"/>
    <nd ref="10796756772"/>
    <nd ref="10796756771"/>
    <nd ref="10796756770"/>
    <nd ref="10796756769"/>
    <nd ref="10796756768"/>
    <nd ref="10796756767"/>
    <nd ref="10796756766"/>
    <nd ref="10796756765"/>
    <nd ref="10796756764"/>
    <nd ref="6831788651"/>
    <nd ref="365048858"/>
    <tag k="access" v="private"/>
    <tag k="building" v="house"/>
    <tag k="name" v="Malleny House"/>
    <tag k="wikidata" v="Q17570410"/>
  </way>
  <way id="757208148" version="5" timestamp="2023-09-08T12:46:12Z" changeset="140985907" uid="9026132" user="PulisakZ">
    <nd ref="7096461060"/>
    <nd ref="7096461061"/>
    <nd ref="7096461062"/>
    <nd ref="7096461063"/>
    <tag k="highway" v="residential"/>
    <tag k="surface" v="paving_stones"/>
  </way>
  <way id="757208149" version="3" timestamp="2023-05-22T22:13:58Z" changeset="136431858" uid="53626" user="jambamkin">
    <nd ref="7071343520"/>
    <nd ref="7071343521"/>
    <nd ref="7071343522"/>
    <nd ref="7071343523"/>
    <nd ref="7071343524"/>
    <nd ref="7071343525"/>
    <nd ref="7071343526"/>
    <nd ref="7071343527"/>
    <nd ref="7071343528"/>
    <nd ref="7071343529"/>
    <nd ref="7071343530"/>
    <nd ref="7071343531"/>
    <nd ref="7071343532"/>
    <nd ref="8059384640"/>
    <nd ref="8059384641"/>
    <nd ref="8059384642"/>
    <nd ref="8059384643"/>
    <nd ref="8059384644"/>
    <nd ref="8059384645"/>
    <nd ref="8059384646"/>
    <nd ref="8059384647"/>
    <nd ref="8059384648"/>
    <tag k="highway" v="residential"/>
    <tag k="name" v="Gifford Crescent"/>
    <tag k="surface" v="paving_stones"/>
  </way>
  <way id="757208151" version="3" timestamp="2023-09-08T12:46:12Z" changeset="140985907" uid="9026132" user="PulisakZ">
    <nd ref="7071343533"/>
    <nd ref="7071343534"/>
    <nd ref="7071343535"/>
    <nd ref="7071343536"/>
    <nd ref="7071343537"/>
    <nd ref="7071343538"/>
    <nd ref="7071343539"/>
    <tag k="highway" v="residential"/>
    <tag k="name" v="Ballantyne Place"/>
    <tag k="surface" v="paving_stones"/>
  </way>
  <way id="757208152" version="2" timestamp="2020-10-22T13:00:19Z" changeset="92897269" uid="636803" user="michau">
    <nd ref="7071343540"/>
    <nd ref="7071343541"/>
    <nd ref="7071343542"/>
    <tag k="highway" v="residential"/>
    <tag k="name" v="Fairbairn Street"/>
  </way>
  <way id="759673790" version="5" timestamp="2022-01-09T16:25:07Z" changeset="115949588" uid="417398" user="saintam1">
    <nd ref="6691128329"/>
    <nd ref="7096461023"/>
    <nd ref="7096461024"/>
    <nd ref="8232761578"/>
    <nd ref="7096461025"/>
    <nd ref="7096461026"/>
    <nd ref="7096461029"/>
    <nd ref="8404165278"/>
    <nd ref="8404165272"/>
    <nd ref="7096461027"/>
    <tag k="highway" v="residential"/>
    <tag k="name" v="Somerville Road"/>
  </way>
  <way id="759673791" version="4" timestamp="2022-01-09T16:25:07Z" changeset="115949588" uid="417398" user="saintam1">
    <nd ref="6691128329"/>
    <nd ref="6691128330"/>
    <tag k="foot" v="yes"/>
    <tag k="highway" v="residential"/>
    <tag k="lit" v="yes"/>
    <tag k="name" v="Shiels Way"/>
    <tag k="sidewalk" v="separate"/>
    <tag k="surface" v="asphalt"/>
  </way>
  <way id="760921234" version="2" timestamp="2022-04-10T17:34:31Z" changeset="119544936" uid="388774" user="drnoble">
    <nd ref="31040150"/>
    <nd ref="31040151"/>
    <nd ref="31040152"/>
    <nd ref="31040153"/>
    <tag k="highway" v="residential"/>
    <tag k="incline" v="down"/>
    <tag k="lanes" v="2"/>
    <tag k="lit" v="yes"/>
    <tag k="maxspeed" v="30 mph"/>
    <tag k="name" v="Harlaw Road"/>
    <tag k="sidewalk" v="left"/>
    <tag k="surface" v="asphalt"/>
  </way>
  <way id="760921235" version="1" timestamp="2020-01-05T11:53:27Z" changeset="79210713" uid="388774" user="drnoble">
    <nd ref="31040160"/>
    <nd ref="5547536012"/>
    <nd ref="31040161"/>
    <nd ref="475411986"/>
    <nd ref="31040162"/>
    <nd ref="31040163"/>
    <tag k="highway" v="unclassified"/>
    <tag k="lanes" v="2"/>
    <tag k="lit" v="yes"/>
    <tag k="maxspeed" v="20 mph"/>
    <tag k="name" v="Harlaw Road"/>
    <tag k="sidewalk" v="left"/>
  </way>
  <way id="760921236" version="2" timestamp="2022-04-10T14:19:15Z" changeset="119537670" uid="388774" user="drnoble">
    <nd ref="31040163"/>
    <nd ref="31040164"/>
    <nd ref="364954608"/>
    <nd ref="31040165"/>
    <nd ref="365042913"/>
    <nd ref="1131548717"/>
    <nd ref="1131548727"/>
    <tag k="highway" v="residential"/>
    <tag k="lanes" v="2"/>
    <tag k="lit" v="yes"/>
    <tag k="maxspeed" v="20 mph"/>
    <tag k="name" v="Harlaw Road"/>
    <tag k="sidewalk" v="right"/>
  </way>
  <way id="760921237" version="2" timestamp="2024-08-18T09:46:53Z" changeset="155404673" uid="45452" user="Simon Eilting">
    <nd ref="31040182"/>
    <nd ref="1131518934"/>
    <nd ref="270588687"/>
    <tag k="cycleway:both" v="no"/>
    <tag k="highway" v="unclassified"/>
    <tag k="lit" v="yes"/>
    <tag k="maxspeed" v="30 mph"/>
    <tag k="name" v="Mansfield Road"/>
    <tag k="sidewalk" v="right"/>
  </way>
  <way id="760921238" version="2" timestamp="2022-04-10T17:34:31Z" changeset="119544936" uid="388774" user="drnoble">
    <nd ref="7108961134"/>
    <nd ref="364954737"/>
    <nd ref="29371927"/>
    <nd ref="31040182"/>
    <tag k="highway" v="unclassified"/>
    <tag k="lanes" v="2"/>
    <tag k="lit" v="no"/>
    <tag k="maxspeed" v="30 mph"/>
    <tag k="name" v="Mansfield Road"/>
    <tag k="sidewalk" v="no"/>
    <tag k="surface" v="asphalt"/>
  </way>
  <way id="761027495" version="7" timestamp="2024-08-27T16:46:49Z" changeset="155841699" uid="21762849" user="jSeke">
    <nd ref="279280403"/>
    <nd ref="28805174"/>
    <nd ref="8988036528"/>
    <nd ref="28805175"/>
    <nd ref="1880773044"/>
    <nd ref="11986345185"/>
    <nd ref="38038091"/>
    <tag k="cycleway:both" v="no"/>
    <tag k="highway" v="primary"/>
    <tag k="lanes" v="2"/>
    <tag k="lit" v="yes"/>
    <tag k="maxspeed" v="30 mph"/>
    <tag k="name" v="Lanark Road West"/>
    <tag k="name:gd" v="Rathad Lannraig an Iar"/>
    <tag k="ref" v="A70"/>
    <tag k="sidewalk" v="left"/>
    <tag k="sidewalk:left:surface" v="asphalt"/>
    <tag k="smoothness" v="good"/>
    <tag k="surface" v="asphalt"/>
  </way>
  <way id="761027496" version="6" timestamp="2024-08-27T16:46:49Z" changeset="155841699" uid="21762849" user="jSeke">
    <nd ref="38038091"/>
    <nd ref="28805177"/>
    <nd ref="38028857"/>
    <nd ref="8988036818"/>
    <nd ref="28805178"/>
    <nd ref="8988036838"/>
    <nd ref="2608455656"/>
    <nd ref="8988036839"/>
    <nd ref="28805179"/>
    <nd ref="8988036848"/>
    <nd ref="2608455654"/>
    <nd ref="11099860890"/>
    <nd ref="1880773035"/>
    <nd ref="6691128313"/>
    <nd ref="8988036919"/>
    <nd ref="28805180"/>
    <nd ref="8988036924"/>
    <nd ref="2608455653"/>
    <nd ref="28805181"/>
    <nd ref="8988036925"/>
    <nd ref="1972467703"/>
    <nd ref="1972464064"/>
    <nd ref="36887089"/>
    <nd ref="4056378518"/>
    <nd ref="27523120"/>
    <tag k="cycleway:both" v="no"/>
    <tag k="highway" v="primary"/>
    <tag k="lanes" v="2"/>
    <tag k="lit" v="yes"/>
    <tag k="maxspeed" v="30 mph"/>
    <tag k="name" v="Lanark Road West"/>
    <tag k="name:gd" v="Rathad Lannraig an Iar"/>
    <tag k="ref" v="A70"/>
    <tag k="sidewalk" v="both"/>
    <tag k="smoothness" v="good"/>
    <tag k="surface" v="asphalt"/>
  </way>
  <way id="772074377" version="4" timestamp="2022-01-09T16:25:07Z" changeset="115949588" uid="417398" user="saintam1">
    <nd ref="7207653092"/>
    <nd ref="8919911071"/>
    <nd ref="8919911068"/>
    <tag k="foot" v="yes"/>
    <tag k="highway" v="residential"/>
    <tag k="lit" v="yes"/>
    <tag k="name" v="Ramslack Street"/>
    <tag k="sidewalk" v="no"/>
    <tag k="surface" v="brick"/>
  </way>
  <way id="794652625" version="1" timestamp="2020-04-22T06:37:37Z" changeset="83917934" uid="10455640" user="madnikhi">
    <nd ref="7432503059"/>
    <nd ref="7432503060"/>
    <nd ref="7432503061"/>
    <tag k="highway" v="residential"/>
  </way>
  <way id="833343555" version="6" timestamp="2024-08-18T08:54:42Z" changeset="155402389" uid="45452" user="Simon Eilting">
    <nd ref="29371945"/>
    <nd ref="11986345183"/>
    <nd ref="9656055788"/>
    <nd ref="9079483251"/>
    <nd ref="9079483299"/>
    <nd ref="9079483300"/>
    <nd ref="270543254"/>
    <nd ref="9079483301"/>
    <nd ref="270543252"/>
    <tag k="cycleway:both" v="no"/>
    <tag k="highway" v="tertiary"/>
    <tag k="lanes" v="2"/>
    <tag k="lit" v="yes"/>
    <tag k="maxspeed" v="20 mph"/>
    <tag k="name" v="Bridge Road"/>
    <tag k="sidewalk" v="both"/>
    <tag k="surface" v="asphalt"/>
  </way>
  <way id="862568621" version="2" timestamp="2022-09-30T17:27:36Z" changeset="126833206" uid="16721418" user="SmithyScotland">
    <nd ref="8036462941"/>
    <nd ref="8036462940"/>
    <nd ref="8036462944"/>
    <nd ref="8036462943"/>
    <nd ref="8036462945"/>
    <nd ref="8036462939"/>
    <nd ref="8036462938"/>
    <nd ref="8036462942"/>
    <nd ref="8036462941"/>
    <tag k="addr:housenumber" v="2"/>
    <tag k="addr:street" v="Fairbairn Street"/>
    <tag k="building" v="house"/>
  </way>
  <way id="864668963" version="3" timestamp="2022-09-06T11:39:21Z" changeset="125854263" uid="16721418" user="SmithyScotland">
    <nd ref="7096461055"/>
    <nd ref="8059384649"/>
    <nd ref="8059384650"/>
    <nd ref="8059384651"/>
    <nd ref="8059384652"/>
    <nd ref="8059384653"/>
    <nd ref="8059384654"/>
    <nd ref="8059384655"/>
    <nd ref="8059384656"/>
    <nd ref="8059384657"/>
    <nd ref="8059384658"/>
    <nd ref="8059384659"/>
    <nd ref="8059384660"/>
    <nd ref="7071343550"/>
    <nd ref="10004079145"/>
    <nd ref="7071343549"/>
    <nd ref="7071343548"/>
    <nd ref="7071343547"/>
    <nd ref="7071343546"/>
    <nd ref="7071343545"/>
    <nd ref="7071343544"/>
    <nd ref="7071343543"/>
    <tag k="highway" v="residential"/>
    <tag k="name" v="Gillon Drive"/>
  </way>
  <way id="864668968" version="3" timestamp="2023-09-08T12:47:26Z" changeset="140985953" uid="9026132" user="PulisakZ">
    <nd ref="8059384678"/>
    <nd ref="8059384679"/>
    <nd ref="10006507816"/>
    <nd ref="8059384680"/>
    <nd ref="8059384681"/>
    <nd ref="10006507815"/>
    <nd ref="8059384682"/>
    <tag k="highway" v="residential"/>
    <tag k="name" v="Cassidy Wynd"/>
  </way>
  <way id="864668969" version="4" timestamp="2023-05-22T22:13:58Z" changeset="136431858" uid="53626" user="jambamkin">
    <nd ref="7096461063"/>
    <nd ref="10920293314"/>
    <nd ref="10920293313"/>
    <nd ref="8059384683"/>
    <nd ref="8059384684"/>
    <nd ref="8059395585"/>
    <nd ref="10920293315"/>
    <nd ref="8059395586"/>
    <nd ref="8059395587"/>
    <nd ref="9125059218"/>
    <nd ref="9125059219"/>
    <nd ref="9125059220"/>
    <nd ref="9125059221"/>
    <tag k="highway" v="residential"/>
    <tag k="surface" v="paving_stones"/>
  </way>
  <way id="864668984" version="3" timestamp="2025-01-29T08:38:53Z" changeset="161887447" uid="18381521" user="Benedict Brosnahan">
    <nd ref="8059395670"/>
    <nd ref="8059395671"/>
    <nd ref="8059395672"/>
    <nd ref="8059395673"/>
    <nd ref="8059395670"/>
    <tag k="addr:city" v="Balerno"/>
    <tag k="addr:housenumber" v="3"/>
    <tag k="addr:postcode" v="EH14 7FJ"/>
    <tag k="addr:street" v="Gillon Drive"/>
    <tag k="building" v="house"/>
    <tag k="house" v="semi-detached"/>
  </way>
  <way id="864668985" version="3" timestamp="2025-01-29T08:38:53Z" changeset="161887447" uid="18381521" user="Benedict Brosnahan">
    <nd ref="8059395674"/>
    <nd ref="8059395675"/>
    <nd ref="8059395676"/>
    <nd ref="8059395677"/>
    <nd ref="8059395674"/>
    <tag k="addr:city" v="Balerno"/>
    <tag k="addr:housenumber" v="5"/>
    <tag k="addr:postcode" v="EH14 7FJ"/>
    <tag k="addr:street" v="Gillon Drive"/>
    <tag k="building" v="house"/>
    <tag k="house" v="semi-detached"/>
  </way>
  <way id="864668986" version="3" timestamp="2025-01-29T08:43:19Z" changeset="161887598" uid="18381521" user="Benedict Brosnahan">
    <nd ref="8059395678"/>
    <nd ref="8059395679"/>
    <nd ref="8059395680"/>
    <nd ref="8059395681"/>
    <nd ref="8059395678"/>
    <tag k="addr:city" v="Balerno"/>
    <tag k="addr:housenumber" v="11"/>
    <tag k="addr:postcode" v="EH14 7FJ"/>
    <tag k="addr:street" v="Gillon Drive"/>
    <tag k="building" v="house"/>
    <tag k="house" v="detached"/>
  </way>
  <way id="864668987" version="3" timestamp="2025-01-29T08:43:19Z" changeset="161887598" uid="18381521" user="Benedict Brosnahan">
    <nd ref="8059395682"/>
    <nd ref="8059395683"/>
    <nd ref="8059395684"/>
    <nd ref="8059395685"/>
    <nd ref="8059395686"/>
    <nd ref="8059395687"/>
    <nd ref="8059395682"/>
    <tag k="addr:city" v="Balerno"/>
    <tag k="addr:housenumber" v="7"/>
    <tag k="addr:postcode" v="EH14 7FJ"/>
    <tag k="addr:street" v="Gillon Drive"/>
    <tag k="building" v="house"/>
    <tag k="house" v="detached"/>
  </way>
  <way id="864668988" version="3" timestamp="2025-01-29T08:43:19Z" changeset="161887598" uid="18381521" user="Benedict Brosnahan">
    <nd ref="8059395688"/>
    <nd ref="8059395689"/>
    <nd ref="8059395690"/>
    <nd ref="8059395691"/>
    <nd ref="8059395688"/>
    <tag k="addr:city" v="Balerno"/>
    <tag k="addr:housenumber" v="9"/>
    <tag k="addr:postcode" v="EH14 7FJ"/>
    <tag k="addr:street" v="Gillon Drive"/>
    <tag k="building" v="house"/>
    <tag k="house" v="detached"/>
  </way>
  <way id="904957885" version="2" timestamp="2022-01-09T16:25:07Z" changeset="115949588" uid="417398" user="saintam1">
    <nd ref="8404165273"/>
    <nd ref="8404165274"/>
    <nd ref="9405182009"/>
    <nd ref="8404165275"/>
    <nd ref="8404165277"/>
    <nd ref="8404165282"/>
    <nd ref="8404165278"/>
    <tag k="foot" v="yes"/>
    <tag k="highway" v="residential"/>
    <tag k="lit" v="yes"/>
    <tag k="name" v="Byrne Crescent"/>
    <tag k="sidewalk" v="no"/>
    <tag k="surface" v="brick"/>
  </way>
  <way id="909401228" version="2" timestamp="2021-07-30T09:29:37Z" changeset="108878374" uid="4007299" user="FrenchyF">
    <nd ref="8443657116"/>
    <nd ref="8443657115"/>
    <tag k="bridge" v="yes"/>
    <tag k="highway" v="secondary"/>
    <tag k="lanes" v="2"/>
    <tag k="layer" v="1"/>
    <tag k="lit" v="no"/>
    <tag k="maxspeed" v="60 mph"/>
    <tag k="maxspeed:type" v="GB:nsl_single"/>
    <tag k="ref" v="B7031"/>
    <tag k="sidewalk" v="left"/>
    <tag k="source" v="gps"/>
    <tag k="surface" v="asphalt"/>
  </way>
  <way id="919949537" version="1" timestamp="2021-03-21T00:21:49Z" changeset="101422474" uid="4253907" user="sparkov">
    <nd ref="1972458113"/>
    <nd ref="1972458109"/>
    <tag k="highway" v="residential"/>
    <tag k="maxspeed" v="20 mph"/>
  </way>
  <way id="971158245" version="2" timestamp="2024-08-18T09:53:58Z" changeset="155404673" uid="45452" user="Simon Eilting">
    <nd ref="2612042639"/>
    <nd ref="8988036976"/>
    <nd ref="8988036975"/>
    <nd ref="8988036974"/>
    <nd ref="1972464034"/>
    <tag k="cycleway:both" v="no"/>
    <tag k="highway" v="tertiary"/>
    <tag k="lanes" v="1"/>
    <tag k="lit" v="yes"/>
    <tag k="maxspeed" v="30 mph"/>
    <tag k="name" v="Bridge Road"/>
    <tag k="oneway" v="yes"/>
    <tag k="sidewalk" v="left"/>
    <tag k="surface" v="asphalt"/>
  </way>
  <way id="979842681" version="1" timestamp="2021-09-05T17:28:12Z" changeset="110759117" uid="388774" user="drnoble">
    <nd ref="3077474833"/>
    <nd ref="3077471332"/>
    <nd ref="9064315743"/>
    <nd ref="348098675"/>
    <tag k="highway" v="tertiary"/>
    <tag k="lanes" v="2"/>
    <tag k="lit" v="yes"/>
    <tag k="maxspeed" v="30 mph"/>
    <tag k="name" v="Glenbrook Road"/>
    <tag k="sidewalk" v="both"/>
    <tag k="surface" v="asphalt"/>
  </way>
  <way id="981596534" version="1" timestamp="2021-09-10T12:41:30Z" changeset="111022561" uid="388774" user="drnoble">
    <nd ref="364104883"/>
    <nd ref="9079483306"/>
    <nd ref="270588803"/>
    <nd ref="364104902"/>
    <tag k="highway" v="unclassified"/>
    <tag k="lanes" v="1"/>
    <tag k="lit" v="yes"/>
    <tag k="maxspeed" v="20 mph"/>
    <tag k="name" v="Main Street"/>
    <tag k="sidewalk" v="both"/>
    <tag k="surface" v="asphalt"/>
  </way>
  <way id="1013585071" version="3" timestamp="2025-01-29T08:38:53Z" changeset="161887447" uid="18381521" user="Benedict Brosnahan">
    <nd ref="9351394368"/>
    <nd ref="9351394369"/>
    <nd ref="9351394370"/>
    <nd ref="9351394371"/>
    <nd ref="9351394368"/>
    <tag k="addr:city" v="Balerno"/>
    <tag k="addr:housenumber" v="1"/>
    <tag k="addr:postcode" v="EH14 7FJ"/>
    <tag k="addr:street" v="Gillon Drive"/>
    <tag k="building" v="house"/>
    <tag k="house" v="detached"/>
  </way>
  <way id="1013585075" version="3" timestamp="2025-01-29T08:38:53Z" changeset="161887447" uid="18381521" user="Benedict Brosnahan">
    <nd ref="9351394384"/>
    <nd ref="9351394385"/>
    <nd ref="9351394386"/>
    <nd ref="9351394387"/>
    <nd ref="9351394384"/>
    <tag k="addr:city" v="Balerno"/>
    <tag k="addr:housenumber" v="2"/>
    <tag k="addr:postcode" v="EH14 7FJ"/>
    <tag k="addr:street" v="Gillon Drive"/>
    <tag k="building" v="house"/>
    <tag k="house" v="detached"/>
  </way>
  <way id="1019738316" version="1" timestamp="2022-01-09T16:25:07Z" changeset="115949588" uid="417398" user="saintam1">
    <nd ref="6691128330"/>
    <nd ref="8404165273"/>
    <nd ref="7096461028"/>
    <nd ref="7096461029"/>
    <tag k="highway" v="residential"/>
    <tag k="lit" v="yes"/>
    <tag k="name" v="Ramslack Street"/>
    <tag k="sidewalk" v="both"/>
    <tag k="surface" v="asphalt"/>
  </way>
  <way id="1050774162" version="1" timestamp="2022-04-10T14:19:15Z" changeset="119537670" uid="388774" user="drnoble">
    <nd ref="364954602"/>
    <nd ref="364954645"/>
    <nd ref="364954605"/>
    <tag k="highway" v="residential"/>
    <tag k="lanes" v="1"/>
    <tag k="lit" v="yes"/>
    <tag k="maxspeed" v="20 mph"/>
    <tag k="name" v="Harlaw Gait"/>
    <tag k="sidewalk" v="right"/>
    <tag k="surface" v="asphalt"/>
  </way>
  <way id="1050774174" version="1" timestamp="2022-04-10T14:19:15Z" changeset="119537670" uid="388774" user="drnoble">
    <nd ref="9656055566"/>
    <nd ref="2619009495"/>
    <tag k="highway" v="residential"/>
    <tag k="lanes" v="2"/>
    <tag k="lit" v="yes"/>
    <tag k="maxspeed" v="20 mph"/>
    <tag k="name" v="Bavelaw Road"/>
    <tag k="sidewalk" v="no"/>
    <tag k="surface" v="paved"/>
  </way>
  <way id="1050816634" version="1" timestamp="2022-04-10T17:34:31Z" changeset="119544936" uid="388774" user="drnoble">
    <nd ref="31040153"/>
    <nd ref="364954859"/>
    <nd ref="31040154"/>
    <tag k="highway" v="residential"/>
    <tag k="incline" v="down"/>
    <tag k="lanes" v="2"/>
    <tag k="lit" v="yes"/>
    <tag k="maxspeed" v="20 mph"/>
    <tag k="name" v="Harlaw Road"/>
    <tag k="sidewalk" v="left"/>
    <tag k="surface" v="asphalt"/>
  </way>
  <way id="1052211666" version="2" timestamp="2022-04-16T12:11:03Z" changeset="119781907" uid="388774" user="drnoble">
    <nd ref="9669819360"/>
    <nd ref="9669819359"/>
    <nd ref="9669819358"/>
    <nd ref="9669819338"/>
    <nd ref="9669819357"/>
    <nd ref="9669819339"/>
    <nd ref="9669819360"/>
    <tag k="building" v="service"/>
    <tag k="building:levels" v="1"/>
    <tag k="name" v="Harlaw Hydro"/>
    <tag k="plant:output:electricity" v="85 kW"/>
    <tag k="plant:source" v="hydro"/>
    <tag k="power" v="plant"/>
    <tag k="start_date" v="2015"/>
    <tag k="website" v="https://www.harlawhydro.org.uk/"/>
  </way>
  <way id="1092330235" version="3" timestamp="2025-01-29T08:48:58Z" changeset="161887766" uid="18381521" user="Benedict Brosnahan">
    <nd ref="10004079124"/>
    <nd ref="10004079121"/>
    <nd ref="10004079122"/>
    <nd ref="10004079123"/>
    <nd ref="10004079124"/>
    <tag k="addr:city" v="Balerno"/>
    <tag k="addr:housenumber" v="15"/>
    <tag k="addr:postcode" v="EH14 7FE"/>
    <tag k="addr:street" v="Cassidy Wynd"/>
    <tag k="building" v="house"/>
  </way>
  <way id="1092330237" version="3" timestamp="2025-01-29T08:48:58Z" changeset="161887766" uid="18381521" user="Benedict Brosnahan">
    <nd ref="10004079132"/>
    <nd ref="10004079129"/>
    <nd ref="10004079130"/>
    <nd ref="10004079131"/>
    <nd ref="10004079132"/>
    <tag k="addr:city" v="Balerno"/>
    <tag k="addr:housenumber" v="17"/>
    <tag k="addr:postcode" v="EH14 7FE"/>
    <tag k="addr:street" v="Cassidy Wynd"/>
    <tag k="building" v="house"/>
    <tag k="house" v="detached"/>
  </way>
  <way id="1092330240" version="3" timestamp="2025-01-29T08:48:58Z" changeset="161887766" uid="18381521" user="Benedict Brosnahan">
    <nd ref="10004079144"/>
    <nd ref="10004079143"/>
    <nd ref="10004079142"/>
    <nd ref="10004079141"/>
    <nd ref="10004079144"/>
    <tag k="addr:city" v="Balerno"/>
    <tag k="addr:housenumber" v="19"/>
    <tag k="addr:postcode" v="EH14 7FE"/>
    <tag k="addr:street" v="Cassidy Wynd"/>
    <tag k="building" v="house"/>
    <tag k="house" v="detached"/>
  </way>
  <way id="1092330241" version="3" timestamp="2025-01-29T08:46:25Z" changeset="161887687" uid="18381521" user="Benedict Brosnahan">
    <nd ref="10004079156"/>
    <nd ref="10004079155"/>
    <nd ref="10004079154"/>
    <nd ref="10064758699"/>
    <nd ref="10004079153"/>
    <nd ref="10004079146"/>
    <nd ref="10004079151"/>
    <nd ref="10004079152"/>
    <nd ref="10004079147"/>
    <nd ref="10004079156"/>
    <tag k="addr:city" v="Balerno"/>
    <tag k="addr:housenumber" v="10"/>
    <tag k="addr:postcode" v="EH14 7FJ"/>
    <tag k="addr:street" v="Gillon Drive"/>
    <tag k="building" v="house"/>
    <tag k="house" v="detached"/>
  </way>
  <way id="1092330242" version="3" timestamp="2025-01-29T08:46:25Z" changeset="161887687" uid="18381521" user="Benedict Brosnahan">
    <nd ref="10004079165"/>
    <nd ref="10004079168"/>
    <nd ref="10004079171"/>
    <nd ref="10004079148"/>
    <nd ref="10004079167"/>
    <nd ref="10004079166"/>
    <nd ref="10004079170"/>
    <nd ref="10004079169"/>
    <nd ref="10004079165"/>
    <tag k="addr:city" v="Balerno"/>
    <tag k="addr:housenumber" v="27"/>
    <tag k="addr:postcode" v="EH14 7FJ"/>
    <tag k="addr:street" v="Gillon Drive"/>
    <tag k="building" v="house"/>
    <tag k="house" v="detached"/>
  </way>
  <way id="1092330243" version="3" timestamp="2025-01-29T08:46:25Z" changeset="161887687" uid="18381521" user="Benedict Brosnahan">
    <nd ref="10004079197"/>
    <nd ref="10004079196"/>
    <nd ref="10004079191"/>
    <nd ref="10004079195"/>
    <nd ref="10004079192"/>
    <nd ref="10004079193"/>
    <nd ref="10004079150"/>
    <nd ref="10004079194"/>
    <nd ref="10004079197"/>
    <tag k="addr:city" v="Balerno"/>
    <tag k="addr:housenumber" v="19"/>
    <tag k="addr:postcode" v="EH14 7FJ"/>
    <tag k="addr:street" v="Gillon Drive"/>
    <tag k="building" v="house"/>
  </way>
  <way id="1092330245" version="3" timestamp="2025-01-29T08:46:25Z" changeset="161887687" uid="18381521" user="Benedict Brosnahan">
    <nd ref="10004079164"/>
    <nd ref="10004079163"/>
    <nd ref="10004079162"/>
    <nd ref="10004079161"/>
    <nd ref="10004079164"/>
    <tag k="addr:city" v="Balerno"/>
    <tag k="addr:housenumber" v="29"/>
    <tag k="addr:postcode" v="EH14 7FJ"/>
    <tag k="addr:street" v="Gillon Drive"/>
    <tag k="building" v="house"/>
    <tag k="house" v="detached"/>
  </way>
  <way id="1092330246" version="3" timestamp="2025-01-29T08:46:25Z" changeset="161887687" uid="18381521" user="Benedict Brosnahan">
    <nd ref="10004079149"/>
    <nd ref="10004079176"/>
    <nd ref="10004079175"/>
    <nd ref="10004079178"/>
    <nd ref="10004079173"/>
    <nd ref="10004079177"/>
    <nd ref="10004079172"/>
    <nd ref="10004079174"/>
    <nd ref="10004079149"/>
    <tag k="addr:city" v="Balerno"/>
    <tag k="addr:housenumber" v="25"/>
    <tag k="addr:postcode" v="EH14 7FJ"/>
    <tag k="addr:street" v="Gillon Drive"/>
    <tag k="building" v="house"/>
    <tag k="house" v="detached"/>
  </way>
  <way id="1092330247" version="3" timestamp="2025-01-29T08:46:25Z" changeset="161887687" uid="18381521" user="Benedict Brosnahan">
    <nd ref="10004079182"/>
    <nd ref="10004079179"/>
    <nd ref="10004079180"/>
    <nd ref="10004079181"/>
    <nd ref="10004079182"/>
    <tag k="addr:city" v="Balerno"/>
    <tag k="addr:housenumber" v="23"/>
    <tag k="addr:postcode" v="EH14 7FJ"/>
    <tag k="addr:street" v="Gillon Drive"/>
    <tag k="building" v="house"/>
    <tag k="house" v="detached"/>
  </way>
  <way id="1092330250" version="3" timestamp="2025-01-29T08:46:25Z" changeset="161887687" uid="18381521" user="Benedict Brosnahan">
    <nd ref="10004079201"/>
    <nd ref="10004079200"/>
    <nd ref="10004079199"/>
    <nd ref="10004079198"/>
    <nd ref="10004079201"/>
    <tag k="addr:city" v="Balerno"/>
    <tag k="addr:housenumber" v="21"/>
    <tag k="addr:postcode" v="EH14 7FJ"/>
    <tag k="addr:street" v="Gillon Drive"/>
    <tag k="building" v="house"/>
    <tag k="house" v="detached"/>
  </way>
  <way id="1092330252" version="2" timestamp="2025-01-29T08:43:19Z" changeset="161887598" uid="18381521" user="Benedict Brosnahan">
    <nd ref="10004079207"/>
    <nd ref="10004079219"/>
    <nd ref="10004079218"/>
    <nd ref="10004079221"/>
    <nd ref="10004079206"/>
    <nd ref="10004079209"/>
    <nd ref="10004079208"/>
    <nd ref="10004079220"/>
    <nd ref="10004079207"/>
    <tag k="addr:city" v="Balerno"/>
    <tag k="addr:housenumber" v="6"/>
    <tag k="addr:postcode" v="EH14 7FJ"/>
    <tag k="addr:street" v="Gillon Drive"/>
    <tag k="building" v="house"/>
  </way>
  <way id="1092330254" version="2" timestamp="2025-01-29T08:43:19Z" changeset="161887598" uid="18381521" user="Benedict Brosnahan">
    <nd ref="10004079217"/>
    <nd ref="10004079216"/>
    <nd ref="10004079215"/>
    <nd ref="10004079214"/>
    <nd ref="10004079217"/>
    <tag k="addr:city" v="Balerno"/>
    <tag k="addr:housenumber" v="8"/>
    <tag k="addr:postcode" v="EH14 7FJ"/>
    <tag k="addr:street" v="Gillon Drive"/>
    <tag k="building" v="house"/>
    <tag k="house" v="detached"/>
  </way>
  <way id="1092330255" version="3" timestamp="2025-01-29T08:43:19Z" changeset="161887598" uid="18381521" user="Benedict Brosnahan">
    <nd ref="10004079225"/>
    <nd ref="10004079224"/>
    <nd ref="10004079223"/>
    <nd ref="10004079222"/>
    <nd ref="10004079225"/>
    <tag k="addr:city" v="Balerno"/>
    <tag k="addr:housenumber" v="17"/>
    <tag k="addr:postcode" v="EH14 7FJ"/>
    <tag k="addr:street" v="Gillon Drive"/>
    <tag k="building" v="house"/>
    <tag k="house" v="detached"/>
  </way>
  <way id="1092330256" version="3" timestamp="2025-01-29T08:43:19Z" changeset="161887598" uid="18381521" user="Benedict Brosnahan">
    <nd ref="10004079229"/>
    <nd ref="10004079228"/>
    <nd ref="10004079227"/>
    <nd ref="10004079226"/>
    <nd ref="10004079229"/>
    <tag k="addr:city" v="Balerno"/>
    <tag k="addr:housenumber" v="15"/>
    <tag k="addr:postcode" v="EH14 7FJ"/>
    <tag k="addr:street" v="Gillon Drive"/>
    <tag k="building" v="house"/>
    <tag k="house" v="detached"/>
  </way>
  <way id="1092330257" version="2" timestamp="2025-01-29T08:43:19Z" changeset="161887598" uid="18381521" user="Benedict Brosnahan">
    <nd ref="10004079233"/>
    <nd ref="10004079232"/>
    <nd ref="10004079231"/>
    <nd ref="10004079230"/>
    <nd ref="10004079233"/>
    <tag k="addr:city" v="Balerno"/>
    <tag k="addr:housenumber" v="4"/>
    <tag k="addr:postcode" v="EH14 7FJ"/>
    <tag k="addr:street" v="Gillon Drive"/>
    <tag k="building" v="house"/>
    <tag k="house" v="detached"/>
  </way>
  <way id="1092330259" version="3" timestamp="2025-01-29T08:43:19Z" changeset="161887598" uid="18381521" user="Benedict Brosnahan">
    <nd ref="10004079241"/>
    <nd ref="10004079238"/>
    <nd ref="10004079239"/>
    <nd ref="10004079240"/>
    <nd ref="10004079241"/>
    <tag k="addr:city" v="Balerno"/>
    <tag k="addr:housenumber" v="13"/>
    <tag k="addr:postcode" v="EH14 7FJ"/>
    <tag k="addr:street" v="Gillon Drive"/>
    <tag k="building" v="house"/>
    <tag k="house" v="detached"/>
  </way>
  <way id="1092330261" version="2" timestamp="2023-05-22T22:13:58Z" changeset="136431858" uid="53626" user="jambamkin">
    <nd ref="10004079247"/>
    <nd ref="10004079246"/>
    <nd ref="9125059219"/>
    <tag k="highway" v="residential"/>
  </way>
  <way id="1092330262" version="2" timestamp="2023-05-22T22:13:58Z" changeset="136431858" uid="53626" user="jambamkin">
    <nd ref="9125059225"/>
    <nd ref="10004079250"/>
    <nd ref="10004079249"/>
    <nd ref="10004079248"/>
    <nd ref="10004079247"/>
    <tag k="highway" v="residential"/>
    <tag k="surface" v="paving_stones"/>
  </way>
  <way id="1092330263" version="1" timestamp="2022-09-06T11:39:21Z" changeset="125854263" uid="16721418" user="SmithyScotland">
    <nd ref="9125059221"/>
    <nd ref="10004079251"/>
    <nd ref="9125059222"/>
    <nd ref="9125059223"/>
    <nd ref="9125059224"/>
    <nd ref="9125059225"/>
    <nd ref="7096461060"/>
    <tag k="highway" v="residential"/>
  </way>
  <way id="1206117969" version="1" timestamp="2023-09-08T12:46:12Z" changeset="140985907" uid="9026132" user="PulisakZ">
    <nd ref="7071343510"/>
    <nd ref="7071343551"/>
    <nd ref="7071343540"/>
    <nd ref="7071343511"/>
    <nd ref="7071343533"/>
    <nd ref="7071343512"/>
    <nd ref="7071343513"/>
    <nd ref="7071343514"/>
    <nd ref="7071343515"/>
    <nd ref="7071343516"/>
    <nd ref="7071343543"/>
    <nd ref="7071343520"/>
    <nd ref="8059384682"/>
    <nd ref="7071343517"/>
    <nd ref="7071343518"/>
    <nd ref="7071343519"/>
    <nd ref="7096461052"/>
    <nd ref="7096461053"/>
    <nd ref="8059384678"/>
    <nd ref="7096461054"/>
    <nd ref="7096461055"/>
    <nd ref="8059384648"/>
    <nd ref="7096461056"/>
    <nd ref="7096461057"/>
    <nd ref="7096461058"/>
    <nd ref="7096461059"/>
    <nd ref="7096461060"/>
    <tag k="highway" v="residential"/>
    <tag k="name" v="Cassidy Wynd"/>
    <tag k="surface" v="paving_stones"/>
  </way>
  <way id="1209792803" version="3" timestamp="2024-08-18T08:54:52Z" changeset="155402389" uid="45452" user="Simon Eilting">
    <nd ref="270543252"/>
    <nd ref="364103461"/>
    <nd ref="2627382444"/>
    <nd ref="270588799"/>
    <nd ref="5634619122"/>
    <nd ref="5634619123"/>
    <nd ref="270588800"/>
    <tag k="cycleway:both" v="no"/>
    <tag k="highway" v="tertiary"/>
    <tag k="junction" v="roundabout"/>
    <tag k="lanes" v="1"/>
    <tag k="lit" v="yes"/>
    <tag k="maxspeed" v="20 mph"/>
    <tag k="oneway" v="yes"/>
    <tag k="smoothness" v="excellent"/>
    <tag k="surface" v="asphalt"/>
  </way>
  <way id="1209792804" version="3" timestamp="2024-08-18T08:55:03Z" changeset="155402724" uid="45452" user="Simon Eilting">
    <nd ref="270588800"/>
    <nd ref="364103462"/>
    <nd ref="2627382421"/>
    <nd ref="5634619124"/>
    <tag k="cycleway:both" v="no"/>
    <tag k="highway" v="tertiary"/>
    <tag k="junction" v="roundabout"/>
    <tag k="lanes" v="1"/>
    <tag k="lit" v="yes"/>
    <tag k="maxspeed" v="20 mph"/>
    <tag k="oneway" v="yes"/>
    <tag k="smoothness" v="excellent"/>
    <tag k="surface" v="asphalt"/>
  </way>
  <way id="1209792805" version="3" timestamp="2024-08-18T08:55:15Z" changeset="155402389" uid="45452" user="Simon Eilting">
    <nd ref="270543239"/>
    <nd ref="364105019"/>
    <nd ref="364105020"/>
    <nd ref="5634618619"/>
    <nd ref="5634618620"/>
    <nd ref="270543244"/>
    <tag k="cycleway:both" v="no"/>
    <tag k="highway" v="tertiary"/>
    <tag k="junction" v="roundabout"/>
    <tag k="lanes" v="1"/>
    <tag k="lit" v="yes"/>
    <tag k="maxspeed" v="20 mph"/>
    <tag k="oneway" v="yes"/>
    <tag k="smoothness" v="excellent"/>
    <tag k="surface" v="asphalt"/>
  </way>
  <way id="1209792806" version="3" timestamp="2024-08-18T08:55:13Z" changeset="155402389" uid="45452" user="Simon Eilting">
    <nd ref="270543244"/>
    <nd ref="270543248"/>
    <nd ref="2627382459"/>
    <nd ref="5634619121"/>
    <nd ref="270543252"/>
    <tag k="cycleway:both" v="no"/>
    <tag k="highway" v="tertiary"/>
    <tag k="junction" v="roundabout"/>
    <tag k="lanes" v="1"/>
    <tag k="lit" v="yes"/>
    <tag k="maxspeed" v="20 mph"/>
    <tag k="oneway" v="yes"/>
    <tag k="smoothness" v="excellent"/>
    <tag k="surface" v="asphalt"/>
  </way>
  <way id="1236114114" version="2" timestamp="2024-08-18T08:56:06Z" changeset="155402876" uid="45452" user="Simon Eilting">
    <nd ref="11476810477"/>
    <nd ref="270543219"/>
    <nd ref="270543220"/>
    <tag k="cycleway:both" v="no"/>
    <tag k="highway" v="tertiary"/>
    <tag k="lanes" v="2"/>
    <tag k="lit" v="yes"/>
    <tag k="maxspeed" v="30 mph"/>
    <tag k="name" v="Cockburn Crescent"/>
    <tag k="surface" v="asphalt"/>
  </way>
  <way id="1283664431" version="1" timestamp="2024-05-16T15:53:34Z" changeset="151415439" uid="21342561" user="MGardner_NTS">
    <nd ref="11910202709"/>
    <nd ref="11910202710"/>
    <nd ref="11910202711"/>
    <nd ref="11910202712"/>
    <nd ref="11910202713"/>
    <nd ref="11910202714"/>
    <nd ref="11910202708"/>
    <nd ref="11910202709"/>
    <tag k="building" v="house"/>
    <tag k="name" v="Green Cottage"/>
  </way>
  <way id="1283664432" version="1" timestamp="2024-05-16T15:53:34Z" changeset="151415439" uid="21342561" user="MGardner_NTS">
    <nd ref="11910202715"/>
    <nd ref="11910202716"/>
    <nd ref="11910202714"/>
    <nd ref="11910202713"/>
    <nd ref="11910202715"/>
    <tag k="building" v="house"/>
    <tag k="name" v="Blue Cottage"/>
  </way>
  <relation id="5305689" version="2" timestamp="2017-12-17T17:10:35Z" changeset="54708414" uid="3432400" user="GinaroZ">
    <member type="way" ref="295000748" role="outer"/>
    <member type="way" ref="295000746" role="outer"/>
    <tag k="building" v="residential"/>
    <tag k="name" v="Temple House"/>
    <tag k="type" v="multipolygon"/>
  </relation>

</osm>
