<?xml version="1.0" encoding="UTF-8"?>
<osm version="0.6" generator="Overpass API 0.7.62.5 1bd436f1">
<note>The data included in this document is from www.openstreetmap.org. The data is made available under ODbL.</note>
<meta osm_base="2025-05-17T21:31:00Z" areas="2024-12-31T00:49:33Z"/>

  <node id="602455" lat="55.9266973" lon="-3.2700029" version="3" timestamp="2013-08-03T09:23:00Z" changeset="17201684" uid="199963" user="TheBaron"/>
  <node id="602459" lat="55.9335181" lon="-3.2454636" version="5" timestamp="2020-08-24T08:38:47Z" changeset="89843691" uid="9482689" user="OlegKukharchik">
    <tag k="highway" v="traffic_signals"/>
  </node>
  <node id="614257" lat="55.9265063" lon="-3.2708244" version="4" timestamp="2013-08-03T09:23:00Z" changeset="17201684" uid="199963" user="TheBaron"/>
  <node id="641787" lat="55.9274513" lon="-3.2711848" version="4" timestamp="2013-08-03T10:45:04Z" changeset="17202409" uid="199963" user="TheBaron"/>
  <node id="703254" lat="55.9335416" lon="-3.2668990" version="9" timestamp="2020-07-05T10:08:52Z" changeset="87550926" uid="388774" user="drnoble">
    <tag k="highway" v="traffic_signals"/>
  </node>
  <node id="703271" lat="55.9323749" lon="-3.2595505" version="6" timestamp="2016-08-23T15:59:04Z" changeset="41641551" uid="2234934" user="sophiemccallum"/>
  <node id="13865631" lat="55.9311755" lon="-3.2525252" version="4" timestamp="2015-09-10T13:48:46Z" changeset="33933651" uid="2234934" user="sophiemccallum">
    <tag k="highway" v="traffic_signals"/>
  </node>
  <node id="13865642" lat="55.9352560" lon="-3.2466381" version="8" timestamp="2017-06-06T16:53:50Z" changeset="49311406" uid="2234934" user="sophiemccallum"/>
  <node id="26945217" lat="55.9316299" lon="-3.2650102" version="4" timestamp="2015-09-10T13:48:51Z" changeset="33933651" uid="2234934" user="sophiemccallum"/>
  <node id="33946395" lat="55.9325493" lon="-3.2480368" version="5" timestamp="2020-08-24T08:38:47Z" changeset="89843691" uid="9482689" user="OlegKukharchik"/>
  <node id="33947731" lat="55.9311249" lon="-3.2501159" version="4" timestamp="2015-09-10T13:48:52Z" changeset="33933651" uid="2234934" user="sophiemccallum"/>
  <node id="44985855" lat="55.9301028" lon="-3.2559681" version="4" timestamp="2015-09-10T13:48:55Z" changeset="33933651" uid="2234934" user="sophiemccallum"/>
  <node id="44992068" lat="55.9296830" lon="-3.2590577" version="3" timestamp="2015-09-10T13:48:55Z" changeset="33933651" uid="2234934" user="sophiemccallum"/>
  <node id="530575610" lat="55.9352974" lon="-3.2463473" version="7" timestamp="2017-06-06T16:53:50Z" changeset="49311406" uid="2234934" user="sophiemccallum"/>
  <node id="783575142" lat="55.9271008" lon="-3.2708682" version="4" timestamp="2013-08-03T10:45:04Z" changeset="17202409" uid="199963" user="TheBaron"/>
  <node id="783575147" lat="55.9384956" lon="-3.2506675" version="5" timestamp="2015-04-15T15:20:24Z" changeset="30241148" uid="1798469" user="eric_"/>
  <node id="1819541470" lat="55.9323299" lon="-3.2600719" version="5" timestamp="2016-08-23T15:58:59Z" changeset="41641551" uid="2234934" user="sophiemccallum"/>
  <node id="2301965389" lat="55.9339421" lon="-3.2458304" version="2" timestamp="2020-08-24T08:38:47Z" changeset="89843691" uid="9482689" user="OlegKukharchik"/>
  <node id="2375417063" lat="55.9289176" lon="-3.2644492" version="3" timestamp="2015-09-10T13:48:48Z" changeset="33933651" uid="2234934" user="sophiemccallum"/>
  <node id="2807238041" lat="55.9315122" lon="-3.2514643" version="3" timestamp="2017-06-12T13:41:27Z" changeset="49469584" uid="2234934" user="sophiemccallum"/>
  <node id="7839241470" lat="55.9332354" lon="-3.2459826" version="1" timestamp="2020-08-24T08:38:47Z" changeset="89843691" uid="9482689" user="OlegKukharchik"/>
  <node id="8000959765" lat="55.9307935" lon="-3.2722788" version="1" timestamp="2020-10-12T18:06:43Z" changeset="92369542" uid="388774" user="drnoble">
    <tag k="addr:city" v="Edinburgh"/>
    <tag k="addr:housenumber" v="2"/>
    <tag k="addr:street" v="Saughton Mains Park"/>
    <tag k="building" v="apartments"/>
    <tag k="building:levels" v="4"/>
    <tag k="entrance" v="staircase"/>
  </node>
  <way id="4252301" version="26" timestamp="2024-08-27T16:46:49Z" changeset="155841699" uid="21762849" user="jSeke">
    <nd ref="602455"/>
    <nd ref="1254172110"/>
    <nd ref="1254172098"/>
    <nd ref="2405824150"/>
    <nd ref="1254172003"/>
    <nd ref="2405824163"/>
    <nd ref="2375417066"/>
    <nd ref="2405824157"/>
    <nd ref="3635929893"/>
    <nd ref="602615"/>
    <nd ref="2375417074"/>
    <nd ref="2375417059"/>
    <nd ref="2405824135"/>
    <nd ref="2375417069"/>
    <nd ref="32520485"/>
    <nd ref="2375417064"/>
    <nd ref="602456"/>
    <nd ref="2375419305"/>
    <nd ref="2375417081"/>
    <nd ref="2375417063"/>
    <nd ref="3737487863"/>
    <nd ref="3737487881"/>
    <nd ref="3737487885"/>
    <nd ref="13865627"/>
    <nd ref="2375417076"/>
    <nd ref="2375417089"/>
    <nd ref="2375417087"/>
    <nd ref="2375417067"/>
    <nd ref="2375417065"/>
    <nd ref="4022240835"/>
    <nd ref="3637417575"/>
    <nd ref="7684665463"/>
    <nd ref="2375418403"/>
    <nd ref="7684665462"/>
    <nd ref="2375417075"/>
    <nd ref="7684665461"/>
    <nd ref="7684665465"/>
    <tag k="busway" v="lane"/>
    <tag k="cycleway" v="share_busway"/>
    <tag k="foot" v="no"/>
    <tag k="highway" v="primary"/>
    <tag k="lanes" v="2"/>
    <tag k="lit" v="yes"/>
    <tag k="maxspeed" v="40 mph"/>
    <tag k="name" v="Calder Road"/>
    <tag k="name:gd" v="Rathad Chaladair"/>
    <tag k="oneway" v="yes"/>
    <tag k="ref" v="A71"/>
    <tag k="sidewalk" v="no"/>
    <tag k="source" v="Bing;survey"/>
    <tag k="surface" v="asphalt"/>
  </way>
  <way id="4252302" version="12" timestamp="2017-05-16T21:56:00Z" changeset="48746982" uid="124271" user="Mao-PU">
    <nd ref="614257"/>
    <nd ref="1030274454"/>
    <nd ref="2405824138"/>
    <nd ref="2405824139"/>
    <nd ref="1254172006"/>
    <nd ref="1030274455"/>
    <nd ref="1254207262"/>
    <nd ref="1254172083"/>
    <nd ref="602613"/>
    <nd ref="602455"/>
    <tag k="foot" v="no"/>
    <tag k="highway" v="primary"/>
    <tag k="junction" v="roundabout"/>
    <tag k="lit" v="yes"/>
    <tag k="maxspeed" v="40 mph"/>
    <tag k="oneway" v="yes"/>
    <tag k="ref" v="A71"/>
    <tag k="surface" v="asphalt"/>
  </way>
  <way id="4516433" version="21" timestamp="2024-08-27T16:46:49Z" changeset="155841699" uid="21762849" user="jSeke">
    <nd ref="13865631"/>
    <nd ref="3737488304"/>
    <nd ref="2807238041"/>
    <nd ref="33947195"/>
    <tag k="cycleway:left" v="share_busway"/>
    <tag k="cycleway:right" v="no"/>
    <tag k="highway" v="primary"/>
    <tag k="lanes" v="4"/>
    <tag k="lit" v="yes"/>
    <tag k="maxspeed" v="30 mph"/>
    <tag k="name" v="Gorgie Road"/>
    <tag k="name:gd" v="Rathad Ghorgain"/>
    <tag k="ref" v="A71"/>
    <tag k="sidewalk" v="both"/>
    <tag k="smoothness" v="good"/>
    <tag k="surface" v="asphalt"/>
  </way>
  <way id="4516434" version="16" timestamp="2019-12-29T19:04:43Z" changeset="78987271" uid="388774" user="drnoble">
    <nd ref="13865631"/>
    <nd ref="4055740941"/>
    <nd ref="27667817"/>
    <nd ref="4719274376"/>
    <nd ref="783614519"/>
    <nd ref="3737488102"/>
    <nd ref="1433145826"/>
    <nd ref="2536591150"/>
    <nd ref="34001246"/>
    <nd ref="27667818"/>
    <nd ref="2536591155"/>
    <nd ref="34001325"/>
    <nd ref="3737487912"/>
    <nd ref="2536591152"/>
    <nd ref="2536591165"/>
    <nd ref="3639701378"/>
    <nd ref="2099869246"/>
    <nd ref="1740780864"/>
    <tag k="cycleway" v="lane"/>
    <tag k="highway" v="tertiary"/>
    <tag k="maxspeed" v="30 mph"/>
    <tag k="name" v="Chesser Avenue"/>
    <tag k="source" v="Bing;survey"/>
    <tag k="surface" v="asphalt"/>
  </way>
  <way id="4526636" version="16" timestamp="2024-11-08T08:18:58Z" changeset="158885352" uid="18439309" user="MariaMaily">
    <nd ref="703254"/>
    <nd ref="703253"/>
    <nd ref="2405788056"/>
    <nd ref="2538450070"/>
    <nd ref="2405788090"/>
    <nd ref="2393276697"/>
    <nd ref="2393276699"/>
    <nd ref="703252"/>
    <nd ref="11986059788"/>
    <nd ref="1819537842"/>
    <nd ref="703249"/>
    <nd ref="2393276695"/>
    <nd ref="2405788081"/>
    <nd ref="703248"/>
    <nd ref="1819537846"/>
    <nd ref="2395280366"/>
    <nd ref="44993538"/>
    <nd ref="703245"/>
    <nd ref="2395276325"/>
    <nd ref="703244"/>
    <nd ref="2395276318"/>
    <nd ref="2395276317"/>
    <nd ref="9415811469"/>
    <nd ref="703243"/>
    <nd ref="641793"/>
    <tag k="highway" v="tertiary"/>
    <tag k="lanes" v="3"/>
    <tag k="lanes:backward" v="1"/>
    <tag k="lanes:forward" v="2"/>
    <tag k="lit" v="yes"/>
    <tag k="maxspeed" v="30 mph"/>
    <tag k="name" v="Stenhouse Drive"/>
    <tag k="name:gd" v="Dràibh Stenhouse"/>
    <tag k="source:highway" v="OS_OpenData_StreetView"/>
    <tag k="surface" v="asphalt"/>
  </way>
  <way id="4526637" version="14" timestamp="2024-08-27T16:46:49Z" changeset="155841699" uid="21762849" user="jSeke">
    <nd ref="703280"/>
    <nd ref="12038353666"/>
    <nd ref="703264"/>
    <nd ref="703263"/>
    <nd ref="2537159008"/>
    <tag k="highway" v="tertiary"/>
    <tag k="lanes" v="2"/>
    <tag k="lit" v="yes"/>
    <tag k="maxspeed" v="20 mph"/>
    <tag k="name" v="Stenhouse Drive"/>
    <tag k="name:gd" v="Dràibh Stenhouse"/>
    <tag k="surface" v="asphalt"/>
  </way>
  <way id="4526638" version="14" timestamp="2024-08-27T16:46:49Z" changeset="155841699" uid="21762849" user="jSeke">
    <nd ref="703280"/>
    <nd ref="2467944946"/>
    <nd ref="703279"/>
    <nd ref="2467944926"/>
    <nd ref="703278"/>
    <nd ref="2467944947"/>
    <nd ref="703277"/>
    <nd ref="2467944940"/>
    <nd ref="703276"/>
    <nd ref="502093280"/>
    <tag k="highway" v="tertiary"/>
    <tag k="junction" v="roundabout"/>
    <tag k="lit" v="yes"/>
    <tag k="maxspeed" v="20 mph"/>
    <tag k="name" v="Stenhouse Cross"/>
    <tag k="name:gd" v="Crois Stenhouse"/>
    <tag k="source" v="Bing;survey"/>
    <tag k="surface" v="asphalt"/>
  </way>
  <way id="4526643" version="12" timestamp="2024-08-24T14:17:09Z" changeset="155699037" uid="16721418" user="SmithyScotland">
    <nd ref="13865642"/>
    <nd ref="530575562"/>
    <nd ref="509177704"/>
    <nd ref="530575570"/>
    <nd ref="530575579"/>
    <nd ref="509177712"/>
    <nd ref="530575610"/>
    <tag k="direction" v="clockwise"/>
    <tag k="highway" v="tertiary"/>
    <tag k="junction" v="roundabout"/>
    <tag k="lanes" v="2"/>
    <tag k="lit" v="yes"/>
    <tag k="maxspeed" v="30 mph"/>
    <tag k="surface" v="asphalt"/>
  </way>
  <way id="4526644" version="18" timestamp="2024-01-31T09:54:34Z" changeset="146896688" uid="8556201" user="LonMcGregor">
    <nd ref="602459"/>
    <nd ref="7839241471"/>
    <nd ref="8439494290"/>
    <nd ref="2301965389"/>
    <tag k="highway" v="tertiary"/>
    <tag k="lit" v="yes"/>
    <tag k="maxspeed" v="30 mph"/>
    <tag k="name" v="Balgreen Road"/>
    <tag k="sidewalk:both" v="separate"/>
    <tag k="surface" v="asphalt"/>
  </way>
  <way id="4600459" version="14" timestamp="2020-07-25T08:50:12Z" changeset="88489585" uid="388774" user="drnoble">
    <nd ref="703254"/>
    <nd ref="7684665331"/>
    <nd ref="7684665332"/>
    <nd ref="2538450049"/>
    <nd ref="7746304878"/>
    <nd ref="2570337316"/>
    <nd ref="7746304871"/>
    <nd ref="26945215"/>
    <nd ref="2570337286"/>
    <nd ref="7684665341"/>
    <nd ref="2570337262"/>
    <nd ref="2570337252"/>
    <nd ref="7684665342"/>
    <nd ref="860060800"/>
    <nd ref="2592152218"/>
    <nd ref="26945217"/>
    <nd ref="7684665447"/>
    <nd ref="860060801"/>
    <nd ref="1819954693"/>
    <nd ref="1819954698"/>
    <nd ref="1819954680"/>
    <nd ref="1819954690"/>
    <nd ref="4362639287"/>
    <nd ref="26945219"/>
    <nd ref="783575156"/>
    <tag k="highway" v="residential"/>
    <tag k="lanes" v="2"/>
    <tag k="lit" v="yes"/>
    <tag k="maxspeed" v="20 mph"/>
    <tag k="name" v="Saughton Mains Street"/>
    <tag k="sidewalk" v="both"/>
    <tag k="surface" v="asphalt"/>
  </way>
  <way id="4628913" version="6" timestamp="2020-07-19T08:35:18Z" changeset="88194021" uid="388774" user="drnoble">
    <nd ref="45002616"/>
    <nd ref="4584358816"/>
    <nd ref="26945257"/>
    <nd ref="26945259"/>
    <nd ref="26945260"/>
    <nd ref="4584358814"/>
    <nd ref="26945262"/>
    <nd ref="4584358813"/>
    <nd ref="45001530"/>
    <nd ref="4584358806"/>
    <nd ref="45001532"/>
    <tag k="highway" v="residential"/>
    <tag k="lanes" v="2"/>
    <tag k="lit" v="yes"/>
    <tag k="maxspeed" v="20 mph"/>
    <tag k="name" v="Saughton Mains Place"/>
    <tag k="sidewalk" v="both"/>
    <tag k="source" v="yahoo tracing"/>
    <tag k="surface" v="asphalt"/>
  </way>
  <way id="4936021" version="18" timestamp="2024-07-06T21:29:52Z" changeset="153640305" uid="3432400" user="GinaroZ">
    <nd ref="1819541470"/>
    <nd ref="12038353663"/>
    <nd ref="32520489"/>
    <nd ref="44990268"/>
    <nd ref="44991225"/>
    <nd ref="3637678057"/>
    <nd ref="3737488191"/>
    <nd ref="32520488"/>
    <nd ref="3737488168"/>
    <nd ref="3737488156"/>
    <nd ref="32520487"/>
    <nd ref="3637678056"/>
    <nd ref="44991259"/>
    <nd ref="32520486"/>
    <nd ref="2592148041"/>
    <nd ref="536488867"/>
    <nd ref="3737487954"/>
    <nd ref="13865628"/>
    <nd ref="3637417575"/>
    <nd ref="7684665464"/>
    <tag k="highway" v="tertiary"/>
    <tag k="lit" v="yes"/>
    <tag k="maxspeed" v="20 mph"/>
    <tag k="name" v="Stevenson Drive"/>
    <tag k="source" v="Bing;survey"/>
    <tag k="surface" v="asphalt"/>
  </way>
  <way id="4936022" version="8" timestamp="2022-06-23T10:49:34Z" changeset="122753239" uid="4672757" user="The Smith">
    <nd ref="3897286844"/>
    <nd ref="2375490856"/>
    <nd ref="3737488674"/>
    <nd ref="32520494"/>
    <nd ref="32520497"/>
    <tag k="highway" v="residential"/>
    <tag k="lanes" v="2"/>
    <tag k="lit" v="yes"/>
    <tag k="maxspeed" v="20 mph"/>
    <tag k="name" v="Whitson Road"/>
    <tag k="sidewalk" v="both"/>
    <tag k="source" v="Bing;survey"/>
  </way>
  <way id="4936023" version="7" timestamp="2017-03-05T20:30:11Z" changeset="46605743" uid="33764" user="Rostranimin">
    <nd ref="703299"/>
    <nd ref="2537169431"/>
    <nd ref="2537169433"/>
    <nd ref="2537169432"/>
    <nd ref="3737488651"/>
    <nd ref="3737488653"/>
    <tag k="highway" v="residential"/>
    <tag k="lit" v="yes"/>
    <tag k="maxspeed" v="30 mph"/>
    <tag k="name" v="Whitson Terrace"/>
    <tag k="source" v="Bing;survey"/>
  </way>
  <way id="5043428" version="6" timestamp="2017-08-17T21:30:52Z" changeset="51216902" uid="91225" user="tms13">
    <nd ref="703292"/>
    <nd ref="44980878"/>
    <nd ref="33752406"/>
    <tag k="highway" v="residential"/>
    <tag k="lit" v="yes"/>
    <tag k="maxspeed" v="20 mph"/>
    <tag k="name" v="Whitson Grove"/>
    <tag k="oneway" v="yes"/>
    <tag k="source" v="Bing;survey"/>
  </way>
  <way id="5045426" version="6" timestamp="2024-08-11T14:02:45Z" changeset="155104477" uid="21143475" user="Htf4">
    <nd ref="32520494"/>
    <nd ref="34006019"/>
    <nd ref="33775552"/>
    <tag k="highway" v="residential"/>
    <tag k="lanes" v="2"/>
    <tag k="lit" v="yes"/>
    <tag k="maxspeed" v="30 mph"/>
    <tag k="name" v="Balgreen Road"/>
    <tag k="source" v="Bing;survey"/>
    <tag k="surface" v="asphalt"/>
  </way>
  <way id="5050914" version="7" timestamp="2019-10-24T10:10:45Z" changeset="76145014" uid="8155596" user="Lanthanus">
    <nd ref="33947731"/>
    <nd ref="4910914389"/>
    <nd ref="4555429829"/>
    <nd ref="33947195"/>
    <tag k="highway" v="residential"/>
    <tag k="lanes" v="2"/>
    <tag k="maxspeed" v="30 mph"/>
    <tag k="motor_vehicle" v="private"/>
    <tag k="name" v="Delhaig"/>
    <tag k="surface" v="asphalt"/>
  </way>
  <way id="5055012" version="13" timestamp="2024-08-27T16:46:49Z" changeset="155841699" uid="21762849" user="jSeke">
    <nd ref="44988284"/>
    <nd ref="3737488438"/>
    <nd ref="44989622"/>
    <nd ref="3737488468"/>
    <nd ref="3737488470"/>
    <nd ref="3737488473"/>
    <nd ref="44989620"/>
    <nd ref="3737488477"/>
    <nd ref="3737488489"/>
    <nd ref="3737488500"/>
    <nd ref="2549606771"/>
    <nd ref="3737488515"/>
    <nd ref="3737488531"/>
    <nd ref="3737488540"/>
    <nd ref="44989617"/>
    <nd ref="703257"/>
    <tag k="highway" v="residential"/>
    <tag k="lit" v="yes"/>
    <tag k="maxspeed" v="20 mph"/>
    <tag k="name" v="Stenhouse Avenue West"/>
    <tag k="name:gd" v="Craobhraid Stenhouse an Iar"/>
    <tag k="source" v="Bing;survey"/>
  </way>
  <way id="5055013" version="6" timestamp="2024-08-11T14:02:18Z" changeset="155104457" uid="21143475" user="Htf4">
    <nd ref="34006019"/>
    <nd ref="34006020"/>
    <tag k="highway" v="residential"/>
    <tag k="lit" v="yes"/>
    <tag k="maxspeed" v="30 mph"/>
    <tag k="name" v="Balgreen Road"/>
    <tag k="source" v="Bing;survey"/>
    <tag k="surface" v="asphalt"/>
  </way>
  <way id="5055014" version="10" timestamp="2019-04-19T03:44:01Z" changeset="69364353" uid="8407155" user="addatla">
    <nd ref="4719166206"/>
    <nd ref="44979537"/>
    <nd ref="44979972"/>
    <nd ref="33752406"/>
    <nd ref="3736286068"/>
    <nd ref="33752407"/>
    <nd ref="3736286067"/>
    <nd ref="34006018"/>
    <nd ref="44980703"/>
    <nd ref="3736286066"/>
    <nd ref="34006017"/>
    <nd ref="2882494831"/>
    <nd ref="3736286063"/>
    <nd ref="34006021"/>
    <tag k="highway" v="residential"/>
    <tag k="lit" v="yes"/>
    <tag k="maxspeed" v="20 mph"/>
    <tag k="name" v="Whitson Road"/>
    <tag k="source" v="Bing;survey"/>
  </way>
  <way id="5055015" version="13" timestamp="2024-08-27T16:46:49Z" changeset="155841699" uid="21762849" user="jSeke">
    <nd ref="44988281"/>
    <nd ref="2537168226"/>
    <nd ref="44989255"/>
    <nd ref="2537168227"/>
    <nd ref="3737488471"/>
    <nd ref="44989253"/>
    <nd ref="2537168225"/>
    <nd ref="2537168230"/>
    <nd ref="3737488493"/>
    <nd ref="44989252"/>
    <nd ref="3737488506"/>
    <nd ref="2537159020"/>
    <nd ref="2537159014"/>
    <nd ref="3737488533"/>
    <nd ref="2537168228"/>
    <nd ref="44989250"/>
    <nd ref="703259"/>
    <tag k="highway" v="residential"/>
    <tag k="lit" v="yes"/>
    <tag k="maxspeed" v="20 mph"/>
    <tag k="name" v="Stenhouse Gardens North"/>
    <tag k="name:gd" v="Gàrradh Stenhouse a Tuath"/>
    <tag k="source" v="Bing;survey"/>
  </way>
  <way id="5055017" version="6" timestamp="2017-03-05T20:30:12Z" changeset="46605743" uid="33764" user="Rostranimin">
    <nd ref="34006023"/>
    <nd ref="3736286073"/>
    <nd ref="3736286072"/>
    <nd ref="3736286071"/>
    <nd ref="34006024"/>
    <nd ref="3736286069"/>
    <nd ref="3736286070"/>
    <nd ref="3736286074"/>
    <nd ref="3736286075"/>
    <nd ref="3736286076"/>
    <nd ref="34006025"/>
    <nd ref="3736286077"/>
    <nd ref="3736286078"/>
    <nd ref="34006022"/>
    <tag k="highway" v="residential"/>
    <tag k="maxspeed" v="20 mph"/>
    <tag k="name" v="Whitson Road"/>
  </way>
  <way id="5776778" version="8" timestamp="2017-03-05T20:30:12Z" changeset="46605743" uid="33764" user="Rostranimin">
    <nd ref="44978954"/>
    <nd ref="2537169189"/>
    <nd ref="3737488596"/>
    <nd ref="2537169186"/>
    <nd ref="3737488601"/>
    <nd ref="44978955"/>
    <nd ref="3737488606"/>
    <nd ref="2537169196"/>
    <nd ref="44978958"/>
    <nd ref="2537169190"/>
    <nd ref="3737488619"/>
    <nd ref="2537169184"/>
    <nd ref="44978962"/>
    <nd ref="44978968"/>
    <nd ref="2537169193"/>
    <nd ref="2537169194"/>
    <nd ref="44978970"/>
    <nd ref="3737488642"/>
    <nd ref="3737488643"/>
    <nd ref="2537169192"/>
    <nd ref="3737488645"/>
    <nd ref="44978979"/>
    <nd ref="2537169191"/>
    <nd ref="3737488644"/>
    <nd ref="2537169185"/>
    <nd ref="3737488641"/>
    <nd ref="44978982"/>
    <nd ref="2537169195"/>
    <nd ref="2537169188"/>
    <tag k="highway" v="residential"/>
    <tag k="lit" v="yes"/>
    <tag k="maxspeed" v="20 mph"/>
    <tag k="name" v="Whitson Crescent"/>
    <tag k="source" v="Bing;survey"/>
  </way>
  <way id="5776787" version="6" timestamp="2017-03-05T20:30:12Z" changeset="46605743" uid="33764" user="Rostranimin">
    <nd ref="44978979"/>
    <nd ref="44979326"/>
    <tag k="highway" v="residential"/>
    <tag k="lit" v="yes"/>
    <tag k="maxspeed" v="20 mph"/>
    <tag k="name" v="Whitson Place East"/>
    <tag k="source" v="Bing;survey"/>
  </way>
  <way id="5776791" version="6" timestamp="2017-08-17T21:30:53Z" changeset="51216902" uid="91225" user="tms13">
    <nd ref="44979390"/>
    <nd ref="44979941"/>
    <nd ref="44979537"/>
    <tag k="highway" v="residential"/>
    <tag k="lit" v="yes"/>
    <tag k="maxspeed" v="20 mph"/>
    <tag k="name" v="Whitson Way"/>
    <tag k="source" v="Bing;survey"/>
  </way>
  <way id="5776804" version="6" timestamp="2017-03-05T20:30:12Z" changeset="46605743" uid="33764" user="Rostranimin">
    <nd ref="44978958"/>
    <nd ref="4719166205"/>
    <tag k="highway" v="residential"/>
    <tag k="lit" v="yes"/>
    <tag k="maxspeed" v="20 mph"/>
    <tag k="name" v="Whitson Place West"/>
    <tag k="source" v="Bing;survey"/>
  </way>
  <way id="5776805" version="6" timestamp="2017-08-17T21:30:52Z" changeset="51216902" uid="91225" user="tms13">
    <nd ref="44979972"/>
    <nd ref="44981008"/>
    <nd ref="44980081"/>
    <tag k="highway" v="residential"/>
    <tag k="lit" v="yes"/>
    <tag k="maxspeed" v="20 mph"/>
    <tag k="name" v="Whitson Grove"/>
    <tag k="oneway" v="yes"/>
    <tag k="source" v="Bing;survey"/>
  </way>
  <way id="5776837" version="6" timestamp="2017-08-17T21:30:52Z" changeset="51216902" uid="91225" user="tms13">
    <nd ref="44980703"/>
    <nd ref="3737488591"/>
    <nd ref="3737488588"/>
    <nd ref="3737488587"/>
    <nd ref="3737488585"/>
    <nd ref="44980871"/>
    <nd ref="3737488582"/>
    <nd ref="44980872"/>
    <nd ref="3737488579"/>
    <nd ref="3737488578"/>
    <nd ref="44980875"/>
    <nd ref="3737488581"/>
    <nd ref="44980878"/>
    <tag k="highway" v="residential"/>
    <tag k="lit" v="yes"/>
    <tag k="maxspeed" v="20 mph"/>
    <tag k="name" v="Whitson Walk"/>
    <tag k="source" v="Bing;survey"/>
  </way>
  <way id="5776844" version="6" timestamp="2017-08-17T21:30:52Z" changeset="51216902" uid="91225" user="tms13">
    <nd ref="44980878"/>
    <nd ref="44981008"/>
    <tag k="highway" v="residential"/>
    <tag k="lit" v="yes"/>
    <tag k="maxspeed" v="20 mph"/>
    <tag k="name" v="Whitson Grove"/>
    <tag k="source" v="Bing;survey"/>
  </way>
  <way id="5776869" version="6" timestamp="2019-04-19T14:13:53Z" changeset="69377564" uid="3432400" user="GinaroZ">
    <nd ref="44981528"/>
    <nd ref="44981679"/>
    <nd ref="6416316361"/>
    <nd ref="44981680"/>
    <tag k="highway" v="residential"/>
    <tag k="lit" v="yes"/>
    <tag k="maxspeed" v="20 mph"/>
    <tag k="name" v="Stenhouse Avenue West"/>
    <tag k="source" v="yahoo tracing"/>
  </way>
  <way id="5776913" version="12" timestamp="2024-08-27T16:46:49Z" changeset="155841699" uid="21762849" user="jSeke">
    <nd ref="44987476"/>
    <nd ref="3736285732"/>
    <nd ref="44986340"/>
    <nd ref="3736285791"/>
    <nd ref="3736285917"/>
    <nd ref="703289"/>
    <tag k="highway" v="residential"/>
    <tag k="lit" v="yes"/>
    <tag k="maxspeed" v="20 mph"/>
    <tag k="name" v="Stenhouse Avenue"/>
    <tag k="name:gd" v="Craobhraid Stenhouse"/>
    <tag k="source" v="Bing;survey"/>
  </way>
  <way id="5776963" version="10" timestamp="2024-08-27T16:46:49Z" changeset="155841699" uid="21762849" user="jSeke">
    <nd ref="44982832"/>
    <nd ref="2537159003"/>
    <nd ref="44983799"/>
    <nd ref="2537158968"/>
    <nd ref="2537159010"/>
    <nd ref="44983800"/>
    <nd ref="2537159019"/>
    <nd ref="2537158971"/>
    <nd ref="44983803"/>
    <nd ref="2537158991"/>
    <nd ref="2537158973"/>
    <nd ref="44983805"/>
    <nd ref="2537159005"/>
    <nd ref="44983806"/>
    <nd ref="3737488565"/>
    <nd ref="2537158986"/>
    <nd ref="3737488554"/>
    <nd ref="2537158996"/>
    <nd ref="44983809"/>
    <nd ref="2537158994"/>
    <nd ref="44983811"/>
    <nd ref="2537159006"/>
    <nd ref="44983813"/>
    <nd ref="2537158987"/>
    <nd ref="44983814"/>
    <nd ref="2537158976"/>
    <nd ref="44983815"/>
    <nd ref="703263"/>
    <nd ref="2537159016"/>
    <nd ref="44984132"/>
    <nd ref="2537158999"/>
    <nd ref="2537159017"/>
    <nd ref="44984133"/>
    <nd ref="2537158966"/>
    <nd ref="4363185436"/>
    <nd ref="44984135"/>
    <nd ref="2537159002"/>
    <nd ref="44984139"/>
    <nd ref="2537158970"/>
    <nd ref="2537159013"/>
    <nd ref="2537159011"/>
    <nd ref="2537158974"/>
    <nd ref="2537158989"/>
    <nd ref="44984141"/>
    <nd ref="2537158981"/>
    <nd ref="2537158982"/>
    <nd ref="44984143"/>
    <nd ref="2537158984"/>
    <nd ref="2537158979"/>
    <nd ref="44984146"/>
    <nd ref="2537158977"/>
    <nd ref="44982832"/>
    <tag k="highway" v="residential"/>
    <tag k="lit" v="yes"/>
    <tag k="maxspeed" v="20 mph"/>
    <tag k="name" v="Stenhouse Grove"/>
    <tag k="name:gd" v="Doire Stenhouse"/>
    <tag k="source" v="Bing;survey"/>
  </way>
  <way id="5776970" version="7" timestamp="2024-08-27T16:46:49Z" changeset="155841699" uid="21762849" user="jSeke">
    <nd ref="44983806"/>
    <nd ref="44984508"/>
    <nd ref="44984512"/>
    <tag k="highway" v="residential"/>
    <tag k="lit" v="yes"/>
    <tag k="maxspeed" v="20 mph"/>
    <tag k="name" v="Stenhouse Street East"/>
    <tag k="name:gd" v="Sràid Stenhouse an Ear"/>
    <tag k="source" v="Bing;survey"/>
  </way>
  <way id="5776983" version="11" timestamp="2024-08-27T16:46:49Z" changeset="155841699" uid="21762849" user="jSeke">
    <nd ref="703264"/>
    <nd ref="2702638716"/>
    <nd ref="12038367682"/>
    <nd ref="44984887"/>
    <nd ref="44984889"/>
    <nd ref="2537164125"/>
    <nd ref="2537164123"/>
    <nd ref="2537164117"/>
    <nd ref="2537164121"/>
    <nd ref="44984891"/>
    <nd ref="703285"/>
    <tag k="highway" v="residential"/>
    <tag k="lit" v="yes"/>
    <tag k="maxspeed" v="20 mph"/>
    <tag k="name" v="Stenhouse Place East"/>
    <tag k="name:gd" v="Ceàrn Stenhouse an Ear"/>
    <tag k="source" v="Bing;survey"/>
  </way>
  <way id="5777004" version="14" timestamp="2024-08-27T16:46:49Z" changeset="155841699" uid="21762849" user="jSeke">
    <nd ref="703271"/>
    <nd ref="12038353664"/>
    <nd ref="4362640362"/>
    <nd ref="3644946024"/>
    <nd ref="44985818"/>
    <nd ref="44985821"/>
    <nd ref="44985824"/>
    <nd ref="3644946023"/>
    <nd ref="3644946025"/>
    <nd ref="44985827"/>
    <nd ref="44985829"/>
    <nd ref="6491362794"/>
    <nd ref="44985855"/>
    <tag k="highway" v="tertiary"/>
    <tag k="lanes" v="2"/>
    <tag k="lit" v="yes"/>
    <tag k="maxspeed" v="20 mph"/>
    <tag k="name" v="Stenhouse Drive"/>
    <tag k="name:gd" v="Dràibh Stenhouse"/>
    <tag k="sidewalk" v="both"/>
    <tag k="source" v="Bing;survey"/>
    <tag k="surface" v="asphalt"/>
  </way>
  <way id="5777016" version="6" timestamp="2024-08-27T16:46:49Z" changeset="155841699" uid="21762849" user="jSeke">
    <nd ref="44985821"/>
    <nd ref="3737488372"/>
    <nd ref="44986328"/>
    <nd ref="3737488425"/>
    <nd ref="44986329"/>
    <nd ref="44986335"/>
    <nd ref="44986336"/>
    <nd ref="3737488472"/>
    <nd ref="44986338"/>
    <nd ref="44986340"/>
    <tag k="highway" v="residential"/>
    <tag k="lit" v="yes"/>
    <tag k="maxspeed" v="20 mph"/>
    <tag k="name" v="Stenhouse Terrace"/>
    <tag k="name:gd" v="Barraid Stenhouse"/>
    <tag k="source" v="Bing;survey"/>
  </way>
  <way id="5777048" version="15" timestamp="2024-08-27T16:46:49Z" changeset="155841699" uid="21762849" user="jSeke">
    <nd ref="2537159011"/>
    <nd ref="3737488475"/>
    <nd ref="3637697491"/>
    <nd ref="3637698293"/>
    <nd ref="3637697492"/>
    <nd ref="44988281"/>
    <nd ref="3637690241"/>
    <nd ref="3637690240"/>
    <nd ref="4364568158"/>
    <nd ref="44988284"/>
    <nd ref="3637690239"/>
    <nd ref="845864533"/>
    <tag k="highway" v="residential"/>
    <tag k="lanes" v="2"/>
    <tag k="lit" v="yes"/>
    <tag k="maxspeed" v="20 mph"/>
    <tag k="name" v="Stenhouse Street West"/>
    <tag k="name:gd" v="Sràid Stenhouse an Iar"/>
    <tag k="sidewalk" v="both"/>
    <tag k="source" v="Bing;survey"/>
    <tag k="surface" v="asphalt"/>
  </way>
  <way id="5777083" version="10" timestamp="2024-08-27T16:46:49Z" changeset="155841699" uid="21762849" user="jSeke">
    <nd ref="703264"/>
    <nd ref="44990258"/>
    <nd ref="3736285553"/>
    <nd ref="44990262"/>
    <nd ref="3736285545"/>
    <nd ref="2549606773"/>
    <nd ref="44990265"/>
    <nd ref="3736285538"/>
    <nd ref="2549606769"/>
    <nd ref="44990266"/>
    <nd ref="3736285211"/>
    <nd ref="44990268"/>
    <nd ref="3736285180"/>
    <nd ref="4362640325"/>
    <nd ref="3736285177"/>
    <nd ref="3736285176"/>
    <nd ref="3736285175"/>
    <nd ref="44991409"/>
    <tag k="highway" v="residential"/>
    <tag k="lit" v="yes"/>
    <tag k="maxspeed" v="20 mph"/>
    <tag k="name" v="Stenhouse Place West"/>
    <tag k="name:gd" v="Ceàrn Stenhouse an Iar"/>
    <tag k="source" v="yahoo tracing"/>
  </way>
  <way id="5777093" version="8" timestamp="2024-08-27T16:46:49Z" changeset="155841699" uid="21762849" user="jSeke">
    <nd ref="44988281"/>
    <nd ref="1819954674"/>
    <nd ref="1819954708"/>
    <nd ref="3737488313"/>
    <nd ref="44991225"/>
    <nd ref="3737488208"/>
    <nd ref="3737488154"/>
    <nd ref="3737488121"/>
    <nd ref="44991402"/>
    <tag k="highway" v="residential"/>
    <tag k="lit" v="yes"/>
    <tag k="maxspeed" v="20 mph"/>
    <tag k="name" v="Stenhouse Gardens"/>
    <tag k="name:gd" v="Gàrradh Stenhouse"/>
    <tag k="source" v="Bing;survey"/>
  </way>
  <way id="5777097" version="9" timestamp="2024-08-27T16:46:49Z" changeset="155841699" uid="21762849" user="jSeke">
    <nd ref="44991259"/>
    <nd ref="44991402"/>
    <nd ref="3637678053"/>
    <nd ref="3637678055"/>
    <nd ref="44991405"/>
    <nd ref="3637678054"/>
    <nd ref="44991408"/>
    <nd ref="44991409"/>
    <nd ref="44991412"/>
    <nd ref="44985827"/>
    <nd ref="44987615"/>
    <nd ref="3736285178"/>
    <nd ref="3634010076"/>
    <nd ref="3736285179"/>
    <nd ref="3736285181"/>
    <nd ref="44987613"/>
    <nd ref="3634010072"/>
    <nd ref="3736285194"/>
    <nd ref="44987611"/>
    <nd ref="3634010074"/>
    <nd ref="3736285537"/>
    <nd ref="3634010075"/>
    <nd ref="3736285546"/>
    <nd ref="3736285555"/>
    <nd ref="3634010073"/>
    <nd ref="44987608"/>
    <nd ref="44987476"/>
    <tag k="highway" v="residential"/>
    <tag k="maxspeed" v="20 mph"/>
    <tag k="name" v="Stenhouse Crescent"/>
    <tag k="name:gd" v="Corran Stenhouse"/>
    <tag k="source" v="yahoo tracing"/>
  </way>
  <way id="5777109" version="8" timestamp="2024-08-27T16:46:49Z" changeset="155841699" uid="21762849" user="jSeke">
    <nd ref="44992068"/>
    <nd ref="4022240836"/>
    <nd ref="44991405"/>
    <tag k="highway" v="residential"/>
    <tag k="lit" v="yes"/>
    <tag k="maxspeed" v="20 mph"/>
    <tag k="name" v="Stenhouse Cottages"/>
    <tag k="name:gd" v="Cotaichean Stenhouse"/>
    <tag k="source" v="Bing;survey"/>
    <tag k="surface" v="asphalt"/>
  </way>
  <way id="5777153" version="10" timestamp="2020-07-25T08:50:12Z" changeset="88489585" uid="388774" user="drnoble">
    <nd ref="26945215"/>
    <nd ref="7746304877"/>
    <nd ref="7746304890"/>
    <nd ref="44995068"/>
    <nd ref="2538450006"/>
    <nd ref="2538450041"/>
    <nd ref="44994716"/>
    <nd ref="7728625214"/>
    <nd ref="44994975"/>
    <nd ref="7728625219"/>
    <nd ref="44994590"/>
    <tag k="highway" v="residential"/>
    <tag k="lanes" v="2"/>
    <tag k="lit" v="yes"/>
    <tag k="maxspeed" v="20 mph"/>
    <tag k="name" v="Saughton Mains Terrace"/>
    <tag k="sidewalk" v="both"/>
    <tag k="source" v="yahoo tracing"/>
    <tag k="surface" v="asphalt"/>
  </way>
  <way id="5777164" version="6" timestamp="2020-07-25T08:50:12Z" changeset="88489585" uid="388774" user="drnoble">
    <nd ref="44994716"/>
    <nd ref="2538450012"/>
    <nd ref="44994803"/>
    <tag k="highway" v="residential"/>
    <tag k="lanes" v="2"/>
    <tag k="lit" v="yes"/>
    <tag k="maxspeed" v="20 mph"/>
    <tag k="name" v="Saughton Mains Terrace"/>
    <tag k="sidewalk" v="both"/>
    <tag k="source" v="yahoo tracing"/>
    <tag k="surface" v="asphalt"/>
  </way>
  <way id="5777168" version="6" timestamp="2020-07-25T08:50:12Z" changeset="88489585" uid="388774" user="drnoble">
    <nd ref="44994716"/>
    <nd ref="7746304863"/>
    <nd ref="44994954"/>
    <nd ref="7728625213"/>
    <tag k="highway" v="residential"/>
    <tag k="lanes" v="2"/>
    <tag k="lit" v="yes"/>
    <tag k="maxspeed" v="20 mph"/>
    <tag k="name" v="Saughton Mains Terrace"/>
    <tag k="sidewalk" v="both"/>
    <tag k="source" v="yahoo tracing"/>
    <tag k="surface" v="asphalt"/>
  </way>
  <way id="5777171" version="4" timestamp="2014-12-31T17:37:42Z" changeset="27827178" uid="42123" user="Ropino">
    <nd ref="44994975"/>
    <nd ref="44994999"/>
    <nd ref="44995001"/>
    <tag k="highway" v="residential"/>
    <tag k="lit" v="yes"/>
    <tag k="maxspeed" v="20 mph"/>
    <tag k="name" v="Saughton Mains Terrace"/>
    <tag k="source" v="yahoo tracing"/>
  </way>
  <way id="5777176" version="6" timestamp="2020-07-25T08:50:12Z" changeset="88489585" uid="388774" user="drnoble">
    <nd ref="44995068"/>
    <nd ref="4585197261"/>
    <nd ref="44995168"/>
    <tag k="highway" v="residential"/>
    <tag k="lanes" v="2"/>
    <tag k="lit" v="yes"/>
    <tag k="maxspeed" v="20 mph"/>
    <tag k="name" v="Dania Court"/>
    <tag k="sidewalk" v="left"/>
    <tag k="source" v="yahoo tracing"/>
    <tag k="surface" v="asphalt"/>
  </way>
  <way id="5777187" version="9" timestamp="2020-07-19T08:35:18Z" changeset="88194021" uid="388774" user="drnoble">
    <nd ref="44994541"/>
    <nd ref="3633219456"/>
    <nd ref="44996102"/>
    <nd ref="3633219448"/>
    <nd ref="3633219450"/>
    <nd ref="845864532"/>
    <nd ref="3633219453"/>
    <nd ref="3633219454"/>
    <nd ref="845864535"/>
    <nd ref="7684665436"/>
    <nd ref="44996106"/>
    <nd ref="3633219455"/>
    <nd ref="3633219451"/>
    <nd ref="44996109"/>
    <nd ref="3633219457"/>
    <nd ref="3633219452"/>
    <nd ref="3633219449"/>
    <nd ref="7728068085"/>
    <nd ref="44996110"/>
    <nd ref="4584359028"/>
    <nd ref="4584359027"/>
    <nd ref="4584359019"/>
    <nd ref="845864536"/>
    <tag k="highway" v="residential"/>
    <tag k="lanes" v="2"/>
    <tag k="lit" v="yes"/>
    <tag k="maxspeed" v="20 mph"/>
    <tag k="name" v="Saughton Mains Bank"/>
    <tag k="sidewalk" v="both"/>
    <tag k="source" v="yahoo tracing"/>
    <tag k="surface" v="asphalt"/>
  </way>
  <way id="5777194" version="9" timestamp="2017-01-01T21:03:45Z" changeset="44830579" uid="388774" user="drnoble">
    <nd ref="26945224"/>
    <nd ref="4584358829"/>
    <nd ref="2592151292"/>
    <nd ref="3639587802"/>
    <nd ref="26945225"/>
    <nd ref="26945226"/>
    <tag k="highway" v="residential"/>
    <tag k="lit" v="yes"/>
    <tag k="maxspeed" v="20 mph"/>
    <tag k="name" v="Saughton Mains Street"/>
  </way>
  <way id="5777240" version="6" timestamp="2020-07-19T08:35:18Z" changeset="88194021" uid="388774" user="drnoble">
    <nd ref="44996885"/>
    <nd ref="4584358819"/>
    <nd ref="4584358827"/>
    <nd ref="2505404725"/>
    <nd ref="4584358818"/>
    <nd ref="44997326"/>
    <tag k="highway" v="residential"/>
    <tag k="lanes" v="2"/>
    <tag k="lit" v="yes"/>
    <tag k="maxspeed" v="20 mph"/>
    <tag k="name" v="Saughton Mains Grove"/>
    <tag k="sidewalk" v="both"/>
    <tag k="source" v="yahoo tracing"/>
    <tag k="surface" v="asphalt"/>
  </way>
  <way id="5777241" version="8" timestamp="2020-07-25T09:40:09Z" changeset="88490576" uid="388774" user="drnoble">
    <nd ref="45003484"/>
    <nd ref="4584358807"/>
    <nd ref="4584358822"/>
    <nd ref="44996887"/>
    <nd ref="4584358821"/>
    <nd ref="4584358833"/>
    <nd ref="2505404724"/>
    <nd ref="4584358817"/>
    <nd ref="26945233"/>
    <tag k="highway" v="residential"/>
    <tag k="lanes" v="2"/>
    <tag k="lit" v="yes"/>
    <tag k="maxspeed" v="20 mph"/>
    <tag k="name" v="Saughton Mains Avenue"/>
    <tag k="sidewalk" v="both"/>
    <tag k="source" v="yahoo tracing"/>
    <tag k="surface" v="asphalt"/>
  </way>
  <way id="5777333" version="11" timestamp="2020-07-25T09:40:09Z" changeset="88490576" uid="388774" user="drnoble">
    <nd ref="45001981"/>
    <nd ref="4584358808"/>
    <nd ref="4584358836"/>
    <nd ref="4584358835"/>
    <nd ref="45001532"/>
    <nd ref="4584358824"/>
    <nd ref="45004144"/>
    <nd ref="3633356377"/>
    <nd ref="3633362641"/>
    <nd ref="45003484"/>
    <nd ref="4584358823"/>
    <nd ref="3633209963"/>
    <nd ref="3633209990"/>
    <nd ref="45003489"/>
    <nd ref="3633209964"/>
    <nd ref="45003491"/>
    <nd ref="3633209960"/>
    <nd ref="45003495"/>
    <nd ref="1819954702"/>
    <nd ref="1819954679"/>
    <nd ref="45003497"/>
    <nd ref="3633209991"/>
    <nd ref="1819954681"/>
    <nd ref="45003500"/>
    <nd ref="3633209942"/>
    <nd ref="45003501"/>
    <nd ref="45003502"/>
    <nd ref="3633209957"/>
    <nd ref="3633209954"/>
    <nd ref="4585197730"/>
    <nd ref="45003506"/>
    <nd ref="3633356384"/>
    <nd ref="45004462"/>
    <nd ref="4585197729"/>
    <nd ref="45003509"/>
    <nd ref="4585197728"/>
    <nd ref="4585197727"/>
    <nd ref="4585197707"/>
    <nd ref="45001976"/>
    <tag k="highway" v="residential"/>
    <tag k="lit" v="yes"/>
    <tag k="maxspeed" v="20 mph"/>
    <tag k="name" v="Saughton Mains Gardens"/>
    <tag k="source" v="yahoo tracing"/>
  </way>
  <way id="5777353" version="7" timestamp="2020-08-08T10:42:53Z" changeset="89123950" uid="388774" user="drnoble">
    <nd ref="45004144"/>
    <nd ref="4585197714"/>
    <nd ref="1819954709"/>
    <nd ref="7796450043"/>
    <nd ref="45004456"/>
    <nd ref="7796450042"/>
    <nd ref="45004459"/>
    <nd ref="7796450041"/>
    <nd ref="7796450040"/>
    <nd ref="1819954691"/>
    <nd ref="4585197713"/>
    <nd ref="45004462"/>
    <tag k="highway" v="residential"/>
    <tag k="lit" v="yes"/>
    <tag k="maxspeed" v="20 mph"/>
    <tag k="name" v="Saughton Mains Gardens"/>
    <tag k="source" v="yahoo tracing"/>
  </way>
  <way id="5777358" version="5" timestamp="2017-01-02T11:08:38Z" changeset="44842576" uid="388774" user="drnoble">
    <nd ref="45003506"/>
    <nd ref="4585197705"/>
    <nd ref="4585197717"/>
    <nd ref="4585197706"/>
    <nd ref="44994531"/>
    <tag k="highway" v="residential"/>
    <tag k="lit" v="yes"/>
    <tag k="maxspeed" v="20 mph"/>
    <tag k="name" v="Saughton Mains Avenue"/>
    <tag k="source" v="yahoo tracing"/>
  </way>
  <way id="5777373" version="8" timestamp="2020-10-12T18:06:43Z" changeset="92369542" uid="388774" user="drnoble">
    <nd ref="45003509"/>
    <nd ref="4585197711"/>
    <nd ref="4585197726"/>
    <nd ref="4585197710"/>
    <nd ref="44994528"/>
    <tag k="highway" v="residential"/>
    <tag k="lit" v="yes"/>
    <tag k="maxspeed" v="20 mph"/>
    <tag k="name" v="Saughton Mains Place"/>
    <tag k="source" v="yahoo tracing"/>
  </way>
  <way id="5777408" version="12" timestamp="2020-10-12T18:06:43Z" changeset="92369542" uid="388774" user="drnoble">
    <nd ref="45005242"/>
    <nd ref="2538460522"/>
    <nd ref="2538460447"/>
    <nd ref="45005868"/>
    <nd ref="2538489091"/>
    <nd ref="45006028"/>
    <nd ref="2395280354"/>
    <nd ref="8000918682"/>
    <nd ref="45005870"/>
    <tag k="highway" v="residential"/>
    <tag k="maxspeed" v="20 mph"/>
    <tag k="name" v="Saughton Mains Park"/>
    <tag k="source" v="yahoo tracing"/>
  </way>
  <way id="5777452" version="7" timestamp="2020-07-19T08:35:18Z" changeset="88194021" uid="388774" user="drnoble">
    <nd ref="641787"/>
    <nd ref="4584358810"/>
    <nd ref="4584358811"/>
    <nd ref="26945271"/>
    <tag k="highway" v="residential"/>
    <tag k="lanes" v="2"/>
    <tag k="lit" v="yes"/>
    <tag k="maxspeed" v="20 mph"/>
    <tag k="name" v="Saughton Road"/>
    <tag k="sidewalk" v="both"/>
    <tag k="source" v="yahoo tracing"/>
    <tag k="surface" v="asphalt"/>
  </way>
  <way id="5777475" version="9" timestamp="2017-05-16T21:56:11Z" changeset="48746982" uid="124271" user="Mao-PU">
    <nd ref="783575142"/>
    <nd ref="1254172101"/>
    <nd ref="1254172108"/>
    <nd ref="2405824147"/>
    <nd ref="2405824145"/>
    <nd ref="1254172045"/>
    <nd ref="2405824146"/>
    <nd ref="602613"/>
    <tag k="highway" v="tertiary"/>
    <tag k="lit" v="yes"/>
    <tag k="maxspeed" v="30 mph"/>
    <tag k="name" v="Saughton Road"/>
    <tag k="oneway" v="yes"/>
    <tag k="source" v="yahoo tracing"/>
    <tag k="surface" v="asphalt"/>
  </way>
  <way id="23126671" version="11" timestamp="2024-08-27T16:46:49Z" changeset="155841699" uid="21762849" user="jSeke">
    <nd ref="249698515"/>
    <nd ref="249698516"/>
    <tag k="bridge" v="yes"/>
    <tag k="highway" v="primary"/>
    <tag k="lanes" v="4"/>
    <tag k="layer" v="1"/>
    <tag k="lit" v="yes"/>
    <tag k="maxspeed" v="30 mph"/>
    <tag k="maxweight:signed" v="no"/>
    <tag k="name" v="Gorgie Road"/>
    <tag k="name:gd" v="Rathad Ghorgain"/>
    <tag k="ref" v="A71"/>
    <tag k="sidewalk" v="both"/>
    <tag k="source" v="Bing;survey"/>
    <tag k="surface" v="asphalt"/>
  </way>
  <way id="23126672" version="13" timestamp="2024-08-27T16:46:49Z" changeset="155841699" uid="21762849" user="jSeke">
    <nd ref="249698516"/>
    <nd ref="8247886393"/>
    <nd ref="8247886394"/>
    <nd ref="4911020623"/>
    <nd ref="249939755"/>
    <nd ref="3737488271"/>
    <nd ref="4055740948"/>
    <nd ref="13865631"/>
    <tag k="cycleway:both" v="no"/>
    <tag k="highway" v="primary"/>
    <tag k="lanes" v="4"/>
    <tag k="lit" v="yes"/>
    <tag k="maxspeed" v="30 mph"/>
    <tag k="name" v="Gorgie Road"/>
    <tag k="name:gd" v="Rathad Ghorgain"/>
    <tag k="ref" v="A71"/>
    <tag k="sidewalk" v="both"/>
    <tag k="surface" v="asphalt"/>
  </way>
  <way id="23142974" version="16" timestamp="2024-08-27T16:46:49Z" changeset="155841699" uid="21762849" user="jSeke">
    <nd ref="26945226"/>
    <nd ref="3639587797"/>
    <nd ref="26945227"/>
    <nd ref="3639582291"/>
    <nd ref="26945228"/>
    <nd ref="4584358831"/>
    <nd ref="4584358832"/>
    <nd ref="44997326"/>
    <nd ref="3635940287"/>
    <nd ref="3635940285"/>
    <nd ref="26945233"/>
    <nd ref="26945234"/>
    <nd ref="26945235"/>
    <nd ref="3635940288"/>
    <nd ref="3635940283"/>
    <nd ref="26945236"/>
    <nd ref="45002616"/>
    <nd ref="4584358839"/>
    <nd ref="26945237"/>
    <nd ref="26945238"/>
    <nd ref="3635928637"/>
    <nd ref="26945239"/>
    <nd ref="26945240"/>
    <nd ref="1254207344"/>
    <nd ref="4584358840"/>
    <nd ref="26945242"/>
    <nd ref="2405882336"/>
    <nd ref="1254207334"/>
    <nd ref="26945243"/>
    <nd ref="26945245"/>
    <nd ref="3635936469"/>
    <nd ref="2405882339"/>
    <nd ref="2405882338"/>
    <nd ref="26945247"/>
    <nd ref="26945249"/>
    <tag k="highway" v="residential"/>
    <tag k="lanes" v="2"/>
    <tag k="lit" v="yes"/>
    <tag k="maxspeed" v="20 mph"/>
    <tag k="name" v="Calder Road"/>
    <tag k="name:gd" v="Rathad Chaladair"/>
    <tag k="sidewalk" v="right"/>
    <tag k="surface" v="asphalt"/>
  </way>
  <way id="23681872" version="10" timestamp="2024-08-24T14:17:10Z" changeset="155699039" uid="16721418" user="SmithyScotland">
    <nd ref="606230"/>
    <nd ref="256436365"/>
    <tag k="bridge" v="yes"/>
    <tag k="highway" v="tertiary"/>
    <tag k="lanes" v="3"/>
    <tag k="lanes:backward" v="1"/>
    <tag k="lanes:forward" v="2"/>
    <tag k="lanes:psv:forward" v="1"/>
    <tag k="layer" v="2"/>
    <tag k="lit" v="yes"/>
    <tag k="maxspeed" v="20 mph"/>
    <tag k="maxweight:signed" v="no"/>
    <tag k="name" v="Balgreen Road"/>
    <tag k="surface" v="asphalt"/>
  </way>
  <way id="23681873" version="7" timestamp="2022-06-23T10:49:34Z" changeset="122753239" uid="4672757" user="The Smith">
    <nd ref="256436365"/>
    <nd ref="2375490246"/>
    <nd ref="2375490248"/>
    <nd ref="2375490249"/>
    <nd ref="13865642"/>
    <tag k="highway" v="tertiary"/>
    <tag k="lit" v="yes"/>
    <tag k="maxspeed" v="20 mph"/>
    <tag k="name" v="Balgreen Road"/>
    <tag k="surface" v="asphalt"/>
  </way>
  <way id="23840850" version="22" timestamp="2024-01-13T18:28:05Z" changeset="146223298" uid="165" user="Richard">
    <nd ref="29525901"/>
    <nd ref="265806758"/>
    <nd ref="3736285809"/>
    <nd ref="2449562229"/>
    <nd ref="3736285818"/>
    <nd ref="2338493425"/>
    <nd ref="3736285839"/>
    <nd ref="29525928"/>
    <nd ref="3736285851"/>
    <nd ref="2449562228"/>
    <nd ref="3736285859"/>
    <nd ref="2449562226"/>
    <nd ref="3736285868"/>
    <nd ref="9335150366"/>
    <nd ref="9335218720"/>
    <tag k="highway" v="residential"/>
    <tag k="maxspeed" v="20 mph"/>
    <tag k="maxspeed:type" v="GB:zone20"/>
    <tag k="name" v="Ford's Road"/>
    <tag k="source" v="Bing;survey"/>
  </way>
  <way id="23840974" version="12" timestamp="2020-07-19T08:35:18Z" changeset="88194021" uid="388774" user="drnoble">
    <nd ref="26945224"/>
    <nd ref="4584358830"/>
    <nd ref="2592148043"/>
    <nd ref="1819954694"/>
    <nd ref="44996885"/>
    <nd ref="4584358828"/>
    <nd ref="4584358826"/>
    <nd ref="44996887"/>
    <nd ref="4584358825"/>
    <nd ref="278078483"/>
    <nd ref="4584358838"/>
    <nd ref="26945262"/>
    <nd ref="4584358834"/>
    <nd ref="3639587800"/>
    <nd ref="3639587801"/>
    <nd ref="4584358837"/>
    <nd ref="4584358812"/>
    <nd ref="26945269"/>
    <tag k="highway" v="residential"/>
    <tag k="lanes" v="2"/>
    <tag k="lit" v="yes"/>
    <tag k="maxspeed" v="20 mph"/>
    <tag k="name" v="Saughton Mains Drive"/>
    <tag k="sidewalk" v="both"/>
    <tag k="surface" v="asphalt"/>
  </way>
  <way id="25517841" version="5" timestamp="2020-07-19T08:35:18Z" changeset="88194021" uid="388774" user="drnoble">
    <nd ref="278078483"/>
    <nd ref="4584358820"/>
    <nd ref="278078484"/>
    <tag k="highway" v="residential"/>
    <tag k="lanes" v="2"/>
    <tag k="lit" v="yes"/>
    <tag k="maxspeed" v="20 mph"/>
    <tag k="name" v="Saughton Mains Drive"/>
    <tag k="sidewalk" v="both"/>
    <tag k="surface" v="asphalt"/>
  </way>
  <way id="30839831" version="11" timestamp="2017-05-16T21:55:55Z" changeset="48746982" uid="124271" user="Mao-PU">
    <nd ref="602455"/>
    <nd ref="1254172049"/>
    <nd ref="3637503201"/>
    <nd ref="2405824136"/>
    <nd ref="1030274462"/>
    <nd ref="2405824158"/>
    <nd ref="1254172062"/>
    <nd ref="2405824156"/>
    <nd ref="31822849"/>
    <tag k="foot" v="no"/>
    <tag k="highway" v="primary"/>
    <tag k="junction" v="roundabout"/>
    <tag k="lit" v="yes"/>
    <tag k="maxspeed" v="40 mph"/>
    <tag k="oneway" v="yes"/>
    <tag k="ref" v="A71"/>
    <tag k="surface" v="asphalt"/>
  </way>
  <way id="31298310" version="7" timestamp="2021-12-13T12:57:32Z" changeset="114883053" uid="69853" user="Central America">
    <nd ref="348216668"/>
    <nd ref="9334438618"/>
    <nd ref="348216669"/>
    <nd ref="9334438644"/>
    <nd ref="9334438643"/>
    <nd ref="9334437600"/>
    <nd ref="9334437587"/>
    <nd ref="348216670"/>
    <nd ref="3644874414"/>
    <nd ref="3644874418"/>
    <nd ref="348216671"/>
    <nd ref="3644874403"/>
    <nd ref="348216668"/>
    <tag k="building" v="greenhouse"/>
    <tag k="name" v="Saughton Winter Garden"/>
  </way>
  <way id="42308416" version="7" timestamp="2021-01-30T12:33:21Z" changeset="98412520" uid="53626" user="jambamkin">
    <nd ref="527963495"/>
    <nd ref="4910786065"/>
    <nd ref="527963498"/>
    <nd ref="3492897646"/>
    <nd ref="4367659188"/>
    <nd ref="3492897645"/>
    <nd ref="527963507"/>
    <nd ref="4910786073"/>
    <nd ref="527963509"/>
    <nd ref="3492897636"/>
    <nd ref="3492897634"/>
    <nd ref="3492897637"/>
    <nd ref="3492897639"/>
    <nd ref="527963495"/>
    <tag k="building" v="office"/>
    <tag k="building:levels" v="7"/>
    <tag k="name" v="Riverside House"/>
    <tag k="source" v="Bing;survey"/>
  </way>
  <way id="42486011" version="20" timestamp="2024-08-03T10:45:18Z" changeset="154767116" uid="21143475" user="Htf4">
    <nd ref="4366403195"/>
    <nd ref="3778385514"/>
    <nd ref="3736285526"/>
    <nd ref="44987009"/>
    <nd ref="3736285560"/>
    <nd ref="3736285579"/>
    <nd ref="44987008"/>
    <nd ref="3736285594"/>
    <nd ref="3736285601"/>
    <nd ref="3736285606"/>
    <nd ref="3736285614"/>
    <nd ref="3634029884"/>
    <nd ref="2405788060"/>
    <tag k="highway" v="residential"/>
    <tag k="lit" v="yes"/>
    <tag k="maxspeed" v="20 mph"/>
    <tag k="name" v="Ford's Road"/>
    <tag k="sidewalk" v="right"/>
    <tag k="source" v="Bing;survey"/>
    <tag k="surface" v="asphalt"/>
  </way>
  <way id="70983404" version="12" timestamp="2024-08-27T16:46:49Z" changeset="155841699" uid="21762849" user="jSeke">
    <nd ref="26945217"/>
    <nd ref="2592152216"/>
    <nd ref="2592152217"/>
    <nd ref="44994542"/>
    <nd ref="2592152221"/>
    <nd ref="2592152219"/>
    <nd ref="44994541"/>
    <nd ref="2592152215"/>
    <nd ref="2592152220"/>
    <nd ref="44994540"/>
    <nd ref="4585197718"/>
    <nd ref="1819954683"/>
    <nd ref="7728068053"/>
    <nd ref="44994539"/>
    <nd ref="7728068052"/>
    <nd ref="1819954692"/>
    <nd ref="4585197719"/>
    <nd ref="44994537"/>
    <nd ref="1819537860"/>
    <nd ref="44994531"/>
    <nd ref="4585197720"/>
    <nd ref="44995549"/>
    <nd ref="4585197721"/>
    <nd ref="2538423327"/>
    <nd ref="2538423317"/>
    <nd ref="4585197722"/>
    <nd ref="2538460512"/>
    <nd ref="44994528"/>
    <nd ref="44995364"/>
    <nd ref="2538423325"/>
    <nd ref="4585197725"/>
    <nd ref="2538423330"/>
    <nd ref="45001974"/>
    <nd ref="4585197709"/>
    <nd ref="44994502"/>
    <tag k="highway" v="residential"/>
    <tag k="lanes" v="2"/>
    <tag k="lit" v="yes"/>
    <tag k="maxspeed" v="20 mph"/>
    <tag k="name" v="Stenhouse Street West"/>
    <tag k="name:gd" v="Sràid Stenhouse an Iar"/>
    <tag k="sidewalk" v="both"/>
    <tag k="source" v="yahoo tracing"/>
    <tag k="surface" v="asphalt"/>
  </way>
  <way id="70983408" version="4" timestamp="2020-07-19T08:35:18Z" changeset="88194021" uid="388774" user="drnoble">
    <nd ref="845864528"/>
    <nd ref="7728068054"/>
    <nd ref="845864532"/>
    <tag k="highway" v="residential"/>
    <tag k="lit" v="yes"/>
    <tag k="maxspeed" v="20 mph"/>
    <tag k="name" v="Pollard Glebe"/>
    <tag k="source" v="OS_OpenData_StreetView"/>
  </way>
  <way id="70983409" version="5" timestamp="2020-07-19T08:35:18Z" changeset="88194021" uid="388774" user="drnoble">
    <nd ref="3633209967"/>
    <nd ref="3633209941"/>
    <nd ref="845864531"/>
    <nd ref="845864535"/>
    <tag k="highway" v="residential"/>
    <tag k="lanes" v="2"/>
    <tag k="lit" v="yes"/>
    <tag k="maxspeed" v="20 mph"/>
    <tag k="name" v="Saughton Mains Bank"/>
    <tag k="sidewalk" v="both"/>
    <tag k="source" v="yahoo tracing"/>
    <tag k="surface" v="asphalt"/>
  </way>
  <way id="70983410" version="3" timestamp="2016-10-17T15:42:50Z" changeset="42962506" uid="91225" user="tms13">
    <nd ref="845864526"/>
    <nd ref="845864531"/>
    <tag k="highway" v="residential"/>
    <tag k="maxspeed" v="20 mph"/>
    <tag k="name" v="Saughton Mains Bank"/>
    <tag k="source" v="yahoo tracing"/>
  </way>
  <way id="70983411" version="4" timestamp="2020-07-05T10:08:52Z" changeset="87550926" uid="388774" user="drnoble">
    <nd ref="845864538"/>
    <nd ref="845864530"/>
    <nd ref="2570051557"/>
    <nd ref="2570051553"/>
    <nd ref="845864529"/>
    <nd ref="7684665445"/>
    <nd ref="2570051561"/>
    <nd ref="2570051563"/>
    <nd ref="2570051569"/>
    <nd ref="845864534"/>
    <nd ref="7684665446"/>
    <nd ref="2570051571"/>
    <nd ref="7684665454"/>
    <nd ref="2570051567"/>
    <nd ref="2570051565"/>
    <nd ref="845864538"/>
    <tag k="amenity" v="place_of_worship"/>
    <tag k="building" v="church"/>
    <tag k="building:levels" v="1"/>
    <tag k="denomination" v="episcopal"/>
    <tag k="name" v="St Salvador's Episcopal Church"/>
    <tag k="religion" v="christian"/>
    <tag k="source" v="OS_OpenData_StreetView"/>
    <tag k="website" v="http://stsalvadors.org.uk/"/>
  </way>
  <way id="97539447" version="3" timestamp="2021-12-09T16:15:32Z" changeset="114750744" uid="69853" user="Central America">
    <nd ref="1129305715"/>
    <nd ref="1129305698"/>
    <nd ref="1129305712"/>
    <nd ref="1129305707"/>
    <nd ref="1129305700"/>
    <nd ref="1129305703"/>
    <nd ref="1129305719"/>
    <nd ref="1129305699"/>
    <nd ref="1129305708"/>
    <nd ref="1129305710"/>
    <nd ref="1129305715"/>
    <tag k="building" v="yes"/>
    <tag k="name" v="Saughton Sports Complex"/>
    <tag k="source" v="Bing"/>
  </way>
  <way id="123560183" version="12" timestamp="2024-01-02T10:39:32Z" changeset="145792331" uid="20600508" user="Annie_11">
    <nd ref="783575147"/>
    <nd ref="783575130"/>
    <nd ref="1882573235"/>
    <tag k="cycleway:left" v="separate"/>
    <tag k="cycleway:right" v="no"/>
    <tag k="highway" v="tertiary"/>
    <tag k="lanes" v="2"/>
    <tag k="lit" v="yes"/>
    <tag k="maxheight" v="4.2"/>
    <tag k="maxspeed" v="20 mph"/>
    <tag k="name" v="Balgreen Road"/>
    <tag k="oneway" v="no"/>
    <tag k="sidewalk" v="no"/>
    <tag k="surface" v="asphalt"/>
  </way>
  <way id="157072332" version="3" timestamp="2016-08-24T11:06:04Z" changeset="41660361" uid="2234934" user="sophiemccallum">
    <nd ref="1693091445"/>
    <nd ref="1693091448"/>
    <nd ref="4364568118"/>
    <nd ref="1693091454"/>
    <nd ref="1693091459"/>
    <nd ref="1693091445"/>
    <tag k="building" v="office"/>
    <tag k="name" v="287 Squadron, Air Training Corps"/>
    <tag k="source" v="Bing"/>
  </way>
  <way id="157687428" version="12" timestamp="2022-01-13T15:55:49Z" changeset="116112970" uid="3432400" user="GinaroZ">
    <nd ref="783575142"/>
    <nd ref="45008687"/>
    <nd ref="2605234848"/>
    <nd ref="641787"/>
    <nd ref="45012528"/>
    <nd ref="3804147082"/>
    <nd ref="1685961280"/>
    <nd ref="2405882655"/>
    <nd ref="3804147099"/>
    <nd ref="1699477465"/>
    <nd ref="2549629087"/>
    <nd ref="2405882656"/>
    <nd ref="3254973256"/>
    <nd ref="8660401793"/>
    <nd ref="1699477461"/>
    <nd ref="8660401794"/>
    <nd ref="45038107"/>
    <nd ref="44994502"/>
    <nd ref="1699477455"/>
    <nd ref="45063441"/>
    <nd ref="2549611622"/>
    <nd ref="9415811475"/>
    <nd ref="9415811474"/>
    <nd ref="641793"/>
    <tag k="highway" v="tertiary"/>
    <tag k="lanes" v="2"/>
    <tag k="lit" v="yes"/>
    <tag k="maxspeed" v="30 mph"/>
    <tag k="name" v="Saughton Road"/>
    <tag k="sidewalk" v="both"/>
    <tag k="surface" v="asphalt"/>
  </way>
  <way id="170815242" version="5" timestamp="2017-08-17T21:30:51Z" changeset="51216902" uid="91225" user="tms13">
    <nd ref="1819537851"/>
    <nd ref="1819537844"/>
    <tag k="highway" v="residential"/>
    <tag k="lit" v="yes"/>
    <tag k="maxspeed" v="20 mph"/>
    <tag k="name" v="Stenhouse Avenue West"/>
    <tag k="source" v="Bing;survey"/>
  </way>
  <way id="170858861" version="4" timestamp="2016-08-24T11:06:15Z" changeset="41660361" uid="2234934" user="sophiemccallum">
    <nd ref="1819954685"/>
    <nd ref="1819954680"/>
    <tag k="highway" v="residential"/>
    <tag k="lit" v="yes"/>
    <tag k="maxspeed" v="20 mph"/>
    <tag k="name" v="Saughton Mains Street"/>
  </way>
  <way id="170858865" version="5" timestamp="2024-08-27T16:46:49Z" changeset="155841699" uid="21762849" user="jSeke">
    <nd ref="1819954687"/>
    <nd ref="1819954674"/>
    <tag k="highway" v="residential"/>
    <tag k="lit" v="yes"/>
    <tag k="maxspeed" v="20 mph"/>
    <tag k="name" v="Stenhouse Gardens"/>
    <tag k="name:gd" v="Gàrradh Stenhouse"/>
    <tag k="source" v="Bing;survey"/>
  </way>
  <way id="171768913" version="13" timestamp="2022-06-23T10:49:34Z" changeset="122753239" uid="4672757" user="The Smith">
    <nd ref="606199"/>
    <nd ref="2467944933"/>
    <nd ref="783575148"/>
    <nd ref="606231"/>
    <nd ref="2154420136"/>
    <tag k="highway" v="tertiary"/>
    <tag k="lanes" v="3"/>
    <tag k="lanes:backward" v="2"/>
    <tag k="lanes:forward" v="1"/>
    <tag k="lit" v="yes"/>
    <tag k="maxspeed" v="20 mph"/>
    <tag k="maxspeed:variable" v="school_zone"/>
    <tag k="name" v="Balgreen Road"/>
    <tag k="surface" v="asphalt"/>
    <tag k="turn:lanes:backward" v="left|through"/>
  </way>
  <way id="205475726" version="14" timestamp="2024-08-23T14:39:23Z" changeset="155656867" uid="21143475" user="Htf4">
    <nd ref="1278278405"/>
    <nd ref="9331965513"/>
    <nd ref="2449562223"/>
    <nd ref="4910688458"/>
    <nd ref="4910688455"/>
    <nd ref="4910688457"/>
    <nd ref="4910688456"/>
    <nd ref="4910688385"/>
    <nd ref="4910786102"/>
    <nd ref="4910786101"/>
    <nd ref="4910786103"/>
    <nd ref="81435224"/>
    <nd ref="4910786100"/>
    <nd ref="4910786099"/>
    <nd ref="4910786098"/>
    <nd ref="3964944757"/>
    <nd ref="81435225"/>
    <nd ref="2301964025"/>
    <tag k="highway" v="residential"/>
    <tag k="maxspeed" v="20 mph"/>
    <tag k="name" v="Ford's Road"/>
    <tag k="sidewalk" v="left"/>
    <tag k="surface" v="asphalt"/>
  </way>
  <way id="221138026" version="10" timestamp="2024-01-31T09:54:33Z" changeset="146896688" uid="8556201" user="LonMcGregor">
    <nd ref="2301965389"/>
    <nd ref="7839241478"/>
    <nd ref="9053006056"/>
    <nd ref="2301965387"/>
    <nd ref="2301965392"/>
    <nd ref="7839241479"/>
    <nd ref="2301965386"/>
    <nd ref="2301965391"/>
    <nd ref="2301965388"/>
    <tag k="cycleway" v="lane"/>
    <tag k="highway" v="tertiary"/>
    <tag k="lit" v="yes"/>
    <tag k="maxspeed" v="30 mph"/>
    <tag k="name" v="Balgreen Road"/>
    <tag k="oneway" v="yes"/>
    <tag k="sidewalk:left" v="yes"/>
    <tag k="sidewalk:right" v="separate"/>
    <tag k="surface" v="asphalt"/>
  </way>
  <way id="231122239" version="5" timestamp="2014-12-31T17:37:43Z" changeset="27827178" uid="42123" user="Ropino">
    <nd ref="1819554010"/>
    <nd ref="258348659"/>
    <nd ref="2538489090"/>
    <nd ref="2395276316"/>
    <nd ref="45005242"/>
    <nd ref="2538460509"/>
    <nd ref="1819554041"/>
    <nd ref="45001974"/>
    <tag k="highway" v="residential"/>
    <tag k="lit" v="yes"/>
    <tag k="maxspeed" v="20 mph"/>
    <tag k="name" v="Saughton Road"/>
    <tag k="source" v="yahoo tracing"/>
  </way>
  <way id="232215635" version="6" timestamp="2020-07-19T08:35:18Z" changeset="88194021" uid="388774" user="drnoble">
    <nd ref="26945272"/>
    <nd ref="4584358809"/>
    <nd ref="3637433061"/>
    <nd ref="783575157"/>
    <nd ref="3637433057"/>
    <nd ref="783575104"/>
    <nd ref="3637433062"/>
    <nd ref="3637433058"/>
    <nd ref="3637433060"/>
    <nd ref="783575125"/>
    <nd ref="3637433056"/>
    <nd ref="3637433055"/>
    <nd ref="3637433059"/>
    <nd ref="4584358815"/>
    <nd ref="26945259"/>
    <tag k="highway" v="residential"/>
    <tag k="lanes" v="2"/>
    <tag k="lit" v="yes"/>
    <tag k="maxspeed" v="20 mph"/>
    <tag k="name" v="Saughton Mains Loan"/>
    <tag k="sidewalk" v="both"/>
    <tag k="source" v="OS_OpenData_StreetView;photo"/>
    <tag k="surface" v="asphalt"/>
  </way>
  <way id="233933116" version="9" timestamp="2024-08-03T10:45:10Z" changeset="154767613" uid="21143475" user="Htf4">
    <nd ref="44987476"/>
    <nd ref="3639587798"/>
    <nd ref="2422474925"/>
    <nd ref="3736285600"/>
    <nd ref="2422474930"/>
    <nd ref="3634030779"/>
    <nd ref="3736285598"/>
    <nd ref="3736285599"/>
    <nd ref="2422474926"/>
    <nd ref="3736285602"/>
    <nd ref="2422474927"/>
    <nd ref="3736285608"/>
    <nd ref="2422474924"/>
    <nd ref="3639587799"/>
    <nd ref="2405788060"/>
    <tag k="highway" v="residential"/>
    <tag k="maxspeed" v="20 mph"/>
    <tag k="name" v="Ford's Road"/>
    <tag k="sidewalk" v="both"/>
    <tag k="source" v="Bing;survey"/>
  </way>
  <way id="238986996" version="9" timestamp="2024-07-06T21:29:52Z" changeset="153640305" uid="3432400" user="GinaroZ">
    <nd ref="4719166202"/>
    <nd ref="703299"/>
    <nd ref="44978986"/>
    <nd ref="703297"/>
    <nd ref="4365117897"/>
    <nd ref="3737488604"/>
    <nd ref="7096299838"/>
    <nd ref="4365117878"/>
    <nd ref="3737488598"/>
    <nd ref="44978130"/>
    <nd ref="3737488586"/>
    <nd ref="1129305723"/>
    <nd ref="44979390"/>
    <nd ref="3737488576"/>
    <nd ref="3737488574"/>
    <nd ref="44980081"/>
    <nd ref="703292"/>
    <nd ref="1377453627"/>
    <nd ref="703291"/>
    <nd ref="3737488571"/>
    <nd ref="703289"/>
    <nd ref="703288"/>
    <nd ref="703287"/>
    <nd ref="703286"/>
    <nd ref="703285"/>
    <nd ref="703284"/>
    <nd ref="703283"/>
    <nd ref="12038353665"/>
    <nd ref="502093280"/>
    <tag k="highway" v="tertiary"/>
    <tag k="lit" v="yes"/>
    <tag k="maxspeed" v="30 mph"/>
    <tag k="name" v="Stevenson Drive"/>
    <tag k="source" v="Bing;survey"/>
    <tag k="surface" v="asphalt"/>
  </way>
  <way id="243106571" version="5" timestamp="2017-08-17T21:30:52Z" changeset="51216902" uid="91225" user="tms13">
    <nd ref="703289"/>
    <nd ref="3736285943"/>
    <nd ref="44984512"/>
    <nd ref="3736286052"/>
    <nd ref="2405788076"/>
    <nd ref="34006014"/>
    <tag k="highway" v="residential"/>
    <tag k="lit" v="yes"/>
    <tag k="maxspeed" v="20 mph"/>
    <tag k="name" v="Stenhouse Avenue"/>
    <tag k="source" v="Bing;survey"/>
  </way>
  <way id="243106572" version="5" timestamp="2022-06-23T10:49:34Z" changeset="122753239" uid="4672757" user="The Smith">
    <nd ref="1882573235"/>
    <nd ref="3897286845"/>
    <nd ref="3897286844"/>
    <nd ref="606232"/>
    <nd ref="34006020"/>
    <nd ref="606199"/>
    <tag k="highway" v="tertiary"/>
    <tag k="lanes" v="2"/>
    <tag k="lit" v="yes"/>
    <tag k="maxspeed" v="20 mph"/>
    <tag k="maxspeed:variable" v="school_zone"/>
    <tag k="name" v="Balgreen Road"/>
    <tag k="oneway" v="no"/>
    <tag k="sidewalk" v="both"/>
    <tag k="surface" v="asphalt"/>
  </way>
  <way id="246874515" version="8" timestamp="2021-04-23T21:04:43Z" changeset="103506043" uid="388774" user="drnoble">
    <nd ref="45001974"/>
    <nd ref="4585197708"/>
    <nd ref="3633210209"/>
    <nd ref="45001976"/>
    <nd ref="3254973266"/>
    <nd ref="45001981"/>
    <nd ref="3804147098"/>
    <nd ref="3639587794"/>
    <nd ref="45001983"/>
    <nd ref="26945269"/>
    <nd ref="3639587796"/>
    <nd ref="3639587793"/>
    <tag k="highway" v="residential"/>
    <tag k="lanes" v="2"/>
    <tag k="lit" v="yes"/>
    <tag k="maxspeed" v="20 mph"/>
    <tag k="name" v="Saughton Road"/>
    <tag k="sidewalk" v="right"/>
    <tag k="source" v="yahoo tracing"/>
    <tag k="surface" v="asphalt"/>
  </way>
  <way id="246877637" version="3" timestamp="2020-07-25T08:50:12Z" changeset="88489585" uid="388774" user="drnoble">
    <nd ref="7746254663"/>
    <nd ref="44994590"/>
    <nd ref="2538423333"/>
    <nd ref="7746254665"/>
    <nd ref="1819554025"/>
    <nd ref="44995328"/>
    <tag k="highway" v="residential"/>
    <tag k="lanes" v="2"/>
    <tag k="lit" v="yes"/>
    <tag k="maxspeed" v="20 mph"/>
    <tag k="name" v="Saughton Mains Terrace"/>
    <tag k="sidewalk" v="right"/>
    <tag k="source" v="yahoo tracing"/>
    <tag k="surface" v="asphalt"/>
  </way>
  <way id="250578973" version="10" timestamp="2024-08-27T16:46:49Z" changeset="155841699" uid="21762849" user="jSeke">
    <nd ref="44985855"/>
    <nd ref="3162617708"/>
    <nd ref="44987635"/>
    <nd ref="29525909"/>
    <nd ref="249698515"/>
    <tag k="highway" v="primary"/>
    <tag k="lanes" v="2"/>
    <tag k="lit" v="yes"/>
    <tag k="maxspeed" v="30 mph"/>
    <tag k="name" v="Gorgie Road"/>
    <tag k="name:gd" v="Rathad Ghorgain"/>
    <tag k="ref" v="A71"/>
    <tag k="sidewalk" v="both"/>
    <tag k="source" v="Bing;survey"/>
    <tag k="surface" v="asphalt"/>
  </way>
  <way id="250580416" version="3" timestamp="2016-08-23T11:13:03Z" changeset="41635418" uid="2234934" user="sophiemccallum">
    <nd ref="2570051546"/>
    <nd ref="2570051538"/>
    <nd ref="4362637245"/>
    <nd ref="2570051550"/>
    <nd ref="2570051559"/>
    <nd ref="2570051546"/>
    <tag k="addr:city" v="Edinburgh"/>
    <tag k="addr:postcode" v="EH11 3HH"/>
    <tag k="addr:street" v="Saughton Mains Street"/>
    <tag k="amenity" v="community_centre"/>
    <tag k="building" v="yes"/>
    <tag k="name" v="Carrickvale Community Centre"/>
    <tag k="operator" v="City of Edinburgh Council"/>
    <tag k="phone" v="+44 131 443 6971"/>
    <tag k="source" v="bing"/>
  </way>
  <way id="250633324" version="4" timestamp="2017-02-13T12:28:22Z" changeset="46045700" uid="2234934" user="sophiemccallum">
    <nd ref="2570365552"/>
    <nd ref="2570365613"/>
    <nd ref="2570365582"/>
    <nd ref="2570365528"/>
    <nd ref="4364568115"/>
    <nd ref="2570365552"/>
    <tag k="building" v="club_house"/>
    <tag k="name" v="Stenhouse Community Bowling Club Pavilion"/>
    <tag k="source" v="Bing"/>
  </way>
  <way id="265396669" version="7" timestamp="2022-05-14T21:28:22Z" changeset="120993624" uid="13165294" user="ThatEffingCat">
    <nd ref="2405788082"/>
    <nd ref="2397514083"/>
    <nd ref="2405788061"/>
    <nd ref="29525901"/>
    <tag k="highway" v="residential"/>
    <tag k="maxspeed" v="20 mph"/>
    <tag k="name" v="Ford's Road"/>
    <tag k="sidewalk" v="both"/>
    <tag k="smoothness" v="excellent"/>
    <tag k="source" v="Bing;survey"/>
    <tag k="surface" v="asphalt"/>
  </way>
  <way id="267303784" version="5" timestamp="2022-06-23T10:49:34Z" changeset="122753239" uid="4672757" user="The Smith">
    <nd ref="288419122"/>
    <nd ref="2467969307"/>
    <tag k="highway" v="tertiary"/>
    <tag k="lanes" v="3"/>
    <tag k="lanes:backward" v="1"/>
    <tag k="lanes:forward" v="2"/>
    <tag k="lanes:psv:forward" v="1"/>
    <tag k="lit" v="yes"/>
    <tag k="maxspeed" v="20 mph"/>
    <tag k="name" v="Balgreen Road"/>
    <tag k="surface" v="asphalt"/>
  </way>
  <way id="267303785" version="5" timestamp="2022-06-23T10:49:34Z" changeset="122753239" uid="4672757" user="The Smith">
    <nd ref="2467969307"/>
    <nd ref="606198"/>
    <nd ref="606230"/>
    <tag k="highway" v="tertiary"/>
    <tag k="lanes" v="3"/>
    <tag k="lanes:backward" v="1"/>
    <tag k="lanes:forward" v="2"/>
    <tag k="lanes:psv:forward" v="1"/>
    <tag k="lit" v="yes"/>
    <tag k="maxspeed" v="20 mph"/>
    <tag k="name" v="Balgreen Road"/>
    <tag k="surface" v="asphalt"/>
  </way>
  <way id="276094796" version="5" timestamp="2024-08-27T16:46:49Z" changeset="155841699" uid="21762849" user="jSeke">
    <nd ref="2807238041"/>
    <nd ref="4910879203"/>
    <nd ref="2807238042"/>
    <nd ref="4910879213"/>
    <nd ref="4910879205"/>
    <nd ref="4910879212"/>
    <nd ref="4910879211"/>
    <nd ref="4910879210"/>
    <nd ref="9292124110"/>
    <nd ref="4910879206"/>
    <nd ref="4910879207"/>
    <nd ref="4910879209"/>
    <nd ref="4910879193"/>
    <nd ref="4910879208"/>
    <tag k="highway" v="residential"/>
    <tag k="lanes" v="2"/>
    <tag k="lit" v="yes"/>
    <tag k="maxspeed" v="30 mph"/>
    <tag k="name" v="Gorgie Road"/>
    <tag k="name:gd" v="Rathad Ghorgain"/>
    <tag k="source" v="Bing"/>
  </way>
  <way id="276094797" version="5" timestamp="2024-08-27T16:46:49Z" changeset="155841699" uid="21762849" user="jSeke">
    <nd ref="703257"/>
    <nd ref="34006008"/>
    <nd ref="3737488570"/>
    <nd ref="2405828374"/>
    <nd ref="2393276696"/>
    <nd ref="2405790514"/>
    <nd ref="2405790513"/>
    <nd ref="1819537844"/>
    <nd ref="2405790516"/>
    <nd ref="34006009"/>
    <nd ref="3737488572"/>
    <nd ref="2393276698"/>
    <nd ref="3737488573"/>
    <nd ref="2393276701"/>
    <nd ref="3737488575"/>
    <nd ref="34006010"/>
    <nd ref="3737488577"/>
    <nd ref="2405790512"/>
    <nd ref="3737488580"/>
    <nd ref="2393276705"/>
    <nd ref="2393276700"/>
    <nd ref="3737488583"/>
    <nd ref="2393276703"/>
    <nd ref="3737488584"/>
    <nd ref="34006012"/>
    <nd ref="2405790517"/>
    <nd ref="2393276702"/>
    <nd ref="34006013"/>
    <nd ref="2393276704"/>
    <nd ref="34006014"/>
    <tag k="highway" v="residential"/>
    <tag k="lit" v="yes"/>
    <tag k="maxspeed" v="20 mph"/>
    <tag k="name" v="Stenhouse Avenue West"/>
    <tag k="name:gd" v="Craobhraid Stenhouse an Iar"/>
    <tag k="source" v="Bing;survey"/>
  </way>
  <way id="276094798" version="5" timestamp="2024-08-27T16:46:49Z" changeset="155841699" uid="21762849" user="jSeke">
    <nd ref="703259"/>
    <nd ref="2537168229"/>
    <nd ref="44982389"/>
    <nd ref="2405788079"/>
    <nd ref="2393280366"/>
    <nd ref="44982392"/>
    <nd ref="2405788057"/>
    <nd ref="2393280364"/>
    <nd ref="2405788071"/>
    <nd ref="44982393"/>
    <nd ref="2405788077"/>
    <nd ref="2405788059"/>
    <nd ref="2393280362"/>
    <nd ref="44982394"/>
    <nd ref="2405788085"/>
    <nd ref="2393280363"/>
    <nd ref="2405788065"/>
    <nd ref="44982397"/>
    <nd ref="2393280365"/>
    <nd ref="2405788073"/>
    <nd ref="44982398"/>
    <nd ref="34006014"/>
    <tag k="highway" v="residential"/>
    <tag k="lit" v="yes"/>
    <tag k="maxspeed" v="20 mph"/>
    <tag k="name" v="Stenhouse Gardens North"/>
    <tag k="name:gd" v="Gàrradh Stenhouse a Tuath"/>
    <tag k="source" v="Bing;survey"/>
  </way>
  <way id="276094800" version="6" timestamp="2024-08-27T16:46:49Z" changeset="155841699" uid="21762849" user="jSeke">
    <nd ref="703285"/>
    <nd ref="3737488507"/>
    <nd ref="3737488476"/>
    <nd ref="3778385759"/>
    <nd ref="3737488469"/>
    <nd ref="44986335"/>
    <tag k="highway" v="residential"/>
    <tag k="lit" v="yes"/>
    <tag k="maxspeed" v="20 mph"/>
    <tag k="name" v="Stenhouse Place East"/>
    <tag k="name:gd" v="Ceàrn Stenhouse an Ear"/>
    <tag k="source" v="Bing;survey"/>
  </way>
  <way id="310775759" version="5" timestamp="2020-09-22T18:15:08Z" changeset="91313986" uid="3432400" user="GinaroZ">
    <nd ref="4366401378"/>
    <nd ref="3162617751"/>
    <nd ref="3162617749"/>
    <nd ref="3162617750"/>
    <nd ref="3162617752"/>
    <nd ref="3162617755"/>
    <nd ref="3162617753"/>
    <nd ref="4366401375"/>
    <nd ref="4366401378"/>
    <tag k="addr:city" v="Edinburgh"/>
    <tag k="addr:housenumber" v="49"/>
    <tag k="addr:street" v="Ford's Road"/>
    <tag k="building" v="yes"/>
    <tag k="leisure" v="sports_centre"/>
    <tag k="name" v="Hutchison Vale F.C. Community Sports Football Club"/>
    <tag k="source" v="Bing;survey"/>
    <tag k="sport" v="soccer"/>
    <tag k="website" v="https://www.hutchisonvale.com/"/>
  </way>
  <way id="342266905" version="2" timestamp="2016-08-26T10:44:58Z" changeset="41712179" uid="2234934" user="sophiemccallum">
    <nd ref="3492897662"/>
    <nd ref="3492897658"/>
    <nd ref="3492897656"/>
    <nd ref="3492897649"/>
    <nd ref="3492897648"/>
    <nd ref="3492897657"/>
    <nd ref="3492897655"/>
    <nd ref="3492897654"/>
    <nd ref="3492897651"/>
    <nd ref="3492897650"/>
    <nd ref="3492897653"/>
    <nd ref="3492897652"/>
    <nd ref="3492897659"/>
    <nd ref="3492897660"/>
    <nd ref="3492897663"/>
    <nd ref="3492897664"/>
    <nd ref="3492897661"/>
    <nd ref="3492897662"/>
    <tag k="amenity" v="nursing_home"/>
    <tag k="building" v="yes"/>
    <tag k="email" v="socialcaredirect@edinburgh.gov.uk"/>
    <tag k="name" v="Ford's Road Care Home"/>
    <tag k="phone" v="+44 131 443 3731"/>
    <tag k="source" v="Bing"/>
  </way>
  <way id="358413029" version="2" timestamp="2020-10-12T18:06:43Z" changeset="92369542" uid="388774" user="drnoble">
    <nd ref="3633368409"/>
    <nd ref="3633368406"/>
    <nd ref="3633368407"/>
    <tag k="highway" v="residential"/>
    <tag k="lit" v="yes"/>
    <tag k="maxspeed" v="20 mph"/>
    <tag k="name" v="Saughton Mains Gardens"/>
    <tag k="source" v="yahoo tracing"/>
  </way>
  <way id="370021202" version="9" timestamp="2024-08-27T16:46:49Z" changeset="155841699" uid="21762849" user="jSeke">
    <nd ref="33946395"/>
    <nd ref="11990993456"/>
    <nd ref="3737488474"/>
    <nd ref="2375438972"/>
    <nd ref="2301964228"/>
    <nd ref="7839241470"/>
    <tag k="highway" v="primary"/>
    <tag k="lanes" v="2"/>
    <tag k="lit" v="yes"/>
    <tag k="maxspeed" v="30 mph"/>
    <tag k="name" v="Gorgie Road"/>
    <tag k="name:gd" v="Rathad Ghorgain"/>
    <tag k="ref" v="A71"/>
    <tag k="sidewalk" v="both"/>
    <tag k="surface" v="asphalt"/>
  </way>
  <way id="370021203" version="10" timestamp="2024-08-27T16:46:49Z" changeset="155841699" uid="21762849" user="jSeke">
    <nd ref="33947195"/>
    <nd ref="4055740945"/>
    <nd ref="2375438986"/>
    <nd ref="4910786042"/>
    <nd ref="3492897644"/>
    <tag k="alt_name" v="Delhaig"/>
    <tag k="cycleway:both" v="no"/>
    <tag k="highway" v="primary"/>
    <tag k="lanes" v="4"/>
    <tag k="lit" v="yes"/>
    <tag k="maxspeed" v="30 mph"/>
    <tag k="name" v="Gorgie Road"/>
    <tag k="name:gd" v="Rathad Ghorgain"/>
    <tag k="ref" v="A71"/>
    <tag k="sidewalk" v="both"/>
    <tag k="smoothness" v="good"/>
    <tag k="surface" v="asphalt"/>
  </way>
  <way id="370021204" version="6" timestamp="2024-08-27T16:46:49Z" changeset="155841699" uid="21762849" user="jSeke">
    <nd ref="3737488460"/>
    <nd ref="3633227066"/>
    <nd ref="33946395"/>
    <tag k="highway" v="primary"/>
    <tag k="lit" v="yes"/>
    <tag k="maxspeed" v="30 mph"/>
    <tag k="name" v="Gorgie Road"/>
    <tag k="name:gd" v="Rathad Ghorgain"/>
    <tag k="name:right" v="Chesser Cottages"/>
    <tag k="ref" v="A71"/>
    <tag k="sidewalk" v="both"/>
    <tag k="surface" v="asphalt"/>
  </way>
  <way id="370021205" version="9" timestamp="2024-08-27T16:46:49Z" changeset="155841699" uid="21762849" user="jSeke">
    <nd ref="3492897644"/>
    <nd ref="4719166201"/>
    <nd ref="2375438976"/>
    <nd ref="4910914410"/>
    <nd ref="3737488460"/>
    <tag k="cycleway:both" v="no"/>
    <tag k="highway" v="primary"/>
    <tag k="lanes" v="2"/>
    <tag k="lit" v="yes"/>
    <tag k="maxspeed" v="30 mph"/>
    <tag k="name" v="Gorgie Road"/>
    <tag k="name:gd" v="Rathad Ghorgain"/>
    <tag k="ref" v="A71"/>
    <tag k="sidewalk" v="both"/>
    <tag k="surface" v="asphalt"/>
  </way>
  <way id="377048630" version="2" timestamp="2025-01-07T05:58:14Z" changeset="161083259" uid="10232346" user="lottie1040">
    <nd ref="3804147074"/>
    <nd ref="3804147080"/>
    <nd ref="3804147081"/>
    <nd ref="3804147086"/>
    <nd ref="3804147084"/>
    <nd ref="3804147092"/>
    <nd ref="3804147089"/>
    <nd ref="3804147090"/>
    <nd ref="3804147088"/>
    <nd ref="3804147087"/>
    <nd ref="3804147083"/>
    <nd ref="3804147079"/>
    <nd ref="3804147078"/>
    <nd ref="3804147077"/>
    <nd ref="3804147075"/>
    <nd ref="3804147076"/>
    <nd ref="3804147069"/>
    <nd ref="3804147071"/>
    <nd ref="3804147070"/>
    <nd ref="3804147072"/>
    <nd ref="3804147073"/>
    <nd ref="3804147074"/>
    <tag k="amenity" v="doctors"/>
    <tag k="building" v="yes"/>
    <tag k="healthcare" v="doctor"/>
    <tag k="name" v="Whinpark Medical Centre"/>
    <tag k="source" v="Bing;survey"/>
  </way>
  <way id="438862374" version="2" timestamp="2022-05-14T21:28:21Z" changeset="120993637" uid="13165294" user="ThatEffingCat">
    <nd ref="4365117477"/>
    <nd ref="4365116909"/>
    <nd ref="4365117463"/>
    <nd ref="4365117475"/>
    <nd ref="4365117471"/>
    <nd ref="4365117485"/>
    <nd ref="4365117488"/>
    <nd ref="4365117498"/>
    <nd ref="4365117492"/>
    <nd ref="4365117500"/>
    <nd ref="4365117509"/>
    <nd ref="4365117511"/>
    <nd ref="4365117514"/>
    <nd ref="4365117533"/>
    <nd ref="4365117520"/>
    <nd ref="4365117534"/>
    <nd ref="4365117515"/>
    <nd ref="4365117499"/>
    <nd ref="4365117482"/>
    <nd ref="4365117477"/>
    <tag k="building" v="detached"/>
    <tag k="building:levels" v="1"/>
    <tag k="name" v="The Lodge"/>
    <tag k="source" v="NLS_OS_Edinburgh_map_1940s;Bing"/>
  </way>
  <way id="439013824" version="1" timestamp="2016-08-25T14:06:03Z" changeset="41689058" uid="2234934" user="sophiemccallum">
    <nd ref="4366402987"/>
    <nd ref="4366402969"/>
    <nd ref="4366402961"/>
    <nd ref="4366402966"/>
    <nd ref="4366402963"/>
    <nd ref="4366402971"/>
    <nd ref="4366402972"/>
    <nd ref="4366402973"/>
    <nd ref="4366402974"/>
    <nd ref="4366402980"/>
    <nd ref="4366402987"/>
    <tag k="building" v="yes"/>
    <tag k="name" v="Saughtonhall Mains"/>
    <tag k="source" v="NLS_OS_Edinburgh_map_1940s;Bing"/>
  </way>
  <way id="463126521" version="2" timestamp="2020-07-19T08:35:18Z" changeset="88194021" uid="388774" user="drnoble">
    <nd ref="4584358846"/>
    <nd ref="278078484"/>
    <nd ref="4584358845"/>
    <tag k="highway" v="residential"/>
    <tag k="lanes" v="2"/>
    <tag k="lit" v="yes"/>
    <tag k="maxspeed" v="20 mph"/>
    <tag k="name" v="Saughton Mains Drive"/>
    <tag k="sidewalk" v="both"/>
    <tag k="surface" v="asphalt"/>
  </way>
  <way id="463227611" version="1" timestamp="2017-01-02T11:08:33Z" changeset="44842576" uid="388774" user="drnoble">
    <nd ref="4585197261"/>
    <nd ref="4585197260"/>
    <tag k="highway" v="residential"/>
    <tag k="lit" v="yes"/>
    <tag k="maxspeed" v="20 mph"/>
    <tag k="name" v="Dania Court"/>
    <tag k="source" v="yahoo tracing"/>
  </way>
  <way id="478702802" version="5" timestamp="2024-01-31T09:54:36Z" changeset="146896688" uid="8556201" user="LonMcGregor">
    <nd ref="33946395"/>
    <nd ref="2301964024"/>
    <nd ref="3737488467"/>
    <tag k="highway" v="residential"/>
    <tag k="lanes" v="2"/>
    <tag k="lit" v="yes"/>
    <tag k="maxspeed" v="30 mph"/>
    <tag k="name" v="Robb's Loan"/>
    <tag k="sidewalk" v="both"/>
    <tag k="source" v="Bing;survey"/>
    <tag k="surface" v="asphalt"/>
  </way>
  <way id="478702803" version="7" timestamp="2021-11-15T08:30:11Z" changeset="113793871" uid="7481" user="chrisnicolson">
    <nd ref="2301964025"/>
    <nd ref="4910786097"/>
    <nd ref="4910786096"/>
    <nd ref="2405788067"/>
    <nd ref="2301964026"/>
    <nd ref="33946395"/>
    <tag k="cycleway:both" v="no"/>
    <tag k="highway" v="residential"/>
    <tag k="lanes" v="2"/>
    <tag k="lit" v="yes"/>
    <tag k="maxspeed" v="30 mph"/>
    <tag k="name" v="Ford's Road"/>
    <tag k="sidewalk" v="left"/>
    <tag k="surface" v="asphalt"/>
  </way>
  <way id="478702805" version="2" timestamp="2020-06-27T07:58:21Z" changeset="87220149" uid="388774" user="drnoble">
    <nd ref="3737488653"/>
    <nd ref="3737488654"/>
    <nd ref="32520490"/>
    <nd ref="3737488656"/>
    <nd ref="32520491"/>
    <nd ref="7658114992"/>
    <nd ref="7658114991"/>
    <nd ref="32520492"/>
    <tag k="highway" v="residential"/>
    <tag k="lanes" v="2"/>
    <tag k="lit" v="yes"/>
    <tag k="maxspeed" v="20 mph"/>
    <tag k="name" v="Whitson Terrace"/>
    <tag k="sidewalk" v="both"/>
    <tag k="source" v="Bing;survey"/>
    <tag k="surface" v="asphalt"/>
  </way>
  <way id="478702807" version="3" timestamp="2022-06-23T10:49:34Z" changeset="122753239" uid="4672757" user="The Smith">
    <nd ref="606199"/>
    <nd ref="480078400"/>
    <nd ref="3737488655"/>
    <nd ref="4719166202"/>
    <tag k="highway" v="tertiary"/>
    <tag k="lit" v="yes"/>
    <tag k="maxspeed" v="20 mph"/>
    <tag k="maxspeed:variable" v="school_zone"/>
    <tag k="name" v="Stevenson Drive"/>
    <tag k="source" v="Bing;survey"/>
    <tag k="surface" v="asphalt"/>
  </way>
  <way id="478702808" version="5" timestamp="2022-06-23T10:49:34Z" changeset="122753239" uid="4672757" user="The Smith">
    <nd ref="4719166203"/>
    <nd ref="2467944949"/>
    <nd ref="2675339317"/>
    <nd ref="288419122"/>
    <tag k="highway" v="tertiary"/>
    <tag k="lanes" v="3"/>
    <tag k="lanes:backward" v="1"/>
    <tag k="lanes:forward" v="2"/>
    <tag k="lanes:psv:forward" v="1"/>
    <tag k="lit" v="yes"/>
    <tag k="maxspeed" v="20 mph"/>
    <tag k="name" v="Balgreen Road"/>
    <tag k="surface" v="asphalt"/>
  </way>
  <way id="478702809" version="1" timestamp="2017-03-05T20:30:07Z" changeset="46605743" uid="33764" user="Rostranimin">
    <nd ref="2537169188"/>
    <nd ref="4365117952"/>
    <nd ref="3737488633"/>
    <nd ref="44978983"/>
    <nd ref="44978986"/>
    <tag k="highway" v="residential"/>
    <tag k="lit" v="yes"/>
    <tag k="maxspeed" v="30 mph"/>
    <tag k="name" v="Whitson Crescent"/>
    <tag k="source" v="Bing;survey"/>
  </way>
  <way id="478702810" version="1" timestamp="2017-03-05T20:30:08Z" changeset="46605743" uid="33764" user="Rostranimin">
    <nd ref="44978130"/>
    <nd ref="2537169187"/>
    <nd ref="3737488590"/>
    <nd ref="4365117841"/>
    <nd ref="44978954"/>
    <tag k="highway" v="residential"/>
    <tag k="lit" v="yes"/>
    <tag k="maxspeed" v="30 mph"/>
    <tag k="name" v="Whitson Crescent"/>
    <tag k="source" v="Bing;survey"/>
  </way>
  <way id="478702811" version="2" timestamp="2017-08-17T21:30:53Z" changeset="51216902" uid="91225" user="tms13">
    <nd ref="4719166205"/>
    <nd ref="44979941"/>
    <tag k="highway" v="residential"/>
    <tag k="lit" v="yes"/>
    <tag k="maxspeed" v="20 mph"/>
    <tag k="name" v="Whitson Place West"/>
    <tag k="source" v="Bing;survey"/>
  </way>
  <way id="478702812" version="2" timestamp="2020-06-27T07:58:21Z" changeset="87220149" uid="388774" user="drnoble">
    <nd ref="32520493"/>
    <nd ref="32520492"/>
    <nd ref="32520495"/>
    <nd ref="3736286079"/>
    <nd ref="44979326"/>
    <nd ref="34006022"/>
    <nd ref="34006023"/>
    <nd ref="4719166206"/>
    <tag k="highway" v="residential"/>
    <tag k="lanes" v="2"/>
    <tag k="lit" v="yes"/>
    <tag k="maxspeed" v="20 mph"/>
    <tag k="name" v="Whitson Road"/>
    <tag k="sidewalk" v="both"/>
    <tag k="source" v="Bing;survey"/>
    <tag k="surface" v="asphalt"/>
  </way>
  <way id="590583580" version="3" timestamp="2024-08-27T16:46:49Z" changeset="155841699" uid="21762849" user="jSeke">
    <nd ref="2537159008"/>
    <nd ref="703262"/>
    <nd ref="703261"/>
    <nd ref="44982832"/>
    <nd ref="703260"/>
    <nd ref="2405788074"/>
    <nd ref="2405788070"/>
    <nd ref="2405788064"/>
    <nd ref="703259"/>
    <nd ref="3737488557"/>
    <nd ref="3737488558"/>
    <nd ref="3737488560"/>
    <nd ref="3737488562"/>
    <nd ref="703258"/>
    <nd ref="3737488569"/>
    <nd ref="703257"/>
    <nd ref="2405788075"/>
    <nd ref="2405788069"/>
    <nd ref="2405788063"/>
    <nd ref="703256"/>
    <nd ref="703255"/>
    <nd ref="253706740"/>
    <nd ref="703254"/>
    <tag k="highway" v="tertiary"/>
    <tag k="lanes" v="2"/>
    <tag k="lit" v="yes"/>
    <tag k="maxspeed" v="30 mph"/>
    <tag k="name" v="Stenhouse Drive"/>
    <tag k="name:gd" v="Dràibh Stenhouse"/>
    <tag k="surface" v="asphalt"/>
  </way>
  <way id="684696604" version="1" timestamp="2019-04-19T03:44:01Z" changeset="69364353" uid="8407155" user="addatla">
    <nd ref="34006016"/>
    <nd ref="6415448987"/>
    <nd ref="2882494840"/>
    <nd ref="34006015"/>
    <nd ref="44981528"/>
    <nd ref="34006014"/>
    <tag k="highway" v="residential"/>
    <tag k="lit" v="yes"/>
    <tag k="maxspeed" v="20 mph"/>
    <tag k="name" v="Whitson Road"/>
    <tag k="source" v="Bing;survey"/>
  </way>
  <way id="759653180" version="2" timestamp="2021-12-07T09:40:56Z" changeset="114652112" uid="69853" user="Central America">
    <nd ref="7096299846"/>
    <nd ref="7096299847"/>
    <nd ref="7096299848"/>
    <nd ref="7096299849"/>
    <nd ref="7096299850"/>
    <nd ref="7096299851"/>
    <nd ref="7096299852"/>
    <nd ref="7096299853"/>
    <nd ref="7096299846"/>
    <tag k="building" v="yes"/>
    <tag k="leisure" v="bandstand"/>
    <tag k="name" v="Bandstand"/>
  </way>
  <way id="759653183" version="5" timestamp="2021-12-13T18:38:16Z" changeset="114893906" uid="69853" user="Central America">
    <nd ref="7096299872"/>
    <nd ref="9334510087"/>
    <nd ref="7096299869"/>
    <nd ref="7096299868"/>
    <nd ref="7096299873"/>
    <nd ref="7096299874"/>
    <nd ref="9324888146"/>
    <nd ref="9324888147"/>
    <nd ref="9321034277"/>
    <nd ref="7096299875"/>
    <nd ref="7098651864"/>
    <nd ref="7096299876"/>
    <nd ref="7096299877"/>
    <nd ref="7096299878"/>
    <nd ref="7096299879"/>
    <nd ref="7096299872"/>
    <tag k="building" v="yes"/>
    <tag k="building:levels" v="1"/>
    <tag k="name" v="Stable Block"/>
    <tag k="roof:levels" v="1"/>
  </way>
  <way id="820117159" version="3" timestamp="2022-06-23T10:49:34Z" changeset="122753239" uid="4672757" user="The Smith">
    <nd ref="2154420136"/>
    <nd ref="4719166203"/>
    <tag k="highway" v="tertiary"/>
    <tag k="lit" v="yes"/>
    <tag k="maxspeed" v="20 mph"/>
    <tag k="maxspeed:variable" v="school_zone"/>
    <tag k="name" v="Balgreen Road"/>
    <tag k="surface" v="asphalt"/>
  </way>
  <way id="820192118" version="2" timestamp="2024-08-27T16:46:49Z" changeset="155841699" uid="21762849" user="jSeke">
    <nd ref="2375417063"/>
    <nd ref="250234766"/>
    <nd ref="3637417574"/>
    <nd ref="250234767"/>
    <nd ref="250234769"/>
    <nd ref="2375417086"/>
    <tag k="highway" v="residential"/>
    <tag k="lanes" v="2"/>
    <tag k="lit" v="yes"/>
    <tag k="maxspeed" v="20 mph"/>
    <tag k="name" v="Calder Road"/>
    <tag k="name:gd" v="Rathad Chaladair"/>
    <tag k="sidewalk" v="left"/>
    <tag k="surface" v="asphalt"/>
  </way>
  <way id="840089452" version="4" timestamp="2022-09-30T14:35:35Z" changeset="126826259" uid="307399" user="Pawcio">
    <nd ref="7839241470"/>
    <nd ref="7839241469"/>
    <nd ref="7839241473"/>
    <nd ref="7839241475"/>
    <nd ref="10064451299"/>
    <nd ref="7839241472"/>
    <nd ref="7839241474"/>
    <nd ref="8439494282"/>
    <nd ref="7839241468"/>
    <nd ref="8439494289"/>
    <nd ref="7839241476"/>
    <nd ref="7839241477"/>
    <nd ref="7839241467"/>
    <nd ref="7839241466"/>
    <nd ref="2301965389"/>
    <tag k="highway" v="tertiary"/>
    <tag k="lit" v="yes"/>
    <tag k="maxspeed" v="30 mph"/>
    <tag k="oneway" v="yes"/>
    <tag k="surface" v="asphalt"/>
  </way>
  <way id="840089453" version="1" timestamp="2020-08-24T08:38:47Z" changeset="89843691" uid="9482689" user="OlegKukharchik">
    <nd ref="2301965389"/>
    <nd ref="4900050572"/>
    <nd ref="4900050582"/>
    <nd ref="13865640"/>
    <nd ref="2570221126"/>
    <nd ref="2570221127"/>
    <nd ref="13865641"/>
    <nd ref="2375490247"/>
    <nd ref="13865643"/>
    <nd ref="13865644"/>
    <tag k="highway" v="tertiary"/>
    <tag k="lit" v="yes"/>
    <tag k="maxspeed" v="30 mph"/>
    <tag k="name" v="Balgreen Road"/>
    <tag k="surface" v="asphalt"/>
  </way>
  <way id="858260703" version="1" timestamp="2020-10-12T18:06:43Z" changeset="92369542" uid="388774" user="drnoble">
    <nd ref="258348507"/>
    <nd ref="3633368406"/>
    <nd ref="4585197712"/>
    <nd ref="45003509"/>
    <tag k="highway" v="residential"/>
    <tag k="lit" v="yes"/>
    <tag k="maxspeed" v="20 mph"/>
    <tag k="name" v="Saughton Mains Gardens"/>
    <tag k="source" v="yahoo tracing"/>
  </way>
  <way id="934458614" version="1" timestamp="2021-04-23T21:04:43Z" changeset="103506043" uid="388774" user="drnoble">
    <nd ref="3639587793"/>
    <nd ref="3639582292"/>
    <nd ref="3639587795"/>
    <nd ref="26945271"/>
    <nd ref="26945272"/>
    <nd ref="783575161"/>
    <nd ref="26945249"/>
    <tag k="highway" v="residential"/>
    <tag k="lanes" v="2"/>
    <tag k="lit" v="yes"/>
    <tag k="maxspeed" v="20 mph"/>
    <tag k="name" v="Saughton Road"/>
    <tag k="sidewalk" v="both"/>
    <tag k="source" v="yahoo tracing"/>
    <tag k="surface" v="asphalt"/>
  </way>
  <way id="1082761836" version="4" timestamp="2024-08-27T16:46:49Z" changeset="155841699" uid="21762849" user="jSeke">
    <nd ref="7839241470"/>
    <nd ref="2375438965"/>
    <nd ref="10064451302"/>
    <nd ref="602459"/>
    <tag k="highway" v="primary"/>
    <tag k="lit" v="yes"/>
    <tag k="maxspeed" v="30 mph"/>
    <tag k="name" v="Gorgie Road"/>
    <tag k="name:gd" v="Rathad Ghorgain"/>
    <tag k="ref" v="A71"/>
    <tag k="surface" v="asphalt"/>
  </way>
  <way id="1185360311" version="2" timestamp="2024-08-27T16:46:49Z" changeset="155841699" uid="21762849" user="jSeke">
    <nd ref="703271"/>
    <nd ref="3736285558"/>
    <nd ref="2467944919"/>
    <nd ref="703270"/>
    <nd ref="2467944925"/>
    <nd ref="494029450"/>
    <nd ref="703269"/>
    <nd ref="2467944929"/>
    <nd ref="703268"/>
    <nd ref="2467944922"/>
    <nd ref="1819541470"/>
    <tag k="highway" v="tertiary"/>
    <tag k="junction" v="roundabout"/>
    <tag k="lit" v="yes"/>
    <tag k="maxspeed" v="20 mph"/>
    <tag k="name" v="Stenhouse Cross"/>
    <tag k="name:gd" v="Crois Stenhouse"/>
    <tag k="source" v="Bing;survey"/>
    <tag k="surface" v="asphalt"/>
  </way>
  <way id="1185360312" version="2" timestamp="2024-08-27T16:46:49Z" changeset="155841699" uid="21762849" user="jSeke">
    <nd ref="1819541470"/>
    <nd ref="703267"/>
    <nd ref="2467944937"/>
    <nd ref="703266"/>
    <nd ref="2467944928"/>
    <nd ref="703281"/>
    <nd ref="2467944955"/>
    <nd ref="703280"/>
    <tag k="highway" v="tertiary"/>
    <tag k="junction" v="roundabout"/>
    <tag k="lit" v="yes"/>
    <tag k="maxspeed" v="20 mph"/>
    <tag k="name" v="Stenhouse Cross"/>
    <tag k="name:gd" v="Crois Stenhouse"/>
    <tag k="source" v="Bing;survey"/>
    <tag k="surface" v="asphalt"/>
  </way>
  <way id="1185360313" version="2" timestamp="2024-08-27T16:46:49Z" changeset="155841699" uid="21762849" user="jSeke">
    <nd ref="502093280"/>
    <nd ref="2467944939"/>
    <nd ref="703275"/>
    <nd ref="2467944954"/>
    <nd ref="494029443"/>
    <nd ref="703274"/>
    <nd ref="2467944927"/>
    <nd ref="703273"/>
    <nd ref="2467944918"/>
    <nd ref="703271"/>
    <tag k="highway" v="tertiary"/>
    <tag k="junction" v="roundabout"/>
    <tag k="lit" v="yes"/>
    <tag k="maxspeed" v="20 mph"/>
    <tag k="name" v="Stenhouse Cross"/>
    <tag k="name:gd" v="Crois Stenhouse"/>
    <tag k="source" v="Bing;survey"/>
    <tag k="surface" v="asphalt"/>
  </way>
  <way id="1185360314" version="2" timestamp="2024-08-24T14:17:10Z" changeset="155699037" uid="16721418" user="SmithyScotland">
    <nd ref="13865644"/>
    <nd ref="530575549"/>
    <nd ref="509177687"/>
    <nd ref="530575552"/>
    <nd ref="509177696"/>
    <nd ref="530575553"/>
    <nd ref="530575557"/>
    <nd ref="13865642"/>
    <tag k="direction" v="clockwise"/>
    <tag k="highway" v="tertiary"/>
    <tag k="junction" v="roundabout"/>
    <tag k="lanes" v="2"/>
    <tag k="lit" v="yes"/>
    <tag k="maxspeed" v="30 mph"/>
    <tag k="surface" v="asphalt"/>
  </way>
  <way id="1185360315" version="2" timestamp="2024-08-24T14:17:09Z" changeset="155699037" uid="16721418" user="SmithyScotland">
    <nd ref="530575610"/>
    <nd ref="2375487306"/>
    <nd ref="606197"/>
    <nd ref="2375487310"/>
    <nd ref="530575625"/>
    <nd ref="13865646"/>
    <nd ref="530575643"/>
    <nd ref="509177716"/>
    <nd ref="530575539"/>
    <nd ref="13865644"/>
    <tag k="direction" v="clockwise"/>
    <tag k="highway" v="tertiary"/>
    <tag k="junction" v="roundabout"/>
    <tag k="lanes" v="2"/>
    <tag k="lit" v="yes"/>
    <tag k="maxspeed" v="30 mph"/>
    <tag k="surface" v="asphalt"/>
  </way>
  <way id="1239461070" version="2" timestamp="2024-08-03T10:46:25Z" changeset="154767116" uid="21143475" user="Htf4">
    <nd ref="9335218720"/>
    <nd ref="9335218726"/>
    <nd ref="9335218725"/>
    <nd ref="9335218724"/>
    <tag k="highway" v="residential"/>
    <tag k="maxspeed" v="20 mph"/>
    <tag k="maxspeed:type" v="GB:zone20"/>
    <tag k="name" v="Ford's Road"/>
    <tag k="source" v="Bing;survey"/>
    <tag k="surface" v="asphalt"/>
  </way>
  <way id="1305383690" version="2" timestamp="2024-08-03T10:43:53Z" changeset="154767613" uid="21143475" user="Htf4">
    <nd ref="530572419"/>
    <nd ref="228453317"/>
    <nd ref="3736285220"/>
    <nd ref="3778385511"/>
    <nd ref="3736285223"/>
    <nd ref="4366403195"/>
    <tag k="highway" v="residential"/>
    <tag k="lit" v="yes"/>
    <tag k="maxspeed" v="20 mph"/>
    <tag k="name" v="Ford's Road"/>
    <tag k="sidewalk" v="no"/>
    <tag k="source" v="Bing;survey"/>
  </way>
  <way id="1305383800" version="3" timestamp="2024-08-03T10:45:16Z" changeset="154767116" uid="21143475" user="Htf4">
    <nd ref="2405788060"/>
    <nd ref="2405788088"/>
    <nd ref="2397514078"/>
    <nd ref="2397514073"/>
    <nd ref="2405788082"/>
    <tag k="highway" v="residential"/>
    <tag k="lit" v="yes"/>
    <tag k="maxspeed" v="20 mph"/>
    <tag k="name" v="Ford's Road"/>
    <tag k="sidewalk" v="both"/>
    <tag k="source" v="Bing;survey"/>
    <tag k="surface" v="asphalt"/>
  </way>
  <way id="1378974802" version="1" timestamp="2025-04-19T21:10:55Z" changeset="165171297" uid="22806759" user="RodrigoMSV">
    <nd ref="12769162504"/>
    <nd ref="12769162505"/>
    <nd ref="12769162506"/>
    <nd ref="12769162507"/>
    <nd ref="12769162504"/>
    <tag k="addr:city" v="Edinburgh"/>
    <tag k="addr:housenumber" v="530"/>
    <tag k="addr:postcode" v="EH11 3FA"/>
    <tag k="addr:street" v="Gorgie Road"/>
    <tag k="building" v="apartments"/>
    <tag k="building:flats" v="14"/>
    <tag k="building:levels" v="4"/>
  </way>
  <way id="1378974803" version="1" timestamp="2025-04-19T21:10:55Z" changeset="165171297" uid="22806759" user="RodrigoMSV">
    <nd ref="12769162507"/>
    <nd ref="12769162508"/>
    <nd ref="12769162509"/>
    <nd ref="12769162506"/>
    <nd ref="12769162507"/>
    <tag k="addr:city" v="Edinburgh"/>
    <tag k="addr:housenumber" v="532"/>
    <tag k="addr:postcode" v="EH11 3FA"/>
    <tag k="addr:street" v="Gorgie Road"/>
    <tag k="building" v="apartments"/>
  </way>
  <way id="1378974804" version="1" timestamp="2025-04-19T21:10:55Z" changeset="165171297" uid="22806759" user="RodrigoMSV">
    <nd ref="12769162508"/>
    <nd ref="12769162510"/>
    <nd ref="12769162511"/>
    <nd ref="12769162509"/>
    <nd ref="12769162508"/>
    <tag k="addr:city" v="Edinburgh"/>
    <tag k="addr:housenumber" v="534"/>
    <tag k="addr:postcode" v="EH11 3FA"/>
    <tag k="addr:street" v="Gorgie Road"/>
    <tag k="building" v="apartments"/>
  </way>

</osm>
