<?xml version="1.0" encoding="UTF-8"?>
<osm version="0.6" generator="Overpass API 0.7.62.5 1bd436f1">
<note>The data included in this document is from www.openstreetmap.org. The data is made available under ODbL.</note>
<meta osm_base="2025-05-17T21:31:00Z" areas="2024-12-31T00:49:33Z"/>

  <node id="614582" lat="55.9231505" lon="-3.2482827" version="5" timestamp="2024-01-14T11:22:21Z" changeset="146240882" uid="388774" user="drnoble"/>
  <node id="641768" lat="55.9252505" lon="-3.2653774" version="4" timestamp="2013-12-12T21:29:31Z" changeset="19420919" uid="199963" user="TheBaron"/>
  <node id="1002876" lat="55.9251268" lon="-3.2657503" version="3" timestamp="2020-05-03T10:02:45Z" changeset="84556202" uid="388774" user="drnoble"/>
  <node id="32174984" lat="55.9139685" lon="-3.2619863" version="3" timestamp="2015-10-06T15:53:15Z" changeset="34471946" uid="2234934" user="sophiemccallum"/>
  <node id="531491083" lat="55.9260709" lon="-3.2650649" version="5" timestamp="2024-01-02T15:35:37Z" changeset="145803520" uid="388774" user="drnoble"/>
  <node id="2154420224" lat="55.9254588" lon="-3.2657012" version="2" timestamp="2013-12-12T21:20:53Z" changeset="19420919" uid="199963" user="TheBaron"/>
  <node id="2577483782" lat="55.9255831" lon="-3.2653149" version="2" timestamp="2013-12-12T21:29:31Z" changeset="19420919" uid="199963" user="TheBaron"/>
  <node id="2683351433" lat="55.9232138" lon="-3.2479141" version="5" timestamp="2024-01-14T11:22:21Z" changeset="146240882" uid="388774" user="drnoble"/>
  <node id="6061329887" lat="55.9244492" lon="-3.2676703" version="1" timestamp="2018-11-14T18:33:40Z" changeset="64496929" uid="1798469" user="eric_"/>
  <way id="4388379" version="20" timestamp="2021-08-04T20:21:22Z" changeset="109163480" uid="197905" user="FraserKp">
    <nd ref="2577486140"/>
    <nd ref="3400639920"/>
    <nd ref="570011158"/>
    <nd ref="3400639913"/>
    <nd ref="3400639907"/>
    <nd ref="3400639897"/>
    <nd ref="570011151"/>
    <nd ref="641739"/>
    <nd ref="2683351441"/>
    <nd ref="2577486144"/>
    <nd ref="641737"/>
    <nd ref="641736"/>
    <nd ref="641735"/>
    <nd ref="641733"/>
    <tag k="highway" v="tertiary"/>
    <tag k="lit" v="yes"/>
    <tag k="maxspeed" v="30 mph"/>
    <tag k="name" v="Inglis Green Road"/>
    <tag k="surface" v="asphalt"/>
  </way>
  <way id="4405486" version="12" timestamp="2023-04-29T10:59:49Z" changeset="135499584" uid="64920" user="shaydon">
    <nd ref="2154420224"/>
    <nd ref="26945147"/>
    <nd ref="641770"/>
    <nd ref="2577501922"/>
    <nd ref="641771"/>
    <nd ref="26945151"/>
    <nd ref="2577501926"/>
    <nd ref="641772"/>
    <nd ref="2577483782"/>
    <nd ref="531490769"/>
    <nd ref="641773"/>
    <nd ref="641774"/>
    <nd ref="2577483770"/>
    <nd ref="2577483783"/>
    <nd ref="641775"/>
    <tag k="highway" v="tertiary"/>
    <tag k="junction" v="roundabout"/>
    <tag k="lanes" v="2"/>
    <tag k="lit" v="yes"/>
    <tag k="maxspeed" v="30 mph"/>
    <tag k="oneway" v="yes"/>
    <tag k="sidewalk" v="left"/>
    <tag k="surface" v="asphalt"/>
  </way>
  <way id="4405487" version="7" timestamp="2020-05-03T10:02:45Z" changeset="84556202" uid="388774" user="drnoble">
    <nd ref="45069050"/>
    <nd ref="641760"/>
    <nd ref="26945155"/>
    <nd ref="641759"/>
    <nd ref="2577483780"/>
    <nd ref="45071202"/>
    <nd ref="641757"/>
    <nd ref="531492264"/>
    <nd ref="7475563072"/>
    <nd ref="31354867"/>
    <tag k="highway" v="tertiary"/>
    <tag k="lanes" v="2"/>
    <tag k="lit" v="yes"/>
    <tag k="maxspeed" v="30 mph"/>
    <tag k="name" v="Longstone Road"/>
    <tag k="sidewalk" v="both"/>
    <tag k="surface" v="asphalt"/>
  </way>
  <way id="4405490" version="12" timestamp="2024-08-27T16:46:49Z" changeset="155841699" uid="21762849" user="jSeke">
    <nd ref="614578"/>
    <nd ref="3709457640"/>
    <nd ref="2285721932"/>
    <nd ref="4077379509"/>
    <nd ref="26945296"/>
    <nd ref="2285724565"/>
    <nd ref="26945297"/>
    <nd ref="3709457676"/>
    <nd ref="26945298"/>
    <tag k="highway" v="primary"/>
    <tag k="lanes" v="2"/>
    <tag k="lit" v="yes"/>
    <tag k="maxspeed" v="30 mph"/>
    <tag k="name" v="Lanark Road"/>
    <tag k="name:gd" v="Rathad Lannraig"/>
    <tag k="oneway" v="yes"/>
    <tag k="ref" v="A70"/>
    <tag k="sidewalk" v="left"/>
    <tag k="surface" v="asphalt"/>
  </way>
  <way id="4405491" version="12" timestamp="2024-08-27T16:46:49Z" changeset="155841699" uid="21762849" user="jSeke">
    <nd ref="641729"/>
    <nd ref="2285721930"/>
    <nd ref="3709457671"/>
    <nd ref="26945299"/>
    <nd ref="2285724570"/>
    <tag k="cycleway:both" v="no"/>
    <tag k="highway" v="primary"/>
    <tag k="lanes" v="2"/>
    <tag k="lit" v="yes"/>
    <tag k="maxspeed" v="30 mph"/>
    <tag k="name" v="Lanark Road"/>
    <tag k="name:gd" v="Rathad Lannraig"/>
    <tag k="oneway" v="yes"/>
    <tag k="ref" v="A70"/>
    <tag k="surface" v="asphalt"/>
  </way>
  <way id="4405494" version="9" timestamp="2021-03-12T11:09:34Z" changeset="100903488" uid="388774" user="drnoble">
    <nd ref="641733"/>
    <nd ref="2285721931"/>
    <nd ref="2285721933"/>
    <nd ref="2568349203"/>
    <nd ref="2568349199"/>
    <nd ref="2568349201"/>
    <nd ref="26945295"/>
    <nd ref="26945298"/>
    <tag k="access" v="no"/>
    <tag k="bicycle" v="designated"/>
    <tag k="bus" v="yes"/>
    <tag k="foot" v="designated"/>
    <tag k="highway" v="tertiary"/>
    <tag k="lanes" v="1"/>
    <tag k="lit" v="yes"/>
    <tag k="maxspeed" v="30 mph"/>
    <tag k="name" v="Inglis Green Road"/>
    <tag k="oneway" v="yes"/>
    <tag k="surface" v="asphalt"/>
    <tag k="taxi" v="yes"/>
  </way>
  <way id="4576242" version="10" timestamp="2020-11-22T16:49:18Z" changeset="94590308" uid="388774" user="drnoble">
    <nd ref="6061329887"/>
    <nd ref="1002872"/>
    <nd ref="6061329888"/>
    <nd ref="445423317"/>
    <nd ref="1002871"/>
    <nd ref="1002870"/>
    <nd ref="1002869"/>
    <nd ref="445423318"/>
    <nd ref="8151640301"/>
    <tag k="highway" v="tertiary"/>
    <tag k="lanes" v="2"/>
    <tag k="lit" v="yes"/>
    <tag k="maxspeed" v="30 mph"/>
    <tag k="name" v="Murrayburn Road"/>
    <tag k="sidewalk" v="left"/>
    <tag k="surface" v="asphalt"/>
  </way>
  <way id="4633399" version="6" timestamp="2017-08-17T21:30:43Z" changeset="51216902" uid="91225" user="tms13">
    <nd ref="29433790"/>
    <nd ref="45095635"/>
    <nd ref="29433792"/>
    <nd ref="29433793"/>
    <nd ref="45094592"/>
    <nd ref="3775169805"/>
    <nd ref="3775169807"/>
    <nd ref="3775169810"/>
    <nd ref="3775169812"/>
    <nd ref="3775169815"/>
    <nd ref="3775169818"/>
    <nd ref="29433794"/>
    <nd ref="29433796"/>
    <nd ref="29433797"/>
    <tag k="highway" v="residential"/>
    <tag k="lit" v="yes"/>
    <tag k="maxspeed" v="20 mph"/>
    <tag k="name" v="Kingsknowe Drive"/>
  </way>
  <way id="4633400" version="15" timestamp="2020-11-22T11:11:12Z" changeset="94575570" uid="388774" user="drnoble">
    <nd ref="29433803"/>
    <nd ref="29433805"/>
    <nd ref="845860975"/>
    <nd ref="29433806"/>
    <nd ref="4582031533"/>
    <nd ref="31354850"/>
    <nd ref="4582031532"/>
    <nd ref="31354851"/>
    <nd ref="31354852"/>
    <nd ref="32947528"/>
    <nd ref="31354853"/>
    <nd ref="31354854"/>
    <nd ref="8016048359"/>
    <nd ref="31354855"/>
    <nd ref="8016048360"/>
    <nd ref="45071568"/>
    <nd ref="8150951629"/>
    <nd ref="4226471117"/>
    <nd ref="31354856"/>
    <tag k="highway" v="residential"/>
    <tag k="lanes" v="2"/>
    <tag k="lit" v="yes"/>
    <tag k="maxspeed" v="20 mph"/>
    <tag k="name" v="Kingsknowe Road North"/>
    <tag k="sidewalk" v="both"/>
    <tag k="surface" v="asphalt"/>
  </way>
  <way id="4633401" version="8" timestamp="2017-08-17T21:30:44Z" changeset="51216902" uid="91225" user="tms13">
    <nd ref="29433801"/>
    <nd ref="2958297002"/>
    <nd ref="1306700160"/>
    <nd ref="29433802"/>
    <tag k="highway" v="residential"/>
    <tag k="lit" v="yes"/>
    <tag k="maxspeed" v="20 mph"/>
    <tag k="name" v="Kingsknowe Road North"/>
  </way>
  <way id="4633402" version="9" timestamp="2021-01-24T02:10:34Z" changeset="98041663" uid="322039" user="MacLondon">
    <nd ref="29433802"/>
    <nd ref="29433803"/>
    <tag k="bridge" v="yes"/>
    <tag k="bridge:ref" v="5"/>
    <tag k="highway" v="residential"/>
    <tag k="layer" v="1"/>
    <tag k="lit" v="yes"/>
    <tag k="maxspeed" v="20 mph"/>
    <tag k="name" v="Kingsknowe Road North"/>
  </way>
  <way id="4633403" version="9" timestamp="2020-07-26T09:08:45Z" changeset="88515035" uid="388774" user="drnoble">
    <nd ref="29433806"/>
    <nd ref="4582031530"/>
    <nd ref="29433807"/>
    <nd ref="7749905054"/>
    <nd ref="7749905053"/>
    <nd ref="4582031529"/>
    <nd ref="7749905052"/>
    <nd ref="29433808"/>
    <nd ref="7749905051"/>
    <nd ref="29433809"/>
    <nd ref="7749905050"/>
    <nd ref="4582031528"/>
    <nd ref="29433810"/>
    <nd ref="4582031527"/>
    <nd ref="29433811"/>
    <nd ref="7749905049"/>
    <nd ref="4582031526"/>
    <nd ref="29433812"/>
    <nd ref="7749905141"/>
    <nd ref="1377476867"/>
    <nd ref="29433813"/>
    <nd ref="7749905140"/>
    <nd ref="4042290704"/>
    <nd ref="29433815"/>
    <tag k="highway" v="residential"/>
    <tag k="lanes" v="2"/>
    <tag k="lit" v="yes"/>
    <tag k="maxspeed" v="20 mph"/>
    <tag k="name" v="Kingsknowe Place"/>
    <tag k="sidewalk" v="both"/>
    <tag k="surface" v="asphalt"/>
  </way>
  <way id="4915235" version="9" timestamp="2025-01-05T11:18:57Z" changeset="161016065" uid="6871" user="smsm1">
    <nd ref="32174984"/>
    <nd ref="3775144569"/>
    <nd ref="32174972"/>
    <nd ref="4374093894"/>
    <nd ref="32174963"/>
    <nd ref="4374093920"/>
    <nd ref="45096513"/>
    <nd ref="32174940"/>
    <nd ref="45096757"/>
    <nd ref="32174936"/>
    <nd ref="3777343990"/>
    <nd ref="3775144614"/>
    <nd ref="3775144615"/>
    <nd ref="3775144620"/>
    <nd ref="32174924"/>
    <nd ref="32174894"/>
    <nd ref="32174886"/>
    <nd ref="3775144656"/>
    <nd ref="3775169759"/>
    <nd ref="3775169762"/>
    <nd ref="3777343991"/>
    <nd ref="3775169764"/>
    <nd ref="32174882"/>
    <nd ref="32174873"/>
    <nd ref="3775169784"/>
    <nd ref="3775169796"/>
    <nd ref="32174867"/>
    <nd ref="29433797"/>
    <nd ref="29433798"/>
    <nd ref="4385614148"/>
    <nd ref="29433799"/>
    <nd ref="29433801"/>
    <tag k="highway" v="residential"/>
    <tag k="lit" v="yes"/>
    <tag k="maxspeed" v="20 mph"/>
    <tag k="name" v="Kingsknowe Road South"/>
    <tag k="surface" v="asphalt"/>
  </way>
  <way id="4936987" version="10" timestamp="2024-08-27T16:46:49Z" changeset="155841699" uid="21762849" user="jSeke">
    <nd ref="614582"/>
    <nd ref="32528854"/>
    <tag k="bridge" v="yes"/>
    <tag k="highway" v="primary"/>
    <tag k="lanes" v="2"/>
    <tag k="lanes:psv" v="1"/>
    <tag k="layer" v="1"/>
    <tag k="lit" v="yes"/>
    <tag k="maxspeed" v="30 mph"/>
    <tag k="maxweight:signed" v="no"/>
    <tag k="name" v="Lanark Road"/>
    <tag k="name:gd" v="Rathad Lannraig"/>
    <tag k="note" v="this section not physically segregated, but messy otherwise"/>
    <tag k="oneway" v="yes"/>
    <tag k="ref" v="A70"/>
    <tag k="source" v="survey"/>
    <tag k="surface" v="asphalt"/>
  </way>
  <way id="4936989" version="14" timestamp="2024-08-27T16:46:49Z" changeset="155841699" uid="21762849" user="jSeke">
    <nd ref="2568403903"/>
    <nd ref="7658260832"/>
    <nd ref="3709457691"/>
    <nd ref="614582"/>
    <tag k="busway" v="lane"/>
    <tag k="cycleway" v="share_busway"/>
    <tag k="highway" v="primary"/>
    <tag k="lanes" v="2"/>
    <tag k="lanes:psv" v="1"/>
    <tag k="lit" v="yes"/>
    <tag k="maxspeed" v="30 mph"/>
    <tag k="name" v="Lanark Road"/>
    <tag k="name:gd" v="Rathad Lannraig"/>
    <tag k="note" v="this section not physically segregated, but messy otherwise"/>
    <tag k="oneway" v="yes"/>
    <tag k="ref" v="A70"/>
    <tag k="source" v="survey"/>
    <tag k="surface" v="asphalt"/>
  </way>
  <way id="4972795" version="15" timestamp="2020-07-04T08:51:57Z" changeset="87525766" uid="388774" user="drnoble">
    <nd ref="3400639913"/>
    <nd ref="32947491"/>
    <nd ref="4340139353"/>
    <nd ref="227300819"/>
    <nd ref="3984805220"/>
    <nd ref="32947492"/>
    <nd ref="3984805198"/>
    <nd ref="2099869254"/>
    <nd ref="2099869275"/>
    <nd ref="32947493"/>
    <nd ref="4340139321"/>
    <nd ref="3984804822"/>
    <nd ref="32947497"/>
    <nd ref="2099869309"/>
    <nd ref="3984804761"/>
    <nd ref="32947498"/>
    <nd ref="3984804718"/>
    <nd ref="32947499"/>
    <nd ref="2523753615"/>
    <nd ref="2531370124"/>
    <nd ref="31354863"/>
    <nd ref="2531370062"/>
    <tag k="highway" v="residential"/>
    <tag k="lanes" v="2"/>
    <tag k="lit" v="yes"/>
    <tag k="maxspeed" v="20 mph"/>
    <tag k="name" v="Redhall Drive"/>
    <tag k="sidewalk" v="both"/>
    <tag k="surface" v="asphalt"/>
  </way>
  <way id="4972798" version="13" timestamp="2020-11-29T21:14:51Z" changeset="95001040" uid="388774" user="drnoble">
    <nd ref="32947516"/>
    <nd ref="4226471107"/>
    <nd ref="8177416907"/>
    <nd ref="4226933560"/>
    <nd ref="4226933615"/>
    <nd ref="4226933628"/>
    <nd ref="32947517"/>
    <nd ref="4226933673"/>
    <nd ref="4226933685"/>
    <nd ref="4226933699"/>
    <nd ref="8016055870"/>
    <nd ref="32947518"/>
    <nd ref="4226933742"/>
    <nd ref="4226933778"/>
    <nd ref="4226933787"/>
    <nd ref="7682322567"/>
    <nd ref="32947519"/>
    <nd ref="4226933868"/>
    <nd ref="32947520"/>
    <nd ref="258840133"/>
    <nd ref="4227114936"/>
    <nd ref="4227114976"/>
    <nd ref="258840131"/>
    <tag k="highway" v="residential"/>
    <tag k="lanes" v="2"/>
    <tag k="lit" v="yes"/>
    <tag k="maxspeed" v="20 mph"/>
    <tag k="name" v="Redhall Avenue"/>
    <tag k="sidewalk" v="both"/>
    <tag k="surface" v="asphalt"/>
  </way>
  <way id="4972805" version="11" timestamp="2020-10-17T11:30:01Z" changeset="92624749" uid="388774" user="drnoble">
    <nd ref="32947515"/>
    <nd ref="3984805248"/>
    <nd ref="7682350587"/>
    <nd ref="32947514"/>
    <nd ref="3984805227"/>
    <nd ref="4077379514"/>
    <nd ref="8016055889"/>
    <nd ref="8016055888"/>
    <nd ref="8016055884"/>
    <nd ref="2099869288"/>
    <nd ref="8016055873"/>
    <nd ref="8016055795"/>
    <nd ref="4226933527"/>
    <nd ref="32947513"/>
    <nd ref="4226933503"/>
    <nd ref="8016055788"/>
    <nd ref="8016055785"/>
    <nd ref="8016055782"/>
    <nd ref="2099869279"/>
    <nd ref="3984804796"/>
    <nd ref="3984804793"/>
    <tag k="highway" v="residential"/>
    <tag k="lanes" v="2"/>
    <tag k="lit" v="yes"/>
    <tag k="maxspeed" v="20 mph"/>
    <tag k="name" v="Redhall Road"/>
    <tag k="sidewalk" v="both"/>
    <tag k="surface" v="asphalt"/>
  </way>
  <way id="4972806" version="7" timestamp="2021-04-30T21:16:26Z" changeset="103935847" uid="3432400" user="GinaroZ">
    <nd ref="32947526"/>
    <nd ref="8016055522"/>
    <nd ref="8016055604"/>
    <nd ref="32947530"/>
    <nd ref="8016055601"/>
    <nd ref="8016055603"/>
    <nd ref="8016055602"/>
    <nd ref="8016055521"/>
    <nd ref="3984803424"/>
    <nd ref="8016055520"/>
    <nd ref="3984803428"/>
    <nd ref="8685755966"/>
    <tag k="highway" v="residential"/>
    <tag k="lit" v="yes"/>
    <tag k="maxspeed" v="20 mph"/>
    <tag k="name" v="Redhall Grove"/>
  </way>
  <way id="4972810" version="11" timestamp="2020-10-17T11:30:01Z" changeset="92624749" uid="388774" user="drnoble">
    <nd ref="32947492"/>
    <nd ref="3984805212"/>
    <nd ref="3984805247"/>
    <nd ref="32947515"/>
    <nd ref="8016055925"/>
    <nd ref="3984805371"/>
    <nd ref="2577488940"/>
    <nd ref="2577488938"/>
    <nd ref="2577488935"/>
    <nd ref="32947520"/>
    <nd ref="4226934009"/>
    <nd ref="7658519886"/>
    <nd ref="4226934017"/>
    <nd ref="32947540"/>
    <nd ref="4226934020"/>
    <nd ref="258840212"/>
    <nd ref="7658519773"/>
    <nd ref="4226934018"/>
    <nd ref="32947541"/>
    <nd ref="4226934013"/>
    <nd ref="4226934010"/>
    <nd ref="32947542"/>
    <nd ref="4226933870"/>
    <nd ref="4226933800"/>
    <nd ref="4226933751"/>
    <nd ref="4226933697"/>
    <nd ref="4226933651"/>
    <nd ref="32947543"/>
    <tag k="highway" v="residential"/>
    <tag k="lanes" v="2"/>
    <tag k="lit" v="yes"/>
    <tag k="maxspeed" v="20 mph"/>
    <tag k="name" v="Redhall Crescent"/>
    <tag k="sidewalk" v="both"/>
    <tag k="surface" v="asphalt"/>
  </way>
  <way id="5779114" version="10" timestamp="2020-07-13T13:44:41Z" changeset="87927385" uid="53626" user="jambamkin">
    <nd ref="45068308"/>
    <nd ref="45069025"/>
    <nd ref="2577483772"/>
    <nd ref="45069028"/>
    <nd ref="2577483765"/>
    <nd ref="2577483771"/>
    <nd ref="2577483774"/>
    <nd ref="2577483777"/>
    <nd ref="2577483768"/>
    <nd ref="45069032"/>
    <nd ref="45069035"/>
    <nd ref="2577504570"/>
    <nd ref="2577504569"/>
    <nd ref="2577504573"/>
    <nd ref="45069037"/>
    <nd ref="2577504574"/>
    <nd ref="45069040"/>
    <nd ref="2577504572"/>
    <nd ref="2577504571"/>
    <nd ref="45069044"/>
    <nd ref="45069048"/>
    <nd ref="7658516547"/>
    <nd ref="7475585453"/>
    <nd ref="45069050"/>
    <tag k="highway" v="residential"/>
    <tag k="lanes" v="2"/>
    <tag k="lit" v="yes"/>
    <tag k="maxspeed" v="20 mph"/>
    <tag k="name" v="Longstone Crescent"/>
    <tag k="sidewalk" v="both"/>
    <tag k="source" v="yahoo tracing"/>
    <tag k="surface" v="asphalt"/>
  </way>
  <way id="5779141" version="10" timestamp="2020-11-22T11:11:12Z" changeset="94575570" uid="388774" user="drnoble">
    <nd ref="31354866"/>
    <nd ref="4583086229"/>
    <nd ref="4583086230"/>
    <nd ref="45070078"/>
    <nd ref="8150915586"/>
    <nd ref="45070079"/>
    <nd ref="4583086231"/>
    <nd ref="8150915585"/>
    <nd ref="8150915584"/>
    <nd ref="45070083"/>
    <nd ref="45070085"/>
    <nd ref="4583085577"/>
    <nd ref="4583086232"/>
    <nd ref="4077379523"/>
    <nd ref="7746679791"/>
    <nd ref="45070087"/>
    <nd ref="45070088"/>
    <nd ref="7746679790"/>
    <nd ref="4583086233"/>
    <nd ref="7746679789"/>
    <nd ref="45070093"/>
    <nd ref="45070094"/>
    <nd ref="4077379510"/>
    <nd ref="7746679693"/>
    <nd ref="7746679692"/>
    <nd ref="45070096"/>
    <nd ref="7746679706"/>
    <nd ref="4583086234"/>
    <nd ref="45070099"/>
    <nd ref="4583086235"/>
    <nd ref="45070100"/>
    <nd ref="7746679615"/>
    <nd ref="4583085672"/>
    <nd ref="45070102"/>
    <nd ref="7746679636"/>
    <nd ref="7746679644"/>
    <nd ref="45070104"/>
    <tag k="highway" v="residential"/>
    <tag k="lanes" v="2"/>
    <tag k="lit" v="yes"/>
    <tag k="maxspeed" v="20 mph"/>
    <tag k="name" v="Longstone Street"/>
    <tag k="sidewalk" v="both"/>
    <tag k="source" v="yahoo tracing"/>
    <tag k="surface" v="asphalt"/>
  </way>
  <way id="5779156" version="8" timestamp="2020-07-25T14:12:45Z" changeset="88496915" uid="388774" user="drnoble">
    <nd ref="45070085"/>
    <nd ref="7746679817"/>
    <nd ref="45071200"/>
    <nd ref="7746679815"/>
    <nd ref="7746679816"/>
    <nd ref="7475585452"/>
    <nd ref="45071202"/>
    <tag k="highway" v="residential"/>
    <tag k="lanes" v="2"/>
    <tag k="lit" v="yes"/>
    <tag k="maxspeed" v="20 mph"/>
    <tag k="name" v="Longstone Avenue"/>
    <tag k="sidewalk" v="both"/>
    <tag k="source" v="yahoo tracing"/>
    <tag k="surface" v="asphalt"/>
  </way>
  <way id="5779164" version="7" timestamp="2017-08-17T21:30:45Z" changeset="51216902" uid="91225" user="tms13">
    <nd ref="45070099"/>
    <nd ref="4077379505"/>
    <nd ref="4583085671"/>
    <nd ref="4583085674"/>
    <nd ref="45071563"/>
    <nd ref="4583085669"/>
    <nd ref="4583085668"/>
    <nd ref="4583086228"/>
    <nd ref="45071567"/>
    <nd ref="45071568"/>
    <tag k="highway" v="residential"/>
    <tag k="lit" v="yes"/>
    <tag k="maxspeed" v="20 mph"/>
    <tag k="name" v="Longstone Grove"/>
    <tag k="source" v="yahoo tracing"/>
  </way>
  <way id="5779165" version="5" timestamp="2017-08-17T21:30:46Z" changeset="51216902" uid="91225" user="tms13">
    <nd ref="45071563"/>
    <nd ref="45071605"/>
    <tag k="highway" v="residential"/>
    <tag k="lit" v="yes"/>
    <tag k="maxspeed" v="20 mph"/>
    <tag k="name" v="Longstone Grove"/>
    <tag k="source" v="yahoo tracing"/>
  </way>
  <way id="5779167" version="8" timestamp="2017-08-17T21:30:45Z" changeset="51216902" uid="91225" user="tms13">
    <nd ref="4583085674"/>
    <nd ref="4583085673"/>
    <nd ref="4077379525"/>
    <nd ref="4583085670"/>
    <nd ref="4042290695"/>
    <nd ref="45071676"/>
    <tag k="highway" v="residential"/>
    <tag k="lit" v="yes"/>
    <tag k="maxspeed" v="20 mph"/>
    <tag k="name" v="Longstone Grove"/>
    <tag k="source" v="yahoo tracing"/>
  </way>
  <way id="5779943" version="8" timestamp="2017-08-17T21:30:43Z" changeset="51216902" uid="91225" user="tms13">
    <nd ref="45094592"/>
    <nd ref="45095160"/>
    <nd ref="3775169841"/>
    <nd ref="3775169851"/>
    <nd ref="3775169854"/>
    <nd ref="3775170058"/>
    <nd ref="3775170060"/>
    <nd ref="45095161"/>
    <nd ref="45095163"/>
    <nd ref="3775170116"/>
    <nd ref="3775170119"/>
    <nd ref="3775170121"/>
    <nd ref="3775170123"/>
    <nd ref="3775170124"/>
    <nd ref="3775170122"/>
    <nd ref="45095164"/>
    <nd ref="45095168"/>
    <nd ref="3775170102"/>
    <nd ref="3775170095"/>
    <nd ref="3775170088"/>
    <nd ref="45095169"/>
    <nd ref="3775170077"/>
    <nd ref="3775170068"/>
    <nd ref="3775170065"/>
    <nd ref="45095170"/>
    <nd ref="3775169856"/>
    <nd ref="45095172"/>
    <nd ref="3777343997"/>
    <nd ref="4357670356"/>
    <nd ref="29433792"/>
    <tag k="highway" v="residential"/>
    <tag k="lit" v="yes"/>
    <tag k="maxspeed" v="20 mph"/>
    <tag k="name" v="Kingsknowe Crescent"/>
    <tag k="source" v="Bing;survey"/>
  </way>
  <way id="5779976" version="6" timestamp="2017-08-17T21:30:43Z" changeset="51216902" uid="91225" user="tms13">
    <nd ref="45095635"/>
    <nd ref="45095883"/>
    <nd ref="3775170071"/>
    <nd ref="3775170080"/>
    <nd ref="3775170093"/>
    <nd ref="3775170103"/>
    <nd ref="45095885"/>
    <nd ref="45095886"/>
    <nd ref="3775170130"/>
    <nd ref="3775170132"/>
    <nd ref="3775170136"/>
    <nd ref="3775170138"/>
    <nd ref="3775170141"/>
    <nd ref="3775170144"/>
    <nd ref="45095887"/>
    <nd ref="45095889"/>
    <nd ref="3775170265"/>
    <nd ref="3775170266"/>
    <nd ref="3775170264"/>
    <nd ref="45095891"/>
    <nd ref="614570"/>
    <tag k="highway" v="residential"/>
    <tag k="lit" v="yes"/>
    <tag k="maxspeed" v="20 mph"/>
    <tag k="name" v="Arnott Gardens"/>
    <tag k="source" v="yahoo tracing"/>
  </way>
  <way id="5779992" version="7" timestamp="2017-08-17T21:30:43Z" changeset="51216902" uid="91225" user="tms13">
    <nd ref="29433792"/>
    <nd ref="4357670342"/>
    <nd ref="3775169772"/>
    <nd ref="3775169760"/>
    <nd ref="45096503"/>
    <nd ref="3775169757"/>
    <nd ref="3775144653"/>
    <nd ref="45096506"/>
    <nd ref="3775144650"/>
    <nd ref="3775144647"/>
    <nd ref="3775144644"/>
    <nd ref="3775144638"/>
    <nd ref="3775144631"/>
    <nd ref="45096509"/>
    <nd ref="45096510"/>
    <nd ref="3775144603"/>
    <nd ref="3775144602"/>
    <nd ref="3775144600"/>
    <nd ref="3775144598"/>
    <nd ref="45096512"/>
    <nd ref="3775144589"/>
    <nd ref="3775144587"/>
    <nd ref="3775144584"/>
    <nd ref="45096513"/>
    <tag k="highway" v="residential"/>
    <tag k="lit" v="yes"/>
    <tag k="maxspeed" v="20 mph"/>
    <tag k="name" v="Kingsknowe Gardens"/>
    <tag k="source" v="yahoo tracing"/>
  </way>
  <way id="5780006" version="7" timestamp="2017-08-17T21:30:44Z" changeset="51216902" uid="91225" user="tms13">
    <nd ref="29433793"/>
    <nd ref="3777343992"/>
    <nd ref="45096877"/>
    <nd ref="45096750"/>
    <nd ref="3775144613"/>
    <nd ref="3775144611"/>
    <nd ref="3775144609"/>
    <nd ref="3775144608"/>
    <nd ref="3775144607"/>
    <nd ref="45096751"/>
    <nd ref="3777343989"/>
    <nd ref="45096757"/>
    <tag k="highway" v="residential"/>
    <tag k="lit" v="yes"/>
    <tag k="maxspeed" v="20 mph"/>
    <tag k="name" v="Kingsknowe Avenue"/>
    <tag k="source" v="yahoo tracing"/>
  </way>
  <way id="5780026" version="5" timestamp="2017-08-17T21:30:43Z" changeset="51216902" uid="91225" user="tms13">
    <nd ref="45096877"/>
    <nd ref="45096506"/>
    <tag k="highway" v="residential"/>
    <tag k="lit" v="yes"/>
    <tag k="maxspeed" v="20 mph"/>
    <tag k="name" v="Kingsknowe Terrace"/>
    <tag k="source" v="yahoo tracing"/>
  </way>
  <way id="5780035" version="7" timestamp="2023-04-09T10:35:21Z" changeset="134682117" uid="53626" user="jambamkin">
    <nd ref="45096509"/>
    <nd ref="4373976799"/>
    <nd ref="10796835341"/>
    <nd ref="45097282"/>
    <tag k="highway" v="residential"/>
    <tag k="lit" v="yes"/>
    <tag k="maxspeed" v="20 mph"/>
    <tag k="name" v="Kingsknowe Park"/>
    <tag k="source" v="yahoo tracing"/>
  </way>
  <way id="5780040" version="6" timestamp="2017-08-17T21:30:43Z" changeset="51216902" uid="91225" user="tms13">
    <nd ref="45096512"/>
    <nd ref="3775144595"/>
    <nd ref="3775144590"/>
    <nd ref="45097462"/>
    <nd ref="3775144586"/>
    <nd ref="3775144585"/>
    <nd ref="45097465"/>
    <tag k="highway" v="residential"/>
    <tag k="lit" v="yes"/>
    <tag k="maxspeed" v="20 mph"/>
    <tag k="name" v="Kingsknowe Grove"/>
    <tag k="source" v="yahoo tracing"/>
  </way>
  <way id="5780075" version="7" timestamp="2024-08-26T13:49:38Z" changeset="155783678" uid="21143475" user="Htf4">
    <nd ref="45097494"/>
    <nd ref="3775144578"/>
    <nd ref="3775144577"/>
    <nd ref="3775144576"/>
    <nd ref="3775144574"/>
    <nd ref="45098414"/>
    <nd ref="3775144572"/>
    <nd ref="3775144571"/>
    <nd ref="3775144570"/>
    <nd ref="3775144573"/>
    <nd ref="3775144575"/>
    <nd ref="45098417"/>
    <nd ref="3775144579"/>
    <nd ref="3775144580"/>
    <nd ref="3775144581"/>
    <nd ref="3775144582"/>
    <nd ref="3775144583"/>
    <nd ref="45098421"/>
    <nd ref="45098422"/>
    <nd ref="45098424"/>
    <nd ref="3775144588"/>
    <nd ref="3775144591"/>
    <nd ref="3775144592"/>
    <nd ref="3775144593"/>
    <nd ref="3775144594"/>
    <nd ref="3775144596"/>
    <nd ref="45098425"/>
    <nd ref="3775144597"/>
    <nd ref="3775144599"/>
    <nd ref="2208553755"/>
    <tag k="highway" v="residential"/>
    <tag k="maxspeed" v="20 mph"/>
    <tag k="name" v="Dovecot Park"/>
    <tag k="sidewalk" v="both"/>
    <tag k="source" v="Bing"/>
  </way>
  <way id="23880274" version="7" timestamp="2020-10-17T11:30:01Z" changeset="92624749" uid="388774" user="drnoble">
    <nd ref="32947508"/>
    <nd ref="8016055505"/>
    <nd ref="2099869310"/>
    <nd ref="8016055504"/>
    <nd ref="4226471009"/>
    <nd ref="8016055510"/>
    <nd ref="8016055503"/>
    <nd ref="32947509"/>
    <nd ref="8016055502"/>
    <nd ref="32947510"/>
    <nd ref="4226471048"/>
    <nd ref="4226471065"/>
    <nd ref="4226471102"/>
    <nd ref="4226471112"/>
    <nd ref="32947511"/>
    <tag k="highway" v="residential"/>
    <tag k="lit" v="yes"/>
    <tag k="maxspeed" v="20 mph"/>
    <tag k="name" v="Redhall Place"/>
  </way>
  <way id="23880292" version="4" timestamp="2020-11-22T10:43:01Z" changeset="94574745" uid="388774" user="drnoble">
    <nd ref="31354851"/>
    <nd ref="4582031184"/>
    <nd ref="4582031183"/>
    <nd ref="258839835"/>
    <tag k="highway" v="residential"/>
    <tag k="lanes" v="2"/>
    <tag k="lit" v="yes"/>
    <tag k="maxspeed" v="20 mph"/>
    <tag k="name" v="Peatville Terrace"/>
    <tag k="sidewalk" v="both"/>
    <tag k="surface" v="asphalt"/>
  </way>
  <way id="23880306" version="9" timestamp="2020-10-17T16:18:35Z" changeset="92633960" uid="388774" user="drnoble">
    <nd ref="258840105"/>
    <nd ref="4227115120"/>
    <nd ref="2099869302"/>
    <nd ref="8016765751"/>
    <nd ref="258840125"/>
    <nd ref="8016765638"/>
    <nd ref="258840126"/>
    <nd ref="8016765637"/>
    <nd ref="4227114914"/>
    <nd ref="1279735469"/>
    <nd ref="258840127"/>
    <nd ref="8016765731"/>
    <nd ref="7658519712"/>
    <nd ref="1279735520"/>
    <tag k="highway" v="residential"/>
    <tag k="lit" v="yes"/>
    <tag k="maxspeed" v="20 mph"/>
    <tag k="name" v="Longstone Park"/>
  </way>
  <way id="27944508" version="11" timestamp="2025-01-05T11:17:18Z" changeset="161016065" uid="6871" user="smsm1">
    <nd ref="614572"/>
    <nd ref="4378954902"/>
    <nd ref="3964531878"/>
    <nd ref="3964531860"/>
    <tag k="highway" v="residential"/>
    <tag k="maxspeed" v="20 mph"/>
    <tag k="name" v="Redhall Bank Road"/>
    <tag k="surface" v="asphalt"/>
  </way>
  <way id="27944510" version="10" timestamp="2018-04-04T12:33:41Z" changeset="57801909" uid="91225" user="tms13">
    <nd ref="306708794"/>
    <nd ref="4379001639"/>
    <nd ref="3964531656"/>
    <nd ref="4379001625"/>
    <nd ref="4379001623"/>
    <nd ref="4379001622"/>
    <nd ref="4379001624"/>
    <nd ref="506576485"/>
    <nd ref="4379001630"/>
    <nd ref="4379259327"/>
    <nd ref="2682004540"/>
    <nd ref="306708796"/>
    <nd ref="1279735470"/>
    <nd ref="3964531731"/>
    <tag k="highway" v="residential"/>
    <tag k="lanes" v="1"/>
    <tag k="lit" v="yes"/>
    <tag k="maxspeed" v="20 mph"/>
    <tag k="name" v="Bogsmill Road"/>
    <tag k="surface" v="paved"/>
  </way>
  <way id="32477072" version="8" timestamp="2024-08-27T16:46:49Z" changeset="155841699" uid="21762849" user="jSeke">
    <nd ref="26945298"/>
    <nd ref="2568403903"/>
    <tag k="highway" v="primary"/>
    <tag k="lanes" v="2"/>
    <tag k="lanes:psv" v="1"/>
    <tag k="lit" v="yes"/>
    <tag k="maxspeed" v="30 mph"/>
    <tag k="name" v="Lanark Road"/>
    <tag k="name:gd" v="Rathad Lannraig"/>
    <tag k="oneway" v="yes"/>
    <tag k="ref" v="A70"/>
    <tag k="surface" v="asphalt"/>
  </way>
  <way id="37863521" version="3" timestamp="2020-11-22T16:49:18Z" changeset="94590308" uid="388774" user="drnoble">
    <nd ref="444255705"/>
    <nd ref="444255706"/>
    <nd ref="444255707"/>
    <nd ref="8151640325"/>
    <nd ref="8151640326"/>
    <nd ref="444255708"/>
    <nd ref="444255709"/>
    <nd ref="444255710"/>
    <nd ref="8151640327"/>
    <nd ref="444255716"/>
    <nd ref="444255705"/>
    <tag k="building" v="yes"/>
    <tag k="name" v="Edinburgh Council"/>
  </way>
  <way id="38352819" version="5" timestamp="2018-04-04T12:33:41Z" changeset="57801909" uid="91225" user="tms13">
    <nd ref="453032742"/>
    <nd ref="3964531911"/>
    <nd ref="4378851605"/>
    <nd ref="453032746"/>
    <nd ref="3964531981"/>
    <nd ref="453032752"/>
    <tag k="highway" v="residential"/>
    <tag k="lanes" v="2"/>
    <tag k="lit" v="yes"/>
    <tag k="maxspeed" v="20 mph"/>
    <tag k="name" v="Redhall View"/>
    <tag k="surface" v="asphalt"/>
  </way>
  <way id="38352821" version="5" timestamp="2018-04-04T12:33:41Z" changeset="57801909" uid="91225" user="tms13">
    <nd ref="453032746"/>
    <nd ref="4378851608"/>
    <nd ref="453032904"/>
    <tag k="highway" v="residential"/>
    <tag k="lanes" v="2"/>
    <tag k="lit" v="yes"/>
    <tag k="maxspeed" v="20 mph"/>
    <tag k="name" v="Redhall View"/>
    <tag k="surface" v="asphalt"/>
  </way>
  <way id="41225038" version="13" timestamp="2023-08-13T12:11:07Z" changeset="139821055" uid="6816132" user="CjMalone">
    <nd ref="3400639939"/>
    <nd ref="3400639940"/>
    <nd ref="3400639947"/>
    <nd ref="3400639945"/>
    <nd ref="3400639946"/>
    <nd ref="503719318"/>
    <nd ref="503719315"/>
    <nd ref="3264388673"/>
    <nd ref="503719316"/>
    <nd ref="7658260801"/>
    <nd ref="7658260804"/>
    <nd ref="4622608241"/>
    <nd ref="3264388672"/>
    <nd ref="3400639873"/>
    <nd ref="3400639877"/>
    <nd ref="3400639904"/>
    <nd ref="3400639902"/>
    <nd ref="3400639905"/>
    <nd ref="503719317"/>
    <nd ref="3400639910"/>
    <nd ref="4622608242"/>
    <nd ref="3400639914"/>
    <nd ref="3400639918"/>
    <nd ref="3400639919"/>
    <nd ref="3400639922"/>
    <nd ref="3400639931"/>
    <nd ref="3400639928"/>
    <nd ref="3400639929"/>
    <nd ref="3400639937"/>
    <nd ref="3400639939"/>
    <tag k="addr:city" v="Edinburgh"/>
    <tag k="addr:housenumber" v="22"/>
    <tag k="addr:postcode" v="EH14 2ER"/>
    <tag k="addr:street" v="Inglis Green Road"/>
    <tag k="brand" v="Sainsbury's"/>
    <tag k="brand:wikidata" v="Q152096"/>
    <tag k="brand:wikipedia" v="en:Sainsbury's"/>
    <tag k="building" v="retail"/>
    <tag k="fhrs:id" v="662503"/>
    <tag k="layer" v="1"/>
    <tag k="name" v="Sainsbury's"/>
    <tag k="opening_hours" v="Mo-Sa 07:00-22:00; Su 08:00-10:00"/>
    <tag k="shop" v="supermarket"/>
    <tag k="source" v="survey"/>
    <tag k="website" v="https://stores.sainsburys.co.uk/2309/edinburgh-longstone"/>
  </way>
  <way id="41420513" version="7" timestamp="2018-04-04T12:33:40Z" changeset="57801909" uid="91225" user="tms13">
    <nd ref="506575753"/>
    <nd ref="506576009"/>
    <nd ref="531395453"/>
    <nd ref="506575722"/>
    <nd ref="506576015"/>
    <nd ref="506576018"/>
    <nd ref="506576020"/>
    <nd ref="3964531579"/>
    <nd ref="4379208096"/>
    <nd ref="4379208094"/>
    <nd ref="4379208092"/>
    <nd ref="4379208089"/>
    <nd ref="4379207488"/>
    <nd ref="4379207487"/>
    <nd ref="4379208102"/>
    <nd ref="506576024"/>
    <tag k="highway" v="residential"/>
    <tag k="lanes" v="2"/>
    <tag k="lit" v="yes"/>
    <tag k="maxspeed" v="20 mph"/>
    <tag k="name" v="Dovecot Grove"/>
    <tag k="surface" v="asphalt"/>
  </way>
  <way id="41420684" version="4" timestamp="2018-04-04T12:33:41Z" changeset="57801909" uid="91225" user="tms13">
    <nd ref="506576593"/>
    <nd ref="3964531690"/>
    <nd ref="4379001647"/>
    <nd ref="306708794"/>
    <nd ref="4379001637"/>
    <nd ref="506575710"/>
    <nd ref="4379001634"/>
    <nd ref="506575714"/>
    <nd ref="4379001633"/>
    <nd ref="506575718"/>
    <nd ref="4379001621"/>
    <nd ref="506575722"/>
    <tag k="highway" v="residential"/>
    <tag k="lanes" v="2"/>
    <tag k="lit" v="yes"/>
    <tag k="maxspeed" v="20 mph"/>
    <tag k="name" v="Redhall Bank Road"/>
    <tag k="surface" v="asphalt"/>
  </way>
  <way id="42556019" version="4" timestamp="2018-04-04T12:33:41Z" changeset="57801909" uid="91225" user="tms13">
    <nd ref="531395453"/>
    <nd ref="4379001641"/>
    <nd ref="3964531691"/>
    <nd ref="4379001648"/>
    <nd ref="4379001650"/>
    <nd ref="4379001653"/>
    <nd ref="531395596"/>
    <nd ref="3964531785"/>
    <nd ref="4379001664"/>
    <nd ref="4379001666"/>
    <nd ref="531395600"/>
    <tag k="highway" v="residential"/>
    <tag k="lanes" v="2"/>
    <tag k="lit" v="yes"/>
    <tag k="maxspeed" v="20 mph"/>
    <tag k="name" v="Dovecot Loan"/>
    <tag k="surface" v="asphalt"/>
  </way>
  <way id="42558333" version="9" timestamp="2024-01-02T15:35:37Z" changeset="145803520" uid="388774" user="drnoble">
    <nd ref="2577483782"/>
    <nd ref="2577483778"/>
    <nd ref="4183304220"/>
    <nd ref="4183304222"/>
    <nd ref="1433868487"/>
    <nd ref="11479183396"/>
    <tag k="highway" v="residential"/>
    <tag k="lanes" v="2"/>
    <tag k="lit" v="yes"/>
    <tag k="maxspeed" v="20 mph"/>
    <tag k="name" v="Gaskell Street"/>
    <tag k="sidewalk" v="right"/>
    <tag k="surface" v="asphalt"/>
  </way>
  <way id="42558354" version="6" timestamp="2024-01-02T15:35:37Z" changeset="145803520" uid="388774" user="drnoble">
    <nd ref="531491083"/>
    <nd ref="531492654"/>
    <tag k="bridge" v="yes"/>
    <tag k="highway" v="residential"/>
    <tag k="lanes" v="1"/>
    <tag k="layer" v="1"/>
    <tag k="lit" v="yes"/>
    <tag k="name" v="Gaskell Street"/>
    <tag k="priority" v="forward"/>
    <tag k="sidewalk" v="left"/>
    <tag k="surface" v="asphalt"/>
  </way>
  <way id="44957166" version="1" timestamp="2009-11-24T14:29:15Z" changeset="3204783" uid="48582" user="Augustus Kling">
    <nd ref="570011303"/>
    <nd ref="570011277"/>
    <nd ref="570011138"/>
    <nd ref="570011304"/>
    <nd ref="570011303"/>
    <tag k="amenity" v="place_of_worship"/>
    <tag k="building" v="yes"/>
    <tag k="denomination" v="jehovahs_witness"/>
    <tag k="name" v="Kingdom Hall"/>
    <tag k="religion" v="christian"/>
  </way>
  <way id="44957171" version="4" timestamp="2017-08-17T21:30:47Z" changeset="51216902" uid="91225" user="tms13">
    <nd ref="570011151"/>
    <nd ref="570011153"/>
    <nd ref="570011147"/>
    <nd ref="3400639849"/>
    <nd ref="570011148"/>
    <nd ref="570011134"/>
    <nd ref="570011136"/>
    <nd ref="570011126"/>
    <tag k="highway" v="residential"/>
    <tag k="lanes" v="2"/>
    <tag k="lit" v="yes"/>
    <tag k="maxspeed" v="20 mph"/>
    <tag k="name" v="Inglis Green Rigg"/>
    <tag k="sidewalk" v="right"/>
    <tag k="surface" v="paving_stones"/>
  </way>
  <way id="70983141" version="6" timestamp="2020-11-22T10:43:01Z" changeset="94574745" uid="388774" user="drnoble">
    <nd ref="845860954"/>
    <nd ref="4582029650"/>
    <nd ref="31354852"/>
    <tag k="highway" v="residential"/>
    <tag k="lanes" v="2"/>
    <tag k="lit" v="yes"/>
    <tag k="maxspeed" v="20 mph"/>
    <tag k="name" v="Longstone Place"/>
    <tag k="sidewalk" v="both"/>
    <tag k="source" v="OS_OpenData_StreetView"/>
    <tag k="surface" v="asphalt"/>
  </way>
  <way id="70983143" version="5" timestamp="2017-08-17T21:30:45Z" changeset="51216902" uid="91225" user="tms13">
    <nd ref="845860997"/>
    <nd ref="4582031299"/>
    <nd ref="4582031531"/>
    <nd ref="845860975"/>
    <tag k="highway" v="residential"/>
    <tag k="maxspeed" v="20 mph"/>
    <tag k="name" v="Peatville Gardens"/>
    <tag k="source" v="OS_OpenData_StreetView"/>
  </way>
  <way id="115728106" version="6" timestamp="2020-07-26T09:08:45Z" changeset="88515035" uid="388774" user="drnoble">
    <nd ref="29433808"/>
    <nd ref="3377690665"/>
    <nd ref="29433824"/>
    <nd ref="3377690653"/>
    <nd ref="1306700133"/>
    <nd ref="3377690648"/>
    <nd ref="1306700149"/>
    <tag k="highway" v="residential"/>
    <tag k="lanes" v="2"/>
    <tag k="lit" v="yes"/>
    <tag k="maxspeed" v="20 mph"/>
    <tag k="name" v="Kingsknowe Court"/>
    <tag k="sidewalk" v="both"/>
    <tag k="surface" v="asphalt"/>
  </way>
  <way id="171768917" version="5" timestamp="2017-08-17T21:30:47Z" changeset="51216902" uid="91225" user="tms13">
    <nd ref="641739"/>
    <nd ref="1827483410"/>
    <nd ref="1827483408"/>
    <nd ref="1827483405"/>
    <nd ref="1827483402"/>
    <nd ref="1827483397"/>
    <nd ref="1827483394"/>
    <nd ref="2577486785"/>
    <nd ref="2577486784"/>
    <nd ref="1827483392"/>
    <nd ref="1827483387"/>
    <nd ref="1827483390"/>
    <nd ref="3400639805"/>
    <nd ref="1827483386"/>
    <nd ref="1827483384"/>
    <nd ref="1827483379"/>
    <tag k="highway" v="residential"/>
    <tag k="lanes" v="1"/>
    <tag k="lit" v="yes"/>
    <tag k="maxspeed" v="20 mph"/>
    <tag k="name" v="Inglis Green Gait"/>
    <tag k="sidewalk" v="left"/>
    <tag k="surface" v="asphalt"/>
  </way>
  <way id="194356882" version="10" timestamp="2024-08-27T16:46:49Z" changeset="155841699" uid="21762849" user="jSeke">
    <nd ref="2048747487"/>
    <nd ref="614576"/>
    <nd ref="453032904"/>
    <tag k="busway:right" v="lane"/>
    <tag k="cycleway:left" v="track"/>
    <tag k="cycleway:right" v="share_busway"/>
    <tag k="highway" v="primary"/>
    <tag k="lanes" v="3"/>
    <tag k="lanes:backward" v="2"/>
    <tag k="lanes:forward" v="1"/>
    <tag k="maxspeed" v="30 mph"/>
    <tag k="name" v="Lanark Road"/>
    <tag k="name:gd" v="Rathad Lannraig"/>
    <tag k="ref" v="A70"/>
    <tag k="surface" v="asphalt"/>
  </way>
  <way id="200002514" version="7" timestamp="2020-06-27T12:46:53Z" changeset="87225671" uid="388774" user="drnoble">
    <nd ref="31354863"/>
    <nd ref="3984803412"/>
    <nd ref="3984803420"/>
    <nd ref="31354864"/>
    <nd ref="32947504"/>
    <nd ref="3984804793"/>
    <nd ref="32947516"/>
    <nd ref="32947511"/>
    <nd ref="32947543"/>
    <nd ref="31354856"/>
    <tag k="highway" v="residential"/>
    <tag k="lanes" v="2"/>
    <tag k="lit" v="yes"/>
    <tag k="maxspeed" v="20 mph"/>
    <tag k="name" v="Redhall Gardens"/>
    <tag k="sidewalk" v="both"/>
    <tag k="surface" v="asphalt"/>
  </way>
  <way id="219409599" version="8" timestamp="2024-06-29T22:33:34Z" changeset="153349775" uid="20487713" user="iiBus">
    <nd ref="2285724570"/>
    <nd ref="3709457663"/>
    <nd ref="12021242751"/>
    <nd ref="2285724565"/>
    <nd ref="2568403905"/>
    <nd ref="2285724568"/>
    <nd ref="641733"/>
    <tag k="highway" v="tertiary"/>
    <tag k="lit" v="yes"/>
    <tag k="maxspeed" v="30 mph"/>
    <tag k="name" v="Inglis Green Road"/>
    <tag k="oneway" v="yes"/>
    <tag k="surface" v="asphalt"/>
  </way>
  <way id="219410100" version="10" timestamp="2024-08-27T16:46:49Z" changeset="155841699" uid="21762849" user="jSeke">
    <nd ref="2285724570"/>
    <nd ref="3709457651"/>
    <nd ref="4077379517"/>
    <nd ref="2568403908"/>
    <nd ref="641722"/>
    <nd ref="614579"/>
    <nd ref="614578"/>
    <tag k="cycleway:both" v="no"/>
    <tag k="highway" v="primary"/>
    <tag k="lanes" v="2"/>
    <tag k="lit" v="yes"/>
    <tag k="maxspeed" v="30 mph"/>
    <tag k="name" v="Lanark Road"/>
    <tag k="name:gd" v="Rathad Lannraig"/>
    <tag k="oneway" v="yes"/>
    <tag k="ref" v="A70"/>
    <tag k="sidewalk" v="left"/>
    <tag k="surface" v="asphalt"/>
  </way>
  <way id="231039593" version="7" timestamp="2020-06-27T12:46:53Z" changeset="87225671" uid="388774" user="drnoble">
    <nd ref="31354856"/>
    <nd ref="7658519704"/>
    <nd ref="7658519702"/>
    <nd ref="31354866"/>
    <nd ref="7658519604"/>
    <nd ref="4227114995"/>
    <nd ref="4227115126"/>
    <nd ref="31354867"/>
    <tag k="highway" v="residential"/>
    <tag k="lanes" v="2"/>
    <tag k="lit" v="yes"/>
    <tag k="maxspeed" v="20 mph"/>
    <tag k="name" v="Kingsknowe Road North"/>
    <tag k="sidewalk" v="both"/>
    <tag k="surface" v="asphalt"/>
  </way>
  <way id="231039595" version="8" timestamp="2021-08-04T20:21:22Z" changeset="109163480" uid="197905" user="FraserKp">
    <nd ref="31354867"/>
    <nd ref="2394807345"/>
    <nd ref="2577486141"/>
    <nd ref="641754"/>
    <nd ref="2577486139"/>
    <nd ref="641753"/>
    <tag k="highway" v="tertiary"/>
    <tag k="lit" v="yes"/>
    <tag k="maxspeed" v="30 mph"/>
    <tag k="name" v="Longstone Road"/>
    <tag k="surface" v="asphalt"/>
  </way>
  <way id="231039597" version="17" timestamp="2024-08-27T16:46:49Z" changeset="155841699" uid="21762849" user="jSeke">
    <nd ref="32174984"/>
    <nd ref="7079594323"/>
    <nd ref="4605645513"/>
    <nd ref="4605645514"/>
    <nd ref="614562"/>
    <nd ref="32174992"/>
    <nd ref="4605645515"/>
    <nd ref="32175021"/>
    <nd ref="1623952428"/>
    <nd ref="614560"/>
    <nd ref="32175026"/>
    <nd ref="4606063309"/>
    <nd ref="614559"/>
    <nd ref="614558"/>
    <nd ref="3957144485"/>
    <nd ref="3957144481"/>
    <nd ref="45099396"/>
    <nd ref="45102114"/>
    <tag k="cycleway" v="track"/>
    <tag k="highway" v="primary"/>
    <tag k="lanes" v="2"/>
    <tag k="maxspeed" v="30 mph"/>
    <tag k="name" v="Lanark Road"/>
    <tag k="name:gd" v="Rathad Lannraig"/>
    <tag k="ref" v="A70"/>
    <tag k="sidewalk" v="both"/>
    <tag k="surface" v="asphalt"/>
  </way>
  <way id="231067779" version="4" timestamp="2020-10-06T19:33:03Z" changeset="92067136" uid="388774" user="drnoble">
    <nd ref="2394807261"/>
    <nd ref="7475563058"/>
    <nd ref="2394807322"/>
    <nd ref="7475563054"/>
    <nd ref="7475563053"/>
    <nd ref="7475563052"/>
    <nd ref="2394807379"/>
    <nd ref="2394807351"/>
    <nd ref="7475563055"/>
    <nd ref="7475563057"/>
    <nd ref="7475563056"/>
    <nd ref="2394807297"/>
    <nd ref="2394807261"/>
    <tag k="addr:city" v="Edinburgh"/>
    <tag k="addr:housenumber" v="36"/>
    <tag k="addr:postcode" v="EH14 2BH"/>
    <tag k="addr:street" v="Longstone Road"/>
    <tag k="building" v="yes"/>
    <tag k="disused:amenity" v="pub"/>
    <tag k="fhrs:id" v="663199"/>
    <tag k="name" v="Longstone Inn"/>
    <tag k="source" v="Bing;survey"/>
  </way>
  <way id="231067781" version="3" timestamp="2020-11-29T21:14:51Z" changeset="95001040" uid="388774" user="drnoble">
    <nd ref="2394807339"/>
    <nd ref="2394807276"/>
    <nd ref="8177416958"/>
    <nd ref="2394807363"/>
    <nd ref="2394807334"/>
    <nd ref="2394807339"/>
    <tag k="addr:city" v="Edinburgh"/>
    <tag k="addr:housenumber" v="30"/>
    <tag k="addr:postcode" v="EH14 2ER"/>
    <tag k="addr:street" v="Inglis Green Road"/>
    <tag k="amenity" v="pub"/>
    <tag k="building" v="yes"/>
    <tag k="building:levels" v="2"/>
    <tag k="fhrs:id" v="662421"/>
    <tag k="name" v="Village Inn"/>
    <tag k="source" v="Bing;survey"/>
  </way>
  <way id="231067784" version="8" timestamp="2023-04-09T21:52:37Z" changeset="134705016" uid="6816132" user="CjMalone">
    <nd ref="2394807342"/>
    <nd ref="4582031285"/>
    <nd ref="4582031286"/>
    <nd ref="2394807278"/>
    <nd ref="4582031287"/>
    <nd ref="4582031288"/>
    <nd ref="2394807365"/>
    <nd ref="4582031289"/>
    <nd ref="4582031290"/>
    <nd ref="2394807337"/>
    <nd ref="8150909812"/>
    <nd ref="2394807342"/>
    <tag k="addr:city" v="Edinburgh"/>
    <tag k="addr:housenumber" v="193-195"/>
    <tag k="addr:postcode" v="EH14 2ED"/>
    <tag k="addr:street" v="Kingsknowe Road North"/>
    <tag k="amenity" v="pub"/>
    <tag k="building" v="yes"/>
    <tag k="building:levels" v="1"/>
    <tag k="contact:facebook" v="https://www.facebook.com/kingsknowe/"/>
    <tag k="name" v="The New Kingsknowe"/>
    <tag k="old_name" v="Kingsknowe Roadhouse"/>
    <tag k="source" v="Bing;survey"/>
  </way>
  <way id="231067785" version="7" timestamp="2025-04-22T21:54:02Z" changeset="165305718" uid="22792440" user="PayPointPub">
    <nd ref="2394807373"/>
    <nd ref="2394807312"/>
    <nd ref="2394807406"/>
    <nd ref="2394807371"/>
    <nd ref="2394807308"/>
    <nd ref="2394807289"/>
    <nd ref="4692249948"/>
    <nd ref="7658519698"/>
    <nd ref="2394807373"/>
    <tag k="addr:city" v="Edinburgh"/>
    <tag k="addr:housenumber" v="7"/>
    <tag k="addr:postcode" v="EH14 2BN"/>
    <tag k="addr:street" v="Kingsknowe Road North"/>
    <tag k="brand" v="Scotmid"/>
    <tag k="brand:wikidata" v="Q7435719"/>
    <tag k="brand:wikipedia" v="en:Scotmid"/>
    <tag k="building" v="yes"/>
    <tag k="building:levels" v="1"/>
    <tag k="fhrs:id" v="663407"/>
    <tag k="name" v="Scotmid"/>
    <tag k="paypoint" v="yes"/>
    <tag k="shop" v="supermarket"/>
    <tag k="source" v="survey"/>
    <tag k="website" v="https://scotmid.coop/store/kingsknowe/"/>
  </way>
  <way id="231067786" version="1" timestamp="2013-07-24T08:30:12Z" changeset="17072222" uid="1423770" user="jalek">
    <nd ref="2394807259"/>
    <nd ref="2394807319"/>
    <nd ref="2394807299"/>
    <nd ref="2394807377"/>
    <nd ref="2394807349"/>
    <nd ref="2394807295"/>
    <nd ref="2394807246"/>
    <nd ref="2394807375"/>
    <nd ref="2394807314"/>
    <nd ref="2394807259"/>
    <tag k="building" v="yes"/>
    <tag k="name" v="Advanced Autos"/>
    <tag k="shop" v="car_repair"/>
    <tag k="source" v="Bing;survey"/>
  </way>
  <way id="231067787" version="3" timestamp="2020-11-29T21:14:51Z" changeset="95001040" uid="388774" user="drnoble">
    <nd ref="2394807359"/>
    <nd ref="2394807263"/>
    <nd ref="2394807387"/>
    <nd ref="7658519949"/>
    <nd ref="7658519950"/>
    <nd ref="2394807355"/>
    <nd ref="7658519947"/>
    <nd ref="2394807359"/>
    <tag k="addr:city" v="Edinburgh"/>
    <tag k="addr:housenumber" v="26A"/>
    <tag k="addr:postcode" v="EH14 2ER"/>
    <tag k="addr:street" v="Inglis Green Road"/>
    <tag k="amenity" v="social_centre"/>
    <tag k="building" v="yes"/>
    <tag k="fhrs:id" v="663746"/>
    <tag k="name" v="Waterside Social Club"/>
    <tag k="source" v="survey"/>
  </way>
  <way id="246054886" version="4" timestamp="2016-06-05T09:49:06Z" changeset="39812803" uid="388774" user="drnoble">
    <nd ref="2531370062"/>
    <nd ref="2099869307"/>
    <nd ref="2955074471"/>
    <nd ref="32947500"/>
    <nd ref="2955074469"/>
    <nd ref="2099869247"/>
    <nd ref="2099869269"/>
    <nd ref="2955074474"/>
    <nd ref="32947501"/>
    <nd ref="3984803387"/>
    <nd ref="32947531"/>
    <nd ref="3984803450"/>
    <nd ref="3984804677"/>
    <nd ref="32947502"/>
    <nd ref="4226470994"/>
    <nd ref="32947503"/>
    <tag k="highway" v="residential"/>
    <tag k="lit" v="yes"/>
    <tag k="maxspeed" v="20 mph"/>
    <tag k="name" v="Redhall Drive"/>
  </way>
  <way id="246054891" version="6" timestamp="2020-10-17T11:30:01Z" changeset="92624749" uid="388774" user="drnoble">
    <nd ref="32947504"/>
    <nd ref="4226471051"/>
    <nd ref="3984804743"/>
    <nd ref="32947503"/>
    <nd ref="4226470977"/>
    <nd ref="4226470968"/>
    <nd ref="32947506"/>
    <nd ref="8016055509"/>
    <nd ref="2099869253"/>
    <nd ref="8016055508"/>
    <nd ref="4226470969"/>
    <nd ref="8016055507"/>
    <nd ref="32947507"/>
    <nd ref="8016055506"/>
    <nd ref="32947508"/>
    <nd ref="32947524"/>
    <nd ref="32947525"/>
    <nd ref="4226470960"/>
    <nd ref="32947526"/>
    <nd ref="4226470955"/>
    <nd ref="4226470965"/>
    <nd ref="32947527"/>
    <nd ref="4582029649"/>
    <nd ref="32947528"/>
    <tag k="highway" v="residential"/>
    <tag k="lit" v="yes"/>
    <tag k="maxspeed" v="20 mph"/>
    <tag k="name" v="Redhall Road"/>
  </way>
  <way id="246054892" version="4" timestamp="2017-08-17T21:30:47Z" changeset="51216902" uid="91225" user="tms13">
    <nd ref="31354864"/>
    <nd ref="3984803448"/>
    <nd ref="3984803449"/>
    <nd ref="2531370124"/>
    <tag k="highway" v="residential"/>
    <tag k="lit" v="yes"/>
    <tag k="maxspeed" v="20 mph"/>
    <tag k="name" v="Redhall Gardens"/>
    <tag k="source" v="survey"/>
  </way>
  <way id="250374462" version="6" timestamp="2021-03-12T11:09:34Z" changeset="100903488" uid="388774" user="drnoble">
    <nd ref="641733"/>
    <nd ref="2568403907"/>
    <nd ref="2568419439"/>
    <nd ref="8510034447"/>
    <nd ref="26945297"/>
    <nd ref="3709457663"/>
    <nd ref="3709457651"/>
    <tag k="highway" v="tertiary"/>
    <tag k="lit" v="yes"/>
    <tag k="maxspeed" v="30 mph"/>
    <tag k="name" v="Inglis Green Road"/>
    <tag k="oneway" v="yes"/>
    <tag k="surface" v="asphalt"/>
  </way>
  <way id="262666462" version="12" timestamp="2024-08-27T16:46:49Z" changeset="155841699" uid="21762849" user="jSeke">
    <nd ref="8964170370"/>
    <nd ref="614574"/>
    <nd ref="614573"/>
    <nd ref="614572"/>
    <nd ref="249698494"/>
    <nd ref="614571"/>
    <nd ref="10298238798"/>
    <nd ref="614570"/>
    <nd ref="3964531802"/>
    <nd ref="614569"/>
    <nd ref="506575753"/>
    <nd ref="3775169823"/>
    <nd ref="614568"/>
    <nd ref="3775169795"/>
    <nd ref="3775169786"/>
    <nd ref="29433790"/>
    <nd ref="3775169768"/>
    <nd ref="614567"/>
    <nd ref="614566"/>
    <nd ref="3775144617"/>
    <nd ref="45097282"/>
    <nd ref="3775144601"/>
    <nd ref="614565"/>
    <nd ref="45097494"/>
    <nd ref="1623948448"/>
    <nd ref="614564"/>
    <nd ref="7761471066"/>
    <nd ref="11097978935"/>
    <nd ref="614563"/>
    <nd ref="32174984"/>
    <tag k="cycleway" v="track"/>
    <tag k="highway" v="primary"/>
    <tag k="lanes" v="2"/>
    <tag k="lit" v="yes"/>
    <tag k="maxspeed" v="30 mph"/>
    <tag k="name" v="Lanark Road"/>
    <tag k="name:gd" v="Rathad Lannraig"/>
    <tag k="ref" v="A70"/>
    <tag k="sidewalk" v="both"/>
    <tag k="surface" v="asphalt"/>
  </way>
  <way id="262666464" version="8" timestamp="2024-08-27T16:46:49Z" changeset="155841699" uid="21762849" user="jSeke">
    <nd ref="2683351433"/>
    <nd ref="2683351435"/>
    <tag k="bridge" v="yes"/>
    <tag k="busway" v="lane"/>
    <tag k="cycleway" v="share_busway"/>
    <tag k="highway" v="primary"/>
    <tag k="lanes" v="2"/>
    <tag k="lanes:psv" v="1"/>
    <tag k="layer" v="1"/>
    <tag k="lit" v="yes"/>
    <tag k="maxspeed" v="30 mph"/>
    <tag k="maxweight:signed" v="no"/>
    <tag k="name" v="Lanark Road"/>
    <tag k="name:gd" v="Rathad Lannraig"/>
    <tag k="note" v="this section not physically segregated, but messy otherwise"/>
    <tag k="oneway" v="yes"/>
    <tag k="ref" v="A70"/>
    <tag k="source" v="survey"/>
    <tag k="surface" v="asphalt"/>
  </way>
  <way id="262666468" version="10" timestamp="2024-08-27T16:46:49Z" changeset="155841699" uid="21762849" user="jSeke">
    <nd ref="2683351435"/>
    <nd ref="2683351411"/>
    <nd ref="7658260833"/>
    <nd ref="641729"/>
    <tag k="busway" v="lane"/>
    <tag k="cycleway" v="share_busway"/>
    <tag k="highway" v="primary"/>
    <tag k="lanes" v="2"/>
    <tag k="lanes:psv" v="1"/>
    <tag k="lit" v="yes"/>
    <tag k="maxspeed" v="30 mph"/>
    <tag k="name" v="Lanark Road"/>
    <tag k="name:gd" v="Rathad Lannraig"/>
    <tag k="note" v="this section not physically segregated, but messy otherwise"/>
    <tag k="oneway" v="yes"/>
    <tag k="ref" v="A70"/>
    <tag k="source" v="survey"/>
    <tag k="surface" v="asphalt"/>
  </way>
  <way id="332940306" version="2" timestamp="2017-08-17T21:30:48Z" changeset="51216902" uid="91225" user="tms13">
    <nd ref="3400639804"/>
    <nd ref="3400639803"/>
    <nd ref="570011126"/>
    <nd ref="3400639799"/>
    <nd ref="3400639794"/>
    <tag k="highway" v="residential"/>
    <tag k="lanes" v="2"/>
    <tag k="lit" v="yes"/>
    <tag k="maxspeed" v="20 mph"/>
    <tag k="name" v="Inglis Green Rigg"/>
    <tag k="sidewalk" v="right"/>
    <tag k="surface" v="paving_stones"/>
  </way>
  <way id="366968523" version="8" timestamp="2024-08-27T16:46:49Z" changeset="155841699" uid="21762849" user="jSeke">
    <nd ref="614578"/>
    <nd ref="2568328913"/>
    <nd ref="614577"/>
    <nd ref="2568328916"/>
    <nd ref="2048747487"/>
    <tag k="busway:right" v="lane"/>
    <tag k="cycleway:left" v="track"/>
    <tag k="cycleway:right" v="share_busway"/>
    <tag k="highway" v="primary"/>
    <tag k="lanes" v="3"/>
    <tag k="lanes:backward" v="2"/>
    <tag k="lanes:forward" v="1"/>
    <tag k="maxspeed" v="30 mph"/>
    <tag k="name" v="Lanark Road"/>
    <tag k="name:gd" v="Rathad Lannraig"/>
    <tag k="ref" v="A70"/>
    <tag k="surface" v="asphalt"/>
  </way>
  <way id="378330003" version="3" timestamp="2023-08-08T06:10:36Z" changeset="139595231" uid="15678172" user="ADPaterson">
    <nd ref="3817448744"/>
    <nd ref="3817448738"/>
    <nd ref="3817448737"/>
    <nd ref="3817448735"/>
    <nd ref="3817448731"/>
    <nd ref="3817448734"/>
    <nd ref="3817448732"/>
    <nd ref="3817448736"/>
    <nd ref="3817448733"/>
    <nd ref="3817448739"/>
    <nd ref="3817448740"/>
    <nd ref="3817448743"/>
    <nd ref="3817448744"/>
    <tag k="addr:city" v="Edinburgh"/>
    <tag k="addr:housename" v="(prev. 323)"/>
    <tag k="addr:housenumber" v="345"/>
    <tag k="addr:postcode" v="EH14 2LQ"/>
    <tag k="addr:street" v="Lanark Road"/>
    <tag k="building" v="detached"/>
    <tag k="source" v="NLS_OS_Edinburgh_map_1940s;Bing"/>
  </way>
  <way id="378330013" version="2" timestamp="2023-07-24T20:53:20Z" changeset="138958871" uid="15678172" user="ADPaterson">
    <nd ref="3817448706"/>
    <nd ref="3817448699"/>
    <nd ref="3817448702"/>
    <nd ref="3817448696"/>
    <nd ref="3817448694"/>
    <nd ref="3817448691"/>
    <nd ref="3817448692"/>
    <nd ref="3817448688"/>
    <nd ref="3817448689"/>
    <nd ref="3817448687"/>
    <nd ref="3817448690"/>
    <nd ref="3817448693"/>
    <nd ref="3817448695"/>
    <nd ref="3817448701"/>
    <nd ref="3817448697"/>
    <nd ref="3817448698"/>
    <nd ref="3817448700"/>
    <nd ref="3817448703"/>
    <nd ref="3817448704"/>
    <nd ref="3817448705"/>
    <nd ref="3817448709"/>
    <nd ref="3817448710"/>
    <nd ref="3817448712"/>
    <nd ref="3817448714"/>
    <nd ref="3817448715"/>
    <nd ref="3817448716"/>
    <nd ref="3817448717"/>
    <nd ref="3817448720"/>
    <nd ref="3817448719"/>
    <nd ref="3817448718"/>
    <nd ref="3817448711"/>
    <nd ref="3817448713"/>
    <nd ref="3817448708"/>
    <nd ref="3817448707"/>
    <nd ref="3817448706"/>
    <tag k="addr:city" v="Edinburgh"/>
    <tag k="addr:housename" v="Troqueer (previously 327)"/>
    <tag k="addr:housenumber" v="347"/>
    <tag k="addr:postcode" v="EH14 2LQ"/>
    <tag k="addr:street" v="Lanark Road"/>
    <tag k="building" v="detached"/>
    <tag k="source" v="NLS_OS_Edinburgh_map_1940s;Bing"/>
  </way>
  <way id="378330043" version="4" timestamp="2023-08-08T06:10:36Z" changeset="139595231" uid="15678172" user="ADPaterson">
    <nd ref="3817448864"/>
    <nd ref="11098810288"/>
    <nd ref="3817448862"/>
    <nd ref="3817448861"/>
    <nd ref="4374207458"/>
    <nd ref="4374207457"/>
    <nd ref="3817448863"/>
    <nd ref="4374207459"/>
    <nd ref="4374207461"/>
    <nd ref="4374207463"/>
    <nd ref="4374207460"/>
    <nd ref="4374207462"/>
    <nd ref="3817448864"/>
    <tag k="addr:city" v="Edinburgh"/>
    <tag k="addr:housenumber" v="319"/>
    <tag k="addr:postcode" v="EH14 2LQ"/>
    <tag k="addr:street" v="Lanark Road"/>
    <tag k="building" v="detached"/>
    <tag k="source" v="NLS_OS_Edinburgh_map_1940s;Bing"/>
  </way>
  <way id="378330095" version="2" timestamp="2023-08-08T06:10:36Z" changeset="139595231" uid="15678172" user="ADPaterson">
    <nd ref="3817448730"/>
    <nd ref="3817448728"/>
    <nd ref="3817448726"/>
    <nd ref="3817448729"/>
    <nd ref="3817448730"/>
    <tag k="addr:city" v="Edinburgh"/>
    <tag k="addr:housenumber" v="345b"/>
    <tag k="addr:postcode" v="EH14 2LQ"/>
    <tag k="addr:street" v="Lanark Road"/>
    <tag k="building" v="house"/>
    <tag k="source" v="NLS_OS_Edinburgh_map_1940s;Bing"/>
  </way>
  <way id="378330114" version="4" timestamp="2023-08-07T20:05:49Z" changeset="139581840" uid="15678172" user="ADPaterson">
    <nd ref="3817448727"/>
    <nd ref="3817448724"/>
    <nd ref="3817448722"/>
    <nd ref="3817448723"/>
    <nd ref="3817448721"/>
    <nd ref="4374207405"/>
    <nd ref="11098012254"/>
    <nd ref="11098012255"/>
    <nd ref="11098012256"/>
    <nd ref="11098012253"/>
    <nd ref="4374207410"/>
    <nd ref="3817448725"/>
    <nd ref="3817448727"/>
    <tag k="addr:city" v="Edinburgh"/>
    <tag k="addr:housename" v="(prev. 325)"/>
    <tag k="addr:housenumber" v="343"/>
    <tag k="addr:postcode" v="EH14 2LQ"/>
    <tag k="addr:street" v="Lanark Road"/>
    <tag k="building" v="detached"/>
    <tag k="source" v="NLS_OS_Edinburgh_map_1940s;Bing"/>
  </way>
  <way id="393239241" version="2" timestamp="2018-04-04T12:33:41Z" changeset="57801909" uid="91225" user="tms13">
    <nd ref="531395596"/>
    <nd ref="3964531783"/>
    <tag k="highway" v="residential"/>
    <tag k="maxspeed" v="20 mph"/>
    <tag k="name" v="Dovecot Loan"/>
  </way>
  <way id="393239242" version="1" timestamp="2016-01-24T16:32:16Z" changeset="36779117" uid="388774" user="drnoble">
    <nd ref="3964531872"/>
    <nd ref="3964531861"/>
    <nd ref="3964531859"/>
    <nd ref="3964531869"/>
    <nd ref="3964531872"/>
    <tag k="addr:city" v="Edinburgh"/>
    <tag k="addr:housenumber" v="97"/>
    <tag k="addr:street" v="Lanark Road"/>
    <tag k="building" v="yes"/>
    <tag k="source" v="bing"/>
  </way>
  <way id="393239245" version="2" timestamp="2018-04-04T12:33:42Z" changeset="57801909" uid="91225" user="tms13">
    <nd ref="3964531911"/>
    <nd ref="3964531906"/>
    <tag k="highway" v="residential"/>
    <tag k="maxspeed" v="20 mph"/>
    <tag k="name" v="Redhall View"/>
  </way>
  <way id="397381551" version="3" timestamp="2020-07-25T14:12:45Z" changeset="88496915" uid="388774" user="drnoble">
    <nd ref="4001722558"/>
    <nd ref="4001722559"/>
    <nd ref="4583084451"/>
    <nd ref="4583084449"/>
    <nd ref="4583084450"/>
    <nd ref="4001722551"/>
    <nd ref="4001722552"/>
    <nd ref="4001722554"/>
    <nd ref="4001722555"/>
    <nd ref="4001722556"/>
    <nd ref="7746675253"/>
    <nd ref="4001722558"/>
    <tag k="addr:city" v="Edinburgh"/>
    <tag k="addr:housenumber" v="62"/>
    <tag k="addr:postcode" v="EH14 2DA"/>
    <tag k="addr:street" v="Longstone Street"/>
    <tag k="building" v="yes"/>
    <tag k="fhrs:id" v="661954"/>
    <tag k="name" v="Longstone Resource Centre"/>
  </way>
  <way id="439734706" version="2" timestamp="2023-08-07T19:36:00Z" changeset="139580885" uid="15678172" user="ADPaterson">
    <nd ref="4374207439"/>
    <nd ref="4374207440"/>
    <nd ref="4374207454"/>
    <nd ref="4374207453"/>
    <nd ref="4374207452"/>
    <nd ref="4374207451"/>
    <nd ref="4374207449"/>
    <nd ref="4374207450"/>
    <nd ref="4374207447"/>
    <nd ref="4374207448"/>
    <nd ref="4374207445"/>
    <nd ref="4374207446"/>
    <nd ref="4374207439"/>
    <tag k="addr:city" v="Edinburgh"/>
    <tag k="addr:housenumber" v="323"/>
    <tag k="addr:postcode" v="EH14 2LQ"/>
    <tag k="addr:street" v="Lanark Road"/>
    <tag k="building" v="detached"/>
    <tag k="source" v="Bing"/>
  </way>
  <way id="439734710" version="2" timestamp="2023-08-07T19:36:00Z" changeset="139580885" uid="15678172" user="ADPaterson">
    <nd ref="4374207435"/>
    <nd ref="4374207441"/>
    <nd ref="4374207438"/>
    <nd ref="4374207444"/>
    <nd ref="4374207442"/>
    <nd ref="4374207443"/>
    <nd ref="4374207437"/>
    <nd ref="4374207436"/>
    <nd ref="4374207434"/>
    <nd ref="4374207433"/>
    <nd ref="4374207432"/>
    <nd ref="4374207431"/>
    <nd ref="4374207419"/>
    <nd ref="4374207414"/>
    <nd ref="4374207423"/>
    <nd ref="4374207421"/>
    <nd ref="4374207435"/>
    <tag k="addr:city" v="Edinburgh"/>
    <tag k="addr:housenumber" v="325"/>
    <tag k="addr:postcode" v="EH14 2LQ"/>
    <tag k="addr:street" v="Lanark Road"/>
    <tag k="building" v="detached"/>
    <tag k="source" v="Bing"/>
  </way>
  <way id="439734730" version="3" timestamp="2023-08-07T20:38:15Z" changeset="139582896" uid="15678172" user="ADPaterson">
    <nd ref="4374206365"/>
    <nd ref="4374206376"/>
    <nd ref="4374206374"/>
    <nd ref="4374206368"/>
    <nd ref="11098087173"/>
    <nd ref="4374206364"/>
    <nd ref="4374206365"/>
    <tag k="addr:city" v="Edinburgh"/>
    <tag k="addr:housenumber" v="337"/>
    <tag k="addr:postcode" v="EH14 2LQ"/>
    <tag k="addr:street" v="Lanark Road"/>
    <tag k="building" v="detached"/>
    <tag k="source" v="Bing"/>
  </way>
  <way id="439734732" version="2" timestamp="2023-08-07T19:56:23Z" changeset="139581550" uid="15678172" user="ADPaterson">
    <nd ref="4374207470"/>
    <nd ref="4374207473"/>
    <nd ref="4374207472"/>
    <nd ref="4374207468"/>
    <nd ref="4374207471"/>
    <nd ref="4374207469"/>
    <nd ref="4374207470"/>
    <tag k="addr:city" v="Edinburgh"/>
    <tag k="addr:housenumber" v="305"/>
    <tag k="addr:postcode" v="EH14 2LL"/>
    <tag k="addr:street" v="Lanark Road"/>
    <tag k="building" v="detached"/>
    <tag k="source" v="Bing"/>
  </way>
  <way id="439734733" version="3" timestamp="2023-08-07T20:38:15Z" changeset="139582896" uid="15678172" user="ADPaterson">
    <nd ref="4374206382"/>
    <nd ref="4374206377"/>
    <nd ref="4374206375"/>
    <nd ref="11098087172"/>
    <nd ref="4374206371"/>
    <nd ref="11098087171"/>
    <nd ref="4374206373"/>
    <nd ref="4374206378"/>
    <nd ref="4374206382"/>
    <tag k="addr:city" v="Edinburgh"/>
    <tag k="addr:housenumber" v="339"/>
    <tag k="addr:postcode" v="EH14 2LQ"/>
    <tag k="addr:street" v="Lanark Road"/>
    <tag k="building" v="detached"/>
    <tag k="source" v="Bing"/>
  </way>
  <way id="439734738" version="3" timestamp="2023-08-07T20:05:49Z" changeset="139581840" uid="15678172" user="ADPaterson">
    <nd ref="4374207409"/>
    <nd ref="4374207398"/>
    <nd ref="4374206385"/>
    <nd ref="11098012246"/>
    <nd ref="11098012248"/>
    <nd ref="11098012249"/>
    <nd ref="4374207395"/>
    <nd ref="11098012247"/>
    <nd ref="4374207409"/>
    <tag k="addr:city" v="Edinburgh"/>
    <tag k="addr:housenumber" v="341"/>
    <tag k="addr:postcode" v="EH14 2LQ"/>
    <tag k="addr:street" v="Lanark Road"/>
    <tag k="building" v="detached"/>
    <tag k="source" v="Bing"/>
  </way>
  <way id="439734741" version="2" timestamp="2023-08-07T19:56:23Z" changeset="139581550" uid="15678172" user="ADPaterson">
    <nd ref="4374207488"/>
    <nd ref="4374207478"/>
    <nd ref="4374207484"/>
    <nd ref="4374207485"/>
    <nd ref="4374207490"/>
    <nd ref="4374207487"/>
    <nd ref="4374207489"/>
    <nd ref="4374207488"/>
    <tag k="addr:city" v="Edinburgh"/>
    <tag k="addr:housenumber" v="303"/>
    <tag k="addr:postcode" v="EH14 2LL"/>
    <tag k="addr:street" v="Lanark Road"/>
    <tag k="building" v="detached"/>
    <tag k="source" v="Bing"/>
  </way>
  <way id="439734743" version="2" timestamp="2023-08-07T19:36:00Z" changeset="139580885" uid="15678172" user="ADPaterson">
    <nd ref="4374206346"/>
    <nd ref="4374206350"/>
    <nd ref="4374206348"/>
    <nd ref="4374206351"/>
    <nd ref="4374206349"/>
    <nd ref="4374206347"/>
    <nd ref="4374206345"/>
    <nd ref="4374206344"/>
    <nd ref="4374206346"/>
    <tag k="addr:city" v="Edinburgh"/>
    <tag k="addr:housenumber" v="355"/>
    <tag k="addr:postcode" v="EH14 2LQ"/>
    <tag k="addr:street" v="Lanark Road"/>
    <tag k="building" v="detached"/>
    <tag k="source" v="Bing"/>
  </way>
  <way id="439734744" version="2" timestamp="2023-08-07T19:36:00Z" changeset="139580885" uid="15678172" user="ADPaterson">
    <nd ref="4374206355"/>
    <nd ref="4374206360"/>
    <nd ref="4374206358"/>
    <nd ref="4374206357"/>
    <nd ref="4374206356"/>
    <nd ref="4374206352"/>
    <nd ref="4374206354"/>
    <nd ref="4374206353"/>
    <nd ref="4374206355"/>
    <tag k="addr:city" v="Edinburgh"/>
    <tag k="addr:housenumber" v="353"/>
    <tag k="addr:postcode" v="EH14 2LQ"/>
    <tag k="addr:street" v="Lanark Road"/>
    <tag k="building" v="detached"/>
    <tag k="source" v="Bing"/>
  </way>
  <way id="439734746" version="2" timestamp="2023-08-07T19:56:23Z" changeset="139581550" uid="15678172" user="ADPaterson">
    <nd ref="4374207481"/>
    <nd ref="4374207474"/>
    <nd ref="4374207475"/>
    <nd ref="4374207476"/>
    <nd ref="4374207477"/>
    <nd ref="4374207483"/>
    <nd ref="4374207480"/>
    <nd ref="4374207486"/>
    <nd ref="4374207481"/>
    <tag k="addr:city" v="Edinburgh"/>
    <tag k="addr:housenumber" v="303a"/>
    <tag k="addr:postcode" v="EH14 2LL"/>
    <tag k="addr:street" v="Lanark Road"/>
    <tag k="building" v="detached"/>
    <tag k="source" v="Bing"/>
  </way>
  <way id="462877172" version="2" timestamp="2017-08-17T21:30:45Z" changeset="51216902" uid="91225" user="tms13">
    <nd ref="4582031300"/>
    <nd ref="4582031299"/>
    <tag k="highway" v="residential"/>
    <tag k="maxspeed" v="20 mph"/>
    <tag k="name" v="Peatville Gardens"/>
    <tag k="source" v="OS_OpenData_StreetView"/>
  </way>
  <way id="462988295" version="2" timestamp="2020-11-22T11:11:12Z" changeset="94575570" uid="388774" user="drnoble">
    <nd ref="4583085622"/>
    <nd ref="4583085623"/>
    <nd ref="4583085624"/>
    <nd ref="4583085625"/>
    <nd ref="4583085626"/>
    <nd ref="4583085627"/>
    <nd ref="4583085617"/>
    <nd ref="4583085618"/>
    <nd ref="4583085619"/>
    <nd ref="4583085620"/>
    <nd ref="4583085621"/>
    <nd ref="4583085611"/>
    <nd ref="4583085654"/>
    <nd ref="4583085634"/>
    <nd ref="4583085628"/>
    <nd ref="4583085629"/>
    <nd ref="4583085633"/>
    <nd ref="4583085656"/>
    <nd ref="4583085632"/>
    <nd ref="4583085652"/>
    <nd ref="4583085653"/>
    <nd ref="4583085651"/>
    <nd ref="4583085631"/>
    <nd ref="4583085616"/>
    <nd ref="4583085655"/>
    <nd ref="4583085610"/>
    <nd ref="4583085622"/>
    <tag k="addr:city" v="Edinburgh"/>
    <tag k="addr:housenumber" v="52"/>
    <tag k="addr:postcode" v="EH14 2DF"/>
    <tag k="addr:street" v="Kingsknowe Road North"/>
    <tag k="amenity" v="place_of_worship"/>
    <tag k="building" v="church"/>
    <tag k="building:levels" v="1"/>
    <tag k="name" v="Slateford Longstone Parish Church"/>
    <tag k="religion" v="christian"/>
    <tag k="source" v="Bing; OS_OpenData_StreetView"/>
  </way>
  <way id="462988364" version="3" timestamp="2020-10-17T11:30:01Z" changeset="92624749" uid="388774" user="drnoble">
    <nd ref="4583086283"/>
    <nd ref="4583086280"/>
    <nd ref="4583086281"/>
    <nd ref="8016048366"/>
    <nd ref="8016048365"/>
    <nd ref="8016048364"/>
    <nd ref="8016048362"/>
    <nd ref="8016048363"/>
    <nd ref="4583086282"/>
    <nd ref="4583086283"/>
    <tag k="addr:city" v="Edinburgh"/>
    <tag k="addr:housenumber" v="102,104"/>
    <tag k="addr:street" v="Kingsknowe Road North"/>
    <tag k="building" v="house"/>
    <tag k="source" v="Bing"/>
  </way>
  <way id="467655966" version="1" timestamp="2017-01-21T22:09:23Z" changeset="45359444" uid="388774" user="drnoble">
    <nd ref="4622608239"/>
    <nd ref="2455033954"/>
    <nd ref="2455033955"/>
    <nd ref="4622608240"/>
    <nd ref="4622608239"/>
    <tag k="building" v="retail"/>
    <tag k="building:levels" v="1"/>
    <tag k="name" v="Sainsbury's"/>
    <tag k="note" v="approx building location"/>
    <tag k="source" v="survey"/>
  </way>
  <way id="474361017" version="1" timestamp="2017-02-13T12:28:11Z" changeset="46045700" uid="2234934" user="sophiemccallum">
    <nd ref="1278299247"/>
    <nd ref="1278299221"/>
    <nd ref="1278299203"/>
    <nd ref="1278299251"/>
    <nd ref="1278299238"/>
    <nd ref="1278299195"/>
    <nd ref="1278299231"/>
    <nd ref="1278299184"/>
    <nd ref="1278299237"/>
    <nd ref="1278299220"/>
    <nd ref="1278299247"/>
    <tag k="building" v="club_house"/>
    <tag k="name" v="Slateford Bowling Club Pavilion"/>
    <tag k="source" v="Bing"/>
  </way>
  <way id="633711415" version="3" timestamp="2020-11-22T10:43:01Z" changeset="94574745" uid="388774" user="drnoble">
    <nd ref="5981774634"/>
    <nd ref="5981774635"/>
    <nd ref="5981774636"/>
    <nd ref="5981774637"/>
    <nd ref="5981774634"/>
    <tag k="building" v="service"/>
    <tag k="frequency" v="50"/>
    <tag k="height" v="2"/>
    <tag k="location" v="indoor"/>
    <tag k="name" v="Kingsknowe Place"/>
    <tag k="power" v="substation"/>
    <tag k="substation" v="minor_distribution"/>
  </way>
  <way id="633711416" version="3" timestamp="2023-04-09T10:35:21Z" changeset="134682117" uid="53626" user="jambamkin">
    <nd ref="5981774638"/>
    <nd ref="5981774639"/>
    <nd ref="5981774640"/>
    <nd ref="5981774641"/>
    <nd ref="5981774638"/>
    <tag k="building" v="service"/>
    <tag k="frequency" v="50"/>
    <tag k="location" v="indoor"/>
    <tag k="name" v="Kingsknowe Place 26"/>
    <tag k="operator" v="SP Energy Networks"/>
    <tag k="operator:wikidata" v="Q116022116"/>
    <tag k="power" v="substation"/>
    <tag k="substation" v="minor_distribution"/>
  </way>
  <way id="633711417" version="1" timestamp="2018-10-13T19:07:31Z" changeset="63492678" uid="1602151" user="friskiffla">
    <nd ref="5981774642"/>
    <nd ref="5981774643"/>
    <nd ref="5981774644"/>
    <nd ref="5981774645"/>
    <nd ref="5981774642"/>
    <tag k="building" v="service"/>
    <tag k="name" v="Kingsknowe Road North Local"/>
    <tag k="operator" v="SP Distribution"/>
    <tag k="power" v="substation"/>
  </way>
  <way id="799316111" version="1" timestamp="2020-05-03T10:02:45Z" changeset="84556202" uid="388774" user="drnoble">
    <nd ref="45068308"/>
    <nd ref="45069050"/>
    <tag k="highway" v="tertiary"/>
    <tag k="lanes" v="2"/>
    <tag k="lit" v="yes"/>
    <tag k="maxspeed" v="30 mph"/>
    <tag k="name" v="Longstone Road"/>
    <tag k="name:left" v="Longstone Cottages"/>
    <tag k="sidewalk" v="both"/>
    <tag k="surface" v="asphalt"/>
  </way>
  <way id="799316112" version="1" timestamp="2020-05-03T10:02:45Z" changeset="84556202" uid="388774" user="drnoble">
    <nd ref="7475585504"/>
    <nd ref="45068308"/>
    <tag k="highway" v="tertiary"/>
    <tag k="lanes" v="2"/>
    <tag k="lit" v="yes"/>
    <tag k="maxspeed" v="30 mph"/>
    <tag k="name" v="Longstone Road"/>
    <tag k="sidewalk" v="both"/>
    <tag k="surface" v="asphalt"/>
  </way>
  <way id="799316117" version="2" timestamp="2020-07-25T14:12:45Z" changeset="88496915" uid="388774" user="drnoble">
    <nd ref="7475585488"/>
    <nd ref="7475585487"/>
    <nd ref="7475585486"/>
    <nd ref="7475585485"/>
    <nd ref="7475585488"/>
    <tag k="building" v="service"/>
    <tag k="building:levels" v="1"/>
    <tag k="name" v="Longstone DG"/>
    <tag k="operator" v="Scotland Gas Networks"/>
  </way>
  <way id="799316121" version="1" timestamp="2020-05-03T10:02:45Z" changeset="84556202" uid="388774" user="drnoble">
    <nd ref="641775"/>
    <nd ref="7475585502"/>
    <nd ref="7475585504"/>
    <tag k="highway" v="tertiary"/>
    <tag k="lanes" v="1"/>
    <tag k="lit" v="yes"/>
    <tag k="maxspeed" v="30 mph"/>
    <tag k="name" v="Longstone Road"/>
    <tag k="oneway" v="yes"/>
    <tag k="sidewalk" v="left"/>
    <tag k="surface" v="asphalt"/>
  </way>
  <way id="799316122" version="1" timestamp="2020-05-03T10:02:45Z" changeset="84556202" uid="388774" user="drnoble">
    <nd ref="7475585504"/>
    <nd ref="7475585503"/>
    <nd ref="26945144"/>
    <tag k="highway" v="tertiary"/>
    <tag k="lanes" v="1"/>
    <tag k="lit" v="yes"/>
    <tag k="maxspeed" v="30 mph"/>
    <tag k="name" v="Longstone Road"/>
    <tag k="oneway" v="yes"/>
    <tag k="sidewalk" v="left"/>
    <tag k="surface" v="asphalt"/>
  </way>
  <way id="799316123" version="2" timestamp="2020-07-13T13:44:51Z" changeset="87927385" uid="53626" user="jambamkin">
    <nd ref="641768"/>
    <nd ref="7475585505"/>
    <nd ref="1002876"/>
    <tag k="highway" v="tertiary"/>
    <tag k="lanes" v="1"/>
    <tag k="lit" v="yes"/>
    <tag k="maxspeed" v="30 mph"/>
    <tag k="name" v="Murrayburn Road"/>
    <tag k="oneway" v="yes"/>
    <tag k="sidewalk" v="left"/>
    <tag k="surface" v="asphalt"/>
  </way>
  <way id="820169103" version="1" timestamp="2020-06-27T12:46:53Z" changeset="87225671" uid="388774" user="drnoble">
    <nd ref="7658519712"/>
    <nd ref="7658519710"/>
    <tag k="highway" v="residential"/>
    <tag k="lit" v="yes"/>
    <tag k="maxspeed" v="20 mph"/>
    <tag k="name" v="Longstone Park"/>
  </way>
  <way id="875806059" version="1" timestamp="2020-11-22T16:49:18Z" changeset="94590308" uid="388774" user="drnoble">
    <nd ref="1002876"/>
    <nd ref="1002875"/>
    <nd ref="1002874"/>
    <nd ref="1002873"/>
    <nd ref="6061329884"/>
    <nd ref="6061329885"/>
    <nd ref="6061329886"/>
    <nd ref="6061329887"/>
    <tag k="highway" v="tertiary"/>
    <tag k="lanes" v="2"/>
    <tag k="lit" v="yes"/>
    <tag k="maxspeed" v="30 mph"/>
    <tag k="name" v="Murrayburn Road"/>
    <tag k="sidewalk" v="both"/>
    <tag k="surface" v="asphalt"/>
  </way>
  <way id="937426359" version="1" timestamp="2021-04-30T21:16:26Z" changeset="103935847" uid="3432400" user="GinaroZ">
    <nd ref="3984803431"/>
    <nd ref="32947531"/>
    <tag k="highway" v="residential"/>
    <tag k="lit" v="yes"/>
    <tag k="maxspeed" v="20 mph"/>
    <tag k="name" v="Redhall Grove"/>
  </way>
  <way id="968912217" version="5" timestamp="2024-08-27T16:46:49Z" changeset="155841699" uid="21762849" user="jSeke">
    <nd ref="453032904"/>
    <nd ref="614575"/>
    <nd ref="306710132"/>
    <nd ref="8964170370"/>
    <tag k="busway:right" v="lane"/>
    <tag k="cycleway:left" v="track"/>
    <tag k="cycleway:right" v="share_busway"/>
    <tag k="highway" v="primary"/>
    <tag k="lanes" v="2"/>
    <tag k="lit" v="yes"/>
    <tag k="maxspeed" v="30 mph"/>
    <tag k="name" v="Lanark Road"/>
    <tag k="name:gd" v="Rathad Lannraig"/>
    <tag k="ref" v="A70"/>
    <tag k="sidewalk" v="both"/>
    <tag k="surface" v="asphalt"/>
  </way>
  <way id="970453668" version="1" timestamp="2021-08-04T20:21:22Z" changeset="109163480" uid="197905" user="FraserKp">
    <nd ref="641749"/>
    <nd ref="2577486143"/>
    <nd ref="258840131"/>
    <nd ref="2577486138"/>
    <nd ref="2577486142"/>
    <nd ref="641745"/>
    <nd ref="2577486140"/>
    <tag k="cycleway:left" v="track"/>
    <tag k="highway" v="tertiary"/>
    <tag k="lit" v="yes"/>
    <tag k="maxspeed" v="30 mph"/>
    <tag k="name" v="Inglis Green Road"/>
    <tag k="surface" v="asphalt"/>
  </way>
  <way id="970453669" version="1" timestamp="2021-08-04T20:21:22Z" changeset="109163480" uid="197905" user="FraserKp">
    <nd ref="641753"/>
    <nd ref="258840105"/>
    <nd ref="258840208"/>
    <nd ref="641749"/>
    <tag k="cycleway:left" v="track"/>
    <tag k="highway" v="tertiary"/>
    <tag k="lit" v="yes"/>
    <tag k="maxspeed" v="30 mph"/>
    <tag k="name" v="Longstone Road"/>
    <tag k="surface" v="asphalt"/>
  </way>
  <way id="1079074471" version="3" timestamp="2024-01-02T15:35:37Z" changeset="145803520" uid="388774" user="drnoble">
    <nd ref="11479183396"/>
    <nd ref="11479183395"/>
    <nd ref="531491083"/>
    <tag k="highway" v="residential"/>
    <tag k="name" v="Gaskell Street"/>
  </way>
  <way id="1167335769" version="1" timestamp="2023-04-29T10:59:49Z" changeset="135499584" uid="64920" user="shaydon">
    <nd ref="641768"/>
    <nd ref="2577483776"/>
    <nd ref="2577483773"/>
    <nd ref="2577501925"/>
    <nd ref="2577483779"/>
    <tag k="highway" v="tertiary"/>
    <tag k="junction" v="roundabout"/>
    <tag k="lanes" v="2"/>
    <tag k="lit" v="yes"/>
    <tag k="maxspeed" v="30 mph"/>
    <tag k="oneway" v="yes"/>
    <tag k="sidewalk" v="left"/>
    <tag k="surface" v="asphalt"/>
  </way>
  <way id="1167335770" version="1" timestamp="2023-04-29T10:59:49Z" changeset="135499584" uid="64920" user="shaydon">
    <nd ref="26945144"/>
    <nd ref="2577501928"/>
    <nd ref="26945152"/>
    <nd ref="641777"/>
    <nd ref="2577501930"/>
    <nd ref="2577501924"/>
    <nd ref="641767"/>
    <nd ref="641768"/>
    <tag k="highway" v="tertiary"/>
    <tag k="junction" v="roundabout"/>
    <tag k="lanes" v="2"/>
    <tag k="lit" v="yes"/>
    <tag k="maxspeed" v="30 mph"/>
    <tag k="oneway" v="yes"/>
    <tag k="sidewalk" v="left"/>
    <tag k="surface" v="asphalt"/>
  </way>
  <way id="1167335771" version="1" timestamp="2023-04-29T10:59:49Z" changeset="135499584" uid="64920" user="shaydon">
    <nd ref="641775"/>
    <nd ref="2577501929"/>
    <nd ref="2577501923"/>
    <nd ref="2577483784"/>
    <nd ref="26945153"/>
    <nd ref="26945144"/>
    <tag k="highway" v="tertiary"/>
    <tag k="junction" v="roundabout"/>
    <tag k="lanes" v="2"/>
    <tag k="lit" v="yes"/>
    <tag k="maxspeed" v="30 mph"/>
    <tag k="oneway" v="yes"/>
    <tag k="sidewalk" v="left"/>
    <tag k="surface" v="asphalt"/>
  </way>

</osm>
