<?xml version="1.0" encoding="UTF-8"?>
<osm version="0.6" generator="Overpass API 0.7.62.5 1bd436f1">
<note>The data included in this document is from www.openstreetmap.org. The data is made available under ODbL.</note>
<meta osm_base="2025-05-18T02:55:25Z" areas="2024-12-31T00:49:33Z"/>

  <node id="1955723" lat="48.1794436" lon="11.6040012" version="15" timestamp="2018-10-09T07:33:09Z" changeset="63334946" uid="8748" user="ToniE"/>
  <node id="1956058" lat="48.1860361" lon="11.6108286" version="14" timestamp="2021-02-09T18:26:01Z" changeset="98994326" uid="11895847" user="rigilk3nt">
    <tag k="TMC:cid_58:tabcd_1:Class" v="Point"/>
    <tag k="TMC:cid_58:tabcd_1:Direction" v="negative"/>
    <tag k="TMC:cid_58:tabcd_1:LCLversion" v="9.00"/>
    <tag k="TMC:cid_58:tabcd_1:LocationCode" v="27943"/>
    <tag k="TMC:cid_58:tabcd_1:PrevLocationCode" v="27942"/>
    <tag k="tmc" v="DE:27943"/>
  </node>
  <node id="19371337" lat="48.1859165" lon="11.6107016" version="16" timestamp="2021-02-09T18:26:01Z" changeset="98994326" uid="11895847" user="rigilk3nt">
    <tag k="TMC:cid_58:tabcd_1:Class" v="Point"/>
    <tag k="TMC:cid_58:tabcd_1:Direction" v="positive"/>
    <tag k="TMC:cid_58:tabcd_1:LCLversion" v="9.00"/>
    <tag k="TMC:cid_58:tabcd_1:LocationCode" v="27943"/>
    <tag k="TMC:cid_58:tabcd_1:PrevLocationCode" v="27942"/>
    <tag k="tmc" v="DE:27943"/>
  </node>
  <node id="20833101" lat="48.1856681" lon="11.6092675" version="7" timestamp="2015-08-19T22:10:40Z" changeset="33451436" uid="338611" user="marek kleciak"/>
  <node id="21495327" lat="48.1795069" lon="11.6038789" version="15" timestamp="2018-10-09T13:06:04Z" changeset="63345773" uid="8748" user="ToniE"/>
  <node id="34698133" lat="48.1822173" lon="11.5987215" version="11" timestamp="2015-08-25T16:39:54Z" changeset="33576261" uid="224490" user="Geo-Tobi"/>
  <node id="36645234" lat="48.1808669" lon="11.6011311" version="6" timestamp="2010-12-17T13:03:34Z" changeset="6685514" uid="29061" user="KPG"/>
  <node id="36645569" lat="48.1800355" lon="11.6028001" version="6" timestamp="2013-11-21T23:49:43Z" changeset="19047177" uid="13219" user="Pyrokrat"/>
  <node id="36645927" lat="48.1808657" lon="11.5981793" version="2" timestamp="2011-06-20T06:30:18Z" changeset="8491312" uid="338611" user="marek kleciak"/>
  <node id="36667719" lat="48.1834006" lon="11.5950948" version="7" timestamp="2013-02-12T22:28:59Z" changeset="15012430" uid="51782" user="maxbe">
    <tag k="highway" v="traffic_signals"/>
  </node>
  <node id="54795994" lat="48.1832684" lon="11.6080206" version="13" timestamp="2016-02-18T15:03:59Z" changeset="37289470" uid="360562" user="haytigran">
    <tag k="highway" v="traffic_signals"/>
  </node>
  <node id="260882000" lat="48.1865514" lon="11.6059995" version="9" timestamp="2011-11-30T10:44:58Z" changeset="9997687" uid="47544" user="SveLil">
    <tag k="highway" v="traffic_signals"/>
  </node>
  <node id="260902016" lat="48.1806460" lon="11.6050963" version="11" timestamp="2012-11-05T20:23:32Z" changeset="13765602" uid="429794" user="SennaHB"/>
  <node id="264778178" lat="48.1878848" lon="11.5912093" version="6" timestamp="2022-10-21T15:49:54Z" changeset="127891755" uid="2554996" user="Nanoilite"/>
  <node id="364891145" lat="48.1835821" lon="11.6020802" version="6" timestamp="2016-07-06T06:23:01Z" changeset="40514530" uid="8748" user="ToniE"/>
  <node id="509194971" lat="48.1852613" lon="11.6101072" version="5" timestamp="2012-03-01T00:26:48Z" changeset="10833613" uid="2675" user="Eckhart Wörner"/>
  <node id="577492202" lat="48.1842217" lon="11.5905239" version="6" timestamp="2022-10-04T17:48:32Z" changeset="127008409" uid="2554996" user="Nanoilite"/>
  <node id="1350613676" lat="48.1868313" lon="11.6025023" version="4" timestamp="2018-02-01T12:15:30Z" changeset="55963981" uid="8748" user="ToniE">
    <tag k="TMC:cid_58:tabcd_1:Class" v="Point"/>
    <tag k="TMC:cid_58:tabcd_1:Direction" v="both"/>
    <tag k="TMC:cid_58:tabcd_1:LCLversion" v="9.00"/>
    <tag k="TMC:cid_58:tabcd_1:LocationCode" v="42213"/>
    <tag k="TMC:cid_58:tabcd_1:NextLocationCode" v="42214"/>
  </node>
  <node id="1591378915" lat="48.1872418" lon="11.5988750" version="6" timestamp="2022-10-22T23:00:13Z" changeset="127940079" uid="2554996" user="Nanoilite"/>
  <node id="2024713802" lat="48.1865813" lon="11.6105445" version="2" timestamp="2015-08-19T22:10:41Z" changeset="33451436" uid="338611" user="marek kleciak"/>
  <node id="2613153257" lat="48.1878484" lon="11.5929059" version="5" timestamp="2022-10-22T21:01:04Z" changeset="127937959" uid="2554996" user="Nanoilite"/>
  <node id="3325992173" lat="48.1816303" lon="11.6061191" version="1" timestamp="2015-02-01T20:29:47Z" changeset="28553851" uid="115042" user="gnlpfth"/>
  <node id="4285687303" lat="48.1780356" lon="11.5951060" version="1" timestamp="2016-07-06T06:21:46Z" changeset="40514530" uid="8748" user="ToniE"/>
  <node id="4743469382" lat="48.1834442" lon="11.5949178" version="6" timestamp="2022-05-20T19:38:03Z" changeset="121258462" uid="139820" user="m-ride">
    <tag k="button_operated" v="yes"/>
    <tag k="crossing" v="traffic_signals"/>
    <tag k="crossing:island" v="no"/>
    <tag k="highway" v="crossing"/>
    <tag k="tactile_paving" v="no"/>
    <tag k="traffic_signals:sound" v="yes"/>
    <tag k="traffic_signals:vibration" v="no"/>
  </node>
  <node id="10121875306" lat="48.1878864" lon="11.5903341" version="1" timestamp="2022-10-22T21:01:04Z" changeset="127937959" uid="2554996" user="Nanoilite"/>
  <way id="3988006" version="22" timestamp="2024-05-26T08:22:58Z" changeset="151840402" uid="1849074" user="vmicho">
    <nd ref="4285687303"/>
    <nd ref="4285687311"/>
    <nd ref="1331975069"/>
    <nd ref="1102944522"/>
    <nd ref="20833097"/>
    <nd ref="4285687313"/>
    <nd ref="1102944525"/>
    <nd ref="4285687315"/>
    <nd ref="36702873"/>
    <nd ref="20833098"/>
    <nd ref="20833099"/>
    <tag k="bdouble" v="yes"/>
    <tag k="highway" v="motorway"/>
    <tag k="lanes" v="2"/>
    <tag k="lit" v="no"/>
    <tag k="maxheight" v="none"/>
    <tag k="maxspeed" v="60"/>
    <tag k="oneway" v="yes"/>
    <tag k="ref" v="A 9"/>
    <tag k="smoothness" v="good"/>
    <tag k="surface" v="asphalt"/>
    <tag k="tmc" v="DE:12722/12723"/>
  </way>
  <way id="4061819" version="25" timestamp="2025-01-11T18:18:53Z" changeset="161248961" uid="2815653" user="DaxServer">
    <nd ref="19371337"/>
    <nd ref="1653751779"/>
    <tag k="bicycle" v="use_sidepath"/>
    <tag k="foot" v="use_sidepath"/>
    <tag k="highway" v="primary"/>
    <tag k="lanes" v="4"/>
    <tag k="lit" v="yes"/>
    <tag k="maxspeed" v="50"/>
    <tag k="name" v="Föhringer Ring"/>
    <tag k="name:etymology:wikidata" v="Q267408"/>
    <tag k="oneway" v="yes"/>
    <tag k="postal_code" v="80805"/>
    <tag k="ref" v="St 2088"/>
    <tag k="sidewalk:left" v="no"/>
    <tag k="sidewalk:right" v="separate"/>
    <tag k="smoothness" v="good"/>
    <tag k="source" v="survey"/>
    <tag k="source:maxspeed" v="DE:urban"/>
    <tag k="surface" v="asphalt"/>
    <tag k="turn:lanes" v="left|left|through|through"/>
    <tag k="wikidata" v="Q23785496"/>
  </way>
  <way id="4080392" version="32" timestamp="2025-01-12T12:33:18Z" changeset="161268959" uid="2815653" user="DaxServer">
    <nd ref="1956058"/>
    <nd ref="645733152"/>
    <nd ref="19371337"/>
    <tag k="bicycle" v="use_sidepath"/>
    <tag k="dual_carriageway" v="yes"/>
    <tag k="foot" v="use_sidepath"/>
    <tag k="highway" v="secondary"/>
    <tag k="lanes" v="2"/>
    <tag k="lit" v="yes"/>
    <tag k="maxspeed" v="50"/>
    <tag k="name" v="Ungererstraße"/>
    <tag k="name:etymology:wikidata" v="Q54556659"/>
    <tag k="oneway" v="yes"/>
    <tag k="postal_code" v="80805"/>
    <tag k="ref" v="St 2350"/>
    <tag k="smoothness" v="good"/>
    <tag k="source:maxspeed" v="DE:urban"/>
    <tag k="surface" v="asphalt"/>
    <tag k="tmc" v="DE:30275"/>
    <tag k="wikidata" v="Q21640196"/>
  </way>
  <way id="4679052" version="19" timestamp="2023-01-13T21:20:58Z" changeset="131245967" uid="3075580" user="Linda89">
    <nd ref="2383205"/>
    <nd ref="1609071176"/>
    <nd ref="1609071151"/>
    <nd ref="1609071130"/>
    <nd ref="1609071112"/>
    <nd ref="1609071095"/>
    <nd ref="1609071090"/>
    <nd ref="1609071074"/>
    <nd ref="1609071055"/>
    <nd ref="1609071030"/>
    <nd ref="1609071007"/>
    <nd ref="1217171091"/>
    <nd ref="1609070979"/>
    <nd ref="1609070957"/>
    <nd ref="1217171030"/>
    <nd ref="1609070898"/>
    <nd ref="1609070855"/>
    <nd ref="20833089"/>
    <nd ref="2321979227"/>
    <nd ref="4285687321"/>
    <nd ref="1331988290"/>
    <nd ref="1331988249"/>
    <nd ref="4285687320"/>
    <nd ref="2383281"/>
    <nd ref="364891145"/>
    <tag k="bdouble" v="yes"/>
    <tag k="highway" v="motorway"/>
    <tag k="lanes" v="2"/>
    <tag k="lit" v="no"/>
    <tag k="maxspeed" v="80"/>
    <tag k="oneway" v="yes"/>
    <tag k="ref" v="A 9"/>
    <tag k="smoothness" v="good"/>
    <tag k="surface" v="asphalt"/>
    <tag k="tmc" v="DE:12722/12723"/>
  </way>
  <way id="4698891" version="14" timestamp="2022-08-01T19:12:20Z" changeset="124361223" uid="139820" user="m-ride">
    <nd ref="1955723"/>
    <nd ref="21495327"/>
    <tag k="cycleway:both" v="lane"/>
    <tag k="cycleway:both:lane" v="advisory"/>
    <tag k="highway" v="tertiary"/>
    <tag k="lanes" v="2"/>
    <tag k="lit" v="yes"/>
    <tag k="maxspeed" v="50"/>
    <tag k="name" v="Domagkstraße"/>
    <tag k="postal_code" v="80805"/>
    <tag k="sidewalk" v="no"/>
    <tag k="smoothness" v="good"/>
    <tag k="surface" v="asphalt"/>
  </way>
  <way id="4698892" version="31" timestamp="2023-06-30T08:11:18Z" changeset="137947343" uid="12189872" user="MunichMapper99">
    <nd ref="21495327"/>
    <nd ref="502554055"/>
    <nd ref="621102799"/>
    <nd ref="9440348768"/>
    <nd ref="502554049"/>
    <nd ref="7659077289"/>
    <nd ref="36645569"/>
    <nd ref="264026817"/>
    <nd ref="2708987516"/>
    <nd ref="3932228375"/>
    <nd ref="36644738"/>
    <nd ref="36645234"/>
    <tag k="class:bicycle" v="-1"/>
    <tag k="cycleway:left" v="lane"/>
    <tag k="cycleway:left:lane" v="exclusive"/>
    <tag k="highway" v="tertiary"/>
    <tag k="lanes" v="2"/>
    <tag k="lit" v="yes"/>
    <tag k="maxspeed" v="50"/>
    <tag k="maxspeed:conditional" v="30 @ (Mo-Fr 07:00-18:00; PH off)"/>
    <tag k="name" v="Domagkstraße"/>
    <tag k="postal_code" v="80805"/>
    <tag k="sidewalk" v="separate"/>
    <tag k="smoothness" v="good"/>
    <tag k="surface" v="asphalt"/>
  </way>
  <way id="4828816" version="17" timestamp="2025-03-23T08:39:01Z" changeset="163976023" uid="44217" user="kjon">
    <nd ref="260902016"/>
    <nd ref="54795844"/>
    <nd ref="372811221"/>
    <nd ref="3934698647"/>
    <nd ref="54795946"/>
    <nd ref="1717957778"/>
    <nd ref="506827194"/>
    <tag k="bicycle" v="yes"/>
    <tag k="highway" v="residential"/>
    <tag k="lit" v="yes"/>
    <tag k="maxspeed" v="30"/>
    <tag k="name" v="Ludwig-Merk-Straße"/>
    <tag k="parking:right" v="yes"/>
    <tag k="parking:right:orientation" v="parallel"/>
    <tag k="postal_code" v="80805"/>
    <tag k="sidewalk" v="both"/>
    <tag k="smoothness" v="good"/>
    <tag k="surface" v="asphalt"/>
  </way>
  <way id="5077515" version="33" timestamp="2023-11-01T10:35:58Z" changeset="143466852" uid="6285042" user="Biclmont">
    <nd ref="1956061"/>
    <nd ref="987024568"/>
    <nd ref="1271468009"/>
    <tag k="class:bicycle" v="-1"/>
    <tag k="cycleway:both" v="lane"/>
    <tag k="cycleway:both:lane" v="advisory"/>
    <tag k="foot" v="use_sidepath"/>
    <tag k="highway" v="tertiary"/>
    <tag k="lanes" v="2"/>
    <tag k="lit" v="yes"/>
    <tag k="maxspeed" v="50"/>
    <tag k="name" v="Domagkstraße"/>
    <tag k="postal_code" v="80807"/>
    <tag k="sidewalk:both" v="separate"/>
    <tag k="sidewalk:both:surface" v="paving_stones"/>
    <tag k="smoothness" v="excellent"/>
    <tag k="surface" v="asphalt"/>
  </way>
  <way id="5214443" version="13" timestamp="2023-11-04T11:28:10Z" changeset="143608784" uid="18493611" user="MunichWays">
    <nd ref="36645569"/>
    <nd ref="1042772363"/>
    <nd ref="3456076246"/>
    <nd ref="3456076227"/>
    <nd ref="1865512837"/>
    <nd ref="36645649"/>
    <nd ref="36651336"/>
    <nd ref="503663445"/>
    <nd ref="36645651"/>
    <tag k="class:bicycle" v="1"/>
    <tag k="highway" v="residential"/>
    <tag k="lit" v="yes"/>
    <tag k="maxspeed" v="30"/>
    <tag k="name" v="Garchinger Straße"/>
    <tag k="postal_code" v="80805"/>
    <tag k="sidewalk" v="both"/>
    <tag k="sidewalk:both:surface" v="paving_stones"/>
    <tag k="smoothness" v="good"/>
    <tag k="surface" v="asphalt"/>
  </way>
  <way id="5215660" version="22" timestamp="2025-04-06T16:26:40Z" changeset="164599420" uid="137242" user="Rainero">
    <nd ref="34698133"/>
    <nd ref="954921657"/>
    <nd ref="36667864"/>
    <tag k="cycleway:right" v="no"/>
    <tag k="highway" v="residential"/>
    <tag k="lane_markings" v="no"/>
    <tag k="lit" v="yes"/>
    <tag k="maxspeed" v="50"/>
    <tag k="name" v="Walter-Gropius-Straße"/>
    <tag k="name:etymology:wikidata" v="Q61071"/>
    <tag k="name:etymology:wikipedia" v="de:Walter Gropius"/>
    <tag k="oneway" v="no"/>
    <tag k="parking:left" v="no"/>
    <tag k="parking:right" v="lane"/>
    <tag k="parking:right:orientation" v="parallel"/>
    <tag k="smoothness" v="excellent"/>
    <tag k="source:maxspeed" v="DE:urban"/>
    <tag k="surface" v="asphalt"/>
  </way>
  <way id="5215673" version="14" timestamp="2022-08-01T19:12:15Z" changeset="124361226" uid="139820" user="m-ride">
    <nd ref="36667719"/>
    <nd ref="1042772234"/>
    <tag k="cycleway:both" v="no"/>
    <tag k="highway" v="residential"/>
    <tag k="lanes" v="2"/>
    <tag k="lit" v="no"/>
    <tag k="maxspeed" v="50"/>
    <tag k="maxspeed:source" v="DE:urban"/>
    <tag k="name" v="Alfred-Arndt-Straße"/>
    <tag k="postal_code" v="80807"/>
    <tag k="sidewalk" v="both"/>
    <tag k="sidewalk:both:surface" v="paving_stones"/>
    <tag k="smoothness" v="good"/>
    <tag k="surface" v="paving_stones"/>
  </way>
  <way id="5490604" version="24" timestamp="2025-03-22T21:16:15Z" changeset="163964538" uid="44217" user="kjon">
    <nd ref="264778178"/>
    <nd ref="40151063"/>
    <nd ref="767274241"/>
    <nd ref="10121875288"/>
    <nd ref="2973608068"/>
    <nd ref="2973608071"/>
    <nd ref="8652985081"/>
    <nd ref="8652985082"/>
    <nd ref="40170529"/>
    <nd ref="2916489106"/>
    <nd ref="2916488609"/>
    <nd ref="3664744798"/>
    <nd ref="2916488610"/>
    <nd ref="2916488608"/>
    <tag k="highway" v="unclassified"/>
    <tag k="lane_markings" v="no"/>
    <tag k="lit" v="yes"/>
    <tag k="maxspeed:type" v="DE:urban"/>
    <tag k="name" v="Am Nordring"/>
    <tag k="parking:both" v="yes"/>
    <tag k="parking:both:orientation" v="parallel"/>
    <tag k="sidewalk" v="separate"/>
    <tag k="surface" v="asphalt"/>
  </way>
  <way id="5491698" version="29" timestamp="2023-11-04T11:28:10Z" changeset="143608784" uid="18493611" user="MunichWays">
    <nd ref="40188656"/>
    <nd ref="10122426177"/>
    <nd ref="7459254369"/>
    <nd ref="3712520355"/>
    <nd ref="10122425888"/>
    <nd ref="7681342278"/>
    <nd ref="5514754126"/>
    <nd ref="7519103936"/>
    <nd ref="7519103934"/>
    <nd ref="10122425596"/>
    <nd ref="10122425595"/>
    <nd ref="5779617545"/>
    <nd ref="5779619051"/>
    <nd ref="3189824021"/>
    <nd ref="10122425503"/>
    <nd ref="7519103931"/>
    <nd ref="40188681"/>
    <nd ref="2613153266"/>
    <nd ref="2613153255"/>
    <nd ref="2613153264"/>
    <nd ref="40188687"/>
    <tag k="class:bicycle" v="1"/>
    <tag k="highway" v="residential"/>
    <tag k="lit" v="yes"/>
    <tag k="maxspeed" v="30"/>
    <tag k="name" v="Max-Bill-Straße"/>
    <tag k="sidewalk" v="separate"/>
    <tag k="smoothness" v="good"/>
    <tag k="surface" v="asphalt"/>
    <tag k="zone:maxspeed" v="DE:30"/>
  </way>
  <way id="5492294" version="31" timestamp="2025-03-22T21:16:15Z" changeset="163964538" uid="44217" user="kjon">
    <nd ref="40194953"/>
    <nd ref="40194975"/>
    <nd ref="2970722234"/>
    <nd ref="40188842"/>
    <nd ref="4281215286"/>
    <nd ref="7273504240"/>
    <nd ref="40188838"/>
    <nd ref="2970722233"/>
    <nd ref="2970722133"/>
    <nd ref="2970641336"/>
    <nd ref="5315215751"/>
    <nd ref="40188830"/>
    <nd ref="9812553791"/>
    <nd ref="9812553789"/>
    <nd ref="5222333002"/>
    <nd ref="9812553797"/>
    <nd ref="9812553794"/>
    <nd ref="4016876500"/>
    <tag k="class:bicycle" v="1"/>
    <tag k="highway" v="residential"/>
    <tag k="lit" v="yes"/>
    <tag k="maxspeed" v="30"/>
    <tag k="name" v="Margarete-Schütte-Lihotzky-Straße"/>
    <tag k="oneway" v="no"/>
    <tag k="parking:both" v="yes"/>
    <tag k="parking:both:orientation" v="parallel"/>
    <tag k="parking:condition:both" v="disc"/>
    <tag k="parking:condition:both:maxstay" v="2h"/>
    <tag k="parking:condition:both:time_interval" v="Mo-Fr 09:00-18:00"/>
    <tag k="sidewalk" v="both"/>
    <tag k="sidewalk:both:surface" v="paving_stones"/>
    <tag k="smoothness" v="excellent"/>
    <tag k="surface" v="asphalt"/>
    <tag k="zone:maxspeed" v="DE:30"/>
  </way>
  <way id="7950819" version="28" timestamp="2025-03-10T14:00:09Z" changeset="163444039" uid="16061279" user="YellowSoul">
    <nd ref="1350613676"/>
    <nd ref="6779977163"/>
    <nd ref="2382828"/>
    <tag k="cycleway:both" v="separate"/>
    <tag k="highway" v="residential"/>
    <tag k="lanes" v="3"/>
    <tag k="lanes:backward" v="2"/>
    <tag k="lit" v="yes"/>
    <tag k="maxspeed" v="50"/>
    <tag k="name" v="Lilienthalallee"/>
    <tag k="postal_code" v="80807"/>
    <tag k="sidewalk" v="no"/>
    <tag k="smoothness" v="intermediate"/>
    <tag k="surface" v="asphalt"/>
  </way>
  <way id="13879589" version="24" timestamp="2025-04-06T16:26:40Z" changeset="164599420" uid="137242" user="Rainero">
    <nd ref="34698133"/>
    <nd ref="314203062"/>
    <nd ref="987024526"/>
    <nd ref="1956061"/>
    <tag k="class:bicycle" v="-1"/>
    <tag k="cycleway:both" v="lane"/>
    <tag k="cycleway:both:lane" v="advisory"/>
    <tag k="foot" v="use_sidepath"/>
    <tag k="highway" v="tertiary"/>
    <tag k="lanes" v="2"/>
    <tag k="lit" v="yes"/>
    <tag k="maxspeed" v="50"/>
    <tag k="name" v="Domagkstraße"/>
    <tag k="postal_code" v="80807"/>
    <tag k="sidewalk:both" v="separate"/>
    <tag k="sidewalk:both:surface" v="paving_stones"/>
    <tag k="smoothness" v="good"/>
    <tag k="source:maxspeed" v="DE:urban"/>
    <tag k="surface" v="asphalt"/>
  </way>
  <way id="24380714" version="18" timestamp="2023-01-06T09:54:44Z" changeset="130939719" uid="4367142" user="FelixWie">
    <nd ref="2004070820"/>
    <nd ref="264549992"/>
    <nd ref="264542014"/>
    <nd ref="2742926489"/>
    <nd ref="2004070628"/>
    <nd ref="7114572055"/>
    <nd ref="7114572059"/>
    <nd ref="7114572058"/>
    <nd ref="1841664882"/>
    <nd ref="2004070528"/>
    <nd ref="1841664881"/>
    <nd ref="1841664880"/>
    <nd ref="1841664879"/>
    <nd ref="2004070754"/>
    <nd ref="2004070833"/>
    <nd ref="2004070815"/>
    <nd ref="2004070793"/>
    <nd ref="1217170926"/>
    <nd ref="2004070750"/>
    <nd ref="1217171107"/>
    <nd ref="2004070788"/>
    <nd ref="264542017"/>
    <nd ref="2004070713"/>
    <nd ref="3316946829"/>
    <nd ref="3316946827"/>
    <nd ref="2004070715"/>
    <nd ref="264549993"/>
    <nd ref="264542018"/>
    <tag k="cycleway:both" v="no"/>
    <tag k="highway" v="residential"/>
    <tag k="lane_markings" v="no"/>
    <tag k="lit" v="yes"/>
    <tag k="maxspeed:type" v="DE:urban"/>
    <tag k="name" v="Joseph-Dollinger-Bogen"/>
    <tag k="postal_code" v="80807"/>
    <tag k="surface" v="asphalt"/>
  </way>
  <way id="26824377" version="19" timestamp="2025-01-12T12:33:18Z" changeset="161268959" uid="2815653" user="DaxServer">
    <nd ref="264668533"/>
    <nd ref="509194971"/>
    <tag k="bicycle" v="use_sidepath"/>
    <tag k="foot" v="use_sidepath"/>
    <tag k="hgv" v="delivery"/>
    <tag k="highway" v="secondary"/>
    <tag k="lanes" v="4"/>
    <tag k="lit" v="yes"/>
    <tag k="maxspeed" v="50"/>
    <tag k="name" v="Ungererstraße"/>
    <tag k="name:etymology:wikidata" v="Q54556659"/>
    <tag k="postal_code" v="80805"/>
    <tag k="ref" v="St 2350"/>
    <tag k="sidewalk" v="separate"/>
    <tag k="smoothness" v="good"/>
    <tag k="surface" v="asphalt"/>
    <tag k="tmc" v="DE:20566/30275"/>
    <tag k="wikidata" v="Q21640196"/>
  </way>
  <way id="26824417" version="32" timestamp="2025-03-23T08:39:01Z" changeset="163976023" uid="44217" user="kjon">
    <nd ref="21495327"/>
    <nd ref="1024673962"/>
    <nd ref="5969138235"/>
    <nd ref="5969138229"/>
    <nd ref="36650811"/>
    <tag k="bicycle" v="use_sidepath"/>
    <tag k="foot" v="use_sidepath"/>
    <tag k="hgv" v="delivery"/>
    <tag k="highway" v="secondary"/>
    <tag k="lanes" v="2"/>
    <tag k="lit" v="yes"/>
    <tag k="maxspeed" v="50"/>
    <tag k="name" v="Ungererstraße"/>
    <tag k="name:etymology:wikidata" v="Q54556659"/>
    <tag k="oneway" v="yes"/>
    <tag k="parking:right" v="yes"/>
    <tag k="parking:right:orientation" v="parallel"/>
    <tag k="postal_code" v="80805"/>
    <tag k="ref" v="St 2350"/>
    <tag k="sidewalk:left" v="no"/>
    <tag k="sidewalk:right" v="separate"/>
    <tag k="surface" v="asphalt"/>
    <tag k="tmc" v="DE:20566/30275"/>
    <tag k="wikidata" v="Q21640196"/>
  </way>
  <way id="26825622" version="28" timestamp="2025-03-23T08:39:01Z" changeset="163976023" uid="44217" user="kjon">
    <nd ref="1955723"/>
    <nd ref="1024673966"/>
    <nd ref="1609995526"/>
    <nd ref="54795844"/>
    <nd ref="54795964"/>
    <nd ref="3325997176"/>
    <nd ref="2026013480"/>
    <tag k="bicycle" v="use_sidepath"/>
    <tag k="foot" v="use_sidepath"/>
    <tag k="hgv" v="delivery"/>
    <tag k="highway" v="secondary"/>
    <tag k="lanes" v="2"/>
    <tag k="lit" v="yes"/>
    <tag k="maxspeed" v="50"/>
    <tag k="name" v="Ungererstraße"/>
    <tag k="name:etymology:wikidata" v="Q54556659"/>
    <tag k="oneway" v="yes"/>
    <tag k="parking:left" v="no"/>
    <tag k="parking:right" v="lane"/>
    <tag k="parking:right:orientation" v="parallel"/>
    <tag k="postal_code" v="80805"/>
    <tag k="ref" v="St 2350"/>
    <tag k="sidewalk:left" v="no"/>
    <tag k="sidewalk:right" v="separate"/>
    <tag k="surface" v="asphalt"/>
    <tag k="tmc" v="DE:20566/30275"/>
    <tag k="wikidata" v="Q21640196"/>
  </way>
  <way id="32457953" version="13" timestamp="2021-04-18T18:25:34Z" changeset="103149525" uid="9558512" user="MrFivon">
    <nd ref="364891145"/>
    <nd ref="4285687318"/>
    <nd ref="1331988255"/>
    <nd ref="36702883"/>
    <nd ref="1102944524"/>
    <nd ref="2382295"/>
    <nd ref="1102944523"/>
    <nd ref="364891146"/>
    <nd ref="4285687316"/>
    <nd ref="1102944527"/>
    <nd ref="4285687314"/>
    <nd ref="4285687312"/>
    <nd ref="1080618025"/>
    <tag k="bdouble" v="yes"/>
    <tag k="highway" v="motorway"/>
    <tag k="lanes" v="2"/>
    <tag k="lit" v="no"/>
    <tag k="maxheight" v="none"/>
    <tag k="maxspeed" v="60"/>
    <tag k="oneway" v="yes"/>
    <tag k="ref" v="A 9"/>
    <tag k="surface" v="asphalt"/>
    <tag k="tmc" v="DE:12722/12723"/>
  </way>
  <way id="32960504" version="44" timestamp="2025-01-05T17:30:32Z" changeset="161030081" uid="2815653" user="DaxServer">
    <nd ref="2613153257"/>
    <nd ref="2507526102"/>
    <nd ref="241776599"/>
    <nd ref="2004070581"/>
    <nd ref="2004070487"/>
    <nd ref="2708987093"/>
    <nd ref="2004070521"/>
    <tag k="bicycle" v="use_sidepath"/>
    <tag k="foot" v="use_sidepath"/>
    <tag k="highway" v="primary"/>
    <tag k="lanes" v="2"/>
    <tag k="lit" v="yes"/>
    <tag k="maxspeed" v="60"/>
    <tag k="name" v="Frankfurter Ring"/>
    <tag k="name:etymology:wikidata" v="Q1794"/>
    <tag k="oneway" v="yes"/>
    <tag k="postal_code" v="80807"/>
    <tag k="shoulder" v="no"/>
    <tag k="sidewalk:left" v="no"/>
    <tag k="sidewalk:right" v="separate"/>
    <tag k="smoothness" v="good"/>
    <tag k="surface" v="asphalt"/>
    <tag k="tmc" v="DE:27942/27943"/>
    <tag k="wikidata" v="Q21201006"/>
  </way>
  <way id="34635251" version="7" timestamp="2022-05-14T09:36:52Z" changeset="120971092" uid="519916" user="googlenaut">
    <nd ref="402776484"/>
    <nd ref="1375973069"/>
    <nd ref="1375973068"/>
    <nd ref="402776485"/>
    <nd ref="402776486"/>
    <nd ref="402776487"/>
    <nd ref="402776488"/>
    <nd ref="402776489"/>
    <nd ref="402776490"/>
    <nd ref="402776491"/>
    <nd ref="402776484"/>
    <tag k="addr:city" v="München"/>
    <tag k="addr:country" v="DE"/>
    <tag k="addr:housenumber" v="222"/>
    <tag k="addr:postcode" v="80807"/>
    <tag k="addr:street" v="Frankfurter Ring"/>
    <tag k="building" v="office"/>
    <tag k="contact:phone" v="+49 89 323610"/>
    <tag k="contact:website" v="https://www.caliqua-bormann.de"/>
    <tag k="name" v="CALIQUA-BORMANN GmbH&amp;Co. KG"/>
    <tag k="note" v="Wärme-und Klimatechnik und VdS anerkannter Errichter für Sprinkleranlagen"/>
    <tag k="old_website" v="http://ca-bo.de/"/>
  </way>
  <way id="34635253" version="5" timestamp="2021-06-17T08:50:57Z" changeset="106515697" uid="235018" user="uwe-s">
    <nd ref="402776492"/>
    <nd ref="402776493"/>
    <nd ref="402776494"/>
    <nd ref="402776495"/>
    <nd ref="402776496"/>
    <nd ref="402776497"/>
    <nd ref="402776498"/>
    <nd ref="402776499"/>
    <nd ref="402776492"/>
    <tag k="addr:city" v="München"/>
    <tag k="addr:country" v="DE"/>
    <tag k="addr:housenumber" v="224"/>
    <tag k="addr:postcode" v="80807"/>
    <tag k="addr:street" v="Frankfurter Ring"/>
    <tag k="building" v="commercial"/>
    <tag k="building:levels" v="3"/>
    <tag k="roof:colour" v="grey"/>
    <tag k="roof:levels" v="1"/>
    <tag k="roof:shape" v="flat"/>
  </way>
  <way id="34635254" version="11" timestamp="2021-06-28T17:12:48Z" changeset="107101475" uid="235018" user="uwe-s">
    <nd ref="402776500"/>
    <nd ref="402776501"/>
    <nd ref="402776506"/>
    <nd ref="402776507"/>
    <nd ref="402776504"/>
    <nd ref="3437230023"/>
    <nd ref="1375973064"/>
    <nd ref="402776500"/>
    <tag k="addr:city" v="München"/>
    <tag k="addr:country" v="DE"/>
    <tag k="addr:housenumber" v="220"/>
    <tag k="addr:postcode" v="80807"/>
    <tag k="addr:street" v="Frankfurter Ring"/>
    <tag k="building" v="retail"/>
    <tag k="building:levels" v="1"/>
    <tag k="roof:levels" v="1"/>
    <tag k="roof:shape" v="hipped"/>
  </way>
  <way id="35078625" version="20" timestamp="2025-01-05T17:30:32Z" changeset="161030081" uid="2815653" user="DaxServer">
    <nd ref="411506077"/>
    <nd ref="6819648192"/>
    <nd ref="260902003"/>
    <nd ref="2742926488"/>
    <tag k="bicycle" v="use_sidepath"/>
    <tag k="foot" v="use_sidepath"/>
    <tag k="highway" v="primary"/>
    <tag k="lanes" v="3"/>
    <tag k="lit" v="yes"/>
    <tag k="maxheight" v="none"/>
    <tag k="maxspeed" v="50"/>
    <tag k="name" v="Frankfurter Ring"/>
    <tag k="name:etymology:wikidata" v="Q1794"/>
    <tag k="oneway" v="yes"/>
    <tag k="postal_code" v="80807"/>
    <tag k="sidewalk:left" v="no"/>
    <tag k="sidewalk:right" v="separate"/>
    <tag k="smoothness" v="good"/>
    <tag k="surface" v="asphalt"/>
    <tag k="tmc" v="DE:27942/27943"/>
    <tag k="turn:lanes" v="left|through|through;right"/>
    <tag k="wikidata" v="Q21201006"/>
  </way>
  <way id="41219845" version="3" timestamp="2021-03-21T16:26:07Z" changeset="101447350" uid="78613" user="heilbron">
    <nd ref="503663543"/>
    <nd ref="503663546"/>
    <nd ref="503663548"/>
    <nd ref="503663551"/>
    <nd ref="503663543"/>
    <tag k="addr:city" v="München"/>
    <tag k="addr:country" v="DE"/>
    <tag k="addr:housenumber" v="215"/>
    <tag k="addr:postcode" v="80805"/>
    <tag k="addr:street" v="Ungererstraße"/>
    <tag k="building" v="service"/>
  </way>
  <way id="41542371" version="18" timestamp="2025-01-12T12:33:18Z" changeset="161268959" uid="2815653" user="DaxServer">
    <nd ref="509194971"/>
    <nd ref="1653751759"/>
    <nd ref="1653751763"/>
    <tag k="bicycle" v="use_sidepath"/>
    <tag k="dual_carriageway" v="yes"/>
    <tag k="foot" v="use_sidepath"/>
    <tag k="hgv" v="delivery"/>
    <tag k="highway" v="secondary"/>
    <tag k="lanes" v="3"/>
    <tag k="lit" v="yes"/>
    <tag k="maxspeed" v="50"/>
    <tag k="name" v="Ungererstraße"/>
    <tag k="name:etymology:wikidata" v="Q54556659"/>
    <tag k="oneway" v="yes"/>
    <tag k="postal_code" v="80805"/>
    <tag k="ref" v="St 2350"/>
    <tag k="sidewalk:left" v="no"/>
    <tag k="sidewalk:right" v="separate"/>
    <tag k="smoothness" v="excellent"/>
    <tag k="surface" v="asphalt"/>
    <tag k="tmc" v="DE:20566/30275"/>
    <tag k="turn:lanes" v="left|through|through;slight_right"/>
    <tag k="wikidata" v="Q21640196"/>
  </way>
  <way id="41542373" version="18" timestamp="2025-01-12T12:33:18Z" changeset="161268959" uid="2815653" user="DaxServer">
    <nd ref="19371337"/>
    <nd ref="264549996"/>
    <nd ref="1653751764"/>
    <tag k="bicycle" v="use_sidepath"/>
    <tag k="dual_carriageway" v="yes"/>
    <tag k="foot" v="use_sidepath"/>
    <tag k="hgv" v="delivery"/>
    <tag k="highway" v="secondary"/>
    <tag k="lanes" v="2"/>
    <tag k="lit" v="yes"/>
    <tag k="maxspeed" v="50"/>
    <tag k="name" v="Ungererstraße"/>
    <tag k="name:etymology:wikidata" v="Q54556659"/>
    <tag k="oneway" v="yes"/>
    <tag k="postal_code" v="80805"/>
    <tag k="ref" v="St 2350"/>
    <tag k="sidewalk:left" v="no"/>
    <tag k="sidewalk:right" v="separate"/>
    <tag k="smoothness" v="good"/>
    <tag k="surface" v="asphalt"/>
    <tag k="tmc" v="DE:20566/30275"/>
    <tag k="wikidata" v="Q21640196"/>
  </way>
  <way id="53837274" version="15" timestamp="2024-05-26T08:22:58Z" changeset="151840402" uid="1849074" user="vmicho">
    <nd ref="20833099"/>
    <nd ref="11934523769"/>
    <nd ref="11934523770"/>
    <nd ref="11934523771"/>
    <nd ref="1331988291"/>
    <nd ref="4285687319"/>
    <nd ref="1331988303"/>
    <nd ref="1331988266"/>
    <nd ref="1331988244"/>
    <nd ref="3705734546"/>
    <nd ref="20833100"/>
    <nd ref="1609070834"/>
    <nd ref="1609070850"/>
    <nd ref="1217170893"/>
    <nd ref="1609070970"/>
    <nd ref="1609071014"/>
    <nd ref="1609071034"/>
    <nd ref="1609071091"/>
    <nd ref="1609071110"/>
    <nd ref="1609071135"/>
    <nd ref="1609071153"/>
    <nd ref="20833101"/>
    <tag k="bdouble" v="yes"/>
    <tag k="highway" v="motorway"/>
    <tag k="lanes" v="2"/>
    <tag k="lit" v="no"/>
    <tag k="maxspeed" v="80"/>
    <tag k="oneway" v="yes"/>
    <tag k="ref" v="A 9"/>
    <tag k="smoothness" v="good"/>
    <tag k="surface" v="asphalt"/>
    <tag k="tmc" v="DE:12722/12723"/>
  </way>
  <way id="55291961" version="17" timestamp="2025-04-06T16:26:40Z" changeset="164599420" uid="137242" user="Rainero">
    <nd ref="577492202"/>
    <nd ref="34484156"/>
    <tag k="bridge" v="yes"/>
    <tag k="class:bicycle" v="2"/>
    <tag k="cycleway:left" v="lane"/>
    <tag k="cycleway:left:lane" v="exclusive"/>
    <tag k="cycleway:right" v="no"/>
    <tag k="foot" v="use_sidepath"/>
    <tag k="highway" v="tertiary"/>
    <tag k="lanes" v="2"/>
    <tag k="layer" v="1"/>
    <tag k="maxspeed" v="50"/>
    <tag k="maxweight:signed" v="no"/>
    <tag k="name" v="Domagkstraße"/>
    <tag k="postal_code" v="80807"/>
    <tag k="sidewalk" v="separate"/>
    <tag k="smoothness" v="good"/>
    <tag k="source:maxspeed" v="DE:urban"/>
    <tag k="surface" v="asphalt"/>
  </way>
  <way id="55463399" version="23" timestamp="2023-09-26T23:05:49Z" changeset="141794460" uid="6285042" user="Biclmont">
    <nd ref="36645234"/>
    <nd ref="2708987525"/>
    <nd ref="1300500597"/>
    <tag k="class:bicycle" v="-1"/>
    <tag k="cycleway:left" v="lane"/>
    <tag k="cycleway:left:lane" v="exclusive"/>
    <tag k="highway" v="tertiary"/>
    <tag k="lanes" v="2"/>
    <tag k="lit" v="yes"/>
    <tag k="maxspeed" v="50"/>
    <tag k="maxspeed:conditional" v="30 @ (Mo-Fr 07:00-18:00; PH off)"/>
    <tag k="name" v="Domagkstraße"/>
    <tag k="postal_code" v="80805"/>
    <tag k="sidewalk:both" v="separate"/>
    <tag k="sidewalk:both:surface" v="paving_stones"/>
    <tag k="smoothness" v="good"/>
    <tag k="surface" v="asphalt"/>
  </way>
  <way id="91218785" version="26" timestamp="2025-03-22T21:16:15Z" changeset="163964538" uid="44217" user="kjon">
    <nd ref="1042772256"/>
    <nd ref="2434569655"/>
    <tag k="bridge" v="yes"/>
    <tag k="class:bicycle" v="-1"/>
    <tag k="cycleway:both" v="lane"/>
    <tag k="cycleway:both:lane" v="advisory"/>
    <tag k="foot" v="use_sidepath"/>
    <tag k="highway" v="tertiary"/>
    <tag k="lanes" v="2"/>
    <tag k="layer" v="1"/>
    <tag k="lit" v="yes"/>
    <tag k="maxspeed" v="50"/>
    <tag k="maxweight:signed" v="no"/>
    <tag k="name" v="Domagkstraße"/>
    <tag k="parking:both" v="no"/>
    <tag k="sidewalk:both" v="separate"/>
    <tag k="sidewalk:both:surface" v="paving_stones"/>
    <tag k="smoothness" v="good"/>
    <tag k="surface" v="asphalt"/>
  </way>
  <way id="91218788" version="17" timestamp="2025-03-22T21:16:15Z" changeset="163964538" uid="44217" user="kjon">
    <nd ref="697041667"/>
    <nd ref="34698133"/>
    <tag k="class:bicycle" v="-1"/>
    <tag k="cycleway:both" v="lane"/>
    <tag k="cycleway:both:lane" v="advisory"/>
    <tag k="foot" v="use_sidepath"/>
    <tag k="highway" v="tertiary"/>
    <tag k="lanes" v="2"/>
    <tag k="lit" v="yes"/>
    <tag k="maxspeed" v="50"/>
    <tag k="name" v="Domagkstraße"/>
    <tag k="parking:both" v="no"/>
    <tag k="postal_code" v="80807"/>
    <tag k="sidewalk" v="both"/>
    <tag k="sidewalk:both:surface" v="paving_stones"/>
    <tag k="smoothness" v="excellent"/>
    <tag k="surface" v="asphalt"/>
  </way>
  <way id="98748672" version="5" timestamp="2021-06-30T16:14:19Z" changeset="107217600" uid="235018" user="uwe-s">
    <nd ref="1142522283"/>
    <nd ref="1142522290"/>
    <nd ref="1142522300"/>
    <nd ref="1142522310"/>
    <nd ref="1142522283"/>
    <tag k="addr:city" v="München"/>
    <tag k="addr:country" v="DE"/>
    <tag k="addr:housenumber" v="12"/>
    <tag k="addr:postcode" v="80807"/>
    <tag k="addr:street" v="Joseph-Dollinger-Bogen"/>
    <tag k="building" v="office"/>
    <tag k="building:levels" v="3"/>
    <tag k="roof:colour" v="grey"/>
    <tag k="roof:levels" v="0"/>
    <tag k="roof:shape" v="flat"/>
  </way>
  <way id="98748674" version="4" timestamp="2014-07-21T20:01:24Z" changeset="24281021" uid="78613" user="heilbron">
    <nd ref="1142522360"/>
    <nd ref="1142522363"/>
    <nd ref="1142522367"/>
    <nd ref="1142522369"/>
    <nd ref="1142522360"/>
    <tag k="addr:city" v="München"/>
    <tag k="addr:country" v="DE"/>
    <tag k="addr:housenumber" v="226"/>
    <tag k="addr:postcode" v="80807"/>
    <tag k="addr:street" v="Frankfurter Ring"/>
    <tag k="amenity" v="casino"/>
    <tag k="building" v="yes"/>
    <tag k="name" v="Spielstation"/>
    <tag k="roof:colour" v="lightgrey"/>
    <tag k="roof:height" v="1"/>
    <tag k="roof:shape" v="hipped"/>
  </way>
  <way id="98748675" version="9" timestamp="2023-06-29T20:24:50Z" changeset="137933122" uid="16195863" user="Tom-Fürth">
    <nd ref="1142522378"/>
    <nd ref="7532426368"/>
    <nd ref="1142522384"/>
    <nd ref="1142522398"/>
    <nd ref="1375973007"/>
    <nd ref="1375973008"/>
    <nd ref="8219760248"/>
    <nd ref="1375973050"/>
    <nd ref="1142522402"/>
    <nd ref="7532426372"/>
    <nd ref="7532426376"/>
    <nd ref="7532426377"/>
    <nd ref="1375973039"/>
    <nd ref="1375973034"/>
    <nd ref="1142522404"/>
    <nd ref="7532426369"/>
    <nd ref="7532426370"/>
    <nd ref="7532426373"/>
    <nd ref="1375973052"/>
    <nd ref="1375973053"/>
    <nd ref="7532426374"/>
    <nd ref="7532426375"/>
    <nd ref="1142522414"/>
    <nd ref="1142522420"/>
    <nd ref="1142522378"/>
    <tag k="addr:city" v="München"/>
    <tag k="addr:country" v="DE"/>
    <tag k="addr:housenumber" v="230"/>
    <tag k="addr:postcode" v="80807"/>
    <tag k="addr:street" v="Frankfurter Ring"/>
    <tag k="building" v="commercial"/>
  </way>
  <way id="98748678" version="9" timestamp="2021-06-30T16:14:18Z" changeset="107217600" uid="235018" user="uwe-s">
    <nd ref="2742926485"/>
    <nd ref="1142522689"/>
    <nd ref="1142522694"/>
    <nd ref="1142522666"/>
    <nd ref="1504009386"/>
    <nd ref="1504009469"/>
    <nd ref="1504009421"/>
    <nd ref="1504009403"/>
    <nd ref="1142522667"/>
    <nd ref="1142522669"/>
    <nd ref="2742926485"/>
    <tag k="addr:city" v="München"/>
    <tag k="addr:country" v="DE"/>
    <tag k="addr:housenumber" v="14"/>
    <tag k="addr:postcode" v="80807"/>
    <tag k="addr:street" v="Joseph-Dollinger-Bogen"/>
    <tag k="building" v="commercial"/>
    <tag k="building:levels" v="4"/>
    <tag k="roof:colour" v="darkgrey"/>
    <tag k="roof:levels" v="0"/>
    <tag k="roof:shape" v="flat"/>
  </way>
  <way id="98748679" version="4" timestamp="2021-06-30T16:14:20Z" changeset="107215967" uid="235018" user="uwe-s">
    <nd ref="1142522697"/>
    <nd ref="1142522700"/>
    <nd ref="1142522704"/>
    <nd ref="1142522708"/>
    <nd ref="1142522697"/>
    <tag k="addr:city" v="München"/>
    <tag k="addr:country" v="DE"/>
    <tag k="addr:housenumber" v="10"/>
    <tag k="addr:postcode" v="80807"/>
    <tag k="addr:street" v="Joseph-Dollinger-Bogen"/>
    <tag k="building" v="industrial"/>
    <tag k="roof:shape" v="flat"/>
  </way>
  <way id="98748680" version="8" timestamp="2025-01-24T10:11:09Z" changeset="161705653" uid="16061279" user="YellowSoul">
    <nd ref="1142522720"/>
    <nd ref="1142522735"/>
    <nd ref="2742926500"/>
    <nd ref="12527591410"/>
    <nd ref="2742926501"/>
    <nd ref="2742926496"/>
    <nd ref="2742926499"/>
    <nd ref="2742926497"/>
    <nd ref="2742926495"/>
    <nd ref="2742926491"/>
    <nd ref="2742926492"/>
    <nd ref="2742926490"/>
    <nd ref="1142522741"/>
    <nd ref="1142522738"/>
    <nd ref="2742926494"/>
    <nd ref="2742926498"/>
    <nd ref="1142522743"/>
    <nd ref="1142522720"/>
    <tag k="addr:city" v="München"/>
    <tag k="addr:country" v="DE"/>
    <tag k="addr:housenumber" v="216"/>
    <tag k="addr:postcode" v="80807"/>
    <tag k="addr:street" v="Frankfurter Ring"/>
    <tag k="building" v="construction"/>
    <tag k="building:colour" v="white"/>
    <tag k="building:levels" v="3"/>
    <tag k="construction" v="retail"/>
    <tag k="roof:shape" v="flat"/>
  </way>
  <way id="98748684" version="4" timestamp="2021-06-30T16:14:20Z" changeset="107215967" uid="235018" user="uwe-s">
    <nd ref="1142522845"/>
    <nd ref="1142522847"/>
    <nd ref="1142522848"/>
    <nd ref="1142522850"/>
    <nd ref="1142522845"/>
    <tag k="addr:city" v="München"/>
    <tag k="addr:country" v="DE"/>
    <tag k="addr:housenumber" v="3"/>
    <tag k="addr:postcode" v="80807"/>
    <tag k="addr:street" v="Joseph-Dollinger-Bogen"/>
    <tag k="building" v="industrial"/>
    <tag k="roof:colour" v="grey"/>
    <tag k="roof:shape" v="flat"/>
  </way>
  <way id="98748695" version="7" timestamp="2023-07-23T14:50:50Z" changeset="138897229" uid="12254208" user="joe248">
    <nd ref="1142522898"/>
    <nd ref="1142522900"/>
    <nd ref="1142522901"/>
    <nd ref="1142522902"/>
    <nd ref="2047639655"/>
    <nd ref="1142522903"/>
    <nd ref="1142522912"/>
    <nd ref="1142522898"/>
    <tag k="addr:city" v="München"/>
    <tag k="addr:country" v="DE"/>
    <tag k="addr:housenumber" v="26"/>
    <tag k="addr:postcode" v="80807"/>
    <tag k="addr:street" v="Joseph-Dollinger-Bogen"/>
    <tag k="building" v="office"/>
    <tag k="building:levels" v="3"/>
    <tag k="name" v="Evum Motors GmbH"/>
    <tag k="office" v="company"/>
    <tag k="roof:colour" v="grey"/>
    <tag k="roof:levels" v="0"/>
    <tag k="roof:shape" v="flat"/>
    <tag k="website" v="https://evum-motors.com/"/>
  </way>
  <way id="111552763" version="10" timestamp="2023-07-06T07:22:39Z" changeset="138174799" uid="9957868" user="anarkiisto">
    <nd ref="1270683839"/>
    <nd ref="1270683845"/>
    <nd ref="3664751933"/>
    <nd ref="1270683843"/>
    <nd ref="1270683842"/>
    <nd ref="1270683844"/>
    <nd ref="1270683841"/>
    <nd ref="3664751938"/>
    <nd ref="3664751936"/>
    <nd ref="3664751939"/>
    <nd ref="3664751940"/>
    <nd ref="1270683848"/>
    <nd ref="1270683840"/>
    <nd ref="1270683839"/>
    <tag k="alt_name" v="Domagkateliers"/>
    <tag k="building" v="industrial"/>
    <tag k="building:levels" v="2"/>
    <tag k="name" v="Städtisches Atelierhaus am Domagkpark"/>
    <tag k="ref" v="Haus 50"/>
    <tag k="roof:shape" v="gabled"/>
    <tag k="website" v="https://www.domagkateliers.com/atelierhaus"/>
  </way>
  <way id="114928351" version="12" timestamp="2024-05-25T21:12:11Z" changeset="151828629" uid="18850925" user="cableway">
    <nd ref="36645927"/>
    <nd ref="1300500600"/>
    <nd ref="3883795039"/>
    <nd ref="1042772435"/>
    <nd ref="1300500597"/>
    <tag k="class:bicycle" v="1"/>
    <tag k="cycleway:both" v="no"/>
    <tag k="highway" v="residential"/>
    <tag k="lit" v="yes"/>
    <tag k="maxspeed" v="30"/>
    <tag k="name" v="Grünecker Straße"/>
    <tag k="postal_code" v="80805"/>
    <tag k="sidewalk" v="right"/>
    <tag k="sidewalk:right:surface" v="paving_stones"/>
    <tag k="smoothness" v="excellent"/>
    <tag k="surface" v="asphalt"/>
  </way>
  <way id="123360815" version="5" timestamp="2022-09-25T01:56:55Z" changeset="126600689" uid="11062060" user="greniac">
    <nd ref="1375973133"/>
    <nd ref="1375973123"/>
    <nd ref="1375973099"/>
    <nd ref="1375973103"/>
    <nd ref="1375973133"/>
    <tag k="addr:housenumber" v="218"/>
    <tag k="addr:street" v="Frankfurter Ring"/>
    <tag k="building" v="apartments"/>
    <tag k="roof:shape" v="gabled"/>
  </way>
  <way id="123360831" version="7" timestamp="2022-11-13T15:47:14Z" changeset="128852841" uid="536583" user="Strubbl">
    <nd ref="1375973073"/>
    <nd ref="1375973066"/>
    <nd ref="1375973067"/>
    <nd ref="1375973075"/>
    <nd ref="1375973073"/>
    <tag k="addr:city" v="München"/>
    <tag k="addr:country" v="DE"/>
    <tag k="addr:housenumber" v="220"/>
    <tag k="addr:postcode" v="80807"/>
    <tag k="addr:street" v="Frankfurter Ring"/>
    <tag k="amenity" v="brothel"/>
    <tag k="brothel:fetish_club" v="yes"/>
    <tag k="building" v="yes"/>
    <tag k="email" v="info@studio-unschlagbar.de"/>
    <tag k="min_age" v="18"/>
    <tag k="name" v="Studio-Unschlagbar"/>
    <tag k="phone" v="+49 89 94405222"/>
    <tag k="roof:shape" v="hipped"/>
    <tag k="toilets:wheelchair" v="no"/>
    <tag k="website" v="https://www.studio-unschlagbar.de/"/>
  </way>
  <way id="123360836" version="4" timestamp="2021-06-30T16:14:21Z" changeset="107215967" uid="235018" user="uwe-s">
    <nd ref="1375973062"/>
    <nd ref="1375973054"/>
    <nd ref="1375973049"/>
    <nd ref="1375973057"/>
    <nd ref="1375973062"/>
    <tag k="addr:city" v="München"/>
    <tag k="addr:country" v="DE"/>
    <tag k="addr:housenumber" v="8"/>
    <tag k="addr:postcode" v="80807"/>
    <tag k="addr:street" v="Joseph-Dollinger-Bogen"/>
    <tag k="building" v="industrial"/>
    <tag k="roof:shape" v="flat"/>
  </way>
  <way id="123360842" version="5" timestamp="2021-06-30T16:14:13Z" changeset="107215987" uid="235018" user="uwe-s">
    <nd ref="1375972831"/>
    <nd ref="1375972789"/>
    <nd ref="1375972732"/>
    <nd ref="1375972741"/>
    <nd ref="1375972831"/>
    <tag k="addr:city" v="München"/>
    <tag k="addr:country" v="DE"/>
    <tag k="addr:housenumber" v="20"/>
    <tag k="addr:postcode" v="80807"/>
    <tag k="addr:street" v="Joseph-Dollinger-Bogen"/>
    <tag k="building" v="retail"/>
    <tag k="building:levels" v="2"/>
    <tag k="roof:levels" v="0"/>
    <tag k="roof:shape" v="many"/>
  </way>
  <way id="123360843" version="4" timestamp="2021-06-30T16:14:14Z" changeset="107217600" uid="235018" user="uwe-s">
    <nd ref="1375972889"/>
    <nd ref="1375972849"/>
    <nd ref="1375972762"/>
    <nd ref="1375972795"/>
    <nd ref="1375972889"/>
    <tag k="addr:city" v="München"/>
    <tag k="addr:country" v="DE"/>
    <tag k="addr:housenumber" v="18"/>
    <tag k="addr:postcode" v="80807"/>
    <tag k="addr:street" v="Joseph-Dollinger-Bogen"/>
    <tag k="building" v="office"/>
    <tag k="building:levels" v="3"/>
    <tag k="roof:levels" v="0"/>
  </way>
  <way id="123360867" version="4" timestamp="2021-09-02T10:40:33Z" changeset="110610870" uid="78613" user="heilbron">
    <nd ref="402776489"/>
    <nd ref="1375973043"/>
    <nd ref="1375973046"/>
    <nd ref="1375973022"/>
    <nd ref="1375973021"/>
    <nd ref="1375973023"/>
    <nd ref="1375973024"/>
    <nd ref="1375973037"/>
    <nd ref="402776488"/>
    <nd ref="402776489"/>
    <tag k="addr:city" v="München"/>
    <tag k="addr:country" v="DE"/>
    <tag k="addr:housenumber" v="13"/>
    <tag k="addr:postcode" v="80807"/>
    <tag k="addr:street" v="Joseph-Dollinger-Bogen"/>
    <tag k="building" v="office"/>
    <tag k="roof:colour" v="grey"/>
    <tag k="roof:shape" v="flat"/>
  </way>
  <way id="137113938" version="12" timestamp="2022-02-18T14:52:52Z" changeset="117568813" uid="44217" user="kjon">
    <nd ref="3934751501"/>
    <nd ref="402776510"/>
    <nd ref="402776512"/>
    <nd ref="1504009452"/>
    <nd ref="1504009389"/>
    <nd ref="1375973047"/>
    <nd ref="402776514"/>
    <nd ref="8870249752"/>
    <nd ref="8870249753"/>
    <nd ref="8870249751"/>
    <nd ref="8870249750"/>
    <nd ref="402776508"/>
    <nd ref="3934751501"/>
    <tag k="addr:city" v="München"/>
    <tag k="addr:country" v="DE"/>
    <tag k="addr:housenumber" v="218"/>
    <tag k="addr:postcode" v="80807"/>
    <tag k="addr:street" v="Frankfurter Ring"/>
    <tag k="building" v="retail"/>
    <tag k="building:levels" v="2"/>
    <tag k="roof:colour" v="grey"/>
    <tag k="roof:levels" v="0"/>
    <tag k="roof:shape" v="flat"/>
  </way>
  <way id="145797459" version="25" timestamp="2025-03-22T21:16:15Z" changeset="163964538" uid="44217" user="kjon">
    <nd ref="40188462"/>
    <nd ref="1042772063"/>
    <nd ref="6213492265"/>
    <nd ref="4016876498"/>
    <nd ref="6216014758"/>
    <nd ref="4281216311"/>
    <nd ref="5515008176"/>
    <nd ref="40188530"/>
    <nd ref="4281216317"/>
    <nd ref="4281216290"/>
    <nd ref="5515008188"/>
    <nd ref="6213492266"/>
    <nd ref="6327232752"/>
    <nd ref="7408949731"/>
    <nd ref="6215941905"/>
    <nd ref="4016812421"/>
    <nd ref="4281216312"/>
    <nd ref="6215941941"/>
    <nd ref="1591378913"/>
    <nd ref="2916488705"/>
    <tag k="class:bicycle" v="1"/>
    <tag k="highway" v="residential"/>
    <tag k="lit" v="yes"/>
    <tag k="maxspeed" v="30"/>
    <tag k="name" v="Gertrud-Grunow-Straße"/>
    <tag k="note" v="6609,13-10-2011"/>
    <tag k="parking:both" v="yes"/>
    <tag k="parking:both:orientation" v="parallel"/>
    <tag k="parking:condition:both" v="disc"/>
    <tag k="parking:condition:both:maxstay" v="2h"/>
    <tag k="parking:condition:both:time_interval" v="Mo-Fr 09:00-18:00"/>
    <tag k="sidewalk" v="both"/>
    <tag k="smoothness" v="good"/>
    <tag k="surface" v="asphalt"/>
    <tag k="zone:maxspeed" v="DE:30"/>
  </way>
  <way id="152565973" version="15" timestamp="2025-01-05T17:30:32Z" changeset="161030081" uid="2815653" user="DaxServer">
    <nd ref="1653751783"/>
    <nd ref="8409532518"/>
    <nd ref="372813498"/>
    <nd ref="19371337"/>
    <tag k="bicycle" v="use_sidepath"/>
    <tag k="foot" v="use_sidepath"/>
    <tag k="highway" v="primary"/>
    <tag k="lanes" v="4"/>
    <tag k="lit" v="yes"/>
    <tag k="maxspeed" v="50"/>
    <tag k="name" v="Frankfurter Ring"/>
    <tag k="name:etymology:wikidata" v="Q1794"/>
    <tag k="oneway" v="yes"/>
    <tag k="postal_code" v="80807"/>
    <tag k="sidewalk:left" v="no"/>
    <tag k="sidewalk:right" v="separate"/>
    <tag k="smoothness" v="excellent"/>
    <tag k="surface" v="asphalt"/>
    <tag k="tmc" v="DE:27942/27943"/>
    <tag k="turn:lanes" v="left|left|through|through"/>
    <tag k="wikidata" v="Q21201006"/>
  </way>
  <way id="152565977" version="8" timestamp="2023-10-07T16:52:27Z" changeset="142277037" uid="78613" user="heilbron">
    <nd ref="1653751783"/>
    <nd ref="1217171013"/>
    <nd ref="1653751765"/>
    <nd ref="1653751764"/>
    <tag k="bicycle" v="use_sidepath"/>
    <tag k="destination" v="Ungererstraße"/>
    <tag k="hgv" v="delivery"/>
    <tag k="highway" v="secondary_link"/>
    <tag k="lanes" v="1"/>
    <tag k="lit" v="yes"/>
    <tag k="maxspeed" v="50"/>
    <tag k="oneway" v="yes"/>
    <tag k="smoothness" v="good"/>
    <tag k="source:maxspeed" v="DE:urban"/>
    <tag k="surface" v="asphalt"/>
  </way>
  <way id="152565980" version="14" timestamp="2025-01-12T12:33:18Z" changeset="161268959" uid="2815653" user="DaxServer">
    <nd ref="1653751764"/>
    <nd ref="1653751761"/>
    <nd ref="509194971"/>
    <tag k="bicycle" v="use_sidepath"/>
    <tag k="dual_carriageway" v="yes"/>
    <tag k="foot" v="use_sidepath"/>
    <tag k="hgv" v="delivery"/>
    <tag k="highway" v="secondary"/>
    <tag k="lanes" v="2"/>
    <tag k="lit" v="yes"/>
    <tag k="maxspeed" v="50"/>
    <tag k="name" v="Ungererstraße"/>
    <tag k="name:etymology:wikidata" v="Q54556659"/>
    <tag k="oneway" v="yes"/>
    <tag k="postal_code" v="80805"/>
    <tag k="ref" v="St 2350"/>
    <tag k="sidewalk:left" v="no"/>
    <tag k="sidewalk:right" v="separate"/>
    <tag k="smoothness" v="excellent"/>
    <tag k="surface" v="asphalt"/>
    <tag k="tmc" v="DE:20566/30275"/>
    <tag k="wikidata" v="Q21640196"/>
  </way>
  <way id="152848370" version="13" timestamp="2025-01-12T12:33:18Z" changeset="161268959" uid="2815653" user="DaxServer">
    <nd ref="54795994"/>
    <nd ref="9464103402"/>
    <nd ref="264668533"/>
    <tag k="bicycle" v="use_sidepath"/>
    <tag k="foot" v="use_sidepath"/>
    <tag k="hgv" v="delivery"/>
    <tag k="highway" v="secondary"/>
    <tag k="lanes" v="4"/>
    <tag k="lit" v="yes"/>
    <tag k="maxspeed" v="50"/>
    <tag k="maxspeed:type" v="sign"/>
    <tag k="name" v="Ungererstraße"/>
    <tag k="name:etymology:wikidata" v="Q54556659"/>
    <tag k="postal_code" v="80805"/>
    <tag k="ref" v="St 2350"/>
    <tag k="sidewalk" v="separate"/>
    <tag k="smoothness" v="good"/>
    <tag k="surface" v="asphalt"/>
    <tag k="tmc" v="DE:20566/30275"/>
    <tag k="wikidata" v="Q21640196"/>
  </way>
  <way id="159686819" version="15" timestamp="2025-03-23T08:39:01Z" changeset="163976023" uid="44217" user="kjon">
    <nd ref="54795994"/>
    <nd ref="372811232"/>
    <tag k="cycleway:both" v="no"/>
    <tag k="highway" v="residential"/>
    <tag k="lit" v="yes"/>
    <tag k="maxspeed" v="30"/>
    <tag k="name" v="Grasmeierstraße"/>
    <tag k="parking:both" v="yes"/>
    <tag k="parking:both:orientation" v="parallel"/>
    <tag k="postal_code" v="80805"/>
    <tag k="sidewalk" v="both"/>
    <tag k="sidewalk:both:surface" v="paving_stones"/>
    <tag k="smoothness" v="good"/>
    <tag k="surface" v="asphalt"/>
  </way>
  <way id="172690365" version="2" timestamp="2015-04-14T19:11:26Z" changeset="30219771" uid="78613" user="heilbron">
    <nd ref="1835696310"/>
    <nd ref="1835696303"/>
    <nd ref="1835696308"/>
    <nd ref="1835696306"/>
    <nd ref="1835696310"/>
    <tag k="addr:city" v="München"/>
    <tag k="addr:housenumber" v="37"/>
    <tag k="addr:postcode" v="80805"/>
    <tag k="addr:street" v="Garchinger Straße"/>
    <tag k="building" v="yes"/>
    <tag k="roof:shape" v="pyramidal"/>
  </way>
  <way id="189804282" version="4" timestamp="2021-06-30T16:14:17Z" changeset="107215967" uid="235018" user="uwe-s">
    <nd ref="2004070741"/>
    <nd ref="2004070638"/>
    <nd ref="2004070776"/>
    <nd ref="2004070612"/>
    <nd ref="3331620451"/>
    <nd ref="2004070741"/>
    <tag k="addr:city" v="München"/>
    <tag k="addr:country" v="DE"/>
    <tag k="addr:housenumber" v="16"/>
    <tag k="addr:postcode" v="80807"/>
    <tag k="addr:street" v="Joseph-Dollinger-Bogen"/>
    <tag k="building" v="retail"/>
  </way>
  <way id="189804286" version="7" timestamp="2022-01-15T18:05:10Z" changeset="116191668" uid="14743868" user="Konstantin Weddige">
    <nd ref="260882000"/>
    <nd ref="264542018"/>
    <tag k="bicycle" v="use_sidepath"/>
    <tag k="foot" v="use_sidepath"/>
    <tag k="highway" v="primary_link"/>
    <tag k="lanes" v="2"/>
    <tag k="lit" v="yes"/>
    <tag k="maxspeed" v="50"/>
    <tag k="name" v="Frankfurter Ring"/>
    <tag k="name:etymology:wikidata" v="Q1794"/>
    <tag k="oneway" v="no"/>
    <tag k="postal_code" v="80807"/>
    <tag k="surface" v="asphalt"/>
  </way>
  <way id="196900941" version="5" timestamp="2024-05-07T06:23:43Z" changeset="150993078" uid="20825029" user="Smörre">
    <nd ref="2071896998"/>
    <nd ref="2071896999"/>
    <nd ref="2071896997"/>
    <nd ref="2071896996"/>
    <nd ref="2071896998"/>
    <tag k="addr:housenumber" v="31"/>
    <tag k="addr:street" v="Domagkstraße"/>
    <tag k="building" v="retail"/>
    <tag k="building:levels" v="1"/>
  </way>
  <way id="235391192" version="22" timestamp="2025-03-22T21:16:15Z" changeset="163964538" uid="44217" user="kjon">
    <nd ref="2434569655"/>
    <nd ref="697041667"/>
    <tag k="bridge" v="yes"/>
    <tag k="class:bicycle" v="-1"/>
    <tag k="cycleway:both" v="lane"/>
    <tag k="cycleway:both:lane" v="advisory"/>
    <tag k="foot" v="use_sidepath"/>
    <tag k="highway" v="tertiary"/>
    <tag k="lanes" v="2"/>
    <tag k="layer" v="1"/>
    <tag k="lit" v="yes"/>
    <tag k="maxspeed" v="50"/>
    <tag k="maxweight:signed" v="no"/>
    <tag k="name" v="Domagkstraße"/>
    <tag k="parking:both" v="no"/>
    <tag k="sidewalk:both" v="separate"/>
    <tag k="sidewalk:both:surface" v="concrete"/>
    <tag k="smoothness" v="good"/>
    <tag k="surface" v="asphalt"/>
  </way>
  <way id="240898331" version="23" timestamp="2025-03-22T21:16:15Z" changeset="163964538" uid="44217" user="kjon">
    <nd ref="4016876500"/>
    <nd ref="3979160190"/>
    <nd ref="5222333006"/>
    <nd ref="6216014753"/>
    <nd ref="4016876499"/>
    <nd ref="3712520339"/>
    <nd ref="2485942163"/>
    <nd ref="4281216331"/>
    <nd ref="40194953"/>
    <tag k="access" v="yes"/>
    <tag k="bicycle" v="yes"/>
    <tag k="class:bicycle" v="1"/>
    <tag k="cycleway:both" v="no"/>
    <tag k="foot" v="yes"/>
    <tag k="highway" v="residential"/>
    <tag k="lit" v="yes"/>
    <tag k="maxspeed" v="30"/>
    <tag k="name" v="Fritz-Winter-Straße"/>
    <tag k="oneway" v="no"/>
    <tag k="parking:both" v="yes"/>
    <tag k="parking:both:orientation" v="parallel"/>
    <tag k="parking:condition:both" v="disc"/>
    <tag k="parking:condition:both:maxstay" v="2h"/>
    <tag k="parking:condition:both:time_interval" v="Mo-Fr 09:00-18:00"/>
    <tag k="sidewalk" v="both"/>
    <tag k="sidewalk:both:surface" v="paving_stones"/>
    <tag k="smoothness" v="excellent"/>
    <tag k="surface" v="asphalt"/>
    <tag k="zone:maxspeed" v="DE:30"/>
  </way>
  <way id="242155673" version="22" timestamp="2025-03-22T21:16:15Z" changeset="163964538" uid="44217" user="kjon">
    <nd ref="4016876500"/>
    <nd ref="6216014756"/>
    <nd ref="7089268171"/>
    <nd ref="4016876498"/>
    <tag k="access" v="yes"/>
    <tag k="class:bicycle" v="1"/>
    <tag k="cycleway:both" v="no"/>
    <tag k="highway" v="residential"/>
    <tag k="lit" v="yes"/>
    <tag k="maxspeed" v="30"/>
    <tag k="name" v="Margarete-Schütte-Lihotzky-Straße"/>
    <tag k="note" v="6609,13-10-2011"/>
    <tag k="parking:both" v="yes"/>
    <tag k="parking:both:orientation" v="parallel"/>
    <tag k="parking:condition:both" v="disc"/>
    <tag k="parking:condition:both:maxstay" v="2h"/>
    <tag k="parking:condition:both:time_interval" v="Mo-Fr 09:00-18:00"/>
    <tag k="sidewalk" v="both"/>
    <tag k="sidewalk:both:surface" v="paving_stones"/>
    <tag k="smoothness" v="excellent"/>
    <tag k="surface" v="asphalt"/>
    <tag k="zone:maxspeed" v="DE:30"/>
  </way>
  <way id="247556868" version="9" timestamp="2024-05-05T16:01:45Z" changeset="150927163" uid="18850925" user="cableway">
    <nd ref="2544263528"/>
    <nd ref="2544263526"/>
    <nd ref="2544263524"/>
    <nd ref="2544263527"/>
    <nd ref="2544263528"/>
    <tag k="addr:city" v="München"/>
    <tag k="addr:country" v="DE"/>
    <tag k="addr:housenumber" v="31"/>
    <tag k="addr:postcode" v="80805"/>
    <tag k="addr:street" v="Garchinger Straße"/>
    <tag k="building" v="retail"/>
    <tag k="name" v="Gärtnerei Schewe"/>
    <tag k="opening_hours" v="Mo-Fr 09:00-17:00; Sa 09:00-14:00"/>
    <tag k="shop" v="florist"/>
    <tag k="website" v="https://schewe-online.de/"/>
    <tag k="wheelchair" v="limited"/>
  </way>
  <way id="263209737" version="18" timestamp="2023-11-01T10:35:36Z" changeset="143466852" uid="6285042" user="Biclmont">
    <nd ref="1042772227"/>
    <nd ref="2708986734"/>
    <nd ref="3953525204"/>
    <nd ref="36667719"/>
    <tag k="class:bicycle" v="-1"/>
    <tag k="cycleway:both" v="lane"/>
    <tag k="cycleway:both:lane" v="advisory"/>
    <tag k="foot" v="use_sidepath"/>
    <tag k="highway" v="tertiary"/>
    <tag k="lanes" v="4"/>
    <tag k="lanes:backward" v="2"/>
    <tag k="lanes:forward" v="2"/>
    <tag k="lit" v="yes"/>
    <tag k="maxspeed" v="50"/>
    <tag k="name" v="Domagkstraße"/>
    <tag k="note" v="Im Juli 2014 umgebaut. Bing Bilder sind noch veraltet."/>
    <tag k="postal_code" v="80807"/>
    <tag k="sidewalk:both" v="separate"/>
    <tag k="sidewalk:both:surface" v="paving_stones"/>
    <tag k="smoothness" v="good"/>
    <tag k="surface" v="asphalt"/>
    <tag k="turn:lanes:backward" v="left|through"/>
    <tag k="turn:lanes:forward" v="left|through"/>
  </way>
  <way id="263209738" version="14" timestamp="2025-04-06T16:26:40Z" changeset="164599420" uid="137242" user="Rainero">
    <nd ref="4743469382"/>
    <nd ref="1955718"/>
    <nd ref="36668993"/>
    <nd ref="4743469393"/>
    <nd ref="1042772311"/>
    <nd ref="1042772065"/>
    <nd ref="2708986932"/>
    <nd ref="616691131"/>
    <nd ref="2708986948"/>
    <nd ref="577492202"/>
    <tag k="class:bicycle" v="2"/>
    <tag k="cycleway:left" v="lane"/>
    <tag k="cycleway:left:lane" v="exclusive"/>
    <tag k="cycleway:right" v="no"/>
    <tag k="cycleway:separation" v="vertical_panel"/>
    <tag k="foot" v="use_sidepath"/>
    <tag k="highway" v="tertiary"/>
    <tag k="lanes" v="2"/>
    <tag k="lit" v="yes"/>
    <tag k="maxspeed" v="50"/>
    <tag k="name" v="Domagkstraße"/>
    <tag k="postal_code" v="80807"/>
    <tag k="sidewalk" v="separate"/>
    <tag k="smoothness" v="good"/>
    <tag k="source:maxspeed" v="DE:urban"/>
    <tag k="surface" v="asphalt"/>
  </way>
  <way id="269011740" version="11" timestamp="2025-01-05T17:30:32Z" changeset="161030081" uid="2815653" user="DaxServer">
    <nd ref="2742926488"/>
    <nd ref="1653751783"/>
    <tag k="bicycle" v="use_sidepath"/>
    <tag k="foot" v="use_sidepath"/>
    <tag k="highway" v="primary"/>
    <tag k="lanes" v="4"/>
    <tag k="lit" v="yes"/>
    <tag k="maxheight" v="none"/>
    <tag k="maxspeed" v="50"/>
    <tag k="name" v="Frankfurter Ring"/>
    <tag k="name:etymology:wikidata" v="Q1794"/>
    <tag k="oneway" v="yes"/>
    <tag k="postal_code" v="80807"/>
    <tag k="sidewalk:left" v="no"/>
    <tag k="sidewalk:right" v="separate"/>
    <tag k="smoothness" v="good"/>
    <tag k="surface" v="asphalt"/>
    <tag k="tmc" v="DE:27942/27943"/>
    <tag k="turn:lanes" v="left|left|through|through;right"/>
    <tag k="wikidata" v="Q21201006"/>
  </way>
  <way id="269011746" version="2" timestamp="2021-06-30T16:14:17Z" changeset="107215967" uid="235018" user="uwe-s">
    <nd ref="1142522669"/>
    <nd ref="1142522673"/>
    <nd ref="1142522679"/>
    <nd ref="1142522684"/>
    <nd ref="2742926485"/>
    <nd ref="1142522669"/>
    <tag k="addr:city" v="München"/>
    <tag k="addr:country" v="DE"/>
    <tag k="addr:housenumber" v="14"/>
    <tag k="addr:postcode" v="80807"/>
    <tag k="addr:street" v="Joseph-Dollinger-Bogen"/>
    <tag k="building" v="garage"/>
    <tag k="roof:shape" v="flat"/>
  </way>
  <way id="288358256" version="19" timestamp="2025-04-06T16:26:40Z" changeset="164599420" uid="137242" user="Rainero">
    <nd ref="1271468009"/>
    <nd ref="3325992162"/>
    <nd ref="2708986716"/>
    <nd ref="3815583928"/>
    <nd ref="12270427491"/>
    <nd ref="309864865"/>
    <nd ref="40188462"/>
    <tag k="class:bicycle" v="-1"/>
    <tag k="cycleway:both" v="lane"/>
    <tag k="cycleway:both:lane" v="advisory"/>
    <tag k="foot" v="use_sidepath"/>
    <tag k="highway" v="tertiary"/>
    <tag k="lanes" v="2"/>
    <tag k="lit" v="yes"/>
    <tag k="maxspeed" v="50"/>
    <tag k="name" v="Domagkstraße"/>
    <tag k="postal_code" v="80807"/>
    <tag k="sidewalk:both" v="separate"/>
    <tag k="smoothness" v="good"/>
    <tag k="source:maxspeed" v="DE:urban"/>
    <tag k="surface" v="asphalt"/>
  </way>
  <way id="293780490" version="14" timestamp="2024-10-20T07:36:00Z" changeset="158116285" uid="214966" user="mkbitde">
    <nd ref="40188462"/>
    <nd ref="12270427493"/>
    <nd ref="1042772227"/>
    <tag k="class:bicycle" v="-1"/>
    <tag k="cycleway:both" v="lane"/>
    <tag k="cycleway:both:lane" v="exclusive"/>
    <tag k="foot" v="use_sidepath"/>
    <tag k="highway" v="tertiary"/>
    <tag k="lanes" v="4"/>
    <tag k="lanes:backward" v="2"/>
    <tag k="lanes:forward" v="2"/>
    <tag k="lit" v="yes"/>
    <tag k="maxspeed" v="50"/>
    <tag k="name" v="Domagkstraße"/>
    <tag k="note" v="Im Juli 2014 umgebaut. Bing Bilder sind noch veraltet."/>
    <tag k="postal_code" v="80807"/>
    <tag k="sidewalk:both" v="separate"/>
    <tag k="sidewalk:both:surface" v="paving_stones"/>
    <tag k="smoothness" v="good"/>
    <tag k="surface" v="asphalt"/>
    <tag k="turn:lanes:backward" v="left|through"/>
    <tag k="turn:lanes:forward" v="left|through"/>
  </way>
  <way id="297867705" version="15" timestamp="2021-06-28T18:07:03Z" changeset="107103835" uid="235018" user="uwe-s">
    <nd ref="3017705074"/>
    <nd ref="3017705073"/>
    <nd ref="5155384189"/>
    <nd ref="3712387411"/>
    <nd ref="4286494831"/>
    <nd ref="3712520334"/>
    <nd ref="5155384185"/>
    <nd ref="3017705075"/>
    <nd ref="5155384191"/>
    <nd ref="5155384195"/>
    <nd ref="3017705077"/>
    <nd ref="5155384190"/>
    <nd ref="3017705076"/>
    <nd ref="5155384193"/>
    <nd ref="3712387401"/>
    <nd ref="3017705072"/>
    <nd ref="4286494834"/>
    <nd ref="4373209143"/>
    <nd ref="3017705074"/>
    <tag k="building" v="apartments"/>
    <tag k="building:levels" v="5"/>
    <tag k="building:ownership" v="rent"/>
    <tag k="name" v="WA 10"/>
    <tag k="owner" v="Wogeno eG"/>
    <tag k="ownership" v="private_nonprofit"/>
    <tag k="roof:levels" v="0"/>
    <tag k="wheelchair" v="yes"/>
  </way>
  <way id="314648921" version="12" timestamp="2025-05-12T09:10:28Z" changeset="166141319" uid="12164053" user="barefootstache">
    <nd ref="3206963803"/>
    <nd ref="3206963793"/>
    <nd ref="4281216299"/>
    <nd ref="3206963789"/>
    <nd ref="9825965381"/>
    <nd ref="9825965373"/>
    <nd ref="9825965369"/>
    <nd ref="3206963778"/>
    <nd ref="4281215268"/>
    <nd ref="9825965370"/>
    <nd ref="3206963765"/>
    <nd ref="3206963767"/>
    <nd ref="3206963776"/>
    <nd ref="3206963782"/>
    <nd ref="4286494832"/>
    <nd ref="3206963791"/>
    <nd ref="5512412499"/>
    <nd ref="3206963803"/>
    <tag k="building" v="apartments"/>
    <tag k="building:colour" v="white"/>
    <tag k="building:levels" v="5"/>
    <tag k="building:material" v="plaster"/>
    <tag k="name" v="Europa"/>
    <tag k="roof:levels" v="0"/>
    <tag k="roof:material" v="concrete"/>
  </way>
  <way id="314648926" version="13" timestamp="2023-02-09T17:55:03Z" changeset="132320752" uid="12164053" user="barefootstache">
    <nd ref="3206964007"/>
    <nd ref="7554007723"/>
    <nd ref="3206964005"/>
    <nd ref="10122425982"/>
    <nd ref="10122425983"/>
    <nd ref="3206963997"/>
    <nd ref="10122425981"/>
    <nd ref="10122425976"/>
    <nd ref="10122425980"/>
    <nd ref="3206963956"/>
    <nd ref="3206963961"/>
    <nd ref="7597842266"/>
    <nd ref="3206964007"/>
    <tag k="addr:city" v="München"/>
    <tag k="addr:housenumber" v="3"/>
    <tag k="addr:postcode" v="80807"/>
    <tag k="addr:street" v="Bauhausplatz"/>
    <tag k="building" v="apartments"/>
    <tag k="building:levels" v="5"/>
    <tag k="name" v="Horizont-Haus Domagkpark"/>
    <tag k="roof:levels" v="0"/>
    <tag k="roof:shape" v="flat"/>
  </way>
  <way id="314648952" version="8" timestamp="2021-07-01T18:06:46Z" changeset="107273856" uid="235018" user="uwe-s">
    <nd ref="3206963900"/>
    <nd ref="3206963895"/>
    <nd ref="3206963884"/>
    <nd ref="3206963888"/>
    <nd ref="3206963900"/>
    <tag k="addr:housenumber" v="58"/>
    <tag k="addr:street" v="Gertrud-Grunow-Straße"/>
    <tag k="building" v="residential"/>
    <tag k="building:levels" v="5"/>
    <tag k="roof:levels" v="0"/>
  </way>
  <way id="314648965" version="13" timestamp="2025-05-12T09:10:27Z" changeset="166141319" uid="12164053" user="barefootstache">
    <nd ref="3206960046"/>
    <nd ref="9825965390"/>
    <nd ref="3206960056"/>
    <nd ref="4211811684"/>
    <nd ref="3712520333"/>
    <nd ref="3206960055"/>
    <nd ref="9825965410"/>
    <nd ref="9825965394"/>
    <nd ref="3206960048"/>
    <nd ref="4286494824"/>
    <nd ref="3206960043"/>
    <nd ref="12434315977"/>
    <nd ref="3206960046"/>
    <tag k="building" v="apartments"/>
    <tag k="building:colour" v="white"/>
    <tag k="building:levels" v="5"/>
    <tag k="building:material" v="plaster"/>
    <tag k="name" v="Afrika"/>
    <tag k="roof:levels" v="0"/>
    <tag k="roof:material" v="concrete"/>
  </way>
  <way id="314648970" version="10" timestamp="2025-05-12T09:10:28Z" changeset="166141319" uid="12164053" user="barefootstache">
    <nd ref="3206960047"/>
    <nd ref="3206960052"/>
    <nd ref="3206963761"/>
    <nd ref="9825965397"/>
    <nd ref="3206963768"/>
    <nd ref="3206963763"/>
    <nd ref="3206960060"/>
    <nd ref="4281216319"/>
    <nd ref="3206960049"/>
    <nd ref="9825965405"/>
    <nd ref="3206960047"/>
    <tag k="building" v="apartments"/>
    <tag k="building:colour" v="white"/>
    <tag k="building:levels" v="5"/>
    <tag k="building:material" v="plaster"/>
    <tag k="name" v="Asien"/>
    <tag k="roof:levels" v="0"/>
    <tag k="roof:material" v="concrete"/>
  </way>
  <way id="314648971" version="12" timestamp="2025-05-12T09:10:27Z" changeset="166141319" uid="12164053" user="barefootstache">
    <nd ref="3206963783"/>
    <nd ref="6214241278"/>
    <nd ref="3206963770"/>
    <nd ref="3206960054"/>
    <nd ref="4286494826"/>
    <nd ref="4286494827"/>
    <nd ref="3206960051"/>
    <nd ref="3206960059"/>
    <nd ref="3206963773"/>
    <nd ref="4281216309"/>
    <nd ref="9825965368"/>
    <nd ref="3206963779"/>
    <nd ref="9825965382"/>
    <nd ref="7647320610"/>
    <nd ref="7647320611"/>
    <nd ref="3206963783"/>
    <tag k="building" v="apartments"/>
    <tag k="building:colour" v="white"/>
    <tag k="building:levels" v="5"/>
    <tag k="building:material" v="plaster"/>
    <tag k="name" v="Amerika"/>
    <tag k="roof:levels" v="0"/>
    <tag k="roof:material" v="concrete"/>
  </way>
  <way id="314648972" version="11" timestamp="2024-07-22T19:53:32Z" changeset="154278843" uid="1717726" user="UKausch">
    <nd ref="3206964019"/>
    <nd ref="4492835121"/>
    <nd ref="4492835120"/>
    <nd ref="3206964014"/>
    <nd ref="4067172862"/>
    <nd ref="4067172861"/>
    <nd ref="4492835118"/>
    <nd ref="3206964000"/>
    <nd ref="10122425830"/>
    <nd ref="3206964001"/>
    <nd ref="4492838238"/>
    <nd ref="3206964008"/>
    <nd ref="3206964011"/>
    <nd ref="3206964019"/>
    <tag k="building" v="dormitory"/>
    <tag k="building:levels" v="5"/>
    <tag k="name" v="Wohnanlage Max-Bill-Straße"/>
    <tag k="operator" v="Studierendenwerk München Oberbayern"/>
    <tag k="roof:levels" v="0"/>
    <tag k="roof:shape" v="flat"/>
    <tag k="website" v="https://www.studierendenwerk-muenchen-oberbayern.de/wohnen/wohnanlagen/muenchen/muenchen-nord/max-bill-strasse/"/>
  </way>
  <way id="314648975" version="8" timestamp="2024-07-24T23:08:10Z" changeset="154371043" uid="1717726" user="UKausch">
    <nd ref="3206964010"/>
    <nd ref="7441129234"/>
    <nd ref="3206964009"/>
    <nd ref="3206963970"/>
    <nd ref="6551350364"/>
    <nd ref="3206964006"/>
    <nd ref="3206964010"/>
    <tag k="addr:city" v="München"/>
    <tag k="addr:country" v="DE"/>
    <tag k="addr:housenumber" v="4"/>
    <tag k="addr:postcode" v="80807"/>
    <tag k="addr:street" v="Bauhausplatz"/>
    <tag k="building" v="office"/>
    <tag k="building:levels" v="5"/>
    <tag k="roof:levels" v="0"/>
    <tag k="roof:shape" v="flat"/>
  </way>
  <way id="314648977" version="11" timestamp="2025-05-12T09:10:28Z" changeset="166141319" uid="12164053" user="barefootstache">
    <nd ref="3206960039"/>
    <nd ref="3206960036"/>
    <nd ref="3206960038"/>
    <nd ref="9825965414"/>
    <nd ref="3206960042"/>
    <nd ref="9825965406"/>
    <nd ref="3206960045"/>
    <nd ref="9825965396"/>
    <nd ref="9825973818"/>
    <nd ref="9825965412"/>
    <nd ref="9825965416"/>
    <nd ref="9825965415"/>
    <nd ref="9825973817"/>
    <nd ref="9825965407"/>
    <nd ref="7647320609"/>
    <nd ref="4281215280"/>
    <nd ref="9825965395"/>
    <nd ref="3206960041"/>
    <nd ref="9825965411"/>
    <nd ref="3206960039"/>
    <tag k="building" v="apartments"/>
    <tag k="building:colour" v="white"/>
    <tag k="building:levels" v="5"/>
    <tag k="building:material" v="plaster"/>
    <tag k="name" v="Australien&amp;Ozeanien"/>
    <tag k="roof:levels" v="0"/>
    <tag k="roof:material" v="concrete"/>
  </way>
  <way id="320872407" version="9" timestamp="2025-01-05T17:30:32Z" changeset="161030081" uid="2815653" user="DaxServer">
    <nd ref="3275256319"/>
    <nd ref="2047644057"/>
    <nd ref="19370090"/>
    <nd ref="10292699481"/>
    <nd ref="411506077"/>
    <tag k="bicycle" v="use_sidepath"/>
    <tag k="highway" v="primary"/>
    <tag k="lanes" v="3"/>
    <tag k="lit" v="yes"/>
    <tag k="maxspeed" v="60"/>
    <tag k="name" v="Frankfurter Ring"/>
    <tag k="name:etymology:wikidata" v="Q1794"/>
    <tag k="oneway" v="yes"/>
    <tag k="postal_code" v="80807"/>
    <tag k="sidewalk:left" v="no"/>
    <tag k="sidewalk:right" v="separate"/>
    <tag k="smoothness" v="good"/>
    <tag k="surface" v="asphalt"/>
    <tag k="tmc" v="DE:27942/27943"/>
    <tag k="turn:lanes" v="left|through|through;right"/>
    <tag k="wikidata" v="Q21201006"/>
  </way>
  <way id="325991435" version="7" timestamp="2025-03-23T08:39:01Z" changeset="163976023" uid="44217" user="kjon">
    <nd ref="3325992173"/>
    <nd ref="54795964"/>
    <tag k="cycleway:both" v="no"/>
    <tag k="highway" v="residential"/>
    <tag k="lane_markings" v="no"/>
    <tag k="lit" v="yes"/>
    <tag k="maxspeed" v="50"/>
    <tag k="maxspeed:type" v="sign"/>
    <tag k="name" v="Finauerstraße"/>
    <tag k="oneway" v="yes"/>
    <tag k="postal_code" v="80805"/>
    <tag k="sidewalk" v="no"/>
    <tag k="smoothness" v="good"/>
    <tag k="surface" v="asphalt"/>
  </way>
  <way id="325991506" version="11" timestamp="2025-01-12T12:33:18Z" changeset="161268959" uid="2815653" user="DaxServer">
    <nd ref="2026013480"/>
    <nd ref="3934698652"/>
    <nd ref="4708284523"/>
    <nd ref="3232323461"/>
    <nd ref="3325997177"/>
    <nd ref="54795994"/>
    <tag k="bicycle" v="use_sidepath"/>
    <tag k="foot" v="use_sidepath"/>
    <tag k="hgv" v="delivery"/>
    <tag k="highway" v="secondary"/>
    <tag k="lanes" v="2"/>
    <tag k="lit" v="yes"/>
    <tag k="maxspeed" v="50"/>
    <tag k="name" v="Ungererstraße"/>
    <tag k="name:etymology:wikidata" v="Q54556659"/>
    <tag k="postal_code" v="80805"/>
    <tag k="ref" v="St 2350"/>
    <tag k="sidewalk" v="separate"/>
    <tag k="smoothness" v="excellent"/>
    <tag k="surface" v="asphalt"/>
    <tag k="tmc" v="DE:20566/30275"/>
    <tag k="wikidata" v="Q21640196"/>
  </way>
  <way id="325991511" version="13" timestamp="2025-03-23T08:39:01Z" changeset="163976023" uid="44217" user="kjon">
    <nd ref="2026013480"/>
    <nd ref="2026013461"/>
    <nd ref="2026013451"/>
    <nd ref="1652255337"/>
    <nd ref="3325992173"/>
    <nd ref="260902016"/>
    <nd ref="3312908175"/>
    <tag k="bicycle" v="use_sidepath"/>
    <tag k="foot" v="use_sidepath"/>
    <tag k="hgv" v="delivery"/>
    <tag k="highway" v="secondary"/>
    <tag k="lanes" v="2"/>
    <tag k="lit" v="yes"/>
    <tag k="maxspeed" v="50"/>
    <tag k="name" v="Ungererstraße"/>
    <tag k="name:etymology:wikidata" v="Q54556659"/>
    <tag k="oneway" v="yes"/>
    <tag k="parking:right" v="yes"/>
    <tag k="parking:right:orientation" v="parallel"/>
    <tag k="postal_code" v="80805"/>
    <tag k="ref" v="St 2350"/>
    <tag k="sidewalk:left" v="no"/>
    <tag k="sidewalk:right" v="separate"/>
    <tag k="smoothness" v="excellent"/>
    <tag k="surface" v="asphalt"/>
    <tag k="tmc" v="DE:20566/30275"/>
    <tag k="wikidata" v="Q21640196"/>
  </way>
  <way id="367312708" version="14" timestamp="2022-10-22T23:00:13Z" changeset="127940079" uid="2554996" user="Nanoilite">
    <nd ref="40188656"/>
    <nd ref="7459433072"/>
    <nd ref="1591378914"/>
    <nd ref="7459535790"/>
    <nd ref="7441129232"/>
    <tag k="highway" v="residential"/>
    <tag k="lit" v="yes"/>
    <tag k="maxspeed" v="30"/>
    <tag k="name" v="Max-Bill-Straße"/>
    <tag k="note" v="6609,13-10-2011"/>
    <tag k="sidewalk" v="separate"/>
    <tag k="surface" v="asphalt"/>
  </way>
  <way id="390321155" version="10" timestamp="2025-01-23T21:14:00Z" changeset="161689999" uid="137242" user="Rainero">
    <nd ref="1350613676"/>
    <nd ref="1524454763"/>
    <nd ref="2708987119"/>
    <nd ref="3005503133"/>
    <nd ref="2004070820"/>
    <nd ref="3486489852"/>
    <nd ref="2004070744"/>
    <nd ref="264542018"/>
    <nd ref="2004070695"/>
    <nd ref="2708986805"/>
    <nd ref="2047643993"/>
    <nd ref="3275256319"/>
    <tag k="bicycle" v="use_sidepath"/>
    <tag k="dual_carriageway" v="yes"/>
    <tag k="foot" v="use_sidepath"/>
    <tag k="highway" v="primary"/>
    <tag k="lanes" v="2"/>
    <tag k="lit" v="yes"/>
    <tag k="maxspeed" v="60"/>
    <tag k="name" v="Frankfurter Ring"/>
    <tag k="name:etymology:wikidata" v="Q1794"/>
    <tag k="oneway" v="yes"/>
    <tag k="postal_code" v="80807"/>
    <tag k="shoulder" v="no"/>
    <tag k="sidewalk:left" v="no"/>
    <tag k="sidewalk:right" v="separate"/>
    <tag k="surface" v="asphalt"/>
    <tag k="tmc" v="DE:27942/27943"/>
    <tag k="wikidata" v="Q21201006"/>
  </way>
  <way id="390321168" version="9" timestamp="2025-01-23T21:14:00Z" changeset="161689999" uid="137242" user="Rainero">
    <nd ref="1221450502"/>
    <nd ref="1524454758"/>
    <nd ref="1350613676"/>
    <tag k="bicycle" v="use_sidepath"/>
    <tag k="dual_carriageway" v="yes"/>
    <tag k="highway" v="primary"/>
    <tag k="lanes" v="3"/>
    <tag k="lit" v="yes"/>
    <tag k="maxspeed" v="60"/>
    <tag k="name" v="Frankfurter Ring"/>
    <tag k="name:etymology:wikidata" v="Q1794"/>
    <tag k="oneway" v="yes"/>
    <tag k="postal_code" v="80807"/>
    <tag k="shoulder" v="no"/>
    <tag k="sidewalk:left" v="no"/>
    <tag k="sidewalk:right" v="separate"/>
    <tag k="surface" v="asphalt"/>
    <tag k="tmc" v="DE:27942/27943"/>
    <tag k="turn:lanes" v="left|through|through"/>
    <tag k="wikidata" v="Q21201006"/>
  </way>
  <way id="428991132" version="5" timestamp="2022-05-20T10:49:06Z" changeset="121236597" uid="139820" user="m-ride">
    <nd ref="2916488603"/>
    <nd ref="2916488706"/>
    <nd ref="2916488902"/>
    <nd ref="2916488904"/>
    <nd ref="2916489001"/>
    <nd ref="2916488903"/>
    <nd ref="2916488703"/>
    <nd ref="2916488901"/>
    <nd ref="2916488704"/>
    <nd ref="4281219895"/>
    <nd ref="4281219894"/>
    <nd ref="2916488801"/>
    <nd ref="2916488702"/>
    <nd ref="2916488602"/>
    <nd ref="2916488701"/>
    <nd ref="2916488601"/>
    <nd ref="2916488603"/>
    <tag k="addr:city" v="München"/>
    <tag k="addr:country" v="DE"/>
    <tag k="addr:housenumber" v="51"/>
    <tag k="addr:postcode" v="80807"/>
    <tag k="addr:street" v="Gertrud-Grunow-Straße"/>
    <tag k="building" v="school"/>
  </way>
  <way id="481407074" version="9" timestamp="2025-04-06T16:26:40Z" changeset="164599420" uid="137242" user="Rainero">
    <nd ref="36667719"/>
    <nd ref="4743469382"/>
    <tag k="cycleway:both" v="lane"/>
    <tag k="cycleway:both:lane" v="advisory"/>
    <tag k="foot" v="use_sidepath"/>
    <tag k="highway" v="tertiary"/>
    <tag k="lanes" v="2"/>
    <tag k="lit" v="yes"/>
    <tag k="maxspeed" v="50"/>
    <tag k="name" v="Domagkstraße"/>
    <tag k="postal_code" v="80807"/>
    <tag k="sidewalk:both" v="separate"/>
    <tag k="smoothness" v="good"/>
    <tag k="source:maxspeed" v="DE:urban"/>
    <tag k="surface" v="asphalt"/>
  </way>
  <way id="481407076" version="8" timestamp="2023-07-06T07:22:59Z" changeset="138174689" uid="9957868" user="anarkiisto">
    <nd ref="1300500597"/>
    <nd ref="1042772256"/>
    <tag k="cycleway:left" v="lane"/>
    <tag k="cycleway:left:lane" v="advisory"/>
    <tag k="highway" v="tertiary"/>
    <tag k="lanes" v="2"/>
    <tag k="lit" v="yes"/>
    <tag k="maxspeed" v="50"/>
    <tag k="name" v="Domagkstraße"/>
    <tag k="postal_code" v="80805"/>
    <tag k="sidewalk" v="both"/>
    <tag k="smoothness" v="excellent"/>
    <tag k="surface" v="asphalt"/>
  </way>
  <way id="622306938" version="11" timestamp="2024-09-19T18:09:33Z" changeset="156833757" uid="536583" user="Strubbl">
    <nd ref="5878251491"/>
    <nd ref="5878251490"/>
    <nd ref="5878251487"/>
    <nd ref="5878251486"/>
    <nd ref="7218224163"/>
    <nd ref="7218224164"/>
    <nd ref="7218224165"/>
    <nd ref="7218224166"/>
    <nd ref="5878251495"/>
    <nd ref="5878251494"/>
    <nd ref="5878251493"/>
    <nd ref="5878251492"/>
    <nd ref="5878251491"/>
    <tag k="addr:city" v="München"/>
    <tag k="addr:country" v="DE"/>
    <tag k="addr:housenumber" v="191"/>
    <tag k="addr:postcode" v="80805"/>
    <tag k="addr:street" v="Ungererstraße"/>
    <tag k="building" v="school"/>
    <tag k="name" v="Interimsgebäude des Gymnasiums Neufreimann"/>
    <tag k="website" v="https://gymnasium-neufreimann.de/"/>
  </way>
  <way id="657628489" version="9" timestamp="2025-03-23T08:39:01Z" changeset="163976023" uid="44217" user="kjon">
    <nd ref="3312908175"/>
    <nd ref="5969138241"/>
    <nd ref="1024673965"/>
    <nd ref="21495327"/>
    <tag k="bicycle" v="use_sidepath"/>
    <tag k="foot" v="use_sidepath"/>
    <tag k="hgv" v="delivery"/>
    <tag k="highway" v="secondary"/>
    <tag k="lanes" v="4"/>
    <tag k="lit" v="yes"/>
    <tag k="maxspeed" v="50"/>
    <tag k="name" v="Ungererstraße"/>
    <tag k="name:etymology:wikidata" v="Q54556659"/>
    <tag k="oneway" v="yes"/>
    <tag k="parking:right" v="yes"/>
    <tag k="parking:right:orientation" v="parallel"/>
    <tag k="postal_code" v="80805"/>
    <tag k="ref" v="St 2350"/>
    <tag k="sidewalk:left" v="no"/>
    <tag k="sidewalk:right" v="separate"/>
    <tag k="smoothness" v="good"/>
    <tag k="surface" v="asphalt"/>
    <tag k="tmc" v="DE:20566/30275"/>
    <tag k="turn:lanes" v="left|through|through|right"/>
    <tag k="wikidata" v="Q21640196"/>
  </way>
  <way id="697602867" version="5" timestamp="2023-06-19T21:58:23Z" changeset="137536655" uid="474873" user="Fliegendekuh">
    <nd ref="6551350367"/>
    <nd ref="6551350368"/>
    <nd ref="6551350369"/>
    <nd ref="6551350370"/>
    <nd ref="6551350371"/>
    <nd ref="6551350367"/>
    <tag k="addr:city" v="München"/>
    <tag k="addr:housenumber" v="6"/>
    <tag k="addr:postcode" v="80807"/>
    <tag k="addr:street" v="Bauhausplatz"/>
    <tag k="building" v="apartments"/>
    <tag k="building:levels" v="6"/>
    <tag k="roof:shape" v="flat"/>
  </way>
  <way id="792325294" version="4" timestamp="2025-03-22T21:16:15Z" changeset="163964538" uid="44217" user="kjon">
    <nd ref="2916488705"/>
    <nd ref="40188545"/>
    <nd ref="7408651153"/>
    <nd ref="7408651154"/>
    <nd ref="2916488705"/>
    <tag k="highway" v="residential"/>
    <tag k="lit" v="yes"/>
    <tag k="maxspeed" v="30"/>
    <tag k="name" v="Gertrud-Grunow-Straße"/>
    <tag k="note" v="6609,13-10-2011"/>
    <tag k="oneway" v="yes"/>
    <tag k="parking:both" v="yes"/>
    <tag k="parking:both:orientation" v="parallel"/>
    <tag k="parking:condition:both" v="disc"/>
    <tag k="parking:condition:both:maxstay" v="2h"/>
    <tag k="parking:condition:both:time_interval" v="Mo-Fr 09:00-18:00"/>
    <tag k="surface" v="asphalt"/>
  </way>
  <way id="883811173" version="6" timestamp="2024-04-17T22:05:18Z" changeset="150149737" uid="536583" user="Strubbl">
    <nd ref="1375973007"/>
    <nd ref="8219760245"/>
    <nd ref="8219760254"/>
    <nd ref="8219760246"/>
    <nd ref="8219760259"/>
    <nd ref="8219760247"/>
    <nd ref="8219760248"/>
    <nd ref="1375973008"/>
    <nd ref="1375973007"/>
    <tag k="addr:city" v="München"/>
    <tag k="addr:housenumber" v="230"/>
    <tag k="addr:postcode" v="80807"/>
    <tag k="addr:street" v="Frankfurter Ring"/>
    <tag k="building" v="industrial"/>
  </way>
  <way id="932097566" version="2" timestamp="2023-01-13T21:20:58Z" changeset="131245967" uid="3075580" user="Linda89">
    <nd ref="2024713802"/>
    <nd ref="1578742480"/>
    <nd ref="1609071222"/>
    <nd ref="1609071200"/>
    <nd ref="2383205"/>
    <tag k="bdouble" v="yes"/>
    <tag k="bridge" v="yes"/>
    <tag k="destination" v="München-Schwabing"/>
    <tag k="highway" v="motorway"/>
    <tag k="lanes" v="2"/>
    <tag k="layer" v="2"/>
    <tag k="lit" v="no"/>
    <tag k="maxspeed" v="80"/>
    <tag k="oneway" v="yes"/>
    <tag k="ref" v="A 9"/>
    <tag k="surface" v="asphalt"/>
    <tag k="tmc" v="DE:12722/12723"/>
  </way>
  <way id="932097567" version="2" timestamp="2023-01-13T21:20:58Z" changeset="131245967" uid="3075580" user="Linda89">
    <nd ref="20833101"/>
    <nd ref="1586270886"/>
    <nd ref="1609071191"/>
    <nd ref="1609071198"/>
    <nd ref="1586270900"/>
    <nd ref="1609071225"/>
    <nd ref="1609071227"/>
    <nd ref="1586270903"/>
    <tag k="bdouble" v="yes"/>
    <tag k="bridge" v="yes"/>
    <tag k="highway" v="motorway"/>
    <tag k="lanes" v="2"/>
    <tag k="layer" v="2"/>
    <tag k="lit" v="no"/>
    <tag k="maxspeed" v="80"/>
    <tag k="oneway" v="yes"/>
    <tag k="ref" v="A 9"/>
    <tag k="surface" v="asphalt"/>
    <tag k="tmc" v="DE:12722/12723"/>
  </way>
  <way id="1106174409" version="2" timestamp="2022-10-22T23:00:13Z" changeset="127940079" uid="2554996" user="Nanoilite">
    <nd ref="7441129232"/>
    <nd ref="6008487159"/>
    <nd ref="7684573437"/>
    <nd ref="3251921288"/>
    <nd ref="2613153260"/>
    <nd ref="2613153257"/>
    <tag k="highway" v="residential"/>
    <tag k="lanes" v="3"/>
    <tag k="lanes:backward" v="1"/>
    <tag k="lit" v="yes"/>
    <tag k="maxspeed" v="30"/>
    <tag k="name" v="Max-Bill-Straße"/>
    <tag k="note" v="6609,13-10-2011"/>
    <tag k="sidewalk" v="separate"/>
    <tag k="surface" v="asphalt"/>
    <tag k="turn:lanes:forward" v="|right"/>
  </way>
  <way id="1106174410" version="2" timestamp="2025-03-22T21:16:15Z" changeset="163964538" uid="44217" user="kjon">
    <nd ref="2613153257"/>
    <nd ref="3251921289"/>
    <tag k="highway" v="residential"/>
    <tag k="lit" v="yes"/>
    <tag k="maxspeed" v="30"/>
    <tag k="name" v="Max-Bill-Straße"/>
    <tag k="note" v="6609,13-10-2011"/>
    <tag k="parking:both" v="yes"/>
    <tag k="parking:both:orientation" v="parallel"/>
    <tag k="parking:condition:both" v="disc"/>
    <tag k="parking:condition:both:maxstay" v="4h"/>
    <tag k="parking:condition:both:time_interval" v="Mo-Fr 09:00-18:00"/>
    <tag k="surface" v="asphalt"/>
  </way>
  <way id="1106174413" version="3" timestamp="2025-01-05T17:30:32Z" changeset="161030081" uid="2815653" user="DaxServer">
    <nd ref="10121875304"/>
    <nd ref="19370086"/>
    <nd ref="10121875303"/>
    <nd ref="7684573435"/>
    <nd ref="10121875291"/>
    <nd ref="2613153257"/>
    <tag k="bicycle" v="use_sidepath"/>
    <tag k="foot" v="use_sidepath"/>
    <tag k="highway" v="primary"/>
    <tag k="lanes" v="3"/>
    <tag k="lit" v="yes"/>
    <tag k="maxspeed" v="60"/>
    <tag k="name" v="Frankfurter Ring"/>
    <tag k="name:etymology:wikidata" v="Q1794"/>
    <tag k="oneway" v="yes"/>
    <tag k="placement" v="right_of:1"/>
    <tag k="postal_code" v="80807"/>
    <tag k="shoulder" v="no"/>
    <tag k="sidewalk:left" v="no"/>
    <tag k="sidewalk:right" v="separate"/>
    <tag k="smoothness" v="good"/>
    <tag k="surface" v="asphalt"/>
    <tag k="tmc" v="DE:27942/27943"/>
    <tag k="turn:lanes" v="through|through|right"/>
    <tag k="wikidata" v="Q21201006"/>
  </way>
  <way id="1106174414" version="3" timestamp="2025-01-05T17:30:32Z" changeset="161030081" uid="2815653" user="DaxServer">
    <nd ref="264778178"/>
    <nd ref="939283931"/>
    <nd ref="2708987471"/>
    <nd ref="10121875304"/>
    <tag k="bicycle" v="use_sidepath"/>
    <tag k="foot" v="use_sidepath"/>
    <tag k="highway" v="primary"/>
    <tag k="lanes" v="2"/>
    <tag k="lit" v="yes"/>
    <tag k="maxspeed" v="60"/>
    <tag k="name" v="Frankfurter Ring"/>
    <tag k="name:etymology:wikidata" v="Q1794"/>
    <tag k="oneway" v="yes"/>
    <tag k="postal_code" v="80807"/>
    <tag k="shoulder" v="no"/>
    <tag k="sidewalk:left" v="no"/>
    <tag k="sidewalk:right" v="separate"/>
    <tag k="smoothness" v="good"/>
    <tag k="surface" v="asphalt"/>
    <tag k="tmc" v="DE:27942/27943"/>
    <tag k="wikidata" v="Q21201006"/>
  </way>
  <way id="1106174417" version="4" timestamp="2025-01-05T17:30:32Z" changeset="161030081" uid="2815653" user="DaxServer">
    <nd ref="10121875306"/>
    <nd ref="10121875289"/>
    <nd ref="264778178"/>
    <tag k="bicycle" v="use_sidepath"/>
    <tag k="foot" v="use_sidepath"/>
    <tag k="highway" v="primary"/>
    <tag k="lanes" v="3"/>
    <tag k="lit" v="yes"/>
    <tag k="maxspeed" v="60"/>
    <tag k="name" v="Frankfurter Ring"/>
    <tag k="name:etymology:wikidata" v="Q1794"/>
    <tag k="oneway" v="yes"/>
    <tag k="placement" v="left_of:3"/>
    <tag k="postal_code" v="80807"/>
    <tag k="shoulder" v="no"/>
    <tag k="sidewalk:left" v="no"/>
    <tag k="sidewalk:right" v="separate"/>
    <tag k="smoothness" v="good"/>
    <tag k="surface" v="asphalt"/>
    <tag k="tmc" v="DE:27942/27943"/>
    <tag k="turn:lanes" v="left|through|through"/>
    <tag k="wikidata" v="Q21201006"/>
  </way>
  <way id="1106188598" version="1" timestamp="2022-10-22T23:00:13Z" changeset="127940079" uid="2554996" user="Nanoilite">
    <nd ref="1591378915"/>
    <nd ref="3251921286"/>
    <tag k="highway" v="residential"/>
    <tag k="lit" v="yes"/>
    <tag k="maxspeed" v="30"/>
    <tag k="name" v="Max-Bill-Straße"/>
    <tag k="sidewalk" v="separate"/>
    <tag k="smoothness" v="good"/>
    <tag k="surface" v="asphalt"/>
    <tag k="zone:maxspeed" v="DE:30"/>
  </way>
  <way id="1106188599" version="2" timestamp="2023-11-04T11:28:10Z" changeset="143608784" uid="18493611" user="MunichWays">
    <nd ref="40188687"/>
    <nd ref="3251921283"/>
    <nd ref="3251921284"/>
    <nd ref="3251921285"/>
    <nd ref="2613153262"/>
    <nd ref="1591378915"/>
    <tag k="class:bicycle" v="1"/>
    <tag k="highway" v="residential"/>
    <tag k="lanes" v="3"/>
    <tag k="lanes:backward" v="1"/>
    <tag k="lit" v="yes"/>
    <tag k="maxspeed" v="30"/>
    <tag k="name" v="Max-Bill-Straße"/>
    <tag k="sidewalk" v="separate"/>
    <tag k="smoothness" v="good"/>
    <tag k="surface" v="asphalt"/>
    <tag k="turn:lanes:forward" v="|right"/>
    <tag k="zone:maxspeed" v="DE:30"/>
  </way>
  <way id="1106188602" version="4" timestamp="2025-01-05T17:30:32Z" changeset="161030081" uid="2815653" user="DaxServer">
    <nd ref="1591378915"/>
    <nd ref="19370089"/>
    <nd ref="1221450502"/>
    <tag k="bicycle" v="use_sidepath"/>
    <tag k="foot" v="use_sidepath"/>
    <tag k="highway" v="primary"/>
    <tag k="lanes" v="2"/>
    <tag k="lit" v="yes"/>
    <tag k="maxspeed" v="60"/>
    <tag k="name" v="Frankfurter Ring"/>
    <tag k="name:etymology:wikidata" v="Q1794"/>
    <tag k="oneway" v="yes"/>
    <tag k="postal_code" v="80807"/>
    <tag k="shoulder" v="no"/>
    <tag k="sidewalk:left" v="no"/>
    <tag k="sidewalk:right" v="separate"/>
    <tag k="smoothness" v="good"/>
    <tag k="surface" v="asphalt"/>
    <tag k="tmc" v="DE:27942/27943"/>
    <tag k="wikidata" v="Q21201006"/>
  </way>
  <way id="1106188603" version="3" timestamp="2025-01-05T17:30:32Z" changeset="161030081" uid="2815653" user="DaxServer">
    <nd ref="2004070521"/>
    <nd ref="10122306196"/>
    <nd ref="7681309365"/>
    <nd ref="10122306192"/>
    <nd ref="1591378915"/>
    <tag k="bicycle" v="use_sidepath"/>
    <tag k="foot" v="use_sidepath"/>
    <tag k="highway" v="primary"/>
    <tag k="lanes" v="3"/>
    <tag k="lit" v="yes"/>
    <tag k="maxspeed" v="60"/>
    <tag k="name" v="Frankfurter Ring"/>
    <tag k="name:etymology:wikidata" v="Q1794"/>
    <tag k="oneway" v="yes"/>
    <tag k="placement" v="left_of:2"/>
    <tag k="postal_code" v="80807"/>
    <tag k="shoulder" v="no"/>
    <tag k="sidewalk:left" v="no"/>
    <tag k="sidewalk:right" v="separate"/>
    <tag k="smoothness" v="good"/>
    <tag k="surface" v="asphalt"/>
    <tag k="tmc" v="DE:27942/27943"/>
    <tag k="turn:lanes" v="through|through|right"/>
    <tag k="wikidata" v="Q21201006"/>
  </way>
  <relation id="18594682" version="1" timestamp="2025-01-23T21:03:26Z" changeset="161689705" uid="137242" user="Rainero">
    <member type="way" ref="805387000" role="outer"/>
    <member type="way" ref="1353772645" role="inner"/>
    <tag k="addr:city" v="München"/>
    <tag k="addr:country" v="DE"/>
    <tag k="addr:housenumber" v="228a"/>
    <tag k="addr:postcode" v="80807"/>
    <tag k="addr:street" v="Frankfurter Ring"/>
    <tag k="air_conditioning" v="yes"/>
    <tag k="building" v="hotel"/>
    <tag k="internet_access" v="wlan"/>
    <tag k="name" v="PLAZA Premium München"/>
    <tag k="operator" v="Centro Hotel Group"/>
    <tag k="tourism" v="hotel"/>
    <tag k="type" v="multipolygon"/>
    <tag k="wheelchair" v="yes"/>
  </relation>

</osm>
