<?xml version="1.0" encoding="UTF-8"?>
<osm version="0.6" generator="Overpass API 0.7.62.5 1bd436f1">
<note>The data included in this document is from www.openstreetmap.org. The data is made available under ODbL.</note>
<meta osm_base="2025-05-18T02:55:25Z" areas="2024-12-31T00:49:33Z"/>

  <node id="16259330" lat="48.1676937" lon="11.5545866" version="12" timestamp="2022-09-02T21:33:44Z" changeset="125716956" uid="2554996" user="Nanoilite"/>
  <node id="16527629" lat="48.1663362" lon="11.5620919" version="3" timestamp="2015-03-08T08:26:50Z" changeset="29324602" uid="14390" user="BeKri"/>
  <node id="16527631" lat="48.1646126" lon="11.5627197" version="5" timestamp="2011-01-07T17:11:33Z" changeset="6894840" uid="29061" user="KPG"/>
  <node id="16527636" lat="48.1686174" lon="11.5589176" version="11" timestamp="2022-08-17T17:28:00Z" changeset="125028317" uid="2554996" user="Nanoilite"/>
  <node id="16527673" lat="48.1685865" lon="11.5597492" version="3" timestamp="2010-12-14T13:54:43Z" changeset="6657738" uid="29061" user="KPG"/>
  <node id="16527735" lat="48.1650611" lon="11.5529241" version="10" timestamp="2022-04-17T19:37:15Z" changeset="119829512" uid="11895847" user="rigilk3nt"/>
  <node id="21035975" lat="48.1615152" lon="11.5530490" version="6" timestamp="2015-10-14T09:28:22Z" changeset="34629028" uid="2290263" user="soemisch"/>
  <node id="21035977" lat="48.1677800" lon="11.5544638" version="8" timestamp="2022-04-17T19:36:20Z" changeset="119829492" uid="11895847" user="rigilk3nt"/>
  <node id="21036247" lat="48.1685243" lon="11.5605516" version="5" timestamp="2011-05-30T08:24:25Z" changeset="8289590" uid="29061" user="KPG"/>
  <node id="21042658" lat="48.1614717" lon="11.5582858" version="5" timestamp="2015-06-01T15:00:31Z" changeset="31637268" uid="2590140" user="Floppy919"/>
  <node id="660733764" lat="48.1682976" lon="11.5615714" version="10" timestamp="2021-11-28T14:00:51Z" changeset="114325428" uid="6374145" user="donalddu">
    <tag k="bicycle" v="yes"/>
    <tag k="button_operated" v="no"/>
    <tag k="crossing" v="traffic_signals"/>
    <tag k="crossing:island" v="no"/>
    <tag k="highway" v="crossing"/>
    <tag k="tactile_paving" v="no"/>
    <tag k="traffic_signals:sound" v="no"/>
    <tag k="traffic_signals:vibration" v="yes"/>
  </node>
  <node id="1776057566" lat="48.1628631" lon="11.5569591" version="4" timestamp="2025-04-07T11:40:31Z" changeset="164629938" uid="2554996" user="Nanoilite"/>
  <node id="3348418204" lat="48.1610912" lon="11.5618931" version="1" timestamp="2015-02-13T19:48:24Z" changeset="28828796" uid="115042" user="gnlpfth"/>
  <node id="3348495299" lat="48.1611376" lon="11.5620266" version="8" timestamp="2022-09-24T20:45:19Z" changeset="126596788" uid="2554996" user="Nanoilite">
    <tag k="button_operated" v="no"/>
    <tag k="crossing" v="traffic_signals"/>
    <tag k="crossing_ref" v="pelican"/>
    <tag k="highway" v="crossing"/>
    <tag k="tactile_paving" v="no"/>
    <tag k="traffic_signals:sound" v="yes"/>
    <tag k="traffic_signals:vibration" v="yes"/>
  </node>
  <node id="3348497294" lat="48.1614501" lon="11.5530632" version="1" timestamp="2015-02-13T19:48:31Z" changeset="28828796" uid="115042" user="gnlpfth"/>
  <node id="8264853485" lat="48.1683438" lon="11.5615589" version="1" timestamp="2020-12-27T19:00:39Z" changeset="96495366" uid="11371566" user="koloto"/>
  <node id="8264853486" lat="48.1684432" lon="11.5615283" version="1" timestamp="2020-12-27T19:00:39Z" changeset="96495366" uid="11371566" user="koloto"/>
  <way id="4055327" version="13" timestamp="2022-04-04T20:38:50Z" changeset="119317557" uid="12419129" user="Suny Kim">
    <nd ref="16527629"/>
    <nd ref="267151002"/>
    <nd ref="1692572845"/>
    <nd ref="16527680"/>
    <tag k="highway" v="residential"/>
    <tag k="lit" v="yes"/>
    <tag k="maxspeed" v="30"/>
    <tag k="name" v="Hildeboldstraße"/>
    <tag k="name:etymology:wikidata" v="Q1618902"/>
    <tag k="oneway" v="yes"/>
    <tag k="sidewalk" v="both"/>
    <tag k="source:maxspeed" v="DE:zone30"/>
    <tag k="surface" v="sett"/>
  </way>
  <way id="4055900" version="19" timestamp="2023-10-22T07:50:05Z" changeset="142955936" uid="1928791" user="biker-2">
    <nd ref="16527673"/>
    <nd ref="529272866"/>
    <nd ref="617252533"/>
    <nd ref="1295084858"/>
    <nd ref="587923376"/>
    <nd ref="267151005"/>
    <nd ref="2177644531"/>
    <nd ref="16527680"/>
    <nd ref="1692629727"/>
    <nd ref="4200012998"/>
    <nd ref="38184799"/>
    <nd ref="16527676"/>
    <tag k="highway" v="residential"/>
    <tag k="lit" v="yes"/>
    <tag k="maxspeed" v="30"/>
    <tag k="name" v="Deidesheimer Straße"/>
    <tag k="name:etymology:wikidata" v="Q22951"/>
    <tag k="sidewalk" v="left"/>
    <tag k="smoothness" v="intermediate"/>
    <tag k="surface" v="sett"/>
  </way>
  <way id="4056146" version="10" timestamp="2023-08-05T10:47:57Z" changeset="139473803" uid="18493611" user="MunichWays">
    <nd ref="8264853486"/>
    <nd ref="8264853485"/>
    <tag k="bicycle_road" v="yes"/>
    <tag k="class:bicycle" v="1"/>
    <tag k="highway" v="residential"/>
    <tag k="lane_markings" v="no"/>
    <tag k="lit" v="yes"/>
    <tag k="maxspeed" v="50"/>
    <tag k="motor_vehicle" v="yes"/>
    <tag k="name" v="Winzererstraße"/>
    <tag k="name:etymology:wikidata" v="Q1735060"/>
    <tag k="surface" v="asphalt"/>
  </way>
  <way id="4673715" version="28" timestamp="2022-09-24T20:45:19Z" changeset="126596788" uid="2554996" user="Nanoilite">
    <nd ref="27733777"/>
    <nd ref="946872578"/>
    <nd ref="267150075"/>
    <nd ref="10049824250"/>
    <nd ref="1692629623"/>
    <nd ref="4695991141"/>
    <tag k="bicycle" v="use_sidepath"/>
    <tag k="foot" v="use_sidepath"/>
    <tag k="highway" v="tertiary"/>
    <tag k="lanes" v="2"/>
    <tag k="lit" v="yes"/>
    <tag k="maxspeed" v="50"/>
    <tag k="name" v="Schwere-Reiter-Straße"/>
    <tag k="name:etymology:wikidata" v="Q1660893"/>
    <tag k="oneway" v="yes"/>
    <tag k="surface" v="asphalt"/>
  </way>
  <way id="5344608" version="13" timestamp="2025-03-22T21:16:15Z" changeset="163964538" uid="44217" user="kjon">
    <nd ref="16527629"/>
    <nd ref="3388903364"/>
    <nd ref="2786527582"/>
    <nd ref="1077641201"/>
    <nd ref="2786527486"/>
    <nd ref="2786527453"/>
    <nd ref="1077641258"/>
    <nd ref="9990926149"/>
    <nd ref="9990926151"/>
    <nd ref="9990926154"/>
    <nd ref="9990926153"/>
    <nd ref="427540541"/>
    <nd ref="16527630"/>
    <tag k="highway" v="residential"/>
    <tag k="lit" v="yes"/>
    <tag k="maxspeed" v="30"/>
    <tag k="name" v="Hildeboldstraße"/>
    <tag k="name:etymology:wikidata" v="Q1618902"/>
    <tag k="oneway" v="yes"/>
    <tag k="parking:right" v="yes"/>
    <tag k="parking:right:orientation" v="parallel"/>
    <tag k="sidewalk" v="both"/>
    <tag k="surface" v="asphalt"/>
  </way>
  <way id="5346622" version="20" timestamp="2025-05-06T21:46:23Z" changeset="165912773" uid="38546" user="wikimax">
    <nd ref="16527631"/>
    <nd ref="27479902"/>
    <nd ref="427540544"/>
    <nd ref="1955554"/>
    <tag k="bicycle" v="designated"/>
    <tag k="bicycle_road" v="yes"/>
    <tag k="class:bicycle" v="1"/>
    <tag k="highway" v="residential"/>
    <tag k="lit" v="yes"/>
    <tag k="maxspeed" v="30"/>
    <tag k="motor_vehicle" v="yes"/>
    <tag k="name" v="Clemensstraße"/>
    <tag k="name:etymology:wikidata" v="Q215086"/>
    <tag k="oneway" v="yes"/>
    <tag k="oneway:bicycle" v="no"/>
    <tag k="sidewalk" v="both"/>
    <tag k="smoothness" v="excellent"/>
    <tag k="source:maxspeed" v="DE:bicycle_road"/>
    <tag k="surface" v="asphalt"/>
    <tag k="traffic_sign" v="DE:bicycle_road"/>
    <tag k="vehicle" v="yes"/>
  </way>
  <way id="5348232" version="25" timestamp="2022-08-17T17:28:00Z" changeset="125028317" uid="2554996" user="Nanoilite">
    <nd ref="16527636"/>
    <nd ref="529272880"/>
    <nd ref="9959906055"/>
    <nd ref="1692629801"/>
    <nd ref="1692629792"/>
    <nd ref="1692629774"/>
    <nd ref="16527646"/>
    <nd ref="1294852548"/>
    <nd ref="1692629748"/>
    <nd ref="16527637"/>
    <nd ref="616770620"/>
    <nd ref="1845539230"/>
    <nd ref="1429768529"/>
    <nd ref="16527638"/>
    <nd ref="1429768534"/>
    <nd ref="5381901617"/>
    <nd ref="1429768532"/>
    <nd ref="16527640"/>
    <nd ref="5381902922"/>
    <nd ref="442958617"/>
    <nd ref="16527643"/>
    <nd ref="16527642"/>
    <nd ref="16527677"/>
    <tag k="highway" v="residential"/>
    <tag k="maxspeed" v="30"/>
    <tag k="name" v="Therese-Studer-Straße"/>
    <tag k="name:etymology:wikidata" v="Q2416984"/>
    <tag k="surface" v="asphalt"/>
  </way>
  <way id="5403373" version="23" timestamp="2022-09-10T17:41:00Z" changeset="126024631" uid="536583" user="Strubbl">
    <nd ref="21036247"/>
    <nd ref="1038235836"/>
    <nd ref="8264853484"/>
    <nd ref="8264853489"/>
    <nd ref="8264853485"/>
    <tag k="bicycle" v="use_sidepath"/>
    <tag k="highway" v="secondary"/>
    <tag k="lanes" v="3"/>
    <tag k="lit" v="yes"/>
    <tag k="maxspeed" v="50"/>
    <tag k="name" v="Ackermannstraße"/>
    <tag k="name:etymology:wikidata" v="Q119495"/>
    <tag k="oneway" v="yes"/>
    <tag k="sidewalk:left" v="no"/>
    <tag k="sidewalk:right" v="separate"/>
    <tag k="surface" v="asphalt"/>
    <tag k="turn:lanes" v="left|through|through;right"/>
  </way>
  <way id="27296097" version="16" timestamp="2024-07-31T10:15:27Z" changeset="154641402" uid="1717726" user="UKausch">
    <nd ref="299650700"/>
    <nd ref="5381901595"/>
    <nd ref="4607049348"/>
    <nd ref="4171890354"/>
    <nd ref="4171890353"/>
    <nd ref="4171890349"/>
    <nd ref="4171890346"/>
    <nd ref="4171890352"/>
    <nd ref="4171890351"/>
    <nd ref="4171890345"/>
    <nd ref="299650701"/>
    <nd ref="4171890343"/>
    <nd ref="4171890344"/>
    <nd ref="4171890342"/>
    <nd ref="4171890341"/>
    <nd ref="299650702"/>
    <nd ref="2786602065"/>
    <nd ref="4607049345"/>
    <nd ref="2786602068"/>
    <nd ref="299650704"/>
    <nd ref="299650700"/>
    <tag k="addr:city" v="München"/>
    <tag k="addr:country" v="DE"/>
    <tag k="addr:housenumber" v="8"/>
    <tag k="addr:postcode" v="80797"/>
    <tag k="addr:street" v="Lissi-Kaeser-Straße"/>
    <tag k="amenity" v="dormitory"/>
    <tag k="building" v="apartments"/>
    <tag k="building:levels" v="6"/>
    <tag k="contact:website" v="https://www.studierendenwerk-muenchen-oberbayern.de/wohnen/wohnanlagen/muenchen/muenchen-mitte/wohnanlage-schwere-reiter-strasse/"/>
    <tag k="name" v="Wohnheim Schwere-Reiter-Straße"/>
    <tag k="roof:colour" v="grey"/>
    <tag k="roof:levels" v="0"/>
    <tag k="roof:shape" v="flat"/>
  </way>
  <way id="27822840" version="23" timestamp="2025-03-22T21:16:15Z" changeset="163964538" uid="44217" user="kjon">
    <nd ref="21035975"/>
    <nd ref="529277563"/>
    <nd ref="660735877"/>
    <nd ref="9995964386"/>
    <nd ref="4198922273"/>
    <nd ref="2786404192"/>
    <nd ref="2786404186"/>
    <nd ref="267150082"/>
    <nd ref="9672752023"/>
    <nd ref="1866984659"/>
    <nd ref="16259352"/>
    <tag k="bicycle" v="use_sidepath"/>
    <tag k="highway" v="secondary"/>
    <tag k="lanes" v="2"/>
    <tag k="lit" v="yes"/>
    <tag k="maxspeed" v="50"/>
    <tag k="maxspeed:conditional" v="30 @ (Mo-Fr 07:00 - 18:00;PH off)"/>
    <tag k="name" v="Ackermannstraße"/>
    <tag k="oneway" v="yes"/>
    <tag k="parking:right" v="yes"/>
    <tag k="parking:right:orientation" v="parallel"/>
    <tag k="sidewalk:left" v="no"/>
    <tag k="sidewalk:right" v="separate"/>
    <tag k="surface" v="asphalt"/>
  </way>
  <way id="27822841" version="10" timestamp="2025-03-22T21:16:15Z" changeset="163964538" uid="44217" user="kjon">
    <nd ref="21035975"/>
    <nd ref="21035971"/>
    <nd ref="241778638"/>
    <tag k="bicycle" v="use_sidepath"/>
    <tag k="foot" v="use_sidepath"/>
    <tag k="highway" v="secondary"/>
    <tag k="lit" v="yes"/>
    <tag k="maxspeed" v="50"/>
    <tag k="name" v="Schwere-Reiter-Straße"/>
    <tag k="name:etymology:wikidata" v="Q1660893"/>
    <tag k="oneway" v="yes"/>
    <tag k="parking:both" v="no"/>
    <tag k="surface" v="asphalt"/>
  </way>
  <way id="29279743" version="26" timestamp="2025-03-22T21:16:15Z" changeset="163964538" uid="44217" user="kjon">
    <nd ref="16527631"/>
    <nd ref="315658945"/>
    <nd ref="2357421298"/>
    <nd ref="1077641229"/>
    <nd ref="16527634"/>
    <nd ref="3310019821"/>
    <nd ref="3310019816"/>
    <nd ref="678298829"/>
    <nd ref="8065749705"/>
    <nd ref="16527632"/>
    <nd ref="1564838749"/>
    <nd ref="500288852"/>
    <nd ref="4729062274"/>
    <nd ref="3551117668"/>
    <nd ref="1562571630"/>
    <nd ref="1562571627"/>
    <nd ref="27733777"/>
    <tag k="bicycle" v="yes"/>
    <tag k="bicycle_road" v="yes"/>
    <tag k="class:bicycle" v="1"/>
    <tag k="highway" v="residential"/>
    <tag k="lit" v="yes"/>
    <tag k="maxspeed" v="30"/>
    <tag k="name" v="Winzererstraße"/>
    <tag k="parking:both" v="lane"/>
    <tag k="parking:both:orientation" v="parallel"/>
    <tag k="smoothness" v="good"/>
    <tag k="source:maxspeed" v="DE:bicycle_road"/>
    <tag k="surface" v="asphalt"/>
    <tag k="traffic_sign" v="DE:bicycle_road"/>
  </way>
  <way id="29424898" version="11" timestamp="2024-11-24T20:59:35Z" changeset="159549876" uid="536583" user="Strubbl">
    <nd ref="324293713"/>
    <nd ref="666996782"/>
    <nd ref="5177954810"/>
    <nd ref="324293761"/>
    <tag k="highway" v="residential"/>
    <tag k="maxspeed" v="30"/>
    <tag k="maxspeed:type" v="DE:zone30"/>
    <tag k="name" v="Adams-Lehmann-Straße"/>
    <tag k="name:etymology:wikidata" v="Q448583"/>
    <tag k="sidewalk" v="no"/>
    <tag k="surface" v="asphalt"/>
  </way>
  <way id="37763180" version="4" timestamp="2022-05-09T06:49:54Z" changeset="120730868" uid="6374145" user="donalddu">
    <nd ref="442960611"/>
    <nd ref="442960612"/>
    <nd ref="442960613"/>
    <nd ref="442960614"/>
    <nd ref="442960611"/>
    <tag k="addr:city" v="München"/>
    <tag k="addr:country" v="DE"/>
    <tag k="addr:housenumber" v="4"/>
    <tag k="addr:postcode" v="80797"/>
    <tag k="addr:street" v="Rosa-Aschenbrenner-Bogen"/>
    <tag k="building" v="apartments"/>
    <tag k="building:levels" v="4"/>
  </way>
  <way id="37763222" version="2" timestamp="2012-09-30T19:25:18Z" changeset="13314234" uid="199802" user="holger74">
    <nd ref="442961308"/>
    <nd ref="442961309"/>
    <nd ref="442961311"/>
    <nd ref="442961312"/>
    <nd ref="442961308"/>
    <tag k="addr:city" v="München"/>
    <tag k="addr:country" v="DE"/>
    <tag k="addr:housenumber" v="6"/>
    <tag k="addr:postcode" v="80797"/>
    <tag k="addr:street" v="Rosa-Aschenbrenner-Bogen"/>
    <tag k="building" v="yes"/>
  </way>
  <way id="37763248" version="6" timestamp="2021-09-18T09:23:04Z" changeset="111366967" uid="6374145" user="donalddu">
    <nd ref="442961769"/>
    <nd ref="442961770"/>
    <nd ref="442961772"/>
    <nd ref="442961775"/>
    <nd ref="442961769"/>
    <tag k="addr:city" v="München"/>
    <tag k="addr:country" v="DE"/>
    <tag k="addr:housenumber" v="8"/>
    <tag k="addr:postcode" v="80797"/>
    <tag k="addr:street" v="Rosa-Aschenbrenner-Bogen"/>
    <tag k="building" v="apartments"/>
    <tag k="building:levels" v="4"/>
  </way>
  <way id="37764478" version="6" timestamp="2023-03-26T15:52:12Z" changeset="134141265" uid="16518908" user="Mapandy">
    <nd ref="442980231"/>
    <nd ref="442980232"/>
    <nd ref="1692629791"/>
    <nd ref="442980233"/>
    <nd ref="442980235"/>
    <nd ref="1692629783"/>
    <nd ref="2786458178"/>
    <nd ref="442980231"/>
    <tag k="addr:housenumber" v="43"/>
    <tag k="addr:street" v="Therese-Studer-Straße"/>
    <tag k="building" v="apartments"/>
    <tag k="building:levels" v="6"/>
    <tag k="roof:colour" v="grey"/>
    <tag k="roof:shape" v="flat"/>
  </way>
  <way id="38868688" version="11" timestamp="2024-07-28T10:09:24Z" changeset="154513369" uid="18493611" user="MunichWays">
    <nd ref="27733777"/>
    <nd ref="1562420357"/>
    <nd ref="3348418204"/>
    <tag k="bicycle" v="use_sidepath"/>
    <tag k="class:bicycle" v="-1"/>
    <tag k="highway" v="tertiary"/>
    <tag k="lanes" v="2"/>
    <tag k="lit" v="yes"/>
    <tag k="maxspeed" v="50"/>
    <tag k="name" v="Winzererstraße"/>
    <tag k="smoothness" v="excellent"/>
    <tag k="surface" v="asphalt"/>
  </way>
  <way id="48552765" version="5" timestamp="2021-09-02T11:15:14Z" changeset="110614119" uid="13879455" user="Tungdiil">
    <nd ref="616756727"/>
    <nd ref="3656307762"/>
    <nd ref="3656307760"/>
    <nd ref="3656307772"/>
    <nd ref="3656307774"/>
    <nd ref="616756728"/>
    <nd ref="616756729"/>
    <nd ref="616760054"/>
    <nd ref="616756730"/>
    <nd ref="3656307765"/>
    <nd ref="3656307777"/>
    <nd ref="616756727"/>
    <tag k="addr:housenumber" v="34"/>
    <tag k="addr:street" v="Adams-Lehmann-Straße"/>
    <tag k="building" v="apartments"/>
    <tag k="building:levels" v="8"/>
  </way>
  <way id="48553182" version="5" timestamp="2021-09-02T11:15:14Z" changeset="110614119" uid="13879455" user="Tungdiil">
    <nd ref="616756729"/>
    <nd ref="1351827107"/>
    <nd ref="3656307776"/>
    <nd ref="3656307771"/>
    <nd ref="3656307770"/>
    <nd ref="3656307768"/>
    <nd ref="616760069"/>
    <nd ref="616760071"/>
    <nd ref="1351827087"/>
    <nd ref="616760054"/>
    <nd ref="616756729"/>
    <tag k="addr:housenumber" v="32"/>
    <tag k="addr:street" v="Adams-Lehmann-Straße"/>
    <tag k="building" v="apartments"/>
    <tag k="building:levels" v="6"/>
  </way>
  <way id="48553183" version="8" timestamp="2021-09-02T11:15:15Z" changeset="110614119" uid="13879455" user="Tungdiil">
    <nd ref="616760069"/>
    <nd ref="3656307769"/>
    <nd ref="3656307766"/>
    <nd ref="1775360393"/>
    <nd ref="3656307764"/>
    <nd ref="3656307761"/>
    <nd ref="616760345"/>
    <nd ref="616763069"/>
    <nd ref="616760071"/>
    <nd ref="616760069"/>
    <tag k="addr:city" v="München"/>
    <tag k="addr:housenumber" v="30"/>
    <tag k="addr:postcode" v="80797"/>
    <tag k="addr:street" v="Adams-Lehmann-Straße"/>
    <tag k="building" v="apartments"/>
    <tag k="building:levels" v="6"/>
  </way>
  <way id="48553565" version="9" timestamp="2021-09-08T06:59:43Z" changeset="110897025" uid="13523345" user="enanoide">
    <nd ref="616763070"/>
    <nd ref="616763072"/>
    <nd ref="616763073"/>
    <nd ref="616763500"/>
    <nd ref="3656307778"/>
    <nd ref="9072876491"/>
    <nd ref="616763071"/>
    <nd ref="616763070"/>
    <tag k="addr:city" v="München"/>
    <tag k="addr:country" v="DE"/>
    <tag k="addr:housenumber" v="54"/>
    <tag k="addr:postcode" v="80797"/>
    <tag k="addr:street" v="Adams-Lehmann-Straße"/>
    <tag k="building" v="apartments"/>
    <tag k="building:levels" v="6"/>
  </way>
  <way id="48555791" version="2" timestamp="2017-04-30T09:52:43Z" changeset="48277437" uid="371369" user="mucx">
    <nd ref="616779788"/>
    <nd ref="616779789"/>
    <nd ref="616779790"/>
    <nd ref="4826712261"/>
    <nd ref="4826712260"/>
    <nd ref="4826712259"/>
    <nd ref="4826712262"/>
    <nd ref="616779791"/>
    <nd ref="616779788"/>
    <tag k="addr:housenumber" v="23"/>
    <tag k="addr:street" v="Adams-Lehmann-Straße"/>
    <tag k="building" v="yes"/>
  </way>
  <way id="48555792" version="2" timestamp="2017-04-30T09:52:43Z" changeset="48277437" uid="371369" user="mucx">
    <nd ref="616779789"/>
    <nd ref="616779792"/>
    <nd ref="616779793"/>
    <nd ref="4826712255"/>
    <nd ref="4826712256"/>
    <nd ref="4826712258"/>
    <nd ref="4826712257"/>
    <nd ref="616779790"/>
    <nd ref="616779789"/>
    <tag k="addr:housenumber" v="13"/>
    <tag k="addr:street" v="Adams-Lehmann-Straße"/>
    <tag k="building" v="yes"/>
  </way>
  <way id="48555850" version="3" timestamp="2017-04-30T09:52:43Z" changeset="48277437" uid="371369" user="mucx">
    <nd ref="616780826"/>
    <nd ref="4826712259"/>
    <nd ref="4826712260"/>
    <nd ref="616780841"/>
    <nd ref="616780844"/>
    <nd ref="4826712241"/>
    <nd ref="4826712239"/>
    <nd ref="4826712240"/>
    <nd ref="4826712242"/>
    <nd ref="616780847"/>
    <nd ref="616780826"/>
    <tag k="addr:housenumber" v="21"/>
    <tag k="addr:street" v="Adams-Lehmann-Straße"/>
    <tag k="building" v="yes"/>
  </way>
  <way id="48556064" version="2" timestamp="2017-04-30T09:52:44Z" changeset="48277437" uid="371369" user="mucx">
    <nd ref="616780841"/>
    <nd ref="4826712258"/>
    <nd ref="4826712256"/>
    <nd ref="616782505"/>
    <nd ref="616782511"/>
    <nd ref="4826712245"/>
    <nd ref="4826712243"/>
    <nd ref="4826712244"/>
    <nd ref="4826712246"/>
    <nd ref="616780844"/>
    <nd ref="616780841"/>
    <tag k="addr:housenumber" v="11"/>
    <tag k="addr:street" v="Adams-Lehmann-Straße"/>
    <tag k="building" v="yes"/>
  </way>
  <way id="48556126" version="2" timestamp="2017-04-30T09:52:44Z" changeset="48277437" uid="371369" user="mucx">
    <nd ref="616784187"/>
    <nd ref="4826712240"/>
    <nd ref="4826712239"/>
    <nd ref="616784190"/>
    <nd ref="616784212"/>
    <nd ref="4826712238"/>
    <nd ref="4826712235"/>
    <nd ref="4826712236"/>
    <nd ref="4826712237"/>
    <nd ref="616784213"/>
    <nd ref="616784187"/>
    <tag k="addr:housenumber" v="19"/>
    <tag k="addr:street" v="Adams-Lehmann-Straße"/>
    <tag k="building" v="yes"/>
  </way>
  <way id="48556127" version="2" timestamp="2017-04-30T09:52:44Z" changeset="48277437" uid="371369" user="mucx">
    <nd ref="616784228"/>
    <nd ref="616784236"/>
    <nd ref="616784242"/>
    <nd ref="4826712143"/>
    <nd ref="4826712140"/>
    <nd ref="4826712141"/>
    <nd ref="4826712142"/>
    <nd ref="616784247"/>
    <nd ref="616784228"/>
    <tag k="addr:housenumber" v="17"/>
    <tag k="addr:street" v="Adams-Lehmann-Straße"/>
    <tag k="building" v="yes"/>
  </way>
  <way id="48912814" version="2" timestamp="2017-04-30T09:52:44Z" changeset="48277437" uid="371369" user="mucx">
    <nd ref="616784236"/>
    <nd ref="620770393"/>
    <nd ref="620770394"/>
    <nd ref="4826712146"/>
    <nd ref="4826712144"/>
    <nd ref="4826712145"/>
    <nd ref="4826712147"/>
    <nd ref="616784242"/>
    <nd ref="616784236"/>
    <tag k="addr:housenumber" v="9"/>
    <tag k="addr:street" v="Adams-Lehmann-Straße"/>
    <tag k="building" v="yes"/>
  </way>
  <way id="48912815" version="3" timestamp="2023-09-16T09:01:15Z" changeset="141331876" uid="78613" user="heilbron">
    <nd ref="620770406"/>
    <nd ref="4826712145"/>
    <nd ref="4826712144"/>
    <nd ref="620770408"/>
    <nd ref="620770411"/>
    <nd ref="4826712149"/>
    <nd ref="4826712148"/>
    <nd ref="4826712151"/>
    <nd ref="4826712150"/>
    <nd ref="620770414"/>
    <nd ref="620770406"/>
    <tag k="addr:housenumber" v="7"/>
    <tag k="addr:street" v="Adams-Lehmann-Straße"/>
    <tag k="building" v="apartments"/>
  </way>
  <way id="48912816" version="3" timestamp="2023-09-16T09:01:15Z" changeset="141331876" uid="78613" user="heilbron">
    <nd ref="620770418"/>
    <nd ref="620770419"/>
    <nd ref="4826712151"/>
    <nd ref="4826712148"/>
    <nd ref="620770421"/>
    <nd ref="620770423"/>
    <nd ref="4826712154"/>
    <nd ref="4826712152"/>
    <nd ref="4826712153"/>
    <nd ref="4826712155"/>
    <nd ref="620770418"/>
    <tag k="addr:housenumber" v="5"/>
    <tag k="addr:street" v="Adams-Lehmann-Straße"/>
    <tag k="building" v="apartments"/>
  </way>
  <way id="48912823" version="2" timestamp="2017-04-30T09:52:44Z" changeset="48277437" uid="371369" user="mucx">
    <nd ref="620770419"/>
    <nd ref="620771588"/>
    <nd ref="620771589"/>
    <nd ref="4826712159"/>
    <nd ref="4826712157"/>
    <nd ref="4826712156"/>
    <nd ref="4826712158"/>
    <nd ref="620770418"/>
    <nd ref="620770419"/>
    <tag k="addr:housenumber" v="15"/>
    <tag k="addr:street" v="Adams-Lehmann-Straße"/>
    <tag k="building" v="yes"/>
  </way>
  <way id="48914438" version="2" timestamp="2017-04-30T09:52:44Z" changeset="48277437" uid="371369" user="mucx">
    <nd ref="620771588"/>
    <nd ref="4826712132"/>
    <nd ref="4826712133"/>
    <nd ref="620773595"/>
    <nd ref="620773596"/>
    <nd ref="4826712163"/>
    <nd ref="4826712161"/>
    <nd ref="4826712160"/>
    <nd ref="4826712162"/>
    <nd ref="620771589"/>
    <nd ref="620771588"/>
    <tag k="addr:housenumber" v="35"/>
    <tag k="addr:street" v="Adams-Lehmann-Straße"/>
    <tag k="building" v="yes"/>
  </way>
  <way id="48914439" version="2" timestamp="2017-04-30T09:52:44Z" changeset="48277437" uid="371369" user="mucx">
    <nd ref="620773595"/>
    <nd ref="4826712169"/>
    <nd ref="4826712168"/>
    <nd ref="620773598"/>
    <nd ref="620773599"/>
    <nd ref="4826712166"/>
    <nd ref="4826712165"/>
    <nd ref="4826712164"/>
    <nd ref="4826712167"/>
    <nd ref="620773596"/>
    <nd ref="620773595"/>
    <tag k="addr:housenumber" v="37"/>
    <tag k="addr:street" v="Adams-Lehmann-Straße"/>
    <tag k="building" v="yes"/>
  </way>
  <way id="48914440" version="2" timestamp="2017-04-30T09:52:44Z" changeset="48277437" uid="371369" user="mucx">
    <nd ref="620773600"/>
    <nd ref="620773601"/>
    <nd ref="4826712136"/>
    <nd ref="4826712137"/>
    <nd ref="620773602"/>
    <nd ref="620773603"/>
    <nd ref="4826712135"/>
    <nd ref="4826712133"/>
    <nd ref="4826712132"/>
    <nd ref="4826712134"/>
    <nd ref="620773600"/>
    <tag k="addr:housenumber" v="33"/>
    <tag k="addr:street" v="Adams-Lehmann-Straße"/>
    <tag k="building" v="yes"/>
  </way>
  <way id="48914441" version="2" timestamp="2017-04-30T09:52:45Z" changeset="48277437" uid="371369" user="mucx">
    <nd ref="620773604"/>
    <nd ref="620773605"/>
    <nd ref="620773606"/>
    <nd ref="620773607"/>
    <nd ref="4826712139"/>
    <nd ref="4826712137"/>
    <nd ref="4826712136"/>
    <nd ref="4826712138"/>
    <nd ref="620773604"/>
    <tag k="addr:housenumber" v="31"/>
    <tag k="addr:street" v="Adams-Lehmann-Straße"/>
    <tag k="building" v="yes"/>
  </way>
  <way id="48914631" version="2" timestamp="2017-04-30T09:52:45Z" changeset="48277437" uid="371369" user="mucx">
    <nd ref="620774667"/>
    <nd ref="620774668"/>
    <nd ref="4826712231"/>
    <nd ref="4826712232"/>
    <nd ref="620774669"/>
    <nd ref="620774670"/>
    <nd ref="4826712230"/>
    <nd ref="4826712228"/>
    <nd ref="4826712227"/>
    <nd ref="4826712229"/>
    <nd ref="620774667"/>
    <tag k="addr:housenumber" v="29"/>
    <tag k="addr:street" v="Adams-Lehmann-Straße"/>
    <tag k="building" v="yes"/>
  </way>
  <way id="48914632" version="2" timestamp="2017-04-30T09:52:45Z" changeset="48277437" uid="371369" user="mucx">
    <nd ref="620774671"/>
    <nd ref="620774672"/>
    <nd ref="4826712249"/>
    <nd ref="4826712250"/>
    <nd ref="620774673"/>
    <nd ref="620774674"/>
    <nd ref="4826712234"/>
    <nd ref="4826712232"/>
    <nd ref="4826712231"/>
    <nd ref="4826712233"/>
    <nd ref="620774671"/>
    <tag k="addr:housenumber" v="27"/>
    <tag k="addr:street" v="Adams-Lehmann-Straße"/>
    <tag k="building" v="yes"/>
  </way>
  <way id="48914633" version="2" timestamp="2017-04-30T09:52:45Z" changeset="48277437" uid="371369" user="mucx">
    <nd ref="616779791"/>
    <nd ref="616779788"/>
    <nd ref="620774677"/>
    <nd ref="620774678"/>
    <nd ref="4826712248"/>
    <nd ref="4826712250"/>
    <nd ref="4826712249"/>
    <nd ref="4826712247"/>
    <nd ref="616779791"/>
    <tag k="addr:housenumber" v="25"/>
    <tag k="addr:street" v="Adams-Lehmann-Straße"/>
    <tag k="building" v="yes"/>
  </way>
  <way id="48914634" version="2" timestamp="2017-04-30T09:52:45Z" changeset="48277437" uid="371369" user="mucx">
    <nd ref="620773603"/>
    <nd ref="4826712171"/>
    <nd ref="4826712169"/>
    <nd ref="4826712168"/>
    <nd ref="4826712170"/>
    <nd ref="620774679"/>
    <nd ref="620774680"/>
    <nd ref="4826712172"/>
    <nd ref="4826712173"/>
    <nd ref="620773602"/>
    <nd ref="620773603"/>
    <tag k="addr:housenumber" v="39"/>
    <tag k="addr:street" v="Adams-Lehmann-Straße"/>
    <tag k="building" v="yes"/>
  </way>
  <way id="48914635" version="2" timestamp="2017-04-30T09:52:45Z" changeset="48277437" uid="371369" user="mucx">
    <nd ref="620773607"/>
    <nd ref="4826712174"/>
    <nd ref="4826712173"/>
    <nd ref="4826712172"/>
    <nd ref="4826712175"/>
    <nd ref="620774681"/>
    <nd ref="620774682"/>
    <nd ref="620773606"/>
    <nd ref="620773607"/>
    <tag k="addr:housenumber" v="41"/>
    <tag k="addr:street" v="Adams-Lehmann-Straße"/>
    <tag k="building" v="yes"/>
  </way>
  <way id="48914705" version="2" timestamp="2017-04-30T09:52:45Z" changeset="48277437" uid="371369" user="mucx">
    <nd ref="620774670"/>
    <nd ref="4826712224"/>
    <nd ref="4826712225"/>
    <nd ref="4826712226"/>
    <nd ref="620777500"/>
    <nd ref="4826712223"/>
    <nd ref="620777507"/>
    <nd ref="4826712219"/>
    <nd ref="4826712222"/>
    <nd ref="620774669"/>
    <nd ref="620774670"/>
    <tag k="addr:housenumber" v="43"/>
    <tag k="addr:street" v="Adams-Lehmann-Straße"/>
    <tag k="building" v="yes"/>
  </way>
  <way id="48914837" version="2" timestamp="2017-04-30T09:52:45Z" changeset="48277437" uid="371369" user="mucx">
    <nd ref="620774674"/>
    <nd ref="4826712221"/>
    <nd ref="4826712222"/>
    <nd ref="4826712219"/>
    <nd ref="4826712220"/>
    <nd ref="620779395"/>
    <nd ref="620779397"/>
    <nd ref="4826712252"/>
    <nd ref="4826712251"/>
    <nd ref="620774673"/>
    <nd ref="620774674"/>
    <tag k="addr:housenumber" v="45"/>
    <tag k="addr:street" v="Adams-Lehmann-Straße"/>
    <tag k="building" v="yes"/>
  </way>
  <way id="48914925" version="3" timestamp="2017-04-30T09:52:45Z" changeset="48277437" uid="371369" user="mucx">
    <nd ref="620774678"/>
    <nd ref="4826712253"/>
    <nd ref="4826712251"/>
    <nd ref="4826712252"/>
    <nd ref="4826712254"/>
    <nd ref="620786576"/>
    <nd ref="620781459"/>
    <nd ref="620774677"/>
    <nd ref="620774678"/>
    <tag k="addr:housenumber" v="47"/>
    <tag k="addr:street" v="Adams-Lehmann-Straße"/>
    <tag k="building" v="yes"/>
  </way>
  <way id="48915665" version="2" timestamp="2017-04-30T09:52:45Z" changeset="48277437" uid="371369" user="mucx">
    <nd ref="620786543"/>
    <nd ref="4826712191"/>
    <nd ref="4826712188"/>
    <nd ref="4826712189"/>
    <nd ref="4826712190"/>
    <nd ref="620786544"/>
    <nd ref="620786545"/>
    <nd ref="4826712197"/>
    <nd ref="4826712196"/>
    <nd ref="620786546"/>
    <nd ref="620786543"/>
    <tag k="addr:housenumber" v="61"/>
    <tag k="addr:street" v="Adams-Lehmann-Straße"/>
    <tag k="building" v="yes"/>
  </way>
  <way id="48915666" version="3" timestamp="2017-04-30T09:52:46Z" changeset="48277437" uid="371369" user="mucx">
    <nd ref="620786547"/>
    <nd ref="4826712199"/>
    <nd ref="4826712196"/>
    <nd ref="4826712197"/>
    <nd ref="4826712198"/>
    <nd ref="620786548"/>
    <nd ref="620786549"/>
    <nd ref="620786550"/>
    <nd ref="620786547"/>
    <tag k="addr:housenumber" v="63"/>
    <tag k="addr:street" v="Adams-Lehmann-Straße"/>
    <tag k="building" v="yes"/>
  </way>
  <way id="48915667" version="2" timestamp="2017-04-30T09:52:46Z" changeset="48277437" uid="371369" user="mucx">
    <nd ref="620786551"/>
    <nd ref="620786552"/>
    <nd ref="4826712201"/>
    <nd ref="4826712204"/>
    <nd ref="4826712203"/>
    <nd ref="4826712202"/>
    <nd ref="620786553"/>
    <nd ref="620786554"/>
    <nd ref="4826712206"/>
    <nd ref="4826712205"/>
    <nd ref="620786551"/>
    <tag k="addr:housenumber" v="65"/>
    <tag k="addr:street" v="Adams-Lehmann-Straße"/>
    <tag k="building" v="yes"/>
  </way>
  <way id="48915668" version="2" timestamp="2017-04-30T09:52:46Z" changeset="48277437" uid="371369" user="mucx">
    <nd ref="620786555"/>
    <nd ref="4826712208"/>
    <nd ref="4826712205"/>
    <nd ref="4826712206"/>
    <nd ref="4826712207"/>
    <nd ref="620786556"/>
    <nd ref="620786557"/>
    <nd ref="4826712210"/>
    <nd ref="4826712209"/>
    <nd ref="620786558"/>
    <nd ref="620786555"/>
    <tag k="addr:housenumber" v="67"/>
    <tag k="addr:street" v="Adams-Lehmann-Straße"/>
    <tag k="building" v="yes"/>
  </way>
  <way id="48915669" version="2" timestamp="2017-04-30T09:52:46Z" changeset="48277437" uid="371369" user="mucx">
    <nd ref="620786559"/>
    <nd ref="4826712218"/>
    <nd ref="4826712209"/>
    <nd ref="4826712210"/>
    <nd ref="4826712211"/>
    <nd ref="620786560"/>
    <nd ref="620786561"/>
    <nd ref="620786562"/>
    <nd ref="620786559"/>
    <tag k="addr:housenumber" v="69"/>
    <tag k="addr:street" v="Adams-Lehmann-Straße"/>
    <tag k="building" v="yes"/>
  </way>
  <way id="48915670" version="2" timestamp="2017-04-30T09:52:46Z" changeset="48277437" uid="371369" user="mucx">
    <nd ref="620786563"/>
    <nd ref="4826712214"/>
    <nd ref="4826712215"/>
    <nd ref="620786558"/>
    <nd ref="620786555"/>
    <nd ref="620786564"/>
    <nd ref="620786563"/>
    <tag k="addr:housenumber" v="51"/>
    <tag k="addr:street" v="Adams-Lehmann-Straße"/>
    <tag k="building" v="yes"/>
  </way>
  <way id="48915671" version="2" timestamp="2017-04-30T09:52:46Z" changeset="48277437" uid="371369" user="mucx">
    <nd ref="620774682"/>
    <nd ref="620786550"/>
    <nd ref="620786547"/>
    <nd ref="4826712195"/>
    <nd ref="4826712192"/>
    <nd ref="4826712194"/>
    <nd ref="4826712193"/>
    <nd ref="620774681"/>
    <nd ref="620774682"/>
    <tag k="addr:housenumber" v="53"/>
    <tag k="addr:street" v="Adams-Lehmann-Straße"/>
    <tag k="building" v="yes"/>
  </way>
  <way id="48915672" version="2" timestamp="2017-04-30T09:52:46Z" changeset="48277437" uid="371369" user="mucx">
    <nd ref="620786567"/>
    <nd ref="4826712194"/>
    <nd ref="4826712192"/>
    <nd ref="620786546"/>
    <nd ref="620786543"/>
    <nd ref="4826712185"/>
    <nd ref="4826712187"/>
    <nd ref="4826712186"/>
    <nd ref="4826712184"/>
    <nd ref="620786568"/>
    <nd ref="620786567"/>
    <tag k="addr:housenumber" v="55"/>
    <tag k="addr:street" v="Adams-Lehmann-Straße"/>
    <tag k="building" v="yes"/>
  </way>
  <way id="48915673" version="2" timestamp="2017-04-30T09:52:46Z" changeset="48277437" uid="371369" user="mucx">
    <nd ref="620786569"/>
    <nd ref="4826712186"/>
    <nd ref="4826712187"/>
    <nd ref="620786570"/>
    <nd ref="620786571"/>
    <nd ref="4826712183"/>
    <nd ref="4826712182"/>
    <nd ref="4826712181"/>
    <nd ref="4826712180"/>
    <nd ref="620786572"/>
    <nd ref="620786569"/>
    <tag k="addr:housenumber" v="57"/>
    <tag k="addr:street" v="Adams-Lehmann-Straße"/>
    <tag k="building" v="yes"/>
  </way>
  <way id="48915674" version="2" timestamp="2017-04-30T09:52:46Z" changeset="48277437" uid="371369" user="mucx">
    <nd ref="620786570"/>
    <nd ref="4826712188"/>
    <nd ref="4826712189"/>
    <nd ref="620786573"/>
    <nd ref="620786574"/>
    <nd ref="4826712179"/>
    <nd ref="4826712178"/>
    <nd ref="4826712177"/>
    <nd ref="4826712176"/>
    <nd ref="620786571"/>
    <nd ref="620786570"/>
    <tag k="addr:housenumber" v="59"/>
    <tag k="addr:street" v="Adams-Lehmann-Straße"/>
    <tag k="building" v="yes"/>
  </way>
  <way id="48915675" version="2" timestamp="2017-04-30T09:52:46Z" changeset="48277437" uid="371369" user="mucx">
    <nd ref="620781459"/>
    <nd ref="620786576"/>
    <nd ref="4826712217"/>
    <nd ref="4826712212"/>
    <nd ref="4826712213"/>
    <nd ref="4826712216"/>
    <nd ref="620786559"/>
    <nd ref="620786562"/>
    <nd ref="620781459"/>
    <tag k="addr:housenumber" v="49"/>
    <tag k="addr:street" v="Adams-Lehmann-Straße"/>
    <tag k="building" v="yes"/>
  </way>
  <way id="80379416" version="5" timestamp="2022-04-27T14:46:17Z" changeset="120263469" uid="15543531" user="lbd4osm">
    <nd ref="938032713"/>
    <nd ref="938032209"/>
    <nd ref="938032438"/>
    <nd ref="938033314"/>
    <nd ref="938032713"/>
    <tag k="addr:city" v="München"/>
    <tag k="addr:housenumber" v="41"/>
    <tag k="addr:postcode" v="80797"/>
    <tag k="addr:street" v="Schwere-Reiter-Straße"/>
    <tag k="building" v="yes"/>
    <tag k="government" v="administrative"/>
    <tag k="name" v="Landesbaudirektion Bayern"/>
    <tag k="office" v="government"/>
    <tag k="ref" v="D"/>
    <tag k="website" v="https://www.lbd.bayern.de/"/>
  </way>
  <way id="80379440" version="4" timestamp="2016-11-23T21:47:06Z" changeset="43906698" uid="78613" user="heilbron">
    <nd ref="938033409"/>
    <nd ref="938033310"/>
    <nd ref="938032125"/>
    <nd ref="938033041"/>
    <nd ref="938033349"/>
    <nd ref="938032887"/>
    <nd ref="938033090"/>
    <nd ref="938032494"/>
    <nd ref="938032634"/>
    <nd ref="938033420"/>
    <nd ref="938032241"/>
    <nd ref="938033156"/>
    <nd ref="938033450"/>
    <nd ref="938032696"/>
    <nd ref="938032812"/>
    <nd ref="938032160"/>
    <nd ref="938032341"/>
    <nd ref="938033266"/>
    <nd ref="938032559"/>
    <nd ref="938033387"/>
    <nd ref="938033409"/>
    <tag k="addr:housenumber" v="45"/>
    <tag k="addr:street" v="Winzererstraße"/>
    <tag k="building" v="yes"/>
    <tag k="building:levels" v="3"/>
  </way>
  <way id="80379476" version="5" timestamp="2022-10-31T05:59:36Z" changeset="128277776" uid="5017610" user="maxwxyz">
    <nd ref="938033060"/>
    <nd ref="938032978"/>
    <nd ref="938033052"/>
    <nd ref="938032447"/>
    <nd ref="938032774"/>
    <nd ref="938032133"/>
    <nd ref="938032508"/>
    <nd ref="938033356"/>
    <nd ref="938032168"/>
    <nd ref="938033099"/>
    <nd ref="938033177"/>
    <nd ref="938032646"/>
    <nd ref="938033060"/>
    <tag k="addr:housenumber" v="41"/>
    <tag k="addr:street" v="Winzererstraße"/>
    <tag k="building" v="government"/>
    <tag k="name" v="Staatliches Bauamt Freising"/>
    <tag k="ref" v="G"/>
  </way>
  <way id="87602698" version="16" timestamp="2025-03-22T21:16:15Z" changeset="163964538" uid="44217" user="kjon">
    <nd ref="500288693"/>
    <nd ref="267142815"/>
    <nd ref="1564838738"/>
    <nd ref="267142816"/>
    <tag k="bicycle" v="yes"/>
    <tag k="bicycle_road" v="yes"/>
    <tag k="class:bicycle" v="2"/>
    <tag k="cycleway:both" v="no"/>
    <tag k="highway" v="unclassified"/>
    <tag k="lane_markings" v="no"/>
    <tag k="lit" v="yes"/>
    <tag k="maxspeed" v="30"/>
    <tag k="name" v="Schwere-Reiter-Straße"/>
    <tag k="name:etymology:wikidata" v="Q1660893"/>
    <tag k="oneway" v="yes"/>
    <tag k="oneway:bicycle" v="no"/>
    <tag k="sidewalk:right" v="separate"/>
    <tag k="source:maxspeed" v="DE:bicycle_road"/>
    <tag k="surface" v="asphalt"/>
    <tag k="traffic_sign" v="DE:244.1"/>
    <tag k="zone:traffic" v="DE:urban"/>
  </way>
  <way id="95735556" version="22" timestamp="2025-03-22T21:16:15Z" changeset="163964538" uid="44217" user="kjon">
    <nd ref="267142816"/>
    <nd ref="324293713"/>
    <nd ref="1564838733"/>
    <nd ref="3144392253"/>
    <nd ref="267150078"/>
    <nd ref="1564838783"/>
    <tag k="bicycle" v="yes"/>
    <tag k="bicycle_road" v="yes"/>
    <tag k="class:bicycle" v="2"/>
    <tag k="cycleway:both" v="no"/>
    <tag k="highway" v="unclassified"/>
    <tag k="lane_markings" v="no"/>
    <tag k="maxspeed" v="30"/>
    <tag k="name" v="Schwere-Reiter-Straße"/>
    <tag k="name:etymology:wikidata" v="Q1660893"/>
    <tag k="oneway" v="yes"/>
    <tag k="oneway:bicycle" v="no"/>
    <tag k="sidewalk" v="separate"/>
    <tag k="source:maxspeed" v="DE:bicycle_road"/>
    <tag k="surface" v="asphalt"/>
    <tag k="traffic_sign" v="DE:244.1"/>
    <tag k="zone:traffic" v="DE:urban"/>
  </way>
  <way id="118181662" version="4" timestamp="2024-09-25T15:38:37Z" changeset="157089550" uid="225813" user="archINFORM">
    <nd ref="1329678034"/>
    <nd ref="1329678033"/>
    <nd ref="1329678035"/>
    <nd ref="1329678032"/>
    <nd ref="1329678031"/>
    <nd ref="1329678030"/>
    <nd ref="1329678024"/>
    <nd ref="1329678025"/>
    <nd ref="1329678021"/>
    <nd ref="1329678018"/>
    <nd ref="1329678013"/>
    <nd ref="1329678015"/>
    <nd ref="1329678019"/>
    <nd ref="2787314864"/>
    <nd ref="1329678020"/>
    <nd ref="1329678016"/>
    <nd ref="1329678017"/>
    <nd ref="1329678009"/>
    <nd ref="1329678004"/>
    <nd ref="1329678008"/>
    <nd ref="1329678010"/>
    <nd ref="1329678012"/>
    <nd ref="1329678014"/>
    <nd ref="1329678022"/>
    <nd ref="1329678023"/>
    <nd ref="1329678027"/>
    <nd ref="1329678026"/>
    <nd ref="1329678028"/>
    <nd ref="1329678029"/>
    <nd ref="1329678034"/>
    <tag k="building" v="office"/>
    <tag k="name" v="Deutsches Patent- und Markenamt"/>
    <tag k="wikidata" v="Q130363679"/>
  </way>
  <way id="129467377" version="3" timestamp="2017-04-30T09:52:47Z" changeset="48277437" uid="371369" user="mucx">
    <nd ref="4826711416"/>
    <nd ref="668982710"/>
    <nd ref="1428341202"/>
    <nd ref="1428341203"/>
    <nd ref="1428341204"/>
    <nd ref="1428341205"/>
    <nd ref="4826711416"/>
    <tag k="addr:housenumber" v="4"/>
    <tag k="addr:street" v="Adams-Lehmann-Straße"/>
    <tag k="building" v="yes"/>
  </way>
  <way id="129467785" version="3" timestamp="2021-09-02T10:10:19Z" changeset="110610177" uid="13879455" user="Tungdiil">
    <nd ref="1428344605"/>
    <nd ref="1428344604"/>
    <nd ref="1428344606"/>
    <nd ref="1428344607"/>
    <nd ref="1428344608"/>
    <nd ref="1428344609"/>
    <nd ref="1428344605"/>
    <tag k="addr:housenumber" v="14"/>
    <tag k="addr:street" v="Adams-Lehmann-Straße"/>
    <tag k="building" v="apartments"/>
    <tag k="building:levels" v="5"/>
  </way>
  <way id="129467786" version="4" timestamp="2023-10-07T13:46:50Z" changeset="142269984" uid="4376164" user="redweizn">
    <nd ref="1428344611"/>
    <nd ref="1428344610"/>
    <nd ref="1428344612"/>
    <nd ref="1428344613"/>
    <nd ref="1428344614"/>
    <nd ref="1428344615"/>
    <nd ref="1428344611"/>
    <tag k="addr:housenumber" v="16"/>
    <tag k="addr:street" v="Adams-Lehmann-Straße"/>
    <tag k="building" v="apartments"/>
    <tag k="building:levels" v="6"/>
    <tag k="roof:shape" v="flat"/>
  </way>
  <way id="129467787" version="1" timestamp="2011-09-09T20:51:42Z" changeset="9257893" uid="107803" user="andirun">
    <nd ref="1428344596"/>
    <nd ref="1428344595"/>
    <nd ref="1428344598"/>
    <nd ref="1428344599"/>
    <nd ref="1428344601"/>
    <nd ref="1428344603"/>
    <nd ref="1428344596"/>
    <tag k="addr:housenumber" v="6"/>
    <tag k="addr:street" v="Adams-Lehmann-Straße"/>
    <tag k="building" v="yes"/>
  </way>
  <way id="129467788" version="1" timestamp="2011-09-09T20:51:42Z" changeset="9257893" uid="107803" user="andirun">
    <nd ref="1428344600"/>
    <nd ref="1428344594"/>
    <nd ref="1428344597"/>
    <nd ref="1428344602"/>
    <nd ref="1428344600"/>
    <tag k="addr:housenumber" v="8"/>
    <tag k="addr:street" v="Adams-Lehmann-Straße"/>
    <tag k="building" v="yes"/>
  </way>
  <way id="142786391" version="12" timestamp="2025-05-08T12:33:28Z" changeset="165981266" uid="16061279" user="YellowSoul">
    <nd ref="3348495299"/>
    <nd ref="27733777"/>
    <tag k="bicycle" v="yes"/>
    <tag k="class:bicycle" v="-2"/>
    <tag k="cycleway:right" v="separate"/>
    <tag k="highway" v="tertiary"/>
    <tag k="lanes" v="1"/>
    <tag k="maxspeed" v="50"/>
    <tag k="name" v="Hohenzollernstraße"/>
    <tag k="name:etymology:wikidata" v="Q83969"/>
    <tag k="oneway" v="yes"/>
    <tag k="parking:lane:right:parallel" v="half_on_kerb"/>
    <tag k="parking:left" v="no"/>
    <tag k="parking:right" v="yes"/>
    <tag k="parking:right:orientation" v="parallel"/>
    <tag k="shoulder" v="right"/>
    <tag k="surface" v="asphalt"/>
  </way>
  <way id="151866165" version="16" timestamp="2025-03-22T21:16:15Z" changeset="163964538" uid="44217" user="kjon">
    <nd ref="21042658"/>
    <nd ref="3816135284"/>
    <nd ref="1078756913"/>
    <nd ref="4109555005"/>
    <nd ref="9672672312"/>
    <nd ref="3816135292"/>
    <nd ref="1776057560"/>
    <tag k="bicycle" v="use_sidepath"/>
    <tag k="foot" v="use_sidepath"/>
    <tag k="highway" v="secondary"/>
    <tag k="lanes" v="3"/>
    <tag k="maxspeed" v="50"/>
    <tag k="name" v="Schwere-Reiter-Straße"/>
    <tag k="name:etymology:wikidata" v="Q1660893"/>
    <tag k="oneway" v="yes"/>
    <tag k="parking:both" v="no"/>
    <tag k="placement" v="left_of:2"/>
    <tag k="sidewalk" v="separate"/>
    <tag k="surface" v="asphalt"/>
    <tag k="turn:lanes" v="left|through|through;right"/>
  </way>
  <way id="152543150" version="18" timestamp="2025-03-22T21:16:15Z" changeset="163964538" uid="44217" user="kjon">
    <nd ref="267142816"/>
    <nd ref="660735968"/>
    <nd ref="668982709"/>
    <nd ref="4826711418"/>
    <nd ref="2789304253"/>
    <nd ref="668982708"/>
    <nd ref="2836404749"/>
    <tag k="highway" v="residential"/>
    <tag k="lit" v="yes"/>
    <tag k="maxspeed" v="30"/>
    <tag k="name" v="Adams-Lehmann-Straße"/>
    <tag k="name:etymology:wikidata" v="Q448583"/>
    <tag k="parking:both" v="no"/>
    <tag k="sidewalk" v="both"/>
    <tag k="surface" v="asphalt"/>
  </way>
  <way id="152547045" version="11" timestamp="2022-04-03T20:54:51Z" changeset="119278538" uid="12419129" user="Suny Kim">
    <nd ref="16527735"/>
    <nd ref="16259352"/>
    <tag k="highway" v="residential"/>
    <tag k="lit" v="yes"/>
    <tag k="maxspeed" v="30"/>
    <tag k="name" v="Elisabeth-Kohn-Straße"/>
    <tag k="name:etymology:wikidata" v="Q1330061"/>
    <tag k="surface" v="asphalt"/>
    <tag k="zone:maxspeed" v="DE:30"/>
    <tag k="zone:traffic" v="DE:urban"/>
  </way>
  <way id="157028977" version="17" timestamp="2024-05-31T20:25:00Z" changeset="152097710" uid="137242" user="Rainero">
    <nd ref="660733764"/>
    <nd ref="2836611150"/>
    <nd ref="1692572876"/>
    <nd ref="2786527442"/>
    <nd ref="2786527464"/>
    <nd ref="2786527534"/>
    <nd ref="2786527428"/>
    <nd ref="267151004"/>
    <nd ref="1077641170"/>
    <nd ref="1077641180"/>
    <nd ref="16527629"/>
    <nd ref="1329697700"/>
    <nd ref="3123091177"/>
    <nd ref="16527631"/>
    <tag k="bicycle" v="designated"/>
    <tag k="bicycle_road" v="yes"/>
    <tag k="class:bicycle" v="1"/>
    <tag k="highway" v="residential"/>
    <tag k="lit" v="yes"/>
    <tag k="maxspeed" v="30"/>
    <tag k="motor_vehicle" v="yes"/>
    <tag k="name" v="Winzererstraße"/>
    <tag k="sidewalk" v="both"/>
    <tag k="source:maxspeed" v="DE:bicycle_road"/>
    <tag k="surface" v="asphalt"/>
    <tag k="traffic_sign" v="DE:bicycle_road"/>
  </way>
  <way id="157032551" version="8" timestamp="2023-09-16T09:01:23Z" changeset="141331887" uid="78613" user="heilbron">
    <nd ref="1692629740"/>
    <nd ref="2786404027"/>
    <nd ref="1692629753"/>
    <nd ref="2786404058"/>
    <nd ref="8620994134"/>
    <nd ref="16527665"/>
    <tag k="highway" v="residential"/>
    <tag k="lane_markings" v="no"/>
    <tag k="lit" v="yes"/>
    <tag k="maxspeed" v="30"/>
    <tag k="name" v="Centa-Herker-Bogen"/>
    <tag k="sidewalk" v="left"/>
    <tag k="surface" v="asphalt"/>
    <tag k="zone:maxspeed" v="DE:30"/>
    <tag k="zone:traffic" v="DE:urban"/>
  </way>
  <way id="157032553" version="4" timestamp="2022-08-14T21:16:26Z" changeset="124903932" uid="2554996" user="Nanoilite">
    <nd ref="1692629756"/>
    <nd ref="9953510885"/>
    <nd ref="16527646"/>
    <tag k="highway" v="residential"/>
    <tag k="maxspeed" v="30"/>
    <tag k="name" v="Felix-Fechenbach-Bogen"/>
    <tag k="name:etymology:wikidata" v="Q96743"/>
    <tag k="surface" v="asphalt"/>
  </way>
  <way id="157032556" version="5" timestamp="2022-08-02T17:56:47Z" changeset="124402938" uid="16518908" user="Mapandy">
    <nd ref="1692629755"/>
    <nd ref="1692629756"/>
    <tag k="covered" v="yes"/>
    <tag k="highway" v="residential"/>
    <tag k="maxheight" v="default"/>
    <tag k="maxspeed" v="30"/>
    <tag k="name" v="Felix-Fechenbach-Bogen"/>
    <tag k="name:etymology:wikidata" v="Q96743"/>
    <tag k="sidewalk" v="both"/>
    <tag k="surface" v="asphalt"/>
  </way>
  <way id="157032565" version="5" timestamp="2022-10-31T05:58:51Z" changeset="128278204" uid="5017610" user="maxwxyz">
    <nd ref="267150075"/>
    <nd ref="500288693"/>
    <tag k="highway" v="residential"/>
    <tag k="lane_markings" v="no"/>
    <tag k="maxspeed" v="50"/>
    <tag k="name" v="Schwere-Reiter-Straße"/>
    <tag k="name:etymology:wikidata" v="Q1660893"/>
    <tag k="oneway" v="yes"/>
    <tag k="sidewalk" v="separate"/>
    <tag k="surface" v="asphalt"/>
  </way>
  <way id="166123298" version="15" timestamp="2025-03-22T21:16:15Z" changeset="163964538" uid="44217" user="kjon">
    <nd ref="4171890372"/>
    <nd ref="3655631905"/>
    <nd ref="4171890373"/>
    <nd ref="1776057566"/>
    <tag k="cycleway:both" v="no"/>
    <tag k="highway" v="residential"/>
    <tag k="lane_markings" v="no"/>
    <tag k="lit" v="yes"/>
    <tag k="maxspeed" v="30"/>
    <tag k="name" v="Lissi-Kaeser-Straße"/>
    <tag k="name:etymology:wikidata" v="Q1330029"/>
    <tag k="parking:both" v="yes"/>
    <tag k="parking:both:orientation" v="parallel"/>
    <tag k="sidewalk:both" v="separate"/>
    <tag k="surface" v="asphalt"/>
    <tag k="zone:maxspeed" v="DE:30"/>
    <tag k="zone:traffic" v="DE:urban"/>
  </way>
  <way id="166123299" version="20" timestamp="2025-04-07T11:40:31Z" changeset="164629938" uid="2554996" user="Nanoilite">
    <nd ref="4171890383"/>
    <nd ref="9953506188"/>
    <nd ref="3655599103"/>
    <nd ref="3655599093"/>
    <nd ref="9343847511"/>
    <nd ref="1776057566"/>
    <tag k="cycleway:both" v="no"/>
    <tag k="highway" v="residential"/>
    <tag k="lane_markings" v="no"/>
    <tag k="lit" v="yes"/>
    <tag k="maxspeed" v="30"/>
    <tag k="name" v="Petra-Kelly-Straße"/>
    <tag k="name:etymology:wikidata" v="Q61227"/>
    <tag k="parking:both" v="yes"/>
    <tag k="parking:both:orientation" v="parallel"/>
    <tag k="sidewalk:both" v="separate"/>
    <tag k="smoothness" v="excellent"/>
    <tag k="surface" v="asphalt"/>
    <tag k="zone:maxspeed" v="DE:30"/>
    <tag k="zone:traffic" v="DE:urban"/>
  </way>
  <way id="181922320" version="11" timestamp="2025-03-22T21:16:15Z" changeset="163964538" uid="44217" user="kjon">
    <nd ref="16527631"/>
    <nd ref="678298113"/>
    <nd ref="1692629637"/>
    <tag k="bicycle" v="designated"/>
    <tag k="bicycle_road" v="yes"/>
    <tag k="class:bicycle" v="2"/>
    <tag k="highway" v="residential"/>
    <tag k="lit" v="yes"/>
    <tag k="maxspeed" v="30"/>
    <tag k="motor_vehicle" v="yes"/>
    <tag k="name" v="Saarstraße"/>
    <tag k="name:etymology:wikidata" v="Q153972"/>
    <tag k="parking:left" v="yes"/>
    <tag k="parking:left:orientation" v="parallel"/>
    <tag k="parking:right" v="yes"/>
    <tag k="parking:right:orientation" v="perpendicular"/>
    <tag k="sidewalk" v="both"/>
    <tag k="surface" v="asphalt"/>
  </way>
  <way id="186221131" version="3" timestamp="2023-03-30T08:42:38Z" changeset="134293887" uid="11758604" user="map per">
    <nd ref="21035977"/>
    <nd ref="16259330"/>
    <tag k="highway" v="unclassified"/>
    <tag k="name" v="Spiridon-Louis-Ring"/>
    <tag k="name:etymology:wikidata" v="Q202424"/>
    <tag k="surface" v="asphalt"/>
  </way>
  <way id="190356098" version="5" timestamp="2023-03-27T16:32:06Z" changeset="134186040" uid="18493611" user="MunichWays">
    <nd ref="16527676"/>
    <nd ref="666139163"/>
    <nd ref="267151006"/>
    <nd ref="16527677"/>
    <tag k="bicycle" v="designated"/>
    <tag k="bicycle_road" v="yes"/>
    <tag k="class:bicycle" v="1"/>
    <tag k="highway" v="residential"/>
    <tag k="maxspeed" v="30"/>
    <tag k="motor_vehicle" v="yes"/>
    <tag k="name" v="Saarstraße"/>
    <tag k="name:etymology:wikidata" v="Q153972"/>
    <tag k="smoothness" v="good"/>
    <tag k="surface" v="asphalt"/>
  </way>
  <way id="238838326" version="16" timestamp="2025-03-22T21:16:15Z" changeset="163964538" uid="44217" user="kjon">
    <nd ref="4549493338"/>
    <nd ref="3659115178"/>
    <nd ref="2786411765"/>
    <nd ref="2028415507"/>
    <nd ref="1448384680"/>
    <tag k="highway" v="residential"/>
    <tag k="lane_markings" v="no"/>
    <tag k="maxspeed" v="30"/>
    <tag k="motor_vehicle" v="destination"/>
    <tag k="name" v="Georg-Birk-Straße"/>
    <tag k="name:etymology:wikidata" v="Q1245169"/>
    <tag k="parking:left" v="no"/>
    <tag k="parking:left:restriction" v="no_parking"/>
    <tag k="parking:right" v="yes"/>
    <tag k="parking:right:orientation" v="parallel"/>
    <tag k="surface" v="asphalt"/>
    <tag k="zone:traffic" v="DE:urban"/>
  </way>
  <way id="244549197" version="10" timestamp="2025-04-07T11:40:31Z" changeset="164629938" uid="2554996" user="Nanoilite">
    <nd ref="1645740010"/>
    <nd ref="3655599102"/>
    <nd ref="4546844825"/>
    <nd ref="9953506189"/>
    <nd ref="4171890383"/>
    <tag k="highway" v="residential"/>
    <tag k="lit" v="yes"/>
    <tag k="maxspeed" v="30"/>
    <tag k="name" v="Adams-Lehmann-Straße"/>
    <tag k="name:etymology:wikidata" v="Q448583"/>
    <tag k="sidewalk" v="both"/>
    <tag k="surface" v="asphalt"/>
  </way>
  <way id="273936882" version="18" timestamp="2025-04-07T11:40:31Z" changeset="164629938" uid="2554996" user="Nanoilite">
    <nd ref="1776057566"/>
    <nd ref="9343847510"/>
    <nd ref="2858958449"/>
    <nd ref="12729589434"/>
    <nd ref="5177954806"/>
    <nd ref="9343847514"/>
    <nd ref="9672672310"/>
    <nd ref="1776057563"/>
    <nd ref="1776057561"/>
    <nd ref="1776057560"/>
    <nd ref="295609158"/>
    <nd ref="3795182804"/>
    <tag k="highway" v="residential"/>
    <tag k="lit" v="yes"/>
    <tag k="maxspeed" v="30"/>
    <tag k="name" v="Petra-Kelly-Straße"/>
    <tag k="name:etymology:wikidata" v="Q61227"/>
    <tag k="sidewalk" v="separate"/>
    <tag k="smoothness" v="excellent"/>
    <tag k="source:maxspeed" v="sign"/>
    <tag k="surface" v="asphalt"/>
  </way>
  <way id="281940111" version="13" timestamp="2025-04-07T11:40:31Z" changeset="164629938" uid="2554996" user="Nanoilite">
    <nd ref="3570393297"/>
    <nd ref="2859014154"/>
    <nd ref="12736465841"/>
    <nd ref="3659111082"/>
    <nd ref="3659111081"/>
    <nd ref="2859014155"/>
    <nd ref="4171138360"/>
    <nd ref="2859014153"/>
    <nd ref="4198922268"/>
    <nd ref="3570393297"/>
    <tag k="addr:city" v="München"/>
    <tag k="addr:housenumber" v="27"/>
    <tag k="addr:postcode" v="80797"/>
    <tag k="addr:street" v="Schwere-Reiter-Straße"/>
    <tag k="building" v="apartments"/>
    <tag k="building:levels" v="6"/>
    <tag k="contact:mobile" v="+49 157 561 225 96"/>
    <tag k="contact:phone" v="+49 941 920 28-44"/>
    <tag k="contact:website" v="https://www.studiomuc.de/"/>
    <tag k="name" v="studiomuc"/>
    <tag k="operator:website" v="https://eukia-hausverwaltung.de/"/>
  </way>
  <way id="328027151" version="5" timestamp="2023-11-08T23:47:27Z" changeset="143801725" uid="3075580" user="Linda89">
    <nd ref="3348497294"/>
    <nd ref="401305166"/>
    <nd ref="21035975"/>
    <tag k="cycleway:both" v="separate"/>
    <tag k="foot" v="use_sidepath"/>
    <tag k="highway" v="secondary"/>
    <tag k="lit" v="yes"/>
    <tag k="maxspeed" v="50"/>
    <tag k="name" v="Ackermannstraße"/>
    <tag k="oneway" v="yes"/>
    <tag k="surface" v="asphalt"/>
  </way>
  <way id="328027165" version="5" timestamp="2024-07-28T10:09:24Z" changeset="154513369" uid="18493611" user="MunichWays">
    <nd ref="3348418204"/>
    <nd ref="401305168"/>
    <nd ref="1955540"/>
    <tag k="bicycle" v="use_sidepath"/>
    <tag k="class:bicycle" v="-1"/>
    <tag k="highway" v="tertiary"/>
    <tag k="lanes" v="2"/>
    <tag k="lit" v="yes"/>
    <tag k="maxspeed" v="50"/>
    <tag k="name" v="Winzererstraße"/>
    <tag k="smoothness" v="excellent"/>
    <tag k="surface" v="asphalt"/>
  </way>
  <way id="361035571" version="10" timestamp="2023-10-07T13:52:48Z" changeset="142270191" uid="4376164" user="redweizn">
    <nd ref="3655599080"/>
    <nd ref="3655599123"/>
    <nd ref="3655599099"/>
    <nd ref="3655599109"/>
    <nd ref="3655599080"/>
    <tag k="addr:city" v="München"/>
    <tag k="addr:country" v="DE"/>
    <tag k="addr:housenumber" v="4"/>
    <tag k="addr:postcode" v="80797"/>
    <tag k="addr:street" v="Petra-Kelly-Straße"/>
    <tag k="brand" v="Motel One"/>
    <tag k="brand:wikidata" v="Q391080"/>
    <tag k="brand:wikipedia" v="en:Motel One"/>
    <tag k="building" v="hotel"/>
    <tag k="building:levels" v="7"/>
    <tag k="internet_access" v="wlan"/>
    <tag k="name" v="Motel One München-Olympia Gate"/>
    <tag k="phone" v="+49 89 12189930"/>
    <tag k="roof:levels" v="0"/>
    <tag k="roof:shape" v="flat"/>
    <tag k="stars" v="3"/>
    <tag k="tourism" v="hotel"/>
    <tag k="website" v="https://www.motel-one.com/de/hotels/muenchen/hotel-muenchen-olympia-gate/"/>
  </way>
  <way id="361035572" version="12" timestamp="2025-04-07T11:40:31Z" changeset="164629938" uid="2554996" user="Nanoilite">
    <nd ref="2591804271"/>
    <nd ref="2591804270"/>
    <nd ref="4893280808"/>
    <nd ref="4893280809"/>
    <nd ref="3655599120"/>
    <nd ref="4893280810"/>
    <nd ref="3655599081"/>
    <nd ref="4893280811"/>
    <nd ref="4893280812"/>
    <nd ref="4893280807"/>
    <nd ref="12346256498"/>
    <nd ref="4893280805"/>
    <nd ref="12736465830"/>
    <nd ref="12736465829"/>
    <nd ref="2591804271"/>
    <tag k="building" v="apartments"/>
    <tag k="building:levels" v="5"/>
    <tag k="name" v="P01"/>
    <tag k="website" v="https://www.bauwerk.de/projekte/p01.html"/>
  </way>
  <way id="361035578" version="10" timestamp="2025-04-07T11:40:31Z" changeset="164629938" uid="2554996" user="Nanoilite">
    <nd ref="3655603526"/>
    <nd ref="12736465850"/>
    <nd ref="3655599122"/>
    <nd ref="12346328702"/>
    <nd ref="12346256499"/>
    <nd ref="3655599100"/>
    <nd ref="12736465845"/>
    <nd ref="12346256500"/>
    <nd ref="12346328701"/>
    <nd ref="3655599074"/>
    <nd ref="3655599117"/>
    <nd ref="3655599089"/>
    <nd ref="3655599091"/>
    <nd ref="3655599094"/>
    <nd ref="10200868186"/>
    <nd ref="10200868187"/>
    <nd ref="10200868188"/>
    <nd ref="10200868189"/>
    <nd ref="3655603526"/>
    <tag k="building" v="dormitory"/>
    <tag k="name" v="DOMICIL-Seniorenwohnheim 'Am Ackermannbogen'"/>
    <tag k="roof:shape" v="flat"/>
    <tag k="website" v="https://www.domicil-seniorenresidenzen.de/standorte/muenchen-schwabing/haus/"/>
  </way>
  <way id="361111504" version="6" timestamp="2021-09-02T11:52:03Z" changeset="110615883" uid="13879455" user="Tungdiil">
    <nd ref="616764590"/>
    <nd ref="4826712264"/>
    <nd ref="616764593"/>
    <nd ref="7687028474"/>
    <nd ref="3656307773"/>
    <nd ref="616764590"/>
    <tag k="addr:housenumber" v="58"/>
    <tag k="addr:street" v="Adams-Lehmann-Straße"/>
    <tag k="building" v="apartments"/>
    <tag k="building:levels" v="4"/>
  </way>
  <way id="371866616" version="4" timestamp="2023-06-02T16:28:45Z" changeset="136875438" uid="55980" user="gimicky">
    <nd ref="267142817"/>
    <nd ref="267142819"/>
    <tag k="highway" v="unclassified"/>
    <tag k="lane_markings" v="no"/>
    <tag k="maxspeed" v="50"/>
    <tag k="name" v="Schwere-Reiter-Straße"/>
    <tag k="name:etymology:wikidata" v="Q1660893"/>
    <tag k="surface" v="asphalt"/>
  </way>
  <way id="371866617" version="6" timestamp="2023-07-06T23:38:57Z" changeset="138207520" uid="14742734" user="The_Nickname">
    <nd ref="267142819"/>
    <nd ref="3144390749"/>
    <nd ref="529277564"/>
    <nd ref="21035975"/>
    <tag k="bicycle" v="use_sidepath"/>
    <tag k="foot" v="use_sidepath"/>
    <tag k="highway" v="secondary"/>
    <tag k="lanes" v="3"/>
    <tag k="lit" v="yes"/>
    <tag k="maxspeed" v="50"/>
    <tag k="name" v="Schwere-Reiter-Straße"/>
    <tag k="name:etymology:wikidata" v="Q1660893"/>
    <tag k="oneway" v="yes"/>
    <tag k="sidewalk:left" v="no"/>
    <tag k="sidewalk:right" v="separate"/>
    <tag k="surface" v="asphalt"/>
    <tag k="turn:lanes" v="left|through|through;right"/>
  </way>
  <way id="409064419" version="6" timestamp="2023-07-06T23:38:57Z" changeset="138207520" uid="14742734" user="The_Nickname">
    <nd ref="4109555006"/>
    <nd ref="4109555008"/>
    <tag k="cycleway:left" v="no"/>
    <tag k="cycleway:right" v="shared_lane"/>
    <tag k="cycleway:right:lane" v="pictogram"/>
    <tag k="highway" v="unclassified"/>
    <tag k="lane_markings" v="no"/>
    <tag k="maxspeed" v="50"/>
    <tag k="name" v="Schwere-Reiter-Straße"/>
    <tag k="name:etymology:wikidata" v="Q1660893"/>
    <tag k="sidewalk:left" v="no"/>
    <tag k="sidewalk:right" v="separate"/>
    <tag k="surface" v="asphalt"/>
  </way>
  <way id="409064421" version="6" timestamp="2022-10-31T06:04:06Z" changeset="128278204" uid="5017610" user="maxwxyz">
    <nd ref="4109555007"/>
    <nd ref="4109555005"/>
    <tag k="cycleway:right" v="no"/>
    <tag k="highway" v="unclassified"/>
    <tag k="lane_markings" v="no"/>
    <tag k="maxspeed" v="50"/>
    <tag k="name" v="Schwere-Reiter-Straße"/>
    <tag k="name:etymology:wikidata" v="Q1660893"/>
    <tag k="oneway" v="yes"/>
    <tag k="surface" v="asphalt"/>
  </way>
  <way id="409064423" version="11" timestamp="2025-03-22T21:16:15Z" changeset="163964538" uid="44217" user="kjon">
    <nd ref="4109555008"/>
    <nd ref="267143073"/>
    <nd ref="1776057562"/>
    <nd ref="267142817"/>
    <tag k="bicycle" v="yes"/>
    <tag k="bicycle_road" v="yes"/>
    <tag k="class:bicycle" v="2"/>
    <tag k="cycleway:both" v="no"/>
    <tag k="highway" v="unclassified"/>
    <tag k="lane_markings" v="no"/>
    <tag k="maxspeed" v="30"/>
    <tag k="name" v="Schwere-Reiter-Straße"/>
    <tag k="name:etymology:wikidata" v="Q1660893"/>
    <tag k="oneway" v="yes"/>
    <tag k="oneway:bicycle" v="no"/>
    <tag k="sidewalk:left" v="no"/>
    <tag k="sidewalk:right" v="separate"/>
    <tag k="smoothness" v="good"/>
    <tag k="source:maxspeed" v="DE:bicycle_road"/>
    <tag k="surface" v="asphalt"/>
    <tag k="traffic_sign" v="DE:244.1"/>
    <tag k="width" v="6"/>
    <tag k="zone:traffic" v="DE:urban"/>
  </way>
  <way id="416447051" version="12" timestamp="2025-04-07T11:40:31Z" changeset="164629938" uid="2554996" user="Nanoilite">
    <nd ref="1776057562"/>
    <nd ref="1776057564"/>
    <nd ref="12346464803"/>
    <nd ref="3752435115"/>
    <nd ref="4171890347"/>
    <nd ref="4607049335"/>
    <nd ref="12736417385"/>
    <nd ref="3752435118"/>
    <nd ref="1776057567"/>
    <tag k="highway" v="residential"/>
    <tag k="lane_markings" v="no"/>
    <tag k="lit" v="yes"/>
    <tag k="maxspeed" v="30"/>
    <tag k="name" v="Lissi-Kaeser-Straße"/>
    <tag k="name:etymology:wikidata" v="Q1330029"/>
    <tag k="parking:both" v="yes"/>
    <tag k="parking:both:orientation" v="parallel"/>
    <tag k="sidewalk:left" v="yes"/>
    <tag k="sidewalk:right" v="separate"/>
    <tag k="surface" v="asphalt"/>
    <tag k="zone:traffic" v="DE:urban"/>
  </way>
  <way id="424062930" version="6" timestamp="2024-11-24T20:59:35Z" changeset="159549876" uid="536583" user="Strubbl">
    <nd ref="1692629623"/>
    <nd ref="267142816"/>
    <tag k="highway" v="residential"/>
    <tag k="lit" v="no"/>
    <tag k="maxspeed" v="30"/>
    <tag k="name" v="Adams-Lehmann-Straße"/>
    <tag k="name:etymology:wikidata" v="Q448583"/>
    <tag k="sidewalk" v="no"/>
    <tag k="surface" v="asphalt"/>
  </way>
  <way id="440988396" version="6" timestamp="2023-01-11T03:45:12Z" changeset="131128006" uid="21088" user="fpletz">
    <nd ref="8264853485"/>
    <nd ref="660733764"/>
    <tag k="highway" v="residential"/>
    <tag k="lane_markings" v="no"/>
    <tag k="lit" v="yes"/>
    <tag k="maxspeed" v="50"/>
    <tag k="name" v="Winzererstraße"/>
    <tag k="sidewalk" v="both"/>
    <tag k="surface" v="asphalt"/>
  </way>
  <way id="459027199" version="7" timestamp="2025-03-22T21:16:15Z" changeset="163964538" uid="44217" user="kjon">
    <nd ref="16259352"/>
    <nd ref="529270168"/>
    <nd ref="9672752022"/>
    <nd ref="267397170"/>
    <nd ref="1692629645"/>
    <nd ref="2518564888"/>
    <nd ref="1364073427"/>
    <nd ref="9959906405"/>
    <nd ref="1364073426"/>
    <nd ref="1448384680"/>
    <tag k="highway" v="residential"/>
    <tag k="lit" v="yes"/>
    <tag k="maxspeed" v="30"/>
    <tag k="name" v="Elisabeth-Kohn-Straße"/>
    <tag k="name:etymology:wikidata" v="Q1330061"/>
    <tag k="parking:left" v="yes"/>
    <tag k="parking:left:orientation" v="parallel"/>
    <tag k="parking:right" v="no"/>
    <tag k="parking:right:restriction" v="no_parking"/>
    <tag k="sidewalk:both" v="separate"/>
    <tag k="surface" v="asphalt"/>
    <tag k="zone:maxspeed" v="DE:30"/>
    <tag k="zone:traffic" v="DE:urban"/>
  </way>
  <way id="459027200" version="5" timestamp="2023-10-24T23:02:49Z" changeset="143086845" uid="6285042" user="Biclmont">
    <nd ref="1448384680"/>
    <nd ref="9959906471"/>
    <nd ref="9959907074"/>
    <nd ref="9959906421"/>
    <nd ref="267150086"/>
    <nd ref="1692629735"/>
    <nd ref="4209636506"/>
    <nd ref="267150088"/>
    <nd ref="16527661"/>
    <tag k="highway" v="residential"/>
    <tag k="lit" v="yes"/>
    <tag k="maxspeed" v="30"/>
    <tag k="name" v="Elisabeth-Kohn-Straße"/>
    <tag k="name:etymology:wikidata" v="Q1330061"/>
    <tag k="sidewalk:both" v="separate"/>
    <tag k="surface" v="asphalt"/>
    <tag k="zone:maxspeed" v="DE:30"/>
    <tag k="zone:traffic" v="DE:urban"/>
  </way>
  <way id="459027213" version="5" timestamp="2023-11-01T12:23:38Z" changeset="143466852" uid="6285042" user="Biclmont">
    <nd ref="16259352"/>
    <nd ref="4549493340"/>
    <nd ref="4549493339"/>
    <nd ref="16259458"/>
    <nd ref="4549493341"/>
    <nd ref="1038236022"/>
    <nd ref="1038236005"/>
    <nd ref="21035978"/>
    <nd ref="8581443111"/>
    <nd ref="1038235779"/>
    <nd ref="1038236062"/>
    <nd ref="8581465422"/>
    <nd ref="21035979"/>
    <tag k="bicycle" v="use_sidepath"/>
    <tag k="highway" v="secondary"/>
    <tag k="lanes" v="2"/>
    <tag k="maxspeed" v="50"/>
    <tag k="name" v="Ackermannstraße"/>
    <tag k="oneway" v="yes"/>
    <tag k="sidewalk:left" v="no"/>
    <tag k="sidewalk:right" v="separate"/>
    <tag k="surface" v="asphalt"/>
  </way>
  <way id="459027221" version="5" timestamp="2024-06-29T11:39:12Z" changeset="153328444" uid="13987295" user="Arthur B E">
    <nd ref="16259330"/>
    <nd ref="1038235988"/>
    <nd ref="2739597185"/>
    <nd ref="21035980"/>
    <nd ref="1038236078"/>
    <nd ref="1038236076"/>
    <nd ref="1038235763"/>
    <nd ref="1038236060"/>
    <nd ref="21035981"/>
    <tag k="bicycle" v="use_sidepath"/>
    <tag k="highway" v="secondary"/>
    <tag k="lanes" v="2"/>
    <tag k="lit" v="yes"/>
    <tag k="maxspeed" v="50"/>
    <tag k="name" v="Ackermannstraße"/>
    <tag k="name:etymology:wikidata" v="Q119495"/>
    <tag k="oneway" v="yes"/>
    <tag k="sidewalk:left" v="no"/>
    <tag k="sidewalk:right" v="separate"/>
    <tag k="smoothness" v="good"/>
    <tag k="surface" v="asphalt"/>
  </way>
  <way id="466144411" version="8" timestamp="2025-03-22T21:16:15Z" changeset="163964538" uid="44217" user="kjon">
    <nd ref="21042658"/>
    <nd ref="1564838783"/>
    <tag k="cycleway:both" v="no"/>
    <tag k="highway" v="unclassified"/>
    <tag k="lane_markings" v="no"/>
    <tag k="maxspeed" v="50"/>
    <tag k="name" v="Elisabethstraße"/>
    <tag k="name:etymology:wikidata" v="Q150782"/>
    <tag k="parking:both" v="no"/>
    <tag k="surface" v="asphalt"/>
  </way>
  <way id="475109924" version="7" timestamp="2025-03-22T21:16:15Z" changeset="163964538" uid="44217" user="kjon">
    <nd ref="1564838783"/>
    <nd ref="3816135283"/>
    <nd ref="3210551324"/>
    <nd ref="4109555007"/>
    <tag k="bicycle" v="yes"/>
    <tag k="bicycle_road" v="yes"/>
    <tag k="class:bicycle" v="2"/>
    <tag k="cycleway:both" v="no"/>
    <tag k="highway" v="unclassified"/>
    <tag k="lane_markings" v="no"/>
    <tag k="maxspeed" v="30"/>
    <tag k="name" v="Schwere-Reiter-Straße"/>
    <tag k="name:etymology:wikidata" v="Q1660893"/>
    <tag k="oneway" v="yes"/>
    <tag k="oneway:bicycle" v="no"/>
    <tag k="sidewalk" v="separate"/>
    <tag k="source:maxspeed" v="DE:bicycle_road"/>
    <tag k="surface" v="asphalt"/>
    <tag k="traffic_sign" v="DE:244.1"/>
    <tag k="zone:traffic" v="DE:urban"/>
  </way>
  <way id="475109927" version="6" timestamp="2025-03-22T21:16:15Z" changeset="163964538" uid="44217" user="kjon">
    <nd ref="21042658"/>
    <nd ref="401305167"/>
    <nd ref="3348495000"/>
    <nd ref="1078756944"/>
    <nd ref="16527602"/>
    <tag k="cycleway:both" v="no"/>
    <tag k="highway" v="secondary"/>
    <tag k="lanes" v="2"/>
    <tag k="maxspeed" v="50"/>
    <tag k="name" v="Elisabethstraße"/>
    <tag k="name:etymology:wikidata" v="Q150782"/>
    <tag k="parking:both" v="no"/>
    <tag k="surface" v="asphalt"/>
  </way>
  <way id="475919639" version="4" timestamp="2023-07-06T23:38:57Z" changeset="138207520" uid="14742734" user="The_Nickname">
    <nd ref="4695991140"/>
    <nd ref="267142819"/>
    <tag k="bicycle" v="use_sidepath"/>
    <tag k="foot" v="use_sidepath"/>
    <tag k="highway" v="secondary"/>
    <tag k="lanes" v="3"/>
    <tag k="maxspeed" v="50"/>
    <tag k="name" v="Schwere-Reiter-Straße"/>
    <tag k="name:etymology:wikidata" v="Q1660893"/>
    <tag k="oneway" v="yes"/>
    <tag k="sidewalk:left" v="no"/>
    <tag k="sidewalk:right" v="separate"/>
    <tag k="surface" v="asphalt"/>
    <tag k="turn:lanes" v="slight_left|through|through;right"/>
  </way>
  <way id="475919640" version="5" timestamp="2025-04-07T11:40:31Z" changeset="164629938" uid="2554996" user="Nanoilite">
    <nd ref="1776057560"/>
    <nd ref="12736417388"/>
    <nd ref="4109555006"/>
    <nd ref="4695991140"/>
    <tag k="bicycle" v="use_sidepath"/>
    <tag k="foot" v="use_sidepath"/>
    <tag k="highway" v="secondary"/>
    <tag k="lanes" v="2"/>
    <tag k="maxspeed" v="50"/>
    <tag k="name" v="Schwere-Reiter-Straße"/>
    <tag k="name:etymology:wikidata" v="Q1660893"/>
    <tag k="oneway" v="yes"/>
    <tag k="sidewalk:left" v="no"/>
    <tag k="sidewalk:right" v="separate"/>
    <tag k="surface" v="asphalt"/>
  </way>
  <way id="475919641" version="8" timestamp="2022-09-24T20:45:19Z" changeset="126596788" uid="2554996" user="Nanoilite">
    <nd ref="4695991141"/>
    <nd ref="9672672314"/>
    <nd ref="3144392251"/>
    <nd ref="4715475960"/>
    <nd ref="21042658"/>
    <tag k="bicycle" v="use_sidepath"/>
    <tag k="foot" v="use_sidepath"/>
    <tag k="highway" v="tertiary"/>
    <tag k="lanes" v="3"/>
    <tag k="lit" v="yes"/>
    <tag k="maxspeed" v="50"/>
    <tag k="name" v="Schwere-Reiter-Straße"/>
    <tag k="name:etymology:wikidata" v="Q1660893"/>
    <tag k="oneway" v="yes"/>
    <tag k="placement" v="left_of:2"/>
    <tag k="surface" v="asphalt"/>
    <tag k="turn:lanes" v="left|through|through;right"/>
  </way>
  <way id="491295714" version="7" timestamp="2025-03-22T21:16:15Z" changeset="163964538" uid="44217" user="kjon">
    <nd ref="568017588"/>
    <nd ref="9959906082"/>
    <nd ref="3974244145"/>
    <nd ref="2786413864"/>
    <nd ref="4171138381"/>
    <nd ref="4549493338"/>
    <tag k="highway" v="residential"/>
    <tag k="maxspeed" v="30"/>
    <tag k="motor_vehicle" v="destination"/>
    <tag k="name" v="Georg-Birk-Straße"/>
    <tag k="name:etymology:wikidata" v="Q1245169"/>
    <tag k="parking:both" v="no"/>
    <tag k="parking:both:restriction" v="no_parking"/>
    <tag k="surface" v="asphalt"/>
    <tag k="zone:traffic" v="DE:urban"/>
  </way>
  <way id="497817663" version="4" timestamp="2022-01-29T16:32:16Z" changeset="116751444" uid="14742734" user="The_Nickname">
    <nd ref="4893280804"/>
    <nd ref="4893280803"/>
    <nd ref="4893280802"/>
    <nd ref="4893280801"/>
    <nd ref="4893280804"/>
    <tag k="addr:city" v="München"/>
    <tag k="addr:country" v="DE"/>
    <tag k="addr:housenumber" v="15"/>
    <tag k="addr:postcode" v="80797"/>
    <tag k="addr:street" v="Petra-Kelly-Straße"/>
    <tag k="building" v="apartments"/>
    <tag k="building:levels" v="3"/>
  </way>
  <way id="851129967" version="7" timestamp="2025-04-07T11:40:31Z" changeset="164629938" uid="2554996" user="Nanoilite">
    <nd ref="267150080"/>
    <nd ref="9078681994"/>
    <nd ref="12729589439"/>
    <nd ref="1776057568"/>
    <nd ref="1645740010"/>
    <tag k="highway" v="residential"/>
    <tag k="lit" v="yes"/>
    <tag k="maxspeed" v="30"/>
    <tag k="name" v="Adams-Lehmann-Straße"/>
    <tag k="name:etymology:wikidata" v="Q448583"/>
    <tag k="parking:both" v="yes"/>
    <tag k="parking:both:orientation" v="parallel"/>
    <tag k="sidewalk" v="both"/>
    <tag k="surface" v="asphalt"/>
  </way>
  <way id="851129968" version="5" timestamp="2025-04-04T19:03:45Z" changeset="164524836" uid="2554996" user="Nanoilite">
    <nd ref="38187109"/>
    <nd ref="267150080"/>
    <tag k="highway" v="residential"/>
    <tag k="lit" v="yes"/>
    <tag k="maxspeed" v="30"/>
    <tag k="name" v="Adams-Lehmann-Straße"/>
    <tag k="name:etymology:wikidata" v="Q448583"/>
    <tag k="parking:left" v="yes"/>
    <tag k="parking:left:orientation" v="parallel"/>
    <tag k="sidewalk" v="both"/>
    <tag k="surface" v="asphalt"/>
  </way>
  <way id="851129969" version="6" timestamp="2025-04-07T11:40:31Z" changeset="164629938" uid="2554996" user="Nanoilite">
    <nd ref="2836404749"/>
    <nd ref="439391604"/>
    <nd ref="1590005267"/>
    <nd ref="12729589408"/>
    <nd ref="12736465825"/>
    <nd ref="38187109"/>
    <tag k="highway" v="residential"/>
    <tag k="lit" v="yes"/>
    <tag k="maxspeed" v="30"/>
    <tag k="name" v="Adams-Lehmann-Straße"/>
    <tag k="name:etymology:wikidata" v="Q448583"/>
    <tag k="parking:both" v="yes"/>
    <tag k="parking:both:orientation" v="parallel"/>
    <tag k="sidewalk" v="both"/>
    <tag k="surface" v="asphalt"/>
  </way>
  <way id="851133450" version="5" timestamp="2025-03-22T21:16:15Z" changeset="163964538" uid="44217" user="kjon">
    <nd ref="1692629637"/>
    <nd ref="4549493337"/>
    <nd ref="16527676"/>
    <tag k="bicycle" v="designated"/>
    <tag k="bicycle_road" v="yes"/>
    <tag k="class:bicycle" v="2"/>
    <tag k="highway" v="residential"/>
    <tag k="lit" v="yes"/>
    <tag k="maxspeed" v="30"/>
    <tag k="motor_vehicle" v="yes"/>
    <tag k="name" v="Saarstraße"/>
    <tag k="name:etymology:wikidata" v="Q153972"/>
    <tag k="parking:both" v="yes"/>
    <tag k="parking:both:orientation" v="parallel"/>
    <tag k="sidewalk" v="both"/>
    <tag k="smoothness" v="good"/>
    <tag k="surface" v="asphalt"/>
  </way>
  <way id="1091375337" version="2" timestamp="2022-09-10T17:40:59Z" changeset="126024631" uid="536583" user="Strubbl">
    <nd ref="8264853485"/>
    <nd ref="3123091205"/>
    <nd ref="3123091203"/>
    <tag k="bicycle" v="use_sidepath"/>
    <tag k="highway" v="secondary"/>
    <tag k="lanes" v="2"/>
    <tag k="lit" v="yes"/>
    <tag k="maxspeed" v="50"/>
    <tag k="name" v="Ackermannstraße"/>
    <tag k="name:etymology:wikidata" v="Q119495"/>
    <tag k="oneway" v="yes"/>
    <tag k="sidewalk:left" v="no"/>
    <tag k="sidewalk:right" v="separate"/>
    <tag k="surface" v="asphalt"/>
  </way>
  <way id="1091375340" version="2" timestamp="2023-11-01T12:23:34Z" changeset="143466852" uid="6285042" user="Biclmont">
    <nd ref="21035979"/>
    <nd ref="8581465423"/>
    <nd ref="1038235776"/>
    <nd ref="2786404045"/>
    <nd ref="9672719290"/>
    <nd ref="1077714827"/>
    <nd ref="16259330"/>
    <tag k="bicycle" v="use_sidepath"/>
    <tag k="highway" v="secondary"/>
    <tag k="lanes" v="3"/>
    <tag k="maxspeed" v="50"/>
    <tag k="name" v="Ackermannstraße"/>
    <tag k="oneway" v="yes"/>
    <tag k="sidewalk:left" v="no"/>
    <tag k="sidewalk:right" v="separate"/>
    <tag k="surface" v="asphalt"/>
    <tag k="turn:lanes" v="left|through|none"/>
  </way>
  <way id="1126018885" version="4" timestamp="2025-03-22T21:16:15Z" changeset="163964538" uid="44217" user="kjon">
    <nd ref="1776057567"/>
    <nd ref="4171890372"/>
    <tag k="highway" v="residential"/>
    <tag k="lane_markings" v="no"/>
    <tag k="lit" v="yes"/>
    <tag k="maxspeed" v="30"/>
    <tag k="name" v="Lissi-Kaeser-Straße"/>
    <tag k="name:etymology:wikidata" v="Q1330029"/>
    <tag k="parking:both" v="yes"/>
    <tag k="parking:both:orientation" v="parallel"/>
    <tag k="sidewalk:both" v="separate"/>
    <tag k="surface" v="asphalt"/>
    <tag k="zone:traffic" v="DE:urban"/>
  </way>
  <way id="1208235100" version="2" timestamp="2023-09-16T09:01:23Z" changeset="141331887" uid="78613" user="heilbron">
    <nd ref="267150086"/>
    <nd ref="2786404204"/>
    <nd ref="1692629740"/>
    <tag k="highway" v="residential"/>
    <tag k="lane_markings" v="no"/>
    <tag k="lit" v="yes"/>
    <tag k="maxspeed" v="30"/>
    <tag k="name" v="Centa-Herker-Bogen"/>
    <tag k="sidewalk" v="both"/>
    <tag k="surface" v="asphalt"/>
    <tag k="zone:maxspeed" v="DE:30"/>
    <tag k="zone:traffic" v="DE:urban"/>
  </way>
  <way id="1208235101" version="2" timestamp="2023-09-16T09:01:24Z" changeset="141331887" uid="78613" user="heilbron">
    <nd ref="16527665"/>
    <nd ref="2786404064"/>
    <nd ref="2786404203"/>
    <nd ref="2786404113"/>
    <nd ref="2786404140"/>
    <nd ref="16527661"/>
    <tag k="highway" v="residential"/>
    <tag k="lane_markings" v="no"/>
    <tag k="lit" v="yes"/>
    <tag k="maxspeed" v="30"/>
    <tag k="name" v="Centa-Herker-Bogen"/>
    <tag k="sidewalk" v="left"/>
    <tag k="surface" v="asphalt"/>
    <tag k="zone:maxspeed" v="DE:30"/>
    <tag k="zone:traffic" v="DE:urban"/>
  </way>

</osm>
