<?xml version="1.0" encoding="UTF-8"?>
<osm version="0.6" generator="Overpass API 0.7.62.5 1bd436f1">
<note>The data included in this document is from www.openstreetmap.org. The data is made available under ODbL.</note>
<meta osm_base="2025-05-18T02:55:25Z" areas="2024-12-31T00:49:33Z"/>

  <node id="277381" lat="48.1375509" lon="11.5498035" version="11" timestamp="2025-04-29T16:11:07Z" changeset="165599594" uid="38546" user="wikimax">
    <tag k="TMC:cid_58:tabcd_1:Class" v="Point"/>
    <tag k="TMC:cid_58:tabcd_1:Direction" v="positive"/>
    <tag k="TMC:cid_58:tabcd_1:LCLversion" v="9.00"/>
    <tag k="TMC:cid_58:tabcd_1:LocationCode" v="36029"/>
    <tag k="TMC:cid_58:tabcd_1:NextLocationCode" v="35429"/>
    <tag k="TMC:cid_58:tabcd_1:PrevLocationCode" v="35428"/>
    <tag k="tmc" v="DE:27975"/>
  </node>
  <node id="295189" lat="48.1395216" lon="11.5416638" version="6" timestamp="2025-05-01T15:29:22Z" changeset="165681711" uid="38546" user="wikimax"/>
  <node id="1955312" lat="48.1338755" lon="11.5397985" version="12" timestamp="2016-10-30T13:53:44Z" changeset="43284087" uid="8748" user="ToniE">
    <tag k="TMC:cid_58:tabcd_1:Class" v="Point"/>
    <tag k="TMC:cid_58:tabcd_1:Direction" v="both"/>
    <tag k="TMC:cid_58:tabcd_1:LCLversion" v="9.00"/>
    <tag k="TMC:cid_58:tabcd_1:LocationCode" v="35434"/>
    <tag k="TMC:cid_58:tabcd_1:PrevLocationCode" v="35433"/>
    <tag k="tmc" v="DE:35434"/>
  </node>
  <node id="1955407" lat="48.1361264" lon="11.5490016" version="7" timestamp="2025-04-29T16:11:07Z" changeset="165599594" uid="38546" user="wikimax"/>
  <node id="1955410" lat="48.1357428" lon="11.5480265" version="7" timestamp="2025-04-29T16:11:07Z" changeset="165599594" uid="38546" user="wikimax"/>
  <node id="21134985" lat="48.1391821" lon="11.5470930" version="7" timestamp="2017-04-09T15:22:41Z" changeset="47595746" uid="367380" user="Mloni">
    <tag k="TMC:cid_58:tabcd_1:Class" v="Point"/>
    <tag k="TMC:cid_58:tabcd_1:Direction" v="positive"/>
    <tag k="TMC:cid_58:tabcd_1:LCLversion" v="9.00"/>
    <tag k="TMC:cid_58:tabcd_1:LocationCode" v="46560"/>
    <tag k="TMC:cid_58:tabcd_1:NextLocationCode" v="35388"/>
    <tag k="TMC:cid_58:tabcd_1:PrevLocationCode" v="35387"/>
  </node>
  <node id="21261467" lat="48.1346232" lon="11.5425738" version="6" timestamp="2018-10-21T09:06:11Z" changeset="63721897" uid="8553447" user="jimmy_conway"/>
  <node id="21562302" lat="48.1384860" lon="11.5458236" version="3" timestamp="2017-11-26T14:29:56Z" changeset="54096486" uid="78613" user="heilbron"/>
  <node id="21562570" lat="48.1368708" lon="11.5440160" version="3" timestamp="2011-01-25T20:45:34Z" changeset="7087878" uid="205377" user="geoMILLImeter"/>
  <node id="21562784" lat="48.1358576" lon="11.5441423" version="5" timestamp="2018-10-21T07:25:28Z" changeset="63720277" uid="8553447" user="jimmy_conway"/>
  <node id="21577902" lat="48.1344656" lon="11.5451807" version="8" timestamp="2012-02-29T19:21:35Z" changeset="10831242" uid="13832" user="Peter14"/>
  <node id="26044352" lat="48.1392852" lon="11.5458562" version="6" timestamp="2025-05-01T15:29:22Z" changeset="165681711" uid="38546" user="wikimax"/>
  <node id="28448459" lat="48.1337430" lon="11.5417095" version="5" timestamp="2012-02-29T19:21:35Z" changeset="10831242" uid="13832" user="Peter14"/>
  <node id="315271030" lat="48.1363088" lon="11.5490312" version="4" timestamp="2025-04-29T16:11:07Z" changeset="165599594" uid="38546" user="wikimax">
    <tag k="tmc" v="DE:35428"/>
  </node>
  <node id="1537519383" lat="48.1359527" lon="11.5485256" version="3" timestamp="2025-04-29T16:11:07Z" changeset="165599594" uid="38546" user="wikimax"/>
  <node id="2964955572" lat="48.1358541" lon="11.5482641" version="2" timestamp="2025-04-29T16:11:07Z" changeset="165599594" uid="38546" user="wikimax"/>
  <node id="3316985672" lat="48.1364498" lon="11.5448796" version="14" timestamp="2024-09-04T09:22:23Z" changeset="156176422" uid="21915204" user="Münchner Stadtbibliothek">
    <tag k="addr:city" v="München"/>
    <tag k="addr:country" v="DE"/>
    <tag k="addr:housenumber" v="20c"/>
    <tag k="addr:postcode" v="80339"/>
    <tag k="addr:street" v="Schießstättstraße"/>
    <tag k="amenity" v="library"/>
    <tag k="building" v="yes"/>
    <tag k="check_date:opening_hours" v="2024-03-29"/>
    <tag k="contact:website" v="https://www.muenchner-stadtbibliothek.de/stadtbibliothek-westend"/>
    <tag k="email" v="stb.westend.kult@muenchen.de"/>
    <tag k="internet_access" v="wlan"/>
    <tag k="internet_access:fee" v="no"/>
    <tag k="name" v="Münchner Stadtbibliothek Westend"/>
    <tag k="opening_hours" v="Tu-Fr 10:00-19:00; Sa 10:00-15:00"/>
    <tag k="operator" v="Münchner Stadtbibliothek"/>
    <tag k="operator:type" v="public"/>
    <tag k="operator:wikidata" v="Q1518519"/>
    <tag k="operator:wikipedia" v="de:Münchner Stadtbibliothek"/>
    <tag k="phone" v="089 233 772448"/>
    <tag k="wheelchair" v="yes"/>
  </node>
  <node id="4331346518" lat="48.1338233" lon="11.5405341" version="1" timestamp="2016-08-01T19:46:12Z" changeset="41176110" uid="78613" user="heilbron"/>
  <node id="4331346526" lat="48.1343876" lon="11.5399004" version="1" timestamp="2016-08-01T19:46:12Z" changeset="41176110" uid="78613" user="heilbron"/>
  <node id="4523473317" lat="48.1381678" lon="11.5407132" version="2" timestamp="2020-07-23T06:24:58Z" changeset="88383472" uid="9196106" user="rkumreo"/>
  <way id="4013953" version="15" timestamp="2024-03-30T13:29:17Z" changeset="149351300" uid="29096" user="buergi">
    <nd ref="4331346526"/>
    <nd ref="412734956"/>
    <nd ref="1955313"/>
    <nd ref="412734955"/>
    <nd ref="21261463"/>
    <tag k="bicycle" v="use_sidepath"/>
    <tag k="highway" v="residential"/>
    <tag k="lit" v="yes"/>
    <tag k="maxspeed" v="30"/>
    <tag k="name" v="Ganghoferstraße"/>
    <tag k="name:etymology:wikidata" v="Q123464"/>
    <tag k="sidewalk" v="separate"/>
    <tag k="smoothness" v="good"/>
    <tag k="surface" v="asphalt"/>
    <tag k="width" v="10"/>
  </way>
  <way id="4074169" version="17" timestamp="2025-04-29T16:11:07Z" changeset="165599594" uid="38546" user="wikimax">
    <nd ref="21562302"/>
    <nd ref="4610116201"/>
    <nd ref="1099277845"/>
    <nd ref="1143639885"/>
    <nd ref="12798189309"/>
    <nd ref="12798189308"/>
    <nd ref="21562308"/>
    <tag k="bicycle_road" v="yes"/>
    <tag k="class:bicycle" v="1"/>
    <tag k="cycleway" v="opposite"/>
    <tag k="highway" v="residential"/>
    <tag k="lane_markings" v="no"/>
    <tag k="lit" v="yes"/>
    <tag k="maxspeed" v="30"/>
    <tag k="motor_vehicle" v="yes"/>
    <tag k="name" v="Westendstraße"/>
    <tag k="oneway" v="yes"/>
    <tag k="oneway:bicycle" v="no"/>
    <tag k="smoothness" v="good"/>
    <tag k="source:maxspeed" v="DE:bicycle_road"/>
    <tag k="surface" v="asphalt"/>
    <tag k="traffic_sign" v="DE:244.1"/>
  </way>
  <way id="4074170" version="15" timestamp="2025-01-23T22:06:51Z" changeset="161691333" uid="16061279" user="YellowSoul">
    <nd ref="21562567"/>
    <nd ref="4523473308"/>
    <nd ref="1755929842"/>
    <nd ref="12140767559"/>
    <nd ref="5249554564"/>
    <nd ref="21562566"/>
    <nd ref="21562309"/>
    <nd ref="1134202970"/>
    <nd ref="21562306"/>
    <tag k="class:bicycle" v="2"/>
    <tag k="highway" v="residential"/>
    <tag k="maxspeed" v="30"/>
    <tag k="name" v="Schwanthalerstraße"/>
    <tag k="name:etymology:wikidata" v="Q448426"/>
    <tag k="oneway" v="yes"/>
    <tag k="oneway:bicycle" v="no"/>
    <tag k="sidewalk" v="both"/>
    <tag k="smoothness" v="good"/>
    <tag k="source:maxspeed" v="DE:zone:30"/>
    <tag k="surface" v="asphalt"/>
  </way>
  <way id="4074173" version="14" timestamp="2024-11-22T12:08:53Z" changeset="159456115" uid="11758604" user="map per">
    <nd ref="295209"/>
    <nd ref="775283929"/>
    <nd ref="3115133872"/>
    <tag k="class:bicycle" v="-1"/>
    <tag k="cycleway:both" v="no"/>
    <tag k="highway" v="residential"/>
    <tag k="lanes:backward" v="2"/>
    <tag k="lit" v="yes"/>
    <tag k="maxspeed" v="30"/>
    <tag k="name" v="Schwanthalerstraße"/>
    <tag k="name:etymology:wikidata" v="Q448426"/>
    <tag k="sidewalk" v="both"/>
    <tag k="surface" v="asphalt"/>
    <tag k="turn:lanes:backward" v="left|through;right"/>
  </way>
  <way id="4074180" version="16" timestamp="2024-06-03T19:16:18Z" changeset="152214139" uid="20905165" user="nu99et">
    <nd ref="21562309"/>
    <nd ref="6002375409"/>
    <nd ref="8171272149"/>
    <nd ref="21562570"/>
    <nd ref="21562784"/>
    <nd ref="6003085774"/>
    <nd ref="6003085771"/>
    <nd ref="6003085764"/>
    <nd ref="2860089621"/>
    <nd ref="6015434107"/>
    <nd ref="6015434105"/>
    <nd ref="21577901"/>
    <tag k="class:bicycle" v="1"/>
    <tag k="highway" v="residential"/>
    <tag k="lit" v="yes"/>
    <tag k="maxspeed" v="30"/>
    <tag k="name" v="Parkstraße"/>
    <tag k="sidewalk" v="both"/>
    <tag k="sidewalk:both:surface" v="paving_stones"/>
    <tag k="smoothness" v="excellent"/>
    <tag k="source:maxspeed" v="DE:zone:30"/>
    <tag k="source:width" v="ARCore"/>
    <tag k="surface" v="asphalt"/>
    <tag k="width" v="9"/>
  </way>
  <way id="4074375" version="12" timestamp="2023-03-19T12:32:33Z" changeset="133856029" uid="18493611" user="MunichWays">
    <nd ref="21562306"/>
    <nd ref="3643418984"/>
    <nd ref="3558232760"/>
    <nd ref="6066123381"/>
    <nd ref="3643418971"/>
    <nd ref="6066126386"/>
    <nd ref="6066123382"/>
    <nd ref="3643418965"/>
    <nd ref="6002375411"/>
    <nd ref="17207055"/>
    <nd ref="324703025"/>
    <nd ref="1955316"/>
    <tag k="class:bicycle" v="1"/>
    <tag k="highway" v="residential"/>
    <tag k="lit" v="yes"/>
    <tag k="maxspeed" v="30"/>
    <tag k="name" v="Schießstättstraße"/>
    <tag k="sidewalk" v="both"/>
    <tag k="smoothness" v="good"/>
    <tag k="surface" v="asphalt"/>
  </way>
  <way id="4074692" version="15" timestamp="2024-07-06T11:55:37Z" changeset="153620787" uid="18493611" user="MunichWays">
    <nd ref="21134985"/>
    <nd ref="1099906528"/>
    <nd ref="340352174"/>
    <nd ref="26553626"/>
    <tag k="class:bicycle" v="-1"/>
    <tag k="cycleway:both" v="no"/>
    <tag k="highway" v="tertiary"/>
    <tag k="lane_markings" v="no"/>
    <tag k="lit" v="yes"/>
    <tag k="maxspeed" v="50"/>
    <tag k="name" v="Grasserstraße"/>
    <tag k="sidewalk:both" v="separate"/>
    <tag k="smoothness" v="intermediate"/>
    <tag k="surface" v="asphalt"/>
  </way>
  <way id="4074818" version="17" timestamp="2023-12-15T17:34:26Z" changeset="145160182" uid="13903987" user="cquike">
    <nd ref="21562784"/>
    <nd ref="6002375400"/>
    <nd ref="17207055"/>
    <tag k="bicycle" v="official"/>
    <tag k="bicycle_road" v="yes"/>
    <tag k="class:bicycle" v="1"/>
    <tag k="cycleway" v="opposite"/>
    <tag k="highway" v="residential"/>
    <tag k="lane_markings" v="no"/>
    <tag k="maxspeed" v="30"/>
    <tag k="name" v="Gollierstraße"/>
    <tag k="oneway" v="yes"/>
    <tag k="sidewalk" v="both"/>
    <tag k="source:maxspeed" v="DE:bicycle_road"/>
    <tag k="surface" v="asphalt"/>
    <tag k="traffic_sign" v="DE:244.1"/>
  </way>
  <way id="4074931" version="20" timestamp="2024-03-30T07:44:49Z" changeset="149340259" uid="18493611" user="MunichWays">
    <nd ref="21562570"/>
    <nd ref="3558201327"/>
    <nd ref="8019797593"/>
    <nd ref="21562569"/>
    <nd ref="2464429482"/>
    <nd ref="1755929843"/>
    <nd ref="1127748872"/>
    <nd ref="21562781"/>
    <nd ref="335427494"/>
    <nd ref="335168171"/>
    <nd ref="21562786"/>
    <nd ref="2441774331"/>
    <nd ref="21580470"/>
    <nd ref="4515797734"/>
    <nd ref="766290594"/>
    <nd ref="4514225802"/>
    <tag k="class:bicycle" v="1"/>
    <tag k="highway" v="residential"/>
    <tag k="lit" v="yes"/>
    <tag k="maxspeed" v="30"/>
    <tag k="name" v="Tulbeckstraße"/>
    <tag k="name:etymology:wikidata" v="Q1694770"/>
    <tag k="sidewalk" v="both"/>
    <tag k="sidewalk:both:surface" v="paving_stones"/>
    <tag k="smoothness" v="good"/>
    <tag k="surface" v="asphalt"/>
  </way>
  <way id="4211355" version="16" timestamp="2024-09-16T15:06:21Z" changeset="156692944" uid="20062153" user="neAnZzzz">
    <nd ref="21562302"/>
    <nd ref="364891170"/>
    <nd ref="21562568"/>
    <nd ref="5248095544"/>
    <nd ref="4523473309"/>
    <nd ref="2038569"/>
    <tag k="class:bicycle" v="-1"/>
    <tag k="cycleway:both" v="no"/>
    <tag k="highway" v="residential"/>
    <tag k="lit" v="yes"/>
    <tag k="maxspeed" v="30"/>
    <tag k="name" v="Westendstraße"/>
    <tag k="oneway" v="yes"/>
    <tag k="oneway:bicycle" v="no"/>
    <tag k="sidewalk" v="both"/>
    <tag k="source:maxspeed" v="DE:zone30"/>
    <tag k="surface" v="asphalt"/>
  </way>
  <way id="4211356" version="11" timestamp="2024-05-16T21:28:04Z" changeset="151428197" uid="137242" user="Rainero">
    <nd ref="4523473317"/>
    <nd ref="4523473312"/>
    <nd ref="4523473313"/>
    <nd ref="4523473314"/>
    <nd ref="4523473311"/>
    <nd ref="2038569"/>
    <tag k="class:bicycle" v="1"/>
    <tag k="highway" v="residential"/>
    <tag k="lit" v="yes"/>
    <tag k="maxspeed" v="30"/>
    <tag k="name" v="Westendstraße"/>
    <tag k="sidewalk" v="both"/>
    <tag k="sidewalk:both:surface" v="paving_stones"/>
    <tag k="source:maxspeed" v="DE:zone30"/>
    <tag k="surface" v="asphalt"/>
  </way>
  <way id="4305495" version="17" timestamp="2024-02-07T19:42:09Z" changeset="147189979" uid="12164053" user="barefootstache">
    <nd ref="26044352"/>
    <nd ref="775283936"/>
    <nd ref="21562302"/>
    <tag k="bicycle" v="designated"/>
    <tag k="bicycle_road" v="yes"/>
    <tag k="class:bicycle" v="1"/>
    <tag k="cycleway" v="opposite"/>
    <tag k="highway" v="residential"/>
    <tag k="lane_markings" v="no"/>
    <tag k="lit" v="yes"/>
    <tag k="maxspeed" v="30"/>
    <tag k="name" v="Holzapfelstraße"/>
    <tag k="oneway" v="yes"/>
    <tag k="oneway:bicycle" v="no"/>
    <tag k="sidewalk" v="both"/>
    <tag k="sidewalk:both:surface" v="paving_stones"/>
    <tag k="smoothness" v="good"/>
    <tag k="source:maxspeed" v="DE:bicycle_road"/>
    <tag k="surface" v="asphalt"/>
    <tag k="traffic_sign" v="DE:244.1"/>
  </way>
  <way id="4351429" version="12" timestamp="2023-03-19T12:32:33Z" changeset="133856029" uid="18493611" user="MunichWays">
    <nd ref="21562306"/>
    <nd ref="21562302"/>
    <tag k="class:bicycle" v="1"/>
    <tag k="cycleway" v="opposite"/>
    <tag k="highway" v="residential"/>
    <tag k="lit" v="yes"/>
    <tag k="maxspeed" v="30"/>
    <tag k="name" v="Holzapfelstraße"/>
    <tag k="oneway" v="yes"/>
    <tag k="oneway:bicycle" v="no"/>
    <tag k="sidewalk" v="both"/>
    <tag k="sidewalk:both:surface" v="paving_stones"/>
    <tag k="smoothness" v="good"/>
    <tag k="surface" v="asphalt"/>
  </way>
  <way id="4470791" version="21" timestamp="2025-04-29T16:11:07Z" changeset="165599594" uid="38546" user="wikimax">
    <nd ref="1955407"/>
    <nd ref="12798177448"/>
    <nd ref="12798177449"/>
    <nd ref="12798177450"/>
    <nd ref="21134977"/>
    <tag k="cycleway:left" v="no"/>
    <tag k="cycleway:right" v="lane"/>
    <tag k="cycleway:right:lane" v="exclusive"/>
    <tag k="highway" v="tertiary"/>
    <tag k="lanes" v="2"/>
    <tag k="lit" v="yes"/>
    <tag k="maxspeed" v="50"/>
    <tag k="name" v="Theresienhöhe"/>
    <tag k="name:etymology:wikidata" v="Q233198"/>
    <tag k="oneway" v="yes"/>
    <tag k="sidewalk:both" v="separate"/>
    <tag k="smoothness" v="good"/>
    <tag k="surface" v="asphalt"/>
  </way>
  <way id="4471061" version="20" timestamp="2023-11-15T19:09:29Z" changeset="144065113" uid="536583" user="Strubbl">
    <nd ref="21134981"/>
    <nd ref="9848655234"/>
    <nd ref="1134203014"/>
    <nd ref="9848655235"/>
    <nd ref="1134203042"/>
    <nd ref="9848655236"/>
    <nd ref="21134982"/>
    <nd ref="4784622493"/>
    <nd ref="2964955588"/>
    <nd ref="315271030"/>
    <tag k="bicycle" v="use_sidepath"/>
    <tag k="highway" v="secondary"/>
    <tag k="lanes" v="4"/>
    <tag k="lit" v="yes"/>
    <tag k="maxspeed" v="50"/>
    <tag k="name" v="Theresienhöhe"/>
    <tag k="name:etymology:wikidata" v="Q233198"/>
    <tag k="oneway" v="yes"/>
    <tag k="sidewalk:left" v="no"/>
    <tag k="sidewalk:right" v="separate"/>
    <tag k="smoothness" v="excellent"/>
    <tag k="surface" v="asphalt"/>
    <tag k="tmc" v="DE:35428/36029"/>
  </way>
  <way id="4567307" version="17" timestamp="2024-05-16T21:28:04Z" changeset="151428197" uid="137242" user="Rainero">
    <nd ref="4523473317"/>
    <nd ref="21562567"/>
    <nd ref="2443643107"/>
    <nd ref="2443643329"/>
    <nd ref="21562781"/>
    <nd ref="2464429468"/>
    <nd ref="1134180146"/>
    <nd ref="21562782"/>
    <nd ref="1521151316"/>
    <nd ref="6015431267"/>
    <nd ref="6015007281"/>
    <nd ref="6015007273"/>
    <nd ref="6015007272"/>
    <nd ref="21261466"/>
    <tag k="bicycle" v="yes"/>
    <tag k="class:bicycle" v="1"/>
    <tag k="highway" v="residential"/>
    <tag k="lit" v="yes"/>
    <tag k="maxspeed" v="30"/>
    <tag k="name" v="Ganghoferstraße"/>
    <tag k="name:etymology:wikidata" v="Q123464"/>
    <tag k="sidewalk" v="both"/>
    <tag k="source:maxspeed" v="DE:zone30"/>
    <tag k="surface" v="asphalt"/>
  </way>
  <way id="4585960" version="14" timestamp="2023-10-29T16:42:58Z" changeset="143320662" uid="6285042" user="Biclmont">
    <nd ref="295209"/>
    <nd ref="2456450694"/>
    <nd ref="3498172716"/>
    <nd ref="9848655233"/>
    <nd ref="21134981"/>
    <tag k="bicycle" v="use_sidepath"/>
    <tag k="highway" v="secondary"/>
    <tag k="lanes" v="2"/>
    <tag k="lit" v="yes"/>
    <tag k="maxspeed" v="50"/>
    <tag k="name" v="Bavariaring"/>
    <tag k="oneway" v="yes"/>
    <tag k="sidewalk:right" v="separate"/>
    <tag k="smoothness" v="excellent"/>
    <tag k="surface" v="asphalt"/>
    <tag k="tmc" v="DE:35428/36029"/>
  </way>
  <way id="27149710" version="16" timestamp="2025-04-29T16:11:07Z" changeset="165599594" uid="38546" user="wikimax">
    <nd ref="21134977"/>
    <nd ref="2964955578"/>
    <nd ref="2964955575"/>
    <nd ref="1537519378"/>
    <nd ref="2964955571"/>
    <nd ref="1955410"/>
    <tag k="bicycle" v="use_sidepath"/>
    <tag k="highway" v="secondary"/>
    <tag k="lanes" v="2"/>
    <tag k="lit" v="yes"/>
    <tag k="maxspeed" v="50"/>
    <tag k="name" v="Theresienhöhe"/>
    <tag k="name:etymology:wikidata" v="Q233198"/>
    <tag k="oneway" v="yes"/>
    <tag k="sidewalk:left" v="no"/>
    <tag k="sidewalk:right" v="separate"/>
    <tag k="smoothness" v="excellent"/>
    <tag k="surface" v="asphalt"/>
    <tag k="tmc" v="DE:35427/35428"/>
  </way>
  <way id="29461886" version="12" timestamp="2023-01-02T11:59:24Z" changeset="130784333" uid="29096" user="buergi">
    <nd ref="21577902"/>
    <nd ref="715449644"/>
    <nd ref="1955316"/>
    <nd ref="2796672969"/>
    <nd ref="2796665070"/>
    <nd ref="324699272"/>
    <nd ref="1955317"/>
    <tag k="bicycle" v="use_sidepath"/>
    <tag k="foot" v="use_sidepath"/>
    <tag k="highway" v="tertiary"/>
    <tag k="lanes" v="2"/>
    <tag k="lit" v="yes"/>
    <tag k="maxspeed" v="50"/>
    <tag k="name" v="Alter Messeplatz"/>
    <tag k="sidewalk" v="separate"/>
    <tag k="smoothness" v="excellent"/>
    <tag k="surface" v="asphalt"/>
  </way>
  <way id="33487053" version="13" timestamp="2024-04-26T14:14:40Z" changeset="150541178" uid="29096" user="buergi">
    <nd ref="315271030"/>
    <nd ref="2964955587"/>
    <nd ref="21134983"/>
    <nd ref="21134977"/>
    <tag k="bicycle" v="use_sidepath"/>
    <tag k="cycleway:both" v="separate"/>
    <tag k="highway" v="secondary"/>
    <tag k="lanes" v="2"/>
    <tag k="lit" v="yes"/>
    <tag k="maxspeed" v="50"/>
    <tag k="name" v="Theresienhöhe"/>
    <tag k="name:etymology:wikidata" v="Q233198"/>
    <tag k="oneway" v="yes"/>
    <tag k="sidewalk:left" v="no"/>
    <tag k="sidewalk:right" v="separate"/>
    <tag k="smoothness" v="good"/>
    <tag k="surface" v="asphalt"/>
    <tag k="tmc" v="DE:35428"/>
  </way>
  <way id="33487059" version="15" timestamp="2024-11-22T12:08:53Z" changeset="159456115" uid="11758604" user="map per">
    <nd ref="21562307"/>
    <nd ref="1134203004"/>
    <nd ref="1134202997"/>
    <nd ref="3097340451"/>
    <nd ref="1134202993"/>
    <nd ref="3115126473"/>
    <nd ref="3643421897"/>
    <nd ref="1134202975"/>
    <nd ref="21562306"/>
    <tag k="class:bicycle" v="-1"/>
    <tag k="cycleway:both" v="no"/>
    <tag k="highway" v="residential"/>
    <tag k="maxspeed" v="30"/>
    <tag k="name" v="Schwanthalerstraße"/>
    <tag k="name:etymology:wikidata" v="Q448426"/>
    <tag k="sidewalk" v="both"/>
    <tag k="smoothness" v="excellent"/>
    <tag k="surface" v="asphalt"/>
    <tag k="width" v="10"/>
  </way>
  <way id="50461240" version="13" timestamp="2025-04-27T20:56:41Z" changeset="165523611" uid="38546" user="wikimax">
    <nd ref="267522634"/>
    <nd ref="12793425837"/>
    <nd ref="776257410"/>
    <nd ref="12793425838"/>
    <nd ref="570760824"/>
    <nd ref="12793425841"/>
    <nd ref="12793425840"/>
    <nd ref="295207"/>
    <nd ref="12793425839"/>
    <nd ref="3498172726"/>
    <nd ref="3498172725"/>
    <nd ref="2456450699"/>
    <nd ref="295209"/>
    <tag k="bicycle" v="use_sidepath"/>
    <tag k="foot" v="use_sidepath"/>
    <tag k="highway" v="secondary"/>
    <tag k="lanes" v="3"/>
    <tag k="lit" v="yes"/>
    <tag k="maxspeed" v="50"/>
    <tag k="name" v="Martin-Greif-Straße"/>
    <tag k="oneway" v="yes"/>
    <tag k="sidewalk:right" v="separate"/>
    <tag k="smoothness" v="excellent"/>
    <tag k="surface" v="asphalt"/>
    <tag k="tmc" v="DE:36029/35429"/>
    <tag k="turn:lanes" v="left|left|through;right"/>
  </way>
  <way id="52384887" version="22" timestamp="2024-08-27T19:35:51Z" changeset="155848709" uid="137242" user="Rainero">
    <nd ref="21562784"/>
    <nd ref="6015434114"/>
    <nd ref="2475667928"/>
    <nd ref="6003085777"/>
    <nd ref="3558201312"/>
    <nd ref="21562783"/>
    <nd ref="12140767568"/>
    <nd ref="2716867092"/>
    <nd ref="2716867085"/>
    <nd ref="4401438399"/>
    <nd ref="3328852910"/>
    <nd ref="2716867105"/>
    <nd ref="1134180115"/>
    <nd ref="21562782"/>
    <tag k="bicycle_road" v="yes"/>
    <tag k="class:bicycle" v="1"/>
    <tag k="cycleway" v="opposite"/>
    <tag k="highway" v="residential"/>
    <tag k="lane_markings" v="no"/>
    <tag k="lit" v="yes"/>
    <tag k="maxspeed" v="30"/>
    <tag k="name" v="Gollierstraße"/>
    <tag k="oneway" v="yes"/>
    <tag k="sidewalk" v="both"/>
    <tag k="source:maxspeed" v="DE:bicycle_road"/>
    <tag k="surface" v="asphalt"/>
    <tag k="traffic_sign" v="DE:244.1"/>
  </way>
  <way id="71824375" version="17" timestamp="2024-02-06T14:58:42Z" changeset="147139238" uid="13987295" user="Arthur B E">
    <nd ref="21134985"/>
    <nd ref="1239794111"/>
    <nd ref="83089241"/>
    <tag k="bicycle" v="use_sidepath"/>
    <tag k="foot" v="use_sidepath"/>
    <tag k="highway" v="secondary"/>
    <tag k="lanes" v="1"/>
    <tag k="lit" v="yes"/>
    <tag k="maxspeed" v="50"/>
    <tag k="name" v="Landsberger Straße"/>
    <tag k="old_ref" v="B 2;B 12"/>
    <tag k="oneway" v="yes"/>
    <tag k="sidewalk:left" v="no"/>
    <tag k="sidewalk:right" v="separate"/>
    <tag k="smoothness" v="excellent"/>
    <tag k="surface" v="asphalt"/>
    <tag k="tmc" v="DE:46560/35388"/>
  </way>
  <way id="96748302" version="4" timestamp="2020-10-18T23:38:28Z" changeset="92671989" uid="14390" user="BeKri">
    <nd ref="1120317758"/>
    <nd ref="1120317661"/>
    <nd ref="1120318336"/>
    <nd ref="1120318108"/>
    <nd ref="1120317758"/>
    <tag k="addr:city" v="München"/>
    <tag k="addr:country" v="DE"/>
    <tag k="addr:housenumber" v="11"/>
    <tag k="addr:postcode" v="80339"/>
    <tag k="addr:street" v="Ligsalzstraße"/>
    <tag k="building" v="apartments"/>
    <tag k="building:levels" v="4"/>
    <tag k="roof:levels" v="1"/>
  </way>
  <way id="96748303" version="4" timestamp="2022-11-06T15:12:02Z" changeset="128559401" uid="8312062" user="Fadatag">
    <nd ref="1120317661"/>
    <nd ref="1120317855"/>
    <nd ref="1120318076"/>
    <nd ref="1120317758"/>
    <nd ref="1120317661"/>
    <tag k="addr:city" v="München"/>
    <tag k="addr:country" v="DE"/>
    <tag k="addr:housenumber" v="13"/>
    <tag k="addr:postcode" v="80339"/>
    <tag k="addr:street" v="Ligsalzstraße"/>
    <tag k="building" v="apartments"/>
  </way>
  <way id="96748327" version="4" timestamp="2017-11-26T22:48:51Z" changeset="54107392" uid="78613" user="heilbron">
    <nd ref="1120318325"/>
    <nd ref="1120318152"/>
    <nd ref="1120317841"/>
    <nd ref="1120318211"/>
    <nd ref="1120318325"/>
    <tag k="addr:city" v="München"/>
    <tag k="addr:country" v="DE"/>
    <tag k="addr:housenumber" v="139"/>
    <tag k="addr:postcode" v="80339"/>
    <tag k="addr:street" v="Schwanthalerstraße"/>
    <tag k="building" v="apartments"/>
    <tag k="roof:shape" v="gabled"/>
  </way>
  <way id="96748332" version="3" timestamp="2020-10-18T23:38:28Z" changeset="92671989" uid="14390" user="BeKri">
    <nd ref="1120317888"/>
    <nd ref="1120318216"/>
    <nd ref="1120318083"/>
    <nd ref="1120317813"/>
    <nd ref="1120317706"/>
    <nd ref="8019742016"/>
    <nd ref="1120317767"/>
    <nd ref="1120317888"/>
    <tag k="addr:city" v="München"/>
    <tag k="addr:country" v="DE"/>
    <tag k="addr:housenumber" v="7"/>
    <tag k="addr:postcode" v="80339"/>
    <tag k="addr:street" v="Ligsalzstraße"/>
    <tag k="building" v="apartments"/>
  </way>
  <way id="96748334" version="5" timestamp="2023-07-15T14:01:22Z" changeset="138546197" uid="11758604" user="map per">
    <nd ref="1120318038"/>
    <nd ref="8019797598"/>
    <nd ref="1120317787"/>
    <nd ref="1120317925"/>
    <nd ref="1120318078"/>
    <nd ref="1120318277"/>
    <nd ref="1120318168"/>
    <nd ref="3558201324"/>
    <nd ref="3558201328"/>
    <nd ref="1120317725"/>
    <nd ref="1120318374"/>
    <nd ref="1120317893"/>
    <nd ref="1120318038"/>
    <tag k="addr:housenumber" v="4f"/>
    <tag k="addr:postcode" v="80339"/>
    <tag k="addr:street" v="Tulbeckstraße"/>
    <tag k="building" v="yes"/>
  </way>
  <way id="96748335" version="4" timestamp="2017-05-27T22:19:32Z" changeset="49034359" uid="2007135" user="Brainlessnick">
    <nd ref="2469405201"/>
    <nd ref="2469405202"/>
    <nd ref="1120317666"/>
    <nd ref="1120318083"/>
    <nd ref="1120318216"/>
    <nd ref="1120317621"/>
    <nd ref="1120317687"/>
    <nd ref="2469405201"/>
    <tag k="addr:city" v="München"/>
    <tag k="addr:country" v="DE"/>
    <tag k="addr:housenumber" v="5"/>
    <tag k="addr:postcode" v="80339"/>
    <tag k="addr:street" v="Ligsalzstraße"/>
    <tag k="building" v="apartments"/>
    <tag k="building:levels" v="5"/>
    <tag k="roof:levels" v="0"/>
  </way>
  <way id="96748342" version="3" timestamp="2020-11-21T22:09:23Z" changeset="94563384" uid="43207" user="kdkeller">
    <nd ref="1120317832"/>
    <nd ref="1120317691"/>
    <nd ref="2460837826"/>
    <nd ref="1120318366"/>
    <nd ref="1120318157"/>
    <nd ref="1120317731"/>
    <nd ref="1120317832"/>
    <tag k="addr:housenumber" v="6"/>
    <tag k="addr:postcode" v="80339"/>
    <tag k="addr:street" v="Parkstraße"/>
    <tag k="building" v="apartments"/>
    <tag k="wikidata" v="Q41183762"/>
  </way>
  <way id="96748343" version="2" timestamp="2013-09-16T20:03:18Z" changeset="17874971" uid="8703" user="rolandg">
    <nd ref="1120318257"/>
    <nd ref="1120317892"/>
    <nd ref="1120318103"/>
    <nd ref="1120317816"/>
    <nd ref="1120317990"/>
    <nd ref="1120318257"/>
    <tag k="addr:housenumber" v="8"/>
    <tag k="addr:postcode" v="80339"/>
    <tag k="addr:street" v="Parkstraße"/>
    <tag k="building" v="apartments"/>
  </way>
  <way id="96748346" version="4" timestamp="2024-05-16T21:28:04Z" changeset="151428197" uid="137242" user="Rainero">
    <nd ref="1120318319"/>
    <nd ref="2460837828"/>
    <nd ref="1120317832"/>
    <nd ref="1120317731"/>
    <nd ref="11910796237"/>
    <nd ref="1120318206"/>
    <nd ref="1120318319"/>
    <tag k="addr:housenumber" v="4"/>
    <tag k="addr:postcode" v="80339"/>
    <tag k="addr:street" v="Parkstraße"/>
    <tag k="building" v="apartments"/>
    <tag k="wikidata" v="Q41183758"/>
  </way>
  <way id="96748352" version="5" timestamp="2020-10-18T23:38:28Z" changeset="92671989" uid="14390" user="BeKri">
    <nd ref="1120318067"/>
    <nd ref="1120318325"/>
    <nd ref="1120318211"/>
    <nd ref="8019742013"/>
    <nd ref="1120317938"/>
    <nd ref="1120318067"/>
    <tag k="addr:city" v="München"/>
    <tag k="addr:country" v="DE"/>
    <tag k="addr:housenumber" v="141"/>
    <tag k="addr:postcode" v="80339"/>
    <tag k="addr:street" v="Schwanthalerstraße"/>
    <tag k="building" v="apartments"/>
    <tag k="roof:shape" v="gabled"/>
  </way>
  <way id="96748354" version="2" timestamp="2013-09-16T20:03:18Z" changeset="17874971" uid="8703" user="rolandg">
    <nd ref="1120318103"/>
    <nd ref="2460837831"/>
    <nd ref="1120318241"/>
    <nd ref="1120317930"/>
    <nd ref="1120317972"/>
    <nd ref="1120317816"/>
    <nd ref="1120318103"/>
    <tag k="addr:housenumber" v="10"/>
    <tag k="addr:postcode" v="80339"/>
    <tag k="addr:street" v="Parkstraße"/>
    <tag k="building" v="apartments"/>
  </way>
  <way id="96748355" version="4" timestamp="2023-09-10T12:25:14Z" changeset="141060677" uid="20028294" user="Flubo">
    <nd ref="1120317656"/>
    <nd ref="1120318319"/>
    <nd ref="1120318206"/>
    <nd ref="1120317944"/>
    <nd ref="1120317656"/>
    <tag k="addr:housenumber" v="2"/>
    <tag k="addr:street" v="Parkstraße"/>
    <tag k="building" v="apartments"/>
  </way>
  <way id="96748381" version="2" timestamp="2013-09-16T18:41:23Z" changeset="17872516" uid="8703" user="rolandg">
    <nd ref="1120318019"/>
    <nd ref="1120317888"/>
    <nd ref="1120317767"/>
    <nd ref="1120317984"/>
    <nd ref="1120318019"/>
    <tag k="addr:city" v="München"/>
    <tag k="addr:country" v="DE"/>
    <tag k="addr:housenumber" v="9"/>
    <tag k="addr:postcode" v="80339"/>
    <tag k="addr:street" v="Ligsalzstraße"/>
    <tag k="building" v="apartments"/>
  </way>
  <way id="97731591" version="6" timestamp="2020-11-21T22:09:19Z" changeset="94563384" uid="43207" user="kdkeller">
    <nd ref="1131417931"/>
    <nd ref="1131418211"/>
    <nd ref="1131417983"/>
    <nd ref="1131418092"/>
    <nd ref="2464451963"/>
    <nd ref="1131417931"/>
    <tag k="addr:city" v="München"/>
    <tag k="addr:country" v="DE"/>
    <tag k="addr:housenumber" v="26"/>
    <tag k="addr:postcode" v="80339"/>
    <tag k="addr:street" v="Ligsalzstraße"/>
    <tag k="building" v="apartments"/>
    <tag k="building:levels" v="4"/>
    <tag k="roof:levels" v="1"/>
    <tag k="roof:shape" v="mansard"/>
    <tag k="wikidata" v="Q41183724"/>
  </way>
  <way id="97731598" version="4" timestamp="2015-03-07T22:36:00Z" changeset="29318768" uid="59819" user="Fuss-im-Ohr">
    <nd ref="1131418218"/>
    <nd ref="1131417951"/>
    <nd ref="1131417900"/>
    <nd ref="1131418098"/>
    <nd ref="1131418172"/>
    <nd ref="1131418308"/>
    <nd ref="1131418218"/>
    <tag k="addr:city" v="München"/>
    <tag k="addr:country" v="DE"/>
    <tag k="addr:housenumber" v="34"/>
    <tag k="addr:postcode" v="80339"/>
    <tag k="addr:street" v="Gollierstraße"/>
    <tag k="building" v="yes"/>
  </way>
  <way id="97731606" version="8" timestamp="2023-05-08T21:03:56Z" changeset="135869335" uid="2040341" user="teasu">
    <nd ref="1131418055"/>
    <nd ref="1131418146"/>
    <nd ref="1131418264"/>
    <nd ref="2460684935"/>
    <nd ref="1131417989"/>
    <nd ref="1131417846"/>
    <nd ref="1131417861"/>
    <nd ref="1131418055"/>
    <tag k="addr:city" v="München"/>
    <tag k="addr:country" v="DE"/>
    <tag k="addr:housenumber" v="28"/>
    <tag k="addr:postcode" v="80339"/>
    <tag k="addr:street" v="Gollierstraße"/>
    <tag k="building" v="house"/>
    <tag k="building:levels" v="4"/>
    <tag k="roof:levels" v="1"/>
    <tag k="wikidata" v="Q41183515"/>
  </way>
  <way id="97731613" version="5" timestamp="2019-02-17T14:10:01Z" changeset="67280567" uid="3251052" user="bronko42">
    <nd ref="2463947060"/>
    <nd ref="2463947059"/>
    <nd ref="1131417977"/>
    <nd ref="1131418229"/>
    <nd ref="1131418296"/>
    <nd ref="1131418294"/>
    <nd ref="1131418108"/>
    <nd ref="2463947060"/>
    <tag k="addr:city" v="München"/>
    <tag k="addr:country" v="DE"/>
    <tag k="addr:housenumber" v="26"/>
    <tag k="addr:postcode" v="80339"/>
    <tag k="addr:street" v="Gollierstraße"/>
    <tag k="building" v="apartments"/>
    <tag k="building:levels" v="4"/>
    <tag k="roof:levels" v="1"/>
    <tag k="roof:shape" v="quadruple_saltbox"/>
  </way>
  <way id="97731615" version="4" timestamp="2015-11-09T20:27:39Z" changeset="35201528" uid="2040341" user="teasu">
    <nd ref="1131417940"/>
    <nd ref="1131418167"/>
    <nd ref="1131418298"/>
    <nd ref="2443643241"/>
    <nd ref="1131418129"/>
    <nd ref="2443643204"/>
    <nd ref="1131417940"/>
    <tag k="addr:city" v="München"/>
    <tag k="addr:housenumber" v="19"/>
    <tag k="addr:postcode" v="80339"/>
    <tag k="addr:street" v="Tulbeckstraße"/>
    <tag k="building" v="yes"/>
    <tag k="building:levels" v="5"/>
  </way>
  <way id="98201181" version="9" timestamp="2020-11-21T22:09:21Z" changeset="94563384" uid="43207" user="kdkeller">
    <nd ref="1136057031"/>
    <nd ref="3627368598"/>
    <nd ref="1136057114"/>
    <nd ref="2462090459"/>
    <nd ref="1136057049"/>
    <nd ref="2462090483"/>
    <nd ref="1136057217"/>
    <nd ref="1136057089"/>
    <nd ref="2460659235"/>
    <nd ref="1136057084"/>
    <nd ref="1136057131"/>
    <nd ref="1136057031"/>
    <tag k="addr:city" v="München"/>
    <tag k="addr:country" v="DE"/>
    <tag k="addr:housenumber" v="38"/>
    <tag k="addr:postcode" v="80339"/>
    <tag k="addr:street" v="Ligsalzstraße"/>
    <tag k="building" v="apartments"/>
    <tag k="building:levels" v="4"/>
    <tag k="building:material" v="plaster"/>
    <tag k="roof:colour" v="#dbd7d8"/>
    <tag k="roof:levels" v="1"/>
    <tag k="roof:shape" v="mansard"/>
    <tag k="wikidata" v="Q41183749"/>
  </way>
  <way id="98855282" version="8" timestamp="2023-02-06T20:47:06Z" changeset="132175576" uid="4238158" user="RiderOnTheStorm">
    <nd ref="1143639908"/>
    <nd ref="1143639931"/>
    <nd ref="1143639882"/>
    <nd ref="1143639905"/>
    <nd ref="1143639903"/>
    <nd ref="1143639902"/>
    <nd ref="1143639912"/>
    <nd ref="1143639910"/>
    <nd ref="1143639916"/>
    <nd ref="1143639908"/>
    <tag k="building" v="apartments"/>
    <tag k="building:levels" v="4"/>
    <tag k="building:material" v="brick"/>
    <tag k="name" v="Hauberrisser-Haus"/>
    <tag k="roof:levels" v="1"/>
    <tag k="roof:shape" v="hipped"/>
    <tag k="wikidata" v="Q18674663"/>
    <tag k="wikimedia_commons" v="Category:Schwanthalerstraße 106 (München)"/>
    <tag k="wikipedia" v="de:Schwanthalerstraße 106 (München)"/>
  </way>
  <way id="99847761" version="3" timestamp="2017-05-27T22:19:33Z" changeset="49034359" uid="2007135" user="Brainlessnick">
    <nd ref="1154319336"/>
    <nd ref="1154319383"/>
    <nd ref="1154319376"/>
    <nd ref="1154319335"/>
    <nd ref="1154319395"/>
    <nd ref="1154319347"/>
    <nd ref="1154319341"/>
    <nd ref="1154319367"/>
    <nd ref="1154319361"/>
    <nd ref="1154319336"/>
    <tag k="addr:city" v="München"/>
    <tag k="addr:country" v="DE"/>
    <tag k="addr:housenumber" v="155"/>
    <tag k="addr:postcode" v="80339"/>
    <tag k="addr:street" v="Schwanthalerstraße"/>
    <tag k="building" v="apartments"/>
    <tag k="building:levels" v="6"/>
    <tag k="roof:levels" v="0"/>
  </way>
  <way id="99848176" version="4" timestamp="2017-05-27T22:19:33Z" changeset="49034359" uid="2007135" user="Brainlessnick">
    <nd ref="1154325290"/>
    <nd ref="3285462208"/>
    <nd ref="1154325327"/>
    <nd ref="1154325316"/>
    <nd ref="1154325343"/>
    <nd ref="1154325322"/>
    <nd ref="1154325348"/>
    <nd ref="1154325339"/>
    <nd ref="1154325290"/>
    <tag k="addr:city" v="München"/>
    <tag k="addr:country" v="DE"/>
    <tag k="addr:housenumber" v="12"/>
    <tag k="addr:postcode" v="80339"/>
    <tag k="addr:street" v="Ligsalzstraße"/>
    <tag k="building" v="apartments"/>
    <tag k="building:levels" v="4"/>
    <tag k="roof:levels" v="0"/>
  </way>
  <way id="99848177" version="5" timestamp="2020-10-19T00:09:28Z" changeset="92672335" uid="14390" user="BeKri">
    <nd ref="1154325295"/>
    <nd ref="1154325352"/>
    <nd ref="1154325358"/>
    <nd ref="8019784679"/>
    <nd ref="1154325298"/>
    <nd ref="1154325336"/>
    <nd ref="1154325323"/>
    <nd ref="3285462212"/>
    <nd ref="1154325295"/>
    <tag k="addr:city" v="München"/>
    <tag k="addr:country" v="DE"/>
    <tag k="addr:housenumber" v="151"/>
    <tag k="addr:postcode" v="80339"/>
    <tag k="addr:street" v="Schwanthalerstraße"/>
    <tag k="building" v="apartments"/>
    <tag k="building:levels" v="4"/>
    <tag k="roof:levels" v="0"/>
  </way>
  <way id="99848179" version="4" timestamp="2024-08-27T19:35:51Z" changeset="155848709" uid="137242" user="Rainero">
    <nd ref="1154325339"/>
    <nd ref="1154325290"/>
    <nd ref="1154325350"/>
    <nd ref="12140767563"/>
    <nd ref="1154325297"/>
    <nd ref="1154325287"/>
    <nd ref="1154325339"/>
    <tag k="addr:city" v="München"/>
    <tag k="addr:country" v="DE"/>
    <tag k="addr:housenumber" v="147"/>
    <tag k="addr:postcode" v="80339"/>
    <tag k="addr:street" v="Schwanthalerstraße"/>
    <tag k="building" v="apartments"/>
    <tag k="building:levels" v="4"/>
    <tag k="roof:levels" v="1"/>
  </way>
  <way id="99848180" version="4" timestamp="2017-05-27T22:19:35Z" changeset="49034359" uid="2007135" user="Brainlessnick">
    <nd ref="1154325343"/>
    <nd ref="1154325301"/>
    <nd ref="1154325342"/>
    <nd ref="3285462209"/>
    <nd ref="1154325316"/>
    <nd ref="1154325343"/>
    <tag k="addr:city" v="München"/>
    <tag k="addr:country" v="DE"/>
    <tag k="addr:housenumber" v="14"/>
    <tag k="addr:postcode" v="80339"/>
    <tag k="addr:street" v="Ligsalzstraße"/>
    <tag k="building" v="apartments"/>
    <tag k="building:levels" v="4"/>
    <tag k="roof:levels" v="1"/>
  </way>
  <way id="99848181" version="2" timestamp="2013-09-16T18:41:26Z" changeset="17872516" uid="8703" user="rolandg">
    <nd ref="2460723973"/>
    <nd ref="1154325354"/>
    <nd ref="1154325285"/>
    <nd ref="2460723971"/>
    <nd ref="2460723973"/>
    <tag k="addr:city" v="München"/>
    <tag k="addr:country" v="DE"/>
    <tag k="addr:housenumber" v="16"/>
    <tag k="addr:postcode" v="80339"/>
    <tag k="addr:street" v="Ligsalzstraße"/>
    <tag k="building" v="apartments"/>
  </way>
  <way id="119242842" version="5" timestamp="2018-09-03T17:51:28Z" changeset="62254682" uid="2040341" user="teasu">
    <nd ref="1340476823"/>
    <nd ref="2441805827"/>
    <nd ref="1340476863"/>
    <nd ref="1340476964"/>
    <nd ref="1340477069"/>
    <nd ref="1340476896"/>
    <nd ref="1340477002"/>
    <nd ref="1340477111"/>
    <nd ref="1340476922"/>
    <nd ref="1340476823"/>
    <tag k="addr:housenumber" v="118"/>
    <tag k="addr:street" v="Schwanthalerstraße"/>
    <tag k="building" v="apartments"/>
  </way>
  <way id="119242849" version="5" timestamp="2018-09-05T20:36:31Z" changeset="62323934" uid="2040341" user="teasu">
    <nd ref="1340476860"/>
    <nd ref="2441805937"/>
    <nd ref="1340476658"/>
    <nd ref="1340476800"/>
    <nd ref="1340476957"/>
    <nd ref="1340476860"/>
    <tag k="addr:housenumber" v="126"/>
    <tag k="addr:street" v="Schwanthalerstraße"/>
    <tag k="building" v="apartments"/>
  </way>
  <way id="127404524" version="10" timestamp="2020-12-28T13:05:05Z" changeset="96537605" uid="11758604" user="map per">
    <nd ref="1410296793"/>
    <nd ref="1410296794"/>
    <nd ref="3028785831"/>
    <nd ref="1410296790"/>
    <nd ref="6005497681"/>
    <nd ref="6005497682"/>
    <nd ref="6005497683"/>
    <nd ref="6005497684"/>
    <nd ref="1410296789"/>
    <nd ref="1410296791"/>
    <nd ref="1410296793"/>
    <tag k="addr:city" v="München"/>
    <tag k="addr:housenumber" v="10"/>
    <tag k="addr:postcode" v="80339"/>
    <tag k="addr:street" v="Heimeranstraße"/>
    <tag k="building" v="fire_station"/>
    <tag k="roof:shape" v="gabled"/>
  </way>
  <way id="140321548" version="12" timestamp="2025-04-29T16:11:07Z" changeset="165599594" uid="38546" user="wikimax">
    <nd ref="2964955572"/>
    <nd ref="12798177454"/>
    <nd ref="12798177453"/>
    <nd ref="12798177455"/>
    <nd ref="1537519384"/>
    <nd ref="12798177441"/>
    <nd ref="1537519385"/>
    <nd ref="2964955579"/>
    <nd ref="1537519386"/>
    <nd ref="2964955580"/>
    <nd ref="2964955581"/>
    <nd ref="12798177438"/>
    <nd ref="1134202987"/>
    <tag k="bicycle" v="use_sidepath"/>
    <tag k="cycleway:both" v="separate"/>
    <tag k="highway" v="tertiary"/>
    <tag k="lanes" v="2"/>
    <tag k="lit" v="yes"/>
    <tag k="maxspeed" v="50"/>
    <tag k="name" v="Bavariaring"/>
    <tag k="name:etymology:wikidata" v="Q707669"/>
    <tag k="oneway" v="yes"/>
    <tag k="sidewalk:left" v="no"/>
    <tag k="sidewalk:right" v="separate"/>
    <tag k="smoothness" v="good"/>
    <tag k="surface" v="asphalt"/>
  </way>
  <way id="140321550" version="11" timestamp="2025-04-29T16:11:07Z" changeset="165599594" uid="38546" user="wikimax">
    <nd ref="315271030"/>
    <nd ref="12798177443"/>
    <nd ref="12798177442"/>
    <nd ref="1537519400"/>
    <nd ref="1955407"/>
    <tag k="cycleway:left" v="separate"/>
    <tag k="cycleway:right" v="no"/>
    <tag k="highway" v="tertiary"/>
    <tag k="lanes" v="2"/>
    <tag k="lit" v="yes"/>
    <tag k="maxspeed" v="50"/>
    <tag k="noname" v="yes"/>
    <tag k="oneway" v="yes"/>
    <tag k="sidewalk:both" v="separate"/>
    <tag k="smoothness" v="good"/>
    <tag k="surface" v="asphalt"/>
  </way>
  <way id="151082432" version="12" timestamp="2025-04-29T16:11:07Z" changeset="165599594" uid="38546" user="wikimax">
    <nd ref="1955410"/>
    <nd ref="1639234340"/>
    <nd ref="2964955572"/>
    <nd ref="2964955573"/>
    <nd ref="1537519383"/>
    <tag k="bicycle" v="use_sidepath"/>
    <tag k="highway" v="secondary"/>
    <tag k="lanes" v="2"/>
    <tag k="lit" v="yes"/>
    <tag k="maxspeed" v="50"/>
    <tag k="name" v="Theresienhöhe"/>
    <tag k="name:etymology:wikidata" v="Q233198"/>
    <tag k="oneway" v="yes"/>
    <tag k="sidewalk:left" v="no"/>
    <tag k="sidewalk:right" v="separate"/>
    <tag k="smoothness" v="excellent"/>
    <tag k="surface" v="asphalt"/>
    <tag k="tmc" v="DE:35427/35428"/>
  </way>
  <way id="151082434" version="10" timestamp="2025-04-29T16:11:07Z" changeset="165599594" uid="38546" user="wikimax">
    <nd ref="1955410"/>
    <nd ref="8080237744"/>
    <nd ref="12798177499"/>
    <nd ref="8080237740"/>
    <nd ref="12798177492"/>
    <nd ref="1639234338"/>
    <nd ref="1639234336"/>
    <nd ref="1639234331"/>
    <nd ref="444207638"/>
    <nd ref="1955317"/>
    <tag k="bicycle" v="use_sidepath"/>
    <tag k="highway" v="secondary"/>
    <tag k="lanes" v="4"/>
    <tag k="lit" v="yes"/>
    <tag k="maxspeed" v="50"/>
    <tag k="name" v="Theresienhöhe"/>
    <tag k="name:etymology:wikidata" v="Q233198"/>
    <tag k="sidewalk" v="separate"/>
    <tag k="smoothness" v="excellent"/>
    <tag k="surface" v="asphalt"/>
    <tag k="tmc" v="DE:35427/35428"/>
  </way>
  <way id="152283603" version="17" timestamp="2024-05-16T20:31:54Z" changeset="151426653" uid="137242" user="Rainero">
    <nd ref="21577902"/>
    <nd ref="715449603"/>
    <nd ref="1549105851"/>
    <nd ref="21580486"/>
    <nd ref="1549105854"/>
    <nd ref="2860089623"/>
    <nd ref="6015773861"/>
    <nd ref="21577901"/>
    <nd ref="6015434103"/>
    <nd ref="6015434101"/>
    <nd ref="1029952567"/>
    <nd ref="3558201320"/>
    <nd ref="6002005233"/>
    <nd ref="21261467"/>
    <tag k="class:bicycle" v="1"/>
    <tag k="highway" v="residential"/>
    <tag k="lit" v="yes"/>
    <tag k="maxspeed" v="30"/>
    <tag k="name" v="Kazmairstraße"/>
    <tag k="name:etymology:wikidata" v="Q1671972"/>
    <tag k="sidewalk" v="both"/>
    <tag k="sidewalk:both:surface" v="paving_stones"/>
    <tag k="smoothness" v="good"/>
    <tag k="source:maxspeed" v="DE:zone30"/>
    <tag k="source:width" v="ARCore"/>
    <tag k="surface" v="asphalt"/>
    <tag k="width" v="9"/>
  </way>
  <way id="152503869" version="11" timestamp="2024-03-30T12:59:33Z" changeset="149349522" uid="29096" user="buergi">
    <nd ref="4331346518"/>
    <nd ref="90237505"/>
    <nd ref="6002375404"/>
    <nd ref="28448459"/>
    <nd ref="4708258087"/>
    <nd ref="1653221167"/>
    <nd ref="1653221172"/>
    <nd ref="1653221173"/>
    <nd ref="21577903"/>
    <nd ref="1653221175"/>
    <nd ref="2464451969"/>
    <nd ref="21577902"/>
    <tag k="bicycle" v="use_sidepath"/>
    <tag k="foot" v="use_sidepath"/>
    <tag k="highway" v="tertiary"/>
    <tag k="lanes" v="2"/>
    <tag k="lit" v="yes"/>
    <tag k="maxspeed" v="50"/>
    <tag k="name" v="Heimeranstraße"/>
    <tag k="sidewalk" v="separate"/>
    <tag k="smoothness" v="excellent"/>
    <tag k="surface" v="asphalt"/>
  </way>
  <way id="154790151" version="16" timestamp="2024-05-16T20:31:54Z" changeset="151426653" uid="137242" user="Rainero">
    <nd ref="21261466"/>
    <nd ref="2617615540"/>
    <nd ref="21261464"/>
    <nd ref="2617615534"/>
    <nd ref="1672663145"/>
    <nd ref="2716867108"/>
    <nd ref="3328852909"/>
    <nd ref="6002345613"/>
    <nd ref="2716867077"/>
    <nd ref="6002345611"/>
    <nd ref="3328852908"/>
    <nd ref="6015431283"/>
    <nd ref="3115107321"/>
    <nd ref="21261467"/>
    <tag k="bicycle" v="yes"/>
    <tag k="class:bicycle" v="1"/>
    <tag k="cycleway" v="opposite"/>
    <tag k="highway" v="residential"/>
    <tag k="lit" v="yes"/>
    <tag k="maxspeed" v="30"/>
    <tag k="name" v="Kazmairstraße"/>
    <tag k="name:etymology:wikidata" v="Q1671972"/>
    <tag k="oneway" v="yes"/>
    <tag k="oneway:bicycle" v="no"/>
    <tag k="sidewalk" v="both"/>
    <tag k="sidewalk:both:surface" v="paving_stones"/>
    <tag k="smoothness" v="good"/>
    <tag k="source:maxspeed" v="DE:zone30"/>
    <tag k="surface" v="asphalt"/>
  </way>
  <way id="154790153" version="11" timestamp="2024-06-03T19:16:23Z" changeset="152214139" uid="20905165" user="nu99et">
    <nd ref="28448459"/>
    <nd ref="715449609"/>
    <nd ref="1672663126"/>
    <nd ref="1672663140"/>
    <nd ref="6002345609"/>
    <nd ref="6002345607"/>
    <nd ref="6007894522"/>
    <nd ref="3115107320"/>
    <nd ref="21261467"/>
    <tag k="class:bicycle" v="1"/>
    <tag k="highway" v="residential"/>
    <tag k="lit" v="yes"/>
    <tag k="maxspeed" v="30"/>
    <tag k="name" v="Ligsalzstraße"/>
    <tag k="parking:lane:both" v="parallel"/>
    <tag k="sidewalk" v="both"/>
    <tag k="sidewalk:both:surface" v="paving_stones"/>
    <tag k="smoothness" v="good"/>
    <tag k="source:maxspeed" v="DE:zone30"/>
    <tag k="surface" v="asphalt"/>
  </way>
  <way id="154790156" version="14" timestamp="2023-07-30T19:17:57Z" changeset="139223108" uid="18493611" user="MunichWays">
    <nd ref="21261467"/>
    <nd ref="3115107322"/>
    <nd ref="6002005228"/>
    <nd ref="6002005226"/>
    <nd ref="6015434091"/>
    <nd ref="6002005245"/>
    <nd ref="6002375427"/>
    <nd ref="6015020418"/>
    <nd ref="6015434118"/>
    <nd ref="21562783"/>
    <nd ref="2460684940"/>
    <nd ref="5248095536"/>
    <nd ref="2460684938"/>
    <nd ref="21562569"/>
    <nd ref="3285462210"/>
    <nd ref="21562566"/>
    <nd ref="21562568"/>
    <tag k="class:bicycle" v="1"/>
    <tag k="highway" v="residential"/>
    <tag k="lit" v="yes"/>
    <tag k="maxspeed" v="30"/>
    <tag k="name" v="Ligsalzstraße"/>
    <tag k="oneway" v="yes"/>
    <tag k="oneway:bicycle" v="no"/>
    <tag k="sidewalk" v="both"/>
    <tag k="source:maxspeed" v="DE:zone:30"/>
    <tag k="surface" v="asphalt"/>
  </way>
  <way id="155229191" version="15" timestamp="2025-04-29T16:11:07Z" changeset="165599594" uid="38546" user="wikimax">
    <nd ref="17207055"/>
    <nd ref="3643418954"/>
    <nd ref="8003141487"/>
    <nd ref="8001063502"/>
    <nd ref="6013321091"/>
    <nd ref="8001063500"/>
    <nd ref="8003163607"/>
    <nd ref="12798177498"/>
    <nd ref="12798177496"/>
    <nd ref="12798177494"/>
    <nd ref="324699264"/>
    <nd ref="12798177497"/>
    <nd ref="12798177495"/>
    <nd ref="12798177499"/>
    <tag k="class:bicycle" v="1"/>
    <tag k="destination:backward" v="Parkhaus Schwanthalerhöhe"/>
    <tag k="highway" v="residential"/>
    <tag k="lit" v="yes"/>
    <tag k="maxspeed" v="30"/>
    <tag k="name" v="Gollierstraße"/>
    <tag k="sidewalk" v="both"/>
    <tag k="smoothness" v="excellent"/>
    <tag k="source:width" v="ARCore"/>
    <tag k="surface" v="asphalt"/>
    <tag k="width" v="12"/>
  </way>
  <way id="155229194" version="15" timestamp="2025-04-29T16:11:07Z" changeset="165599594" uid="38546" user="wikimax">
    <nd ref="21562308"/>
    <nd ref="12798189307"/>
    <nd ref="4523473321"/>
    <nd ref="12798189306"/>
    <nd ref="1676414948"/>
    <nd ref="21562307"/>
    <tag k="bicycle_road" v="yes"/>
    <tag k="class:bicycle" v="1"/>
    <tag k="highway" v="residential"/>
    <tag k="lane_markings" v="no"/>
    <tag k="lit" v="yes"/>
    <tag k="maxspeed" v="30"/>
    <tag k="motor_vehicle" v="yes"/>
    <tag k="name" v="Theresienhöhe"/>
    <tag k="name:etymology:wikidata" v="Q233198"/>
    <tag k="note" v="Fahrradstraße im Laufe 2013"/>
    <tag k="sidewalk" v="both"/>
    <tag k="sidewalk:both:surface" v="paving_stones"/>
    <tag k="smoothness" v="good"/>
    <tag k="source:maxspeed" v="DE:bicycle_road"/>
    <tag k="surface" v="asphalt"/>
    <tag k="traffic_sign" v="DE:244.1"/>
    <tag k="width" v="9"/>
  </way>
  <way id="162543968" version="6" timestamp="2023-05-08T21:03:56Z" changeset="135869335" uid="2040341" user="teasu">
    <nd ref="2281221379"/>
    <nd ref="1744082903"/>
    <nd ref="1744082919"/>
    <nd ref="6015008427"/>
    <nd ref="1744082917"/>
    <nd ref="1744082910"/>
    <nd ref="2281221381"/>
    <nd ref="2281221379"/>
    <tag k="addr:city" v="München"/>
    <tag k="addr:country" v="DE"/>
    <tag k="addr:housenumber" v="31"/>
    <tag k="addr:street" v="Gollierstraße"/>
    <tag k="building" v="apartments"/>
    <tag k="wikidata" v="Q41183526"/>
  </way>
  <way id="162543969" version="7" timestamp="2018-10-26T09:08:21Z" changeset="63893264" uid="8553447" user="jimmy_conway">
    <nd ref="1744082904"/>
    <nd ref="1744082901"/>
    <nd ref="1744082902"/>
    <nd ref="6015008429"/>
    <nd ref="1744082907"/>
    <nd ref="1744082905"/>
    <nd ref="1744101049"/>
    <nd ref="1744082904"/>
    <tag k="addr:city" v="München"/>
    <tag k="addr:country" v="DE"/>
    <tag k="addr:housenumber" v="33"/>
    <tag k="addr:postcode" v="80339"/>
    <tag k="addr:street" v="Gollierstraße"/>
    <tag k="building" v="apartments"/>
  </way>
  <way id="162544894" version="7" timestamp="2020-09-07T19:44:41Z" changeset="90547111" uid="8553447" user="jimmy_conway">
    <nd ref="2313141493"/>
    <nd ref="2313141492"/>
    <nd ref="1744101035"/>
    <nd ref="1744101057"/>
    <nd ref="1744101042"/>
    <nd ref="1744101052"/>
    <nd ref="1744101047"/>
    <nd ref="2313141493"/>
    <tag k="addr:city" v="München"/>
    <tag k="addr:country" v="DE"/>
    <tag k="addr:housenumber" v="30"/>
    <tag k="addr:postcode" v="80339"/>
    <tag k="addr:street" v="Ligsalzstraße"/>
    <tag k="building" v="apartments"/>
    <tag k="building:levels" v="4"/>
    <tag k="building:material" v="plaster"/>
    <tag k="roof:colour" v="#d1b09f"/>
    <tag k="roof:levels" v="1"/>
    <tag k="roof:material" v="metal"/>
    <tag k="roof:shape" v="mansard"/>
  </way>
  <way id="162570261" version="7" timestamp="2023-01-06T15:10:51Z" changeset="130951714" uid="536583" user="Strubbl">
    <nd ref="1744343840"/>
    <nd ref="1744343817"/>
    <nd ref="6015008416"/>
    <nd ref="6015008415"/>
    <nd ref="1744343827"/>
    <nd ref="1744343834"/>
    <nd ref="1744343832"/>
    <nd ref="1744343829"/>
    <nd ref="1744343840"/>
    <tag k="addr:city" v="München"/>
    <tag k="addr:housenumber" v="30"/>
    <tag k="addr:street" v="Kazmairstraße"/>
    <tag k="building" v="apartments"/>
    <tag k="building:levels" v="4"/>
    <tag k="roof:levels" v="1"/>
  </way>
  <way id="162570262" version="7" timestamp="2025-02-09T12:14:00Z" changeset="162311776" uid="536583" user="Strubbl">
    <nd ref="1744343827"/>
    <nd ref="1744343822"/>
    <nd ref="1744343838"/>
    <nd ref="1744343791"/>
    <nd ref="2464459120"/>
    <nd ref="1744343825"/>
    <nd ref="1744343834"/>
    <nd ref="1744343827"/>
    <tag k="addr:housenumber" v="32"/>
    <tag k="addr:street" v="Kazmairstraße"/>
    <tag k="building" v="apartments"/>
    <tag k="building:levels" v="4"/>
    <tag k="roof:levels" v="1"/>
    <tag k="wikidata" v="Q41183629"/>
    <tag k="wikimedia_commons" v="Category:Kazmairstraße 32 (München)"/>
  </way>
  <way id="162570267" version="8" timestamp="2020-11-21T22:09:20Z" changeset="94563384" uid="43207" user="kdkeller">
    <nd ref="2460659240"/>
    <nd ref="1744343815"/>
    <nd ref="1744343820"/>
    <nd ref="1744343810"/>
    <nd ref="1744343813"/>
    <nd ref="2460659245"/>
    <nd ref="2460659240"/>
    <tag k="addr:city" v="München"/>
    <tag k="addr:country" v="DE"/>
    <tag k="addr:housenumber" v="34"/>
    <tag k="addr:postcode" v="80339"/>
    <tag k="addr:street" v="Ligsalzstraße"/>
    <tag k="building" v="apartments"/>
    <tag k="building:levels" v="4"/>
    <tag k="building:material" v="plaster"/>
    <tag k="roof:colour" v="#5c585f"/>
    <tag k="roof:levels" v="1"/>
    <tag k="roof:material" v="metal"/>
    <tag k="roof:shape" v="mansard"/>
    <tag k="wikidata" v="Q41183740"/>
  </way>
  <way id="162579857" version="6" timestamp="2020-11-21T22:17:22Z" changeset="94563384" uid="43207" user="kdkeller">
    <nd ref="2716867065"/>
    <nd ref="6015434086"/>
    <nd ref="1744415686"/>
    <nd ref="1744415687"/>
    <nd ref="1744423073"/>
    <nd ref="2716867068"/>
    <nd ref="1744415691"/>
    <nd ref="2716867063"/>
    <nd ref="2716867065"/>
    <tag k="addr:city" v="München"/>
    <tag k="addr:housenumber" v="26"/>
    <tag k="addr:street" v="Kazmairstraße"/>
    <tag k="building" v="apartments"/>
    <tag k="wikidata" v="Q98644482"/>
  </way>
  <way id="162580453" version="4" timestamp="2018-10-26T09:08:21Z" changeset="63893264" uid="8553447" user="jimmy_conway">
    <nd ref="1744415687"/>
    <nd ref="1744423061"/>
    <nd ref="1744423079"/>
    <nd ref="6015007265"/>
    <nd ref="2716867055"/>
    <nd ref="2716867059"/>
    <nd ref="6015007264"/>
    <nd ref="2716867061"/>
    <nd ref="2716867057"/>
    <nd ref="1744423073"/>
    <nd ref="1744415687"/>
    <tag k="addr:city" v="München"/>
    <tag k="addr:housenumber" v="28"/>
    <tag k="addr:street" v="Kazmairstraße"/>
    <tag k="building" v="apartments"/>
  </way>
  <way id="162580906" version="11" timestamp="2024-02-14T20:55:44Z" changeset="147466474" uid="12164053" user="barefootstache">
    <nd ref="2463677632"/>
    <nd ref="2463677635"/>
    <nd ref="1744430018"/>
    <nd ref="6002252024"/>
    <nd ref="6002252025"/>
    <nd ref="1744430017"/>
    <nd ref="1744430012"/>
    <nd ref="1744430013"/>
    <nd ref="1744430014"/>
    <nd ref="2463677632"/>
    <tag k="addr:housenumber" v="14a"/>
    <tag k="addr:street" v="Kazmairstraße"/>
    <tag k="building" v="apartments"/>
    <tag k="building:levels" v="4"/>
    <tag k="roof:levels" v="1"/>
    <tag k="roof:shape" v="quadruple_saltbox"/>
  </way>
  <way id="162597916" version="2" timestamp="2013-09-23T21:42:13Z" changeset="17998993" uid="8703" user="rolandg">
    <nd ref="1744598337"/>
    <nd ref="1744598336"/>
    <nd ref="1744598342"/>
    <nd ref="2469399684"/>
    <nd ref="1744598343"/>
    <nd ref="1744598337"/>
    <tag k="addr:city" v="München"/>
    <tag k="addr:country" v="DE"/>
    <tag k="addr:housenumber" v="180"/>
    <tag k="addr:postcode" v="80339"/>
    <tag k="addr:street" v="Schwanthalerstraße"/>
    <tag k="building" v="apartments"/>
  </way>
  <way id="162597918" version="3" timestamp="2020-03-16T11:29:47Z" changeset="82254920" uid="14390" user="BeKri">
    <nd ref="1744598346"/>
    <nd ref="7298946780"/>
    <nd ref="7298946779"/>
    <nd ref="7298946777"/>
    <nd ref="7298946778"/>
    <nd ref="2469399682"/>
    <nd ref="7298946776"/>
    <nd ref="7298946775"/>
    <nd ref="1744598343"/>
    <nd ref="1744598337"/>
    <nd ref="1744598338"/>
    <nd ref="1744598346"/>
    <tag k="addr:city" v="München"/>
    <tag k="addr:country" v="DE"/>
    <tag k="addr:housenumber" v="178"/>
    <tag k="addr:postcode" v="80339"/>
    <tag k="addr:street" v="Schwanthalerstraße"/>
    <tag k="building" v="apartments"/>
  </way>
  <way id="162597922" version="6" timestamp="2024-02-14T20:55:44Z" changeset="147466474" uid="12164053" user="barefootstache">
    <nd ref="1744598223"/>
    <nd ref="1744598220"/>
    <nd ref="1744598221"/>
    <nd ref="1744598224"/>
    <nd ref="1744598223"/>
    <tag k="addr:housenumber" v="29"/>
    <tag k="addr:street" v="Parkstraße"/>
    <tag k="building" v="apartments"/>
    <tag k="building:levels" v="4"/>
    <tag k="roof:levels" v="1"/>
    <tag k="roof:shape" v="mansard"/>
  </way>
  <way id="162597935" version="3" timestamp="2020-11-21T22:09:31Z" changeset="94563384" uid="43207" user="kdkeller">
    <nd ref="1744598339"/>
    <nd ref="1744598334"/>
    <nd ref="1744598336"/>
    <nd ref="1744598342"/>
    <nd ref="1744598341"/>
    <nd ref="1744598345"/>
    <nd ref="1744598344"/>
    <nd ref="1744598340"/>
    <nd ref="1744598339"/>
    <tag k="addr:city" v="München"/>
    <tag k="addr:country" v="DE"/>
    <tag k="addr:housenumber" v="182"/>
    <tag k="addr:postcode" v="80339"/>
    <tag k="addr:street" v="Schwanthalerstraße"/>
    <tag k="building" v="apartments"/>
    <tag k="wikidata" v="Q41183891"/>
  </way>
  <way id="162607138" version="2" timestamp="2013-09-19T09:19:56Z" changeset="17919057" uid="8703" user="rolandg">
    <nd ref="1744687934"/>
    <nd ref="1744687933"/>
    <nd ref="1744687941"/>
    <nd ref="1744687940"/>
    <nd ref="1744687917"/>
    <nd ref="1744687919"/>
    <nd ref="1744687934"/>
    <tag k="addr:housenumber" v="20"/>
    <tag k="addr:postcode" v="80339"/>
    <tag k="addr:street" v="Gollierstraße"/>
    <tag k="building" v="yes"/>
  </way>
  <way id="162607139" version="5" timestamp="2019-02-17T14:12:54Z" changeset="67280567" uid="3251052" user="bronko42">
    <nd ref="1744687915"/>
    <nd ref="1744687916"/>
    <nd ref="1744687938"/>
    <nd ref="1744687937"/>
    <nd ref="1744687930"/>
    <nd ref="1744687929"/>
    <nd ref="1744687915"/>
    <tag k="addr:housenumber" v="22"/>
    <tag k="addr:postcode" v="80339"/>
    <tag k="addr:street" v="Gollierstraße"/>
    <tag k="building" v="apartments"/>
    <tag k="building:levels" v="4"/>
    <tag k="roof:levels" v="1"/>
    <tag k="roof:shape" v="quadruple_saltbox"/>
  </way>
  <way id="162607140" version="5" timestamp="2022-03-18T13:23:48Z" changeset="118630992" uid="4376164" user="redweizn">
    <nd ref="1744687919"/>
    <nd ref="1744687934"/>
    <nd ref="1744687936"/>
    <nd ref="1744687942"/>
    <nd ref="1744687943"/>
    <nd ref="1744687922"/>
    <nd ref="1744687919"/>
    <tag k="addr:housenumber" v="18"/>
    <tag k="addr:postcode" v="80339"/>
    <tag k="addr:street" v="Gollierstraße"/>
    <tag k="building" v="apartments"/>
    <tag k="building:levels" v="4"/>
    <tag k="roof:levels" v="1"/>
    <tag k="roof:shape" v="gabled"/>
  </way>
  <way id="162658326" version="2" timestamp="2012-05-08T08:03:52Z" changeset="11536537" uid="42393" user="mawi42">
    <nd ref="1745204006"/>
    <nd ref="1745204005"/>
    <nd ref="1745204008"/>
    <nd ref="1744101049"/>
    <nd ref="1744082904"/>
    <nd ref="1745204007"/>
    <nd ref="1745204006"/>
    <tag k="addr:city" v="München"/>
    <tag k="addr:country" v="DE"/>
    <tag k="addr:housenumber" v="35"/>
    <tag k="addr:postcode" v="80339"/>
    <tag k="addr:street" v="Gollierstraße"/>
    <tag k="building" v="apartments"/>
  </way>
  <way id="162662075" version="4" timestamp="2020-11-21T22:09:11Z" changeset="94563384" uid="43207" user="kdkeller">
    <nd ref="1745209386"/>
    <nd ref="1131418146"/>
    <nd ref="1131418055"/>
    <nd ref="1745209385"/>
    <nd ref="1745209381"/>
    <nd ref="1745209383"/>
    <nd ref="1745209386"/>
    <tag k="addr:city" v="München"/>
    <tag k="addr:country" v="DE"/>
    <tag k="addr:housenumber" v="30"/>
    <tag k="addr:postcode" v="80339"/>
    <tag k="addr:street" v="Gollierstraße"/>
    <tag k="building" v="apartments"/>
    <tag k="building:levels" v="4"/>
    <tag k="roof:levels" v="1"/>
    <tag k="roof:shape" v="quadruple_saltbox"/>
    <tag k="wikidata" v="Q41183523"/>
  </way>
  <way id="162915040" version="7" timestamp="2019-03-06T16:55:28Z" changeset="67851343" uid="3251052" user="bronko42">
    <nd ref="1747074937"/>
    <nd ref="3754440429"/>
    <nd ref="1747074912"/>
    <nd ref="1747074901"/>
    <nd ref="1747074900"/>
    <nd ref="1747074893"/>
    <nd ref="1747074891"/>
    <nd ref="1747074897"/>
    <nd ref="1747074896"/>
    <nd ref="2464451991"/>
    <nd ref="1747074932"/>
    <nd ref="1747074937"/>
    <tag k="addr:housenumber" v="23"/>
    <tag k="addr:postcode" v="80339"/>
    <tag k="addr:street" v="Gollierstraße"/>
    <tag k="building" v="apartments"/>
    <tag k="building:levels" v="5"/>
    <tag k="roof:levels" v="1"/>
    <tag k="roof:shape" v="hipped"/>
  </way>
  <way id="162915041" version="7" timestamp="2023-05-08T21:03:56Z" changeset="135869335" uid="2040341" user="teasu">
    <nd ref="1747074878"/>
    <nd ref="1747074879"/>
    <nd ref="1747074881"/>
    <nd ref="3556996665"/>
    <nd ref="6374382854"/>
    <nd ref="6002005246"/>
    <nd ref="6002005252"/>
    <nd ref="6002005253"/>
    <nd ref="6002005224"/>
    <nd ref="6002005254"/>
    <nd ref="1747074875"/>
    <nd ref="1747074874"/>
    <nd ref="1747074878"/>
    <tag k="addr:city" v="München"/>
    <tag k="addr:country" v="DE"/>
    <tag k="addr:housenumber" v="29"/>
    <tag k="addr:postcode" v="80339"/>
    <tag k="addr:street" v="Ligsalzstraße"/>
    <tag k="building" v="apartments"/>
    <tag k="building:levels" v="2"/>
    <tag k="building:material" v="plaster"/>
    <tag k="roof:colour" v="#d9d7da"/>
    <tag k="roof:direction" v="south"/>
    <tag k="roof:levels" v="1"/>
    <tag k="roof:material" v="metal"/>
    <tag k="wikidata" v="Q98644565"/>
  </way>
  <way id="162915042" version="5" timestamp="2023-05-08T21:03:56Z" changeset="135869335" uid="2040341" user="teasu">
    <nd ref="1747074937"/>
    <nd ref="1747074939"/>
    <nd ref="1747074905"/>
    <nd ref="1747074903"/>
    <nd ref="3754440429"/>
    <nd ref="1747074937"/>
    <tag k="addr:city" v="München"/>
    <tag k="addr:country" v="DE"/>
    <tag k="addr:housenumber" v="19"/>
    <tag k="addr:postcode" v="80339"/>
    <tag k="addr:street" v="Gollierstraße"/>
    <tag k="building" v="yes"/>
    <tag k="wikidata" v="Q41183507"/>
  </way>
  <way id="162915044" version="6" timestamp="2020-09-07T19:44:41Z" changeset="90547111" uid="8553447" user="jimmy_conway">
    <nd ref="1747074877"/>
    <nd ref="1747074883"/>
    <nd ref="1747074882"/>
    <nd ref="1747074876"/>
    <nd ref="1747074877"/>
    <tag k="addr:city" v="München"/>
    <tag k="addr:country" v="DE"/>
    <tag k="addr:housenumber" v="27"/>
    <tag k="addr:postcode" v="80339"/>
    <tag k="addr:street" v="Ligsalzstraße"/>
    <tag k="building" v="apartments"/>
    <tag k="building:levels" v="4"/>
    <tag k="building:material" v="plaster"/>
    <tag k="roof:colour" v="#9c6f58"/>
    <tag k="roof:levels" v="1"/>
    <tag k="roof:material" v="roof_tiles"/>
    <tag k="roof:orientation" v="across"/>
    <tag k="roof:shape" v="gabled"/>
  </way>
  <way id="162915045" version="7" timestamp="2020-09-07T19:44:41Z" changeset="90547111" uid="8553447" user="jimmy_conway">
    <nd ref="1747074861"/>
    <nd ref="1747074862"/>
    <nd ref="1747074859"/>
    <nd ref="2460814510"/>
    <nd ref="2460814513"/>
    <nd ref="1747074858"/>
    <nd ref="1747074861"/>
    <tag k="addr:city" v="München"/>
    <tag k="addr:country" v="DE"/>
    <tag k="addr:housenumber" v="31a"/>
    <tag k="addr:postcode" v="80339"/>
    <tag k="addr:street" v="Ligsalzstraße"/>
    <tag k="building" v="apartments"/>
    <tag k="building:levels" v="4"/>
    <tag k="building:material" v="plaster"/>
    <tag k="roof:colour" v="#7e6c6e"/>
    <tag k="roof:levels" v="1"/>
    <tag k="roof:material" v="metal"/>
    <tag k="roof:shape" v="mansard"/>
  </way>
  <way id="162915046" version="8" timestamp="2023-05-08T21:03:56Z" changeset="135869335" uid="2040341" user="teasu">
    <nd ref="1747074876"/>
    <nd ref="1747074877"/>
    <nd ref="6002005223"/>
    <nd ref="1747074873"/>
    <nd ref="1747074871"/>
    <nd ref="1747074876"/>
    <tag k="addr:city" v="München"/>
    <tag k="addr:country" v="DE"/>
    <tag k="addr:housenumber" v="29"/>
    <tag k="addr:postcode" v="80339"/>
    <tag k="addr:street" v="Ligsalzstraße"/>
    <tag k="building" v="apartments"/>
    <tag k="building:levels" v="4"/>
    <tag k="building:material" v="plaster"/>
    <tag k="roof:colour" v="#5c585f"/>
    <tag k="roof:direction" v="south"/>
    <tag k="roof:height" v="2.09"/>
    <tag k="roof:levels" v="1"/>
    <tag k="roof:material" v="metal"/>
    <tag k="roof:orientation" v="south"/>
    <tag k="roof:shape" v="mansard_onsided"/>
    <tag k="wikidata" v="Q98644565"/>
  </way>
  <way id="162915051" version="6" timestamp="2020-11-18T03:41:17Z" changeset="94320883" uid="14390" user="BeKri">
    <nd ref="1747074890"/>
    <nd ref="1747074892"/>
    <nd ref="1747074885"/>
    <nd ref="1747074884"/>
    <nd ref="1747074883"/>
    <nd ref="1747074882"/>
    <nd ref="1747074890"/>
    <tag k="addr:housenumber" v="25"/>
    <tag k="addr:street" v="Ligsalzstraße"/>
    <tag k="building" v="apartments"/>
    <tag k="building:levels" v="4"/>
    <tag k="building:material" v="plaster"/>
    <tag k="note" v="soll zukünftig abgerissen und durch ein &quot;Mehrparteienhaus&quot; ersetzt werden"/>
    <tag k="roof:colour" v="#5e6150"/>
    <tag k="roof:levels" v="1"/>
    <tag k="roof:material" v="metal"/>
    <tag k="roof:orientation" v="north"/>
    <tag k="roof:shape" v="mansard_onsided"/>
  </way>
  <way id="162915052" version="7" timestamp="2020-09-07T19:44:41Z" changeset="90547111" uid="8553447" user="jimmy_conway">
    <nd ref="1747074867"/>
    <nd ref="6002005222"/>
    <nd ref="1747074869"/>
    <nd ref="1747074866"/>
    <nd ref="1747074868"/>
    <nd ref="1747074863"/>
    <nd ref="1747074862"/>
    <nd ref="1747074861"/>
    <nd ref="1747074867"/>
    <tag k="addr:city" v="München"/>
    <tag k="addr:country" v="DE"/>
    <tag k="addr:housenumber" v="31"/>
    <tag k="addr:postcode" v="80339"/>
    <tag k="addr:street" v="Ligsalzstraße"/>
    <tag k="building" v="apartments"/>
    <tag k="building:levels" v="4"/>
    <tag k="building:material" v="plaster"/>
    <tag k="roof:colour" v="#a6878c"/>
    <tag k="roof:levels" v="1"/>
    <tag k="roof:material" v="metal"/>
    <tag k="roof:shape" v="mansard"/>
  </way>
  <way id="162915054" version="8" timestamp="2020-11-21T22:09:10Z" changeset="94563384" uid="43207" user="kdkeller">
    <nd ref="1747074930"/>
    <nd ref="1747074933"/>
    <nd ref="1747074907"/>
    <nd ref="2464451998"/>
    <nd ref="1747074902"/>
    <nd ref="1747074910"/>
    <nd ref="1747074906"/>
    <nd ref="1747074911"/>
    <nd ref="1747074930"/>
    <tag k="addr:housenumber" v="25"/>
    <tag k="addr:postcode" v="80339"/>
    <tag k="addr:street" v="Gollierstraße"/>
    <tag k="building" v="apartments"/>
    <tag k="building:levels" v="4"/>
    <tag k="roof:levels" v="1"/>
    <tag k="roof:shape" v="mansard"/>
    <tag k="wikidata" v="Q41183511"/>
  </way>
  <way id="162915055" version="6" timestamp="2020-09-07T19:44:41Z" changeset="90547111" uid="8553447" user="jimmy_conway">
    <nd ref="1747074926"/>
    <nd ref="1747074928"/>
    <nd ref="1747074930"/>
    <nd ref="1747074911"/>
    <nd ref="1747074909"/>
    <nd ref="1747074899"/>
    <nd ref="1747074898"/>
    <nd ref="1747074926"/>
    <tag k="addr:city" v="München"/>
    <tag k="addr:country" v="DE"/>
    <tag k="addr:housenumber" v="23"/>
    <tag k="addr:postcode" v="80339"/>
    <tag k="addr:street" v="Ligsalzstraße"/>
    <tag k="building" v="apartments"/>
    <tag k="building:levels" v="4"/>
    <tag k="building:material" v="plaster"/>
    <tag k="roof:colour" v="#d9d7da"/>
    <tag k="roof:levels" v="1"/>
    <tag k="roof:material" v="metal"/>
    <tag k="roof:shape" v="mansard"/>
  </way>
  <way id="173513928" version="3" timestamp="2014-07-23T21:31:49Z" changeset="24320909" uid="78613" user="heilbron">
    <nd ref="1843098534"/>
    <nd ref="1843098506"/>
    <nd ref="1843098510"/>
    <nd ref="1843098537"/>
    <nd ref="1843098534"/>
    <tag k="addr:housenumber" v="15"/>
    <tag k="addr:postcode" v="80339"/>
    <tag k="addr:street" v="Gollierstraße"/>
    <tag k="building" v="yes"/>
    <tag k="roof:colour" v="grey"/>
  </way>
  <way id="173513935" version="8" timestamp="2024-02-07T19:42:07Z" changeset="147189971" uid="12164053" user="barefootstache">
    <nd ref="1843098832"/>
    <nd ref="1843098829"/>
    <nd ref="1843098830"/>
    <nd ref="1843098833"/>
    <nd ref="1843098832"/>
    <tag k="addr:housenumber" v="10"/>
    <tag k="addr:postcode" v="80339"/>
    <tag k="addr:street" v="Schießstättstraße"/>
    <tag k="building" v="apartments"/>
    <tag k="building:levels" v="3"/>
    <tag k="roof:levels" v="1"/>
    <tag k="roof:shape" v="gambrel"/>
    <tag k="wikidata" v="Q41183814"/>
  </way>
  <way id="173513951" version="8" timestamp="2020-11-21T22:16:05Z" changeset="94563384" uid="43207" user="kdkeller">
    <nd ref="1843098732"/>
    <nd ref="1843098730"/>
    <nd ref="1843098713"/>
    <nd ref="1843098714"/>
    <nd ref="2469457666"/>
    <nd ref="1843098732"/>
    <tag k="addr:housenumber" v="20"/>
    <tag k="addr:postcode" v="80339"/>
    <tag k="addr:street" v="Schießstättstraße"/>
    <tag k="building" v="apartments"/>
    <tag k="building:levels" v="3"/>
    <tag k="roof:levels" v="1"/>
    <tag k="roof:shape" v="quadruple_saltbox"/>
    <tag k="wikidata" v="Q98643281"/>
  </way>
  <way id="173513956" version="4" timestamp="2022-12-23T11:56:36Z" changeset="130418442" uid="14742734" user="The_Nickname">
    <nd ref="1843099018"/>
    <nd ref="1843099089"/>
    <nd ref="1843099091"/>
    <nd ref="1843099023"/>
    <nd ref="1843099018"/>
    <tag k="addr:city" v="München"/>
    <tag k="addr:country" v="DE"/>
    <tag k="addr:housenumber" v="148"/>
    <tag k="addr:postcode" v="80339"/>
    <tag k="addr:street" v="Schwanthalerstraße"/>
    <tag k="building" v="apartments"/>
  </way>
  <way id="173513957" version="3" timestamp="2017-11-26T22:46:49Z" changeset="54107353" uid="78613" user="heilbron">
    <nd ref="1843098977"/>
    <nd ref="1843099029"/>
    <nd ref="1843099033"/>
    <nd ref="1843098979"/>
    <nd ref="1843098977"/>
    <tag k="addr:city" v="München"/>
    <tag k="addr:country" v="DE"/>
    <tag k="addr:housenumber" v="170"/>
    <tag k="addr:postcode" v="80339"/>
    <tag k="addr:street" v="Schwanthalerstraße"/>
    <tag k="building" v="apartments"/>
    <tag k="roof:shape" v="gabled"/>
  </way>
  <way id="173513961" version="4" timestamp="2024-02-14T20:55:48Z" changeset="147466469" uid="12164053" user="barefootstache">
    <nd ref="1843098848"/>
    <nd ref="1843098884"/>
    <nd ref="1843098886"/>
    <nd ref="1843098850"/>
    <nd ref="1843098848"/>
    <tag k="addr:housenumber" v="3"/>
    <tag k="addr:postcode" v="80339"/>
    <tag k="addr:street" v="Parkstraße"/>
    <tag k="building" v="apartments"/>
    <tag k="building:levels" v="4"/>
    <tag k="roof:levels" v="1"/>
    <tag k="roof:shape" v="hipped"/>
  </way>
  <way id="173513966" version="3" timestamp="2017-11-26T22:31:08Z" changeset="54107101" uid="78613" user="heilbron">
    <nd ref="1843098979"/>
    <nd ref="1843099033"/>
    <nd ref="1843099050"/>
    <nd ref="1843098981"/>
    <nd ref="1843098979"/>
    <tag k="addr:city" v="München"/>
    <tag k="addr:country" v="DE"/>
    <tag k="addr:housenumber" v="168"/>
    <tag k="addr:postcode" v="80339"/>
    <tag k="addr:street" v="Schwanthalerstraße"/>
    <tag k="building" v="apartments"/>
    <tag k="roof:shape" v="gabled"/>
  </way>
  <way id="173513968" version="4" timestamp="2022-12-23T11:56:36Z" changeset="130418442" uid="14742734" user="The_Nickname">
    <nd ref="1843099017"/>
    <nd ref="1843099082"/>
    <nd ref="1843099089"/>
    <nd ref="1843099018"/>
    <nd ref="1843099017"/>
    <tag k="addr:city" v="München"/>
    <tag k="addr:country" v="DE"/>
    <tag k="addr:housenumber" v="150"/>
    <tag k="addr:postcode" v="80339"/>
    <tag k="addr:street" v="Schwanthalerstraße"/>
    <tag k="building" v="apartments"/>
  </way>
  <way id="173513971" version="7" timestamp="2023-05-08T21:03:56Z" changeset="135869335" uid="2040341" user="teasu">
    <nd ref="1843098614"/>
    <nd ref="6013321102"/>
    <nd ref="1843098653"/>
    <nd ref="1843098652"/>
    <nd ref="1843098612"/>
    <nd ref="1843098614"/>
    <tag k="addr:housenumber" v="24"/>
    <tag k="addr:postcode" v="80339"/>
    <tag k="addr:street" v="Schießstättstraße"/>
    <tag k="building" v="apartments"/>
    <tag k="building:levels" v="4"/>
    <tag k="roof:shape" v="gabled"/>
    <tag k="wikidata" v="Q41183829"/>
  </way>
  <way id="173513972" version="8" timestamp="2024-06-27T13:23:42Z" changeset="153247887" uid="1717726" user="UKausch">
    <nd ref="1843098942"/>
    <nd ref="1843098943"/>
    <nd ref="1843098908"/>
    <nd ref="1843098907"/>
    <nd ref="1843098942"/>
    <tag k="addr:city" v="München"/>
    <tag k="addr:country" v="DE"/>
    <tag k="addr:housenumber" v="2"/>
    <tag k="addr:postcode" v="80339"/>
    <tag k="addr:street" v="Schießstättstraße"/>
    <tag k="building" v="apartments"/>
    <tag k="building:levels" v="3"/>
    <tag k="roof:levels" v="2"/>
    <tag k="roof:shape" v="gabled"/>
    <tag k="wikidata" v="Q41183812"/>
  </way>
  <way id="173513981" version="4" timestamp="2022-12-23T11:55:25Z" changeset="130418442" uid="14742734" user="The_Nickname">
    <nd ref="1843099058"/>
    <nd ref="1843099055"/>
    <nd ref="1843099106"/>
    <nd ref="1843099112"/>
    <nd ref="1843099058"/>
    <tag k="addr:city" v="München"/>
    <tag k="addr:country" v="DE"/>
    <tag k="addr:housenumber" v="140"/>
    <tag k="addr:postcode" v="80339"/>
    <tag k="addr:street" v="Schwanthalerstraße"/>
    <tag k="building" v="apartments"/>
  </way>
  <way id="173513983" version="4" timestamp="2015-09-22T12:13:16Z" changeset="34181937" uid="14390" user="BeKri">
    <nd ref="1843098538"/>
    <nd ref="1843098519"/>
    <nd ref="2463947058"/>
    <nd ref="2463947061"/>
    <nd ref="3754440430"/>
    <nd ref="1843098521"/>
    <nd ref="1843098539"/>
    <nd ref="1843098538"/>
    <tag k="addr:housenumber" v="17"/>
    <tag k="addr:postcode" v="80339"/>
    <tag k="addr:street" v="Gollierstraße"/>
    <tag k="building" v="yes"/>
  </way>
  <way id="173513986" version="4" timestamp="2022-12-23T11:55:26Z" changeset="130418442" uid="14742734" user="The_Nickname">
    <nd ref="1843099091"/>
    <nd ref="1843099093"/>
    <nd ref="1843099027"/>
    <nd ref="1843099023"/>
    <nd ref="1843099091"/>
    <tag k="addr:city" v="München"/>
    <tag k="addr:country" v="DE"/>
    <tag k="addr:housenumber" v="146"/>
    <tag k="addr:postcode" v="80339"/>
    <tag k="addr:street" v="Schwanthalerstraße"/>
    <tag k="building" v="apartments"/>
  </way>
  <way id="173513989" version="3" timestamp="2013-02-13T08:55:11Z" changeset="15015526" uid="1109397" user="Wall·E">
    <nd ref="1843098752"/>
    <nd ref="1843098754"/>
    <nd ref="1843098747"/>
    <nd ref="1843098746"/>
    <nd ref="1843098752"/>
    <tag k="addr:housenumber" v="15a"/>
    <tag k="addr:postcode" v="80339"/>
    <tag k="addr:street" v="Parkstraße"/>
    <tag k="building" v="yes"/>
  </way>
  <way id="173513998" version="4" timestamp="2022-12-23T11:55:25Z" changeset="130418442" uid="14742734" user="The_Nickname">
    <nd ref="1843099099"/>
    <nd ref="1843099051"/>
    <nd ref="1843099048"/>
    <nd ref="1843099097"/>
    <nd ref="1843099099"/>
    <tag k="addr:city" v="München"/>
    <tag k="addr:country" v="DE"/>
    <tag k="addr:housenumber" v="144"/>
    <tag k="addr:postcode" v="80339"/>
    <tag k="addr:street" v="Schwanthalerstraße"/>
    <tag k="building" v="apartments"/>
  </way>
  <way id="173514002" version="8" timestamp="2024-02-14T20:55:49Z" changeset="147466468" uid="12164053" user="barefootstache">
    <nd ref="1843098920"/>
    <nd ref="1843098974"/>
    <nd ref="1843098975"/>
    <nd ref="1843098923"/>
    <nd ref="1843098920"/>
    <tag k="addr:city" v="München"/>
    <tag k="addr:country" v="DE"/>
    <tag k="addr:housenumber" v="129"/>
    <tag k="addr:postcode" v="80339"/>
    <tag k="addr:street" v="Schwanthalerstraße"/>
    <tag k="building" v="dormitory"/>
    <tag k="building:levels" v="4"/>
    <tag k="name" v="Corps Alemannia"/>
    <tag k="roof:levels" v="1"/>
    <tag k="roof:shape" v="gabled"/>
    <tag k="website" v="https://www.corps-alemannia.de"/>
    <tag k="wikidata" v="Q41183870"/>
  </way>
  <way id="173514009" version="5" timestamp="2022-11-06T15:12:02Z" changeset="128559401" uid="8312062" user="Fadatag">
    <nd ref="1843099101"/>
    <nd ref="1843099095"/>
    <nd ref="1843099148"/>
    <nd ref="1843099152"/>
    <nd ref="1843099101"/>
    <tag k="addr:city" v="München"/>
    <tag k="addr:country" v="DE"/>
    <tag k="addr:housenumber" v="4"/>
    <tag k="addr:postcode" v="80339"/>
    <tag k="addr:street" v="Ligsalzstraße"/>
    <tag k="building" v="apartments"/>
    <tag k="building:levels" v="2"/>
    <tag k="roof:orientation" v="across"/>
    <tag k="roof:shape" v="gabled"/>
    <tag k="wikidata" v="Q41183715"/>
  </way>
  <way id="173514027" version="4" timestamp="2024-02-14T20:55:51Z" changeset="147466476" uid="12164053" user="barefootstache">
    <nd ref="1843099055"/>
    <nd ref="1843099051"/>
    <nd ref="1843099099"/>
    <nd ref="1843099106"/>
    <nd ref="1843099055"/>
    <tag k="addr:city" v="München"/>
    <tag k="addr:country" v="DE"/>
    <tag k="addr:housenumber" v="142"/>
    <tag k="addr:postcode" v="80339"/>
    <tag k="addr:street" v="Schwanthalerstraße"/>
    <tag k="building" v="apartments"/>
  </way>
  <way id="173514030" version="3" timestamp="2017-11-26T22:31:08Z" changeset="54107101" uid="78613" user="heilbron">
    <nd ref="1843099075"/>
    <nd ref="1843099076"/>
    <nd ref="1843099015"/>
    <nd ref="1843099014"/>
    <nd ref="1843099075"/>
    <tag k="addr:city" v="München"/>
    <tag k="addr:country" v="DE"/>
    <tag k="addr:housenumber" v="156"/>
    <tag k="addr:postcode" v="80339"/>
    <tag k="addr:street" v="Schwanthalerstraße"/>
    <tag k="building" v="apartments"/>
    <tag k="roof:shape" v="gabled"/>
  </way>
  <way id="173514031" version="6" timestamp="2020-11-27T22:30:39Z" changeset="94916186" uid="2040341" user="teasu">
    <nd ref="1843098840"/>
    <nd ref="1843098838"/>
    <nd ref="1843098832"/>
    <nd ref="1843098833"/>
    <nd ref="1843098840"/>
    <tag k="addr:housenumber" v="8"/>
    <tag k="addr:postcode" v="80339"/>
    <tag k="addr:street" v="Schießstättstraße"/>
    <tag k="building" v="apartments"/>
    <tag k="building:levels" v="3"/>
    <tag k="roof:levels" v="1"/>
    <tag k="roof:shape" v="gabled"/>
  </way>
  <way id="173514033" version="4" timestamp="2022-11-06T15:12:02Z" changeset="128559401" uid="8312062" user="Fadatag">
    <nd ref="1843099052"/>
    <nd ref="1843099095"/>
    <nd ref="1843099101"/>
    <nd ref="1843099060"/>
    <nd ref="1843099052"/>
    <tag k="addr:city" v="München"/>
    <tag k="addr:country" v="DE"/>
    <tag k="addr:housenumber" v="6"/>
    <tag k="addr:postcode" v="80339"/>
    <tag k="addr:street" v="Ligsalzstraße"/>
    <tag k="building" v="apartments"/>
    <tag k="building:levels" v="2"/>
    <tag k="roof:orientation" v="across"/>
    <tag k="roof:shape" v="gabled"/>
  </way>
  <way id="173514043" version="6" timestamp="2020-11-21T22:09:31Z" changeset="94563384" uid="43207" user="kdkeller">
    <nd ref="1843099012"/>
    <nd ref="1843099072"/>
    <nd ref="1843099075"/>
    <nd ref="1843099014"/>
    <nd ref="1843099012"/>
    <tag k="addr:city" v="München"/>
    <tag k="addr:country" v="DE"/>
    <tag k="addr:housenumber" v="158"/>
    <tag k="addr:postcode" v="80339"/>
    <tag k="addr:street" v="Schwanthalerstraße"/>
    <tag k="building" v="apartments"/>
    <tag k="building:levels" v="2"/>
    <tag k="roof:levels" v="1"/>
    <tag k="roof:shape" v="gabled"/>
    <tag k="wikidata" v="Q41183884"/>
  </way>
  <way id="173514044" version="8" timestamp="2020-11-27T22:29:08Z" changeset="94916137" uid="2040341" user="teasu">
    <nd ref="1843098763"/>
    <nd ref="1843098755"/>
    <nd ref="6066126388"/>
    <nd ref="6066126385"/>
    <nd ref="6066126389"/>
    <nd ref="6066126387"/>
    <nd ref="6066123384"/>
    <nd ref="6066126390"/>
    <nd ref="1843098757"/>
    <nd ref="1843098765"/>
    <nd ref="1843098763"/>
    <tag k="addr:housenumber" v="16"/>
    <tag k="addr:postcode" v="80339"/>
    <tag k="addr:street" v="Schießstättstraße"/>
    <tag k="building" v="apartments"/>
    <tag k="building:levels" v="2"/>
    <tag k="roof:levels" v="1"/>
    <tag k="roof:shape" v="quadruple_saltbox"/>
    <tag k="wikidata" v="Q41183819"/>
  </way>
  <way id="173514047" version="6" timestamp="2022-11-06T15:12:02Z" changeset="128559401" uid="8312062" user="Fadatag">
    <nd ref="1843099013"/>
    <nd ref="1843099011"/>
    <nd ref="8019784656"/>
    <nd ref="1843099052"/>
    <nd ref="1843099060"/>
    <nd ref="1843099013"/>
    <tag k="addr:city" v="München"/>
    <tag k="addr:country" v="DE"/>
    <tag k="addr:housenumber" v="8"/>
    <tag k="addr:postcode" v="80339"/>
    <tag k="addr:street" v="Ligsalzstraße"/>
    <tag k="building" v="apartments"/>
    <tag k="roof:orientation" v="across"/>
    <tag k="roof:shape" v="gabled"/>
  </way>
  <way id="173514048" version="10" timestamp="2024-02-14T20:55:49Z" changeset="147466468" uid="12164053" user="barefootstache">
    <nd ref="1843098975"/>
    <nd ref="1843098978"/>
    <nd ref="1843098939"/>
    <nd ref="1843098923"/>
    <nd ref="1843098975"/>
    <tag k="addr:city" v="München"/>
    <tag k="addr:country" v="DE"/>
    <tag k="addr:housenumber" v="127"/>
    <tag k="addr:postcode" v="80339"/>
    <tag k="addr:street" v="Schwanthalerstraße"/>
    <tag k="building" v="apartments"/>
    <tag k="building:levels" v="3"/>
    <tag k="roof:levels" v="1"/>
    <tag k="roof:shape" v="gabled"/>
    <tag k="wikidata" v="Q41183867"/>
  </way>
  <way id="173514049" version="4" timestamp="2020-11-21T22:09:14Z" changeset="94563384" uid="43207" user="kdkeller">
    <nd ref="1843098281"/>
    <nd ref="1843098293"/>
    <nd ref="6002005250"/>
    <nd ref="1843098296"/>
    <nd ref="1843098283"/>
    <nd ref="6015434092"/>
    <nd ref="1843098281"/>
    <tag k="addr:city" v="München"/>
    <tag k="addr:country" v="DE"/>
    <tag k="addr:housenumber" v="22"/>
    <tag k="addr:postcode" v="80339"/>
    <tag k="addr:street" v="Kazmairstraße"/>
    <tag k="building" v="yes"/>
    <tag k="wikidata" v="Q41183621"/>
  </way>
  <way id="173514056" version="5" timestamp="2018-11-16T12:11:26Z" changeset="64564326" uid="8553447" user="jimmy_conway">
    <nd ref="1843098749"/>
    <nd ref="6066126387"/>
    <nd ref="6066126389"/>
    <nd ref="1843098748"/>
    <nd ref="6066123364"/>
    <nd ref="1843098730"/>
    <nd ref="1843098732"/>
    <nd ref="1843098749"/>
    <tag k="addr:housenumber" v="18"/>
    <tag k="addr:postcode" v="80339"/>
    <tag k="addr:street" v="Schießstättstraße"/>
    <tag k="building" v="yes"/>
    <tag k="roof:shape" v="gabled"/>
  </way>
  <way id="173514060" version="7" timestamp="2024-02-07T19:42:07Z" changeset="147189971" uid="12164053" user="barefootstache">
    <nd ref="1843098790"/>
    <nd ref="1843098789"/>
    <nd ref="1843098763"/>
    <nd ref="1843098765"/>
    <nd ref="1843098790"/>
    <tag k="addr:housenumber" v="14"/>
    <tag k="addr:postcode" v="80339"/>
    <tag k="addr:street" v="Schießstättstraße"/>
    <tag k="building" v="apartments"/>
    <tag k="building:levels" v="3"/>
    <tag k="roof:levels" v="2"/>
    <tag k="roof:shape" v="gabled"/>
    <tag k="wikidata" v="Q41183816"/>
  </way>
  <way id="173514062" version="3" timestamp="2017-11-26T22:46:50Z" changeset="54107353" uid="78613" user="heilbron">
    <nd ref="1843099025"/>
    <nd ref="1843099029"/>
    <nd ref="1843098977"/>
    <nd ref="1843098976"/>
    <nd ref="1843099025"/>
    <tag k="addr:city" v="München"/>
    <tag k="addr:country" v="DE"/>
    <tag k="addr:housenumber" v="172"/>
    <tag k="addr:postcode" v="80339"/>
    <tag k="addr:street" v="Schwanthalerstraße"/>
    <tag k="building" v="apartments"/>
    <tag k="roof:orientation" v="across"/>
    <tag k="roof:shape" v="gabled"/>
  </way>
  <way id="173514068" version="6" timestamp="2024-02-07T19:42:07Z" changeset="147189971" uid="12164053" user="barefootstache">
    <nd ref="1843098908"/>
    <nd ref="1843098865"/>
    <nd ref="1843098868"/>
    <nd ref="1843098906"/>
    <nd ref="1843098907"/>
    <nd ref="1843098908"/>
    <tag k="addr:housenumber" v="4"/>
    <tag k="addr:postcode" v="80339"/>
    <tag k="addr:street" v="Schießstättstraße"/>
    <tag k="building" v="apartments"/>
    <tag k="building:colour" v="cream"/>
    <tag k="building:levels" v="4"/>
    <tag k="roof:levels" v="1"/>
    <tag k="roof:shape" v="gabled"/>
  </way>
  <way id="173514082" version="3" timestamp="2018-10-26T13:22:03Z" changeset="63900487" uid="8553447" user="jimmy_conway">
    <nd ref="6015007260"/>
    <nd ref="6015007261"/>
    <nd ref="1843098331"/>
    <nd ref="1843098317"/>
    <nd ref="1843098312"/>
    <nd ref="6015434096"/>
    <nd ref="6015434099"/>
    <nd ref="6015007260"/>
    <tag k="addr:city" v="München"/>
    <tag k="addr:country" v="DE"/>
    <tag k="addr:housenumber" v="18"/>
    <tag k="addr:postcode" v="80339"/>
    <tag k="addr:street" v="Kazmairstraße"/>
    <tag k="building" v="apartments"/>
  </way>
  <way id="173514089" version="4" timestamp="2024-02-14T20:55:48Z" changeset="147466469" uid="12164053" user="barefootstache">
    <nd ref="1843098916"/>
    <nd ref="1843098970"/>
    <nd ref="1843098974"/>
    <nd ref="1843098920"/>
    <nd ref="1843098918"/>
    <nd ref="1843098916"/>
    <tag k="addr:city" v="München"/>
    <tag k="addr:country" v="DE"/>
    <tag k="addr:housenumber" v="131"/>
    <tag k="addr:postcode" v="80339"/>
    <tag k="addr:street" v="Schwanthalerstraße"/>
    <tag k="building" v="apartments"/>
    <tag k="building:levels" v="4"/>
    <tag k="roof:levels" v="1"/>
    <tag k="roof:shape" v="gabled"/>
  </way>
  <way id="173514103" version="5" timestamp="2020-11-21T22:09:30Z" changeset="94563384" uid="43207" user="kdkeller">
    <nd ref="1843099015"/>
    <nd ref="1843099076"/>
    <nd ref="1843099077"/>
    <nd ref="1843099145"/>
    <nd ref="1843099146"/>
    <nd ref="1843099016"/>
    <nd ref="1843099015"/>
    <tag k="addr:city" v="München"/>
    <tag k="addr:country" v="DE"/>
    <tag k="addr:housenumber" v="154"/>
    <tag k="addr:postcode" v="80339"/>
    <tag k="addr:street" v="Schwanthalerstraße"/>
    <tag k="building" v="apartments"/>
    <tag k="building:levels" v="2"/>
    <tag k="roof:levels" v="1"/>
    <tag k="roof:shape" v="gabled"/>
    <tag k="wikidata" v="Q41183881"/>
  </way>
  <way id="173514106" version="7" timestamp="2020-11-27T22:26:32Z" changeset="94916137" uid="2040341" user="teasu">
    <nd ref="6002375401"/>
    <nd ref="1843098552"/>
    <nd ref="1843098587"/>
    <nd ref="1843098585"/>
    <nd ref="1843098614"/>
    <nd ref="1843098612"/>
    <nd ref="6002375402"/>
    <nd ref="6002375401"/>
    <tag k="addr:housenumber" v="10"/>
    <tag k="addr:postcode" v="80339"/>
    <tag k="addr:street" v="Gollierstraße"/>
    <tag k="building" v="apartments"/>
    <tag k="building:levels" v="4"/>
    <tag k="roof:levels" v="1"/>
    <tag k="roof:shape" v="mansard"/>
    <tag k="wikidata" v="Q41183493"/>
  </way>
  <way id="173514107" version="8" timestamp="2024-02-07T19:42:07Z" changeset="147189971" uid="12164053" user="barefootstache">
    <nd ref="1843098829"/>
    <nd ref="6066123380"/>
    <nd ref="1843098789"/>
    <nd ref="1843098790"/>
    <nd ref="1843098791"/>
    <nd ref="6066123371"/>
    <nd ref="6066123379"/>
    <nd ref="1843098831"/>
    <nd ref="1843098830"/>
    <nd ref="1843098829"/>
    <tag k="addr:housenumber" v="12"/>
    <tag k="addr:postcode" v="80339"/>
    <tag k="addr:street" v="Schießstättstraße"/>
    <tag k="building" v="apartments"/>
    <tag k="building:levels" v="5"/>
    <tag k="roof:levels" v="1"/>
    <tag k="roof:shape" v="gabled"/>
  </way>
  <way id="173514108" version="5" timestamp="2024-11-25T14:32:04Z" changeset="159576193" uid="35814" user="bingo">
    <nd ref="1843098973"/>
    <nd ref="1843099065"/>
    <nd ref="1843099070"/>
    <nd ref="1843099019"/>
    <nd ref="1843099025"/>
    <nd ref="1843098976"/>
    <nd ref="1843098973"/>
    <tag k="addr:city" v="München"/>
    <tag k="addr:country" v="DE"/>
    <tag k="addr:housenumber" v="3a"/>
    <tag k="addr:postcode" v="80339"/>
    <tag k="addr:street" v="Ligsalzstraße"/>
    <tag k="addr:suburb" v="Schwanthalerhöhe"/>
    <tag k="building" v="apartments"/>
  </way>
  <way id="173514111" version="9" timestamp="2024-02-07T19:42:06Z" changeset="147189971" uid="12164053" user="barefootstache">
    <nd ref="1843098652"/>
    <nd ref="1843098653"/>
    <nd ref="1843098679"/>
    <nd ref="1843098680"/>
    <nd ref="1843098692"/>
    <nd ref="1843098688"/>
    <nd ref="6002375414"/>
    <nd ref="1843098652"/>
    <tag k="addr:housenumber" v="22"/>
    <tag k="addr:postcode" v="80339"/>
    <tag k="addr:street" v="Schießstättstraße"/>
    <tag k="building" v="apartments"/>
    <tag k="building:colour" v="cream"/>
    <tag k="building:levels" v="3"/>
    <tag k="roof:levels" v="1"/>
    <tag k="roof:shape" v="gambrel"/>
    <tag k="wikidata" v="Q41183825"/>
  </way>
  <way id="173514113" version="5" timestamp="2024-02-14T20:55:49Z" changeset="147466468" uid="12164053" user="barefootstache">
    <nd ref="1843098939"/>
    <nd ref="1843098978"/>
    <nd ref="1843098980"/>
    <nd ref="1843098941"/>
    <nd ref="1843098938"/>
    <nd ref="1843098921"/>
    <nd ref="1843098939"/>
    <tag k="addr:city" v="München"/>
    <tag k="addr:country" v="DE"/>
    <tag k="addr:housenumber" v="125"/>
    <tag k="addr:postcode" v="80339"/>
    <tag k="addr:street" v="Schwanthalerstraße"/>
    <tag k="building" v="apartments"/>
    <tag k="building:levels" v="3"/>
    <tag k="roof:levels" v="1"/>
    <tag k="roof:shape" v="gabled"/>
  </way>
  <way id="173514114" version="2" timestamp="2013-09-19T20:34:06Z" changeset="17929802" uid="8703" user="rolandg">
    <nd ref="1843099065"/>
    <nd ref="1843099128"/>
    <nd ref="1843099130"/>
    <nd ref="1843099132"/>
    <nd ref="1843099071"/>
    <nd ref="1843099070"/>
    <nd ref="1843099065"/>
    <tag k="addr:city" v="München"/>
    <tag k="addr:country" v="DE"/>
    <tag k="addr:housenumber" v="3"/>
    <tag k="addr:postcode" v="80339"/>
    <tag k="addr:street" v="Ligsalzstraße"/>
    <tag k="building" v="apartments"/>
  </way>
  <way id="173514119" version="5" timestamp="2022-03-18T13:22:06Z" changeset="118630992" uid="4376164" user="redweizn">
    <nd ref="1843098598"/>
    <nd ref="1843098594"/>
    <nd ref="1843098616"/>
    <nd ref="1843098615"/>
    <nd ref="1843098554"/>
    <nd ref="1843098557"/>
    <nd ref="1843098598"/>
    <tag k="addr:housenumber" v="12"/>
    <tag k="addr:postcode" v="80339"/>
    <tag k="addr:street" v="Gollierstraße"/>
    <tag k="building" v="apartments"/>
    <tag k="building:levels" v="4"/>
    <tag k="roof:levels" v="2"/>
    <tag k="roof:shape" v="hipped"/>
  </way>
  <way id="173514120" version="5" timestamp="2022-12-23T11:56:36Z" changeset="130418442" uid="14742734" user="The_Nickname">
    <nd ref="1843099146"/>
    <nd ref="1843099150"/>
    <nd ref="1843099078"/>
    <nd ref="1843099082"/>
    <nd ref="1843099017"/>
    <nd ref="1843099016"/>
    <nd ref="1843099146"/>
    <tag k="addr:city" v="München"/>
    <tag k="addr:country" v="DE"/>
    <tag k="addr:housenumber" v="152"/>
    <tag k="addr:postcode" v="80339"/>
    <tag k="addr:street" v="Schwanthalerstraße"/>
    <tag k="building" v="apartments"/>
    <tag k="wikidata" v="Q41183878"/>
  </way>
  <way id="173514131" version="6" timestamp="2022-03-18T13:22:27Z" changeset="118630992" uid="4376164" user="redweizn">
    <nd ref="1843098620"/>
    <nd ref="1843098618"/>
    <nd ref="1843098610"/>
    <nd ref="1843098598"/>
    <nd ref="1843098557"/>
    <nd ref="1843098559"/>
    <nd ref="1843098620"/>
    <tag k="addr:housenumber" v="14"/>
    <tag k="addr:postcode" v="80339"/>
    <tag k="addr:street" v="Gollierstraße"/>
    <tag k="building" v="apartments"/>
    <tag k="building:levels" v="4"/>
    <tag k="roof:levels" v="2"/>
    <tag k="roof:shape" v="hipped"/>
    <tag k="wikidata" v="Q41183496"/>
  </way>
  <way id="173514150" version="6" timestamp="2018-09-05T20:35:43Z" changeset="62323965" uid="2040341" user="teasu">
    <nd ref="1843098865"/>
    <nd ref="1843098838"/>
    <nd ref="1843098840"/>
    <nd ref="1843098842"/>
    <nd ref="1843098863"/>
    <nd ref="1843098862"/>
    <nd ref="1843098868"/>
    <nd ref="1843098865"/>
    <tag k="addr:housenumber" v="6"/>
    <tag k="addr:postcode" v="80339"/>
    <tag k="addr:street" v="Schießstättstraße"/>
    <tag k="building" v="apartments"/>
    <tag k="building:levels" v="5"/>
    <tag k="roof:levels" v="1"/>
    <tag k="roof:shape" v="gabled"/>
  </way>
  <way id="173514152" version="6" timestamp="2020-10-19T00:09:28Z" changeset="92672335" uid="14390" user="BeKri">
    <nd ref="1843099148"/>
    <nd ref="8019784657"/>
    <nd ref="1843099159"/>
    <nd ref="1843099157"/>
    <nd ref="1843099215"/>
    <nd ref="1843099223"/>
    <nd ref="8019784664"/>
    <nd ref="2441774103"/>
    <nd ref="1843099152"/>
    <nd ref="1843099148"/>
    <tag k="addr:housenumber" v="2"/>
    <tag k="addr:street" v="Ligsalzstraße"/>
    <tag k="building" v="apartments"/>
    <tag k="building:levels" v="4"/>
  </way>
  <way id="173514154" version="4" timestamp="2023-05-08T21:03:56Z" changeset="135869335" uid="2040341" user="teasu">
    <nd ref="1843098611"/>
    <nd ref="1843098613"/>
    <nd ref="1843098591"/>
    <nd ref="6003087822"/>
    <nd ref="6003087823"/>
    <nd ref="1843098589"/>
    <nd ref="1843098561"/>
    <nd ref="1843098563"/>
    <nd ref="1843098579"/>
    <nd ref="1843098611"/>
    <tag k="addr:housenumber" v="14a"/>
    <tag k="addr:postcode" v="80339"/>
    <tag k="addr:street" v="Gollierstraße"/>
    <tag k="building" v="yes"/>
    <tag k="wikidata" v="Q41183500"/>
  </way>
  <way id="173514160" version="4" timestamp="2020-11-25T18:04:16Z" changeset="94790473" uid="2040341" user="teasu">
    <nd ref="1843099049"/>
    <nd ref="1843099005"/>
    <nd ref="1843099007"/>
    <nd ref="1843098946"/>
    <nd ref="2469399685"/>
    <nd ref="1843098940"/>
    <nd ref="1843098950"/>
    <nd ref="1843099054"/>
    <nd ref="1843099049"/>
    <tag k="addr:city" v="München"/>
    <tag k="addr:country" v="DE"/>
    <tag k="addr:housenumber" v="184"/>
    <tag k="addr:postcode" v="80339"/>
    <tag k="addr:street" v="Schwanthalerstraße"/>
    <tag k="building" v="apartments"/>
    <tag k="building:levels" v="3"/>
    <tag k="roof:levels" v="1"/>
    <tag k="wikidata" v="Q41183894"/>
  </way>
  <way id="173514164" version="6" timestamp="2022-06-07T05:47:05Z" changeset="122051941" uid="7224420" user="lbayerlein">
    <nd ref="1843098803"/>
    <nd ref="9800672461"/>
    <nd ref="9800672460"/>
    <nd ref="1843098825"/>
    <nd ref="1843098826"/>
    <nd ref="1843098811"/>
    <nd ref="1843098809"/>
    <nd ref="1843098807"/>
    <nd ref="1843098805"/>
    <nd ref="1843098803"/>
    <tag k="addr:city" v="München"/>
    <tag k="addr:housenumber" v="9"/>
    <tag k="addr:postcode" v="80339"/>
    <tag k="addr:street" v="Parkstraße"/>
    <tag k="building" v="apartments"/>
  </way>
  <way id="173514187" version="5" timestamp="2024-11-25T14:32:04Z" changeset="159576193" uid="35814" user="bingo">
    <nd ref="1843098506"/>
    <nd ref="1843098534"/>
    <nd ref="12373760560"/>
    <nd ref="1843098532"/>
    <nd ref="1843098515"/>
    <nd ref="1843098499"/>
    <nd ref="1843098504"/>
    <nd ref="3754440428"/>
    <nd ref="3754440427"/>
    <nd ref="1843098465"/>
    <nd ref="1843098471"/>
    <nd ref="1843098506"/>
    <tag k="addr:city" v="München"/>
    <tag k="addr:country" v="DE"/>
    <tag k="addr:housenumber" v="13"/>
    <tag k="addr:postcode" v="80339"/>
    <tag k="addr:street" v="Gollierstraße"/>
    <tag k="addr:suburb" v="Schwanthalerhöhe"/>
    <tag k="building" v="yes"/>
    <tag k="building:levels" v="4"/>
    <tag k="roof:levels" v="1"/>
    <tag k="roof:shape" v="mansard"/>
  </way>
  <way id="173514198" version="5" timestamp="2024-02-14T20:55:50Z" changeset="147466469" uid="12164053" user="barefootstache">
    <nd ref="1843098941"/>
    <nd ref="1843098980"/>
    <nd ref="1843098982"/>
    <nd ref="1843098944"/>
    <nd ref="1843098941"/>
    <tag k="addr:city" v="München"/>
    <tag k="addr:country" v="DE"/>
    <tag k="addr:housenumber" v="123"/>
    <tag k="addr:postcode" v="80339"/>
    <tag k="addr:street" v="Schwanthalerstraße"/>
    <tag k="building" v="apartments"/>
    <tag k="building:levels" v="4"/>
    <tag k="roof:levels" v="1"/>
    <tag k="roof:shape" v="gabled"/>
  </way>
  <way id="173514201" version="4" timestamp="2017-11-26T22:46:50Z" changeset="54107353" uid="78613" user="heilbron">
    <nd ref="1843099128"/>
    <nd ref="1843099228"/>
    <nd ref="1843099230"/>
    <nd ref="1843099169"/>
    <nd ref="1843099167"/>
    <nd ref="1843099130"/>
    <nd ref="1843099128"/>
    <tag k="addr:city" v="München"/>
    <tag k="addr:country" v="DE"/>
    <tag k="addr:housenumber" v="79"/>
    <tag k="addr:postcode" v="80339"/>
    <tag k="addr:street" v="Westendstraße"/>
    <tag k="building" v="apartments"/>
    <tag k="building:levels" v="5"/>
  </way>
  <way id="173514207" version="9" timestamp="2024-06-27T13:23:42Z" changeset="153247887" uid="1717726" user="UKausch">
    <nd ref="1843098944"/>
    <nd ref="1843098982"/>
    <nd ref="1843098986"/>
    <nd ref="1843098948"/>
    <nd ref="1843098944"/>
    <tag k="addr:city" v="München"/>
    <tag k="addr:country" v="DE"/>
    <tag k="addr:housenumber" v="121"/>
    <tag k="addr:postcode" v="80339"/>
    <tag k="addr:street" v="Schwanthalerstraße"/>
    <tag k="building" v="yes"/>
    <tag k="contact:website" v="https://www.westend-hotel.de/"/>
    <tag k="internet_access" v="wlan"/>
    <tag k="name" v="Westend Hotel"/>
    <tag k="roof:shape" v="gabled"/>
    <tag k="tourism" v="hotel"/>
    <tag k="wheelchair" v="no"/>
  </way>
  <way id="188759377" version="5" timestamp="2024-11-25T14:32:04Z" changeset="159576193" uid="35814" user="bingo">
    <nd ref="1744687947"/>
    <nd ref="1993812524"/>
    <nd ref="1993812517"/>
    <nd ref="1993812509"/>
    <nd ref="1993812510"/>
    <nd ref="1993812500"/>
    <nd ref="1744687945"/>
    <nd ref="1744687947"/>
    <tag k="addr:city" v="München"/>
    <tag k="addr:country" v="DE"/>
    <tag k="addr:housenumber" v="16"/>
    <tag k="addr:postcode" v="80339"/>
    <tag k="addr:street" v="Gollierstraße"/>
    <tag k="addr:suburb" v="Schwanthalerhöhe"/>
    <tag k="building" v="apartments"/>
    <tag k="heritage" v="4"/>
    <tag k="heritage:operator" v="BLfD"/>
    <tag k="image" v="https://commons.wikimedia.org/wiki/File:Gollierstr._16_Muenchen-1.jpg"/>
    <tag k="ref:BLfD" v="D-1-62-000-2231"/>
    <tag k="wikidata" v="Q41183503"/>
  </way>
  <way id="218921992" version="3" timestamp="2023-05-08T21:03:56Z" changeset="135869335" uid="2040341" user="teasu">
    <nd ref="2281221381"/>
    <nd ref="1744082906"/>
    <nd ref="1744082914"/>
    <nd ref="1744082915"/>
    <nd ref="6003085765"/>
    <nd ref="6003085766"/>
    <nd ref="1744082918"/>
    <nd ref="2281221379"/>
    <nd ref="2281221381"/>
    <tag k="addr:city" v="München"/>
    <tag k="addr:country" v="DE"/>
    <tag k="addr:housenumber" v="29"/>
    <tag k="addr:street" v="Gollierstraße"/>
    <tag k="building" v="apartments"/>
    <tag k="wikidata" v="Q41183520"/>
  </way>
  <way id="222340900" version="9" timestamp="2024-08-27T19:35:51Z" changeset="155848709" uid="137242" user="Rainero">
    <nd ref="1744101056"/>
    <nd ref="1744101043"/>
    <nd ref="1744101054"/>
    <nd ref="1744101038"/>
    <nd ref="2313141492"/>
    <nd ref="2313141493"/>
    <nd ref="2458559668"/>
    <nd ref="1744101056"/>
    <tag k="addr:city" v="München"/>
    <tag k="addr:country" v="DE"/>
    <tag k="addr:housenumber" v="32"/>
    <tag k="addr:postcode" v="80339"/>
    <tag k="addr:street" v="Ligsalzstraße"/>
    <tag k="building" v="apartments"/>
    <tag k="building:levels" v="4"/>
    <tag k="building:material" v="plaster"/>
    <tag k="roof:colour" v="#5C585F"/>
    <tag k="roof:levels" v="1"/>
    <tag k="roof:material" v="metal"/>
    <tag k="roof:shape" v="mansard"/>
    <tag k="wikidata" v="Q41183737"/>
  </way>
  <way id="236327295" version="1" timestamp="2013-09-02T22:04:06Z" changeset="17643632" uid="8703" user="rolandg">
    <nd ref="2443643204"/>
    <nd ref="2443643178"/>
    <nd ref="1131418029"/>
    <nd ref="1131418035"/>
    <nd ref="1131417940"/>
    <nd ref="2443643204"/>
    <tag k="addr:city" v="München"/>
    <tag k="addr:housenumber" v="21"/>
    <tag k="addr:postcode" v="80339"/>
    <tag k="addr:street" v="Tulbeckstraße"/>
    <tag k="building" v="yes"/>
    <tag k="building:levels" v="5"/>
  </way>
  <way id="236327297" version="2" timestamp="2014-09-02T13:37:21Z" changeset="25181325" uid="1260280" user="jacobbraeutigam">
    <nd ref="2443643299"/>
    <nd ref="1131417939"/>
    <nd ref="2443643076"/>
    <nd ref="1131418022"/>
    <nd ref="1131418256"/>
    <nd ref="1131417995"/>
    <nd ref="1131418267"/>
    <nd ref="2443643171"/>
    <nd ref="2443643299"/>
    <tag k="addr:city" v="München"/>
    <tag k="addr:country" v="DE"/>
    <tag k="addr:housenumber" v="23"/>
    <tag k="addr:postcode" v="80339"/>
    <tag k="addr:street" v="Tulbeckstraße"/>
    <tag k="building" v="residential"/>
    <tag k="building:levels" v="5"/>
  </way>
  <way id="236327299" version="2" timestamp="2014-09-02T13:37:20Z" changeset="25181325" uid="1260280" user="jacobbraeutigam">
    <nd ref="1131418131"/>
    <nd ref="2443643209"/>
    <nd ref="1131418075"/>
    <nd ref="2443643299"/>
    <nd ref="2443643171"/>
    <nd ref="1131418162"/>
    <nd ref="1131417937"/>
    <nd ref="1131418131"/>
    <tag k="addr:city" v="München"/>
    <tag k="addr:country" v="DE"/>
    <tag k="addr:housenumber" v="23"/>
    <tag k="addr:postcode" v="80339"/>
    <tag k="addr:street" v="Tulbeckstraße"/>
    <tag k="building" v="residential"/>
    <tag k="building:levels" v="5"/>
  </way>
  <way id="236327303" version="2" timestamp="2017-06-09T14:39:57Z" changeset="49399403" uid="2040341" user="teasu">
    <nd ref="2443643182"/>
    <nd ref="1131418181"/>
    <nd ref="2443643117"/>
    <nd ref="1131417867"/>
    <nd ref="1131418176"/>
    <nd ref="1131417955"/>
    <nd ref="2443643101"/>
    <nd ref="2443643182"/>
    <tag k="addr:city" v="München"/>
    <tag k="addr:country" v="DE"/>
    <tag k="addr:housenumber" v="36"/>
    <tag k="addr:postcode" v="80339"/>
    <tag k="addr:street" v="Gollierstraße"/>
    <tag k="building" v="yes"/>
  </way>
  <way id="238218426" version="6" timestamp="2020-11-21T22:09:21Z" changeset="94563384" uid="43207" user="kdkeller">
    <nd ref="2460659245"/>
    <nd ref="1744343836"/>
    <nd ref="2460659237"/>
    <nd ref="1744343787"/>
    <nd ref="2460659240"/>
    <nd ref="2460659245"/>
    <tag k="addr:city" v="München"/>
    <tag k="addr:country" v="DE"/>
    <tag k="addr:housenumber" v="36"/>
    <tag k="addr:postcode" v="80339"/>
    <tag k="addr:street" v="Ligsalzstraße"/>
    <tag k="building" v="apartments"/>
    <tag k="building:levels" v="4"/>
    <tag k="building:material" v="plaster"/>
    <tag k="roof:colour" v="#736e75"/>
    <tag k="roof:levels" v="1"/>
    <tag k="roof:material" v="metal"/>
    <tag k="roof:shape" v="mansard"/>
    <tag k="wikidata" v="Q41183746"/>
  </way>
  <way id="238220614" version="4" timestamp="2024-11-25T14:32:04Z" changeset="159576193" uid="35814" user="bingo">
    <nd ref="1131417929"/>
    <nd ref="1131418186"/>
    <nd ref="1131418037"/>
    <nd ref="1131418258"/>
    <nd ref="1131418145"/>
    <nd ref="2460684939"/>
    <nd ref="2460684943"/>
    <nd ref="1131417967"/>
    <nd ref="12373760559"/>
    <nd ref="1131418054"/>
    <nd ref="1131417929"/>
    <tag k="addr:city" v="München"/>
    <tag k="addr:country" v="DE"/>
    <tag k="addr:housenumber" v="13"/>
    <tag k="addr:postcode" v="80339"/>
    <tag k="addr:street" v="Tulbeckstraße"/>
    <tag k="addr:suburb" v="Schwanthalerhöhe"/>
    <tag k="building" v="residential"/>
    <tag k="building:levels" v="4"/>
    <tag k="roof:levels" v="1"/>
    <tag k="roof:shape" v="gabled"/>
  </way>
  <way id="238220617" version="6" timestamp="2024-11-25T14:32:04Z" changeset="159576193" uid="35814" user="bingo">
    <nd ref="2460684939"/>
    <nd ref="12373760561"/>
    <nd ref="1131418026"/>
    <nd ref="1131418222"/>
    <nd ref="2460684943"/>
    <nd ref="2460684939"/>
    <tag k="addr:city" v="München"/>
    <tag k="addr:country" v="DE"/>
    <tag k="addr:housenumber" v="24"/>
    <tag k="addr:postcode" v="80339"/>
    <tag k="addr:street" v="Ligsalzstraße"/>
    <tag k="addr:suburb" v="Schwanthalerhöhe"/>
    <tag k="building" v="apartments"/>
    <tag k="building:levels" v="4"/>
    <tag k="heritage" v="4"/>
    <tag k="heritage:operator" v="BLfD"/>
    <tag k="image" v="https://commons.wikimedia.org/wiki/File:Ligsalzstr._24_Muenchen-1.jpg"/>
    <tag k="ref:BLfD" v="D-1-62-000-3925"/>
    <tag k="roof:levels" v="1"/>
    <tag k="wikidata" v="Q41183722"/>
  </way>
  <way id="238226180" version="1" timestamp="2013-09-16T18:41:21Z" changeset="17872516" uid="8703" user="rolandg">
    <nd ref="2460723973"/>
    <nd ref="2460723971"/>
    <nd ref="1154325326"/>
    <nd ref="1154325320"/>
    <nd ref="2460723973"/>
    <tag k="addr:city" v="München"/>
    <tag k="addr:country" v="DE"/>
    <tag k="addr:housenumber" v="18"/>
    <tag k="addr:postcode" v="80339"/>
    <tag k="addr:street" v="Ligsalzstraße"/>
    <tag k="building" v="apartments"/>
  </way>
  <way id="238231480" version="4" timestamp="2022-03-18T13:20:41Z" changeset="118631040" uid="4376164" user="redweizn">
    <nd ref="2460774215"/>
    <nd ref="2460774219"/>
    <nd ref="1410296861"/>
    <nd ref="1410296852"/>
    <nd ref="2460774210"/>
    <nd ref="2460774208"/>
    <nd ref="2460774215"/>
    <tag k="addr:city" v="München"/>
    <tag k="addr:country" v="DE"/>
    <tag k="addr:housenumber" v="5"/>
    <tag k="addr:postcode" v="80339"/>
    <tag k="addr:street" v="Gollierstraße"/>
    <tag k="building" v="apartments"/>
    <tag k="building:levels" v="6"/>
    <tag k="roof:levels" v="0"/>
  </way>
  <way id="238543754" version="5" timestamp="2019-02-17T14:14:14Z" changeset="67280567" uid="3251052" user="bronko42">
    <nd ref="1744687927"/>
    <nd ref="1744687931"/>
    <nd ref="1744687928"/>
    <nd ref="1744687929"/>
    <nd ref="1744687915"/>
    <nd ref="2464451959"/>
    <nd ref="2463676091"/>
    <nd ref="1744687927"/>
    <tag k="addr:housenumber" v="24"/>
    <tag k="addr:postcode" v="80339"/>
    <tag k="addr:street" v="Gollierstraße"/>
    <tag k="building" v="apartments"/>
    <tag k="building:levels" v="5"/>
    <tag k="roof:levels" v="1"/>
    <tag k="roof:shape" v="mansard"/>
  </way>
  <way id="238543755" version="6" timestamp="2023-05-08T21:03:56Z" changeset="135869335" uid="2040341" user="teasu">
    <nd ref="2463676088"/>
    <nd ref="1410296860"/>
    <nd ref="1410296849"/>
    <nd ref="1410296848"/>
    <nd ref="1410296851"/>
    <nd ref="2463676093"/>
    <nd ref="2463676088"/>
    <tag k="addr:city" v="München"/>
    <tag k="addr:country" v="DE"/>
    <tag k="addr:housenumber" v="3"/>
    <tag k="addr:postcode" v="80339"/>
    <tag k="addr:street" v="Gollierstraße"/>
    <tag k="building" v="hotel"/>
    <tag k="building:levels" v="4"/>
    <tag k="roof:levels" v="1"/>
    <tag k="roof:shape" v="quadruple_saltbox"/>
    <tag k="wikidata" v="Q41183491"/>
  </way>
  <way id="238573558" version="2" timestamp="2015-03-07T22:36:00Z" changeset="29318768" uid="59819" user="Fuss-im-Ohr">
    <nd ref="2463945688"/>
    <nd ref="2463945690"/>
    <nd ref="2463945691"/>
    <nd ref="1131417900"/>
    <nd ref="1131418098"/>
    <nd ref="2463945689"/>
    <nd ref="2463945688"/>
    <tag k="addr:city" v="München"/>
    <tag k="addr:country" v="DE"/>
    <tag k="addr:housenumber" v="32"/>
    <tag k="addr:postcode" v="80339"/>
    <tag k="addr:street" v="Gollierstraße"/>
    <tag k="building" v="yes"/>
  </way>
  <way id="238573737" version="3" timestamp="2018-10-26T09:08:22Z" changeset="63893264" uid="8553447" user="jimmy_conway">
    <nd ref="1540696644"/>
    <nd ref="1540696690"/>
    <nd ref="2463947057"/>
    <nd ref="1540696695"/>
    <nd ref="6015008409"/>
    <nd ref="1540696677"/>
    <nd ref="1540696665"/>
    <nd ref="1540696659"/>
    <nd ref="1540696662"/>
    <nd ref="6015008402"/>
    <nd ref="1540696660"/>
    <nd ref="1540696671"/>
    <nd ref="1540696644"/>
    <tag k="addr:city" v="München"/>
    <tag k="addr:country" v="DE"/>
    <tag k="addr:housenumber" v="39"/>
    <tag k="addr:postcode" v="80339"/>
    <tag k="addr:street" v="Gollierstraße"/>
    <tag k="building" v="apartments"/>
  </way>
  <way id="238573738" version="2" timestamp="2013-09-23T22:38:59Z" changeset="18000476" uid="8703" user="rolandg">
    <nd ref="1540696695"/>
    <nd ref="2463947057"/>
    <nd ref="1540696664"/>
    <nd ref="1540696691"/>
    <nd ref="1540696648"/>
    <nd ref="1540696692"/>
    <nd ref="1540696695"/>
    <tag k="addr:city" v="München"/>
    <tag k="addr:country" v="DE"/>
    <tag k="addr:housenumber" v="37"/>
    <tag k="addr:postcode" v="80339"/>
    <tag k="addr:street" v="Gollierstraße"/>
    <tag k="building" v="apartments"/>
  </way>
  <way id="238644579" version="3" timestamp="2017-05-27T22:19:36Z" changeset="49034359" uid="2007135" user="Brainlessnick">
    <nd ref="2464477462"/>
    <nd ref="1131428337"/>
    <nd ref="1131428392"/>
    <nd ref="1131428379"/>
    <nd ref="1131428381"/>
    <nd ref="1131428366"/>
    <nd ref="1131428369"/>
    <nd ref="2464477459"/>
    <nd ref="2464477462"/>
    <tag k="addr:city" v="München"/>
    <tag k="addr:country" v="DE"/>
    <tag k="addr:housenumber" v="20"/>
    <tag k="addr:postcode" v="80339"/>
    <tag k="addr:street" v="Ligsalzstraße"/>
    <tag k="building" v="apartments"/>
    <tag k="building:levels" v="4"/>
    <tag k="roof:levels" v="1"/>
  </way>
  <way id="238644580" version="4" timestamp="2020-10-19T00:09:28Z" changeset="92672335" uid="14390" user="BeKri">
    <nd ref="2464477459"/>
    <nd ref="1131428330"/>
    <nd ref="2464477456"/>
    <nd ref="2464477465"/>
    <nd ref="1131428332"/>
    <nd ref="1131428346"/>
    <nd ref="2464477462"/>
    <nd ref="2464477459"/>
    <tag k="addr:city" v="München"/>
    <tag k="addr:country" v="DE"/>
    <tag k="addr:housenumber" v="22"/>
    <tag k="addr:postcode" v="80339"/>
    <tag k="addr:street" v="Ligsalzstraße"/>
    <tag k="building" v="apartments"/>
    <tag k="building:levels" v="4"/>
    <tag k="roof:levels" v="1"/>
  </way>
  <way id="239134577" version="2" timestamp="2017-11-26T22:48:51Z" changeset="54107392" uid="78613" user="heilbron">
    <nd ref="2469405201"/>
    <nd ref="1120318067"/>
    <nd ref="1120317938"/>
    <nd ref="2469405202"/>
    <nd ref="2469405201"/>
    <tag k="addr:city" v="München"/>
    <tag k="addr:country" v="DE"/>
    <tag k="addr:housenumber" v="143"/>
    <tag k="addr:postcode" v="80339"/>
    <tag k="addr:street" v="Schwanthalerstraße"/>
    <tag k="building" v="apartments"/>
    <tag k="roof:shape" v="gabled"/>
  </way>
  <way id="292767090" version="9" timestamp="2024-11-22T11:37:20Z" changeset="159455006" uid="11758604" user="map per">
    <nd ref="277381"/>
    <nd ref="656235766"/>
    <nd ref="295209"/>
    <tag k="class:bicycle" v="-1"/>
    <tag k="cycleway:both" v="lane"/>
    <tag k="cycleway:both:lane" v="exclusive"/>
    <tag k="highway" v="secondary"/>
    <tag k="lanes" v="4"/>
    <tag k="lit" v="yes"/>
    <tag k="maxspeed" v="50"/>
    <tag k="name" v="Schwanthalerstraße"/>
    <tag k="name:etymology:wikidata" v="Q448426"/>
    <tag k="sidewalk" v="separate"/>
    <tag k="smoothness" v="excellent"/>
    <tag k="surface" v="asphalt"/>
  </way>
  <way id="292944716" version="9" timestamp="2025-04-27T20:56:41Z" changeset="165523611" uid="38546" user="wikimax">
    <nd ref="1049054371"/>
    <nd ref="3498172735"/>
    <nd ref="3498172734"/>
    <nd ref="12793425836"/>
    <nd ref="267522634"/>
    <tag k="bicycle" v="use_sidepath"/>
    <tag k="foot" v="use_sidepath"/>
    <tag k="highway" v="secondary"/>
    <tag k="lanes" v="2"/>
    <tag k="lit" v="yes"/>
    <tag k="maxspeed" v="50"/>
    <tag k="name" v="Martin-Greif-Straße"/>
    <tag k="oneway" v="yes"/>
    <tag k="parking:both" v="no"/>
    <tag k="sidewalk:right" v="separate"/>
    <tag k="surface" v="asphalt"/>
    <tag k="tmc" v="DE:36029/35429"/>
  </way>
  <way id="292944723" version="7" timestamp="2023-11-15T19:09:25Z" changeset="144065108" uid="536583" user="Strubbl">
    <nd ref="1537519383"/>
    <nd ref="1955407"/>
    <tag k="bicycle" v="use_sidepath"/>
    <tag k="check_date:smoothness" v="2023-01-02"/>
    <tag k="highway" v="secondary"/>
    <tag k="lanes" v="2"/>
    <tag k="lit" v="yes"/>
    <tag k="maxspeed" v="50"/>
    <tag k="name" v="Theresienhöhe"/>
    <tag k="name:etymology:wikidata" v="Q233198"/>
    <tag k="oneway" v="yes"/>
    <tag k="smoothness" v="excellent"/>
    <tag k="surface" v="asphalt"/>
    <tag k="tmc" v="DE:35428"/>
  </way>
  <way id="300081443" version="12" timestamp="2025-05-01T15:29:22Z" changeset="165681711" uid="38546" user="wikimax">
    <nd ref="295189"/>
    <nd ref="1437821461"/>
    <nd ref="5248779787"/>
    <nd ref="26044352"/>
    <nd ref="3495059363"/>
    <tag k="bicycle" v="use_sidepath"/>
    <tag k="foot" v="use_sidepath"/>
    <tag k="highway" v="secondary"/>
    <tag k="lanes" v="2"/>
    <tag k="lit" v="yes"/>
    <tag k="maxspeed" v="50"/>
    <tag k="name" v="Landsberger Straße"/>
    <tag k="old_ref" v="B 2;B 12"/>
    <tag k="oneway" v="yes"/>
    <tag k="sidewalk:left" v="no"/>
    <tag k="sidewalk:right" v="separate"/>
    <tag k="smoothness" v="excellent"/>
    <tag k="surface" v="asphalt"/>
    <tag k="tmc" v="DE:35387/46560"/>
  </way>
  <way id="306558494" version="8" timestamp="2024-12-17T17:25:46Z" changeset="160312269" uid="8353937" user="Helge Kreutzmannn">
    <nd ref="3115133873"/>
    <nd ref="21562307"/>
    <tag k="class:bicycle" v="1"/>
    <tag k="cycleway:both" v="no"/>
    <tag k="highway" v="residential"/>
    <tag k="lit" v="yes"/>
    <tag k="maxspeed" v="30"/>
    <tag k="name" v="Schwanthalerstraße"/>
    <tag k="name:etymology:wikidata" v="Q448426"/>
    <tag k="sidewalk" v="both"/>
    <tag k="sidewalk:both:surface" v="paving_stones"/>
    <tag k="smoothness" v="good"/>
    <tag k="surface" v="asphalt"/>
  </way>
  <way id="306558495" version="8" timestamp="2024-11-22T12:08:53Z" changeset="159456115" uid="11758604" user="map per">
    <nd ref="3115133872"/>
    <nd ref="1329882635"/>
    <tag k="class:bicycle" v="-1"/>
    <tag k="cycleway:both" v="no"/>
    <tag k="highway" v="residential"/>
    <tag k="incline" v="up"/>
    <tag k="lanes:backward" v="2"/>
    <tag k="lit" v="yes"/>
    <tag k="maxspeed" v="30"/>
    <tag k="name" v="Schwanthalerstraße"/>
    <tag k="name:etymology:wikidata" v="Q448426"/>
    <tag k="sidewalk" v="both"/>
    <tag k="smoothness" v="intermediate"/>
    <tag k="surface" v="sett"/>
    <tag k="turn:lanes:backward" v="left|through;right"/>
  </way>
  <way id="310827994" version="9" timestamp="2024-02-07T19:42:36Z" changeset="147189999" uid="12164053" user="barefootstache">
    <nd ref="83089241"/>
    <nd ref="1049054371"/>
    <tag k="bicycle" v="use_sidepath"/>
    <tag k="foot" v="use_sidepath"/>
    <tag k="highway" v="secondary"/>
    <tag k="lanes" v="2"/>
    <tag k="lit" v="yes"/>
    <tag k="maxheight" v="default"/>
    <tag k="maxspeed" v="50"/>
    <tag k="name" v="Bayerstraße"/>
    <tag k="old_ref" v="B 2;B 12"/>
    <tag k="oneway" v="yes"/>
    <tag k="sidewalk:left" v="no"/>
    <tag k="sidewalk:right" v="separate"/>
    <tag k="smoothness" v="excellent"/>
    <tag k="surface" v="asphalt"/>
    <tag k="tmc" v="DE:46560/35388"/>
  </way>
  <way id="342525305" version="11" timestamp="2024-02-06T14:58:24Z" changeset="147139227" uid="13987295" user="Arthur B E">
    <nd ref="3495059363"/>
    <nd ref="8412456891"/>
    <nd ref="1239794104"/>
    <nd ref="21134985"/>
    <tag k="bicycle" v="use_sidepath"/>
    <tag k="foot" v="use_sidepath"/>
    <tag k="highway" v="secondary"/>
    <tag k="lanes" v="2"/>
    <tag k="lit" v="yes"/>
    <tag k="maxspeed" v="50"/>
    <tag k="name" v="Landsberger Straße"/>
    <tag k="old_ref" v="B 2;B 12"/>
    <tag k="oneway" v="yes"/>
    <tag k="sidewalk:left" v="no"/>
    <tag k="sidewalk:right" v="separate"/>
    <tag k="smoothness" v="excellent"/>
    <tag k="surface" v="asphalt"/>
    <tag k="tmc" v="DE:35387/46560"/>
    <tag k="turn:lanes" v="left|through"/>
  </way>
  <way id="385481530" version="4" timestamp="2022-08-23T05:26:32Z" changeset="125252334" uid="519916" user="googlenaut">
    <nd ref="3888261683"/>
    <nd ref="3888261685"/>
    <nd ref="3888261684"/>
    <nd ref="6003087785"/>
    <nd ref="3888261682"/>
    <nd ref="3888261683"/>
    <tag k="addr:city" v="München"/>
    <tag k="addr:housenumber" v="28"/>
    <tag k="addr:postcode" v="80339"/>
    <tag k="addr:street" v="Ligsalzstraße"/>
    <tag k="building" v="yes"/>
    <tag k="craft" v="upholsterer"/>
    <tag k="name" v="Oben"/>
    <tag k="opening_hours" v="&quot;nach Vereinbarung per Telefon&quot; || &quot;keine festen Öffnungszeiten&quot;"/>
    <tag k="phone" v="+49 89 51009222"/>
    <tag k="website" v="http://polsterei.oben.net/"/>
  </way>
  <way id="435196485" version="9" timestamp="2024-03-30T13:29:19Z" changeset="149351300" uid="29096" user="buergi">
    <nd ref="1955312"/>
    <nd ref="715449616"/>
    <nd ref="4471391517"/>
    <nd ref="6002375424"/>
    <nd ref="4331346526"/>
    <tag k="bicycle" v="use_sidepath"/>
    <tag k="highway" v="residential"/>
    <tag k="lanes:backward" v="2"/>
    <tag k="lanes:forward" v="1"/>
    <tag k="lit" v="yes"/>
    <tag k="maxspeed" v="30"/>
    <tag k="name" v="Ganghoferstraße"/>
    <tag k="name:etymology:wikidata" v="Q123464"/>
    <tag k="sidewalk" v="separate"/>
    <tag k="smoothness" v="good"/>
    <tag k="surface" v="asphalt"/>
    <tag k="turn:lanes:backward" v="left|through"/>
    <tag k="width" v="10"/>
  </way>
  <way id="503447971" version="9" timestamp="2024-02-14T20:55:41Z" changeset="147466469" uid="12164053" user="barefootstache">
    <nd ref="3099064549"/>
    <nd ref="4937563201"/>
    <nd ref="4937563200"/>
    <nd ref="6007965476"/>
    <nd ref="4937563199"/>
    <nd ref="6007965477"/>
    <nd ref="6007965478"/>
    <nd ref="6007965479"/>
    <nd ref="4937563198"/>
    <nd ref="6008160796"/>
    <nd ref="3099064549"/>
    <tag k="addr:city" v="München"/>
    <tag k="addr:country" v="DE"/>
    <tag k="addr:housenumber" v="25"/>
    <tag k="addr:postcode" v="80339"/>
    <tag k="addr:street" v="Kazmairstraße"/>
    <tag k="amenity" v="kindergarten"/>
    <tag k="building" v="kindergarten"/>
    <tag k="building:levels" v="3"/>
    <tag k="capacity" v="36"/>
    <tag k="contact:email" v="Krippe-klangfarben@kinderschutz.de"/>
    <tag k="contact:phone" v="+49 (0)89 31716-7700"/>
    <tag k="contact:website" v="https://www.kinderschutz.de/angebote/kindertageseinrichtungen/einrichtungen/klangfarben/"/>
    <tag k="max_age" v="3"/>
    <tag k="min_age" v="2 months"/>
    <tag k="name" v="Kinderkrippe KlangFarben"/>
    <tag k="nursery" v="yes"/>
    <tag k="opening_hours" v="Mo-Fr 07:30-17:00"/>
    <tag k="operator" v="Kinderschutz e.V."/>
    <tag k="roof:levels" v="0"/>
    <tag k="roof:shape" v="flat"/>
  </way>
  <way id="543004598" version="7" timestamp="2024-11-22T12:08:53Z" changeset="159456115" uid="11758604" user="map per">
    <nd ref="1329882635"/>
    <nd ref="3115133873"/>
    <tag k="class:bicycle" v="-1"/>
    <tag k="cycleway:both" v="no"/>
    <tag k="highway" v="residential"/>
    <tag k="incline" v="up"/>
    <tag k="lit" v="yes"/>
    <tag k="maxspeed" v="30"/>
    <tag k="name" v="Schwanthalerstraße"/>
    <tag k="name:etymology:wikidata" v="Q448426"/>
    <tag k="sidewalk" v="both"/>
    <tag k="smoothness" v="intermediate"/>
    <tag k="surface" v="sett"/>
  </way>
  <way id="638173478" version="4" timestamp="2023-05-08T21:03:56Z" changeset="135869335" uid="2040341" user="teasu">
    <nd ref="1843098304"/>
    <nd ref="6015007256"/>
    <nd ref="1843098282"/>
    <nd ref="6015434095"/>
    <nd ref="6015434094"/>
    <nd ref="3754435003"/>
    <nd ref="1843098307"/>
    <nd ref="1843098304"/>
    <tag k="addr:city" v="München"/>
    <tag k="addr:country" v="DE"/>
    <tag k="addr:housenumber" v="16"/>
    <tag k="addr:postcode" v="80339"/>
    <tag k="addr:street" v="Kazmairstraße"/>
    <tag k="building" v="yes"/>
  </way>
  <way id="990286019" version="6" timestamp="2024-03-29T19:03:47Z" changeset="149326887" uid="11758604" user="map per">
    <nd ref="9151152615"/>
    <nd ref="9151152616"/>
    <nd ref="9151176017"/>
    <nd ref="9151176018"/>
    <nd ref="11015861614"/>
    <nd ref="9151176019"/>
    <nd ref="11015861617"/>
    <nd ref="1329882535"/>
    <nd ref="1843098683"/>
    <nd ref="7991042769"/>
    <nd ref="11015861616"/>
    <nd ref="11015861615"/>
    <nd ref="9151152615"/>
    <tag k="addr:city" v="München"/>
    <tag k="addr:housenumber" v="7"/>
    <tag k="addr:postcode" v="80339"/>
    <tag k="addr:street" v="Theresienhöhe"/>
    <tag k="building" v="office"/>
    <tag k="building:levels" v="4"/>
    <tag k="roof:shape" v="flat"/>
  </way>
  <relation id="74631" version="7" timestamp="2021-05-30T20:41:33Z" changeset="105583630" uid="11758604" user="map per">
    <member type="way" ref="30829842" role="outer"/>
    <member type="way" ref="30829939" role="inner"/>
    <tag k="addr:city" v="München"/>
    <tag k="addr:housenumber" v="115"/>
    <tag k="addr:postcode" v="80335"/>
    <tag k="addr:street" v="Bayerstraße"/>
    <tag k="building" v="office"/>
    <tag k="building:levels" v="5"/>
    <tag k="description" v="Europäisches Patentamt - Bauteil 7"/>
    <tag k="roof:levels" v="1"/>
    <tag k="type" v="multipolygon"/>
    <tag k="wheelchair" v="yes"/>
  </relation>

</osm>
