<?xml version="1.0" encoding="UTF-8"?>
<osm version="0.6" generator="Overpass API 0.7.62.5 1bd436f1">
<note>The data included in this document is from www.openstreetmap.org. The data is made available under ODbL.</note>
<meta osm_base="2025-05-18T01:58:02Z" areas="2024-12-31T00:49:33Z"/>

  <node id="31515796" lat="52.4327554" lon="13.7110059" version="14" timestamp="2021-09-30T12:37:21Z" changeset="111915814" uid="10961311" user="StefanHRT">
    <tag k="TMC:cid_58:tabcd_1:Class" v="Point"/>
    <tag k="TMC:cid_58:tabcd_1:LCLversion" v="9.00"/>
    <tag k="TMC:cid_58:tabcd_1:LocationCode" v="32864"/>
    <tag k="TMC:cid_58:tabcd_1:NextLocationCode" v="27006"/>
    <tag k="TMC:cid_58:tabcd_1:PrevLocationCode" v="27005"/>
  </node>
  <node id="75394379" lat="52.4361192" lon="13.7191673" version="6" timestamp="2023-01-15T07:06:34Z" changeset="131287877" uid="18208051" user="MappiViewer"/>
  <node id="1650837035" lat="52.4356542" lon="13.7179143" version="4" timestamp="2023-01-15T07:06:34Z" changeset="131287877" uid="18208051" user="MappiViewer"/>
  <node id="1650837052" lat="52.4366087" lon="13.7097299" version="5" timestamp="2023-01-15T05:32:42Z" changeset="131286384" uid="18208051" user="MappiViewer"/>
  <node id="1650837073" lat="52.4375206" lon="13.7116441" version="2" timestamp="2023-01-15T05:32:42Z" changeset="131286384" uid="18208051" user="MappiViewer"/>
  <node id="2706028150" lat="52.4320659" lon="13.7136816" version="1" timestamp="2014-03-07T20:15:07Z" changeset="20976958" uid="43566" user="anbr"/>
  <way id="9497366" version="15" timestamp="2023-01-15T07:06:34Z" changeset="131287877" uid="18208051" user="MappiViewer">
    <nd ref="1650837150"/>
    <nd ref="10556289098"/>
    <nd ref="73037239"/>
    <nd ref="10556289089"/>
    <nd ref="10556289090"/>
    <nd ref="2475694203"/>
    <tag k="cycleway:both" v="no"/>
    <tag k="highway" v="residential"/>
    <tag k="lane_markings" v="no"/>
    <tag k="lit" v="yes"/>
    <tag k="maxspeed" v="30"/>
    <tag k="maxspeed:type" v="DE:zone30"/>
    <tag k="name" v="Schettkatstraße"/>
    <tag k="name:etymology:wikidata" v="Q47008302"/>
    <tag k="postal_code" v="12589"/>
    <tag k="sidewalk" v="both"/>
    <tag k="smoothness" v="good"/>
    <tag k="source:maxspeed" v="DE:zone30"/>
    <tag k="surface" v="asphalt"/>
    <tag k="traffic_sign" v="DE:274.1"/>
    <tag k="zone:maxspeed" v="DE:30"/>
  </way>
  <way id="9498060" version="11" timestamp="2023-01-15T07:06:34Z" changeset="131287877" uid="18208051" user="MappiViewer">
    <nd ref="31515810"/>
    <nd ref="10556297433"/>
    <nd ref="8248034062"/>
    <nd ref="1650837049"/>
    <nd ref="73035988"/>
    <nd ref="10556289105"/>
    <tag k="cycleway:both" v="no"/>
    <tag k="highway" v="residential"/>
    <tag k="lane_markings" v="no"/>
    <tag k="lit" v="yes"/>
    <tag k="maxspeed" v="30"/>
    <tag k="maxspeed:type" v="DE:zone30"/>
    <tag k="name" v="Grenzbergeweg"/>
    <tag k="postal_code" v="12589"/>
    <tag k="sidewalk" v="both"/>
    <tag k="smoothness" v="good"/>
    <tag k="source:maxspeed" v="DE:zone30"/>
    <tag k="surface" v="asphalt"/>
    <tag k="traffic_sign" v="DE:274.1"/>
    <tag k="zone:maxspeed" v="DE:30"/>
  </way>
  <way id="9498297" version="21" timestamp="2023-06-03T19:00:15Z" changeset="136912803" uid="18208051" user="MappiViewer">
    <nd ref="1650837035"/>
    <nd ref="10556289085"/>
    <nd ref="7217592213"/>
    <nd ref="73043518"/>
    <nd ref="73046018"/>
    <nd ref="75398075"/>
    <nd ref="10556328211"/>
    <nd ref="7573534450"/>
    <nd ref="73046020"/>
    <tag k="cycleway:both" v="no"/>
    <tag k="highway" v="residential"/>
    <tag k="lane_markings" v="no"/>
    <tag k="lit" v="yes"/>
    <tag k="maxspeed" v="30"/>
    <tag k="maxspeed:type" v="DE:zone30"/>
    <tag k="name" v="Grünelinder Straße"/>
    <tag k="name:etymology:wikidata" v="Q99578572"/>
    <tag k="postal_code" v="12589"/>
    <tag k="sidewalk" v="both"/>
    <tag k="smoothness" v="good"/>
    <tag k="source:maxspeed" v="DE:zone30"/>
    <tag k="surface" v="asphalt"/>
    <tag k="traffic_sign" v="DE:274.1"/>
    <tag k="zone:maxspeed" v="DE:30"/>
  </way>
  <way id="9498350" version="16" timestamp="2023-06-03T19:00:15Z" changeset="136912803" uid="18208051" user="MappiViewer">
    <nd ref="75394379"/>
    <nd ref="10556297491"/>
    <nd ref="10556297490"/>
    <nd ref="10556297492"/>
    <nd ref="73042490"/>
    <nd ref="7673914370"/>
    <nd ref="10949285301"/>
    <nd ref="73042491"/>
    <nd ref="2706028199"/>
    <nd ref="10554763790"/>
    <nd ref="7573534451"/>
    <nd ref="31496479"/>
    <tag k="cycleway:both" v="no"/>
    <tag k="highway" v="residential"/>
    <tag k="lane_markings" v="no"/>
    <tag k="lit" v="yes"/>
    <tag k="maxspeed" v="30"/>
    <tag k="maxspeed:type" v="DE:zone30"/>
    <tag k="name" v="Fahlenbergstraße"/>
    <tag k="name:etymology:wikidata" v="Q1434274"/>
    <tag k="name:etymology:wikipedia" v="de:Flurname"/>
    <tag k="postal_code" v="12589"/>
    <tag k="sidewalk" v="both"/>
    <tag k="smoothness" v="good"/>
    <tag k="source:maxspeed" v="DE:zone30"/>
    <tag k="surface" v="asphalt"/>
    <tag k="traffic_sign" v="DE:274.1"/>
    <tag k="zone:maxspeed" v="DE:30"/>
  </way>
  <way id="9646676" version="12" timestamp="2023-01-15T07:06:34Z" changeset="131287877" uid="18208051" user="MappiViewer">
    <nd ref="75390222"/>
    <nd ref="10556289068"/>
    <nd ref="10556289069"/>
    <nd ref="10556289070"/>
    <nd ref="10556289071"/>
    <nd ref="10556289072"/>
    <nd ref="31515785"/>
    <tag k="cycleway:both" v="no"/>
    <tag k="highway" v="residential"/>
    <tag k="lane_markings" v="no"/>
    <tag k="lit" v="yes"/>
    <tag k="maxspeed" v="30"/>
    <tag k="maxspeed:type" v="DE:zone30"/>
    <tag k="name" v="Güttlander Straße"/>
    <tag k="name:etymology:wikidata" v="Q2684145"/>
    <tag k="postal_code" v="12589"/>
    <tag k="sidewalk" v="both"/>
    <tag k="smoothness" v="good"/>
    <tag k="source:maxspeed" v="DE:zone30"/>
    <tag k="surface" v="asphalt"/>
    <tag k="traffic_sign" v="DE:274.1"/>
    <tag k="zone:maxspeed" v="DE:30"/>
  </way>
  <way id="9646795" version="16" timestamp="2023-01-15T07:06:34Z" changeset="131287877" uid="18208051" user="MappiViewer">
    <nd ref="1650837041"/>
    <nd ref="10555882595"/>
    <nd ref="75390222"/>
    <nd ref="73047248"/>
    <nd ref="1650837082"/>
    <nd ref="73040060"/>
    <nd ref="4097844516"/>
    <nd ref="10556297464"/>
    <nd ref="1650837106"/>
    <tag k="cycleway:both" v="no"/>
    <tag k="highway" v="residential"/>
    <tag k="lane_markings" v="no"/>
    <tag k="lit" v="yes"/>
    <tag k="maxspeed" v="30"/>
    <tag k="maxspeed:type" v="DE:zone30"/>
    <tag k="name" v="Eichbergstraße"/>
    <tag k="name:etymology:wikidata" v="Q101036512"/>
    <tag k="postal_code" v="12589"/>
    <tag k="sidewalk" v="both"/>
    <tag k="smoothness" v="good"/>
    <tag k="source:maxspeed" v="DE:zone30"/>
    <tag k="surface" v="asphalt"/>
    <tag k="traffic_sign" v="DE:274.1"/>
    <tag k="zone:maxspeed" v="DE:30"/>
  </way>
  <way id="24918784" version="10" timestamp="2023-01-15T07:06:34Z" changeset="131287877" uid="18208051" user="MappiViewer">
    <nd ref="73046018"/>
    <nd ref="10556297535"/>
    <nd ref="31515976"/>
    <tag k="cycleway:both" v="no"/>
    <tag k="highway" v="residential"/>
    <tag k="lane_markings" v="no"/>
    <tag k="lit" v="yes"/>
    <tag k="maxspeed" v="30"/>
    <tag k="maxspeed:type" v="DE:zone30"/>
    <tag k="name" v="Rhedaer Weg"/>
    <tag k="name:etymology:wikidata" v="Q936933"/>
    <tag k="postal_code" v="12589"/>
    <tag k="sidewalk" v="both"/>
    <tag k="source:maxspeed" v="DE:zone30"/>
    <tag k="surface" v="asphalt"/>
    <tag k="traffic_sign" v="DE:274.1"/>
    <tag k="zone:maxspeed" v="DE:30"/>
  </way>
  <way id="26119579" version="11" timestamp="2023-06-03T19:00:15Z" changeset="136912803" uid="18208051" user="MappiViewer">
    <nd ref="31515780"/>
    <nd ref="10556297540"/>
    <nd ref="10556297541"/>
    <nd ref="73043518"/>
    <nd ref="10556297537"/>
    <nd ref="10949285303"/>
    <nd ref="73042491"/>
    <tag k="cycleway:both" v="no"/>
    <tag k="highway" v="residential"/>
    <tag k="lane_markings" v="no"/>
    <tag k="lit" v="yes"/>
    <tag k="maxspeed" v="30"/>
    <tag k="maxspeed:type" v="DE:zone30"/>
    <tag k="name" v="Kirchstraße"/>
    <tag k="name:etymology:wikidata" v="Q14898063"/>
    <tag k="postal_code" v="12589"/>
    <tag k="sidewalk" v="both"/>
    <tag k="smoothness" v="good"/>
    <tag k="source:maxspeed" v="DE:zone30"/>
    <tag k="surface" v="asphalt"/>
    <tag k="traffic_sign" v="DE:274.1"/>
    <tag k="zone:maxspeed" v="DE:30"/>
  </way>
  <way id="35218633" version="16" timestamp="2023-05-27T09:16:16Z" changeset="136616645" uid="3020814" user="BER319">
    <nd ref="277529103"/>
    <nd ref="4848063911"/>
    <nd ref="263389268"/>
    <tag k="cycleway:both" v="no"/>
    <tag k="highway" v="tertiary"/>
    <tag k="lane_markings" v="no"/>
    <tag k="lit" v="yes"/>
    <tag k="maxspeed" v="50"/>
    <tag k="maxspeed:type" v="DE:urban"/>
    <tag k="name" v="Schönblicker Straße"/>
    <tag k="name:etymology:wikidata" v="Q92631673"/>
    <tag k="name:etymology:wikipedia" v="de:Schönblick (Woltersdorf)"/>
    <tag k="postal_code" v="12589"/>
    <tag k="sidewalk" v="both"/>
    <tag k="sidewalk:both:surface" v="sett"/>
    <tag k="smoothness" v="good"/>
    <tag k="surface" v="asphalt"/>
    <tag k="wikidata" v="Q86703056"/>
    <tag k="wikimedia_commons" v="Category:Schönblicker Straße (Berlin-Rahnsdorf)"/>
  </way>
  <way id="35218634" version="11" timestamp="2023-05-27T09:16:18Z" changeset="136616645" uid="3020814" user="BER319">
    <nd ref="31515809"/>
    <nd ref="10556297448"/>
    <nd ref="10556297447"/>
    <nd ref="277529080"/>
    <tag k="cycleway:both" v="no"/>
    <tag k="highway" v="residential"/>
    <tag k="lane_markings" v="no"/>
    <tag k="lit" v="yes"/>
    <tag k="maxspeed" v="30"/>
    <tag k="maxspeed:type" v="DE:zone30"/>
    <tag k="name" v="Erknerstraße"/>
    <tag k="name:etymology:wikidata" v="Q572392"/>
    <tag k="postal_code" v="12589"/>
    <tag k="sidewalk" v="right"/>
    <tag k="sidewalk:right:surface" v="sett"/>
    <tag k="smoothness" v="good"/>
    <tag k="source:maxspeed" v="DE:zone30"/>
    <tag k="surface" v="asphalt"/>
    <tag k="traffic_sign" v="DE:274.1"/>
    <tag k="zone:maxspeed" v="DE:30"/>
  </way>
  <way id="46915835" version="11" timestamp="2024-11-06T07:30:12Z" changeset="158805975" uid="17955042" user="walkman_ua">
    <nd ref="598922616"/>
    <nd ref="270761484"/>
    <nd ref="2915022358"/>
    <nd ref="2915022357"/>
    <nd ref="2915022359"/>
    <nd ref="598922617"/>
    <nd ref="598922618"/>
    <nd ref="2915022360"/>
    <nd ref="2915022361"/>
    <nd ref="2915022363"/>
    <nd ref="2915022362"/>
    <nd ref="598922619"/>
    <nd ref="4097844513"/>
    <nd ref="4097844514"/>
    <nd ref="12317649861"/>
    <nd ref="4097844512"/>
    <nd ref="4097844511"/>
    <nd ref="598922616"/>
    <tag k="addr:city" v="Berlin"/>
    <tag k="addr:country" v="DE"/>
    <tag k="addr:postcode" v="12589"/>
    <tag k="addr:suburb" v="Wilhelmshagen"/>
    <tag k="amenity" v="place_of_worship"/>
    <tag k="architect" v="Peter Jürgensen, Jürgen Bachmann"/>
    <tag k="architect:wikidata" v="Q2076133;Q1716969"/>
    <tag k="building" v="church"/>
    <tag k="denomination" v="protestant"/>
    <tag k="diocese" v="Evangelische Kirche Berlin-Brandenburg-schlesische Oberlausitz"/>
    <tag k="email" v="evkgrahnsdorf@gmx.de"/>
    <tag k="heritage" v="4"/>
    <tag k="heritage:operator" v="lda"/>
    <tag k="lda:criteria" v="Baudenkmal"/>
    <tag k="name" v="Taborkirche"/>
    <tag k="parish" v="Evang. Kirchengemeinden Rahnsdorf und Schöneiche"/>
    <tag k="phone" v="+49306489128"/>
    <tag k="ref:lda" v="09045804"/>
    <tag k="religion" v="christian"/>
    <tag k="start_date" v="1911"/>
    <tag k="website" v="http://www.ev-kirche-rahnsdorf.de/"/>
    <tag k="wheelchair" v="limited"/>
    <tag k="wikidata" v="Q14898063"/>
    <tag k="wikipedia" v="de:Taborkirche (Berlin-Wilhelmshagen)"/>
  </way>
  <way id="152258300" version="8" timestamp="2023-01-15T07:06:34Z" changeset="131287877" uid="18208051" user="MappiViewer">
    <nd ref="10556289096"/>
    <nd ref="1650837156"/>
    <nd ref="1650837154"/>
    <nd ref="10556289097"/>
    <nd ref="1650837150"/>
    <nd ref="1650837148"/>
    <nd ref="1650837132"/>
    <nd ref="1650837106"/>
    <nd ref="1650837099"/>
    <nd ref="1650837093"/>
    <nd ref="10556297450"/>
    <nd ref="10556297449"/>
    <nd ref="31515809"/>
    <tag k="cycleway:both" v="no"/>
    <tag k="highway" v="residential"/>
    <tag k="lane_markings" v="no"/>
    <tag k="lit" v="yes"/>
    <tag k="maxspeed" v="30"/>
    <tag k="maxspeed:type" v="DE:zone30"/>
    <tag k="name" v="Erknerstraße"/>
    <tag k="name:etymology:wikidata" v="Q572392"/>
    <tag k="postal_code" v="12589"/>
    <tag k="sidewalk" v="both"/>
    <tag k="smoothness" v="good"/>
    <tag k="source:maxspeed" v="DE:zone30"/>
    <tag k="surface" v="asphalt"/>
    <tag k="traffic_sign" v="DE:274.1"/>
    <tag k="zone:maxspeed" v="DE:30"/>
  </way>
  <way id="152258301" version="11" timestamp="2023-05-27T09:16:18Z" changeset="136616645" uid="3020814" user="BER319">
    <nd ref="277529080"/>
    <nd ref="31515810"/>
    <tag k="cycleway:both" v="no"/>
    <tag k="highway" v="residential"/>
    <tag k="lane_markings" v="no"/>
    <tag k="lit" v="yes"/>
    <tag k="maxspeed" v="30"/>
    <tag k="maxspeed:type" v="DE:zone30"/>
    <tag k="name" v="Erknerstraße"/>
    <tag k="name:etymology:wikidata" v="Q572392"/>
    <tag k="postal_code" v="12589"/>
    <tag k="sidewalk" v="both"/>
    <tag k="sidewalk:left:surface" v="fine_gravel"/>
    <tag k="sidewalk:right:surface" v="sett"/>
    <tag k="smoothness" v="good"/>
    <tag k="source:maxspeed" v="DE:zone30"/>
    <tag k="surface" v="asphalt"/>
    <tag k="traffic_sign" v="DE:274.1"/>
    <tag k="zone:maxspeed" v="DE:30"/>
  </way>
  <way id="152258308" version="8" timestamp="2023-06-03T19:00:15Z" changeset="136912803" uid="18208051" user="MappiViewer">
    <nd ref="73042490"/>
    <nd ref="10556289087"/>
    <nd ref="1650837012"/>
    <nd ref="10556289086"/>
    <nd ref="1650837035"/>
    <nd ref="10556289084"/>
    <nd ref="10556289081"/>
    <nd ref="10556289082"/>
    <nd ref="10556289080"/>
    <nd ref="1650837047"/>
    <nd ref="10556289079"/>
    <nd ref="10556289083"/>
    <nd ref="10556289078"/>
    <nd ref="2706028209"/>
    <nd ref="10556289077"/>
    <nd ref="1650837069"/>
    <nd ref="10556289076"/>
    <nd ref="73047248"/>
    <nd ref="2475694163"/>
    <nd ref="10556289075"/>
    <nd ref="10556289074"/>
    <nd ref="1650837124"/>
    <tag k="cycleway:both" v="no"/>
    <tag k="highway" v="residential"/>
    <tag k="lane_markings" v="no"/>
    <tag k="lit" v="yes"/>
    <tag k="maxspeed" v="30"/>
    <tag k="maxspeed:type" v="DE:zone30"/>
    <tag k="name" v="Frankenbergstraße"/>
    <tag k="name:etymology:wikidata" v="Q1463703"/>
    <tag k="postal_code" v="12589"/>
    <tag k="sidewalk" v="both"/>
    <tag k="smoothness" v="good"/>
    <tag k="source:maxspeed" v="DE:zone30"/>
    <tag k="surface" v="asphalt"/>
    <tag k="traffic_sign" v="DE:274.1"/>
    <tag k="zone:maxspeed" v="DE:30"/>
  </way>
  <way id="152258344" version="7" timestamp="2023-01-15T05:32:42Z" changeset="131286384" uid="18208051" user="MappiViewer">
    <nd ref="1650837041"/>
    <nd ref="10555882594"/>
    <nd ref="10555882589"/>
    <nd ref="10555882590"/>
    <tag k="cycleway:both" v="no"/>
    <tag k="highway" v="residential"/>
    <tag k="lane_markings" v="no"/>
    <tag k="lit" v="yes"/>
    <tag k="maxspeed" v="30"/>
    <tag k="maxspeed:type" v="DE:zone30"/>
    <tag k="name" v="Langfuhrer Allee"/>
    <tag k="name:etymology:wikidata" v="Q541765"/>
    <tag k="postal_code" v="12589"/>
    <tag k="sidewalk:both" v="no"/>
    <tag k="source:maxspeed" v="DE:zone30"/>
    <tag k="surface" v="asphalt"/>
    <tag k="traffic_sign" v="DE:274.1"/>
    <tag k="zone:maxspeed" v="DE:30"/>
  </way>
  <way id="152258345" version="9" timestamp="2023-01-15T07:06:34Z" changeset="131287877" uid="18208051" user="MappiViewer">
    <nd ref="31515786"/>
    <nd ref="10556289088"/>
    <nd ref="1650837134"/>
    <nd ref="2475694177"/>
    <nd ref="10556297504"/>
    <nd ref="1650837091"/>
    <nd ref="10556297503"/>
    <nd ref="1650837082"/>
    <nd ref="10556297502"/>
    <nd ref="1650837076"/>
    <nd ref="10556297501"/>
    <nd ref="8795722488"/>
    <nd ref="10556297500"/>
    <nd ref="10556297499"/>
    <nd ref="10556297497"/>
    <nd ref="1650837061"/>
    <nd ref="10556297496"/>
    <nd ref="10556297498"/>
    <nd ref="10556297495"/>
    <nd ref="10556297494"/>
    <nd ref="1650837050"/>
    <nd ref="10556297493"/>
    <nd ref="75394379"/>
    <nd ref="10556297489"/>
    <nd ref="1650837040"/>
    <nd ref="10556297488"/>
    <nd ref="10556297485"/>
    <nd ref="73035988"/>
    <tag k="cycleway:both" v="no"/>
    <tag k="highway" v="residential"/>
    <tag k="lane_markings" v="no"/>
    <tag k="lit" v="yes"/>
    <tag k="maxspeed" v="30"/>
    <tag k="maxspeed:type" v="DE:zone30"/>
    <tag k="name" v="Lassallestraße"/>
    <tag k="name:etymology:wikidata" v="Q75784"/>
    <tag k="postal_code" v="12589"/>
    <tag k="sidewalk" v="both"/>
    <tag k="smoothness" v="good"/>
    <tag k="source:maxspeed" v="DE:zone30"/>
    <tag k="surface" v="asphalt"/>
    <tag k="traffic_sign" v="DE:274.1"/>
    <tag k="zone:maxspeed" v="DE:30"/>
  </way>
  <way id="152258373" version="8" timestamp="2023-01-15T05:32:42Z" changeset="131286384" uid="18208051" user="MappiViewer">
    <nd ref="1650837073"/>
    <nd ref="10555882598"/>
    <nd ref="9688565884"/>
    <nd ref="249531435"/>
    <tag k="cycleway:both" v="no"/>
    <tag k="highway" v="residential"/>
    <tag k="lane_markings" v="no"/>
    <tag k="lit" v="yes"/>
    <tag k="maxspeed" v="30"/>
    <tag k="maxspeed:type" v="DE:zone30"/>
    <tag k="name" v="Saarower Weg"/>
    <tag k="name:etymology:wikidata" v="Q49421"/>
    <tag k="name:etymology:wikipedia" v="de:Bad Saarow"/>
    <tag k="postal_code" v="12589"/>
    <tag k="sidewalk" v="left"/>
    <tag k="smoothness" v="good"/>
    <tag k="source:maxspeed" v="DE:zone30"/>
    <tag k="surface" v="asphalt"/>
    <tag k="traffic_sign" v="DE:274.1"/>
    <tag k="zone:maxspeed" v="DE:30"/>
  </way>
  <way id="152258384" version="12" timestamp="2023-01-15T07:06:34Z" changeset="131287877" uid="18208051" user="MappiViewer">
    <nd ref="1650837019"/>
    <nd ref="1650837013"/>
    <nd ref="1650837010"/>
    <nd ref="1650837004"/>
    <nd ref="1650837003"/>
    <nd ref="1650836993"/>
    <nd ref="1650836991"/>
    <nd ref="1650836989"/>
    <nd ref="1650836976"/>
    <nd ref="1650836973"/>
    <nd ref="1650836980"/>
    <nd ref="1650836990"/>
    <nd ref="1650836992"/>
    <nd ref="1650836995"/>
    <nd ref="31515780"/>
    <nd ref="1650837008"/>
    <nd ref="1650837011"/>
    <nd ref="1650837014"/>
    <nd ref="6019397687"/>
    <nd ref="1650837023"/>
    <nd ref="1650837028"/>
    <nd ref="1650837030"/>
    <nd ref="6021423029"/>
    <nd ref="1650837032"/>
    <nd ref="31515785"/>
    <nd ref="1650837029"/>
    <nd ref="1650837025"/>
    <nd ref="1650837024"/>
    <nd ref="1650837019"/>
    <tag k="cycleway:both" v="no"/>
    <tag k="highway" v="tertiary"/>
    <tag k="junction" v="roundabout"/>
    <tag k="lane_markings" v="no"/>
    <tag k="lit" v="yes"/>
    <tag k="maxspeed" v="50"/>
    <tag k="maxspeed:type" v="DE:urban"/>
    <tag k="name" v="Schönblicker Straße"/>
    <tag k="name:etymology:wikidata" v="Q92631673"/>
    <tag k="name:etymology:wikipedia" v="de:Schönblick (Woltersdorf)"/>
    <tag k="postal_code" v="12589"/>
    <tag k="sidewalk" v="right"/>
    <tag k="smoothness" v="good"/>
    <tag k="surface" v="asphalt"/>
    <tag k="wikidata" v="Q86703056"/>
    <tag k="wikimedia_commons" v="Category:Schönblicker Straße (Berlin-Rahnsdorf)"/>
  </way>
  <way id="152258387" version="13" timestamp="2023-06-26T07:37:08Z" changeset="137778487" uid="4537491" user="Andreas Gaeb">
    <nd ref="31515796"/>
    <nd ref="7573534440"/>
    <nd ref="10556297513"/>
    <nd ref="4012502923"/>
    <nd ref="4012502924"/>
    <nd ref="3802589772"/>
    <nd ref="1650836851"/>
    <nd ref="7653394560"/>
    <nd ref="10556297512"/>
    <nd ref="10556297511"/>
    <nd ref="1650836993"/>
    <tag k="cycleway:both" v="no"/>
    <tag k="highway" v="tertiary"/>
    <tag k="lane_markings" v="no"/>
    <tag k="lit" v="yes"/>
    <tag k="maxspeed" v="50"/>
    <tag k="maxspeed:type" v="DE:urban"/>
    <tag k="name" v="Schönblicker Straße"/>
    <tag k="name:etymology:wikidata" v="Q92631673"/>
    <tag k="name:etymology:wikipedia" v="de:Schönblick (Woltersdorf)"/>
    <tag k="postal_code" v="12589"/>
    <tag k="sidewalk" v="both"/>
    <tag k="sidewalk:both:surface" v="paving_stones"/>
    <tag k="smoothness" v="good"/>
    <tag k="surface" v="asphalt"/>
    <tag k="wikidata" v="Q86703056"/>
    <tag k="wikimedia_commons" v="Category:Schönblicker Straße (Berlin-Rahnsdorf)"/>
  </way>
  <way id="152258389" version="14" timestamp="2024-08-17T08:24:26Z" changeset="155358194" uid="3796268" user="GD1">
    <nd ref="31515809"/>
    <nd ref="9000338693"/>
    <nd ref="1650837072"/>
    <nd ref="1650837061"/>
    <nd ref="4012502905"/>
    <nd ref="1650837047"/>
    <nd ref="4012502904"/>
    <nd ref="7492519432"/>
    <nd ref="10556297544"/>
    <nd ref="10556297543"/>
    <nd ref="1650837023"/>
    <tag k="cycleway:both" v="no"/>
    <tag k="highway" v="tertiary"/>
    <tag k="lane_markings" v="no"/>
    <tag k="lit" v="yes"/>
    <tag k="maxspeed" v="50"/>
    <tag k="maxspeed:type" v="DE:urban"/>
    <tag k="name" v="Schönblicker Straße"/>
    <tag k="name:etymology:wikidata" v="Q92631673"/>
    <tag k="name:etymology:wikipedia" v="de:Schönblick (Woltersdorf)"/>
    <tag k="parking:left" v="lane"/>
    <tag k="parking:left:orientation" v="parallel"/>
    <tag k="parking:right" v="no"/>
    <tag k="postal_code" v="12589"/>
    <tag k="sidewalk" v="both"/>
    <tag k="sidewalk:both:surface" v="paving_stones"/>
    <tag k="smoothness" v="good"/>
    <tag k="surface" v="asphalt"/>
    <tag k="wikidata" v="Q86703056"/>
    <tag k="wikimedia_commons" v="Category:Schönblicker Straße (Berlin-Rahnsdorf)"/>
  </way>
  <way id="152258422" version="8" timestamp="2023-08-15T05:39:30Z" changeset="139897220" uid="10961311" user="StefanHRT">
    <nd ref="1650836851"/>
    <nd ref="10556297520"/>
    <nd ref="10556297521"/>
    <nd ref="1650836825"/>
    <nd ref="1650836817"/>
    <nd ref="1650836799"/>
    <nd ref="10556297536"/>
    <nd ref="75398075"/>
    <tag k="cycleway:both" v="no"/>
    <tag k="highway" v="residential"/>
    <tag k="lane_markings" v="no"/>
    <tag k="lit" v="yes"/>
    <tag k="maxspeed" v="30"/>
    <tag k="maxspeed:type" v="DE:zone30"/>
    <tag k="name" v="Weichselmünder Weg"/>
    <tag k="name:etymology:wikidata" v="Q1409002"/>
    <tag k="postal_code" v="12589"/>
    <tag k="sidewalk" v="both"/>
    <tag k="smoothness" v="good"/>
    <tag k="source:maxspeed" v="DE:zone30"/>
    <tag k="surface" v="asphalt"/>
    <tag k="traffic_sign" v="DE:274.1"/>
    <tag k="zone:maxspeed" v="DE:30"/>
  </way>
  <way id="152258423" version="9" timestamp="2023-01-15T07:06:34Z" changeset="131287877" uid="18208051" user="MappiViewer">
    <nd ref="1650837049"/>
    <nd ref="10556297481"/>
    <nd ref="8795722512"/>
    <nd ref="10556297480"/>
    <nd ref="1650837059"/>
    <nd ref="10556297479"/>
    <nd ref="8795722483"/>
    <nd ref="10556297478"/>
    <nd ref="10556297477"/>
    <nd ref="10556297476"/>
    <nd ref="1650837072"/>
    <nd ref="10556297474"/>
    <nd ref="10556297475"/>
    <nd ref="10556297473"/>
    <nd ref="8795722484"/>
    <nd ref="1650837080"/>
    <nd ref="10556297472"/>
    <nd ref="10556297467"/>
    <nd ref="10556297470"/>
    <nd ref="73040060"/>
    <nd ref="10556297469"/>
    <nd ref="10556297468"/>
    <nd ref="4097844528"/>
    <nd ref="1650837114"/>
    <nd ref="10556297465"/>
    <nd ref="73037239"/>
    <tag k="cycleway:both" v="no"/>
    <tag k="highway" v="residential"/>
    <tag k="lane_markings" v="no"/>
    <tag k="lit" v="yes"/>
    <tag k="maxspeed" v="30"/>
    <tag k="maxspeed:type" v="DE:zone30"/>
    <tag k="name" v="Wiebelskircher Weg"/>
    <tag k="name:etymology:wikidata" v="Q2568189"/>
    <tag k="postal_code" v="12589"/>
    <tag k="sidewalk" v="both"/>
    <tag k="smoothness" v="good"/>
    <tag k="source:maxspeed" v="DE:zone30"/>
    <tag k="surface" v="asphalt"/>
    <tag k="traffic_sign" v="DE:274.1"/>
    <tag k="zone:maxspeed" v="DE:30"/>
  </way>
  <way id="257256519" version="14" timestamp="2023-05-27T09:16:19Z" changeset="136616645" uid="3020814" user="BER319">
    <nd ref="31515810"/>
    <nd ref="10556297434"/>
    <nd ref="4761216991"/>
    <nd ref="5837839006"/>
    <nd ref="10556297431"/>
    <tag k="cycleway:both" v="no"/>
    <tag k="highway" v="residential"/>
    <tag k="lane_markings" v="no"/>
    <tag k="lit" v="yes"/>
    <tag k="maxspeed" v="30"/>
    <tag k="maxspeed:type" v="DE:zone30"/>
    <tag k="name" v="Erknerstraße"/>
    <tag k="name:etymology:wikidata" v="Q572392"/>
    <tag k="sidewalk" v="both"/>
    <tag k="sidewalk:both:surface" v="sett"/>
    <tag k="smoothness" v="good"/>
    <tag k="source:maxspeed" v="DE:zone30"/>
    <tag k="surface" v="asphalt"/>
    <tag k="traffic_sign" v="DE:274.1"/>
    <tag k="zone:maxspeed" v="DE:30"/>
  </way>
  <way id="264953654" version="15" timestamp="2024-08-17T08:32:55Z" changeset="155358479" uid="3796268" user="GD1">
    <nd ref="2706028150"/>
    <nd ref="7573534446"/>
    <nd ref="10554763754"/>
    <nd ref="1650836817"/>
    <tag k="cycleway:both" v="no"/>
    <tag k="highway" v="residential"/>
    <tag k="lane_markings" v="no"/>
    <tag k="lit" v="yes"/>
    <tag k="maxspeed" v="30"/>
    <tag k="maxspeed:type" v="DE:zone30"/>
    <tag k="name" v="Nickelswalder Straße"/>
    <tag k="name:etymology:wikidata" v="Q2521604"/>
    <tag k="postal_code" v="12589"/>
    <tag k="sidewalk" v="both"/>
    <tag k="smoothness" v="good"/>
    <tag k="source:maxspeed" v="DE:zone30"/>
    <tag k="source:width" v="ARCore"/>
    <tag k="surface" v="asphalt"/>
    <tag k="traffic_sign" v="DE:274.1"/>
    <tag k="width" v="4.9"/>
    <tag k="zone:maxspeed" v="DE:30"/>
  </way>
  <way id="309594359" version="2" timestamp="2016-04-04T17:39:05Z" changeset="38297066" uid="114161" user="Polarbear">
    <nd ref="3149290680"/>
    <nd ref="4097844524"/>
    <nd ref="4097844525"/>
    <nd ref="3149290711"/>
    <nd ref="4097844520"/>
    <nd ref="4097844518"/>
    <nd ref="4097844517"/>
    <nd ref="4097844519"/>
    <nd ref="3149290724"/>
    <nd ref="3149290709"/>
    <nd ref="4097844522"/>
    <nd ref="4097844526"/>
    <nd ref="4097844527"/>
    <nd ref="4097844523"/>
    <nd ref="3149290680"/>
    <tag k="building" v="yes"/>
    <tag k="name" v="Pfarrhaus"/>
  </way>
  <way id="309594365" version="2" timestamp="2016-04-04T17:39:05Z" changeset="38297066" uid="114161" user="Polarbear">
    <nd ref="3149290698"/>
    <nd ref="3149290697"/>
    <nd ref="4097844531"/>
    <nd ref="3149290658"/>
    <nd ref="3149290663"/>
    <nd ref="3149290698"/>
    <tag k="amenity" v="community_centre"/>
    <tag k="building" v="civic"/>
    <tag k="community_centre" v="parish_hall"/>
    <tag k="community_centre:for" v="religious"/>
    <tag k="name" v="Gemeindehaus"/>
  </way>
  <way id="309595536" version="6" timestamp="2023-05-27T09:16:20Z" changeset="136616652" uid="3020814" user="BER319">
    <nd ref="3149299093"/>
    <nd ref="3149299091"/>
    <nd ref="3149299055"/>
    <nd ref="3149293820"/>
    <nd ref="3149299093"/>
    <tag k="addr:housenumber" v="43"/>
    <tag k="addr:street" v="Erknerstraße"/>
    <tag k="building" v="apartments"/>
    <tag k="building:levels" v="2"/>
    <tag k="roof:levels" v="1"/>
    <tag k="roof:shape" v="hipped"/>
  </way>
  <way id="309605932" version="2" timestamp="2019-02-17T07:49:38Z" changeset="67272040" uid="66391" user="geozeisig">
    <nd ref="3149417373"/>
    <nd ref="3149417371"/>
    <nd ref="2844552835"/>
    <nd ref="3149417354"/>
    <nd ref="3149417380"/>
    <nd ref="3149404924"/>
    <nd ref="3149417365"/>
    <nd ref="3149417398"/>
    <nd ref="3149417373"/>
    <tag k="addr:city" v="Berlin"/>
    <tag k="addr:country" v="DE"/>
    <tag k="addr:housenumber" v="22"/>
    <tag k="addr:postcode" v="12589"/>
    <tag k="addr:street" v="Wiebelskircher Weg"/>
    <tag k="addr:suburb" v="Rahnsdorf"/>
    <tag k="building" v="yes"/>
    <tag k="source" v="Geoportal Berlin / Hauskoordinaten"/>
  </way>
  <way id="309605945" version="2" timestamp="2019-02-17T07:49:38Z" changeset="67272040" uid="66391" user="geozeisig">
    <nd ref="3149417380"/>
    <nd ref="3149417369"/>
    <nd ref="3149417364"/>
    <nd ref="3149417358"/>
    <nd ref="3149417342"/>
    <nd ref="2844552986"/>
    <nd ref="3149417354"/>
    <nd ref="3149417380"/>
    <tag k="addr:city" v="Berlin"/>
    <tag k="addr:country" v="DE"/>
    <tag k="addr:housenumber" v="24"/>
    <tag k="addr:postcode" v="12589"/>
    <tag k="addr:street" v="Wiebelskircher Weg"/>
    <tag k="addr:suburb" v="Rahnsdorf"/>
    <tag k="building" v="yes"/>
    <tag k="source" v="Geoportal Berlin / Hauskoordinaten"/>
  </way>
  <way id="311443233" version="2" timestamp="2019-02-17T07:49:38Z" changeset="67272040" uid="66391" user="geozeisig">
    <nd ref="3170914211"/>
    <nd ref="3170914191"/>
    <nd ref="3170914195"/>
    <nd ref="3170914214"/>
    <nd ref="3170914216"/>
    <nd ref="3170914231"/>
    <nd ref="3170914236"/>
    <nd ref="3170914395"/>
    <nd ref="3170914390"/>
    <nd ref="3170914410"/>
    <nd ref="3170914401"/>
    <nd ref="2844561054"/>
    <nd ref="3170914384"/>
    <nd ref="3170914238"/>
    <nd ref="3170914237"/>
    <nd ref="3170914213"/>
    <nd ref="3170914215"/>
    <nd ref="3170914200"/>
    <nd ref="3170914211"/>
    <tag k="addr:city" v="Berlin"/>
    <tag k="addr:country" v="DE"/>
    <tag k="addr:housenumber" v="66"/>
    <tag k="addr:postcode" v="12589"/>
    <tag k="addr:street" v="Wiebelskircher Weg"/>
    <tag k="addr:suburb" v="Rahnsdorf"/>
    <tag k="building" v="yes"/>
    <tag k="heritage" v="4"/>
    <tag k="heritage:operator" v="lda"/>
    <tag k="lda:criteria" v="Baudenkmal"/>
    <tag k="ref:lda" v="09045810"/>
    <tag k="source" v="Geoportal Berlin / Hauskoordinaten"/>
    <tag k="start_date" v="1906"/>
  </way>
  <way id="311443705" version="3" timestamp="2023-11-24T12:16:21Z" changeset="144406109" uid="11731221" user="delineatorix">
    <nd ref="3170912485"/>
    <nd ref="3170912260"/>
    <nd ref="3170912254"/>
    <nd ref="3170912215"/>
    <nd ref="3170912212"/>
    <nd ref="3170912477"/>
    <nd ref="3170912485"/>
    <tag k="addr:city" v="Berlin"/>
    <tag k="addr:country" v="DE"/>
    <tag k="addr:housenumber" v="35"/>
    <tag k="addr:postcode" v="12589"/>
    <tag k="addr:street" v="Grenzbergeweg"/>
    <tag k="addr:suburb" v="Rahnsdorf"/>
    <tag k="building" v="detached"/>
  </way>
  <way id="311443854" version="6" timestamp="2023-05-27T09:16:19Z" changeset="136616654" uid="3020814" user="BER319">
    <nd ref="3170915517"/>
    <nd ref="3170915592"/>
    <nd ref="3170915513"/>
    <nd ref="3170915489"/>
    <nd ref="3170915479"/>
    <nd ref="3170915458"/>
    <nd ref="3170915469"/>
    <nd ref="3170915445"/>
    <nd ref="3170915517"/>
    <tag k="building" v="hotel"/>
    <tag k="building:levels" v="1"/>
    <tag k="name" v="Pension Müller"/>
    <tag k="roof:levels" v="1"/>
    <tag k="roof:shape" v="hipped"/>
    <tag k="tourism" v="guest_house"/>
  </way>
  <way id="398499663" version="11" timestamp="2023-05-27T09:16:17Z" changeset="136616645" uid="3020814" user="BER319">
    <nd ref="277529103"/>
    <nd ref="31515809"/>
    <tag k="cycleway:both" v="no"/>
    <tag k="highway" v="tertiary"/>
    <tag k="lane_markings" v="no"/>
    <tag k="lit" v="yes"/>
    <tag k="maxspeed" v="50"/>
    <tag k="maxspeed:type" v="DE:urban"/>
    <tag k="name" v="Schönblicker Straße"/>
    <tag k="name:etymology:wikidata" v="Q92631673"/>
    <tag k="name:etymology:wikipedia" v="de:Schönblick (Woltersdorf)"/>
    <tag k="postal_code" v="12589"/>
    <tag k="sidewalk" v="both"/>
    <tag k="sidewalk:both:surface" v="sett"/>
    <tag k="smoothness" v="good"/>
    <tag k="surface" v="asphalt"/>
    <tag k="wikidata" v="Q86703056"/>
    <tag k="wikimedia_commons" v="Category:Schönblicker Straße (Berlin-Rahnsdorf)"/>
  </way>
  <way id="471137285" version="7" timestamp="2024-11-22T07:32:44Z" changeset="159446384" uid="66391" user="geozeisig">
    <nd ref="4652992877"/>
    <nd ref="4652992876"/>
    <nd ref="4652992875"/>
    <nd ref="4652992874"/>
    <nd ref="4652992877"/>
    <tag k="addr:housenumber" v="36"/>
    <tag k="addr:street" v="Erknerstraße"/>
    <tag k="addr:suburb" v="Rahnsdorf"/>
    <tag k="building" v="apartments"/>
    <tag k="building:levels" v="3"/>
    <tag k="roof:shape" v="flat"/>
  </way>
  <way id="527440791" version="1" timestamp="2017-09-25T06:34:26Z" changeset="52345561" uid="66391" user="geozeisig">
    <nd ref="5127759977"/>
    <nd ref="5127759976"/>
    <nd ref="5127759975"/>
    <nd ref="5127759974"/>
    <nd ref="5127759977"/>
    <tag k="addr:city" v="Berlin"/>
    <tag k="addr:housenumber" v="19A"/>
    <tag k="addr:postcode" v="12589"/>
    <tag k="addr:street" v="Grenzbergeweg"/>
    <tag k="addr:suburb" v="Rahnsdorf"/>
    <tag k="building" v="yes"/>
  </way>
  <way id="527440799" version="1" timestamp="2017-09-25T06:34:26Z" changeset="52345561" uid="66391" user="geozeisig">
    <nd ref="5127759981"/>
    <nd ref="5127759978"/>
    <nd ref="5127759979"/>
    <nd ref="5127759980"/>
    <nd ref="5127759981"/>
    <tag k="addr:city" v="Berlin"/>
    <tag k="addr:housenumber" v="8A"/>
    <tag k="addr:postcode" v="12589"/>
    <tag k="addr:street" v="Hochlandstraße"/>
    <tag k="addr:suburb" v="Rahnsdorf"/>
    <tag k="building" v="yes"/>
  </way>
  <way id="527440802" version="1" timestamp="2017-09-25T06:34:27Z" changeset="52345561" uid="66391" user="geozeisig">
    <nd ref="5127759985"/>
    <nd ref="5127759982"/>
    <nd ref="5127759983"/>
    <nd ref="5127759984"/>
    <nd ref="5127759985"/>
    <tag k="addr:city" v="Berlin"/>
    <tag k="addr:housenumber" v="52"/>
    <tag k="addr:postcode" v="12589"/>
    <tag k="addr:street" v="Eichbergstraße"/>
    <tag k="addr:suburb" v="Rahnsdorf"/>
    <tag k="building" v="yes"/>
  </way>
  <way id="527440806" version="1" timestamp="2017-09-25T06:34:27Z" changeset="52345561" uid="66391" user="geozeisig">
    <nd ref="5127757906"/>
    <nd ref="5127757905"/>
    <nd ref="5127759987"/>
    <nd ref="5127759986"/>
    <nd ref="5127757906"/>
    <tag k="addr:city" v="Berlin"/>
    <tag k="addr:housenumber" v="58"/>
    <tag k="addr:postcode" v="12589"/>
    <tag k="addr:street" v="Eichbergstraße"/>
    <tag k="addr:suburb" v="Rahnsdorf"/>
    <tag k="building" v="yes"/>
  </way>
  <way id="527440813" version="1" timestamp="2017-09-25T06:34:27Z" changeset="52345561" uid="66391" user="geozeisig">
    <nd ref="2844562554"/>
    <nd ref="5127757915"/>
    <nd ref="5127757914"/>
    <nd ref="5127757912"/>
    <nd ref="5127757911"/>
    <nd ref="5127757913"/>
    <nd ref="2844562554"/>
    <tag k="addr:city" v="Berlin"/>
    <tag k="addr:country" v="DE"/>
    <tag k="addr:housenumber" v="80"/>
    <tag k="addr:inclusion" v="potential"/>
    <tag k="addr:postcode" v="12589"/>
    <tag k="addr:street" v="Schönblicker Straße"/>
    <tag k="addr:suburb" v="Rahnsdorf"/>
    <tag k="building" v="yes"/>
    <tag k="source" v="Geoportal Berlin / Hauskoordinaten"/>
  </way>
  <way id="610559763" version="2" timestamp="2019-08-31T10:41:49Z" changeset="73947172" uid="3020814" user="BER319">
    <nd ref="5782010934"/>
    <nd ref="5782010933"/>
    <nd ref="5782010932"/>
    <nd ref="5782010931"/>
    <nd ref="5782010930"/>
    <nd ref="5782010929"/>
    <nd ref="5782010928"/>
    <nd ref="5782010927"/>
    <nd ref="5782010926"/>
    <nd ref="5782010925"/>
    <nd ref="5782010934"/>
    <tag k="addr:city" v="Berlin"/>
    <tag k="addr:housenumber" v="19"/>
    <tag k="addr:postcode" v="12589"/>
    <tag k="addr:street" v="Langfuhrer Allee"/>
    <tag k="addr:suburb" v="Rahnsdorf"/>
    <tag k="building" v="detached"/>
  </way>
  <way id="617570445" version="4" timestamp="2022-08-06T12:51:11Z" changeset="124560766" uid="9451434" user="Juttabln">
    <nd ref="5837807652"/>
    <nd ref="5837807651"/>
    <nd ref="5837807650"/>
    <nd ref="5837807649"/>
    <nd ref="5837807648"/>
    <nd ref="5837807646"/>
    <nd ref="5837807645"/>
    <nd ref="5837807647"/>
    <nd ref="5837807652"/>
    <tag k="addr:city" v="Berlin"/>
    <tag k="addr:housenumber" v="10"/>
    <tag k="addr:postcode" v="12589"/>
    <tag k="addr:street" v="Nickelswalder Straße"/>
    <tag k="addr:suburb" v="Rahnsdorf"/>
    <tag k="building" v="house"/>
    <tag k="building:levels" v="1"/>
    <tag k="roof:levels" v="1"/>
  </way>
  <way id="638725892" version="9" timestamp="2023-01-15T07:06:34Z" changeset="131287877" uid="18208051" user="MappiViewer">
    <nd ref="10555882597"/>
    <nd ref="10555882596"/>
    <nd ref="8991995017"/>
    <nd ref="1650837073"/>
    <nd ref="8496735412"/>
    <nd ref="8795722465"/>
    <nd ref="1650837085"/>
    <nd ref="8795722468"/>
    <nd ref="8795722471"/>
    <nd ref="1650837124"/>
    <tag k="cycleway:both" v="no"/>
    <tag k="highway" v="residential"/>
    <tag k="lane_markings" v="no"/>
    <tag k="lit" v="yes"/>
    <tag k="maxspeed" v="30"/>
    <tag k="maxspeed:type" v="DE:zone30"/>
    <tag k="name" v="Hochlandstraße"/>
    <tag k="name:etymology:wikidata" v="Q1030063"/>
    <tag k="postal_code" v="12589"/>
    <tag k="sidewalk" v="left"/>
    <tag k="smoothness" v="good"/>
    <tag k="source:maxspeed" v="DE:zone30"/>
    <tag k="surface" v="asphalt"/>
    <tag k="traffic_sign" v="DE:274.1"/>
    <tag k="zone:maxspeed" v="DE:30"/>
  </way>
  <way id="977123874" version="1" timestamp="2021-08-28T06:17:04Z" changeset="110367312" uid="66391" user="geozeisig">
    <nd ref="9042306730"/>
    <nd ref="9042306729"/>
    <nd ref="9042306728"/>
    <nd ref="9042306727"/>
    <nd ref="9042306730"/>
    <tag k="addr:city" v="Berlin"/>
    <tag k="addr:housenumber" v="36"/>
    <tag k="addr:postcode" v="12589"/>
    <tag k="addr:street" v="Schönblicker Straße"/>
    <tag k="addr:suburb" v="Rahnsdorf"/>
    <tag k="building" v="yes"/>
  </way>
  <way id="977123875" version="1" timestamp="2021-08-28T06:17:04Z" changeset="110367312" uid="66391" user="geozeisig">
    <nd ref="9042274800"/>
    <nd ref="9042274799"/>
    <nd ref="9042274798"/>
    <nd ref="9042274797"/>
    <nd ref="9042274800"/>
    <tag k="addr:city" v="Berlin"/>
    <tag k="addr:country" v="DE"/>
    <tag k="addr:housenumber" v="12"/>
    <tag k="addr:inclusion" v="potential"/>
    <tag k="addr:postcode" v="12589"/>
    <tag k="addr:street" v="Erknerstraße"/>
    <tag k="addr:suburb" v="Rahnsdorf"/>
    <tag k="building" v="yes"/>
    <tag k="source" v="Geoportal Berlin / Hauskoordinaten"/>
  </way>
  <way id="977123876" version="1" timestamp="2021-08-28T06:17:04Z" changeset="110367312" uid="66391" user="geozeisig">
    <nd ref="9042274803"/>
    <nd ref="9042274801"/>
    <nd ref="9042274802"/>
    <nd ref="2844561498"/>
    <nd ref="9042274803"/>
    <tag k="addr:city" v="Berlin"/>
    <tag k="addr:housenumber" v="72"/>
    <tag k="addr:inclusion" v="potential"/>
    <tag k="addr:postcode" v="12589"/>
    <tag k="addr:street" v="Schönblicker Straße"/>
    <tag k="addr:suburb" v="Rahnsdorf"/>
    <tag k="building" v="yes"/>
    <tag k="source" v="Geoportal Berlin / Hauskoordinaten"/>
  </way>
  <way id="1132106328" version="2" timestamp="2023-01-15T07:06:34Z" changeset="131287877" uid="18208051" user="MappiViewer">
    <nd ref="1650837019"/>
    <nd ref="10556297509"/>
    <nd ref="10556297510"/>
    <nd ref="1650837034"/>
    <nd ref="1650837041"/>
    <tag k="cycleway:both" v="no"/>
    <tag k="highway" v="residential"/>
    <tag k="lane_markings" v="no"/>
    <tag k="lit" v="yes"/>
    <tag k="maxspeed" v="30"/>
    <tag k="maxspeed:type" v="DE:zone30"/>
    <tag k="name" v="Langfuhrer Allee"/>
    <tag k="name:etymology:wikidata" v="Q541765"/>
    <tag k="postal_code" v="12589"/>
    <tag k="sidewalk" v="right"/>
    <tag k="source:maxspeed" v="DE:zone30"/>
    <tag k="surface" v="asphalt"/>
    <tag k="traffic_sign" v="DE:274.1"/>
    <tag k="zone:maxspeed" v="DE:30"/>
  </way>
  <way id="1132106329" version="1" timestamp="2023-01-15T05:32:42Z" changeset="131286384" uid="18208051" user="MappiViewer">
    <nd ref="1650837052"/>
    <nd ref="10555882590"/>
    <nd ref="10555882591"/>
    <nd ref="10555882597"/>
    <tag k="cycleway:both" v="no"/>
    <tag k="highway" v="residential"/>
    <tag k="lane_markings" v="no"/>
    <tag k="lit" v="yes"/>
    <tag k="maxspeed" v="30"/>
    <tag k="maxspeed:type" v="DE:zone30"/>
    <tag k="name" v="Hochlandstraße"/>
    <tag k="name:etymology:wikidata" v="Q1030063"/>
    <tag k="postal_code" v="12589"/>
    <tag k="sidewalk" v="left"/>
    <tag k="smoothness" v="good"/>
    <tag k="source:maxspeed" v="DE:zone30"/>
    <tag k="surface" v="concrete"/>
    <tag k="traffic_sign" v="DE:274.1"/>
    <tag k="zone:maxspeed" v="DE:30"/>
  </way>
  <way id="1132126168" version="1" timestamp="2023-01-15T07:06:34Z" changeset="131287877" uid="18208051" user="MappiViewer">
    <nd ref="1650837085"/>
    <nd ref="10556289067"/>
    <nd ref="75390222"/>
    <tag k="cycleway:both" v="no"/>
    <tag k="highway" v="residential"/>
    <tag k="lane_markings" v="no"/>
    <tag k="lit" v="yes"/>
    <tag k="maxspeed" v="30"/>
    <tag k="maxspeed:type" v="DE:zone30"/>
    <tag k="name" v="Güttlander Straße"/>
    <tag k="name:etymology:wikidata" v="Q2684145"/>
    <tag k="postal_code" v="12589"/>
    <tag k="smoothness" v="intermediate"/>
    <tag k="source:maxspeed" v="DE:zone30"/>
    <tag k="surface" v="concrete"/>
    <tag k="traffic_sign" v="DE:274.1"/>
    <tag k="zone:maxspeed" v="DE:30"/>
  </way>
  <way id="1132126171" version="1" timestamp="2023-01-15T07:06:34Z" changeset="131287877" uid="18208051" user="MappiViewer">
    <nd ref="31515786"/>
    <nd ref="2475694203"/>
    <nd ref="10556289091"/>
    <nd ref="10556289092"/>
    <nd ref="1650837165"/>
    <tag k="cycleway:both" v="no"/>
    <tag k="highway" v="residential"/>
    <tag k="lane_markings" v="no"/>
    <tag k="lit" v="yes"/>
    <tag k="maxspeed" v="30"/>
    <tag k="maxspeed:type" v="DE:zone30"/>
    <tag k="name" v="Hochlandstraße"/>
    <tag k="name:etymology:wikidata" v="Q1030063"/>
    <tag k="postal_code" v="12589"/>
    <tag k="sidewalk" v="both"/>
    <tag k="smoothness" v="good"/>
    <tag k="source:maxspeed" v="DE:zone30"/>
    <tag k="surface" v="asphalt"/>
    <tag k="traffic_sign" v="DE:274.1"/>
    <tag k="zone:maxspeed" v="DE:30"/>
  </way>
  <way id="1132126172" version="1" timestamp="2023-01-15T07:06:34Z" changeset="131287877" uid="18208051" user="MappiViewer">
    <nd ref="1650837124"/>
    <nd ref="31515786"/>
    <tag k="cycleway:both" v="no"/>
    <tag k="highway" v="residential"/>
    <tag k="lane_markings" v="no"/>
    <tag k="lit" v="yes"/>
    <tag k="maxspeed" v="30"/>
    <tag k="maxspeed:type" v="DE:zone30"/>
    <tag k="name" v="Hochlandstraße"/>
    <tag k="name:etymology:wikidata" v="Q1030063"/>
    <tag k="postal_code" v="12589"/>
    <tag k="sidewalk" v="both"/>
    <tag k="smoothness" v="good"/>
    <tag k="source:maxspeed" v="DE:zone30"/>
    <tag k="surface" v="asphalt"/>
    <tag k="traffic_sign" v="DE:274.1"/>
    <tag k="zone:maxspeed" v="DE:30"/>
  </way>
  <way id="1132126174" version="1" timestamp="2023-01-15T07:06:34Z" changeset="131287877" uid="18208051" user="MappiViewer">
    <nd ref="1650837171"/>
    <nd ref="1650837165"/>
    <nd ref="2475694215"/>
    <nd ref="10556289096"/>
    <tag k="cycleway:both" v="no"/>
    <tag k="highway" v="residential"/>
    <tag k="lane_markings" v="no"/>
    <tag k="lit" v="yes"/>
    <tag k="maxspeed" v="30"/>
    <tag k="maxspeed:type" v="DE:zone30"/>
    <tag k="name" v="Erknerstraße"/>
    <tag k="name:etymology:wikidata" v="Q572392"/>
    <tag k="postal_code" v="12589"/>
    <tag k="sidewalk" v="right"/>
    <tag k="smoothness" v="good"/>
    <tag k="source:maxspeed" v="DE:zone30"/>
    <tag k="surface" v="asphalt"/>
    <tag k="traffic_sign" v="DE:274.1"/>
    <tag k="zone:maxspeed" v="DE:30"/>
  </way>
  <way id="1132126187" version="3" timestamp="2024-04-03T09:38:28Z" changeset="149515194" uid="21227762" user="HenrietteG">
    <nd ref="10556297459"/>
    <nd ref="10556297460"/>
    <nd ref="10556297461"/>
    <nd ref="10556297462"/>
    <nd ref="10556297459"/>
    <tag k="access" v="yes"/>
    <tag k="amenity" v="toilets"/>
    <tag k="building" v="yes"/>
    <tag k="changing_table" v="no"/>
    <tag k="contact:phone" v="+49 800 092 55 24"/>
    <tag k="description" v="Berliner Toilette"/>
    <tag k="fee" v="no"/>
    <tag k="name" v="Berliner Toilette"/>
    <tag k="toilets:wheelchair" v="yes"/>
    <tag k="unisex" v="yes"/>
    <tag k="website" v="https://www.berlin.de/sen/uvk/mobilitaet-und-verkehr/infrastruktur/oeffentliche-toiletten/"/>
    <tag k="wheelchair" v="yes"/>
  </way>
  <way id="1132126188" version="1" timestamp="2023-01-15T07:06:34Z" changeset="131287877" uid="18208051" user="MappiViewer">
    <nd ref="73040053"/>
    <nd ref="1650837043"/>
    <nd ref="10556297483"/>
    <nd ref="1650837046"/>
    <nd ref="8795746218"/>
    <nd ref="10556297482"/>
    <nd ref="10556297487"/>
    <nd ref="1650837049"/>
    <tag k="cycleway:both" v="no"/>
    <tag k="highway" v="residential"/>
    <tag k="lane_markings" v="no"/>
    <tag k="lit" v="yes"/>
    <tag k="maxspeed" v="30"/>
    <tag k="maxspeed:type" v="DE:zone30"/>
    <tag k="name" v="Wiebelskircher Weg"/>
    <tag k="name:etymology:wikidata" v="Q2568189"/>
    <tag k="postal_code" v="12589"/>
    <tag k="sidewalk" v="left"/>
    <tag k="smoothness" v="good"/>
    <tag k="source:maxspeed" v="DE:zone30"/>
    <tag k="surface" v="asphalt"/>
    <tag k="traffic_sign" v="DE:274.1"/>
    <tag k="zone:maxspeed" v="DE:30"/>
  </way>
  <way id="1132126189" version="1" timestamp="2023-01-15T07:06:34Z" changeset="131287877" uid="18208051" user="MappiViewer">
    <nd ref="73035988"/>
    <nd ref="10556297486"/>
    <nd ref="10556297484"/>
    <nd ref="5837816541"/>
    <nd ref="5837816540"/>
    <nd ref="1650837021"/>
    <nd ref="73035990"/>
    <tag k="cycleway:both" v="no"/>
    <tag k="highway" v="residential"/>
    <tag k="lane_markings" v="no"/>
    <tag k="lit" v="yes"/>
    <tag k="maxspeed" v="30"/>
    <tag k="maxspeed:type" v="DE:zone30"/>
    <tag k="name" v="Lassallestraße"/>
    <tag k="name:etymology:wikidata" v="Q75784"/>
    <tag k="postal_code" v="12589"/>
    <tag k="sidewalk" v="both"/>
    <tag k="smoothness" v="good"/>
    <tag k="source:maxspeed" v="DE:zone30"/>
    <tag k="surface" v="asphalt"/>
    <tag k="traffic_sign" v="DE:274.1"/>
    <tag k="zone:maxspeed" v="DE:30"/>
  </way>
  <way id="1132126193" version="2" timestamp="2024-08-17T08:31:14Z" changeset="155358194" uid="3796268" user="GD1">
    <nd ref="31515976"/>
    <nd ref="1650836916"/>
    <nd ref="10556297548"/>
    <nd ref="1650836942"/>
    <nd ref="10556297547"/>
    <nd ref="10556297539"/>
    <nd ref="10556297538"/>
    <nd ref="1650836980"/>
    <tag k="cycleway:both" v="no"/>
    <tag k="highway" v="residential"/>
    <tag k="lane_markings" v="no"/>
    <tag k="lit" v="yes"/>
    <tag k="maxspeed" v="30"/>
    <tag k="maxspeed:type" v="DE:zone30"/>
    <tag k="name" v="Nickelswalder Straße"/>
    <tag k="name:etymology:wikidata" v="Q2521604"/>
    <tag k="parking:left" v="no"/>
    <tag k="parking:right" v="on_kerb"/>
    <tag k="parking:right:orientation" v="parallel"/>
    <tag k="postal_code" v="12589"/>
    <tag k="sidewalk" v="left"/>
    <tag k="smoothness" v="good"/>
    <tag k="source:maxspeed" v="DE:zone30"/>
    <tag k="source:width" v="ARCore"/>
    <tag k="surface" v="asphalt"/>
    <tag k="traffic_sign" v="DE:274.1"/>
    <tag k="width" v="4.9"/>
    <tag k="zone:maxspeed" v="DE:30"/>
  </way>
  <way id="1308402447" version="1" timestamp="2024-08-17T08:32:46Z" changeset="155358479" uid="3796268" user="GD1">
    <nd ref="1650836817"/>
    <nd ref="31515976"/>
    <tag k="cycleway:both" v="no"/>
    <tag k="highway" v="residential"/>
    <tag k="lane_markings" v="no"/>
    <tag k="lit" v="yes"/>
    <tag k="maxspeed" v="30"/>
    <tag k="maxspeed:type" v="DE:zone30"/>
    <tag k="name" v="Nickelswalder Straße"/>
    <tag k="name:etymology:wikidata" v="Q2521604"/>
    <tag k="postal_code" v="12589"/>
    <tag k="sidewalk" v="left"/>
    <tag k="smoothness" v="good"/>
    <tag k="source:maxspeed" v="DE:zone30"/>
    <tag k="source:width" v="ARCore"/>
    <tag k="surface" v="asphalt"/>
    <tag k="traffic_sign" v="DE:274.1"/>
    <tag k="width" v="4.9"/>
    <tag k="zone:maxspeed" v="DE:30"/>
  </way>

</osm>
