<?xml version="1.0" encoding="UTF-8"?>
<osm version="0.6" generator="Overpass API 0.7.62.5 1bd436f1">
<note>The data included in this document is from www.openstreetmap.org. The data is made available under ODbL.</note>
<meta osm_base="2025-05-17T17:12:46Z" areas="2024-12-31T00:49:33Z"/>

  <node id="761831000" lat="51.5125576" lon="-0.1088126" version="6" timestamp="2025-04-04T10:43:01Z" changeset="164501683" uid="705850" user="Cebderby"/>
  <node id="4697525032" lat="51.5111650" lon="-0.1107194" version="3" timestamp="2025-04-08T12:15:41Z" changeset="164676892" uid="705850" user="Cebderby">
    <tag k="barrier" v="gate"/>
    <tag k="motor_vehicle" v="private"/>
  </node>
  <way id="4074209" version="14" timestamp="2024-04-03T16:21:57Z" changeset="149533413" uid="63121" user="Yeomanry Survey">
    <nd ref="761831000"/>
    <nd ref="761831039"/>
    <nd ref="4661317153"/>
    <nd ref="761830938"/>
    <nd ref="1617647901"/>
    <tag k="bicycle" v="permissive"/>
    <tag k="dog" v="private"/>
    <tag k="foot" v="permissive"/>
    <tag k="highway" v="residential"/>
    <tag k="maxheight" v="3.4"/>
    <tag k="maxspeed" v="5 mph"/>
    <tag k="maxwidth" v="2.4"/>
    <tag k="motor_vehicle" v="private"/>
    <tag k="name" v="Inner Temple"/>
    <tag k="note" v="No dogs allowed for non-resident owners. No right of way."/>
    <tag k="surface" v="asphalt"/>
  </way>
  <way id="60393486" version="6" timestamp="2025-04-08T12:15:41Z" changeset="164676892" uid="705850" user="Cebderby">
    <nd ref="1419565044"/>
    <nd ref="12738909725"/>
    <nd ref="12738909722"/>
    <nd ref="12738909721"/>
    <nd ref="12738909720"/>
    <nd ref="12738909723"/>
    <nd ref="12738909724"/>
    <nd ref="751837689"/>
    <nd ref="751837620"/>
    <nd ref="751837729"/>
    <nd ref="11784528490"/>
    <nd ref="751837589"/>
    <nd ref="12728578215"/>
    <nd ref="12728578216"/>
    <nd ref="12738909717"/>
    <nd ref="12738909716"/>
    <nd ref="12738909715"/>
    <nd ref="12738909718"/>
    <nd ref="12738909713"/>
    <nd ref="12738909719"/>
    <nd ref="12738909714"/>
    <nd ref="1419565044"/>
    <tag k="building" v="yes"/>
    <tag k="building:material" v="brick"/>
    <tag k="name" v="Inner Temple Hall"/>
    <tag k="roof:colour" v="grey"/>
    <tag k="roof:shape" v="flat"/>
    <tag k="source" v="OS_OpenData_StreetView"/>
  </way>
  <way id="60856548" version="3" timestamp="2021-10-12T05:04:27Z" changeset="112399270" uid="2969887" user="eastender">
    <nd ref="761830941"/>
    <nd ref="4665352245"/>
    <nd ref="4665352244"/>
    <nd ref="4665352243"/>
    <nd ref="4665352242"/>
    <nd ref="761831032"/>
    <nd ref="761830960"/>
    <nd ref="761830990"/>
    <nd ref="761830941"/>
    <tag k="addr:city" v="London"/>
    <tag k="addr:housenumber" v="10"/>
    <tag k="addr:postcode" v="EC4Y 7EB"/>
    <tag k="addr:street" v="King's Bench Walk"/>
    <tag k="building" v="yes"/>
  </way>
  <way id="60856549" version="4" timestamp="2025-04-04T10:43:01Z" changeset="164501683" uid="705850" user="Cebderby">
    <nd ref="761831043"/>
    <nd ref="4665352256"/>
    <nd ref="4665352255"/>
    <nd ref="4665352254"/>
    <nd ref="761831018"/>
    <nd ref="761831050"/>
    <nd ref="761830977"/>
    <nd ref="4665352234"/>
    <nd ref="4665352232"/>
    <nd ref="4665352231"/>
    <nd ref="4665352233"/>
    <nd ref="12728570437"/>
    <nd ref="761831043"/>
    <tag k="addr:city" v="London"/>
    <tag k="addr:housenumber" v="13"/>
    <tag k="addr:postcode" v="EC4Y 7EN"/>
    <tag k="addr:street" v="King's Bench Walk"/>
    <tag k="building" v="yes"/>
  </way>
  <way id="60856555" version="6" timestamp="2023-05-14T04:39:31Z" changeset="136072067" uid="9209038" user="Bergischer">
    <nd ref="761831008"/>
    <nd ref="4665352216"/>
    <nd ref="4665352207"/>
    <nd ref="4665352208"/>
    <nd ref="4665352217"/>
    <nd ref="4665352218"/>
    <nd ref="4665352215"/>
    <nd ref="4665352235"/>
    <nd ref="4665352214"/>
    <nd ref="761830976"/>
    <nd ref="761831013"/>
    <nd ref="761831038"/>
    <nd ref="761831008"/>
    <tag k="addr:city" v="London"/>
    <tag k="addr:housenumber" v="8"/>
    <tag k="addr:postcode" v="EC4Y 7DU"/>
    <tag k="addr:street" v="King's Bench Walk"/>
    <tag k="building" v="yes"/>
    <tag k="heritage" v="2"/>
    <tag k="heritage:operator" v="Historic England"/>
    <tag k="heritage:website" v="https://historicengland.org.uk/listing/the-list/list-entry/1193194"/>
    <tag k="inscription_date" v="1950-01-04"/>
    <tag k="listed_status" v="Grade II*"/>
    <tag k="ref:GB:nhle" v="1193194"/>
    <tag k="wikidata" v="Q17549068"/>
  </way>
  <way id="60856558" version="3" timestamp="2021-10-12T05:04:27Z" changeset="112399270" uid="2969887" user="eastender">
    <nd ref="761830986"/>
    <nd ref="4665352248"/>
    <nd ref="4665352246"/>
    <nd ref="4665352247"/>
    <nd ref="4665352249"/>
    <nd ref="761830941"/>
    <nd ref="761830990"/>
    <nd ref="761831026"/>
    <nd ref="761830986"/>
    <tag k="addr:city" v="London"/>
    <tag k="addr:housenumber" v="11"/>
    <tag k="addr:postcode" v="EC4Y 7EQ"/>
    <tag k="addr:street" v="King's Bench Walk"/>
    <tag k="building" v="yes"/>
  </way>
  <way id="60856564" version="3" timestamp="2021-10-12T05:04:27Z" changeset="112399270" uid="2969887" user="eastender">
    <nd ref="761831032"/>
    <nd ref="4665352241"/>
    <nd ref="4665352240"/>
    <nd ref="4665352239"/>
    <nd ref="4665352236"/>
    <nd ref="4665352237"/>
    <nd ref="4665352238"/>
    <nd ref="761831008"/>
    <nd ref="761831038"/>
    <nd ref="761830960"/>
    <nd ref="761831032"/>
    <tag k="addr:city" v="London"/>
    <tag k="addr:housenumber" v="9"/>
    <tag k="addr:postcode" v="EC4Y 7DX"/>
    <tag k="addr:street" v="King's Bench Walk"/>
    <tag k="building" v="yes"/>
  </way>
  <way id="60856566" version="4" timestamp="2025-04-04T10:43:01Z" changeset="164501683" uid="705850" user="Cebderby">
    <nd ref="761831018"/>
    <nd ref="4665352253"/>
    <nd ref="4665352252"/>
    <nd ref="4665352251"/>
    <nd ref="4665352250"/>
    <nd ref="761830986"/>
    <nd ref="761831026"/>
    <nd ref="12728570436"/>
    <nd ref="12728570435"/>
    <nd ref="12728570434"/>
    <nd ref="12728570433"/>
    <nd ref="761831050"/>
    <nd ref="761831018"/>
    <tag k="addr:city" v="London"/>
    <tag k="addr:housenumber" v="12"/>
    <tag k="addr:postcode" v="EC4Y 7EL"/>
    <tag k="addr:street" v="King's Bench Walk"/>
    <tag k="building" v="yes"/>
  </way>
  <way id="60856571" version="5" timestamp="2021-10-12T05:04:27Z" changeset="112399270" uid="2969887" user="eastender">
    <nd ref="761830976"/>
    <nd ref="4665352230"/>
    <nd ref="4665352229"/>
    <nd ref="4665352228"/>
    <nd ref="4665352227"/>
    <nd ref="761831055"/>
    <nd ref="4665352226"/>
    <nd ref="4665352225"/>
    <nd ref="4665352224"/>
    <nd ref="4661317154"/>
    <nd ref="4675822119"/>
    <nd ref="4665352223"/>
    <nd ref="761831022"/>
    <nd ref="761831013"/>
    <nd ref="761830976"/>
    <tag k="addr:city" v="London"/>
    <tag k="addr:housenumber" v="7"/>
    <tag k="addr:postcode" v="EC4Y 7DS"/>
    <tag k="addr:street" v="King's Bench Walk"/>
    <tag k="building" v="yes"/>
    <tag k="building:levels" v="4"/>
    <tag k="wikidata" v="Q17526837"/>
  </way>
  <way id="100452068" version="6" timestamp="2023-01-31T08:33:27Z" changeset="131910554" uid="1837355" user="portishead_runner">
    <nd ref="4697525032"/>
    <nd ref="4697525030"/>
    <nd ref="26374229"/>
    <tag k="access" v="permissive"/>
    <tag k="highway" v="unclassified"/>
    <tag k="lane_markings" v="no"/>
    <tag k="name" v="Middle Temple Lane"/>
    <tag k="oneway" v="yes"/>
    <tag k="surface" v="sett"/>
  </way>
  <way id="128454313" version="25" timestamp="2025-04-04T11:35:03Z" changeset="164503770" uid="705850" user="Cebderby">
    <nd ref="1419574957"/>
    <nd ref="1419574948"/>
    <nd ref="1419574961"/>
    <nd ref="12728637788"/>
    <nd ref="1419574935"/>
    <nd ref="1419574920"/>
    <nd ref="1419574929"/>
    <nd ref="1419574918"/>
    <nd ref="1419574932"/>
    <nd ref="1419574915"/>
    <nd ref="1419574937"/>
    <nd ref="1419574959"/>
    <nd ref="1419574956"/>
    <nd ref="12728637787"/>
    <nd ref="1419574922"/>
    <nd ref="1419574928"/>
    <nd ref="1419574914"/>
    <nd ref="12728637786"/>
    <nd ref="1419574917"/>
    <nd ref="12728637784"/>
    <nd ref="1419574950"/>
    <nd ref="1419574943"/>
    <nd ref="1419574933"/>
    <nd ref="1419574949"/>
    <nd ref="1419574939"/>
    <nd ref="1419574946"/>
    <nd ref="1419592693"/>
    <nd ref="12728637759"/>
    <nd ref="12728637758"/>
    <nd ref="1419574942"/>
    <nd ref="1419574930"/>
    <nd ref="1419574940"/>
    <nd ref="1419574921"/>
    <nd ref="1419574919"/>
    <nd ref="2011390922"/>
    <nd ref="12728637778"/>
    <nd ref="1419574916"/>
    <nd ref="12728637741"/>
    <nd ref="1419574958"/>
    <nd ref="12728637742"/>
    <nd ref="1419574908"/>
    <nd ref="12728637739"/>
    <nd ref="1419574945"/>
    <nd ref="1419574960"/>
    <nd ref="12728637738"/>
    <nd ref="1419574936"/>
    <nd ref="1419574957"/>
    <tag k="addr:city" v="London"/>
    <tag k="addr:country" v="GB"/>
    <tag k="addr:housename" v="The Temple Church"/>
    <tag k="addr:postcode" v="EC4Y 7BB"/>
    <tag k="addr:street" v="Temple"/>
    <tag k="amenity" v="place_of_worship"/>
    <tag k="building" v="church"/>
    <tag k="building:material" v="sandstone"/>
    <tag k="contact:phone" v="+44 20 7353 3470"/>
    <tag k="contact:website" v="http://www.templechurch.com/"/>
    <tag k="denomination" v="anglican"/>
    <tag k="diocese" v="Diocese of London (Royal peculiar)"/>
    <tag k="heritage" v="2"/>
    <tag k="heritage:operator" v="he"/>
    <tag k="heritage:website" v="https://historicengland.org.uk/listing/the-list/list-entry/1064646"/>
    <tag k="historic" v="church"/>
    <tag k="inscription_date" v="1950-01-04"/>
    <tag k="listed_status" v="Grade I"/>
    <tag k="name" v="Temple Church"/>
    <tag k="name:en" v="Temple Church"/>
    <tag k="name:ko" v="템플 교회"/>
    <tag k="ref:GB:nhle" v="1064646"/>
    <tag k="religion" v="christian"/>
    <tag k="source:heritage" v="Historic England"/>
    <tag k="start_date" v="1185"/>
    <tag k="wikidata" v="Q1429312"/>
    <tag k="wikipedia" v="en:Temple Church"/>
  </way>
  <way id="128460986" version="5" timestamp="2025-04-04T10:43:01Z" changeset="164501683" uid="705850" user="Cebderby">
    <nd ref="1419615177"/>
    <nd ref="11752585651"/>
    <nd ref="1419615172"/>
    <nd ref="11752585649"/>
    <nd ref="370454610"/>
    <nd ref="370454608"/>
    <nd ref="11752585650"/>
    <nd ref="1419544079"/>
    <nd ref="1419544105"/>
    <nd ref="1419544316"/>
    <nd ref="1419544046"/>
    <nd ref="1419615175"/>
    <nd ref="1419615170"/>
    <nd ref="11752585652"/>
    <nd ref="1419615171"/>
    <nd ref="1419615177"/>
    <tag k="addr:housename" v="Carpmael Building"/>
    <tag k="building" v="yes"/>
    <tag k="name" v="Carpmael Building"/>
  </way>
  <way id="372838178" version="3" timestamp="2025-04-08T12:15:41Z" changeset="164676892" uid="705850" user="Cebderby">
    <nd ref="2349145890"/>
    <nd ref="12738869696"/>
    <nd ref="12738869695"/>
    <nd ref="12738869694"/>
    <nd ref="12738869697"/>
    <nd ref="12728578133"/>
    <nd ref="12728578132"/>
    <nd ref="12728578131"/>
    <nd ref="12728578134"/>
    <nd ref="3763956058"/>
    <nd ref="3763956066"/>
    <nd ref="3763956109"/>
    <nd ref="12728578146"/>
    <nd ref="2349145890"/>
    <tag k="building" v="yes"/>
    <tag k="name" v="Harcourt Buildings"/>
  </way>
  <way id="372838180" version="9" timestamp="2025-04-13T15:07:53Z" changeset="164899789" uid="705850" user="Cebderby">
    <nd ref="3763956125"/>
    <nd ref="12752457385"/>
    <nd ref="3763956111"/>
    <nd ref="12738869692"/>
    <nd ref="3763956107"/>
    <nd ref="3763956104"/>
    <nd ref="3763956110"/>
    <nd ref="3763956105"/>
    <nd ref="3763956100"/>
    <nd ref="3763956097"/>
    <nd ref="3763956103"/>
    <nd ref="3763956096"/>
    <nd ref="3763956094"/>
    <nd ref="3763956093"/>
    <nd ref="3763956095"/>
    <nd ref="3763956092"/>
    <nd ref="3763956090"/>
    <nd ref="3763956088"/>
    <nd ref="3763956091"/>
    <nd ref="3763956086"/>
    <nd ref="3763956083"/>
    <nd ref="3763956082"/>
    <nd ref="3763956085"/>
    <nd ref="3763956084"/>
    <nd ref="3763956087"/>
    <nd ref="3763956089"/>
    <nd ref="3763956101"/>
    <nd ref="3763956098"/>
    <nd ref="3763956106"/>
    <nd ref="3763956108"/>
    <nd ref="3763956116"/>
    <nd ref="3763956113"/>
    <nd ref="3763956119"/>
    <nd ref="3763956118"/>
    <nd ref="3763956121"/>
    <nd ref="3763956122"/>
    <nd ref="3763956127"/>
    <nd ref="3763956126"/>
    <nd ref="3763956129"/>
    <nd ref="3763956130"/>
    <nd ref="3763956132"/>
    <nd ref="3763956131"/>
    <nd ref="3763956133"/>
    <nd ref="3763956134"/>
    <nd ref="3763956136"/>
    <nd ref="3763956135"/>
    <nd ref="3763956138"/>
    <nd ref="12752457388"/>
    <nd ref="3763956139"/>
    <nd ref="3763956143"/>
    <nd ref="3763956147"/>
    <nd ref="3763956140"/>
    <nd ref="3763956141"/>
    <nd ref="3763956146"/>
    <nd ref="3763956148"/>
    <nd ref="3763956142"/>
    <nd ref="3763956144"/>
    <nd ref="3763956150"/>
    <nd ref="3763956152"/>
    <nd ref="3763956145"/>
    <nd ref="3763956149"/>
    <nd ref="3763956154"/>
    <nd ref="3763956156"/>
    <nd ref="3763956151"/>
    <nd ref="3763956153"/>
    <nd ref="3763956358"/>
    <nd ref="3763956359"/>
    <nd ref="3763956155"/>
    <nd ref="3763956357"/>
    <nd ref="12752457384"/>
    <nd ref="10196915588"/>
    <nd ref="12752457383"/>
    <nd ref="3763956362"/>
    <nd ref="2349145882"/>
    <nd ref="12752457387"/>
    <nd ref="3763956128"/>
    <nd ref="12752510208"/>
    <nd ref="3763956125"/>
    <tag k="addr:city" v="London"/>
    <tag k="building" v="yes"/>
    <tag k="contact:website" v="http://www.middletemplehall.org.uk/"/>
    <tag k="heritage" v="2"/>
    <tag k="heritage:operator" v="Historic England"/>
    <tag k="heritage:website" v="https://historicengland.org.uk/listing/the-list/list-entry/1064609"/>
    <tag k="inscription_date" v="1950-01-04"/>
    <tag k="listed_status" v="Grade I"/>
    <tag k="name" v="Middle Temple Hall"/>
    <tag k="ref:GB:nhle" v="1064609"/>
    <tag k="wikidata" v="Q925942"/>
    <tag k="wikipedia" v="en:Middle Temple"/>
  </way>
  <way id="372838181" version="4" timestamp="2025-04-13T15:07:53Z" changeset="164899789" uid="705850" user="Cebderby">
    <nd ref="3763956073"/>
    <nd ref="12738869700"/>
    <nd ref="12738869698"/>
    <nd ref="12738869699"/>
    <nd ref="3763956099"/>
    <nd ref="3763956111"/>
    <nd ref="12752457385"/>
    <nd ref="3763956125"/>
    <nd ref="12752510208"/>
    <nd ref="3763956128"/>
    <nd ref="3763956077"/>
    <nd ref="3763956075"/>
    <nd ref="12738909701"/>
    <nd ref="3763956073"/>
    <tag k="building" v="yes"/>
    <tag k="name" v="Plowden Buildings"/>
  </way>
  <way id="372838183" version="5" timestamp="2025-04-04T10:43:01Z" changeset="164501683" uid="705850" user="Cebderby">
    <nd ref="11010956019"/>
    <nd ref="3763955969"/>
    <nd ref="3763955225"/>
    <nd ref="3763955230"/>
    <nd ref="3763955970"/>
    <nd ref="3763955972"/>
    <nd ref="3763955966"/>
    <nd ref="3763955962"/>
    <nd ref="3763955253"/>
    <nd ref="3763955249"/>
    <nd ref="3763955250"/>
    <nd ref="3763955256"/>
    <nd ref="3763955963"/>
    <nd ref="3763955968"/>
    <nd ref="3763955973"/>
    <nd ref="3763955975"/>
    <nd ref="3763955977"/>
    <nd ref="3763955982"/>
    <nd ref="3763955983"/>
    <nd ref="3763955984"/>
    <nd ref="3763955985"/>
    <nd ref="3763955986"/>
    <nd ref="3763956002"/>
    <nd ref="3763956020"/>
    <nd ref="3763956021"/>
    <nd ref="3763956022"/>
    <nd ref="3763956025"/>
    <nd ref="3763956026"/>
    <nd ref="3763956027"/>
    <nd ref="3763956028"/>
    <nd ref="3763956031"/>
    <nd ref="3763956032"/>
    <nd ref="3763956067"/>
    <nd ref="3763955988"/>
    <nd ref="3763938439"/>
    <nd ref="3763956007"/>
    <nd ref="3763956056"/>
    <nd ref="3763956058"/>
    <nd ref="3763956066"/>
    <nd ref="12728578135"/>
    <nd ref="3763956035"/>
    <nd ref="3763956033"/>
    <nd ref="3763956030"/>
    <nd ref="3763956029"/>
    <nd ref="3763956024"/>
    <nd ref="3763956023"/>
    <nd ref="3763956019"/>
    <nd ref="3763955987"/>
    <nd ref="3763955980"/>
    <nd ref="3763955981"/>
    <nd ref="3763955979"/>
    <nd ref="3763955978"/>
    <nd ref="3763955976"/>
    <nd ref="3763955974"/>
    <nd ref="3763955971"/>
    <nd ref="3763955964"/>
    <nd ref="3763955244"/>
    <nd ref="3763955222"/>
    <nd ref="3763955220"/>
    <nd ref="3763955216"/>
    <nd ref="3763955214"/>
    <nd ref="3763955212"/>
    <nd ref="3763955213"/>
    <nd ref="3763955215"/>
    <nd ref="3763955219"/>
    <nd ref="3763955221"/>
    <nd ref="3763955238"/>
    <nd ref="3763955245"/>
    <nd ref="3763955217"/>
    <nd ref="3763955218"/>
    <nd ref="3763955252"/>
    <nd ref="12728578129"/>
    <nd ref="12728578128"/>
    <nd ref="12728578120"/>
    <nd ref="12728578121"/>
    <nd ref="12728578122"/>
    <nd ref="12728578126"/>
    <nd ref="3763938438"/>
    <nd ref="12728578125"/>
    <nd ref="12728578124"/>
    <nd ref="12728578123"/>
    <nd ref="12728578127"/>
    <nd ref="12728578130"/>
    <nd ref="12728578119"/>
    <nd ref="11010956019"/>
    <tag k="building" v="yes"/>
    <tag k="name" v="Temple Gardens"/>
    <tag k="wikidata" v="Q26317787"/>
  </way>
  <way id="473470073" version="2" timestamp="2025-04-08T12:15:41Z" changeset="164676892" uid="705850" user="Cebderby">
    <nd ref="4675822127"/>
    <nd ref="4675822125"/>
    <nd ref="4675822103"/>
    <nd ref="4675822124"/>
    <nd ref="4675822126"/>
    <nd ref="4675822104"/>
    <nd ref="4675822127"/>
    <tag k="addr:housenumber" v="4"/>
    <tag k="addr:street" v="King's Bench Walk"/>
    <tag k="building" v="commercial"/>
    <tag k="building:colour" v="brown"/>
    <tag k="building:levels" v="5"/>
    <tag k="building:material" v="brick"/>
  </way>
  <way id="473470076" version="2" timestamp="2025-04-08T12:15:41Z" changeset="164676892" uid="705850" user="Cebderby">
    <nd ref="4675822129"/>
    <nd ref="4675822127"/>
    <nd ref="4675822104"/>
    <nd ref="4675822126"/>
    <nd ref="4675822130"/>
    <nd ref="4675822105"/>
    <nd ref="4675822129"/>
    <tag k="addr:housenumber" v="5"/>
    <tag k="addr:street" v="King's Bench Walk"/>
    <tag k="building" v="commercial"/>
    <tag k="building:colour" v="brown"/>
    <tag k="building:levels" v="5"/>
    <tag k="building:material" v="brick"/>
  </way>
  <way id="473470079" version="2" timestamp="2025-04-08T12:15:41Z" changeset="164676892" uid="705850" user="Cebderby">
    <nd ref="4675822131"/>
    <nd ref="4675822130"/>
    <nd ref="4675822105"/>
    <nd ref="4675822129"/>
    <nd ref="4675822107"/>
    <nd ref="4675822121"/>
    <nd ref="4675822120"/>
    <nd ref="4675822128"/>
    <nd ref="4675822131"/>
    <tag k="addr:housenumber" v="6"/>
    <tag k="addr:street" v="King's Bench Walk"/>
    <tag k="building" v="commercial"/>
    <tag k="building:colour" v="brown"/>
    <tag k="building:levels" v="5"/>
    <tag k="building:material" v="brick"/>
  </way>

</osm>
